{"type":"FeatureCollection","features":[{"type":"Feature","geometry":{"type":"Point","coordinates":[-106.83031,46.7442]},"properties":{"api":"2508705424","name":"3","op":"Stellar Oil & Gas Co.","co":"Rosebud","st":"MT","trs":"T12N R39E S33","fm":null,"eur":null,"perft":null,"sound":false,"fit":"none","geur":null,"gfit":"none"}},{"type":"Feature","geometry":{"type":"Point","coordinates":[-106.85722,46.74932]},"properties":{"api":"2508705425","name":"PORCUPINE     4","op":"Phillips Petroleum Company","co":"Rosebud","st":"MT","trs":"T12N R39E S31","fm":null,"eur":null,"perft":null,"sound":false,"fit":"none","geur":null,"gfit":"none"}},{"type":"Feature","geometry":{"type":"Point","coordinates":[-106.81513,46.77474]},"properties":{"api":"2508705438","name":"NP-NORDQUIST  2","op":"Batts, John","co":"Rosebud","st":"MT","trs":"T12N R39E S21","fm":null,"eur":null,"perft":null,"sound":false,"fit":"none","geur":null,"gfit":"none"}},{"type":"Feature","geometry":{"type":"Point","coordinates":[-106.81515,46.81461]},"properties":{"api":"2508705444","name":"NP-Nordquist  3","op":"Batts, John","co":"Rosebud","st":"MT","trs":"T12N R39E S9","fm":null,"eur":null,"perft":null,"sound":false,"fit":"none","geur":null,"gfit":"none"}},{"type":"Feature","geometry":{"type":"Point","coordinates":[-106.78348,46.78921]},"properties":{"api":"2508721131","name":"HUNT RANCH 1-14","op":"Mesa Operating Limited Partnership","co":"Rosebud","st":"MT","trs":"T12N R39E S14","fm":null,"eur":null,"perft":null,"sound":false,"fit":"none","geur":null,"gfit":"none"}}]}