{"type":"FeatureCollection","features":[{"type":"Feature","geometry":{"type":"Point","coordinates":[-105.75744,45.8222]},"properties":{"api":"2501705006","name":"GREEN 1","op":"El Paso Natural Gas Company","co":"Custer","st":"MT","trs":"T1N R48E S21","fm":null,"eur":null,"perft":null,"sound":false,"fit":"none","geur":null,"gfit":"none"}},{"type":"Feature","geometry":{"type":"Point","coordinates":[-105.73119,45.79311]},"properties":{"api":"2501706011","name":"M.C. SIMPSON 1","op":"Gulf Oil Corporation","co":"Custer","st":"MT","trs":"T1N R48E S35","fm":null,"eur":null,"perft":null,"sound":false,"fit":"none","geur":null,"gfit":"none"}},{"type":"Feature","geometry":{"type":"Point","coordinates":[-105.79373,45.79661]},"properties":{"api":"2501721116","name":"LONE TREE CRK 1","op":"Gas Producing Enterprises","co":"Custer","st":"MT","trs":"T1N R48E S32","fm":null,"eur":null,"perft":null,"sound":false,"fit":"none","geur":null,"gfit":"none"}}]}