{"type":"FeatureCollection","features":[{"type":"Feature","geometry":{"type":"Point","coordinates":[-106.48028,45.81939]},"properties":{"api":"2508721029","name":"N.P. 2","op":"Wolf Exploration","co":"Rosebud","st":"MT","trs":"T1N R42E S23","fm":null,"eur":null,"perft":null,"sound":false,"fit":"none","geur":null,"gfit":"none"}},{"type":"Feature","geometry":{"type":"Point","coordinates":[-106.5291,45.87288]},"properties":{"api":"2508721175","name":"BN 41-5","op":"Burlington Northern Inc.","co":"Rosebud","st":"MT","trs":"T1N R42E S5","fm":null,"eur":null,"perft":null,"sound":false,"fit":"none","geur":null,"gfit":"none"}}]}