{"type":"FeatureCollection","features":[{"type":"Feature","geometry":{"type":"Point","coordinates":[-104.12185,45.87649]},"properties":{"api":"2501105086","name":"Wollesen  32-3","op":"Shell Oil Company","co":"Carter","st":"MT","trs":"T1N R61E S3","fm":null,"eur":null,"perft":null,"sound":false,"fit":"none","geur":null,"gfit":"none"}},{"type":"Feature","geometry":{"type":"Point","coordinates":[-104.10625,45.8403]},"properties":{"api":"2501121091","name":"Federal  1","op":"Hodges, A.J. Industries, Inc.","co":"Carter","st":"MT","trs":"T1N R61E S14","fm":null,"eur":null,"perft":null,"sound":false,"fit":"none","geur":null,"gfit":"none"}},{"type":"Feature","geometry":{"type":"Point","coordinates":[-104.09072,45.82221]},"properties":{"api":"2501121343","name":"Johnson  25-1","op":"Armstrong Operating, Inc.","co":"Carter","st":"MT","trs":"T1N R61E S25","fm":null,"eur":null,"perft":null,"sound":false,"fit":"none","geur":null,"gfit":"none"}}]}