{"type":"FeatureCollection","features":[{"type":"Feature","geometry":{"type":"Point","coordinates":[-107.87699,45.73432]},"properties":{"api":"2500305158","name":"Crosby  1","op":"Couch Drilling","co":"Big Horn","st":"MT","trs":"T1S R31E S22","fm":null,"eur":null,"perft":null,"sound":false,"fit":"none","geur":null,"gfit":"none"}},{"type":"Feature","geometry":{"type":"Point","coordinates":[-107.88989,45.73975]},"properties":{"api":"2500305168","name":"Crosby  2","op":"Crosby, Dr.","co":"Big Horn","st":"MT","trs":"T1S R31E S16","fm":null,"eur":null,"perft":null,"sound":false,"fit":"none","geur":null,"gfit":"none"}},{"type":"Feature","geometry":{"type":"Point","coordinates":[-107.88594,45.74254]},"properties":{"api":"2500305170","name":"Crosby  1","op":"Crosby, Dr.","co":"Big Horn","st":"MT","trs":"T1S R31E S16","fm":null,"eur":null,"perft":null,"sound":false,"fit":"none","geur":null,"gfit":"none"}},{"type":"Feature","geometry":{"type":"Point","coordinates":[-107.91334,45.77794]},"properties":{"api":"2500305196","name":"Ellington  1","op":"Allen Oil Co.","co":"Big Horn","st":"MT","trs":"T1S R31E S5","fm":null,"eur":null,"perft":null,"sound":false,"fit":"none","geur":null,"gfit":"none"}},{"type":"Feature","geometry":{"type":"Point","coordinates":[-107.84718,45.70439]},"properties":{"api":"2500321101","name":"Torske Farms  14-35","op":"Mon-Dak Utilities Co. & Fidelity Gas Co.","co":"Big Horn","st":"MT","trs":"T1S R31E S35","fm":null,"eur":null,"perft":null,"sound":false,"fit":"none","geur":null,"gfit":"none"}},{"type":"Feature","geometry":{"type":"Point","coordinates":[-107.93141,45.74695]},"properties":{"api":"2500321167","name":"Greytak  18-1","op":"Patriot Farms","co":"Big Horn","st":"MT","trs":"T1S R31E S18","fm":null,"eur":null,"perft":null,"sound":false,"fit":"none","geur":null,"gfit":"none"}},{"type":"Feature","geometry":{"type":"Point","coordinates":[-107.84586,45.73071]},"properties":{"api":"2500321187","name":"1st Continental Corporation  23-1","op":"Penwell, Lewis F.","co":"Big Horn","st":"MT","trs":"T1S R31E S23","fm":null,"eur":null,"perft":null,"sound":false,"fit":"none","geur":null,"gfit":"none"}},{"type":"Feature","geometry":{"type":"Point","coordinates":[-107.86053,45.75252]},"properties":{"api":"2500321188","name":"1st Continental Corporation  11-2","op":"Penwell, Lewis F.","co":"Big Horn","st":"MT","trs":"T1S R31E S11","fm":null,"eur":null,"perft":null,"sound":false,"fit":"none","geur":null,"gfit":"none"}},{"type":"Feature","geometry":{"type":"Point","coordinates":[-107.84611,45.75259]},"properties":{"api":"2500321189","name":"Ottun  11-1","op":"Penwell, Lewis F.","co":"Big Horn","st":"MT","trs":"T1S R31E S11","fm":null,"eur":null,"perft":null,"sound":false,"fit":"none","geur":null,"gfit":"none"}},{"type":"Feature","geometry":{"type":"Point","coordinates":[-107.83674,45.76001]},"properties":{"api":"2500321194","name":"Ottun  12-2","op":"Penwell, Lewis F.","co":"Big Horn","st":"MT","trs":"T1S R31E S12","fm":null,"eur":null,"perft":null,"sound":false,"fit":"none","geur":null,"gfit":"none"}},{"type":"Feature","geometry":{"type":"Point","coordinates":[-107.90886,45.7384]},"properties":{"api":"2500321195","name":"Dringman  17-1","op":"Penwell, Lewis F.","co":"Big Horn","st":"MT","trs":"T1S R31E S17","fm":null,"eur":null,"perft":null,"sound":false,"fit":"none","geur":null,"gfit":"none"}},{"type":"Feature","geometry":{"type":"Point","coordinates":[-107.87049,45.73342]},"properties":{"api":"2500321612","name":"O.S. Dringman  5-22","op":"Highline Exploration, Inc.","co":"Big Horn","st":"MT","trs":"T1S R31E S22","fm":null,"eur":null,"perft":null,"sound":false,"fit":"none","geur":null,"gfit":"none"}},{"type":"Feature","geometry":{"type":"Point","coordinates":[-107.8576,45.69528]},"properties":{"api":"2500321613","name":"R.C. Christensen  4-35","op":"Highline Exploration, Inc.","co":"Big Horn","st":"MT","trs":"T1S R31E S35","fm":null,"eur":null,"perft":null,"sound":false,"fit":"none","geur":null,"gfit":"none"}},{"type":"Feature","geometry":{"type":"Point","coordinates":[-107.83566,45.76329]},"properties":{"api":"2500321632","name":"R. Pratt  7-12","op":"Highline Exploration, Inc.","co":"Big Horn","st":"MT","trs":"T1S R31E S12","fm":null,"eur":null,"perft":null,"sound":false,"fit":"none","geur":null,"gfit":"none"}},{"type":"Feature","geometry":{"type":"Point","coordinates":[-107.88212,45.72422]},"properties":{"api":"2500321633","name":"O.S. Dringman  8-22","op":"Highline Exploration, Inc.","co":"Big Horn","st":"MT","trs":"T1S R31E S22","fm":null,"eur":null,"perft":null,"sound":false,"fit":"none","geur":null,"gfit":"none"}},{"type":"Feature","geometry":{"type":"Point","coordinates":[-107.90283,45.70495]},"properties":{"api":"2500321634","name":"J.L. Gough  9-33","op":"Highline Exploration, Inc.","co":"Big Horn","st":"MT","trs":"T1S R31E S33","fm":null,"eur":null,"perft":null,"sound":false,"fit":"none","geur":null,"gfit":"none"}},{"type":"Feature","geometry":{"type":"Point","coordinates":[-107.88214,45.72669]},"properties":{"api":"2500321636","name":"O.S. Dringman  10-22","op":"Highline Exploration, Inc.","co":"Big Horn","st":"MT","trs":"T1S R31E S22","fm":null,"eur":null,"perft":null,"sound":false,"fit":"none","geur":null,"gfit":"none"}},{"type":"Feature","geometry":{"type":"Point","coordinates":[-107.82639,45.75341]},"properties":{"api":"2500322730","name":"L. Davenport  25-12","op":"Highline Exploration, Inc.","co":"Big Horn","st":"MT","trs":"T1S R31E S12","fm":null,"eur":null,"perft":null,"sound":false,"fit":"none","geur":24882,"gfit":"sound"}},{"type":"Feature","geometry":{"type":"Point","coordinates":[-107.83679,45.7534]},"properties":{"api":"2500322731","name":"L. Davenport  26-12","op":"Highline Exploration, Inc.","co":"Big Horn","st":"MT","trs":"T1S R31E S12","fm":null,"eur":null,"perft":null,"sound":false,"fit":"none","geur":21892,"gfit":"sound"}},{"type":"Feature","geometry":{"type":"Point","coordinates":[-107.82639,45.76069]},"properties":{"api":"2500322752","name":"L.B. Slater  19-12","op":"Highline Exploration, Inc.","co":"Big Horn","st":"MT","trs":"T1S R31E S12","fm":null,"eur":null,"perft":null,"sound":false,"fit":"none","geur":1150,"gfit":"sound"}},{"type":"Feature","geometry":{"type":"Point","coordinates":[-107.83681,45.76068]},"properties":{"api":"2500322753","name":"M. Lemaich  20-12","op":"Highline Exploration, Inc.","co":"Big Horn","st":"MT","trs":"T1S R31E S12","fm":null,"eur":null,"perft":null,"sound":false,"fit":"none","geur":4789,"gfit":"sound"}},{"type":"Feature","geometry":{"type":"Point","coordinates":[-107.83684,45.76773]},"properties":{"api":"2500322842","name":"Ottun  40-1","op":"Highline Exploration, Inc.","co":"Big Horn","st":"MT","trs":"T1S R31E S1","fm":null,"eur":null,"perft":null,"sound":false,"fit":"none","geur":null,"gfit":"none"}},{"type":"Feature","geometry":{"type":"Point","coordinates":[-107.84708,45.76808]},"properties":{"api":"2500322843","name":"Schultz  41-2","op":"Highline Exploration, Inc.","co":"Big Horn","st":"MT","trs":"T1S R31E S2","fm":null,"eur":null,"perft":null,"sound":false,"fit":"none","geur":null,"gfit":"none"}},{"type":"Feature","geometry":{"type":"Point","coordinates":[-107.84718,45.76068]},"properties":{"api":"2500322844","name":"Schultz  43-11","op":"Highline Exploration, Inc.","co":"Big Horn","st":"MT","trs":"T1S R31E S11","fm":null,"eur":null,"perft":null,"sound":false,"fit":"none","geur":8195,"gfit":"sound"}},{"type":"Feature","geometry":{"type":"Point","coordinates":[-107.84716,45.75338]},"properties":{"api":"2500322845","name":"Schultz  45-11","op":"Highline Exploration, Inc.","co":"Big Horn","st":"MT","trs":"T1S R31E S11","fm":null,"eur":null,"perft":null,"sound":false,"fit":"none","geur":null,"gfit":"refused"}},{"type":"Feature","geometry":{"type":"Point","coordinates":[-107.83551,45.74887]},"properties":{"api":"2500322846","name":"Dringman  46-13","op":"Highline Exploration, Inc.","co":"Big Horn","st":"MT","trs":"T1S R31E S13","fm":null,"eur":null,"perft":null,"sound":false,"fit":"none","geur":15326,"gfit":"sound"}},{"type":"Feature","geometry":{"type":"Point","coordinates":[-107.82638,45.74868]},"properties":{"api":"2500322847","name":"Dringman  47-13","op":"Highline Exploration, Inc.","co":"Big Horn","st":"MT","trs":"T1S R31E S13","fm":null,"eur":null,"perft":null,"sound":false,"fit":"none","geur":null,"gfit":"refused"}},{"type":"Feature","geometry":{"type":"Point","coordinates":[-107.85105,45.7561]},"properties":{"api":"2500322904","name":"Schultz  57-11","op":"Highline Exploration, Inc.","co":"Big Horn","st":"MT","trs":"T1S R31E S11","fm":null,"eur":null,"perft":null,"sound":false,"fit":"none","geur":null,"gfit":"refused"}},{"type":"Feature","geometry":{"type":"Point","coordinates":[-107.84588,45.7561]},"properties":{"api":"2500322905","name":"Schultz  58-11","op":"Highline Exploration, Inc.","co":"Big Horn","st":"MT","trs":"T1S R31E S11","fm":null,"eur":null,"perft":null,"sound":false,"fit":"none","geur":null,"gfit":"refused"}},{"type":"Feature","geometry":{"type":"Point","coordinates":[-107.85105,45.75338]},"properties":{"api":"2500322906","name":"Schultz  69-11","op":"Highline Exploration, Inc.","co":"Big Horn","st":"MT","trs":"T1S R31E S11","fm":null,"eur":null,"perft":null,"sound":false,"fit":"none","geur":null,"gfit":"refused"}},{"type":"Feature","geometry":{"type":"Point","coordinates":[-107.83554,45.75611]},"properties":{"api":"2500322907","name":"L. Davenport  60-12","op":"Highline Exploration, Inc.","co":"Big Horn","st":"MT","trs":"T1S R31E S12","fm":null,"eur":null,"perft":null,"sound":false,"fit":"none","geur":null,"gfit":"refused"}},{"type":"Feature","geometry":{"type":"Point","coordinates":[-107.8303,45.75612]},"properties":{"api":"2500322908","name":"L. Davenport  61-12","op":"Highline Exploration, Inc.","co":"Big Horn","st":"MT","trs":"T1S R31E S12","fm":null,"eur":null,"perft":null,"sound":false,"fit":"none","geur":null,"gfit":"refused"}},{"type":"Feature","geometry":{"type":"Point","coordinates":[-107.82512,45.75613]},"properties":{"api":"2500322909","name":"L. Davenport  62-12","op":"Highline Exploration, Inc.","co":"Big Horn","st":"MT","trs":"T1S R31E S12","fm":null,"eur":null,"perft":null,"sound":false,"fit":"none","geur":null,"gfit":"refused"}},{"type":"Feature","geometry":{"type":"Point","coordinates":[-107.84042,45.75248]},"properties":{"api":"2500322910","name":"L. Davenport  70-12","op":"Highline Exploration, Inc.","co":"Big Horn","st":"MT","trs":"T1S R31E S12","fm":null,"eur":null,"perft":null,"sound":false,"fit":"none","geur":null,"gfit":"refused"}},{"type":"Feature","geometry":{"type":"Point","coordinates":[-107.83028,45.7525]},"properties":{"api":"2500322911","name":"L. Davenport  71-12","op":"Highline Exploration, Inc.","co":"Big Horn","st":"MT","trs":"T1S R31E S12","fm":null,"eur":null,"perft":null,"sound":false,"fit":"none","geur":null,"gfit":"refused"}},{"type":"Feature","geometry":{"type":"Point","coordinates":[-107.84063,45.74875]},"properties":{"api":"2500322912","name":"Dringman  75-13","op":"Highline Exploration, Inc.","co":"Big Horn","st":"MT","trs":"T1S R31E S13","fm":null,"eur":null,"perft":null,"sound":false,"fit":"none","geur":null,"gfit":"refused"}},{"type":"Feature","geometry":{"type":"Point","coordinates":[-107.83025,45.74888]},"properties":{"api":"2500322913","name":"Dringman  76-13","op":"Highline Exploration, Inc.","co":"Big Horn","st":"MT","trs":"T1S R31E S13","fm":null,"eur":null,"perft":null,"sound":false,"fit":"none","geur":null,"gfit":"refused"}},{"type":"Feature","geometry":{"type":"Point","coordinates":[-107.8407,45.7561]},"properties":{"api":"2500322914","name":"L. Davenport  59-12","op":"Highline Exploration, Inc.","co":"Big Horn","st":"MT","trs":"T1S R31E S12","fm":null,"eur":null,"perft":null,"sound":false,"fit":"none","geur":null,"gfit":"refused"}},{"type":"Feature","geometry":{"type":"Point","coordinates":[-107.85106,45.76339]},"properties":{"api":"2500322928","name":"Rita Pratt  131-11","op":"Highline Exploration, Inc.","co":"Big Horn","st":"MT","trs":"T1S R31E S11","fm":null,"eur":null,"perft":null,"sound":false,"fit":"none","geur":null,"gfit":"refused"}},{"type":"Feature","geometry":{"type":"Point","coordinates":[-107.84589,45.7634]},"properties":{"api":"2500322929","name":"Rita Pratt  132-11","op":"Highline Exploration, Inc.","co":"Big Horn","st":"MT","trs":"T1S R31E S11","fm":null,"eur":null,"perft":null,"sound":false,"fit":"none","geur":null,"gfit":"refused"}},{"type":"Feature","geometry":{"type":"Point","coordinates":[-107.85105,45.75977]},"properties":{"api":"2500322930","name":"Rita Pratt  133-11","op":"Highline Exploration, Inc.","co":"Big Horn","st":"MT","trs":"T1S R31E S11","fm":null,"eur":null,"perft":null,"sound":false,"fit":"none","geur":null,"gfit":"refused"}}]}