{"type":"FeatureCollection","features":[{"type":"Feature","geometry":{"type":"Point","coordinates":[-107.72661,45.72709]},"properties":{"api":"2500305145","name":"Corkins  6","op":"Snyder, Marcus","co":"Big Horn","st":"MT","trs":"T1S R32E S23","fm":null,"eur":null,"perft":null,"sound":false,"fit":"none","geur":null,"gfit":"none"}},{"type":"Feature","geometry":{"type":"Point","coordinates":[-107.70586,45.72706]},"properties":{"api":"2500305146","name":"Buzzetti Corkins  1","op":"Snyder, Marcus","co":"Big Horn","st":"MT","trs":"T1S R32E S24","fm":null,"eur":null,"perft":null,"sound":false,"fit":"none","geur":null,"gfit":"none"}},{"type":"Feature","geometry":{"type":"Point","coordinates":[-107.73049,45.72984]},"properties":{"api":"2500305149","name":"Snyder-Reed  1","op":"Crowe, H.I.","co":"Big Horn","st":"MT","trs":"T1S R32E S23","fm":null,"eur":null,"perft":null,"sound":false,"fit":"none","geur":null,"gfit":"none"}},{"type":"Feature","geometry":{"type":"Point","coordinates":[-107.76319,45.76387]},"properties":{"api":"2500308014","name":"Kinkaid Water Well  1","op":"Daube Company, The","co":"Big Horn","st":"MT","trs":"T1S R32E S9","fm":null,"eur":null,"perft":null,"sound":false,"fit":"none","geur":null,"gfit":"none"}},{"type":"Feature","geometry":{"type":"Point","coordinates":[-107.73519,45.74404]},"properties":{"api":"2500308015","name":"Lammers  1","op":"Lammers Etal","co":"Big Horn","st":"MT","trs":"T1S R32E S14","fm":null,"eur":null,"perft":null,"sound":false,"fit":"none","geur":null,"gfit":"none"}},{"type":"Feature","geometry":{"type":"Point","coordinates":[-107.77844,45.73801]},"properties":{"api":"2500321061","name":"Kincaid  1","op":"Daube Company, The","co":"Big Horn","st":"MT","trs":"T1S R32E S16","fm":null,"eur":null,"perft":null,"sound":false,"fit":"none","geur":null,"gfit":"none"}},{"type":"Feature","geometry":{"type":"Point","coordinates":[-107.73568,45.71895]},"properties":{"api":"2500321082","name":"Gustafson  1","op":"Rosebud Royalty Company","co":"Big Horn","st":"MT","trs":"T1S R32E S26","fm":null,"eur":null,"perft":null,"sound":false,"fit":"none","geur":null,"gfit":"none"}},{"type":"Feature","geometry":{"type":"Point","coordinates":[-107.73428,45.74706]},"properties":{"api":"2500321110","name":"Kincaid  3-14","op":"Highline Exploration, Inc.","co":"Big Horn","st":"MT","trs":"T1S R32E S14","fm":null,"eur":null,"perft":null,"sound":false,"fit":"none","geur":null,"gfit":"none"}},{"type":"Feature","geometry":{"type":"Point","coordinates":[-107.72273,45.72618]},"properties":{"api":"2500321111","name":"Ping  1","op":"Herman, Theodore E. And Herman, Gladys T.","co":"Big Horn","st":"MT","trs":"T1S R32E S23","fm":null,"eur":null,"perft":null,"sound":false,"fit":"none","geur":null,"gfit":"none"}},{"type":"Feature","geometry":{"type":"Point","coordinates":[-107.77582,45.75432]},"properties":{"api":"2500321168","name":"Kincaid  9-1","op":"Wiggs, Guy","co":"Big Horn","st":"MT","trs":"T1S R32E S9","fm":null,"eur":null,"perft":null,"sound":false,"fit":"none","geur":null,"gfit":"none"}},{"type":"Feature","geometry":{"type":"Point","coordinates":[-107.77587,45.73981]},"properties":{"api":"2500321169","name":"Kincaid  16-1","op":"Highline Exploration, Inc.","co":"Big Horn","st":"MT","trs":"T1S R32E S16","fm":null,"eur":null,"perft":null,"sound":false,"fit":"none","geur":null,"gfit":"none"}},{"type":"Feature","geometry":{"type":"Point","coordinates":[-107.74471,45.73256]},"properties":{"api":"2500321170","name":"Herman  22-1","op":"Herman, Theodore E. And Herman, Gladys T.","co":"Big Horn","st":"MT","trs":"T1S R32E S22","fm":null,"eur":null,"perft":null,"sound":false,"fit":"none","geur":null,"gfit":"none"}},{"type":"Feature","geometry":{"type":"Point","coordinates":[-107.75508,45.73981]},"properties":{"api":"2500321171","name":"Kincaid  15-1","op":"Wiggs, Guy","co":"Big Horn","st":"MT","trs":"T1S R32E S15","fm":null,"eur":null,"perft":null,"sound":false,"fit":"none","geur":null,"gfit":"none"}},{"type":"Feature","geometry":{"type":"Point","coordinates":[-107.71368,45.72527]},"properties":{"api":"2500321172","name":"Herman  24-1","op":"Herman, Theodore E. And Herman, Gladys T.","co":"Big Horn","st":"MT","trs":"T1S R32E S24","fm":null,"eur":null,"perft":null,"sound":false,"fit":"none","geur":null,"gfit":"none"}},{"type":"Feature","geometry":{"type":"Point","coordinates":[-107.7343,45.7543]},"properties":{"api":"2500321174","name":"Kincaid  11-1","op":"Highline Exploration, Inc.","co":"Big Horn","st":"MT","trs":"T1S R32E S11","fm":null,"eur":null,"perft":null,"sound":false,"fit":"none","geur":2734,"gfit":"sound"}},{"type":"Feature","geometry":{"type":"Point","coordinates":[-107.80839,45.7529]},"properties":{"api":"2500321196","name":"Kincaid  7-1","op":"Penwell, Lewis F.","co":"Big Horn","st":"MT","trs":"T1S R32E S7","fm":null,"eur":null,"perft":null,"sound":false,"fit":"none","geur":null,"gfit":"none"}},{"type":"Feature","geometry":{"type":"Point","coordinates":[-107.78882,45.70447]},"properties":{"api":"2500321614","name":"Rasmussen Trust  3-32","op":"Highline Exploration, Inc.","co":"Big Horn","st":"MT","trs":"T1S R32E S32","fm":null,"eur":null,"perft":null,"sound":false,"fit":"none","geur":null,"gfit":"none"}},{"type":"Feature","geometry":{"type":"Point","coordinates":[-107.7229,45.69536]},"properties":{"api":"2500321615","name":"Christensen Land  2-35","op":"Highline Exploration, Inc.","co":"Big Horn","st":"MT","trs":"T1S R32E S35","fm":null,"eur":null,"perft":null,"sound":false,"fit":"none","geur":null,"gfit":"none"}},{"type":"Feature","geometry":{"type":"Point","coordinates":[-107.72138,45.75308]},"properties":{"api":"2500321624","name":"Kincaid  44-11","op":"Highline Exploration, Inc.","co":"Big Horn","st":"MT","trs":"T1S R32E S11","fm":null,"eur":null,"perft":null,"sound":false,"fit":"none","geur":84,"gfit":"sound"}},{"type":"Feature","geometry":{"type":"Point","coordinates":[-107.72131,45.75975]},"properties":{"api":"2500321627","name":"Kincaid  42-11","op":"Highline Exploration, Inc.","co":"Big Horn","st":"MT","trs":"T1S R32E S11","fm":null,"eur":null,"perft":null,"sound":false,"fit":"none","geur":null,"gfit":"refused"}},{"type":"Feature","geometry":{"type":"Point","coordinates":[-107.72543,45.70443]},"properties":{"api":"2500321639","name":"Christensen  18-35","op":"Highline Exploration, Inc.","co":"Big Horn","st":"MT","trs":"T1S R32E S35","fm":null,"eur":null,"perft":null,"sound":false,"fit":"none","geur":null,"gfit":"none"}},{"type":"Feature","geometry":{"type":"Point","coordinates":[-107.72663,45.71985]},"properties":{"api":"2500321641","name":"Torske Land  20-26","op":"Highline Exploration, Inc.","co":"Big Horn","st":"MT","trs":"T1S R32E S26","fm":null,"eur":null,"perft":null,"sound":false,"fit":"none","geur":null,"gfit":"none"}},{"type":"Feature","geometry":{"type":"Point","coordinates":[-107.76412,45.75341]},"properties":{"api":"2500322571","name":"Buzzetti-Corkins Trust  4-9","op":"Highline Exploration, Inc.","co":"Big Horn","st":"MT","trs":"T1S R32E S9","fm":null,"eur":null,"perft":null,"sound":false,"fit":"none","geur":12121,"gfit":"sound"}},{"type":"Feature","geometry":{"type":"Point","coordinates":[-107.74338,45.75276]},"properties":{"api":"2500322572","name":"Big Horn Holding, Inc.  2-10","op":"Highline Exploration, Inc.","co":"Big Horn","st":"MT","trs":"T1S R32E S10","fm":null,"eur":null,"perft":null,"sound":false,"fit":"none","geur":12797,"gfit":"sound"}},{"type":"Feature","geometry":{"type":"Point","coordinates":[-107.7537,45.75316]},"properties":{"api":"2500322573","name":"Buzzetti-Corkins Trust  3-10","op":"Highline Exploration, Inc.","co":"Big Horn","st":"MT","trs":"T1S R32E S10","fm":null,"eur":null,"perft":null,"sound":false,"fit":"none","geur":7635,"gfit":"sound"}},{"type":"Feature","geometry":{"type":"Point","coordinates":[-107.71266,45.75324]},"properties":{"api":"2500322574","name":"Bullard Trust  1-12","op":"Highline Exploration, Inc.","co":"Big Horn","st":"MT","trs":"T1S R32E S12","fm":null,"eur":null,"perft":null,"sound":false,"fit":"none","geur":null,"gfit":"refused"}},{"type":"Feature","geometry":{"type":"Point","coordinates":[-107.77335,45.75426]},"properties":{"api":"2500322644","name":"Buzzetti-Corkins Trust  5-9","op":"Highline Exploration, Inc.","co":"Big Horn","st":"MT","trs":"T1S R32E S9","fm":null,"eur":null,"perft":null,"sound":false,"fit":"none","geur":5004,"gfit":"sound"}},{"type":"Feature","geometry":{"type":"Point","coordinates":[-107.81598,45.75342]},"properties":{"api":"2500322691","name":"Buzzetti-Corkins Trust  24-7","op":"Highline Exploration, Inc.","co":"Big Horn","st":"MT","trs":"T1S R32E S7","fm":null,"eur":null,"perft":null,"sound":false,"fit":"none","geur":15616,"gfit":"sound"}},{"type":"Feature","geometry":{"type":"Point","coordinates":[-107.78486,45.76067]},"properties":{"api":"2500322692","name":"Buzzetti-Corkins Trust  15-8","op":"Highline Exploration, Inc.","co":"Big Horn","st":"MT","trs":"T1S R32E S8","fm":null,"eur":null,"perft":null,"sound":false,"fit":"none","geur":4441,"gfit":"sound"}},{"type":"Feature","geometry":{"type":"Point","coordinates":[-107.79525,45.75343]},"properties":{"api":"2500322693","name":"Buzzetti-Corkins Trust  22-8","op":"Highline Exploration, Inc.","co":"Big Horn","st":"MT","trs":"T1S R32E S8","fm":null,"eur":null,"perft":null,"sound":false,"fit":"none","geur":11372,"gfit":"sound"}},{"type":"Feature","geometry":{"type":"Point","coordinates":[-107.77449,45.76066]},"properties":{"api":"2500322694","name":"Buzzetti-Corkins Trust  12-9","op":"Highline Exploration, Inc.","co":"Big Horn","st":"MT","trs":"T1S R32E S9","fm":null,"eur":null,"perft":null,"sound":false,"fit":"none","geur":4159,"gfit":"sound"}},{"type":"Feature","geometry":{"type":"Point","coordinates":[-107.80562,45.75333]},"properties":{"api":"2500322695","name":"Buzzetti-Corkins Trust  23-7","op":"Highline Exploration, Inc.","co":"Big Horn","st":"MT","trs":"T1S R32E S7","fm":null,"eur":null,"perft":null,"sound":false,"fit":"none","geur":15596,"gfit":"sound"}},{"type":"Feature","geometry":{"type":"Point","coordinates":[-107.76403,45.76064]},"properties":{"api":"2500322696","name":"Buzzetti-Corkins Trust  10-9","op":"Highline Exploration, Inc.","co":"Big Horn","st":"MT","trs":"T1S R32E S9","fm":null,"eur":null,"perft":null,"sound":false,"fit":"none","geur":5058,"gfit":"sound"}},{"type":"Feature","geometry":{"type":"Point","coordinates":[-107.78488,45.75342]},"properties":{"api":"2500322697","name":"Buzzetti-Corkins Trust  21-8","op":"Highline Exploration, Inc.","co":"Big Horn","st":"MT","trs":"T1S R32E S8","fm":null,"eur":null,"perft":null,"sound":false,"fit":"none","geur":12600,"gfit":"sound"}},{"type":"Feature","geometry":{"type":"Point","coordinates":[-107.79524,45.76068]},"properties":{"api":"2500322698","name":"Buzzetti-Corkins Trust  16-8","op":"Highline Exploration, Inc.","co":"Big Horn","st":"MT","trs":"T1S R32E S8","fm":null,"eur":null,"perft":null,"sound":false,"fit":"none","geur":7720,"gfit":"sound"}},{"type":"Feature","geometry":{"type":"Point","coordinates":[-107.76408,45.7679]},"properties":{"api":"2500322715","name":"Harkis  13-4","op":"Highline Exploration, Inc.","co":"Big Horn","st":"MT","trs":"T1S R32E S4","fm":null,"eur":null,"perft":null,"sound":false,"fit":"none","geur":928,"gfit":"sound"}},{"type":"Feature","geometry":{"type":"Point","coordinates":[-107.77446,45.7679]},"properties":{"api":"2500322716","name":"Harkis  14-4","op":"Highline Exploration, Inc.","co":"Big Horn","st":"MT","trs":"T1S R32E S4","fm":null,"eur":null,"perft":null,"sound":false,"fit":"none","geur":null,"gfit":"refused"}},{"type":"Feature","geometry":{"type":"Point","coordinates":[-107.80561,45.76069]},"properties":{"api":"2500322717","name":"Buzzetti-Corkins Trust  17-7","op":"Highline Exploration, Inc.","co":"Big Horn","st":"MT","trs":"T1S R32E S7","fm":null,"eur":null,"perft":null,"sound":false,"fit":"none","geur":2292,"gfit":"sound"}},{"type":"Feature","geometry":{"type":"Point","coordinates":[-107.81599,45.76069]},"properties":{"api":"2500322718","name":"Buzzetti-Corkins Trust  18-7","op":"Highline Exploration, Inc.","co":"Big Horn","st":"MT","trs":"T1S R32E S7","fm":null,"eur":null,"perft":null,"sound":false,"fit":"none","geur":null,"gfit":"refused"}},{"type":"Feature","geometry":{"type":"Point","coordinates":[-107.73297,45.76065]},"properties":{"api":"2500322719","name":"Harkis  7-11","op":"Highline Exploration, Inc.","co":"Big Horn","st":"MT","trs":"T1S R32E S11","fm":null,"eur":null,"perft":null,"sound":false,"fit":"none","geur":null,"gfit":"refused"}},{"type":"Feature","geometry":{"type":"Point","coordinates":[-107.71611,45.76336]},"properties":{"api":"2500322720","name":"Harkis  6-12","op":"Highline Exploration, Inc.","co":"Big Horn","st":"MT","trs":"T1S R32E S12","fm":null,"eur":null,"perft":null,"sound":false,"fit":"none","geur":null,"gfit":"refused"}},{"type":"Feature","geometry":{"type":"Point","coordinates":[-107.72264,45.74613]},"properties":{"api":"2500322721","name":"R. Lipp  27-14","op":"Highline Exploration, Inc.","co":"Big Horn","st":"MT","trs":"T1S R32E S14","fm":null,"eur":null,"perft":null,"sound":false,"fit":"none","geur":10585,"gfit":"sound"}},{"type":"Feature","geometry":{"type":"Point","coordinates":[-107.73301,45.74614]},"properties":{"api":"2500322722","name":"Harkis  28-14","op":"Highline Exploration, Inc.","co":"Big Horn","st":"MT","trs":"T1S R32E S14","fm":null,"eur":null,"perft":null,"sound":false,"fit":"none","geur":9788,"gfit":"sound"}},{"type":"Feature","geometry":{"type":"Point","coordinates":[-107.80562,45.74618]},"properties":{"api":"2500322723","name":"G.K. Lee, Jr.  35-18","op":"Highline Exploration, Inc.","co":"Big Horn","st":"MT","trs":"T1S R32E S18","fm":null,"eur":null,"perft":null,"sound":false,"fit":"none","geur":4848,"gfit":"sound"}},{"type":"Feature","geometry":{"type":"Point","coordinates":[-107.81598,45.74617]},"properties":{"api":"2500322724","name":"G.K. Lee, Jr.  36-18","op":"Highline Exploration, Inc.","co":"Big Horn","st":"MT","trs":"T1S R32E S18","fm":null,"eur":null,"perft":null,"sound":false,"fit":"none","geur":5674,"gfit":"sound"}},{"type":"Feature","geometry":{"type":"Point","coordinates":[-107.74338,45.74615]},"properties":{"api":"2500322726","name":"Harkis  29-15","op":"Highline Exploration, Inc.","co":"Big Horn","st":"MT","trs":"T1S R32E S15","fm":null,"eur":null,"perft":null,"sound":false,"fit":"none","geur":5430,"gfit":"sound"}},{"type":"Feature","geometry":{"type":"Point","coordinates":[-107.75374,45.7461]},"properties":{"api":"2500322727","name":"Buzzetti-Corkins Trust  30-15","op":"Highline Exploration, Inc.","co":"Big Horn","st":"MT","trs":"T1S R32E S15","fm":null,"eur":null,"perft":null,"sound":false,"fit":"none","geur":14069,"gfit":"sound"}},{"type":"Feature","geometry":{"type":"Point","coordinates":[-107.76412,45.74615]},"properties":{"api":"2500322728","name":"Buzzetti-Corkins Trust  31-16","op":"Highline Exploration, Inc.","co":"Big Horn","st":"MT","trs":"T1S R32E S16","fm":null,"eur":null,"perft":null,"sound":false,"fit":"none","geur":11973,"gfit":"sound"}},{"type":"Feature","geometry":{"type":"Point","coordinates":[-107.77454,45.74616]},"properties":{"api":"2500322729","name":"Buzzetti-Corkins Trust  32-16","op":"Highline Exploration, Inc.","co":"Big Horn","st":"MT","trs":"T1S R32E S16","fm":null,"eur":null,"perft":null,"sound":false,"fit":"none","geur":15314,"gfit":"sound"}},{"type":"Feature","geometry":{"type":"Point","coordinates":[-107.7537,45.7679]},"properties":{"api":"2500322732","name":"R. A. Burla  37-3","op":"Highline Exploration, Inc.","co":"Big Horn","st":"MT","trs":"T1S R32E S3","fm":null,"eur":null,"perft":null,"sound":false,"fit":"none","geur":null,"gfit":"refused"}},{"type":"Feature","geometry":{"type":"Point","coordinates":[-107.74333,45.76066]},"properties":{"api":"2500322733","name":"Harkis  8-10","op":"Highline Exploration, Inc.","co":"Big Horn","st":"MT","trs":"T1S R32E S10","fm":null,"eur":null,"perft":null,"sound":false,"fit":"none","geur":6187,"gfit":"sound"}},{"type":"Feature","geometry":{"type":"Point","coordinates":[-107.75427,45.76159]},"properties":{"api":"2500322734","name":"J. Snyder  9-10","op":"Highline Exploration, Inc.","co":"Big Horn","st":"MT","trs":"T1S R32E S10","fm":null,"eur":null,"perft":null,"sound":false,"fit":"none","geur":5946,"gfit":"sound"}},{"type":"Feature","geometry":{"type":"Point","coordinates":[-107.78491,45.74617]},"properties":{"api":"2500322750","name":"Blum Trust  33-17","op":"Highline Exploration, Inc.","co":"Big Horn","st":"MT","trs":"T1S R32E S17","fm":null,"eur":null,"perft":null,"sound":false,"fit":"none","geur":17395,"gfit":"sound"}},{"type":"Feature","geometry":{"type":"Point","coordinates":[-107.79525,45.74618]},"properties":{"api":"2500322751","name":"G. Herman  34-17","op":"Highline Exploration, Inc.","co":"Big Horn","st":"MT","trs":"T1S R32E S17","fm":null,"eur":null,"perft":null,"sound":false,"fit":"none","geur":3280,"gfit":"sound"}},{"type":"Feature","geometry":{"type":"Point","coordinates":[-107.71474,45.74605]},"properties":{"api":"2500322848","name":"Bullard Trust  48-13","op":"Highline Exploration, Inc.","co":"Big Horn","st":"MT","trs":"T1S R32E S13","fm":null,"eur":null,"perft":null,"sound":false,"fit":"none","geur":null,"gfit":"refused"}},{"type":"Feature","geometry":{"type":"Point","coordinates":[-107.79526,45.76793]},"properties":{"api":"2500322849","name":"Buzzetti-Corkins Trust  38-5","op":"Highline Exploration, Inc.","co":"Big Horn","st":"MT","trs":"T1S R32E S5","fm":null,"eur":null,"perft":null,"sound":false,"fit":"none","geur":null,"gfit":"refused"}},{"type":"Feature","geometry":{"type":"Point","coordinates":[-107.70431,45.7501]},"properties":{"api":"2500322880","name":"L. Steiger  49-H13","op":"Highline Exploration, Inc.","co":"Big Horn","st":"MT","trs":"T1S R32E S13","fm":null,"eur":null,"perft":null,"sound":false,"fit":"none","geur":null,"gfit":"refused"}},{"type":"Feature","geometry":{"type":"Point","coordinates":[-107.77458,45.73891]},"properties":{"api":"2500322891","name":"Buzzetti-Corkins Trust  52-16","op":"Highline Exploration, Inc.","co":"Big Horn","st":"MT","trs":"T1S R32E S16","fm":null,"eur":null,"perft":null,"sound":false,"fit":"none","geur":null,"gfit":"refused"}},{"type":"Feature","geometry":{"type":"Point","coordinates":[-107.79397,45.74161]},"properties":{"api":"2500322892","name":"Rita Pratt  50-17","op":"Highline Exploration, Inc.","co":"Big Horn","st":"MT","trs":"T1S R32E S17","fm":null,"eur":null,"perft":null,"sound":false,"fit":"none","geur":null,"gfit":"refused"}},{"type":"Feature","geometry":{"type":"Point","coordinates":[-107.78493,45.73959]},"properties":{"api":"2500322893","name":"Rita Pratt  51-17","op":"Highline Exploration, Inc.","co":"Big Horn","st":"MT","trs":"T1S R32E S17","fm":null,"eur":null,"perft":null,"sound":false,"fit":"none","geur":null,"gfit":"refused"}},{"type":"Feature","geometry":{"type":"Point","coordinates":[-107.7534,45.7389]},"properties":{"api":"2500322894","name":"Buzzetti-Corkins Trust  54-15","op":"Highline Exploration, Inc.","co":"Big Horn","st":"MT","trs":"T1S R32E S15","fm":null,"eur":null,"perft":null,"sound":false,"fit":"none","geur":null,"gfit":"refused"}},{"type":"Feature","geometry":{"type":"Point","coordinates":[-107.76414,45.73885]},"properties":{"api":"2500322895","name":"Buzzetti-Corkins Trust  53-16","op":"Highline Exploration, Inc.","co":"Big Horn","st":"MT","trs":"T1S R32E S16","fm":null,"eur":null,"perft":null,"sound":false,"fit":"none","geur":null,"gfit":"refused"}},{"type":"Feature","geometry":{"type":"Point","coordinates":[-107.75767,45.74162]},"properties":{"api":"2500322916","name":"Buzzetti-Corkins Trust  96-15","op":"Highline Exploration, Inc.","co":"Big Horn","st":"MT","trs":"T1S R32E S15","fm":null,"eur":null,"perft":null,"sound":false,"fit":"none","geur":null,"gfit":"refused"}},{"type":"Feature","geometry":{"type":"Point","coordinates":[-107.7525,45.74161]},"properties":{"api":"2500322917","name":"Buzzetti-Corkins Trust  97-15","op":"Highline Exploration, Inc.","co":"Big Horn","st":"MT","trs":"T1S R32E S15","fm":null,"eur":null,"perft":null,"sound":false,"fit":"none","geur":null,"gfit":"refused"}},{"type":"Feature","geometry":{"type":"Point","coordinates":[-107.75767,45.7389]},"properties":{"api":"2500322918","name":"Buzzetti-Corkins Trust  98-15","op":"Highline Exploration, Inc.","co":"Big Horn","st":"MT","trs":"T1S R32E S15","fm":null,"eur":null,"perft":null,"sound":false,"fit":"none","geur":null,"gfit":"refused"}},{"type":"Feature","geometry":{"type":"Point","coordinates":[-107.77846,45.74162]},"properties":{"api":"2500322919","name":"Buzzetti-Corkins Trust  90-16","op":"Highline Exploration, Inc.","co":"Big Horn","st":"MT","trs":"T1S R32E S16","fm":null,"eur":null,"perft":null,"sound":false,"fit":"none","geur":null,"gfit":"refused"}},{"type":"Feature","geometry":{"type":"Point","coordinates":[-107.77329,45.74162]},"properties":{"api":"2500322920","name":"Buzzetti-Corkins Trust  91-16","op":"Highline Exploration, Inc.","co":"Big Horn","st":"MT","trs":"T1S R32E S16","fm":null,"eur":null,"perft":null,"sound":false,"fit":"none","geur":null,"gfit":"refused"}},{"type":"Feature","geometry":{"type":"Point","coordinates":[-107.76801,45.74161]},"properties":{"api":"2500322921","name":"Buzzetti-Corkins Trust  92-16","op":"Highline Exploration, Inc.","co":"Big Horn","st":"MT","trs":"T1S R32E S16","fm":null,"eur":null,"perft":null,"sound":false,"fit":"none","geur":null,"gfit":"refused"}},{"type":"Feature","geometry":{"type":"Point","coordinates":[-107.76284,45.74162]},"properties":{"api":"2500322922","name":"Buzzetti-Corkins Trust  93-16","op":"Highline Exploration, Inc.","co":"Big Horn","st":"MT","trs":"T1S R32E S16","fm":null,"eur":null,"perft":null,"sound":false,"fit":"none","geur":null,"gfit":"refused"}},{"type":"Feature","geometry":{"type":"Point","coordinates":[-107.77847,45.73801]},"properties":{"api":"2500322923","name":"Buzzetti-Corkins Trust  94-16","op":"Highline Exploration, Inc.","co":"Big Horn","st":"MT","trs":"T1S R32E S16","fm":null,"eur":null,"perft":null,"sound":false,"fit":"none","geur":null,"gfit":"refused"}},{"type":"Feature","geometry":{"type":"Point","coordinates":[-107.76802,45.738]},"properties":{"api":"2500322924","name":"Buzzetti-Corkins Trust  95-16","op":"Highline Exploration, Inc.","co":"Big Horn","st":"MT","trs":"T1S R32E S16","fm":null,"eur":null,"perft":null,"sound":false,"fit":"none","geur":null,"gfit":"refused"}},{"type":"Feature","geometry":{"type":"Point","coordinates":[-107.72656,45.73811]},"properties":{"api":"2500322931","name":"Buzzetti-Corkins Trust  103-14","op":"Highline Exploration, Inc.","co":"Big Horn","st":"MT","trs":"T1S R32E S14","fm":null,"eur":null,"perft":null,"sound":false,"fit":"none","geur":null,"gfit":"refused"}},{"type":"Feature","geometry":{"type":"Point","coordinates":[-107.73697,45.72348]},"properties":{"api":"2500322932","name":"Buzzetti-Corkins Trust  125-23","op":"Highline Exploration, Inc.","co":"Big Horn","st":"MT","trs":"T1S R32E S23","fm":null,"eur":null,"perft":null,"sound":false,"fit":"none","geur":null,"gfit":"refused"}},{"type":"Feature","geometry":{"type":"Point","coordinates":[-107.73696,45.73075]},"properties":{"api":"2500322933","name":"Buzzetti-Corkins Trust  113-23","op":"Highline Exploration, Inc.","co":"Big Horn","st":"MT","trs":"T1S R32E S23","fm":null,"eur":null,"perft":null,"sound":false,"fit":"none","geur":null,"gfit":"refused"}},{"type":"Feature","geometry":{"type":"Point","coordinates":[-107.7111,45.72707]},"properties":{"api":"2500322934","name":"Buzzetti-Corkins Trust  123-24","op":"Highline Exploration, Inc.","co":"Big Horn","st":"MT","trs":"T1S R32E S24","fm":null,"eur":null,"perft":null,"sound":false,"fit":"none","geur":null,"gfit":"refused"}},{"type":"Feature","geometry":{"type":"Point","coordinates":[-107.71607,45.73073]},"properties":{"api":"2500322935","name":"Buzzetti-Corkins Trust  117-24","op":"Highline Exploration, Inc.","co":"Big Horn","st":"MT","trs":"T1S R32E S24","fm":null,"eur":null,"perft":null,"sound":false,"fit":"none","geur":null,"gfit":"refused"}},{"type":"Feature","geometry":{"type":"Point","coordinates":[-107.72657,45.73436]},"properties":{"api":"2500322938","name":"Buzzetti-Corkins Trust  108-23","op":"Highline Exploration, Inc.","co":"Big Horn","st":"MT","trs":"T1S R32E S23","fm":null,"eur":null,"perft":null,"sound":false,"fit":"none","geur":null,"gfit":"refused"}},{"type":"Feature","geometry":{"type":"Point","coordinates":[-107.74728,45.73812]},"properties":{"api":"2500322939","name":"Buzzetti-Corkins Trust  99-15","op":"Highline Exploration, Inc.","co":"Big Horn","st":"MT","trs":"T1S R32E S15","fm":null,"eur":null,"perft":null,"sound":false,"fit":"none","geur":null,"gfit":"refused"}},{"type":"Feature","geometry":{"type":"Point","coordinates":[-107.72138,45.73797]},"properties":{"api":"2500322940","name":"Buzzetti-Corkins Trust  104-14","op":"Highline Exploration, Inc.","co":"Big Horn","st":"MT","trs":"T1S R32E S14","fm":null,"eur":null,"perft":null,"sound":false,"fit":"none","geur":null,"gfit":"refused"}},{"type":"Feature","geometry":{"type":"Point","coordinates":[-107.74202,45.767]},"properties":{"api":"2500322941","name":"R.A. Burla  139-3","op":"Highline Exploration, Inc.","co":"Big Horn","st":"MT","trs":"T1S R32E S3","fm":null,"eur":null,"perft":null,"sound":false,"fit":"none","geur":null,"gfit":"refused"}},{"type":"Feature","geometry":{"type":"Point","coordinates":[-107.78354,45.76701]},"properties":{"api":"2500322942","name":"Buzzetti-Corkins Trust  138-5","op":"Highline Exploration, Inc.","co":"Big Horn","st":"MT","trs":"T1S R32E S5","fm":null,"eur":null,"perft":null,"sound":false,"fit":"none","geur":null,"gfit":"refused"}},{"type":"Feature","geometry":{"type":"Point","coordinates":[-107.71621,45.73796]},"properties":{"api":"2500322943","name":"Buzzetti-Corkins Trust  105-13","op":"Highline Exploration, Inc.","co":"Big Horn","st":"MT","trs":"T1S R32E S13","fm":null,"eur":null,"perft":null,"sound":false,"fit":"none","geur":null,"gfit":"refused"}},{"type":"Feature","geometry":{"type":"Point","coordinates":[-107.74211,45.73798]},"properties":{"api":"2500322944","name":"Buzzetti-Corkins Trust  100-15","op":"Highline Exploration, Inc.","co":"Big Horn","st":"MT","trs":"T1S R32E S15","fm":null,"eur":null,"perft":null,"sound":false,"fit":"none","geur":null,"gfit":"refused"}},{"type":"Feature","geometry":{"type":"Point","coordinates":[-107.7266,45.72708]},"properties":{"api":"2500322945","name":"Buzzetti-Corkins Trust  120-23","op":"Highline Exploration, Inc.","co":"Big Horn","st":"MT","trs":"T1S R32E S23","fm":null,"eur":null,"perft":null,"sound":false,"fit":"none","geur":null,"gfit":"refused"}},{"type":"Feature","geometry":{"type":"Point","coordinates":[-107.70611,45.73433]},"properties":{"api":"2500322946","name":"Buzzetti-Corkins Trust  112-24","op":"Highline Exploration, Inc.","co":"Big Horn","st":"MT","trs":"T1S R32E S24","fm":null,"eur":null,"perft":null,"sound":false,"fit":"none","geur":null,"gfit":"none"}},{"type":"Feature","geometry":{"type":"Point","coordinates":[-107.70621,45.73433]},"properties":{"api":"2500322947","name":"Buzzetti-Corkins Trust  140-24","op":"Highline Exploration, Inc.","co":"Big Horn","st":"MT","trs":"T1S R32E S24","fm":null,"eur":null,"perft":null,"sound":false,"fit":"none","geur":null,"gfit":"refused"}},{"type":"Feature","geometry":{"type":"Point","coordinates":[-107.76322,45.74889]},"properties":{"api":"2500360001","name":"Buzetti State  5","op":"Snyder, Marcus","co":"Big Horn","st":"MT","trs":"T1S R32E S16","fm":null,"eur":null,"perft":null,"sound":false,"fit":"none","geur":null,"gfit":"none"}},{"type":"Feature","geometry":{"type":"Point","coordinates":[-107.72403,45.72528]},"properties":{"api":"2500360002","name":"Buzzetti Corkins  2","op":"Snyder, Marcus","co":"Big Horn","st":"MT","trs":"T1S R32E S23","fm":null,"eur":null,"perft":null,"sound":false,"fit":"none","geur":null,"gfit":"none"}},{"type":"Feature","geometry":{"type":"Point","coordinates":[-107.72789,45.72984]},"properties":{"api":"2500360003","name":"Buzzetti Corkins  4","op":"Snyder, Marcus","co":"Big Horn","st":"MT","trs":"T1S R32E S23","fm":null,"eur":null,"perft":null,"sound":false,"fit":"none","geur":null,"gfit":"none"}},{"type":"Feature","geometry":{"type":"Point","coordinates":[-107.71623,45.73434]},"properties":{"api":"2500360005","name":"Buzzetti  3","op":"Snyder, Marcus","co":"Big Horn","st":"MT","trs":"T1S R32E S24","fm":null,"eur":null,"perft":null,"sound":false,"fit":"none","geur":null,"gfit":"none"}},{"type":"Feature","geometry":{"type":"Point","coordinates":[-107.78881,45.709]},"properties":{"api":"2500360006","name":"WARREN        1","op":"Warren & Sons","co":"Big Horn","st":"MT","trs":"T1S R32E S29","fm":null,"eur":null,"perft":null,"sound":false,"fit":"none","geur":null,"gfit":"none"}}]}