{"type":"FeatureCollection","features":[{"type":"Feature","geometry":{"type":"Point","coordinates":[-105.02003,45.94523]},"properties":{"api":"2501721082","name":"NPRR 1-4","op":"Beer O. N. & John R.","co":"Custer","st":"MT","trs":"T2N R54E S9","fm":null,"eur":null,"perft":null,"sound":false,"fit":"none","geur":null,"gfit":"none"}},{"type":"Feature","geometry":{"type":"Point","coordinates":[-104.96271,45.90514]},"properties":{"api":"2501721083","name":"NPRR 1-1","op":"Beer O. N. & John R.","co":"Custer","st":"MT","trs":"T2N R54E S23","fm":null,"eur":null,"perft":null,"sound":false,"fit":"none","geur":null,"gfit":"none"}}]}