{"type":"FeatureCollection","features":[{"type":"Feature","geometry":{"type":"Point","coordinates":[-105.1697,42.9256]},"properties":{"api":"4900928420","name":"FEDERAL 34-69 17-1H","op":"CONTINENTAL RESOURCES INC","co":"Converse","st":"WY","trs":"T34N R69W S17","fm":"NIOBRARA","eur":163895,"perft":30773,"sound":true,"fit":"sound","geur":505270,"gfit":"sound"}},{"type":"Feature","geometry":{"type":"Point","coordinates":[-105.0945,42.8702]},"properties":{"api":"4900928627","name":"WYOMING 36-34-69 ST A 1H","op":"CONTINENTAL RESOURCES INC","co":"Converse","st":"WY","trs":"T34N R69W S36","fm":"NIOBRARA","eur":174102,"perft":46614,"sound":true,"fit":"sound","geur":558004,"gfit":"sound"}},{"type":"Feature","geometry":{"type":"Point","coordinates":[-105.1648,42.9055]},"properties":{"api":"4900928772","name":"LINDEN  20-34-69 B 4H","op":"CONTINENTAL RESOURCES INC","co":"Converse","st":"WY","trs":"T34N R69W S20","fm":"NIOBRARA","eur":null,"perft":null,"sound":false,"fit":"refused","geur":null,"gfit":"refused"}},{"type":"Feature","geometry":{"type":"Point","coordinates":[-105.1891,42.9065]},"properties":{"api":"4900928801","name":"LINDEN UNIT 19-34-69 A 1H","op":"CONTINENTAL RESOURCES INC","co":"Converse","st":"WY","trs":"T34N R69W S19","fm":"NIOBRARA","eur":216197,"perft":39266,"sound":true,"fit":"sound","geur":804499,"gfit":"sound"}},{"type":"Feature","geometry":{"type":"Point","coordinates":[-105.1651,42.9055]},"properties":{"api":"4900929177","name":"LINDEN 20-34-69 B 2H","op":"CONTINENTAL RESOURCES INC","co":"Converse","st":"WY","trs":"T34N R69W S20","fm":"NIOBRARA","eur":null,"perft":null,"sound":false,"fit":"refused","geur":null,"gfit":"refused"}},{"type":"Feature","geometry":{"type":"Point","coordinates":[-105.1646,42.9055]},"properties":{"api":"4900929178","name":"LINDEN 20-34-69 B 6H","op":"CONTINENTAL RESOURCES INC","co":"Converse","st":"WY","trs":"T34N R69W S20","fm":"NIOBRARA","eur":null,"perft":null,"sound":false,"fit":"refused","geur":null,"gfit":"refused"}},{"type":"Feature","geometry":{"type":"Point","coordinates":[-105.0904,42.9384]},"properties":{"api":"4900931756","name":"EH FED CONTINUUM W 3469-13-T2XH","op":"ANADARKO E&P ONSHORE LLC","co":"Converse","st":"WY","trs":"T34N R69W S12","fm":"TURNER","eur":420603,"perft":54716,"sound":true,"fit":"sound","geur":3234484,"gfit":"sound"}},{"type":"Feature","geometry":{"type":"Point","coordinates":[-105.0906,42.9385]},"properties":{"api":"4900931761","name":"EH FED CONTINUUM W 3469-13-N2XH","op":"ANADARKO E&P ONSHORE LLC","co":"Converse","st":"WY","trs":"T34N R69W S12","fm":"NIOBRARA","eur":447398,"perft":57580,"sound":true,"fit":"sound","geur":1704341,"gfit":"sound"}},{"type":"Feature","geometry":{"type":"Point","coordinates":[-105.0907,42.9385]},"properties":{"api":"4900931762","name":"EH FED CONTINUUM W 3469-13-T1XH","op":"ANADARKO E&P ONSHORE LLC","co":"Converse","st":"WY","trs":"T34N R69W S12","fm":"TURNER","eur":307591,"perft":39735,"sound":true,"fit":"sound","geur":3473508,"gfit":"sound"}},{"type":"Feature","geometry":{"type":"Point","coordinates":[-105.0903,42.9384]},"properties":{"api":"4900931776","name":"EH FED CONTINUUM W 3469-13-N4XH","op":"ANADARKO E&P ONSHORE LLC","co":"Converse","st":"WY","trs":"T34N R69W S12","fm":"NIOBRARA","eur":383087,"perft":49208,"sound":true,"fit":"sound","geur":1346655,"gfit":"sound"}},{"type":"Feature","geometry":{"type":"Point","coordinates":[-105.0877,42.883]},"properties":{"api":"4900932123","name":"WYOMING 36-34-69   B TR 1H","op":"CONTINENTAL RESOURCES INC","co":"Converse","st":"WY","trs":"T34N R69W S36","fm":"TURNER","eur":434797,"perft":null,"sound":true,"fit":"sound","geur":5663189,"gfit":"sound"}},{"type":"Feature","geometry":{"type":"Point","coordinates":[-105.1267,42.9141]},"properties":{"api":"4900932488","name":"LEBAR 15-34-69 A TR 22H","op":"CONTINENTAL RESOURCES INC","co":"Converse","st":"WY","trs":"T34N R69W S15","fm":"TURNER","eur":473156,"perft":null,"sound":true,"fit":"sound","geur":null,"gfit":"refused"}},{"type":"Feature","geometry":{"type":"Point","coordinates":[-105.1898,42.9061]},"properties":{"api":"4900934988","name":"LINDEN 19-34-69 USA A TR 20H","op":"CONTINENTAL RESOURCES INC","co":"Converse","st":"WY","trs":"T34N R69W S19","fm":"TURNER","eur":432928,"perft":null,"sound":true,"fit":"sound","geur":5845864,"gfit":"sound"}},{"type":"Feature","geometry":{"type":"Point","coordinates":[-105.1899,42.9059]},"properties":{"api":"4900934991","name":"LINDEN 19-34-69 USA A TR 24H","op":"CONTINENTAL RESOURCES INC","co":"Converse","st":"WY","trs":"T34N R69W S19","fm":"TURNER","eur":347692,"perft":null,"sound":true,"fit":"sound","geur":8469115,"gfit":"sound"}},{"type":"Feature","geometry":{"type":"Point","coordinates":[-105.1826,42.9057]},"properties":{"api":"4900935011","name":"LINDEN 19-34-69 B TR 25H","op":"CONTINENTAL RESOURCES INC","co":"Converse","st":"WY","trs":"T34N R69W S19","fm":"TURNER","eur":106635,"perft":null,"sound":true,"fit":"sound","geur":2488339,"gfit":"sound"}},{"type":"Feature","geometry":{"type":"Point","coordinates":[-105.1825,42.9057]},"properties":{"api":"4900935012","name":"LINDEN 19-34-69 B TR 23H","op":"CONTINENTAL RESOURCES INC","co":"Converse","st":"WY","trs":"T34N R69W S19","fm":"TURNER","eur":117820,"perft":null,"sound":true,"fit":"sound","geur":2800489,"gfit":"sound"}},{"type":"Feature","geometry":{"type":"Point","coordinates":[-105.156,42.9593]},"properties":{"api":"4900935227","name":"BULLSBROOK W FED 3469-9-T2H","op":"ANADARKO E&P ONSHORE LLC","co":"Converse","st":"WY","trs":"T34N R69W S33","fm":"TURNER","eur":312250,"perft":30571,"sound":true,"fit":"sound","geur":null,"gfit":"refused"}},{"type":"Feature","geometry":{"type":"Point","coordinates":[-105.1506,42.9068]},"properties":{"api":"4900936854","name":"LINDEN 21-34-69 USAB TR 21H","op":"CONTINENTAL RESOURCES INC","co":"Converse","st":"WY","trs":"T34N R69W S21","fm":"TURNER","eur":173812,"perft":null,"sound":true,"fit":"sound","geur":3274972,"gfit":"sound"}},{"type":"Feature","geometry":{"type":"Point","coordinates":[-105.1504,42.9068]},"properties":{"api":"4900936855","name":"LINDEN 21-34-69 USAB TR 22H","op":"CONTINENTAL RESOURCES INC","co":"Converse","st":"WY","trs":"T34N R69W S21","fm":"TURNER","eur":122383,"perft":null,"sound":true,"fit":"sound","geur":2847815,"gfit":"sound"}},{"type":"Feature","geometry":{"type":"Point","coordinates":[-105.1393,42.9278]},"properties":{"api":"4900939257","name":"LEBAR 9-34-69 USA B TR 23H","op":"CONTINENTAL RESOURCES INC","co":"Converse","st":"WY","trs":"T34N R69W S9","fm":"TURNER","eur":318402,"perft":null,"sound":true,"fit":"sound","geur":null,"gfit":"refused"}},{"type":"Feature","geometry":{"type":"Point","coordinates":[-105.1277,42.9351]},"properties":{"api":"4900940160","name":"EH FED SPACE C 3469-3-T3XH","op":"ANADARKO E&P ONSHORE LLC","co":"Converse","st":"WY","trs":"T34N R69W S10","fm":"TURNER","eur":385049,"perft":47373,"sound":true,"fit":"sound","geur":3524102,"gfit":"sound"}},{"type":"Feature","geometry":{"type":"Point","coordinates":[-105.1277,42.9351]},"properties":{"api":"4900940186","name":"EH SPACE C 3469-15-T3XH","op":"ANADARKO E&P ONSHORE LLC","co":"Converse","st":"WY","trs":"T34N R69W S10","fm":"TURNER","eur":189591,"perft":25876,"sound":true,"fit":"sound","geur":4209840,"gfit":"sound"}},{"type":"Feature","geometry":{"type":"Point","coordinates":[-105.093,42.9554]},"properties":{"api":"4900942021","name":"EH FED FUSION W 3469-12-N4XH","op":"ANADARKO E&P ONSHORE LLC","co":"Converse","st":"WY","trs":"T34N R69W S1","fm":"NIOBRARA","eur":465187,"perft":60540,"sound":true,"fit":"sound","geur":1033033,"gfit":"sound"}},{"type":"Feature","geometry":{"type":"Point","coordinates":[-105.0931,42.9555]},"properties":{"api":"4900942023","name":"EH FUSION W 3469-12-N2XH","op":"ANADARKO E&P ONSHORE LLC","co":"Converse","st":"WY","trs":"T34N R69W S1","fm":"NIOBRARA","eur":509602,"perft":68421,"sound":true,"fit":"sound","geur":1025603,"gfit":"sound"}},{"type":"Feature","geometry":{"type":"Point","coordinates":[-105.0929,42.9553]},"properties":{"api":"4900942025","name":"EH FUSION W 3469-12-T1XH","op":"ANADARKO E&P ONSHORE LLC","co":"Converse","st":"WY","trs":"T34N R69W S1","fm":"TURNER","eur":386060,"perft":null,"sound":true,"fit":"sound","geur":null,"gfit":"refused"}},{"type":"Feature","geometry":{"type":"Point","coordinates":[-105.0928,42.9552]},"properties":{"api":"4900942029","name":"EH FED FUSION W 3469-12-T2XH","op":"ANADARKO E&P ONSHORE LLC","co":"Converse","st":"WY","trs":"T34N R69W S1","fm":"TURNER","eur":300484,"perft":null,"sound":true,"fit":"sound","geur":null,"gfit":"refused"}},{"type":"Feature","geometry":{"type":"Point","coordinates":[-105.12947,42.87451]},"properties":{"api":"4900906358","name":"SHAWNEE BAILEY 1","op":"JT OPERATING LLC","co":"Converse","st":"WY","trs":"T34N R69W S34","fm":null,"eur":null,"perft":null,"sound":false,"fit":"refused","geur":null,"gfit":"refused"}},{"type":"Feature","geometry":{"type":"Point","coordinates":[-105.10007,42.95654]},"properties":{"api":"4900920617","name":"DUNHAM 1-2","op":"SUNSHINE VALLEY PETROLEUM","co":"Converse","st":"WY","trs":"T34N R69W S2","fm":null,"eur":null,"perft":null,"sound":false,"fit":"refused","geur":null,"gfit":"refused"}},{"type":"Feature","geometry":{"type":"Point","coordinates":[-105.12043,42.94909]},"properties":{"api":"4900920636","name":"GEORGE FEE 1","op":"MATRIX PRODUCTION COMPANY","co":"Converse","st":"WY","trs":"T34N R69W S3","fm":null,"eur":null,"perft":null,"sound":false,"fit":"refused","geur":150313,"gfit":"sound"}},{"type":"Feature","geometry":{"type":"Point","coordinates":[-105.10935,42.95596]},"properties":{"api":"4900920640","name":"FED XR W-0321875 1-2","op":"SUNSHINE VALLEY PETROLEUM","co":"Converse","st":"WY","trs":"T34N R69W S2","fm":null,"eur":null,"perft":null,"sound":false,"fit":"refused","geur":null,"gfit":"refused"}},{"type":"Feature","geometry":{"type":"Point","coordinates":[-105.08939,42.95644]},"properties":{"api":"4900920784","name":"FED LARSON 1-1","op":"SUNSHINE VALLEY PETROLEUM","co":"Converse","st":"WY","trs":"T34N R69W S1","fm":null,"eur":null,"perft":null,"sound":false,"fit":"refused","geur":null,"gfit":"refused"}},{"type":"Feature","geometry":{"type":"Point","coordinates":[-105.07925,42.94182]},"properties":{"api":"4900920801","name":"DULLA H HERRICK 2","op":"MATRIX PRODUCTION COMPANY","co":"Converse","st":"WY","trs":"T34N R69W S12","fm":null,"eur":null,"perft":null,"sound":false,"fit":"refused","geur":null,"gfit":"refused"}},{"type":"Feature","geometry":{"type":"Point","coordinates":[-105.13934,42.94782]},"properties":{"api":"4900920939","name":"LEBAR 2","op":"BLACK BEAR OIL CORPORATION","co":"Converse","st":"WY","trs":"T34N R69W S4","fm":null,"eur":36584,"perft":null,"sound":true,"fit":"sound","geur":136486,"gfit":"sound"}},{"type":"Feature","geometry":{"type":"Point","coordinates":[-105.11441,42.87866]},"properties":{"api":"4900921928","name":"FEDERAL W-66868 12-35","op":"JT OPERATING LLC","co":"Converse","st":"WY","trs":"T34N R69W S35","fm":null,"eur":null,"perft":null,"sound":false,"fit":"refused","geur":null,"gfit":"refused"}},{"type":"Feature","geometry":{"type":"Point","coordinates":[-105.09935,42.89737]},"properties":{"api":"4900922038","name":"GOLDFINCH 1","op":"CHACO ENERGY COMPANY","co":"Converse","st":"WY","trs":"T34N R69W S26","fm":null,"eur":null,"perft":null,"sound":false,"fit":"refused","geur":null,"gfit":"refused"}},{"type":"Feature","geometry":{"type":"Point","coordinates":[-105.12982,42.88174]},"properties":{"api":"4900922364","name":"BAILEY SHAWNEE 2","op":"JT OPERATING LLC","co":"Converse","st":"WY","trs":"T34N R69W S34","fm":null,"eur":null,"perft":null,"sound":false,"fit":"refused","geur":null,"gfit":"refused"}},{"type":"Feature","geometry":{"type":"Point","coordinates":[-105.12979,42.88564]},"properties":{"api":"4900922424","name":"NEAL  1","op":"JT OPERATING LLC","co":"Converse","st":"WY","trs":"T34N R69W S27","fm":null,"eur":null,"perft":null,"sound":false,"fit":"refused","geur":null,"gfit":"refused"}},{"type":"Feature","geometry":{"type":"Point","coordinates":[-105.1245,42.88051]},"properties":{"api":"4900922434","name":"H-MARTINEZ W-64082 1","op":"JT OPERATING LLC","co":"Converse","st":"WY","trs":"T34N R69W S34","fm":null,"eur":null,"perft":null,"sound":false,"fit":"refused","geur":null,"gfit":"refused"}},{"type":"Feature","geometry":{"type":"Point","coordinates":[-105.18971,42.90613]},"properties":{"api":"4900934989","name":"LINDEN 19-34-69 USA A TR 21H","op":"CONTINENTAL RESOURCES INC","co":"Converse","st":"WY","trs":"T34N R69W S19","fm":null,"eur":276245,"perft":null,"sound":true,"fit":"sound","geur":5111989,"gfit":"sound"}},{"type":"Feature","geometry":{"type":"Point","coordinates":[-105.18985,42.90601]},"properties":{"api":"4900934990","name":"LINDEN 19-34-69 USA A TR 22H","op":"CONTINENTAL RESOURCES INC","co":"Converse","st":"WY","trs":"T34N R69W S19","fm":"TURNER","eur":null,"perft":null,"sound":false,"fit":"refused","geur":null,"gfit":"refused"}},{"type":"Feature","geometry":{"type":"Point","coordinates":[-105.09277,42.95518]},"properties":{"api":"4900942027","name":"EH FED FUSION W 3469-12-T3XH","op":"ANADARKO E&P ONSHORE LLC","co":"Converse","st":"WY","trs":"T34N R69W S1","fm":"TURNER","eur":null,"perft":null,"sound":false,"fit":"refused","geur":null,"gfit":"refused"}},{"type":"Feature","geometry":{"type":"Point","coordinates":[-105.08716,42.8831]},"properties":{"api":"4900949366","name":"Bat Ray 3469-2524 2NH","op":"CONTINENTAL RESOURCES INC","co":"Converse","st":"WY","trs":"T34N R69W S36","fm":null,"eur":null,"perft":null,"sound":false,"fit":"none","geur":null,"gfit":"none"}},{"type":"Feature","geometry":{"type":"Point","coordinates":[-105.08729,42.8831]},"properties":{"api":"4900949952","name":"Bat Ray 3469-2524 1NH","op":"CONTINENTAL RESOURCES INC","co":"Converse","st":"WY","trs":"T34N R69W S36","fm":null,"eur":null,"perft":null,"sound":false,"fit":"none","geur":null,"gfit":"none"}},{"type":"Feature","geometry":{"type":"Point","coordinates":[-105.09926,42.94863]},"properties":{"api":"4900920618","name":"MADRID 1-2","op":"WELLSTAR CORPORATION","co":"Converse","st":"WY","trs":"T34N R69W S2","fm":null,"eur":null,"perft":null,"sound":false,"fit":"refused","geur":null,"gfit":"refused"}},{"type":"Feature","geometry":{"type":"Point","coordinates":[-105.13921,42.95522]},"properties":{"api":"4900920793","name":"LEBAR 3","op":"EXCO RESOURCES INC","co":"Converse","st":"WY","trs":"T34N R69W S4","fm":null,"eur":26303,"perft":null,"sound":true,"fit":"sound","geur":null,"gfit":"refused"}},{"type":"Feature","geometry":{"type":"Point","coordinates":[-105.11847,42.95628]},"properties":{"api":"4900920698","name":"S FEDERAL 1","op":"KEITHS PUMPING SERVICE","co":"Converse","st":"WY","trs":"T34N R69W S3","fm":null,"eur":56567,"perft":null,"sound":true,"fit":"sound","geur":null,"gfit":"refused"}},{"type":"Feature","geometry":{"type":"Point","coordinates":[-105.0793,42.9269]},"properties":{"api":"4900920944","name":"SOWERS A 1","op":"MANX OIL CORPORATION","co":"Converse","st":"WY","trs":"T34N R69W S13","fm":null,"eur":null,"perft":null,"sound":false,"fit":"refused","geur":null,"gfit":"refused"}},{"type":"Feature","geometry":{"type":"Point","coordinates":[-105.07902,42.94972]},"properties":{"api":"4900920999","name":"FED W-8497 1-1","op":"PETRA PETROLEUM INC","co":"Converse","st":"WY","trs":"T34N R69W S1","fm":null,"eur":56513,"perft":null,"sound":true,"fit":"sound","geur":null,"gfit":"refused"}},{"type":"Feature","geometry":{"type":"Point","coordinates":[-105.12934,42.95547]},"properties":{"api":"4900920717","name":"DSC 1-3","op":"MCCULLISS RESOURCE COMPANY INC","co":"Converse","st":"WY","trs":"T34N R69W S3","fm":null,"eur":5692,"perft":null,"sound":true,"fit":"sound","geur":null,"gfit":"refused"}},{"type":"Feature","geometry":{"type":"Point","coordinates":[-105.08851,42.94925]},"properties":{"api":"4900921750","name":"ANADAR W-25521 1-1","op":"RIM OPERATING INC","co":"Converse","st":"WY","trs":"T34N R69W S1","fm":null,"eur":46085,"perft":null,"sound":true,"fit":"sound","geur":null,"gfit":"refused"}},{"type":"Feature","geometry":{"type":"Point","coordinates":[-105.1044,42.8701]},"properties":{"api":"4900906349","name":"HALL BETZ PATENTED 1-35","op":"COMMON ENERGY INC","co":"Converse","st":"WY","trs":"T34N R69W S35","fm":null,"eur":null,"perft":null,"sound":false,"fit":"none","geur":null,"gfit":"none"}},{"type":"Feature","geometry":{"type":"Point","coordinates":[-105.10908,42.9487]},"properties":{"api":"4900920543","name":"BILLINGSLEY 1","op":"HOME PETROLEUM CORPORATION","co":"Converse","st":"WY","trs":"T34N R69W S2","fm":null,"eur":null,"perft":null,"sound":false,"fit":"refused","geur":null,"gfit":"refused"}},{"type":"Feature","geometry":{"type":"Point","coordinates":[-105.07928,42.95649]},"properties":{"api":"4900920778","name":"WELL DRAW W-19780 1","op":"SOUTHLAND ROYALTY COMPANY","co":"Converse","st":"WY","trs":"T34N R69W S1","fm":null,"eur":21196,"perft":null,"sound":true,"fit":"sound","geur":55216,"gfit":"sound"}},{"type":"Feature","geometry":{"type":"Point","coordinates":[-105.14959,42.9549]},"properties":{"api":"4900920940","name":"LEBAR 4","op":"HOME PETROLEUM CORPORATION","co":"Converse","st":"WY","trs":"T34N R69W S4","fm":null,"eur":null,"perft":null,"sound":false,"fit":"refused","geur":null,"gfit":"refused"}},{"type":"Feature","geometry":{"type":"Point","coordinates":[-105.08908,42.87473]},"properties":{"api":"4900920870","name":"CAROLYN ST 73-21150 1-360","op":"MIDGARD ENERGY COMPANY","co":"Converse","st":"WY","trs":"T34N R69W S36","fm":null,"eur":null,"perft":null,"sound":false,"fit":"refused","geur":null,"gfit":"refused"}},{"type":"Feature","geometry":{"type":"Point","coordinates":[-105.13941,42.94047]},"properties":{"api":"4900921035","name":"HOWELL 1","op":"WELLSTAR CORPORATION","co":"Converse","st":"WY","trs":"T34N R69W S9","fm":null,"eur":6737,"perft":null,"sound":true,"fit":"sound","geur":null,"gfit":"refused"}},{"type":"Feature","geometry":{"type":"Point","coordinates":[-105.1393,42.88918]},"properties":{"api":"4900921567","name":"WESTMORELAND 1","op":"PETROLEUM INC","co":"Converse","st":"WY","trs":"T34N R69W S28","fm":null,"eur":null,"perft":null,"sound":false,"fit":"refused","geur":null,"gfit":"refused"}},{"type":"Feature","geometry":{"type":"Point","coordinates":[-105.10881,42.94119]},"properties":{"api":"4900920716","name":"WELL DRAW W-13195 1-11","op":"MIDGARD ENERGY COMPANY","co":"Converse","st":"WY","trs":"T34N R69W S11","fm":null,"eur":null,"perft":null,"sound":false,"fit":"refused","geur":null,"gfit":"refused"}},{"type":"Feature","geometry":{"type":"Point","coordinates":[-105.08944,42.94162]},"properties":{"api":"4900920759","name":"FED W-40375 1-12","op":"MIDGARD ENERGY COMPANY","co":"Converse","st":"WY","trs":"T34N R69W S12","fm":null,"eur":null,"perft":null,"sound":false,"fit":"refused","geur":null,"gfit":"refused"}},{"type":"Feature","geometry":{"type":"Point","coordinates":[-105.18435,42.92178]},"properties":{"api":"4900921542","name":"LEBAR RANCH 1","op":"PETROLEUM INC","co":"Converse","st":"WY","trs":"T34N R69W S18","fm":null,"eur":null,"perft":null,"sound":false,"fit":"refused","geur":null,"gfit":"refused"}},{"type":"Feature","geometry":{"type":"Point","coordinates":[-105.09928,42.94166]},"properties":{"api":"4900920697","name":"VIRGINIA LAYTON 1-11","op":"INEXCO OIL COMPANY","co":"Converse","st":"WY","trs":"T34N R69W S11","fm":null,"eur":null,"perft":null,"sound":false,"fit":"none","geur":null,"gfit":"none"}},{"type":"Feature","geometry":{"type":"Point","coordinates":[-105.12917,42.94776]},"properties":{"api":"4900920931","name":"GEORGE FEE 2","op":"DAVIS OIL COMPANY","co":"Converse","st":"WY","trs":"T34N R69W S3","fm":null,"eur":null,"perft":null,"sound":false,"fit":"none","geur":null,"gfit":"none"}},{"type":"Feature","geometry":{"type":"Point","coordinates":[-105.12515,42.8709]},"properties":{"api":"4900907157","name":"FED W-0727A 1","op":"LA PRELE EXPLORATION","co":"Converse","st":"WY","trs":"T34N R69W S34","fm":null,"eur":null,"perft":null,"sound":false,"fit":"none","geur":null,"gfit":"none"}},{"type":"Feature","geometry":{"type":"Point","coordinates":[-105.09938,42.91921]},"properties":{"api":"4900920735","name":"L PIERSON 2","op":"LA PRELE EXPLORATION","co":"Converse","st":"WY","trs":"T34N R69W S14","fm":null,"eur":null,"perft":null,"sound":false,"fit":"none","geur":null,"gfit":"none"}},{"type":"Feature","geometry":{"type":"Point","coordinates":[-105.09885,42.92624]},"properties":{"api":"4900920743","name":"L PIERSON 1","op":"LA PRELE EXPLORATION","co":"Converse","st":"WY","trs":"T34N R69W S14","fm":null,"eur":null,"perft":null,"sound":false,"fit":"none","geur":null,"gfit":"none"}},{"type":"Feature","geometry":{"type":"Point","coordinates":[-105.12031,42.87425]},"properties":{"api":"4900921228","name":"HALL W-58089 2-34","op":"LA PRELE EXPLORATION","co":"Converse","st":"WY","trs":"T34N R69W S34","fm":null,"eur":null,"perft":null,"sound":false,"fit":"none","geur":null,"gfit":"none"}}]}