{"type":"FeatureCollection","features":[{"type":"Feature","geometry":{"type":"Point","coordinates":[-104.9414,43.0078]},"properties":{"api":"4900928163","name":"BRECKENRIDGE UNIT 43-18H","op":"1876 RESOURCES LLC","co":"Converse","st":"WY","trs":"T35N R67W S18","fm":"TEAPOT","eur":86075,"perft":null,"sound":true,"fit":"sound","geur":null,"gfit":"refused"}},{"type":"Feature","geometry":{"type":"Point","coordinates":[-104.9363,42.9903]},"properties":{"api":"4900929231","name":"BRECKENRIDGE UNIT 14-20-2H","op":"T K RESOURCES LLC","co":"Converse","st":"WY","trs":"T35N R67W S20","fm":"TEAPOT","eur":145127,"perft":null,"sound":true,"fit":"sound","geur":null,"gfit":"refused"}},{"type":"Feature","geometry":{"type":"Point","coordinates":[-104.9363,42.9904]},"properties":{"api":"4900929232","name":"BRECKENRIDGE UNIT 14-20-1H","op":"T K RESOURCES LLC","co":"Converse","st":"WY","trs":"T35N R67W S20","fm":"TEAPOT","eur":217208,"perft":null,"sound":true,"fit":"sound","geur":132374,"gfit":"sound"}},{"type":"Feature","geometry":{"type":"Point","coordinates":[-104.9131,42.9707]},"properties":{"api":"4900929243","name":"BU 11-33-1H","op":"ROCKIES RESOURCES HOLDINGS LLC","co":"Converse","st":"WY","trs":"T35N R67W S33","fm":"TEAPOT","eur":325104,"perft":31860,"sound":true,"fit":"sound","geur":null,"gfit":"refused"}},{"type":"Feature","geometry":{"type":"Point","coordinates":[-104.9421,42.9735]},"properties":{"api":"4900929531","name":"BRECKENRIDGE UNIT 44-30-35-67 1H","op":"T K RESOURCES LLC","co":"Converse","st":"WY","trs":"T35N R67W S30","fm":null,"eur":156854,"perft":null,"sound":true,"fit":"sound","geur":111864,"gfit":"sound"}},{"type":"Feature","geometry":{"type":"Point","coordinates":[-104.9137,43.0001]},"properties":{"api":"4900929610","name":"BRECKENRIDGE UNIT 11-21-35-67 1H","op":"ROCKIES RESOURCES HOLDINGS LLC","co":"Converse","st":"WY","trs":"T35N R67W S21","fm":null,"eur":186728,"perft":null,"sound":true,"fit":"sound","geur":54495,"gfit":"sound"}},{"type":"Feature","geometry":{"type":"Point","coordinates":[-104.9319,43.017]},"properties":{"api":"4900934305","name":"LOST SPRINGS 3567-8-20-2 NXH","op":"1876 RESOURCES LLC","co":"Converse","st":"WY","trs":"T35N R67W S8","fm":"NIOBRARA","eur":478824,"perft":46565,"sound":true,"fit":"sound","geur":511673,"gfit":"sound"}},{"type":"Feature","geometry":{"type":"Point","coordinates":[-104.9317,43.0171]},"properties":{"api":"4900934306","name":"LOST SPRINGS 3567-8-5-3NXH","op":"1876 RESOURCES LLC","co":"Converse","st":"WY","trs":"T35N R67W S8","fm":"NIOBRARA","eur":505210,"perft":50637,"sound":true,"fit":"sound","geur":639960,"gfit":"sound"}},{"type":"Feature","geometry":{"type":"Point","coordinates":[-104.932,43.0169]},"properties":{"api":"4900934309","name":"LOST SPRINGS 3567-8-5-1NXH","op":"1876 RESOURCES LLC","co":"Converse","st":"WY","trs":"T35N R67W S8","fm":"NIOBRARA","eur":514553,"perft":50790,"sound":true,"fit":"sound","geur":481756,"gfit":"sound"}},{"type":"Feature","geometry":{"type":"Point","coordinates":[-104.9318,43.017]},"properties":{"api":"4900934310","name":"LOST SPRINGS 3567-8-20-4NXH","op":"1876 RESOURCES LLC","co":"Converse","st":"WY","trs":"T35N R67W S8","fm":"NIOBRARA","eur":652231,"perft":61653,"sound":true,"fit":"sound","geur":983885,"gfit":"sound"}},{"type":"Feature","geometry":{"type":"Point","coordinates":[-104.9353,42.9862]},"properties":{"api":"4900934469","name":"LOST SPRINGS 3567-29-32-1 NXH","op":"1876 RESOURCES LLC","co":"Converse","st":"WY","trs":"T35N R67W S29","fm":"NIOBRARA","eur":462712,"perft":null,"sound":true,"fit":"sound","geur":817636,"gfit":"sound"}},{"type":"Feature","geometry":{"type":"Point","coordinates":[-104.9354,42.9862]},"properties":{"api":"4900934473","name":"LOST SPRINGS 3567-29-32-2NXH","op":"1876 RESOURCES LLC","co":"Converse","st":"WY","trs":"T35N R67W S29","fm":"NIOBRARA","eur":446327,"perft":42170,"sound":true,"fit":"sound","geur":509254,"gfit":"sound"}},{"type":"Feature","geometry":{"type":"Point","coordinates":[-104.9505,42.9831]},"properties":{"api":"4900938964","name":"BU 22-30-35-67-4H","op":"ROCKIES RESOURCES HOLDINGS LLC","co":"Converse","st":"WY","trs":"T35N R67W S30","fm":"TEAPOT","eur":553652,"perft":54120,"sound":true,"fit":"sound","geur":332516,"gfit":"sound"}},{"type":"Feature","geometry":{"type":"Point","coordinates":[-104.9508,42.9832]},"properties":{"api":"4900938967","name":"BU 22-30-35-67-1H","op":"ROCKIES RESOURCES HOLDINGS LLC","co":"Converse","st":"WY","trs":"T35N R67W S30","fm":"TEAPOT","eur":331893,"perft":32577,"sound":true,"fit":"sound","geur":262550,"gfit":"sound"}},{"type":"Feature","geometry":{"type":"Point","coordinates":[-104.9135,42.9998]},"properties":{"api":"4900948774","name":"Landcolt 16-9-35-67-1H","op":"ROCKIES RESOURCES HOLDINGS LLC","co":"Converse","st":"WY","trs":"T35N R67W S21","fm":"TEAPOT","eur":386784,"perft":37957,"sound":true,"fit":"sound","geur":null,"gfit":"refused"}},{"type":"Feature","geometry":{"type":"Point","coordinates":[-104.913,42.9706]},"properties":{"api":"4900948775","name":"Bronc 33-4-35-67-1H","op":"ROCKIES RESOURCES HOLDINGS LLC","co":"Converse","st":"WY","trs":"T35N R67W S33","fm":"TEAPOT","eur":273432,"perft":27754,"sound":true,"fit":"sound","geur":null,"gfit":"refused"}},{"type":"Feature","geometry":{"type":"Point","coordinates":[-104.9136,42.9999]},"properties":{"api":"4900948776","name":"Lily 17-8-35-67-1H","op":"ROCKIES RESOURCES HOLDINGS LLC","co":"Converse","st":"WY","trs":"T35N R67W S21","fm":"TEAPOT","eur":329768,"perft":31803,"sound":true,"fit":"sound","geur":null,"gfit":"refused"}},{"type":"Feature","geometry":{"type":"Point","coordinates":[-104.9465,43.0176]},"properties":{"api":"4900948779","name":"Sheila 7-6-35-67-1H","op":"ROCKIES RESOURCES HOLDINGS LLC","co":"Converse","st":"WY","trs":"T35N R67W S7","fm":"TEAPOT","eur":null,"perft":null,"sound":false,"fit":"refused","geur":null,"gfit":"refused"}},{"type":"Feature","geometry":{"type":"Point","coordinates":[-104.9463,43.0176]},"properties":{"api":"4900948878","name":"Sheila 7-6-35-67-2H","op":"ROCKIES RESOURCES HOLDINGS LLC","co":"Converse","st":"WY","trs":"T35N R67W S7","fm":"TEAPOT","eur":380544,"perft":38630,"sound":true,"fit":"sound","geur":426539,"gfit":"sound"}},{"type":"Feature","geometry":{"type":"Point","coordinates":[-104.9351,42.9863]},"properties":{"api":"4900949189","name":"Lost Springs 3567-29-32-3NXH","op":"1876 RESOURCES LLC","co":"Converse","st":"WY","trs":"T35N R67W S29","fm":"NIOBRARA","eur":673715,"perft":64341,"sound":true,"fit":"sound","geur":849282,"gfit":"sound"}},{"type":"Feature","geometry":{"type":"Point","coordinates":[-104.9129,42.9705]},"properties":{"api":"4900949221","name":"Bronc 33-4-35-67-2H","op":"ROCKIES RESOURCES HOLDINGS LLC","co":"Converse","st":"WY","trs":"T35N R67W S33","fm":"TEAPOT","eur":323925,"perft":31882,"sound":true,"fit":"sound","geur":null,"gfit":"refused"}},{"type":"Feature","geometry":{"type":"Point","coordinates":[-104.9127,42.9704]},"properties":{"api":"4900949222","name":"BU 11-33-2H","op":"ROCKIES RESOURCES HOLDINGS LLC","co":"Converse","st":"WY","trs":"T35N R67W S33","fm":"TEAPOT","eur":327677,"perft":31333,"sound":true,"fit":"sound","geur":null,"gfit":"refused"}},{"type":"Feature","geometry":{"type":"Point","coordinates":[-104.9549,42.9853]},"properties":{"api":"4900949811","name":"Billings 21NXH","op":"1876 RESOURCES LLC","co":"Converse","st":"WY","trs":"T35N R67W S30","fm":null,"eur":null,"perft":null,"sound":false,"fit":"none","geur":null,"gfit":"none"}},{"type":"Feature","geometry":{"type":"Point","coordinates":[-104.9548,42.9853]},"properties":{"api":"4900949812","name":"Billings 22NXH","op":"1876 RESOURCES LLC","co":"Converse","st":"WY","trs":"T35N R67W S30","fm":null,"eur":null,"perft":null,"sound":false,"fit":"none","geur":null,"gfit":"none"}},{"type":"Feature","geometry":{"type":"Point","coordinates":[-104.9547,42.9852]},"properties":{"api":"4900949813","name":"Billings 23NXH","op":"1876 RESOURCES LLC","co":"Converse","st":"WY","trs":"T35N R67W S30","fm":null,"eur":null,"perft":null,"sound":false,"fit":"none","geur":null,"gfit":"none"}},{"type":"Feature","geometry":{"type":"Point","coordinates":[-104.9546,42.9852]},"properties":{"api":"4900949816","name":"Dillon 23NXH","op":"1876 RESOURCES LLC","co":"Converse","st":"WY","trs":"T35N R67W S30","fm":null,"eur":null,"perft":null,"sound":false,"fit":"none","geur":null,"gfit":"none"}},{"type":"Feature","geometry":{"type":"Point","coordinates":[-104.9469,43.01188]},"properties":{"api":"4900928164","name":"BRECKENRIDGE UNIT 32-18-35-67","op":"1876 RESOURCES LLC","co":"Converse","st":"WY","trs":"T35N R67W S18","fm":"TEAPOT","eur":24837,"perft":null,"sound":true,"fit":"sound","geur":null,"gfit":"refused"}},{"type":"Feature","geometry":{"type":"Point","coordinates":[-104.9365,43.0186]},"properties":{"api":"4900928246","name":"BRECKENRIDGE UNIT 14-8","op":"1876 RESOURCES LLC","co":"Converse","st":"WY","trs":"T35N R67W S8","fm":"TEAPOT","eur":null,"perft":null,"sound":false,"fit":"refused","geur":null,"gfit":"refused"}},{"type":"Feature","geometry":{"type":"Point","coordinates":[-104.95778,43.02569]},"properties":{"api":"4900928252","name":"BRECKENRIDGE UNIT 12-7","op":"1876 RESOURCES LLC","co":"Converse","st":"WY","trs":"T35N R67W S7","fm":"TEAPOT","eur":null,"perft":null,"sound":false,"fit":"refused","geur":null,"gfit":"refused"}},{"type":"Feature","geometry":{"type":"Point","coordinates":[-104.91595,43.00041]},"properties":{"api":"4900928253","name":"BRECKENRIDGE 11-21-35-67","op":"1876 RESOURCES LLC","co":"Converse","st":"WY","trs":"T35N R67W S21","fm":"TEAPOT","eur":null,"perft":null,"sound":false,"fit":"refused","geur":null,"gfit":"refused"}},{"type":"Feature","geometry":{"type":"Point","coordinates":[-104.94209,42.97357]},"properties":{"api":"4900929532","name":"BRECKENRIDGE UNIT 44-30-35-67 2H","op":"T K RESOURCES LLC","co":"Converse","st":"WY","trs":"T35N R67W S30","fm":"TECKLA","eur":122371,"perft":26568,"sound":true,"fit":"sound","geur":69455,"gfit":"sound"}},{"type":"Feature","geometry":{"type":"Point","coordinates":[-104.94893,43.01924]},"properties":{"api":"4900949191","name":"Lost Springs 3567-7-6-1NXH","op":"1876 RESOURCES LLC","co":"Converse","st":"WY","trs":"T35N R67W S7","fm":null,"eur":null,"perft":null,"sound":false,"fit":"none","geur":null,"gfit":"none"}},{"type":"Feature","geometry":{"type":"Point","coordinates":[-104.94884,43.01925]},"properties":{"api":"4900949192","name":"Lost Springs 3567-7-6-2NXH","op":"1876 RESOURCES LLC","co":"Converse","st":"WY","trs":"T35N R67W S7","fm":null,"eur":null,"perft":null,"sound":false,"fit":"none","geur":null,"gfit":"none"}},{"type":"Feature","geometry":{"type":"Point","coordinates":[-104.90729,42.99996]},"properties":{"api":"4900950374","name":"Malta 22NXH","op":"1876 RESOURCES LLC","co":"Converse","st":"WY","trs":"T35N R67W S21","fm":null,"eur":null,"perft":null,"sound":false,"fit":"none","geur":null,"gfit":"none"}},{"type":"Feature","geometry":{"type":"Point","coordinates":[-104.90722,42.99992]},"properties":{"api":"4900950375","name":"Malta 23NXH","op":"1876 RESOURCES LLC","co":"Converse","st":"WY","trs":"T35N R67W S21","fm":null,"eur":null,"perft":null,"sound":false,"fit":"none","geur":null,"gfit":"none"}},{"type":"Feature","geometry":{"type":"Point","coordinates":[-104.90715,42.99987]},"properties":{"api":"4900950376","name":"Malta 24NXH","op":"1876 RESOURCES LLC","co":"Converse","st":"WY","trs":"T35N R67W S21","fm":null,"eur":null,"perft":null,"sound":false,"fit":"none","geur":null,"gfit":"none"}},{"type":"Feature","geometry":{"type":"Point","coordinates":[-104.84944,43.04381]},"properties":{"api":"4902720314","name":"KTU 1C","op":"FINLEY RESOURCES INC","co":"Niobrara","st":"WY","trs":"T35N R67W S1","fm":null,"eur":null,"perft":null,"sound":false,"fit":"refused","geur":null,"gfit":"none"}},{"type":"Feature","geometry":{"type":"Point","coordinates":[-104.87587,43.02021]},"properties":{"api":"4902727008","name":"FLAT TOP HILL 3567-11-23-2 NXH","op":"1876 RESOURCES LLC","co":"Niobrara","st":"WY","trs":"T35N R67W S11","fm":"NIOBRARA","eur":465692,"perft":null,"sound":true,"fit":"sound","geur":940025,"gfit":"sound"}},{"type":"Feature","geometry":{"type":"Point","coordinates":[-104.83756,43.02209]},"properties":{"api":"4902720412","name":"SOUTH KAY W-57657 1","op":"HOME PETROLEUM CORPORATION","co":"Niobrara","st":"WY","trs":"T35N R67W S12","fm":null,"eur":null,"perft":null,"sound":false,"fit":"refused","geur":null,"gfit":"refused"}}]}