{"type":"FeatureCollection","features":[{"type":"Feature","geometry":{"type":"Point","coordinates":[-106.08144,42.97613]},"properties":{"api":"4900906447","name":"UNIT PATENTED F32-27P","op":"SOUTHWESTERN PRODUCTION CORPORATION","co":"Converse","st":"WY","trs":"T35N R77W S27","fm":"FRONTIER","eur":null,"perft":null,"sound":false,"fit":"refused","geur":null,"gfit":"refused"}},{"type":"Feature","geometry":{"type":"Point","coordinates":[-106.06167,42.97648]},"properties":{"api":"4900906449","name":"UNIT STATE F12-26G","op":"SOUTHWESTERN PRODUCTION CORPORATION","co":"Converse","st":"WY","trs":"T35N R77W S26","fm":"FRONTIER","eur":null,"perft":null,"sound":false,"fit":"refused","geur":2612,"gfit":"sound"}},{"type":"Feature","geometry":{"type":"Point","coordinates":[-106.07242,42.98388]},"properties":{"api":"4900906452","name":"COLE CREEK UNIT 57-22G","op":"SOUTHWESTERN PRODUCTION CORPORATION","co":"Converse","st":"WY","trs":"T35N R77W S22","fm":"FRONTIER-2","eur":41166,"perft":null,"sound":true,"fit":"sound","geur":1239,"gfit":"sound"}},{"type":"Feature","geometry":{"type":"Point","coordinates":[-106.05589,42.98049]},"properties":{"api":"4900920043","name":"COLE CREEK UNIT F21-26G","op":"SOUTHWESTERN PRODUCTION CORPORATION","co":"Converse","st":"WY","trs":"T35N R77W S26","fm":"FRONTIER","eur":null,"perft":null,"sound":false,"fit":"refused","geur":null,"gfit":"refused"}},{"type":"Feature","geometry":{"type":"Point","coordinates":[-106.05239,42.97326]},"properties":{"api":"4900920046","name":"COLE CREEK UNIT 33X-26G","op":"SOUTHWESTERN PRODUCTION CORPORATION","co":"Converse","st":"WY","trs":"T35N R77W S26","fm":"FRONTIER","eur":null,"perft":null,"sound":false,"fit":"refused","geur":null,"gfit":"refused"}},{"type":"Feature","geometry":{"type":"Point","coordinates":[-106.04651,42.97647]},"properties":{"api":"4900920145","name":"UNIT 42X-26G","op":"SOUTHWESTERN PRODUCTION CORPORATION","co":"Converse","st":"WY","trs":"T35N R77W S26","fm":null,"eur":null,"perft":null,"sound":false,"fit":"refused","geur":null,"gfit":"none"}},{"type":"Feature","geometry":{"type":"Point","coordinates":[-106.05621,42.99093]},"properties":{"api":"4900922651","name":"23-1 NICOLAYSEN 23-1","op":"SOUTHWESTERN PRODUCTION CORPORATION","co":"Converse","st":"WY","trs":"T35N R77W S23","fm":null,"eur":null,"perft":null,"sound":false,"fit":"refused","geur":null,"gfit":"refused"}},{"type":"Feature","geometry":{"type":"Point","coordinates":[-106.06572,42.98288]},"properties":{"api":"4900928140","name":"COLE CREEK 44-22H","op":"SOUTHWESTERN PRODUCTION CORPORATION","co":"Converse","st":"WY","trs":"T35N R77W S22","fm":"FRONTIER","eur":66642,"perft":null,"sound":true,"fit":"sound","geur":null,"gfit":"refused"}},{"type":"Feature","geometry":{"type":"Point","coordinates":[-106.06122,42.9877]},"properties":{"api":"4900928601","name":"COLE CREEK 12-23","op":"SOUTHWESTERN PRODUCTION CORPORATION","co":"Converse","st":"WY","trs":"T35N R77W S23","fm":"FRONTIER","eur":37885,"perft":null,"sound":true,"fit":"sound","geur":null,"gfit":"refused"}},{"type":"Feature","geometry":{"type":"Point","coordinates":[-106.06583,42.97995]},"properties":{"api":"4900906446","name":"UNIT PATENTED F43-27P","op":"TEREX ENERGY CORPORATION","co":"Converse","st":"WY","trs":"T35N R77W S27","fm":null,"eur":null,"perft":null,"sound":false,"fit":"refused","geur":null,"gfit":"none"}},{"type":"Feature","geometry":{"type":"Point","coordinates":[-106.05596,42.96909]},"properties":{"api":"4900906442","name":"COLE CREEK UNIT F23-26G","op":"SLAWSON EXPLORATION COMPANY INC","co":"Converse","st":"WY","trs":"T35N R77W S26","fm":"FRONTIER","eur":6380,"perft":null,"sound":true,"fit":"sound","geur":null,"gfit":"refused"}},{"type":"Feature","geometry":{"type":"Point","coordinates":[-106.047,42.97962]},"properties":{"api":"4900920053","name":"UNIT F41X-26G","op":"SLAWSON EXPLORATION COMPANY INC","co":"Converse","st":"WY","trs":"T35N R77W S26","fm":null,"eur":null,"perft":null,"sound":false,"fit":"none","geur":null,"gfit":"none"}},{"type":"Feature","geometry":{"type":"Point","coordinates":[-106.06082,42.96905]},"properties":{"api":"4900906443","name":"SMITH F14","op":"EXXON MOBIL OIL CORPORATION","co":"Converse","st":"WY","trs":"T35N R77W S26","fm":null,"eur":null,"perft":null,"sound":false,"fit":"none","geur":null,"gfit":"none"}},{"type":"Feature","geometry":{"type":"Point","coordinates":[-106.09449,42.99636]},"properties":{"api":"4902505948","name":"COLE CREEK UNIT F48-16S","op":"SOUTHWESTERN PRODUCTION CORPORATION","co":"Natrona","st":"WY","trs":"T35N R77W S16","fm":"FRONTIER-2","eur":null,"perft":null,"sound":false,"fit":"refused","geur":null,"gfit":"refused"}},{"type":"Feature","geometry":{"type":"Point","coordinates":[-106.1002,43.00112]},"properties":{"api":"4902520242","name":"COLE CREEK UNIT F13-16S","op":"SOUTHWESTERN PRODUCTION CORPORATION","co":"Natrona","st":"WY","trs":"T35N R77W S16","fm":"FRONTIER","eur":null,"perft":null,"sound":false,"fit":"refused","geur":null,"gfit":"refused"}},{"type":"Feature","geometry":{"type":"Point","coordinates":[-106.09537,43.02331]},"properties":{"api":"4902522024","name":"SEVEN CROSS 21-9","op":"SOUTHWESTERN PRODUCTION CORPORATION","co":"Natrona","st":"WY","trs":"T35N R77W S9","fm":null,"eur":36419,"perft":null,"sound":true,"fit":"sound","geur":6659,"gfit":"sound"}},{"type":"Feature","geometry":{"type":"Point","coordinates":[-106.07603,43.02059]},"properties":{"api":"4902522614","name":"FEDERAL 10-6","op":"SOUTHWESTERN PRODUCTION CORPORATION","co":"Natrona","st":"WY","trs":"T35N R77W S10","fm":null,"eur":null,"perft":null,"sound":false,"fit":"refused","geur":null,"gfit":"refused"}},{"type":"Feature","geometry":{"type":"Point","coordinates":[-106.0759,43.02729]},"properties":{"api":"4902522624","name":"FEDERAL 3-14","op":"SOUTHWESTERN PRODUCTION CORPORATION","co":"Natrona","st":"WY","trs":"T35N R77W S3","fm":null,"eur":null,"perft":null,"sound":false,"fit":"refused","geur":null,"gfit":"refused"}},{"type":"Feature","geometry":{"type":"Point","coordinates":[-106.1112,43.00744]},"properties":{"api":"4902523462","name":"COLE CREEK 31-17","op":"SOUTHWESTERN PRODUCTION CORPORATION","co":"Natrona","st":"WY","trs":"T35N R77W S17","fm":"DAKOTA/FALL RIVER","eur":206904,"perft":129802,"sound":true,"fit":"sound","geur":null,"gfit":"refused"}},{"type":"Feature","geometry":{"type":"Point","coordinates":[-106.0812,42.99067]},"properties":{"api":"4902523808","name":"COLE CREEK 5-22","op":"SOUTHWESTERN PRODUCTION CORPORATION","co":"Natrona","st":"WY","trs":"T35N R77W S22","fm":"FRONTIER","eur":null,"perft":null,"sound":false,"fit":"refused","geur":null,"gfit":"refused"}},{"type":"Feature","geometry":{"type":"Point","coordinates":[-106.07627,42.98655]},"properties":{"api":"4902523809","name":"COLE CREEK 11-22","op":"SOUTHWESTERN PRODUCTION CORPORATION","co":"Natrona","st":"WY","trs":"T35N R77W S22","fm":"FRONTIER","eur":null,"perft":null,"sound":false,"fit":"refused","geur":null,"gfit":"refused"}},{"type":"Feature","geometry":{"type":"Point","coordinates":[-106.07572,42.97278]},"properties":{"api":"4902523810","name":"COLE CREEK 11-27","op":"SOUTHWESTERN PRODUCTION CORPORATION","co":"Natrona","st":"WY","trs":"T35N R77W S27","fm":"NIOBRARA","eur":null,"perft":null,"sound":false,"fit":"refused","geur":null,"gfit":"none"}},{"type":"Feature","geometry":{"type":"Point","coordinates":[-106.08067,42.97975]},"properties":{"api":"4902523811","name":"COLE CREEK 4-27","op":"SOUTHWESTERN PRODUCTION CORPORATION","co":"Natrona","st":"WY","trs":"T35N R77W S27","fm":"FRONTIER","eur":null,"perft":null,"sound":false,"fit":"refused","geur":null,"gfit":"refused"}},{"type":"Feature","geometry":{"type":"Point","coordinates":[-106.09534,43.00513]},"properties":{"api":"4902520668","name":"COLE CREEK UNIT F22-16S","op":"SOUTHWESTERN PRODUCTION CORPORATION","co":"Natrona","st":"WY","trs":"T35N R77W S16","fm":null,"eur":null,"perft":null,"sound":false,"fit":"refused","geur":null,"gfit":"none"}},{"type":"Feature","geometry":{"type":"Point","coordinates":[-106.09881,42.99652]},"properties":{"api":"4902505947","name":"COLE CREEK UNIT F28-16S","op":"BLUE TIP ENERGY WYOMING INC","co":"Natrona","st":"WY","trs":"T35N R77W S16","fm":null,"eur":null,"perft":null,"sound":false,"fit":"none","geur":null,"gfit":"none"}},{"type":"Feature","geometry":{"type":"Point","coordinates":[-106.09664,42.99412]},"properties":{"api":"4902505925","name":"UNIT 32X-21G","op":"BLUE TIP ENERGY WYOMING INC","co":"Natrona","st":"WY","trs":"T35N R77W S21","fm":null,"eur":null,"perft":null,"sound":false,"fit":"none","geur":null,"gfit":"none"}},{"type":"Feature","geometry":{"type":"Point","coordinates":[-106.0942,42.99614]},"properties":{"api":"4902520002","name":"COLE CREEK UNIT 48-16-1S","op":"SLAWSON EXPLORATION COMPANY INC","co":"Natrona","st":"WY","trs":"T35N R77W S16","fm":null,"eur":null,"perft":null,"sound":false,"fit":"none","geur":null,"gfit":"none"}},{"type":"Feature","geometry":{"type":"Point","coordinates":[-106.08888,42.98932]},"properties":{"api":"4902505916","name":"COLE CREEK 64-21G","op":"SLAWSON EXPLORATION COMPANY INC","co":"Natrona","st":"WY","trs":"T35N R77W S21","fm":null,"eur":44214,"perft":null,"sound":true,"fit":"sound","geur":null,"gfit":"none"}},{"type":"Feature","geometry":{"type":"Point","coordinates":[-106.089,42.9911]},"properties":{"api":"4902509532","name":"COLE CREEK UNIT 63-21G","op":"SLAWSON EXPLORATION COMPANY INC","co":"Natrona","st":"WY","trs":"T35N R77W S21","fm":"MUDDY","eur":null,"perft":null,"sound":false,"fit":"refused","geur":null,"gfit":"none"}},{"type":"Feature","geometry":{"type":"Point","coordinates":[-106.09046,43.00153]},"properties":{"api":"4902520243","name":"COLE CREEK UNIT F33-16S","op":"SLAWSON EXPLORATION COMPANY INC","co":"Natrona","st":"WY","trs":"T35N R77W S16","fm":null,"eur":null,"perft":null,"sound":false,"fit":"none","geur":null,"gfit":"none"}},{"type":"Feature","geometry":{"type":"Point","coordinates":[-106.10134,42.99505]},"properties":{"api":"4902505921","name":"UNIT 53-21G","op":"SLAWSON EXPLORATION COMPANY INC","co":"Natrona","st":"WY","trs":"T35N R77W S21","fm":null,"eur":null,"perft":null,"sound":false,"fit":"refused","geur":null,"gfit":"none"}},{"type":"Feature","geometry":{"type":"Point","coordinates":[-106.09698,42.995]},"properties":{"api":"4902505937","name":"COLE CREEK F31-21G","op":"SLAWSON EXPLORATION COMPANY INC","co":"Natrona","st":"WY","trs":"T35N R77W S21","fm":null,"eur":null,"perft":null,"sound":false,"fit":"none","geur":null,"gfit":"none"}},{"type":"Feature","geometry":{"type":"Point","coordinates":[-106.08656,42.99471]},"properties":{"api":"4902505944","name":"UNIT 71-21G","op":"SLAWSON EXPLORATION COMPANY INC","co":"Natrona","st":"WY","trs":"T35N R77W S21","fm":null,"eur":null,"perft":null,"sound":false,"fit":"none","geur":null,"gfit":"none"}},{"type":"Feature","geometry":{"type":"Point","coordinates":[-106.08593,43.0234]},"properties":{"api":"4902505982","name":"FEDERAL F 41-9","op":"SLAWSON EXPLORATION COMPANY INC","co":"Natrona","st":"WY","trs":"T35N R77W S9","fm":null,"eur":null,"perft":null,"sound":false,"fit":"refused","geur":null,"gfit":"none"}},{"type":"Feature","geometry":{"type":"Point","coordinates":[-106.09538,42.9797]},"properties":{"api":"4902521331","name":"FEDERAL F21-28G","op":"SLAWSON EXPLORATION COMPANY INC","co":"Natrona","st":"WY","trs":"T35N R77W S28","fm":null,"eur":34020,"perft":null,"sound":true,"fit":"sound","geur":null,"gfit":"none"}},{"type":"Feature","geometry":{"type":"Point","coordinates":[-106.08528,42.97241]},"properties":{"api":"4902521332","name":"COLE CREEK UNIT F43-28G","op":"SLAWSON EXPLORATION COMPANY INC","co":"Natrona","st":"WY","trs":"T35N R77W S28","fm":null,"eur":null,"perft":null,"sound":false,"fit":"none","geur":null,"gfit":"none"}},{"type":"Feature","geometry":{"type":"Point","coordinates":[-106.09088,43.03088]},"properties":{"api":"4902521990","name":"SEVEN CROSS 33-4","op":"SLAWSON EXPLORATION COMPANY INC","co":"Natrona","st":"WY","trs":"T35N R77W S4","fm":null,"eur":null,"perft":null,"sound":false,"fit":"refused","geur":null,"gfit":"refused"}},{"type":"Feature","geometry":{"type":"Point","coordinates":[-106.09544,43.03779]},"properties":{"api":"4902505997","name":"FED C-060331 F21-4G","op":"L R COMPANY","co":"Natrona","st":"WY","trs":"T35N R77W S4","fm":null,"eur":null,"perft":null,"sound":false,"fit":"refused","geur":null,"gfit":"none"}},{"type":"Feature","geometry":{"type":"Point","coordinates":[-106.08163,42.98066]},"properties":{"api":"4902505906","name":"UNIT PATENTED F31-27P","op":"BIG MUDDY OPERATING LLC","co":"Natrona","st":"WY","trs":"T35N R77W S27","fm":null,"eur":null,"perft":null,"sound":false,"fit":"none","geur":null,"gfit":"none"}},{"type":"Feature","geometry":{"type":"Point","coordinates":[-106.11468,42.99026]},"properties":{"api":"4902520441","name":"MOBIL-FEDERAL 22","op":"TRUE OIL LLC","co":"Natrona","st":"WY","trs":"T35N R77W S20","fm":null,"eur":null,"perft":null,"sound":false,"fit":"refused","geur":null,"gfit":"refused"}},{"type":"Feature","geometry":{"type":"Point","coordinates":[-106.09505,42.9765]},"properties":{"api":"4902520454","name":"FED W-0250272 22-28","op":"PETRO-LEWIS CORPORATION","co":"Natrona","st":"WY","trs":"T35N R77W S28","fm":null,"eur":null,"perft":null,"sound":false,"fit":"none","geur":null,"gfit":"none"}},{"type":"Feature","geometry":{"type":"Point","coordinates":[-106.09016,42.97236]},"properties":{"api":"4902520492","name":"FED W-0250272 33-28","op":"CREEK OIL COMPANY","co":"Natrona","st":"WY","trs":"T35N R77W S28","fm":null,"eur":null,"perft":null,"sound":false,"fit":"none","geur":null,"gfit":"none"}},{"type":"Feature","geometry":{"type":"Point","coordinates":[-106.09387,42.99276]},"properties":{"api":"4902505924","name":"UNIT C-060424 42","op":"EXXON MOBIL OIL CORPORATION","co":"Natrona","st":"WY","trs":"T35N R77W S21","fm":null,"eur":null,"perft":null,"sound":false,"fit":"none","geur":null,"gfit":"none"}},{"type":"Feature","geometry":{"type":"Point","coordinates":[-106.09248,42.99421]},"properties":{"api":"4902505929","name":"UNIT C-054525A 51X","op":"EXXON MOBIL OIL CORPORATION","co":"Natrona","st":"WY","trs":"T35N R77W S21","fm":null,"eur":null,"perft":null,"sound":false,"fit":"none","geur":null,"gfit":"none"}},{"type":"Feature","geometry":{"type":"Point","coordinates":[-106.0892,42.9936]},"properties":{"api":"4902509685","name":"COLE CREEK UNIT 62X21-G","op":"EXXON MOBIL OIL CORPORATION","co":"Natrona","st":"WY","trs":"T35N R77W S21","fm":null,"eur":null,"perft":null,"sound":false,"fit":"none","geur":null,"gfit":"none"}},{"type":"Feature","geometry":{"type":"Point","coordinates":[-106.11437,42.99772]},"properties":{"api":"4902520689","name":"MOBIL-FEDERAL 24","op":"TRUE OIL LLC","co":"Natrona","st":"WY","trs":"T35N R77W S17","fm":null,"eur":null,"perft":null,"sound":false,"fit":"none","geur":null,"gfit":"none"}}]}