{"type":"FeatureCollection","features":[{"type":"Feature","geometry":{"type":"Point","coordinates":[-105.1764,43.2166]},"properties":{"api":"4900922481","name":"MOHR 11-5H","op":"OILFIELD SALVAGE & SERVICE COMPANY","co":"Converse","st":"WY","trs":"T37N R69W S5","fm":null,"eur":175608,"perft":null,"sound":true,"fit":"sound","geur":null,"gfit":"refused"}},{"type":"Feature","geometry":{"type":"Point","coordinates":[-105.1321,43.1512]},"properties":{"api":"4900928571","name":"CROW UNIT 27-37-69 1H","op":"DEVON ENERGY PRODUCTION COMPANY LP","co":"Converse","st":"WY","trs":"T37N R69W S27","fm":"NIOBRARA","eur":213888,"perft":47796,"sound":true,"fit":"sound","geur":null,"gfit":"refused"}},{"type":"Feature","geometry":{"type":"Point","coordinates":[-105.1821,43.1615]},"properties":{"api":"4900929222","name":"CROW UNIT 37-69 19-1NH","op":"DEVON ENERGY PRODUCTION COMPANY LP","co":"Converse","st":"WY","trs":"T37N R69W S19","fm":"NIOBRARA","eur":102617,"perft":28107,"sound":true,"fit":"sound","geur":27589,"gfit":"sound"}},{"type":"Feature","geometry":{"type":"Point","coordinates":[-105.1966,43.1606]},"properties":{"api":"4900929304","name":"CROW UNIT 37-69 30-1TH","op":"DEVON ENERGY PRODUCTION COMPANY LP","co":"Converse","st":"WY","trs":"T37N R69W S30","fm":"TEAPOT SAND","eur":34757,"perft":null,"sound":true,"fit":"sound","geur":null,"gfit":"refused"}},{"type":"Feature","geometry":{"type":"Point","coordinates":[-105.1427,43.189]},"properties":{"api":"4900929318","name":"CROW UNIT 37-69 16-1TH","op":"DEVON ENERGY PRODUCTION COMPANY LP","co":"Converse","st":"WY","trs":"T37N R69W S16","fm":"TEAPOT SAND","eur":185769,"perft":42268,"sound":true,"fit":"sound","geur":null,"gfit":"refused"}},{"type":"Feature","geometry":{"type":"Point","coordinates":[-105.1827,43.1626]},"properties":{"api":"4900929346","name":"CROW UNIT 37-69 19-1TH","op":"DEVON ENERGY PRODUCTION COMPANY LP","co":"Converse","st":"WY","trs":"T37N R69W S19","fm":"TEAPOT","eur":45890,"perft":8578,"sound":true,"fit":"sound","geur":null,"gfit":"refused"}},{"type":"Feature","geometry":{"type":"Point","coordinates":[-105.1248,43.1506]},"properties":{"api":"4900929385","name":"CROW UNIT 37-69 27-1TH","op":"DEVON ENERGY PRODUCTION COMPANY LP","co":"Converse","st":"WY","trs":"T37N R69W S27","fm":"TEAPOT","eur":284938,"perft":53864,"sound":true,"fit":"sound","geur":null,"gfit":"refused"}},{"type":"Feature","geometry":{"type":"Point","coordinates":[-105.1732,43.1614]},"properties":{"api":"4900929434","name":"CROW UNIT 37-69 20-1TH","op":"DEVON ENERGY PRODUCTION COMPANY LP","co":"Converse","st":"WY","trs":"T37N R69W S20","fm":"TEAPOT SAND","eur":181866,"perft":35576,"sound":true,"fit":"sound","geur":null,"gfit":"refused"}},{"type":"Feature","geometry":{"type":"Point","coordinates":[-105.1732,43.1621]},"properties":{"api":"4900929435","name":"CROW UNIT 37-69 20-4TH","op":"DEVON ENERGY PRODUCTION COMPANY LP","co":"Converse","st":"WY","trs":"T37N R69W S20","fm":"TEAPOT SAND","eur":119757,"perft":31001,"sound":true,"fit":"sound","geur":null,"gfit":"refused"}},{"type":"Feature","geometry":{"type":"Point","coordinates":[-105.1732,43.1621]},"properties":{"api":"4900929436","name":"CROW UNIT 37-69 20-3TH","op":"DEVON ENERGY PRODUCTION COMPANY LP","co":"Converse","st":"WY","trs":"T37N R69W S20","fm":"TEAPOT SAND","eur":70231,"perft":18218,"sound":true,"fit":"sound","geur":null,"gfit":"refused"}},{"type":"Feature","geometry":{"type":"Point","coordinates":[-105.0929,43.1449]},"properties":{"api":"4900929644","name":"SPLIT HILL UNIT 37-69 36-3TH","op":"DEVON ENERGY PRODUCTION COMPANY LP","co":"Converse","st":"WY","trs":"T37N R69W S36","fm":"TEAPOT SAND","eur":137980,"perft":35470,"sound":true,"fit":"sound","geur":null,"gfit":"refused"}},{"type":"Feature","geometry":{"type":"Point","coordinates":[-105.0928,43.1445]},"properties":{"api":"4900929645","name":"SPLIT HILL UNIT 37-69 36-2TH","op":"DEVON ENERGY PRODUCTION COMPANY LP","co":"Converse","st":"WY","trs":"T37N R69W S36","fm":"TEAPOT SAND","eur":null,"perft":null,"sound":false,"fit":"refused","geur":null,"gfit":"refused"}},{"type":"Feature","geometry":{"type":"Point","coordinates":[-105.1247,43.15]},"properties":{"api":"4900929648","name":"CROW UNIT 37-69 27-2TH","op":"DEVON ENERGY PRODUCTION COMPANY LP","co":"Converse","st":"WY","trs":"T37N R69W S27","fm":"TEAPOT SAND","eur":276857,"perft":null,"sound":true,"fit":"sound","geur":261481,"gfit":"sound"}},{"type":"Feature","geometry":{"type":"Point","coordinates":[-105.1424,43.1887]},"properties":{"api":"4900933547","name":"CU DOWNS FED 15-223769-2XTPH","op":"DEVON ENERGY PRODUCTION COMPANY LP","co":"Converse","st":"WY","trs":"T37N R69W S16","fm":"TEAPOT","eur":502409,"perft":null,"sound":true,"fit":"sound","geur":null,"gfit":"refused"}},{"type":"Feature","geometry":{"type":"Point","coordinates":[-105.1428,43.1887]},"properties":{"api":"4900933550","name":"CU DOWNS FED 09-043769-CXTPH","op":"DEVON ENERGY PRODUCTION COMPANY LP","co":"Converse","st":"WY","trs":"T37N R69W S16","fm":"TEAPOT","eur":59978,"perft":null,"sound":true,"fit":"sound","geur":20478,"gfit":"sound"}},{"type":"Feature","geometry":{"type":"Point","coordinates":[-105.1546,43.2036]},"properties":{"api":"4900934636","name":"CU REPP FED 09-213769-1XTPH","op":"DEVON ENERGY PRODUCTION COMPANY LP","co":"Converse","st":"WY","trs":"T37N R69W S9","fm":"TEAPOT","eur":439834,"perft":null,"sound":true,"fit":"sound","geur":null,"gfit":"refused"}},{"type":"Feature","geometry":{"type":"Point","coordinates":[-105.1528,43.1568]},"properties":{"api":"4900945448","name":"CU DOWNS FED 28-163769-2XNH","op":"DEVON ENERGY PRODUCTION COMPANY LP","co":"Converse","st":"WY","trs":"T37N R69W S28","fm":"NIOBRARA","eur":543543,"perft":47801,"sound":true,"fit":"sound","geur":null,"gfit":"refused"}},{"type":"Feature","geometry":{"type":"Point","coordinates":[-105.1324,43.1879]},"properties":{"api":"4900947500","name":"CU DOWNS FED 15-043769-4XTPH","op":"DEVON ENERGY PRODUCTION COMPANY LP","co":"Converse","st":"WY","trs":"T37N R69W S15","fm":"TEAPOT","eur":371833,"perft":null,"sound":true,"fit":"sound","geur":null,"gfit":"refused"}},{"type":"Feature","geometry":{"type":"Point","coordinates":[-105.1324,43.1878]},"properties":{"api":"4900947501","name":"CU DOWNS FED  15-233769-4XTPH","op":"DEVON ENERGY PRODUCTION COMPANY LP","co":"Converse","st":"WY","trs":"T37N R69W S15","fm":"TEAPOT","eur":316550,"perft":null,"sound":true,"fit":"sound","geur":229346,"gfit":"sound"}},{"type":"Feature","geometry":{"type":"Point","coordinates":[-105.17674,43.18771]},"properties":{"api":"4900920427","name":"BOWER 1-17","op":"NORTH BILL DISPOSAL LLC","co":"Converse","st":"WY","trs":"T37N R69W S17","fm":"TECKLA","eur":null,"perft":null,"sound":false,"fit":"refused","geur":null,"gfit":"refused"}},{"type":"Feature","geometry":{"type":"Point","coordinates":[-105.16611,43.18795]},"properties":{"api":"4900920869","name":"FED W-9113 1-17","op":"MATRIX PRODUCTION COMPANY","co":"Converse","st":"WY","trs":"T37N R69W S17","fm":null,"eur":null,"perft":null,"sound":false,"fit":"refused","geur":null,"gfit":"refused"}},{"type":"Feature","geometry":{"type":"Point","coordinates":[-105.17627,43.19527]},"properties":{"api":"4900922045","name":"NACHTMAN FEE 1","op":"NORTH BILL DISPOSAL LLC","co":"Converse","st":"WY","trs":"T37N R69W S8","fm":null,"eur":null,"perft":null,"sound":false,"fit":"refused","geur":null,"gfit":"refused"}},{"type":"Feature","geometry":{"type":"Point","coordinates":[-105.17592,43.20224]},"properties":{"api":"4900922403","name":"WALKER 11-8","op":"OILFIELD SALVAGE & SERVICE COMPANY","co":"Converse","st":"WY","trs":"T37N R69W S8","fm":null,"eur":null,"perft":null,"sound":false,"fit":"refused","geur":null,"gfit":"refused"}},{"type":"Feature","geometry":{"type":"Point","coordinates":[-105.1764,43.20964]},"properties":{"api":"4900922430","name":"GITHENS 13-5","op":"OILFIELD SALVAGE & SERVICE COMPANY","co":"Converse","st":"WY","trs":"T37N R69W S5","fm":null,"eur":null,"perft":null,"sound":false,"fit":"refused","geur":null,"gfit":"refused"}},{"type":"Feature","geometry":{"type":"Point","coordinates":[-105.14283,43.18829]},"properties":{"api":"4900929387","name":"CROW UNIT 37-69 16-4TH","op":"DEVON ENERGY PRODUCTION COMPANY LP","co":"Converse","st":"WY","trs":"T37N R69W S16","fm":"TEAPOT SAND","eur":162074,"perft":null,"sound":true,"fit":"sound","geur":null,"gfit":"refused"}},{"type":"Feature","geometry":{"type":"Point","coordinates":[-105.17636,43.1808]},"properties":{"api":"4900920417","name":"HARTNETT 1","op":"NORTH BILL DISPOSAL LLC","co":"Converse","st":"WY","trs":"T37N R69W S17","fm":null,"eur":119489,"perft":null,"sound":true,"fit":"sound","geur":null,"gfit":"refused"}},{"type":"Feature","geometry":{"type":"Point","coordinates":[-105.18594,43.20247]},"properties":{"api":"4900922521","name":"KUNKEL        W49824 31-7","op":"SM ENERGY COMPANY","co":"Converse","st":"WY","trs":"T37N R69W S7","fm":null,"eur":null,"perft":null,"sound":false,"fit":"refused","geur":null,"gfit":"refused"}},{"type":"Feature","geometry":{"type":"Point","coordinates":[-105.1863,43.20967]},"properties":{"api":"4900922480","name":"MOHR 33-6","op":"OILFIELD SALVAGE & SERVICE COMPANY","co":"Converse","st":"WY","trs":"T37N R69W S6","fm":null,"eur":null,"perft":null,"sound":false,"fit":"refused","geur":null,"gfit":"refused"}},{"type":"Feature","geometry":{"type":"Point","coordinates":[-105.18615,43.1953]},"properties":{"api":"4900922408","name":"RIEHLE FEE(DEQ) 1","op":"NORTH BILL DISPOSAL LLC","co":"Converse","st":"WY","trs":"T37N R69W S7","fm":null,"eur":null,"perft":null,"sound":false,"fit":"refused","geur":12949,"gfit":"sound"}},{"type":"Feature","geometry":{"type":"Point","coordinates":[-105.18608,43.1814]},"properties":{"api":"4900920642","name":"DOWNS 1-18","op":"INEXCO OIL COMPANY","co":"Converse","st":"WY","trs":"T37N R69W S18","fm":null,"eur":null,"perft":null,"sound":false,"fit":"none","geur":null,"gfit":"none"}},{"type":"Feature","geometry":{"type":"Point","coordinates":[-105.08235,43.19891]},"properties":{"api":"4900922460","name":"Downs Ranch 1-12-3769V","op":"SUNSHINE VALLEY PETROLEUM","co":"Converse","st":"WY","trs":"T37N R69W S12","fm":null,"eur":29710,"perft":null,"sound":true,"fit":"sound","geur":12614,"gfit":"sound"}},{"type":"Feature","geometry":{"type":"Point","coordinates":[-105.17634,43.17356]},"properties":{"api":"4900920390","name":"INEXCO PRE 11-23 1","op":"INEXCO OIL COMPANY","co":"Converse","st":"WY","trs":"T37N R69W S20","fm":null,"eur":null,"perft":null,"sound":false,"fit":"refused","geur":null,"gfit":"refused"}},{"type":"Feature","geometry":{"type":"Point","coordinates":[-105.18607,43.13786]},"properties":{"api":"4900920720","name":"JOAN FED W-0313166 1-310","op":"MIDGARD ENERGY COMPANY","co":"Converse","st":"WY","trs":"T37N R69W S31","fm":null,"eur":null,"perft":null,"sound":false,"fit":"none","geur":null,"gfit":"none"}}]}