{"type":"FeatureCollection","features":[{"type":"Feature","geometry":{"type":"Point","coordinates":[-104.9447,43.2033]},"properties":{"api":"4900930059","name":"SPLIT HILL UNIT 37-67 7-1FH","op":"DEVON ENERGY PRODUCTION COMPANY LP","co":"Converse","st":"WY","trs":"T37N R67W S7","fm":"FRONTIER","eur":77715,"perft":null,"sound":true,"fit":"sound","geur":null,"gfit":"refused"}},{"type":"Feature","geometry":{"type":"Point","coordinates":[-104.91988,43.17655]},"properties":{"api":"4900906469","name":"BIBLE 1","op":"SUNSHINE VALLEY PETROLEUM","co":"Converse","st":"WY","trs":"T37N R67W S17","fm":null,"eur":null,"perft":null,"sound":false,"fit":"refused","geur":null,"gfit":"refused"}},{"type":"Feature","geometry":{"type":"Point","coordinates":[-104.9197,43.13357]},"properties":{"api":"4900920097","name":"KTU 32PI","op":"FINLEY RESOURCES INC","co":"Converse","st":"WY","trs":"T37N R67W S32","fm":null,"eur":null,"perft":null,"sound":false,"fit":"refused","geur":null,"gfit":"refused"}},{"type":"Feature","geometry":{"type":"Point","coordinates":[-104.9096,43.1404]},"properties":{"api":"4900920170","name":"KTU 33-F","op":"FINLEY RESOURCES INC","co":"Converse","st":"WY","trs":"T37N R67W S33","fm":null,"eur":null,"perft":null,"sound":false,"fit":"refused","geur":null,"gfit":"refused"}},{"type":"Feature","geometry":{"type":"Point","coordinates":[-104.92959,43.1401]},"properties":{"api":"4900920226","name":"KTU 32F","op":"FINLEY RESOURCES INC","co":"Converse","st":"WY","trs":"T37N R67W S32","fm":null,"eur":null,"perft":null,"sound":false,"fit":"refused","geur":null,"gfit":"refused"}},{"type":"Feature","geometry":{"type":"Point","coordinates":[-104.93013,43.15483]},"properties":{"api":"4900920666","name":"KTU 29F","op":"FINLEY RESOURCES INC","co":"Converse","st":"WY","trs":"T37N R67W S29","fm":null,"eur":null,"perft":null,"sound":false,"fit":"refused","geur":null,"gfit":"refused"}},{"type":"Feature","geometry":{"type":"Point","coordinates":[-104.92934,43.16212]},"properties":{"api":"4900920789","name":"KTU 20N","op":"FINLEY RESOURCES INC","co":"Converse","st":"WY","trs":"T37N R67W S20","fm":null,"eur":null,"perft":null,"sound":false,"fit":"refused","geur":null,"gfit":"refused"}},{"type":"Feature","geometry":{"type":"Point","coordinates":[-104.91875,43.1548]},"properties":{"api":"4900920819","name":"KTU  29","op":"FINLEY RESOURCES INC","co":"Converse","st":"WY","trs":"T37N R67W S29","fm":null,"eur":null,"perft":null,"sound":false,"fit":"refused","geur":null,"gfit":"refused"}},{"type":"Feature","geometry":{"type":"Point","coordinates":[-104.91951,43.14773]},"properties":{"api":"4900920908","name":"KTU 29P","op":"FINLEY RESOURCES INC","co":"Converse","st":"WY","trs":"T37N R67W S29","fm":null,"eur":null,"perft":null,"sound":false,"fit":"refused","geur":null,"gfit":"refused"}},{"type":"Feature","geometry":{"type":"Point","coordinates":[-104.91455,43.14407]},"properties":{"api":"4900922870","name":"KTU 33D","op":"FINLEY RESOURCES INC","co":"Converse","st":"WY","trs":"T37N R67W S33","fm":null,"eur":null,"perft":null,"sound":false,"fit":"refused","geur":null,"gfit":"none"}},{"type":"Feature","geometry":{"type":"Point","coordinates":[-104.93987,43.13343]},"properties":{"api":"4900920477","name":"KTU 31P","op":"FINLEY RESOURCES INC","co":"Converse","st":"WY","trs":"T37N R67W S31","fm":null,"eur":null,"perft":null,"sound":false,"fit":"none","geur":null,"gfit":"none"}},{"type":"Feature","geometry":{"type":"Point","coordinates":[-104.9293,43.14807]},"properties":{"api":"4900920139","name":"KTU 29N","op":"FINLEY RESOURCES INC","co":"Converse","st":"WY","trs":"T37N R67W S29","fm":null,"eur":105460,"perft":null,"sound":true,"fit":"sound","geur":null,"gfit":"refused"}},{"type":"Feature","geometry":{"type":"Point","coordinates":[-104.94022,43.14061]},"properties":{"api":"4900920147","name":"KTU  31H","op":"FINLEY RESOURCES INC","co":"Converse","st":"WY","trs":"T37N R67W S31","fm":null,"eur":null,"perft":null,"sound":false,"fit":"none","geur":null,"gfit":"none"}},{"type":"Feature","geometry":{"type":"Point","coordinates":[-104.9196,43.14049]},"properties":{"api":"4900920167","name":"KTU 32HI","op":"FINLEY RESOURCES INC","co":"Converse","st":"WY","trs":"T37N R67W S32","fm":null,"eur":87487,"perft":null,"sound":true,"fit":"sound","geur":null,"gfit":"refused"}},{"type":"Feature","geometry":{"type":"Point","coordinates":[-104.93039,43.13358]},"properties":{"api":"4900920128","name":"KTU 32N","op":"FINLEY RESOURCES INC","co":"Converse","st":"WY","trs":"T37N R67W S32","fm":null,"eur":null,"perft":null,"sound":false,"fit":"refused","geur":null,"gfit":"refused"}},{"type":"Feature","geometry":{"type":"Point","coordinates":[-104.90966,43.13358]},"properties":{"api":"4900920131","name":"KTU 33N","op":"FINLEY RESOURCES INC","co":"Converse","st":"WY","trs":"T37N R67W S33","fm":null,"eur":null,"perft":null,"sound":false,"fit":"refused","geur":null,"gfit":"refused"}},{"type":"Feature","geometry":{"type":"Point","coordinates":[-104.91466,43.13656]},"properties":{"api":"4900922869","name":"FEDERAL WALLIS 13-33","op":"STONE ENERGY LLC","co":"Converse","st":"WY","trs":"T37N R67W S33","fm":null,"eur":null,"perft":null,"sound":false,"fit":"none","geur":null,"gfit":"none"}},{"type":"Feature","geometry":{"type":"Point","coordinates":[-104.93056,43.17663]},"properties":{"api":"4900921110","name":"FLY DIAMOND W-39122 1","op":"WICHITA RIVER OIL CORPORATION","co":"Converse","st":"WY","trs":"T37N R67W S17","fm":null,"eur":null,"perft":null,"sound":false,"fit":"none","geur":null,"gfit":"none"}}]}