{"type":"FeatureCollection","features":[{"type":"Feature","geometry":{"type":"Point","coordinates":[-104.4366,43.1663]},"properties":{"api":"4902720660","name":"FEDERAL W-35651 13-21","op":"BUCK CREEK FREIGHT INC","co":"Niobrara","st":"WY","trs":"T37N R63W S21","fm":null,"eur":80811,"perft":null,"sound":true,"fit":"sound","geur":null,"gfit":"refused"}},{"type":"Feature","geometry":{"type":"Point","coordinates":[-104.36435,43.19407]},"properties":{"api":"4902720725","name":"FEDERAL W-64028A 43-12","op":"DARRAH JOHN JAY JR","co":"Niobrara","st":"WY","trs":"T37N R63W S12","fm":"LEO","eur":null,"perft":null,"sound":false,"fit":"refused","geur":null,"gfit":"refused"}},{"type":"Feature","geometry":{"type":"Point","coordinates":[-104.36746,43.19235]},"properties":{"api":"4902726618","name":"NORTH ANT HILLS 1","op":"VAQUERO BIG HORN LLC","co":"Niobrara","st":"WY","trs":"T37N R63W S12","fm":"DAKOTA","eur":null,"perft":null,"sound":false,"fit":"refused","geur":null,"gfit":"none"}},{"type":"Feature","geometry":{"type":"Point","coordinates":[-104.36667,43.195]},"properties":{"api":"4902726643","name":"NORTH ANT HILLS 2","op":"VAQUERO BIG HORN LLC","co":"Niobrara","st":"WY","trs":"T37N R63W S12","fm":null,"eur":null,"perft":null,"sound":false,"fit":"refused","geur":null,"gfit":"none"}},{"type":"Feature","geometry":{"type":"Point","coordinates":[-104.36704,43.19712]},"properties":{"api":"4902726691","name":"NORTH ANT HILLS 3","op":"VAQUERO BIG HORN LLC","co":"Niobrara","st":"WY","trs":"T37N R63W S12","fm":"DAKOTA","eur":null,"perft":null,"sound":false,"fit":"refused","geur":null,"gfit":"none"}},{"type":"Feature","geometry":{"type":"Point","coordinates":[-104.37028,43.20326]},"properties":{"api":"4902726696","name":"WASSERBURGER 2","op":"VAQUERO BIG HORN LLC","co":"Niobrara","st":"WY","trs":"T37N R63W S12","fm":"LAKOTA","eur":null,"perft":null,"sound":false,"fit":"refused","geur":null,"gfit":"none"}},{"type":"Feature","geometry":{"type":"Point","coordinates":[-104.37221,43.20083]},"properties":{"api":"4902726697","name":"WASSERBURGER 1","op":"VAQUERO BIG HORN LLC","co":"Niobrara","st":"WY","trs":"T37N R63W S12","fm":"LAKOTA","eur":null,"perft":null,"sound":false,"fit":"refused","geur":null,"gfit":"none"}},{"type":"Feature","geometry":{"type":"Point","coordinates":[-104.36466,43.19172]},"properties":{"api":"4902726720","name":"NORTH ANT HILLS 4","op":"VAQUERO BIG HORN LLC","co":"Niobrara","st":"WY","trs":"T37N R63W S12","fm":"DAKOTA","eur":null,"perft":null,"sound":false,"fit":"refused","geur":null,"gfit":"none"}},{"type":"Feature","geometry":{"type":"Point","coordinates":[-104.36661,43.18215]},"properties":{"api":"4902726769","name":"EAST ANT HILLS 1","op":"VAQUERO BIG HORN LLC","co":"Niobrara","st":"WY","trs":"T37N R63W S13","fm":"DAKOTA","eur":95916,"perft":null,"sound":true,"fit":"sound","geur":null,"gfit":"none"}},{"type":"Feature","geometry":{"type":"Point","coordinates":[-104.36892,43.18533]},"properties":{"api":"4902726781","name":"O'BRIEN RANGER 3","op":"VAQUERO BIG HORN LLC","co":"Niobrara","st":"WY","trs":"T37N R63W S13","fm":"DAKOTA","eur":null,"perft":null,"sound":false,"fit":"refused","geur":null,"gfit":"none"}},{"type":"Feature","geometry":{"type":"Point","coordinates":[-104.36886,43.18881]},"properties":{"api":"4902726638","name":"FEDERAL 31-13","op":"DARRAH JOHN JAY JR","co":"Niobrara","st":"WY","trs":"T37N R63W S13","fm":null,"eur":null,"perft":null,"sound":false,"fit":"none","geur":null,"gfit":"none"}},{"type":"Feature","geometry":{"type":"Point","coordinates":[-104.36158,43.1586]},"properties":{"api":"4902705767","name":"DELAHOYD GOVT W-942 3","op":"ANT HILLS PRODUCTION","co":"Niobrara","st":"WY","trs":"T37N R63W S25","fm":null,"eur":null,"perft":null,"sound":false,"fit":"refused","geur":null,"gfit":"none"}},{"type":"Feature","geometry":{"type":"Point","coordinates":[-104.36152,43.155]},"properties":{"api":"4902707154","name":"DELAHOYD GOVT W-942 2","op":"ANT HILLS PRODUCTION","co":"Niobrara","st":"WY","trs":"T37N R63W S25","fm":null,"eur":17963,"perft":null,"sound":true,"fit":"sound","geur":null,"gfit":"none"}},{"type":"Feature","geometry":{"type":"Point","coordinates":[-104.4412,43.20201]},"properties":{"api":"4902720377","name":"JA-6 41-8","op":"LUSK OPERATING LLC","co":"Niobrara","st":"WY","trs":"T37N R63W S8","fm":"LEO","eur":123993,"perft":null,"sound":true,"fit":"sound","geur":null,"gfit":"refused"}},{"type":"Feature","geometry":{"type":"Point","coordinates":[-104.4417,43.2062]},"properties":{"api":"4902720398","name":"JA-6 44-5","op":"LUSK OPERATING LLC","co":"Niobrara","st":"WY","trs":"T37N R63W S5","fm":null,"eur":133056,"perft":null,"sound":true,"fit":"sound","geur":521307,"gfit":"sound"}},{"type":"Feature","geometry":{"type":"Point","coordinates":[-104.44717,43.20267]},"properties":{"api":"4902720579","name":"FEDERAL 31-8","op":"LUSK OPERATING LLC","co":"Niobrara","st":"WY","trs":"T37N R63W S8","fm":null,"eur":null,"perft":null,"sound":false,"fit":"refused","geur":null,"gfit":"refused"}},{"type":"Feature","geometry":{"type":"Point","coordinates":[-104.43586,43.17128]},"properties":{"api":"4902720638","name":"FEDERAL W-51116 12-21","op":"LUSK OPERATING LLC","co":"Niobrara","st":"WY","trs":"T37N R63W S21","fm":null,"eur":null,"perft":null,"sound":false,"fit":"refused","geur":null,"gfit":"refused"}},{"type":"Feature","geometry":{"type":"Point","coordinates":[-104.43256,43.16963]},"properties":{"api":"4902720653","name":"FEDERAL W-55008 22-21","op":"LUSK OPERATING LLC","co":"Niobrara","st":"WY","trs":"T37N R63W S21","fm":null,"eur":null,"perft":null,"sound":false,"fit":"refused","geur":null,"gfit":"refused"}},{"type":"Feature","geometry":{"type":"Point","coordinates":[-104.44076,43.17175]},"properties":{"api":"4902720657","name":"W-61169 42-20A","op":"LUSK OPERATING LLC","co":"Niobrara","st":"WY","trs":"T37N R63W S20","fm":null,"eur":2993,"perft":null,"sound":true,"fit":"sound","geur":10750,"gfit":"sound"}},{"type":"Feature","geometry":{"type":"Point","coordinates":[-104.45232,43.16346]},"properties":{"api":"4902720713","name":"WYW-39105 24-20","op":"LUSK OPERATING LLC","co":"Niobrara","st":"WY","trs":"T37N R63W S20","fm":null,"eur":null,"perft":null,"sound":false,"fit":"refused","geur":null,"gfit":"refused"}},{"type":"Feature","geometry":{"type":"Point","coordinates":[-104.42721,43.17294]},"properties":{"api":"4902720724","name":"FEDERAL W-55008 31-21","op":"LUSK OPERATING LLC","co":"Niobrara","st":"WY","trs":"T37N R63W S21","fm":null,"eur":null,"perft":null,"sound":false,"fit":"refused","geur":null,"gfit":"refused"}},{"type":"Feature","geometry":{"type":"Point","coordinates":[-104.43666,43.17386]},"properties":{"api":"4902720807","name":"FEDERAL 11-21","op":"LUSK OPERATING LLC","co":"Niobrara","st":"WY","trs":"T37N R63W S21","fm":null,"eur":null,"perft":null,"sound":false,"fit":"none","geur":null,"gfit":"none"}},{"type":"Feature","geometry":{"type":"Point","coordinates":[-104.4334,43.17365]},"properties":{"api":"4902720810","name":"FEDERAL 21-21","op":"LUSK OPERATING LLC","co":"Niobrara","st":"WY","trs":"T37N R63W S21","fm":null,"eur":750,"perft":null,"sound":true,"fit":"sound","geur":null,"gfit":"refused"}},{"type":"Feature","geometry":{"type":"Point","coordinates":[-104.47649,43.13396]},"properties":{"api":"4902720822","name":"WEYMOUTH FEE 1","op":"LUSK OPERATING LLC","co":"Niobrara","st":"WY","trs":"T37N R63W S31","fm":null,"eur":469081,"perft":null,"sound":true,"fit":"sound","geur":null,"gfit":"refused"}},{"type":"Feature","geometry":{"type":"Point","coordinates":[-104.36556,43.19279]},"properties":{"api":"4902726771","name":"JD WASSERBURGER  1","op":"DARRAH JOHN JAY JR","co":"Niobrara","st":"WY","trs":"T37N R63W S12","fm":null,"eur":null,"perft":null,"sound":false,"fit":"none","geur":null,"gfit":"none"}},{"type":"Feature","geometry":{"type":"Point","coordinates":[-104.37189,43.20282]},"properties":{"api":"4902720101","name":"WASSERBURGER  PATENT 2-12","op":"VENTRUM ENERGY CORPORATION","co":"Niobrara","st":"WY","trs":"T37N R63W S12","fm":"LAKOTA","eur":null,"perft":null,"sound":false,"fit":"refused","geur":null,"gfit":"none"}},{"type":"Feature","geometry":{"type":"Point","coordinates":[-104.37363,43.21737]},"properties":{"api":"4902720425","name":"WASSERBURGER  1","op":"VENTRUM ENERGY CORPORATION","co":"Niobrara","st":"WY","trs":"T37N R63W S1","fm":null,"eur":42384,"perft":null,"sound":true,"fit":"sound","geur":null,"gfit":"none"}},{"type":"Feature","geometry":{"type":"Point","coordinates":[-104.3689,43.19664]},"properties":{"api":"4902720548","name":"FEDERAL  33-12","op":"RICHARDSON OPERATING CO","co":"Niobrara","st":"WY","trs":"T37N R63W S12","fm":null,"eur":null,"perft":null,"sound":false,"fit":"refused","geur":74284,"gfit":"sound"}},{"type":"Feature","geometry":{"type":"Point","coordinates":[-104.44556,43.20558]},"properties":{"api":"4902720431","name":"FEDERAL 34-5","op":"ASHER ASSOCIATES INC","co":"Niobrara","st":"WY","trs":"T37N R63W S5","fm":null,"eur":null,"perft":null,"sound":false,"fit":"none","geur":null,"gfit":"none"}},{"type":"Feature","geometry":{"type":"Point","coordinates":[-104.36842,43.19937]},"properties":{"api":"4902720587","name":"FEDERAL W-58078 32-12","op":"RICHARDSON OPERATING CO","co":"Niobrara","st":"WY","trs":"T37N R63W S12","fm":null,"eur":107084,"perft":null,"sound":true,"fit":"sound","geur":76906,"gfit":"sound"}},{"type":"Feature","geometry":{"type":"Point","coordinates":[-104.47139,43.13778]},"properties":{"api":"4902721009","name":"WEYMOUTH 2","op":"LUSK OPERATING LLC","co":"Niobrara","st":"WY","trs":"T37N R63W S31","fm":null,"eur":null,"perft":null,"sound":false,"fit":"none","geur":null,"gfit":"none"}},{"type":"Feature","geometry":{"type":"Point","coordinates":[-104.37264,43.20611]},"properties":{"api":"4902726734","name":"IRMA 14-1","op":"SKINNER OIL & GAS LLC","co":"Niobrara","st":"WY","trs":"T37N R63W S1","fm":null,"eur":null,"perft":null,"sound":false,"fit":"none","geur":null,"gfit":"none"}},{"type":"Feature","geometry":{"type":"Point","coordinates":[-104.36766,43.18123]},"properties":{"api":"4902705784","name":"RANGER 2","op":"O'BRIEN ENERGY RESOURCES CORPORATION","co":"Niobrara","st":"WY","trs":"T37N R63W S13","fm":"DAKOTA","eur":null,"perft":null,"sound":false,"fit":"refused","geur":null,"gfit":"none"}},{"type":"Feature","geometry":{"type":"Point","coordinates":[-104.37628,43.20752]},"properties":{"api":"4902705808","name":"ANTOINE W-06279A 1","op":"ANT HILLS PRODUCTION","co":"Niobrara","st":"WY","trs":"T37N R63W S1","fm":null,"eur":null,"perft":null,"sound":false,"fit":"refused","geur":null,"gfit":"none"}},{"type":"Feature","geometry":{"type":"Point","coordinates":[-104.36797,43.20331]},"properties":{"api":"4902720578","name":"WASSERBURGER 31-12","op":"O'BRIEN ENERGY RESOURCES CORPORATION","co":"Niobrara","st":"WY","trs":"T37N R63W S12","fm":null,"eur":null,"perft":null,"sound":false,"fit":"none","geur":null,"gfit":"none"}},{"type":"Feature","geometry":{"type":"Point","coordinates":[-104.3636,43.19862]},"properties":{"api":"4902720627","name":"FEDERAL 42-12","op":"RICHARDSON OPERATING CO","co":"Niobrara","st":"WY","trs":"T37N R63W S12","fm":null,"eur":null,"perft":null,"sound":false,"fit":"none","geur":null,"gfit":"none"}},{"type":"Feature","geometry":{"type":"Point","coordinates":[-104.43747,43.20913]},"properties":{"api":"4902720404","name":"HANSON 13-4","op":"CHIPCORE LLC","co":"Niobrara","st":"WY","trs":"T37N R63W S4","fm":null,"eur":null,"perft":null,"sound":false,"fit":"none","geur":null,"gfit":"none"}},{"type":"Feature","geometry":{"type":"Point","coordinates":[-104.36157,43.16222]},"properties":{"api":"4902705764","name":"TOM BELL CH-040387 1","op":"REUNION ENERGY COMPANY","co":"Niobrara","st":"WY","trs":"T37N R63W S24","fm":null,"eur":null,"perft":null,"sound":false,"fit":"none","geur":null,"gfit":"none"}}]}