{"type":"FeatureCollection","features":[{"type":"Feature","geometry":{"type":"Point","coordinates":[-106.74951,43.17753]},"properties":{"api":"4902522864","name":"LOST DOME 1","op":"EVEREST OIL & GAS LLC","co":"Natrona","st":"WY","trs":"T37N R83W S13","fm":"TENSLEEP","eur":183387,"perft":null,"sound":true,"fit":"sound","geur":null,"gfit":"none"}},{"type":"Feature","geometry":{"type":"Point","coordinates":[-106.75387,43.18193]},"properties":{"api":"4902522942","name":"LOST DOME FEDERAL 3-B H","op":"EVEREST OIL & GAS LLC","co":"Natrona","st":"WY","trs":"T37N R83W S13","fm":"TENSLEEP","eur":295022,"perft":256988,"sound":true,"fit":"sound","geur":null,"gfit":"none"}},{"type":"Feature","geometry":{"type":"Point","coordinates":[-106.7538,43.18186]},"properties":{"api":"4902522949","name":"LOST DOME FEDERAL 4H","op":"EVEREST OIL & GAS LLC","co":"Natrona","st":"WY","trs":"T37N R83W S13","fm":"TENSLEEP","eur":402715,"perft":396764,"sound":true,"fit":"sound","geur":null,"gfit":"none"}},{"type":"Feature","geometry":{"type":"Point","coordinates":[-106.75223,43.17875]},"properties":{"api":"4902522950","name":"LOST DOME 2","op":"EVEREST OIL & GAS LLC","co":"Natrona","st":"WY","trs":"T37N R83W S13","fm":"TENSLEEP","eur":227616,"perft":null,"sound":true,"fit":"sound","geur":null,"gfit":"none"}},{"type":"Feature","geometry":{"type":"Point","coordinates":[-106.75236,43.17881]},"properties":{"api":"4902523002","name":"LOST DOME FEDERAL 6H","op":"EVEREST OIL & GAS LLC","co":"Natrona","st":"WY","trs":"T37N R83W S13","fm":"TENSLEEP","eur":147831,"perft":null,"sound":true,"fit":"sound","geur":null,"gfit":"none"}},{"type":"Feature","geometry":{"type":"Point","coordinates":[-106.75157,43.17868]},"properties":{"api":"4902523004","name":"LOST DOME FEDERAL 5","op":"EVEREST OIL & GAS LLC","co":"Natrona","st":"WY","trs":"T37N R83W S13","fm":"TENSLEEP","eur":294824,"perft":null,"sound":true,"fit":"sound","geur":null,"gfit":"none"}}]}