{"type":"FeatureCollection","features":[{"type":"Feature","geometry":{"type":"Point","coordinates":[-105.2089,43.1554]},"properties":{"api":"4900928614","name":"CROW UNIT 37-70 25-1TH","op":"DEVON ENERGY PRODUCTION COMPANY LP","co":"Converse","st":"WY","trs":"T37N R70W S25","fm":"TEAPOT SAND","eur":92300,"perft":20906,"sound":true,"fit":"sound","geur":null,"gfit":"refused"}},{"type":"Feature","geometry":{"type":"Point","coordinates":[-105.2119,43.1331]},"properties":{"api":"4900929036","name":"CROW UNIT 37-70 36-1TH","op":"DEVON ENERGY PRODUCTION COMPANY LP","co":"Converse","st":"WY","trs":"T37N R70W S36","fm":"TEAPOT SS","eur":null,"perft":null,"sound":false,"fit":"refused","geur":null,"gfit":"refused"}},{"type":"Feature","geometry":{"type":"Point","coordinates":[-105.2143,43.1913]},"properties":{"api":"4900929543","name":"BARBE TRUST 37-70 12-1TH","op":"DEVON ENERGY PRODUCTION COMPANY LP","co":"Converse","st":"WY","trs":"T37N R70W S12","fm":null,"eur":null,"perft":null,"sound":false,"fit":"none","geur":null,"gfit":"none"}},{"type":"Feature","geometry":{"type":"Point","coordinates":[-105.2841,43.2036]},"properties":{"api":"4900943332","name":"BLUM FED 3770-17-N6H","op":"ANADARKO E&P ONSHORE LLC","co":"Converse","st":"WY","trs":"T37N R70W S5","fm":"NIOBRARA","eur":493666,"perft":65569,"sound":true,"fit":"sound","geur":158748,"gfit":"sound"}},{"type":"Feature","geometry":{"type":"Point","coordinates":[-105.2124,43.1765]},"properties":{"api":"4900949718","name":"KSS Fed 13-363770-3XNH","op":"DEVON ENERGY PRODUCTION COMPANY LP","co":"Converse","st":"WY","trs":"T37N R70W S13","fm":null,"eur":null,"perft":null,"sound":false,"fit":"none","geur":null,"gfit":"none"}},{"type":"Feature","geometry":{"type":"Point","coordinates":[-105.2124,43.1767]},"properties":{"api":"4900949719","name":"KSS Fed 13-363770-1XNH","op":"DEVON ENERGY PRODUCTION COMPANY LP","co":"Converse","st":"WY","trs":"T37N R70W S13","fm":null,"eur":null,"perft":null,"sound":false,"fit":"none","geur":null,"gfit":"none"}},{"type":"Feature","geometry":{"type":"Point","coordinates":[-105.2124,43.1766]},"properties":{"api":"4900949720","name":"KSS Fed 13-363770-5XNH","op":"DEVON ENERGY PRODUCTION COMPANY LP","co":"Converse","st":"WY","trs":"T37N R70W S13","fm":null,"eur":null,"perft":null,"sound":false,"fit":"none","geur":null,"gfit":"none"}},{"type":"Feature","geometry":{"type":"Point","coordinates":[-105.26165,43.16892]},"properties":{"api":"4900920771","name":"MADSEN 21-1","op":"MATRIX PRODUCTION COMPANY","co":"Converse","st":"WY","trs":"T37N R70W S21","fm":null,"eur":null,"perft":null,"sound":false,"fit":"refused","geur":null,"gfit":"refused"}},{"type":"Feature","geometry":{"type":"Point","coordinates":[-105.27658,43.19087]},"properties":{"api":"4900920790","name":"MADSEN 9-1","op":"MATRIX PRODUCTION COMPANY","co":"Converse","st":"WY","trs":"T37N R70W S9","fm":null,"eur":110977,"perft":null,"sound":true,"fit":"sound","geur":null,"gfit":"none"}},{"type":"Feature","geometry":{"type":"Point","coordinates":[-105.30169,43.21273]},"properties":{"api":"4900920811","name":"GOVT W-0315210 6-1","op":"JT OPERATING LLC","co":"Converse","st":"WY","trs":"T37N R70W S6","fm":null,"eur":null,"perft":null,"sound":false,"fit":"refused","geur":null,"gfit":"refused"}},{"type":"Feature","geometry":{"type":"Point","coordinates":[-105.26652,43.18358]},"properties":{"api":"4900920846","name":"STATE 68-27807  1-16","op":"ANADARKO E&P ONSHORE LLC","co":"Converse","st":"WY","trs":"T37N R70W S16","fm":null,"eur":88796,"perft":null,"sound":true,"fit":"sound","geur":null,"gfit":"refused"}},{"type":"Feature","geometry":{"type":"Point","coordinates":[-105.26159,43.16157]},"properties":{"api":"4900920898","name":"MARATHON FED 44-21","op":"ANADARKO E&P ONSHORE LLC","co":"Converse","st":"WY","trs":"T37N R70W S21","fm":null,"eur":null,"perft":null,"sound":false,"fit":"refused","geur":null,"gfit":"refused"}},{"type":"Feature","geometry":{"type":"Point","coordinates":[-105.27598,43.17661]},"properties":{"api":"4900920899","name":"STATE 4-16","op":"ANADARKO E&P ONSHORE LLC","co":"Converse","st":"WY","trs":"T37N R70W S16","fm":null,"eur":72800,"perft":null,"sound":true,"fit":"sound","geur":null,"gfit":"refused"}},{"type":"Feature","geometry":{"type":"Point","coordinates":[-105.25155,43.16186]},"properties":{"api":"4900920934","name":"LAWRENCE L NACHTMAN 1","op":"MATRIX PRODUCTION COMPANY","co":"Converse","st":"WY","trs":"T37N R70W S22","fm":null,"eur":null,"perft":null,"sound":false,"fit":"refused","geur":null,"gfit":"refused"}},{"type":"Feature","geometry":{"type":"Point","coordinates":[-105.26152,43.15458]},"properties":{"api":"4900920954","name":"OAKLEY 42-28","op":"MATRIX PRODUCTION COMPANY","co":"Converse","st":"WY","trs":"T37N R70W S28","fm":null,"eur":104472,"perft":null,"sound":true,"fit":"sound","geur":null,"gfit":"refused"}},{"type":"Feature","geometry":{"type":"Point","coordinates":[-105.26134,43.14043]},"properties":{"api":"4900920969","name":"FED SHAFFER 1-33","op":"MATRIX PRODUCTION COMPANY","co":"Converse","st":"WY","trs":"T37N R70W S33","fm":null,"eur":null,"perft":null,"sound":false,"fit":"refused","geur":null,"gfit":"refused"}},{"type":"Feature","geometry":{"type":"Point","coordinates":[-105.25791,43.1756]},"properties":{"api":"4900920970","name":"IRETON 1-15","op":"IWS LEMAY LLC","co":"Converse","st":"WY","trs":"T37N R70W S15","fm":null,"eur":31272,"perft":null,"sound":true,"fit":"sound","geur":null,"gfit":"refused"}},{"type":"Feature","geometry":{"type":"Point","coordinates":[-105.25142,43.14778]},"properties":{"api":"4900921068","name":"LAWRENCE L NACHTMAN 2","op":"MATRIX PRODUCTION COMPANY","co":"Converse","st":"WY","trs":"T37N R70W S27","fm":null,"eur":105223,"perft":null,"sound":true,"fit":"sound","geur":null,"gfit":"refused"}},{"type":"Feature","geometry":{"type":"Point","coordinates":[-105.25151,43.15478]},"properties":{"api":"4900921069","name":"LAWRENCE L NACHTMAN 3","op":"MATRIX PRODUCTION COMPANY","co":"Converse","st":"WY","trs":"T37N R70W S27","fm":null,"eur":null,"perft":null,"sound":false,"fit":"refused","geur":null,"gfit":"refused"}},{"type":"Feature","geometry":{"type":"Point","coordinates":[-105.25132,43.1336]},"properties":{"api":"4900921304","name":"FED W-9101 24-34","op":"MATRIX PRODUCTION COMPANY","co":"Converse","st":"WY","trs":"T37N R70W S34","fm":null,"eur":121903,"perft":null,"sound":true,"fit":"sound","geur":null,"gfit":"refused"}},{"type":"Feature","geometry":{"type":"Point","coordinates":[-105.26124,43.13263]},"properties":{"api":"4900921424","name":"FEDERAL W-9101 44-33","op":"MATRIX PRODUCTION COMPANY","co":"Converse","st":"WY","trs":"T37N R70W S33","fm":null,"eur":70944,"perft":null,"sound":true,"fit":"sound","geur":null,"gfit":"refused"}},{"type":"Feature","geometry":{"type":"Point","coordinates":[-105.27737,43.19757]},"properties":{"api":"4900922366","name":"MART MADSEN SHEEP CO 12-9","op":"JT OPERATING LLC","co":"Converse","st":"WY","trs":"T37N R70W S9","fm":null,"eur":190064,"perft":null,"sound":true,"fit":"sound","geur":null,"gfit":"refused"}},{"type":"Feature","geometry":{"type":"Point","coordinates":[-105.2519,43.16864]},"properties":{"api":"4900922367","name":"MART MADSEN SHEEP CO 22-22","op":"JT OPERATING LLC","co":"Converse","st":"WY","trs":"T37N R70W S22","fm":null,"eur":null,"perft":null,"sound":false,"fit":"refused","geur":null,"gfit":"refused"}},{"type":"Feature","geometry":{"type":"Point","coordinates":[-105.26653,43.17617]},"properties":{"api":"4900920847","name":"STATE 68-27807 2-160","op":"RIM OPERATING INC","co":"Converse","st":"WY","trs":"T37N R70W S16","fm":null,"eur":123666,"perft":null,"sound":true,"fit":"sound","geur":null,"gfit":"refused"}},{"type":"Feature","geometry":{"type":"Point","coordinates":[-105.27651,43.18337]},"properties":{"api":"4900920897","name":"STATE 3-160","op":"RIM OPERATING INC","co":"Converse","st":"WY","trs":"T37N R70W S16","fm":null,"eur":14321,"perft":null,"sound":true,"fit":"sound","geur":null,"gfit":"refused"}},{"type":"Feature","geometry":{"type":"Point","coordinates":[-105.24032,43.13381]},"properties":{"api":"4900920945","name":"JAKE JOHNSON 44-34","op":"MATRIX PRODUCTION COMPANY","co":"Converse","st":"WY","trs":"T37N R70W S34","fm":null,"eur":null,"perft":null,"sound":false,"fit":"refused","geur":null,"gfit":"refused"}},{"type":"Feature","geometry":{"type":"Point","coordinates":[-105.28646,43.18366]},"properties":{"api":"4900920953","name":"MADSEN SHEEP CO A A-1","op":"MANX OIL CORPORATION","co":"Converse","st":"WY","trs":"T37N R70W S17","fm":null,"eur":null,"perft":null,"sound":false,"fit":"refused","geur":null,"gfit":"none"}},{"type":"Feature","geometry":{"type":"Point","coordinates":[-105.26143,43.14768]},"properties":{"api":"4900920611","name":"OAKLEY 44-28","op":"NEWARD CORPORATION","co":"Converse","st":"WY","trs":"T37N R70W S28","fm":null,"eur":null,"perft":null,"sound":false,"fit":"refused","geur":null,"gfit":"refused"}},{"type":"Feature","geometry":{"type":"Point","coordinates":[-105.25145,43.14058]},"properties":{"api":"4900920658","name":"FED 22-34","op":"NEWARD CORPORATION","co":"Converse","st":"WY","trs":"T37N R70W S34","fm":null,"eur":87482,"perft":null,"sound":true,"fit":"sound","geur":null,"gfit":"refused"}},{"type":"Feature","geometry":{"type":"Point","coordinates":[-105.28575,43.19096]},"properties":{"api":"4900920941","name":"FED W-35708 34-8","op":"RATHPRO INC","co":"Converse","st":"WY","trs":"T37N R70W S8","fm":null,"eur":null,"perft":null,"sound":false,"fit":"refused","geur":null,"gfit":"refused"}},{"type":"Feature","geometry":{"type":"Point","coordinates":[-105.28653,43.19833]},"properties":{"api":"4900921066","name":"MARATHON FED 32-8","op":"RATHPRO INC","co":"Converse","st":"WY","trs":"T37N R70W S8","fm":null,"eur":null,"perft":null,"sound":false,"fit":"refused","geur":null,"gfit":"refused"}},{"type":"Feature","geometry":{"type":"Point","coordinates":[-105.28107,43.20866]},"properties":{"api":"4900920905","name":"MADSEN 5-1-0","op":"MARQUIS-ALLRED ENG INC","co":"Converse","st":"WY","trs":"T37N R70W S5","fm":null,"eur":null,"perft":null,"sound":false,"fit":"refused","geur":null,"gfit":"none"}},{"type":"Feature","geometry":{"type":"Point","coordinates":[-105.26645,43.19089]},"properties":{"api":"4900920823","name":"MADSEN FEE 9-2 0","op":"THE BRINKERHOFF COMPANY","co":"Converse","st":"WY","trs":"T37N R70W S9","fm":null,"eur":null,"perft":null,"sound":false,"fit":"none","geur":null,"gfit":"none"}}]}