{"type":"FeatureCollection","features":[{"type":"Feature","geometry":{"type":"Point","coordinates":[-105.917,43.2945]},"properties":{"api":"4900927900","name":"CROTALUS 3-1H","op":"SAGE BUTTE PRB OPERATING, LLC","co":"Converse","st":"WY","trs":"T38N R76W S1","fm":"FRONTIER","eur":null,"perft":null,"sound":false,"fit":"refused","geur":null,"gfit":"refused"}},{"type":"Feature","geometry":{"type":"Point","coordinates":[-105.9346,43.3003]},"properties":{"api":"4900930295","name":"CANNON FED 3876-1-12-1FH","op":"SAGE BUTTE PRB OPERATING, LLC","co":"Converse","st":"WY","trs":"T38N R76W S1","fm":"FRONTIER","eur":268479,"perft":null,"sound":true,"fit":"sound","geur":378935,"gfit":"sound"}},{"type":"Feature","geometry":{"type":"Point","coordinates":[-105.9586,43.2756]},"properties":{"api":"4900932863","name":"KATY FED 3876-10-15-22-1FH","op":"SAGE BUTTE PRB OPERATING, LLC","co":"Converse","st":"WY","trs":"T38N R76W S10","fm":"FRONTIER","eur":78804,"perft":null,"sound":true,"fit":"sound","geur":116039,"gfit":"sound"}},{"type":"Feature","geometry":{"type":"Point","coordinates":[-105.9405,43.2711]},"properties":{"api":"4900935096","name":"RAIDER FED 3876-11-2-1FH","op":"SAGE BUTTE PRB OPERATING, LLC","co":"Converse","st":"WY","trs":"T38N R76W S14","fm":"FRONTIER","eur":null,"perft":null,"sound":false,"fit":"refused","geur":478078,"gfit":"sound"}},{"type":"Feature","geometry":{"type":"Point","coordinates":[-105.9403,43.2711]},"properties":{"api":"4900935098","name":"PINON 14E23-5FH","op":"SAGE BUTTE PRB OPERATING, LLC","co":"Converse","st":"WY","trs":"T38N R76W S14","fm":"FRONTIER","eur":158872,"perft":null,"sound":true,"fit":"sound","geur":null,"gfit":"refused"}},{"type":"Feature","geometry":{"type":"Point","coordinates":[-105.9402,43.2711]},"properties":{"api":"4900935100","name":"PINON 14E23-7FH","op":"SAGE BUTTE PRB OPERATING, LLC","co":"Converse","st":"WY","trs":"T38N R76W S14","fm":"FRONTIER","eur":357021,"perft":null,"sound":true,"fit":"sound","geur":675760,"gfit":"sound"}},{"type":"Feature","geometry":{"type":"Point","coordinates":[-105.92661,43.25023]},"properties":{"api":"4900922412","name":"SNAKE CHARMER DRAW 1-24","op":"SAGE BUTTE PRB OPERATING, LLC","co":"Converse","st":"WY","trs":"T38N R76W S24","fm":"SHANNON","eur":208901,"perft":null,"sound":true,"fit":"sound","geur":null,"gfit":"refused"}},{"type":"Feature","geometry":{"type":"Point","coordinates":[-105.9183,43.25855]},"properties":{"api":"4900927905","name":"DIAMONDBACK 2-13","op":"SAGE BUTTE PRB OPERATING, LLC","co":"Converse","st":"WY","trs":"T38N R76W S13","fm":null,"eur":null,"perft":null,"sound":false,"fit":"none","geur":null,"gfit":"none"}},{"type":"Feature","geometry":{"type":"Point","coordinates":[-105.92064,43.2499]},"properties":{"api":"4900927915","name":"DIAMONDBACK 4-24","op":"SAGE BUTTE PRB OPERATING, LLC","co":"Converse","st":"WY","trs":"T38N R76W S24","fm":null,"eur":null,"perft":null,"sound":false,"fit":"refused","geur":null,"gfit":"refused"}},{"type":"Feature","geometry":{"type":"Point","coordinates":[-105.99411,43.30006]},"properties":{"api":"4900930103","name":"ALAMO FED 3976-33-28-1FH","op":"SAGE BUTTE PRB OPERATING, LLC","co":"Converse","st":"WY","trs":"T38N R76W S4","fm":"FRONTIER","eur":null,"perft":null,"sound":false,"fit":"refused","geur":null,"gfit":"refused"}}]}