{"type":"FeatureCollection","features":[{"type":"Feature","geometry":{"type":"Point","coordinates":[-106.4254,43.38271]},"properties":{"api":"4902507089","name":"FED W-039598 2","op":"RELIABLE OIL & GAS INC","co":"Natrona","st":"WY","trs":"T39N R80W S2","fm":null,"eur":null,"perft":null,"sound":false,"fit":"none","geur":null,"gfit":"none"}},{"type":"Feature","geometry":{"type":"Point","coordinates":[-106.42698,43.38288]},"properties":{"api":"4902507090","name":"FED W-039598 1","op":"RELIABLE OIL & GAS INC","co":"Natrona","st":"WY","trs":"T39N R80W S2","fm":null,"eur":null,"perft":null,"sound":false,"fit":"refused","geur":null,"gfit":"none"}},{"type":"Feature","geometry":{"type":"Point","coordinates":[-106.42906,43.38201]},"properties":{"api":"4902520281","name":"FEDERAL W-12840 2","op":"RELIABLE OIL & GAS INC","co":"Natrona","st":"WY","trs":"T39N R80W S3","fm":null,"eur":null,"perft":null,"sound":false,"fit":"refused","geur":null,"gfit":"none"}},{"type":"Feature","geometry":{"type":"Point","coordinates":[-106.42146,43.38278]},"properties":{"api":"4902521021","name":"BRADLY W-039598 7A","op":"RELIABLE OIL & GAS INC","co":"Natrona","st":"WY","trs":"T39N R80W S2","fm":null,"eur":null,"perft":null,"sound":false,"fit":"refused","geur":null,"gfit":"none"}},{"type":"Feature","geometry":{"type":"Point","coordinates":[-106.4292,43.38315]},"properties":{"api":"4902522621","name":"SMOKY GAP 3-1","op":"ANTELOPE RESOURCES INC","co":"Natrona","st":"WY","trs":"T39N R80W S3","fm":null,"eur":null,"perft":null,"sound":false,"fit":"none","geur":null,"gfit":"none"}}]}