{"type":"FeatureCollection","features":[{"type":"Feature","geometry":{"type":"Point","coordinates":[-105.6839,43.3168]},"properties":{"api":"4900928325","name":"GH FEDERAL 44-25H","op":"CONTINENTAL RESOURCES INC","co":"Converse","st":"WY","trs":"T39N R74W S25","fm":"SUSSEX","eur":269806,"perft":null,"sound":true,"fit":"sound","geur":null,"gfit":"refused"}},{"type":"Feature","geometry":{"type":"Point","coordinates":[-105.7752,43.3181]},"properties":{"api":"4900928583","name":"ALLEMAND FEE 14-29 39-74H","op":"CONTINENTAL RESOURCES INC","co":"Converse","st":"WY","trs":"T39N R74W S29","fm":"SUSSEX","eur":null,"perft":null,"sound":false,"fit":"refused","geur":null,"gfit":"refused"}},{"type":"Feature","geometry":{"type":"Point","coordinates":[-105.7188,43.3219]},"properties":{"api":"4900928615","name":"HARDY 12-26H","op":"WRC ENERGY LLC","co":"Converse","st":"WY","trs":"T39N R74W S26","fm":"SUSSEX","eur":223343,"perft":53419,"sound":true,"fit":"sound","geur":null,"gfit":"refused"}},{"type":"Feature","geometry":{"type":"Point","coordinates":[-105.7474,43.3465]},"properties":{"api":"4900928661","name":"DILTS RANCH STATE 34-16 39-74H","op":"CONTINENTAL RESOURCES INC","co":"Converse","st":"WY","trs":"T39N R74W S16","fm":"SUSSEX","eur":null,"perft":null,"sound":false,"fit":"refused","geur":null,"gfit":"refused"}},{"type":"Feature","geometry":{"type":"Point","coordinates":[-105.7407,43.322]},"properties":{"api":"4900928742","name":"HARDY 12-27-39-74SXH","op":"WRC ENERGY LLC","co":"Converse","st":"WY","trs":"T39N R74W S28","fm":"SUSSEX","eur":184573,"perft":null,"sound":true,"fit":"sound","geur":null,"gfit":"refused"}},{"type":"Feature","geometry":{"type":"Point","coordinates":[-105.7024,43.3458]},"properties":{"api":"4900928743","name":"HARDY 16-14-39-74SXH","op":"WRC ENERGY LLC","co":"Converse","st":"WY","trs":"T39N R74W S14","fm":"SUSSEX","eur":181822,"perft":45581,"sound":true,"fit":"sound","geur":122314,"gfit":"sound"}},{"type":"Feature","geometry":{"type":"Point","coordinates":[-105.7183,43.3439]},"properties":{"api":"4900928744","name":"HARDY 4-23-39-74SXH","op":"WRC ENERGY LLC","co":"Converse","st":"WY","trs":"T39N R74W S23","fm":"SUSSEX","eur":214343,"perft":51389,"sound":true,"fit":"sound","geur":null,"gfit":"refused"}},{"type":"Feature","geometry":{"type":"Point","coordinates":[-105.7894,43.3604]},"properties":{"api":"4900929019","name":"SPEARHEAD FED 14-7H","op":"SAGE BUTTE PRB OPERATING, LLC","co":"Converse","st":"WY","trs":"T39N R74W S7","fm":"SHANNON","eur":416361,"perft":null,"sound":true,"fit":"sound","geur":null,"gfit":"refused"}},{"type":"Feature","geometry":{"type":"Point","coordinates":[-105.7452,43.3151]},"properties":{"api":"4900934267","name":"Lake Angeline 3974-27-22-1FH","op":"WRC ENERGY LLC","co":"Converse","st":"WY","trs":"T39N R74W S33","fm":null,"eur":null,"perft":null,"sound":false,"fit":"none","geur":null,"gfit":"none"}},{"type":"Feature","geometry":{"type":"Point","coordinates":[-105.7455,43.3151]},"properties":{"api":"4900937333","name":"BIGHORN PEAK 3974-21-28-1NH","op":"WRC ENERGY LLC","co":"Converse","st":"WY","trs":"T39N R74W S33","fm":null,"eur":null,"perft":null,"sound":false,"fit":"none","geur":null,"gfit":"none"}},{"type":"Feature","geometry":{"type":"Point","coordinates":[-105.7865,43.3868]},"properties":{"api":"4900938984","name":"SHEEPHERDER LAKE 3974-6-7-1NH","op":"WRC ENERGY LLC","co":"Converse","st":"WY","trs":"T39N R74W S6","fm":"NIOBRARA","eur":1231727,"perft":122804,"sound":true,"fit":"sound","geur":null,"gfit":"refused"}},{"type":"Feature","geometry":{"type":"Point","coordinates":[-105.7907,43.3291]},"properties":{"api":"4900941030","name":"ALLEMAND FED 31-1918 39-74FH","op":"CONTINENTAL RESOURCES INC","co":"Converse","st":"WY","trs":"T39N R74W S30","fm":"FRONTIER","eur":89948,"perft":null,"sound":true,"fit":"sound","geur":null,"gfit":"refused"}},{"type":"Feature","geometry":{"type":"Point","coordinates":[-105.7907,43.329]},"properties":{"api":"4900941031","name":"ALLEMAND FED 34-3031 39-74 NH","op":"CONTINENTAL RESOURCES INC","co":"Converse","st":"WY","trs":"T39N R74W S30","fm":"NIOBRARA","eur":null,"perft":null,"sound":false,"fit":"refused","geur":null,"gfit":"refused"}},{"type":"Feature","geometry":{"type":"Point","coordinates":[-105.7788,43.3293]},"properties":{"api":"4900941582","name":"ALLEMAND FED 21-2017 39-74FH","op":"CONTINENTAL RESOURCES INC","co":"Converse","st":"WY","trs":"T39N R74W S29","fm":"FRONTIER","eur":203422,"perft":null,"sound":true,"fit":"sound","geur":1664511,"gfit":"sound"}},{"type":"Feature","geometry":{"type":"Point","coordinates":[-105.7644,43.3575]},"properties":{"api":"4900946183","name":"BOHLANDER FED 3974-1720 2FH","op":"CONTINENTAL RESOURCES INC","co":"Converse","st":"WY","trs":"T39N R74W S17","fm":"FRONTIER","eur":292081,"perft":null,"sound":true,"fit":"sound","geur":null,"gfit":"refused"}},{"type":"Feature","geometry":{"type":"Point","coordinates":[-105.7642,43.3578]},"properties":{"api":"4900948934","name":"Solitude Fed 3974-1720 1SXH","op":"CONTINENTAL RESOURCES INC","co":"Converse","st":"WY","trs":"T39N R74W S17","fm":"SUSSEX","eur":null,"perft":null,"sound":false,"fit":"refused","geur":null,"gfit":"refused"}},{"type":"Feature","geometry":{"type":"Point","coordinates":[-105.7643,43.3577]},"properties":{"api":"4900948935","name":"Solitude Fed 3974-1720 3SXH","op":"CONTINENTAL RESOURCES INC","co":"Converse","st":"WY","trs":"T39N R74W S17","fm":"SUSSEX","eur":null,"perft":null,"sound":false,"fit":"refused","geur":null,"gfit":"refused"}},{"type":"Feature","geometry":{"type":"Point","coordinates":[-105.7643,43.3576]},"properties":{"api":"4900948936","name":"Solitude Fed 3974-1720 4MH","op":"CONTINENTAL RESOURCES INC","co":"Converse","st":"WY","trs":"T39N R74W S17","fm":"MOWRY","eur":63945,"perft":6246,"sound":true,"fit":"sound","geur":null,"gfit":"refused"}},{"type":"Feature","geometry":{"type":"Point","coordinates":[-105.7867,43.3866]},"properties":{"api":"4900949432","name":"TEEPEE POLE FLATS 4074-32-29-1SH","op":"WRC ENERGY LLC","co":"Converse","st":"WY","trs":"T39N R74W S6","fm":"SHANNON","eur":null,"perft":null,"sound":false,"fit":"refused","geur":null,"gfit":"refused"}},{"type":"Feature","geometry":{"type":"Point","coordinates":[-105.7866,43.3867]},"properties":{"api":"4900949433","name":"BOMBER MOUNTAIN 3974-8-5-2SH","op":"WRC ENERGY LLC","co":"Converse","st":"WY","trs":"T39N R74W S6","fm":"SHANNON","eur":null,"perft":null,"sound":false,"fit":"refused","geur":null,"gfit":"refused"}},{"type":"Feature","geometry":{"type":"Point","coordinates":[-105.7866,43.3867]},"properties":{"api":"4900949434","name":"MATHER PEAKS 4074-30-31-1SXH","op":"WRC ENERGY LLC","co":"Converse","st":"WY","trs":"T39N R74W S6","fm":"SUSSEX","eur":2254008,"perft":225604,"sound":true,"fit":"sound","geur":null,"gfit":"refused"}},{"type":"Feature","geometry":{"type":"Point","coordinates":[-105.7451,43.3152]},"properties":{"api":"4900949574","name":"Lily Lake 3974-33-4-1NH","op":"WRC ENERGY LLC","co":"Converse","st":"WY","trs":"T39N R74W S33","fm":null,"eur":null,"perft":null,"sound":false,"fit":"none","geur":null,"gfit":"none"}},{"type":"Feature","geometry":{"type":"Point","coordinates":[-105.7457,43.3152]},"properties":{"api":"4900949576","name":"Lily Lake 3974-33-4-1SH","op":"WRC ENERGY LLC","co":"Converse","st":"WY","trs":"T39N R74W S33","fm":null,"eur":null,"perft":null,"sound":false,"fit":"none","geur":null,"gfit":"none"}},{"type":"Feature","geometry":{"type":"Point","coordinates":[-105.77146,43.31055]},"properties":{"api":"4900920631","name":"ALLEMAND 1","op":"WRC ENERGY LLC","co":"Converse","st":"WY","trs":"T39N R74W S32","fm":"FRONTIER","eur":170780,"perft":null,"sound":true,"fit":"sound","geur":3937559,"gfit":"sound"}},{"type":"Feature","geometry":{"type":"Point","coordinates":[-105.68758,43.38198]},"properties":{"api":"4900921224","name":"DILTS COOKE FED 1-1","op":"WRC ENERGY LLC","co":"Converse","st":"WY","trs":"T39N R74W S1","fm":null,"eur":null,"perft":null,"sound":false,"fit":"refused","geur":null,"gfit":"refused"}},{"type":"Feature","geometry":{"type":"Point","coordinates":[-105.70671,43.35364]},"properties":{"api":"4900921473","name":"SPEARHEAD 14","op":"WRC ENERGY LLC","co":"Converse","st":"WY","trs":"T39N R74W S14","fm":null,"eur":331074,"perft":null,"sound":true,"fit":"sound","geur":5324421,"gfit":"sound"}},{"type":"Feature","geometry":{"type":"Point","coordinates":[-105.72639,43.36818]},"properties":{"api":"4900921498","name":"SPEARHEAD RANCH 13","op":"WRC ENERGY LLC","co":"Converse","st":"WY","trs":"T39N R74W S10","fm":null,"eur":null,"perft":null,"sound":false,"fit":"refused","geur":null,"gfit":"refused"}},{"type":"Feature","geometry":{"type":"Point","coordinates":[-105.72624,43.35522]},"properties":{"api":"4900921528","name":"SPEARHEAD RANCH 15","op":"WRC ENERGY LLC","co":"Converse","st":"WY","trs":"T39N R74W S15","fm":null,"eur":null,"perft":null,"sound":false,"fit":"refused","geur":null,"gfit":"refused"}},{"type":"Feature","geometry":{"type":"Point","coordinates":[-105.7258,43.33964]},"properties":{"api":"4900921610","name":"SPEARHEAD RANCH UNIT 18","op":"WRC ENERGY LLC","co":"Converse","st":"WY","trs":"T39N R74W S22","fm":null,"eur":161480,"perft":null,"sound":true,"fit":"sound","geur":null,"gfit":"refused"}},{"type":"Feature","geometry":{"type":"Point","coordinates":[-105.70677,43.32509]},"properties":{"api":"4900921661","name":"SPEARHEAD RANCH 20","op":"WRC ENERGY LLC","co":"Converse","st":"WY","trs":"T39N R74W S26","fm":null,"eur":620430,"perft":null,"sound":true,"fit":"sound","geur":9653351,"gfit":"sound"}},{"type":"Feature","geometry":{"type":"Point","coordinates":[-105.69126,43.32434]},"properties":{"api":"4900921707","name":"WERNER 25-1","op":"WRC ENERGY LLC","co":"Converse","st":"WY","trs":"T39N R74W S25","fm":null,"eur":134025,"perft":null,"sound":true,"fit":"sound","geur":3972903,"gfit":"sound"}},{"type":"Feature","geometry":{"type":"Point","coordinates":[-105.69119,43.31044]},"properties":{"api":"4900921796","name":"STATE 78-874 1","op":"WRC ENERGY LLC","co":"Converse","st":"WY","trs":"T39N R74W S36","fm":null,"eur":null,"perft":null,"sound":false,"fit":"refused","geur":null,"gfit":"refused"}},{"type":"Feature","geometry":{"type":"Point","coordinates":[-105.77088,43.38398]},"properties":{"api":"4900922210","name":"WERNER BOLLEY 5-1","op":"WRC ENERGY LLC","co":"Converse","st":"WY","trs":"T39N R74W S5","fm":null,"eur":677150,"perft":null,"sound":true,"fit":"sound","geur":12431249,"gfit":"sound"}},{"type":"Feature","geometry":{"type":"Point","coordinates":[-105.75344,43.37763]},"properties":{"api":"4900922266","name":"MOORE MINERAL TRUST 4-1","op":"WRC ENERGY LLC","co":"Converse","st":"WY","trs":"T39N R74W S4","fm":null,"eur":null,"perft":null,"sound":false,"fit":"refused","geur":2689024,"gfit":"sound"}},{"type":"Feature","geometry":{"type":"Point","coordinates":[-105.74413,43.34097]},"properties":{"api":"4900922375","name":"HARDY RANCH 1","op":"CONTINENTAL RESOURCES INC","co":"Converse","st":"WY","trs":"T39N R74W S21","fm":null,"eur":134106,"perft":null,"sound":true,"fit":"sound","geur":null,"gfit":"refused"}},{"type":"Feature","geometry":{"type":"Point","coordinates":[-105.70377,43.30545]},"properties":{"api":"4900922570","name":"ALFORD FEDERAL 1-35","op":"WRC ENERGY LLC","co":"Converse","st":"WY","trs":"T39N R74W S35","fm":null,"eur":108407,"perft":null,"sound":true,"fit":"sound","geur":1808003,"gfit":"sound"}},{"type":"Feature","geometry":{"type":"Point","coordinates":[-105.73882,43.35877]},"properties":{"api":"4900922771","name":"POWELL 15-2","op":"WRC ENERGY LLC","co":"Converse","st":"WY","trs":"T39N R74W S15","fm":null,"eur":null,"perft":null,"sound":false,"fit":"refused","geur":null,"gfit":"refused"}},{"type":"Feature","geometry":{"type":"Point","coordinates":[-105.7429,43.34249]},"properties":{"api":"4900922786","name":"DUNN FEE 41-21","op":"CONTINENTAL RESOURCES INC","co":"Converse","st":"WY","trs":"T39N R74W S21","fm":null,"eur":66316,"perft":null,"sound":true,"fit":"sound","geur":null,"gfit":"refused"}},{"type":"Feature","geometry":{"type":"Point","coordinates":[-105.76116,43.35725]},"properties":{"api":"4900922787","name":"DILTS 41-17","op":"CONTINENTAL RESOURCES INC","co":"Converse","st":"WY","trs":"T39N R74W S17","fm":null,"eur":75271,"perft":null,"sound":true,"fit":"sound","geur":null,"gfit":"refused"}},{"type":"Feature","geometry":{"type":"Point","coordinates":[-105.76043,43.36497]},"properties":{"api":"4900922789","name":"RHONDA 43-8","op":"CONTINENTAL RESOURCES INC","co":"Converse","st":"WY","trs":"T39N R74W S8","fm":null,"eur":91244,"perft":null,"sound":true,"fit":"sound","geur":null,"gfit":"refused"}},{"type":"Feature","geometry":{"type":"Point","coordinates":[-105.74183,43.3503]},"properties":{"api":"4900922798","name":"STATE 43-16","op":"CONTINENTAL RESOURCES INC","co":"Converse","st":"WY","trs":"T39N R74W S16","fm":null,"eur":72201,"perft":null,"sound":true,"fit":"sound","geur":null,"gfit":"refused"}},{"type":"Feature","geometry":{"type":"Point","coordinates":[-105.77102,43.37158]},"properties":{"api":"4900922801","name":"FEDERAL 21-8","op":"CONTINENTAL RESOURCES INC","co":"Converse","st":"WY","trs":"T39N R74W S8","fm":null,"eur":59601,"perft":null,"sound":true,"fit":"sound","geur":null,"gfit":"refused"}},{"type":"Feature","geometry":{"type":"Point","coordinates":[-105.78053,43.3857]},"properties":{"api":"4900922802","name":"FEDERAL 41-6","op":"CONTINENTAL RESOURCES INC","co":"Converse","st":"WY","trs":"T39N R74W S6","fm":"SUSSEX","eur":null,"perft":null,"sound":false,"fit":"refused","geur":null,"gfit":"refused"}},{"type":"Feature","geometry":{"type":"Point","coordinates":[-105.76074,43.37189]},"properties":{"api":"4900922803","name":"FEDERAL 41-8","op":"CONTINENTAL RESOURCES INC","co":"Converse","st":"WY","trs":"T39N R74W S8","fm":null,"eur":null,"perft":null,"sound":false,"fit":"refused","geur":null,"gfit":"refused"}},{"type":"Feature","geometry":{"type":"Point","coordinates":[-105.73231,43.34873]},"properties":{"api":"4900922819","name":"WARING 23-15","op":"CONTINENTAL RESOURCES INC","co":"Converse","st":"WY","trs":"T39N R74W S15","fm":null,"eur":71685,"perft":null,"sound":true,"fit":"sound","geur":null,"gfit":"refused"}},{"type":"Feature","geometry":{"type":"Point","coordinates":[-105.78106,43.37123]},"properties":{"api":"4900922825","name":"FRANK 41-7","op":"CONTINENTAL RESOURCES INC","co":"Converse","st":"WY","trs":"T39N R74W S7","fm":null,"eur":79978,"perft":null,"sound":true,"fit":"sound","geur":null,"gfit":"refused"}},{"type":"Feature","geometry":{"type":"Point","coordinates":[-105.75139,43.34291]},"properties":{"api":"4900922836","name":"MARVIN 21-21","op":"CONTINENTAL RESOURCES INC","co":"Converse","st":"WY","trs":"T39N R74W S21","fm":"SUSSEX","eur":null,"perft":null,"sound":false,"fit":"refused","geur":null,"gfit":"refused"}},{"type":"Feature","geometry":{"type":"Point","coordinates":[-105.76123,43.35007]},"properties":{"api":"4900922837","name":"PAULA 43-17","op":"CONTINENTAL RESOURCES INC","co":"Converse","st":"WY","trs":"T39N R74W S17","fm":"SUSSEX","eur":null,"perft":null,"sound":false,"fit":"refused","geur":null,"gfit":"refused"}},{"type":"Feature","geometry":{"type":"Point","coordinates":[-105.77098,43.36409]},"properties":{"api":"4900922845","name":"JENNE 23-8","op":"CONTINENTAL RESOURCES INC","co":"Converse","st":"WY","trs":"T39N R74W S8","fm":null,"eur":63627,"perft":null,"sound":true,"fit":"sound","geur":null,"gfit":"refused"}},{"type":"Feature","geometry":{"type":"Point","coordinates":[-105.722,43.34255]},"properties":{"api":"4900922900","name":"SPEARHEAD 41-22","op":"WRC ENERGY LLC","co":"Converse","st":"WY","trs":"T39N R74W S22","fm":null,"eur":98638,"perft":null,"sound":true,"fit":"sound","geur":null,"gfit":"refused"}},{"type":"Feature","geometry":{"type":"Point","coordinates":[-105.7913,43.37847]},"properties":{"api":"4900922909","name":"FEDERAL 23-6","op":"CONTINENTAL RESOURCES INC","co":"Converse","st":"WY","trs":"T39N R74W S6","fm":null,"eur":null,"perft":null,"sound":false,"fit":"refused","geur":null,"gfit":"refused"}},{"type":"Feature","geometry":{"type":"Point","coordinates":[-105.78096,43.36439]},"properties":{"api":"4900922934","name":"HOTCHKISS FED 43-7","op":"SAGE BUTTE PRB OPERATING, LLC","co":"Converse","st":"WY","trs":"T39N R74W S7","fm":null,"eur":null,"perft":null,"sound":false,"fit":"refused","geur":null,"gfit":"refused"}},{"type":"Feature","geometry":{"type":"Point","coordinates":[-105.71653,43.33937]},"properties":{"api":"4900922935","name":"HARDY 21-23","op":"WRC ENERGY LLC","co":"Converse","st":"WY","trs":"T39N R74W S23","fm":null,"eur":120504,"perft":null,"sound":true,"fit":"sound","geur":null,"gfit":"refused"}},{"type":"Feature","geometry":{"type":"Point","coordinates":[-105.79091,43.37145]},"properties":{"api":"4900922936","name":"CELSIUS FEDERAL 21-7","op":"SAGE BUTTE PRB OPERATING, LLC","co":"Converse","st":"WY","trs":"T39N R74W S7","fm":"SUSSEX","eur":null,"perft":null,"sound":false,"fit":"refused","geur":4708,"gfit":"sound"}},{"type":"Feature","geometry":{"type":"Point","coordinates":[-105.72328,43.33595]},"properties":{"api":"4900922949","name":"HOTCHKISS FED 22-2","op":"WRC ENERGY LLC","co":"Converse","st":"WY","trs":"T39N R74W S22","fm":"SUSSEX","eur":null,"perft":null,"sound":false,"fit":"refused","geur":null,"gfit":"refused"}},{"type":"Feature","geometry":{"type":"Point","coordinates":[-105.79656,43.31392]},"properties":{"api":"4900928121","name":"DISCOVERY FEDERAL 1","op":"WRC ENERGY LLC","co":"Converse","st":"WY","trs":"T39N R74W S31","fm":"FRONTIER","eur":null,"perft":null,"sound":false,"fit":"refused","geur":48,"gfit":"sound"}},{"type":"Feature","geometry":{"type":"Point","coordinates":[-105.77901,43.32933]},"properties":{"api":"4900938886","name":"Muirfield Fed 3974-2932 2NH","op":"CONTINENTAL RESOURCES INC","co":"Converse","st":"WY","trs":"T39N R74W S29","fm":null,"eur":475956,"perft":null,"sound":true,"fit":"sound","geur":2457971,"gfit":"sound"}},{"type":"Feature","geometry":{"type":"Point","coordinates":[-105.78894,43.36076]},"properties":{"api":"4900949646","name":"Elm 07W19-5NH","op":"SAGE BUTTE PRB OPERATING, LLC","co":"Converse","st":"WY","trs":"T39N R74W S7","fm":null,"eur":null,"perft":null,"sound":false,"fit":"none","geur":null,"gfit":"none"}},{"type":"Feature","geometry":{"type":"Point","coordinates":[-105.7888,43.36086]},"properties":{"api":"4900949647","name":"Elm 07W19-2SH","op":"SAGE BUTTE PRB OPERATING, LLC","co":"Converse","st":"WY","trs":"T39N R74W S7","fm":null,"eur":null,"perft":null,"sound":false,"fit":"none","geur":null,"gfit":"none"}},{"type":"Feature","geometry":{"type":"Point","coordinates":[-105.78887,43.36081]},"properties":{"api":"4900949648","name":"Elm 07W19-7NH","op":"SAGE BUTTE PRB OPERATING, LLC","co":"Converse","st":"WY","trs":"T39N R74W S7","fm":null,"eur":null,"perft":null,"sound":false,"fit":"none","geur":null,"gfit":"none"}},{"type":"Feature","geometry":{"type":"Point","coordinates":[-105.69056,43.36894]},"properties":{"api":"4900921380","name":"DILTS 12-1","op":"WRC ENERGY LLC","co":"Converse","st":"WY","trs":"T39N R74W S12","fm":"FRONTIER","eur":null,"perft":null,"sound":false,"fit":"refused","geur":null,"gfit":"refused"}},{"type":"Feature","geometry":{"type":"Point","coordinates":[-105.74576,43.36844]},"properties":{"api":"4900922276","name":"POWELL 9-2","op":"CHACO ENERGY COMPANY","co":"Converse","st":"WY","trs":"T39N R74W S9","fm":null,"eur":null,"perft":null,"sound":false,"fit":"refused","geur":null,"gfit":"refused"}},{"type":"Feature","geometry":{"type":"Point","coordinates":[-105.75132,43.35014]},"properties":{"api":"4900921954","name":"STATE 1-16","op":"CONTINENTAL RESOURCES INC","co":"Converse","st":"WY","trs":"T39N R74W S16","fm":null,"eur":null,"perft":null,"sound":false,"fit":"refused","geur":null,"gfit":"refused"}},{"type":"Feature","geometry":{"type":"Point","coordinates":[-105.74136,43.35732]},"properties":{"api":"4900922792","name":"SPEARHEAD RANCH 41-16","op":"CONTINENTAL RESOURCES INC","co":"Converse","st":"WY","trs":"T39N R74W S16","fm":null,"eur":42814,"perft":null,"sound":true,"fit":"sound","geur":null,"gfit":"refused"}},{"type":"Feature","geometry":{"type":"Point","coordinates":[-105.77131,43.37879]},"properties":{"api":"4900922796","name":"TAYLOR 23-5","op":"CONTINENTAL RESOURCES INC","co":"Converse","st":"WY","trs":"T39N R74W S5","fm":null,"eur":39331,"perft":null,"sound":true,"fit":"sound","geur":null,"gfit":"refused"}},{"type":"Feature","geometry":{"type":"Point","coordinates":[-105.73142,43.35425]},"properties":{"api":"4900922815","name":"WARING 22-15","op":"CONTINENTAL RESOURCES INC","co":"Converse","st":"WY","trs":"T39N R74W S15","fm":null,"eur":44411,"perft":null,"sound":true,"fit":"sound","geur":null,"gfit":"refused"}},{"type":"Feature","geometry":{"type":"Point","coordinates":[-105.7538,43.35635]},"properties":{"api":"4900922817","name":"STATE 11-16","op":"CONTINENTAL RESOURCES INC","co":"Converse","st":"WY","trs":"T39N R74W S16","fm":null,"eur":70845,"perft":null,"sound":true,"fit":"sound","geur":null,"gfit":"refused"}},{"type":"Feature","geometry":{"type":"Point","coordinates":[-105.73151,43.33576]},"properties":{"api":"4900922915","name":"WERNER 22-1","op":"QEP ENERGY COMPANY","co":"Converse","st":"WY","trs":"T39N R74W S22","fm":null,"eur":28168,"perft":null,"sound":true,"fit":"sound","geur":null,"gfit":"refused"}},{"type":"Feature","geometry":{"type":"Point","coordinates":[-105.68758,43.35553]},"properties":{"api":"4900921438","name":"WOLF STATE 13-1","op":"WRC ENERGY LLC","co":"Converse","st":"WY","trs":"T39N R74W S13","fm":null,"eur":null,"perft":null,"sound":false,"fit":"refused","geur":null,"gfit":"refused"}},{"type":"Feature","geometry":{"type":"Point","coordinates":[-105.70665,43.36825]},"properties":{"api":"4900921462","name":"TONKINSON 11-1","op":"WRC ENERGY LLC","co":"Converse","st":"WY","trs":"T39N R74W S11","fm":null,"eur":81967,"perft":null,"sound":true,"fit":"sound","geur":536270,"gfit":"sound"}},{"type":"Feature","geometry":{"type":"Point","coordinates":[-105.79123,43.38479]},"properties":{"api":"4900922826","name":"FEDERAL 21-6","op":"CONTINENTAL RESOURCES INC","co":"Converse","st":"WY","trs":"T39N R74W S6","fm":null,"eur":37140,"perft":null,"sound":true,"fit":"sound","geur":22784,"gfit":"sound"}},{"type":"Feature","geometry":{"type":"Point","coordinates":[-105.78149,43.37872]},"properties":{"api":"4900922829","name":"FEDERAL 43-6","op":"CONTINENTAL RESOURCES INC","co":"Converse","st":"WY","trs":"T39N R74W S6","fm":null,"eur":31490,"perft":null,"sound":true,"fit":"sound","geur":15818,"gfit":"sound"}},{"type":"Feature","geometry":{"type":"Point","coordinates":[-105.70641,43.38323]},"properties":{"api":"4900921445","name":"BOSWELL FED 2-1","op":"WRC ENERGY LLC","co":"Converse","st":"WY","trs":"T39N R74W S2","fm":null,"eur":543228,"perft":null,"sound":true,"fit":"sound","geur":null,"gfit":"refused"}},{"type":"Feature","geometry":{"type":"Point","coordinates":[-105.74673,43.3608]},"properties":{"api":"4900922416","name":"POWELL FEDERAL 9-3","op":"SM ENERGY COMPANY","co":"Converse","st":"WY","trs":"T39N R74W S9","fm":null,"eur":87056,"perft":null,"sound":true,"fit":"sound","geur":null,"gfit":"refused"}},{"type":"Feature","geometry":{"type":"Point","coordinates":[-105.73234,43.34286]},"properties":{"api":"4900922816","name":"HARDY 21-22","op":"CONTINENTAL RESOURCES INC","co":"Converse","st":"WY","trs":"T39N R74W S22","fm":null,"eur":84386,"perft":null,"sound":true,"fit":"sound","geur":null,"gfit":"refused"}},{"type":"Feature","geometry":{"type":"Point","coordinates":[-105.7235,43.34845]},"properties":{"api":"4900922894","name":"SPEARHEAD 43-15","op":"SM ENERGY COMPANY","co":"Converse","st":"WY","trs":"T39N R74W S15","fm":null,"eur":87216,"perft":null,"sound":true,"fit":"sound","geur":null,"gfit":"refused"}},{"type":"Feature","geometry":{"type":"Point","coordinates":[-105.69107,43.33948]},"properties":{"api":"4900921521","name":"BUSTARD FED 24-1","op":"WRC ENERGY LLC","co":"Converse","st":"WY","trs":"T39N R74W S24","fm":null,"eur":null,"perft":null,"sound":false,"fit":"none","geur":null,"gfit":"none"}},{"type":"Feature","geometry":{"type":"Point","coordinates":[-105.74391,43.36621]},"properties":{"api":"4900922189","name":"POWELL 9-1","op":"WRC ENERGY LLC","co":"Converse","st":"WY","trs":"T39N R74W S9","fm":null,"eur":null,"perft":null,"sound":false,"fit":"refused","geur":null,"gfit":"refused"}},{"type":"Feature","geometry":{"type":"Point","coordinates":[-105.70662,43.33904]},"properties":{"api":"4900921568","name":"POWELL UNIT 17","op":"DEVON ENERGY PRODUCTION COMPANY LP","co":"Converse","st":"WY","trs":"T39N R74W S23","fm":null,"eur":null,"perft":null,"sound":false,"fit":"refused","geur":null,"gfit":"refused"}},{"type":"Feature","geometry":{"type":"Point","coordinates":[-105.79121,43.33915]},"properties":{"api":"4900920512","name":"FED 4","op":"WEXPRO COMPANY","co":"Converse","st":"WY","trs":"T39N R74W S19","fm":null,"eur":null,"perft":null,"sound":false,"fit":"refused","geur":null,"gfit":"refused"}},{"type":"Feature","geometry":{"type":"Point","coordinates":[-105.79386,43.32653]},"properties":{"api":"4900920680","name":"SPEARHEAD R UT W9389 6","op":"WEXPRO COMPANY","co":"Converse","st":"WY","trs":"T39N R74W S30","fm":null,"eur":null,"perft":null,"sound":false,"fit":"refused","geur":1244881,"gfit":"sound"}},{"type":"Feature","geometry":{"type":"Point","coordinates":[-105.72583,43.38299]},"properties":{"api":"4900921379","name":"SPEARHEAD RANCH UNIT 12","op":"KERR-MCGEE CORPORATION","co":"Converse","st":"WY","trs":"T39N R74W S3","fm":null,"eur":null,"perft":null,"sound":false,"fit":"refused","geur":null,"gfit":"refused"}},{"type":"Feature","geometry":{"type":"Point","coordinates":[-105.79125,43.31045]},"properties":{"api":"4900920559","name":"FED W-9389 1","op":"SOUTHLAND ROYALTY COMPANY","co":"Converse","st":"WY","trs":"T39N R74W S31","fm":null,"eur":null,"perft":null,"sound":false,"fit":"refused","geur":null,"gfit":"refused"}},{"type":"Feature","geometry":{"type":"Point","coordinates":[-105.79111,43.35385]},"properties":{"api":"4900920433","name":"SPEARHEAD RANCH 2","op":"WEXPRO COMPANY","co":"Converse","st":"WY","trs":"T39N R74W S18","fm":null,"eur":null,"perft":null,"sound":false,"fit":"none","geur":null,"gfit":"none"}}]}