{"type":"FeatureCollection","features":[{"type":"Feature","geometry":{"type":"Point","coordinates":[-107.3373,45.97429]},"properties":{"api":"2510305000","name":"KENDRICK CAT<>2","op":"McCarthy, Glen","co":"Treasure","st":"MT","trs":"T3N R35E S26","fm":null,"eur":null,"perft":null,"sound":false,"fit":"none","geur":null,"gfit":"none"}},{"type":"Feature","geometry":{"type":"Point","coordinates":[-107.40214,45.99828]},"properties":{"api":"2510305001","name":"KENDRICK CAT<>2","op":"Hunt, Estate Of H L","co":"Treasure","st":"MT","trs":"T3N R35E S20","fm":null,"eur":null,"perft":null,"sound":false,"fit":"none","geur":null,"gfit":"none"}},{"type":"Feature","geometry":{"type":"Point","coordinates":[-107.4177,46.01031]},"properties":{"api":"2510305002","name":"HOPE 1","op":"Lacy, R.","co":"Treasure","st":"MT","trs":"T3N R35E S18","fm":null,"eur":null,"perft":null,"sound":false,"fit":"none","geur":null,"gfit":"none"}},{"type":"Feature","geometry":{"type":"Point","coordinates":[-107.38713,45.96609]},"properties":{"api":"2510321003","name":"KENDRICK R>1-32","op":"Reunion Energy Company","co":"Treasure","st":"MT","trs":"T3N R35E S32","fm":null,"eur":null,"perft":null,"sound":false,"fit":"none","geur":null,"gfit":"none"}}]}