{"type":"FeatureCollection","features":[{"type":"Feature","geometry":{"type":"Point","coordinates":[-106.37613,46.00835]},"properties":{"api":"2508705019","name":"DAVIDSON 1","op":"Ozark Corp.","co":"Rosebud","st":"MT","trs":"T3N R43E S15","fm":null,"eur":null,"perft":null,"sound":false,"fit":"none","geur":null,"gfit":"none"}},{"type":"Feature","geometry":{"type":"Point","coordinates":[-106.40739,45.97245]},"properties":{"api":"2508721008","name":"SPRING CRK 1-32","op":"Mesa Operating Limited Partnership","co":"Rosebud","st":"MT","trs":"T3N R43E S32","fm":null,"eur":null,"perft":null,"sound":false,"fit":"none","geur":null,"gfit":"none"}},{"type":"Feature","geometry":{"type":"Point","coordinates":[-106.34141,45.97215]},"properties":{"api":"2508721455","name":"F. LANGE 8-35","op":"Canada Northwest Land Ltd.","co":"Rosebud","st":"MT","trs":"T3N R43E S35","fm":null,"eur":null,"perft":null,"sound":false,"fit":"none","geur":null,"gfit":"none"}}]}