{"type":"FeatureCollection","features":[{"type":"Feature","geometry":{"type":"Point","coordinates":[-106.54703,45.53326]},"properties":{"api":"2508721519","name":"ARCO/NCT  1-33","op":"Atlantic Richfield Company","co":"Rosebud","st":"MT","trs":"T3S R42E S33","fm":null,"eur":null,"perft":null,"sound":false,"fit":"none","geur":null,"gfit":"none"}},{"type":"Feature","geometry":{"type":"Point","coordinates":[-106.54178,45.5303]},"properties":{"api":"2508721621","name":"White Buffalo  2","op":"Northern Cheyenne Tribes","co":"Rosebud","st":"MT","trs":"T3S R42E S34","fm":null,"eur":null,"perft":null,"sound":false,"fit":"none","geur":null,"gfit":"none"}}]}