{"type":"FeatureCollection","features":[{"type":"Feature","geometry":{"type":"Point","coordinates":[-104.51397,45.60301]},"properties":{"api":"2501105076","name":"Federal M-07319  1","op":"Partee, W.C.","co":"Carter","st":"MT","trs":"T3S R58E S2","fm":null,"eur":null,"perft":null,"sound":false,"fit":"none","geur":null,"gfit":"none"}},{"type":"Feature","geometry":{"type":"Point","coordinates":[-104.57718,45.56008]},"properties":{"api":"2501121188","name":"USA M-3279  D-103","op":"Placid Oil Company","co":"Carter","st":"MT","trs":"T3S R58E S20","fm":null,"eur":null,"perft":null,"sound":false,"fit":"none","geur":null,"gfit":"none"}},{"type":"Feature","geometry":{"type":"Point","coordinates":[-104.58795,45.53122]},"properties":{"api":"2501121207","name":"USA 070071  D-199","op":"Placid Oil Company","co":"Carter","st":"MT","trs":"T3S R58E S32","fm":null,"eur":null,"perft":null,"sound":false,"fit":"none","geur":null,"gfit":"none"}}]}