{"type":"FeatureCollection","features":[{"type":"Feature","geometry":{"type":"Point","coordinates":[-105.15263,43.40519]},"properties":{"api":"4900920412","name":"W0325447 THOMPSON 4-33","op":"SUNSHINE VALLEY PETROLEUM","co":"Converse","st":"WY","trs":"T40N R69W S33","fm":null,"eur":37052,"perft":null,"sound":true,"fit":"sound","geur":null,"gfit":"refused"}},{"type":"Feature","geometry":{"type":"Point","coordinates":[-105.1471,43.40151]},"properties":{"api":"4900920414","name":"W0325447 JENKINS FED 11","op":"SUNSHINE VALLEY PETROLEUM","co":"Converse","st":"WY","trs":"T40N R69W S33","fm":null,"eur":null,"perft":null,"sound":false,"fit":"refused","geur":null,"gfit":"refused"}},{"type":"Feature","geometry":{"type":"Point","coordinates":[-105.15755,43.40886]},"properties":{"api":"4900920444","name":"IRWIN FEE 14-28","op":"SUNSHINE VALLEY PETROLEUM","co":"Converse","st":"WY","trs":"T40N R69W S28","fm":null,"eur":42508,"perft":null,"sound":true,"fit":"sound","geur":null,"gfit":"refused"}},{"type":"Feature","geometry":{"type":"Point","coordinates":[-105.15315,43.4125]},"properties":{"api":"4900920455","name":"IRWIN 2-28","op":"SUNSHINE VALLEY PETROLEUM","co":"Converse","st":"WY","trs":"T40N R69W S28","fm":null,"eur":27275,"perft":null,"sound":true,"fit":"sound","geur":null,"gfit":"refused"}},{"type":"Feature","geometry":{"type":"Point","coordinates":[-105.13725,43.39403]},"properties":{"api":"4900920463","name":"PENNINGTON-FED 2-34","op":"SUNSHINE VALLEY PETROLEUM","co":"Converse","st":"WY","trs":"T40N R69W S34","fm":null,"eur":19623,"perft":null,"sound":true,"fit":"sound","geur":null,"gfit":"refused"}},{"type":"Feature","geometry":{"type":"Point","coordinates":[-105.14792,43.40878]},"properties":{"api":"4900922098","name":"IRWIN FEE 34-28","op":"SUNSHINE VALLEY PETROLEUM","co":"Converse","st":"WY","trs":"T40N R69W S28","fm":null,"eur":12020,"perft":null,"sound":true,"fit":"sound","geur":null,"gfit":"refused"}},{"type":"Feature","geometry":{"type":"Point","coordinates":[-105.17637,43.47184]},"properties":{"api":"4900922130","name":"WYOMING 1-5","op":"OILFIELD SALVAGE & SERVICE COMPANY","co":"Converse","st":"WY","trs":"T40N R69W S5","fm":null,"eur":72394,"perft":null,"sound":true,"fit":"sound","geur":null,"gfit":"refused"}},{"type":"Feature","geometry":{"type":"Point","coordinates":[-105.1929,43.47094]},"properties":{"api":"4900922185","name":"GIBSON DRAW FEE I 1","op":"CENERGY RESOURCES LLC","co":"Converse","st":"WY","trs":"T40N R69W S6","fm":null,"eur":60940,"perft":null,"sound":true,"fit":"sound","geur":null,"gfit":"refused"}},{"type":"Feature","geometry":{"type":"Point","coordinates":[-105.18467,43.47488]},"properties":{"api":"4900922230","name":"W GIBSON DRAW G 1","op":"CENERGY RESOURCES LLC","co":"Converse","st":"WY","trs":"T40N R69W S6","fm":null,"eur":55106,"perft":null,"sound":true,"fit":"sound","geur":null,"gfit":"refused"}},{"type":"Feature","geometry":{"type":"Point","coordinates":[-105.16099,43.46383]},"properties":{"api":"4900922346","name":"STATE 72-30907 1-8","op":"OILFIELD SALVAGE & SERVICE COMPANY","co":"Converse","st":"WY","trs":"T40N R69W S8","fm":null,"eur":null,"perft":null,"sound":false,"fit":"refused","geur":null,"gfit":"refused"}},{"type":"Feature","geometry":{"type":"Point","coordinates":[-105.19301,43.47583]},"properties":{"api":"4900922186","name":"WEST GIBSON DRAW H 1","op":"ANSCHUTZ EXPLORATION CORPORATION","co":"Converse","st":"WY","trs":"T40N R69W S6","fm":null,"eur":76638,"perft":null,"sound":true,"fit":"sound","geur":null,"gfit":"refused"}},{"type":"Feature","geometry":{"type":"Point","coordinates":[-105.19282,43.46367]},"properties":{"api":"4900922303","name":"FEDERAL W-45106 3-7","op":"M & K OIL COMPANY LLC","co":"Converse","st":"WY","trs":"T40N R69W S7","fm":null,"eur":null,"perft":null,"sound":false,"fit":"refused","geur":null,"gfit":"refused"}},{"type":"Feature","geometry":{"type":"Point","coordinates":[-105.15274,43.39761]},"properties":{"api":"4900920387","name":"W0325447 THOMPSON 2-33","op":"RATHPRO INC","co":"Converse","st":"WY","trs":"T40N R69W S33","fm":null,"eur":null,"perft":null,"sound":false,"fit":"refused","geur":null,"gfit":"refused"}},{"type":"Feature","geometry":{"type":"Point","coordinates":[-105.14221,43.39402]},"properties":{"api":"4900920361","name":"MORTONS A PATENTED 1-33","op":"MIDGARD ENERGY COMPANY","co":"Converse","st":"WY","trs":"T40N R69W S33","fm":null,"eur":null,"perft":null,"sound":false,"fit":"refused","geur":null,"gfit":"refused"}},{"type":"Feature","geometry":{"type":"Point","coordinates":[-105.15765,43.40161]},"properties":{"api":"4900920411","name":"W0325447 THOMPSON 3-33","op":"MIDGARD ENERGY COMPANY","co":"Converse","st":"WY","trs":"T40N R69W S33","fm":null,"eur":null,"perft":null,"sound":false,"fit":"none","geur":null,"gfit":"none"}},{"type":"Feature","geometry":{"type":"Point","coordinates":[-105.14217,43.39764]},"properties":{"api":"4900920438","name":"MORTONS INC A 2-33","op":"MIDGARD ENERGY COMPANY","co":"Converse","st":"WY","trs":"T40N R69W S33","fm":null,"eur":null,"perft":null,"sound":false,"fit":"refused","geur":null,"gfit":"refused"}}]}