{"type":"FeatureCollection","features":[{"type":"Feature","geometry":{"type":"Point","coordinates":[-104.75656,43.43816]},"properties":{"api":"4902706055","name":"FED 076563 2","op":"KREJCI HARRY L","co":"Niobrara","st":"WY","trs":"T40N R66W S14","fm":null,"eur":null,"perft":null,"sound":false,"fit":"refused","geur":null,"gfit":"refused"}},{"type":"Feature","geometry":{"type":"Point","coordinates":[-104.77019,43.45729]},"properties":{"api":"4902720944","name":"FEDERAL 33-10","op":"KREJCI HARRY L","co":"Niobrara","st":"WY","trs":"T40N R66W S10","fm":null,"eur":null,"perft":null,"sound":false,"fit":"refused","geur":null,"gfit":"refused"}},{"type":"Feature","geometry":{"type":"Point","coordinates":[-104.77546,43.39547]},"properties":{"api":"4902726768","name":"FIDDLEBACK 34-1","op":"CENTURY OIL AND GAS LLC","co":"Niobrara","st":"WY","trs":"T40N R66W S34","fm":"MUDDY","eur":null,"perft":null,"sound":false,"fit":"refused","geur":null,"gfit":"refused"}},{"type":"Feature","geometry":{"type":"Point","coordinates":[-104.72404,43.46559]},"properties":{"api":"4902726859","name":"ALCIBIADES 1-2H","op":"CENTURY OIL AND GAS LLC","co":"Niobrara","st":"WY","trs":"T40N R66W S1","fm":"MUDDY","eur":144375,"perft":null,"sound":true,"fit":"sound","geur":null,"gfit":"refused"}},{"type":"Feature","geometry":{"type":"Point","coordinates":[-104.80026,43.40649]},"properties":{"api":"4902726943","name":"JASPER 32-4H","op":"CENTURY OIL AND GAS LLC","co":"Niobrara","st":"WY","trs":"T40N R66W S32","fm":"MUDDY","eur":187872,"perft":null,"sound":true,"fit":"sound","geur":null,"gfit":"refused"}},{"type":"Feature","geometry":{"type":"Point","coordinates":[-104.75544,43.44971]},"properties":{"api":"4902706059","name":"FED 076563 1","op":"L & J OPERATING INC","co":"Niobrara","st":"WY","trs":"T40N R66W S14","fm":null,"eur":null,"perft":null,"sound":false,"fit":"none","geur":null,"gfit":"none"}}]}