{"type":"FeatureCollection","features":[{"type":"Feature","geometry":{"type":"Point","coordinates":[-105.4647,43.5052]},"properties":{"api":"4900560886","name":"ARBALEST 09-23H","op":"EOG RESOURCES INC","co":"Campbell","st":"WY","trs":"T41N R72W S23","fm":"TURNER","eur":175623,"perft":42961,"sound":true,"fit":"sound","geur":1595535,"gfit":"sound"}},{"type":"Feature","geometry":{"type":"Point","coordinates":[-105.4973,43.5328]},"properties":{"api":"4900561206","name":"ARBALEST 23-15H","op":"EOG RESOURCES INC","co":"Campbell","st":"WY","trs":"T41N R72W S15","fm":"TURNER","eur":null,"perft":null,"sound":false,"fit":"refused","geur":null,"gfit":"refused"}},{"type":"Feature","geometry":{"type":"Point","coordinates":[-105.4549,43.5489]},"properties":{"api":"4900561329","name":"ARBALEST 32-01H","op":"EOG RESOURCES INC","co":"Campbell","st":"WY","trs":"T41N R72W S1","fm":"TURNER","eur":87572,"perft":null,"sound":true,"fit":"sound","geur":3456465,"gfit":"sound"}},{"type":"Feature","geometry":{"type":"Point","coordinates":[-105.4974,43.5053]},"properties":{"api":"4900561330","name":"ARBALEST 26-2234H","op":"EOG RESOURCES INC","co":"Campbell","st":"WY","trs":"T41N R72W S22","fm":"MOWRY","eur":169984,"perft":null,"sound":true,"fit":"sound","geur":5296564,"gfit":"sound"}},{"type":"Feature","geometry":{"type":"Point","coordinates":[-105.5494,43.5345]},"properties":{"api":"4900561331","name":"ARBALEST 37-07H","op":"EOG RESOURCES INC","co":"Campbell","st":"WY","trs":"T41N R72W S7","fm":"PARKMAN","eur":168637,"perft":35949,"sound":true,"fit":"sound","geur":300057,"gfit":"sound"}},{"type":"Feature","geometry":{"type":"Point","coordinates":[-105.4895,43.505]},"properties":{"api":"4900561345","name":"ARBALEST 46-22H","op":"EOG RESOURCES INC","co":"Campbell","st":"WY","trs":"T41N R72W S22","fm":"TURNER","eur":128984,"perft":29604,"sound":true,"fit":"sound","geur":null,"gfit":"refused"}},{"type":"Feature","geometry":{"type":"Point","coordinates":[-105.497,43.561]},"properties":{"api":"4900561348","name":"MAPLE 0310-03H","op":"EOG RESOURCES INC","co":"Campbell","st":"WY","trs":"T41N R72W S3","fm":"NIOBRARA-TURNER","eur":388904,"perft":36912,"sound":true,"fit":"sound","geur":6510721,"gfit":"sound"}},{"type":"Feature","geometry":{"type":"Point","coordinates":[-105.5293,43.5337]},"properties":{"api":"4900561403","name":"ARBALEST 38-08H","op":"EOG RESOURCES INC","co":"Campbell","st":"WY","trs":"T41N R72W S8","fm":"PARKMAN","eur":155074,"perft":38290,"sound":true,"fit":"sound","geur":null,"gfit":"refused"}},{"type":"Feature","geometry":{"type":"Point","coordinates":[-105.5347,43.5604]},"properties":{"api":"4900561442","name":"JUNIPER 0508-04H","op":"EOG RESOURCES INC","co":"Campbell","st":"WY","trs":"T41N R72W S5","fm":"PARKMAN","eur":369334,"perft":40413,"sound":true,"fit":"sound","geur":null,"gfit":"refused"}},{"type":"Feature","geometry":{"type":"Point","coordinates":[-105.535,43.5604]},"properties":{"api":"4900561443","name":"JUNIPER 0508-02H","op":"EOG RESOURCES INC","co":"Campbell","st":"WY","trs":"T41N R72W S5","fm":"FRONTIER-TURNER","eur":259904,"perft":27107,"sound":true,"fit":"sound","geur":6391261,"gfit":"sound"}},{"type":"Feature","geometry":{"type":"Point","coordinates":[-105.5212,43.5319]},"properties":{"api":"4900561447","name":"ARBALEST 248-16H","op":"EOG RESOURCES INC","co":"Campbell","st":"WY","trs":"T41N R72W S16","fm":"MOWRY","eur":72780,"perft":20600,"sound":true,"fit":"sound","geur":3377041,"gfit":"sound"}},{"type":"Feature","geometry":{"type":"Point","coordinates":[-105.5571,43.5607]},"properties":{"api":"4900561702","name":"ARBALEST 66-0607H","op":"EOG RESOURCES INC","co":"Campbell","st":"WY","trs":"T41N R72W S6","fm":"TURNER","eur":851795,"perft":null,"sound":true,"fit":"sound","geur":null,"gfit":"refused"}},{"type":"Feature","geometry":{"type":"Point","coordinates":[-105.5572,43.5607]},"properties":{"api":"4900561703","name":"ARBALEST 73-06H","op":"EOG RESOURCES INC","co":"Campbell","st":"WY","trs":"T41N R72W S6","fm":"TURNER","eur":246504,"perft":null,"sound":true,"fit":"sound","geur":null,"gfit":"refused"}},{"type":"Feature","geometry":{"type":"Point","coordinates":[-105.5355,43.5604]},"properties":{"api":"4900561704","name":"YUKON 3229-02H","op":"EOG RESOURCES INC","co":"Campbell","st":"WY","trs":"T41N R72W S5","fm":"FRONTIER-TURNER","eur":421020,"perft":42743,"sound":true,"fit":"sound","geur":4682219,"gfit":"sound"}},{"type":"Feature","geometry":{"type":"Point","coordinates":[-105.5498,43.5608]},"properties":{"api":"4900561732","name":"ARBALEST 264-0607H","op":"EOG RESOURCES INC","co":"Campbell","st":"WY","trs":"T41N R72W S6","fm":"TURNER/FRONTIER","eur":499116,"perft":null,"sound":true,"fit":"sound","geur":null,"gfit":"refused"}},{"type":"Feature","geometry":{"type":"Point","coordinates":[-105.5499,43.5608]},"properties":{"api":"4900561733","name":"ARBALEST 271-06H","op":"EOG RESOURCES INC","co":"Campbell","st":"WY","trs":"T41N R72W S6","fm":"TURNER","eur":174847,"perft":null,"sound":true,"fit":"sound","geur":null,"gfit":"refused"}},{"type":"Feature","geometry":{"type":"Point","coordinates":[-105.5573,43.5607]},"properties":{"api":"4900561735","name":"ARBALEST 272-06H","op":"EOG RESOURCES INC","co":"Campbell","st":"WY","trs":"T41N R72W S6","fm":"TURNER","eur":195650,"perft":null,"sound":true,"fit":"sound","geur":null,"gfit":"refused"}},{"type":"Feature","geometry":{"type":"Point","coordinates":[-105.5074,43.5193]},"properties":{"api":"4900561842","name":"ARBALEST 434-16H","op":"EOG RESOURCES INC","co":"Campbell","st":"WY","trs":"T41N R72W S16","fm":"PARKMAN","eur":170395,"perft":49119,"sound":true,"fit":"sound","geur":null,"gfit":"refused"}},{"type":"Feature","geometry":{"type":"Point","coordinates":[-105.5488,43.5045]},"properties":{"api":"4900561878","name":"ARBALEST 443-19H","op":"EOG RESOURCES INC","co":"Campbell","st":"WY","trs":"T41N R72W S19","fm":"PARKMAN","eur":110301,"perft":25729,"sound":true,"fit":"sound","geur":null,"gfit":"refused"}},{"type":"Feature","geometry":{"type":"Point","coordinates":[-105.5332,43.5048]},"properties":{"api":"4900562115","name":"ARBALEST 78-2032H","op":"EOG RESOURCES INC","co":"Campbell","st":"WY","trs":"T41N R72W S20","fm":"PARKMAN","eur":171721,"perft":null,"sound":true,"fit":"sound","geur":1065317,"gfit":"sound"}},{"type":"Feature","geometry":{"type":"Point","coordinates":[-105.533,43.5048]},"properties":{"api":"4900562116","name":"ARBALEST 419-2032H","op":"EOG RESOURCES INC","co":"Campbell","st":"WY","trs":"T41N R72W S20","fm":"PARKMAN","eur":214514,"perft":null,"sound":true,"fit":"sound","geur":840136,"gfit":"sound"}},{"type":"Feature","geometry":{"type":"Point","coordinates":[-105.4578,43.5037]},"properties":{"api":"4900564314","name":"CEDAR 2413-19H","op":"EOG RESOURCES INC","co":"Campbell","st":"WY","trs":"T41N R72W S25","fm":"PARKMAN","eur":334908,"perft":33524,"sound":true,"fit":"sound","geur":null,"gfit":"refused"}},{"type":"Feature","geometry":{"type":"Point","coordinates":[-105.4576,43.5037]},"properties":{"api":"4900564315","name":"CEDAR 2413-20H","op":"EOG RESOURCES INC","co":"Campbell","st":"WY","trs":"T41N R72W S25","fm":"PARKMAN","eur":501312,"perft":48799,"sound":true,"fit":"sound","geur":null,"gfit":"refused"}},{"type":"Feature","geometry":{"type":"Point","coordinates":[-105.5186,43.5485]},"properties":{"api":"4900564476","name":"ARBALEST 124-0416H","op":"EOG RESOURCES INC","co":"Campbell","st":"WY","trs":"T41N R72W S4","fm":"PARKMAN","eur":356689,"perft":null,"sound":true,"fit":"sound","geur":721719,"gfit":"sound"}},{"type":"Feature","geometry":{"type":"Point","coordinates":[-105.5188,43.5485]},"properties":{"api":"4900564477","name":"ARBALEST 125-0416H","op":"EOG RESOURCES INC","co":"Campbell","st":"WY","trs":"T41N R72W S4","fm":"PARKMAN","eur":269226,"perft":null,"sound":true,"fit":"sound","geur":null,"gfit":"refused"}},{"type":"Feature","geometry":{"type":"Point","coordinates":[-105.5182,43.5485]},"properties":{"api":"4900564480","name":"ARBALEST 122-0416H","op":"EOG RESOURCES INC","co":"Campbell","st":"WY","trs":"T41N R72W S4","fm":"TURNER","eur":208752,"perft":null,"sound":true,"fit":"sound","geur":null,"gfit":"refused"}},{"type":"Feature","geometry":{"type":"Point","coordinates":[-105.5184,43.5485]},"properties":{"api":"4900564489","name":"ARBALEST 123-0416H","op":"EOG RESOURCES INC","co":"Campbell","st":"WY","trs":"T41N R72W S4","fm":"TURNER","eur":241713,"perft":null,"sound":true,"fit":"sound","geur":null,"gfit":"refused"}},{"type":"Feature","geometry":{"type":"Point","coordinates":[-105.4929,43.5611]},"properties":{"api":"4900564546","name":"NILE 3427-45H","op":"EOG RESOURCES INC","co":"Campbell","st":"WY","trs":"T41N R72W S3","fm":"MOWRY","eur":503547,"perft":47290,"sound":true,"fit":"sound","geur":null,"gfit":"refused"}},{"type":"Feature","geometry":{"type":"Point","coordinates":[-105.4927,43.5611]},"properties":{"api":"4900564547","name":"NILE 3427-46H","op":"EOG RESOURCES INC","co":"Campbell","st":"WY","trs":"T41N R72W S3","fm":"MOWRY","eur":244963,"perft":22838,"sound":true,"fit":"sound","geur":null,"gfit":"refused"}},{"type":"Feature","geometry":{"type":"Point","coordinates":[-105.4967,43.561]},"properties":{"api":"4900564554","name":"NILE 3427-04H","op":"EOG RESOURCES INC","co":"Campbell","st":"WY","trs":"T41N R72W S3","fm":"FRONTIER/TURNER","eur":313716,"perft":32943,"sound":true,"fit":"sound","geur":3343022,"gfit":"sound"}},{"type":"Feature","geometry":{"type":"Point","coordinates":[-105.4912,43.5051]},"properties":{"api":"4900568769","name":"ARBALEST 349-2215H","op":"EOG RESOURCES INC","co":"Campbell","st":"WY","trs":"T41N R72W S22","fm":"FRONTIER-TURNER","eur":240740,"perft":null,"sound":true,"fit":"sound","geur":null,"gfit":"refused"}},{"type":"Feature","geometry":{"type":"Point","coordinates":[-105.5368,43.5338]},"properties":{"api":"4900568783","name":"ARBALEST 473-0820H","op":"EOG RESOURCES INC","co":"Campbell","st":"WY","trs":"T41N R72W S8","fm":"NIOBRARA","eur":365055,"perft":null,"sound":true,"fit":"sound","geur":2406785,"gfit":"sound"}},{"type":"Feature","geometry":{"type":"Point","coordinates":[-105.537,43.5338]},"properties":{"api":"4900568784","name":"ARBALEST 411-0820H","op":"EOG RESOURCES INC","co":"Campbell","st":"WY","trs":"T41N R72W S8","fm":"PARKMAN","eur":208093,"perft":null,"sound":true,"fit":"sound","geur":null,"gfit":"refused"}},{"type":"Feature","geometry":{"type":"Point","coordinates":[-105.5372,43.5338]},"properties":{"api":"4900568785","name":"ARBALEST 472-0820H","op":"EOG RESOURCES INC","co":"Campbell","st":"WY","trs":"T41N R72W S8","fm":"TURNER","eur":279006,"perft":null,"sound":true,"fit":"sound","geur":null,"gfit":"refused"}},{"type":"Feature","geometry":{"type":"Point","coordinates":[-105.5374,43.5338]},"properties":{"api":"4900568786","name":"ARBALEST 410-0820H","op":"EOG RESOURCES INC","co":"Campbell","st":"WY","trs":"T41N R72W S8","fm":"PARKMAN","eur":212022,"perft":null,"sound":true,"fit":"sound","geur":1249861,"gfit":"sound"}},{"type":"Feature","geometry":{"type":"Point","coordinates":[-105.4911,43.5051]},"properties":{"api":"4900568789","name":"ARBALEST 348-2215H","op":"EOG RESOURCES INC","co":"Campbell","st":"WY","trs":"T41N R72W S22","fm":"FRONTIER-TURNER","eur":315667,"perft":null,"sound":true,"fit":"sound","geur":4868918,"gfit":"sound"}},{"type":"Feature","geometry":{"type":"Point","coordinates":[-105.5333,43.5048]},"properties":{"api":"4900569992","name":"ARBALEST 282-2032H","op":"EOG RESOURCES INC","co":"Campbell","st":"WY","trs":"T41N R72W S20","fm":"TURNER-FRONTIER","eur":223048,"perft":null,"sound":true,"fit":"sound","geur":null,"gfit":"refused"}},{"type":"Feature","geometry":{"type":"Point","coordinates":[-105.4914,43.5051]},"properties":{"api":"4900570119","name":"ARBALEST 216-2215H","op":"EOG RESOURCES INC","co":"Campbell","st":"WY","trs":"T41N R72W S22","fm":"PARKMAN","eur":660656,"perft":null,"sound":true,"fit":"sound","geur":722937,"gfit":"sound"}},{"type":"Feature","geometry":{"type":"Point","coordinates":[-105.4915,43.5051]},"properties":{"api":"4900570125","name":"ARBALEST 214-2215H","op":"EOG RESOURCES INC","co":"Campbell","st":"WY","trs":"T41N R72W S22","fm":"PARKMAN","eur":489105,"perft":null,"sound":true,"fit":"sound","geur":null,"gfit":"refused"}},{"type":"Feature","geometry":{"type":"Point","coordinates":[-105.5375,43.5349]},"properties":{"api":"4900570174","name":"PECAN 1720-05H","op":"EOG RESOURCES INC","co":"Campbell","st":"WY","trs":"T41N R72W S8","fm":"NIOBRARA","eur":251590,"perft":25597,"sound":true,"fit":"sound","geur":2024362,"gfit":"sound"}},{"type":"Feature","geometry":{"type":"Point","coordinates":[-105.5374,43.5346]},"properties":{"api":"4900570190","name":"PECAN 1720-03H","op":"EOG RESOURCES INC","co":"Campbell","st":"WY","trs":"T41N R72W S8","fm":"NIOBRARA","eur":115790,"perft":12440,"sound":true,"fit":"sound","geur":2390221,"gfit":"sound"}},{"type":"Feature","geometry":{"type":"Point","coordinates":[-105.5374,43.5348]},"properties":{"api":"4900570195","name":"PECAN 1720-04H","op":"EOG RESOURCES INC","co":"Campbell","st":"WY","trs":"T41N R72W S8","fm":"NIOBRARA","eur":100875,"perft":9746,"sound":true,"fit":"sound","geur":1094658,"gfit":"sound"}},{"type":"Feature","geometry":{"type":"Point","coordinates":[-105.4947,43.5046]},"properties":{"api":"4900570749","name":"ARBALEST 561-2234H","op":"EOG RESOURCES INC","co":"Campbell","st":"WY","trs":"T41N R72W S22","fm":"FRONTIER-TURNER","eur":258852,"perft":null,"sound":true,"fit":"sound","geur":null,"gfit":"refused"}},{"type":"Feature","geometry":{"type":"Point","coordinates":[-105.5352,43.5604]},"properties":{"api":"4900573448","name":"JUNIPER 0508-01H","op":"EOG RESOURCES INC","co":"Campbell","st":"WY","trs":"T41N R72W S5","fm":"FRONTER-TURNER","eur":272649,"perft":27465,"sound":true,"fit":"sound","geur":8106081,"gfit":"sound"}},{"type":"Feature","geometry":{"type":"Point","coordinates":[-105.5349,43.5604]},"properties":{"api":"4900573455","name":"JUNIPER 0508-03H","op":"EOG RESOURCES INC","co":"Campbell","st":"WY","trs":"T41N R72W S5","fm":"FRONTIER-TURNER","eur":302849,"perft":30471,"sound":true,"fit":"sound","geur":10810517,"gfit":"sound"}},{"type":"Feature","geometry":{"type":"Point","coordinates":[-105.5346,43.5604]},"properties":{"api":"4900573461","name":"JUNIPER 0508-05H","op":"EOG RESOURCES INC","co":"Campbell","st":"WY","trs":"T41N R72W S5","fm":"PARKMAN","eur":250346,"perft":26289,"sound":true,"fit":"sound","geur":null,"gfit":"refused"}},{"type":"Feature","geometry":{"type":"Point","coordinates":[-105.5341,43.5604]},"properties":{"api":"4900573463","name":"JUNIPER 0508-06H","op":"EOG RESOURCES INC","co":"Campbell","st":"WY","trs":"T41N R72W S5","fm":"MOWRY","eur":141612,"perft":13661,"sound":true,"fit":"sound","geur":7698258,"gfit":"sound"}},{"type":"Feature","geometry":{"type":"Point","coordinates":[-105.5357,43.5604]},"properties":{"api":"4900573467","name":"YUKON 3229-01H","op":"EOG RESOURCES INC","co":"Campbell","st":"WY","trs":"T41N R72W S5","fm":"FRONTIER-TURNER","eur":360023,"perft":35083,"sound":true,"fit":"sound","geur":3494487,"gfit":"sound"}},{"type":"Feature","geometry":{"type":"Point","coordinates":[-105.5353,43.5604]},"properties":{"api":"4900573470","name":"YUKON 3229-03H","op":"EOG RESOURCES INC","co":"Campbell","st":"WY","trs":"T41N R72W S5","fm":"FRONTIER-TURNER","eur":350482,"perft":34167,"sound":true,"fit":"sound","geur":3397124,"gfit":"sound"}},{"type":"Feature","geometry":{"type":"Point","coordinates":[-105.5343,43.5604]},"properties":{"api":"4900573471","name":"YUKON 3229-06H","op":"EOG RESOURCES INC","co":"Campbell","st":"WY","trs":"T41N R72W S5","fm":"PARKMAN","eur":355983,"perft":4415,"sound":true,"fit":"sound","geur":null,"gfit":"refused"}},{"type":"Feature","geometry":{"type":"Point","coordinates":[-105.5344,43.5602]},"properties":{"api":"4900573557","name":"YUKON 3229-05H","op":"EOG RESOURCES INC","co":"Campbell","st":"WY","trs":"T41N R72W S5","fm":"PARKMAN","eur":291130,"perft":27198,"sound":true,"fit":"sound","geur":null,"gfit":"refused"}},{"type":"Feature","geometry":{"type":"Point","coordinates":[-105.5337,43.5604]},"properties":{"api":"4900574627","name":"JUNIPER 0508-25H","op":"EOG RESOURCES INC","co":"Campbell","st":"WY","trs":"T41N R72W S5","fm":"MOWRY","eur":84613,"perft":8430,"sound":true,"fit":"sound","geur":null,"gfit":"refused"}},{"type":"Feature","geometry":{"type":"Point","coordinates":[-105.4944,43.5046]},"properties":{"api":"4900575168","name":"ARBALEST 475-2234H","op":"EOG RESOURCES INC","co":"Campbell","st":"WY","trs":"T41N R72W S22","fm":"PARKMAN","eur":587017,"perft":null,"sound":true,"fit":"sound","geur":null,"gfit":"refused"}},{"type":"Feature","geometry":{"type":"Point","coordinates":[-105.4942,43.5046]},"properties":{"api":"4900575169","name":"ARBALEST 476-2234H","op":"EOG RESOURCES INC","co":"Campbell","st":"WY","trs":"T41N R72W S22","fm":"PARKMAN","eur":426544,"perft":null,"sound":true,"fit":"sound","geur":null,"gfit":"refused"}},{"type":"Feature","geometry":{"type":"Point","coordinates":[-105.4945,43.5046]},"properties":{"api":"4900575170","name":"ARBALEST 477-2234H","op":"EOG RESOURCES INC","co":"Campbell","st":"WY","trs":"T41N R72W S22","fm":"FRONTIER-TURNER","eur":377470,"perft":null,"sound":true,"fit":"sound","geur":8535208,"gfit":"sound"}},{"type":"Feature","geometry":{"type":"Point","coordinates":[-105.4969,43.561]},"properties":{"api":"4900577276","name":"NILE 3427-41H","op":"EOG RESOURCES INC","co":"Campbell","st":"WY","trs":"T41N R72W S3","fm":"NIOBRARA","eur":640997,"perft":61445,"sound":true,"fit":"sound","geur":2885272,"gfit":"sound"}},{"type":"Feature","geometry":{"type":"Point","coordinates":[-105.4966,43.561]},"properties":{"api":"4900577277","name":"NILE 3427-05H","op":"EOG RESOURCES INC","co":"Campbell","st":"WY","trs":"T41N R72W S3","fm":"FRONTIER/TURNER","eur":271786,"perft":26979,"sound":true,"fit":"sound","geur":4248165,"gfit":"sound"}},{"type":"Feature","geometry":{"type":"Point","coordinates":[-105.4964,43.5611]},"properties":{"api":"4900577278","name":"MAPLE 0310-04H","op":"EOG RESOURCES INC","co":"Campbell","st":"WY","trs":"T41N R72W S3","fm":"PARMAN","eur":501907,"perft":51568,"sound":true,"fit":"sound","geur":null,"gfit":"refused"}},{"type":"Feature","geometry":{"type":"Point","coordinates":[-105.4932,43.5611]},"properties":{"api":"4900577279","name":"NILE 3427-43H","op":"EOG RESOURCES INC","co":"Campbell","st":"WY","trs":"T41N R72W S3","fm":"MOWRY","eur":123820,"perft":12380,"sound":true,"fit":"sound","geur":null,"gfit":"refused"}},{"type":"Feature","geometry":{"type":"Point","coordinates":[-105.493,43.5611]},"properties":{"api":"4900577280","name":"NILE 3427-44H","op":"EOG RESOURCES INC","co":"Campbell","st":"WY","trs":"T41N R72W S3","fm":"MOWRY","eur":158914,"perft":15251,"sound":true,"fit":"sound","geur":null,"gfit":"refused"}},{"type":"Feature","geometry":{"type":"Point","coordinates":[-105.5418,43.5594]},"properties":{"api":"4900577296","name":"YUKON 3229-07H","op":"EOG RESOURCES INC","co":"Campbell","st":"WY","trs":"T41N R72W S5","fm":"NIOBRARA","eur":315169,"perft":29708,"sound":true,"fit":"sound","geur":2010451,"gfit":"sound"}},{"type":"Feature","geometry":{"type":"Point","coordinates":[-105.5363,43.5604]},"properties":{"api":"4900577373","name":"JUNIPER 0508-07H","op":"EOG RESOURCES INC","co":"Campbell","st":"WY","trs":"T41N R72W S5","fm":"NIOBRARA","eur":423024,"perft":40423,"sound":true,"fit":"sound","geur":2862378,"gfit":"sound"}},{"type":"Feature","geometry":{"type":"Point","coordinates":[-105.5358,43.5604]},"properties":{"api":"4900577374","name":"JUNIPER 0508-10H","op":"EOG RESOURCES INC","co":"Campbell","st":"WY","trs":"T41N R72W S5","fm":"NIOBRARA","eur":350631,"perft":33854,"sound":true,"fit":"sound","geur":2548196,"gfit":"sound"}},{"type":"Feature","geometry":{"type":"Point","coordinates":[-105.536,43.5604]},"properties":{"api":"4900577375","name":"JUNIPER 0508-09H","op":"EOG RESOURCES INC","co":"Campbell","st":"WY","trs":"T41N R72W S5","fm":"NIOBRARA","eur":119450,"perft":11530,"sound":true,"fit":"sound","geur":1800880,"gfit":"sound"}},{"type":"Feature","geometry":{"type":"Point","coordinates":[-105.5361,43.5604]},"properties":{"api":"4900577376","name":"JUNIPER 0508-08H","op":"EOG RESOURCES INC","co":"Campbell","st":"WY","trs":"T41N R72W S5","fm":"NIOBRARA","eur":147298,"perft":14106,"sound":true,"fit":"sound","geur":1998175,"gfit":"sound"}},{"type":"Feature","geometry":{"type":"Point","coordinates":[-105.5417,43.5594]},"properties":{"api":"4900577597","name":"YUKON 3229-08H","op":"EOG RESOURCES INC","co":"Campbell","st":"WY","trs":"T41N R72W S5","fm":"NIOBRARA","eur":173873,"perft":16334,"sound":true,"fit":"sound","geur":1769564,"gfit":"sound"}},{"type":"Feature","geometry":{"type":"Point","coordinates":[-105.5415,43.5594]},"properties":{"api":"4900577598","name":"YUKON 3229-09H","op":"EOG RESOURCES INC","co":"Campbell","st":"WY","trs":"T41N R72W S5","fm":"NIOBRARA","eur":356606,"perft":34770,"sound":true,"fit":"sound","geur":2150994,"gfit":"sound"}},{"type":"Feature","geometry":{"type":"Point","coordinates":[-105.4963,43.5611]},"properties":{"api":"4900577621","name":"NILE 3427-31H","op":"EOG RESOURCES INC","co":"Campbell","st":"WY","trs":"T41N R72W S3","fm":"PARKMAN","eur":793781,"perft":75204,"sound":true,"fit":"sound","geur":null,"gfit":"refused"}},{"type":"Feature","geometry":{"type":"Point","coordinates":[-105.4816,43.5601]},"properties":{"api":"4900577647","name":"HUDSON 3526-20H","op":"EOG RESOURCES INC","co":"Campbell","st":"WY","trs":"T41N R72W S2","fm":"PARKMAN","eur":536898,"perft":48659,"sound":true,"fit":"sound","geur":null,"gfit":"refused"}},{"type":"Feature","geometry":{"type":"Point","coordinates":[-105.4813,43.5601]},"properties":{"api":"4900577648","name":"HUDSON 3526-17H","op":"EOG RESOURCES INC","co":"Campbell","st":"WY","trs":"T41N R72W S2","fm":"PARKMAN","eur":425422,"perft":36426,"sound":true,"fit":"sound","geur":null,"gfit":"refused"}},{"type":"Feature","geometry":{"type":"Point","coordinates":[-105.4822,43.5601]},"properties":{"api":"4900577649","name":"HUDSON 3526-18H","op":"EOG RESOURCES INC","co":"Campbell","st":"WY","trs":"T41N R72W S2","fm":"FRONTIER-TURNER","eur":184040,"perft":17019,"sound":true,"fit":"sound","geur":4680335,"gfit":"sound"}},{"type":"Feature","geometry":{"type":"Point","coordinates":[-105.4814,43.5601]},"properties":{"api":"4900577652","name":"WALNUT 0211-20H","op":"EOG RESOURCES INC","co":"Campbell","st":"WY","trs":"T41N R72W S2","fm":"PARKMAN","eur":554843,"perft":61302,"sound":true,"fit":"sound","geur":null,"gfit":"refused"}},{"type":"Feature","geometry":{"type":"Point","coordinates":[-105.4581,43.5037]},"properties":{"api":"4900577668","name":"DOGWOOD 2536-20H","op":"EOG RESOURCES INC","co":"Campbell","st":"WY","trs":"T41N R72W S25","fm":"PARKMAN","eur":365377,"perft":37128,"sound":true,"fit":"sound","geur":510813,"gfit":"sound"}},{"type":"Feature","geometry":{"type":"Point","coordinates":[-105.4579,43.5037]},"properties":{"api":"4900577669","name":"DOGWOOD 2536-21H","op":"EOG RESOURCES INC","co":"Campbell","st":"WY","trs":"T41N R72W S25","fm":"PARKMAN","eur":470701,"perft":46097,"sound":true,"fit":"sound","geur":629648,"gfit":"sound"}},{"type":"Feature","geometry":{"type":"Point","coordinates":[-105.5549,43.56]},"properties":{"api":"4900577695","name":"BIRCH 0607-12H","op":"EOG RESOURCES INC","co":"Campbell","st":"WY","trs":"T41N R72W S6","fm":"MOWRY","eur":147231,"perft":14596,"sound":true,"fit":"sound","geur":8199157,"gfit":"sound"}},{"type":"Feature","geometry":{"type":"Point","coordinates":[-105.4659,43.5631]},"properties":{"api":"4900577697","name":"HUDSON 3526-48H","op":"EOG RESOURCES INC","co":"Campbell","st":"WY","trs":"T41N R72W S2","fm":"NIOBRARA","eur":437099,"perft":41860,"sound":true,"fit":"sound","geur":3028289,"gfit":"sound"}},{"type":"Feature","geometry":{"type":"Point","coordinates":[-105.4813,43.5605]},"properties":{"api":"4900577702","name":"HUDSON 3526-03H","op":"EOG RESOURCES INC","co":"Campbell","st":"WY","trs":"T41N R72W S2","fm":"NIOBRARA","eur":470112,"perft":45308,"sound":true,"fit":"sound","geur":2380859,"gfit":"sound"}},{"type":"Feature","geometry":{"type":"Point","coordinates":[-105.4811,43.5605]},"properties":{"api":"4900577703","name":"HUDSON 3526-04H","op":"EOG RESOURCES INC","co":"Campbell","st":"WY","trs":"T41N R72W S2","fm":"NIOBRARA","eur":332299,"perft":31881,"sound":true,"fit":"sound","geur":4247627,"gfit":"sound"}},{"type":"Feature","geometry":{"type":"Point","coordinates":[-105.4658,43.5631]},"properties":{"api":"4900577708","name":"HUDSON 3526-25H","op":"EOG RESOURCES INC","co":"Campbell","st":"WY","trs":"T41N R72W S2","fm":"PARKMAN","eur":252739,"perft":25276,"sound":true,"fit":"sound","geur":null,"gfit":"refused"}},{"type":"Feature","geometry":{"type":"Point","coordinates":[-105.5209,43.5578]},"properties":{"api":"4900577722","name":"HEMLOCK 0409-03H","op":"EOG RESOURCES INC","co":"Campbell","st":"WY","trs":"T41N R72W S4","fm":"MOWRY","eur":70327,"perft":7946,"sound":true,"fit":"sound","geur":6057798,"gfit":"sound"}},{"type":"Feature","geometry":{"type":"Point","coordinates":[-105.5208,43.5578]},"properties":{"api":"4900577723","name":"HEMLOCK 0409-04H","op":"EOG RESOURCES INC","co":"Campbell","st":"WY","trs":"T41N R72W S4","fm":"MOWRY","eur":94950,"perft":10702,"sound":true,"fit":"sound","geur":6772429,"gfit":"sound"}},{"type":"Feature","geometry":{"type":"Point","coordinates":[-105.5551,43.56]},"properties":{"api":"4900577731","name":"BIRCH 0607-02H","op":"EOG RESOURCES INC","co":"Campbell","st":"WY","trs":"T41N R72W S6","fm":"MOWRY","eur":154845,"perft":15406,"sound":true,"fit":"sound","geur":5925040,"gfit":"sound"}},{"type":"Feature","geometry":{"type":"Point","coordinates":[-105.5548,43.56]},"properties":{"api":"4900577732","name":"BIRCH 0607-03H","op":"EOG RESOURCES INC","co":"Campbell","st":"WY","trs":"T41N R72W S6","fm":"MOWRY","eur":191572,"perft":19058,"sound":true,"fit":"sound","geur":6198927,"gfit":"sound"}},{"type":"Feature","geometry":{"type":"Point","coordinates":[-105.5546,43.56]},"properties":{"api":"4900577733","name":"BIRCH 0607-04H","op":"EOG RESOURCES INC","co":"Campbell","st":"WY","trs":"T41N R72W S6","fm":"MOWRY","eur":177598,"perft":17636,"sound":true,"fit":"sound","geur":7341111,"gfit":"sound"}},{"type":"Feature","geometry":{"type":"Point","coordinates":[-105.4661,43.5632]},"properties":{"api":"4900577737","name":"HUDSON 3526-47H","op":"EOG RESOURCES INC","co":"Campbell","st":"WY","trs":"T41N R72W S2","fm":"NIOBRARA","eur":625259,"perft":60847,"sound":true,"fit":"sound","geur":8111289,"gfit":"sound"}},{"type":"Feature","geometry":{"type":"Point","coordinates":[-105.5544,43.56]},"properties":{"api":"4900577810","name":"BIRCH 0607-09H","op":"EOG RESOURCES INC","co":"Campbell","st":"WY","trs":"T41N R72W S6","fm":"PARKMAN","eur":390408,"perft":39680,"sound":true,"fit":"sound","geur":281107,"gfit":"sound"}},{"type":"Feature","geometry":{"type":"Point","coordinates":[-105.5543,43.56]},"properties":{"api":"4900577811","name":"BIRCH 0607-10H","op":"EOG RESOURCES INC","co":"Campbell","st":"WY","trs":"T41N R72W S6","fm":"PARKMAN","eur":250474,"perft":25559,"sound":true,"fit":"sound","geur":null,"gfit":"refused"}},{"type":"Feature","geometry":{"type":"Point","coordinates":[-105.4812,43.5601]},"properties":{"api":"4900577967","name":"HUDSON 3526-12H","op":"EOG RESOURCES INC","co":"Campbell","st":"WY","trs":"T41N R72W S2","fm":"MOWRY","eur":169446,"perft":15365,"sound":true,"fit":"sound","geur":null,"gfit":"refused"}},{"type":"Feature","geometry":{"type":"Point","coordinates":[-105.4821,43.5601]},"properties":{"api":"4900577968","name":"HUDSON 3526-10H","op":"EOG RESOURCES INC","co":"Campbell","st":"WY","trs":"T41N R72W S2","fm":"MOWRY","eur":151923,"perft":14726,"sound":true,"fit":"sound","geur":8277718,"gfit":"sound"}},{"type":"Feature","geometry":{"type":"Point","coordinates":[-105.4819,43.5601]},"properties":{"api":"4900577969","name":"HUDSON 3526-11H","op":"EOG RESOURCES INC","co":"Campbell","st":"WY","trs":"T41N R72W S2","fm":"MOWRY","eur":129698,"perft":12759,"sound":true,"fit":"sound","geur":7104216,"gfit":"sound"}},{"type":"Feature","geometry":{"type":"Point","coordinates":[-105.5497,43.5346]},"properties":{"api":"4900578026","name":"OAK 1819-17H","op":"EOG RESOURCES INC","co":"Campbell","st":"WY","trs":"T41N R72W S7","fm":"FRONTIER-TURNER","eur":260570,"perft":25581,"sound":true,"fit":"sound","geur":2716472,"gfit":"sound"}},{"type":"Feature","geometry":{"type":"Point","coordinates":[-105.5499,43.5346]},"properties":{"api":"4900578027","name":"OAK 1819-18H","op":"EOG RESOURCES INC","co":"Campbell","st":"WY","trs":"T41N R72W S7","fm":"FRONTIER-TURNER","eur":247464,"perft":24122,"sound":true,"fit":"sound","geur":6339914,"gfit":"sound"}},{"type":"Feature","geometry":{"type":"Point","coordinates":[-105.55,43.5346]},"properties":{"api":"4900578028","name":"OAK 1819-20H","op":"EOG RESOURCES INC","co":"Campbell","st":"WY","trs":"T41N R72W S7","fm":"PARKMAN","eur":475944,"perft":50898,"sound":true,"fit":"sound","geur":2294126,"gfit":"sound"}},{"type":"Feature","geometry":{"type":"Point","coordinates":[-105.4575,43.5037]},"properties":{"api":"4900578030","name":"DOGWOOD 2536-22H","op":"EOG RESOURCES INC","co":"Campbell","st":"WY","trs":"T41N R72W S25","fm":"TURNER","eur":440253,"perft":44919,"sound":true,"fit":"sound","geur":null,"gfit":"refused"}},{"type":"Feature","geometry":{"type":"Point","coordinates":[-105.5339,43.5604]},"properties":{"api":"4900578071","name":"Juniper 0508-23H","op":"EOG RESOURCES INC","co":"Campbell","st":"WY","trs":"T41N R72W S5","fm":"MOWRY","eur":166548,"perft":16878,"sound":true,"fit":"sound","geur":7248703,"gfit":"sound"}},{"type":"Feature","geometry":{"type":"Point","coordinates":[-105.5338,43.5604]},"properties":{"api":"4900578072","name":"Juniper 0508-24H","op":"EOG RESOURCES INC","co":"Campbell","st":"WY","trs":"T41N R72W S5","fm":"MOWRY","eur":126018,"perft":12344,"sound":true,"fit":"sound","geur":7723634,"gfit":"sound"}},{"type":"Feature","geometry":{"type":"Point","coordinates":[-105.5564,43.5052]},"properties":{"api":"4900578243","name":"CORK 3031-12H","op":"EOG RESOURCES INC","co":"Campbell","st":"WY","trs":"T41N R72W S19","fm":"MOWRY","eur":86786,"perft":8590,"sound":true,"fit":"sound","geur":6779191,"gfit":"sound"}},{"type":"Feature","geometry":{"type":"Point","coordinates":[-105.5566,43.5052]},"properties":{"api":"4900578244","name":"CORK 3031-11H","op":"EOG RESOURCES INC","co":"Campbell","st":"WY","trs":"T41N R72W S19","fm":"MOWRY","eur":67469,"perft":6705,"sound":true,"fit":"sound","geur":6881784,"gfit":"sound"}},{"type":"Feature","geometry":{"type":"Point","coordinates":[-105.5567,43.5052]},"properties":{"api":"4900578245","name":"CORK 3031-10H","op":"EOG RESOURCES INC","co":"Campbell","st":"WY","trs":"T41N R72W S19","fm":"MOWRY","eur":132605,"perft":12973,"sound":true,"fit":"sound","geur":5874323,"gfit":"sound"}},{"type":"Feature","geometry":{"type":"Point","coordinates":[-105.5568,43.5052]},"properties":{"api":"4900578246","name":"CORK 3031-09H","op":"EOG RESOURCES INC","co":"Campbell","st":"WY","trs":"T41N R72W S19","fm":"MOWRY","eur":420607,"perft":40907,"sound":true,"fit":"sound","geur":13734644,"gfit":"sound"}},{"type":"Feature","geometry":{"type":"Point","coordinates":[-105.5563,43.5052]},"properties":{"api":"4900578355","name":"CORK 3031-13H","op":"EOG RESOURCES INC","co":"Campbell","st":"WY","trs":"T41N R72W S19","fm":"MOWRY","eur":384972,"perft":39255,"sound":true,"fit":"sound","geur":12172099,"gfit":"sound"}},{"type":"Feature","geometry":{"type":"Point","coordinates":[-105.5559,43.5052]},"properties":{"api":"4900579153","name":"CORK 3001-20H","op":"EOG RESOURCES INC","co":"Campbell","st":"WY","trs":"T41N R72W S19","fm":null,"eur":null,"perft":null,"sound":false,"fit":"none","geur":null,"gfit":"none"}},{"type":"Feature","geometry":{"type":"Point","coordinates":[-105.5558,43.5052]},"properties":{"api":"4900579157","name":"CORK 3006-21H","op":"EOG RESOURCES INC","co":"Campbell","st":"WY","trs":"T41N R72W S19","fm":null,"eur":null,"perft":null,"sound":false,"fit":"none","geur":null,"gfit":"none"}},{"type":"Feature","geometry":{"type":"Point","coordinates":[-105.55115,43.5565]},"properties":{"api":"4900528964","name":"MONGOOSE UNIT 32-6","op":"ENERGY EQUITY COMPANY","co":"Campbell","st":"WY","trs":"T41N R72W S6","fm":null,"eur":18048,"perft":null,"sound":true,"fit":"sound","geur":null,"gfit":"refused"}},{"type":"Feature","geometry":{"type":"Point","coordinates":[-105.49035,43.52806]},"properties":{"api":"4900536283","name":"SIOUX RANCH FED 32-15","op":"E & B NATURAL RESOURCES MANAGEMENT","co":"Campbell","st":"WY","trs":"T41N R72W S15","fm":null,"eur":null,"perft":null,"sound":false,"fit":"none","geur":null,"gfit":"refused"}},{"type":"Feature","geometry":{"type":"Point","coordinates":[-105.48112,43.54982]},"properties":{"api":"4900545600","name":"SIOUX RANCH 14-2","op":"E & B NATURAL RESOURCES MANAGEMENT","co":"Campbell","st":"WY","trs":"T41N R72W S2","fm":null,"eur":null,"perft":null,"sound":false,"fit":"none","geur":null,"gfit":"refused"}},{"type":"Feature","geometry":{"type":"Point","coordinates":[-105.47594,43.56131]},"properties":{"api":"4900545601","name":"SIOUX RANCH 21-2","op":"E & B NATURAL RESOURCES MANAGEMENT","co":"Campbell","st":"WY","trs":"T41N R72W S2","fm":null,"eur":null,"perft":null,"sound":false,"fit":"none","geur":null,"gfit":"refused"}},{"type":"Feature","geometry":{"type":"Point","coordinates":[-105.47562,43.55418]},"properties":{"api":"4900545602","name":"SIOUX RANCH 23-2","op":"E & B NATURAL RESOURCES MANAGEMENT","co":"Campbell","st":"WY","trs":"T41N R72W S2","fm":null,"eur":null,"perft":null,"sound":false,"fit":"none","geur":null,"gfit":"refused"}},{"type":"Feature","geometry":{"type":"Point","coordinates":[-105.46518,43.554]},"properties":{"api":"4900545603","name":"SIOUX RANCH 43-2","op":"E & B NATURAL RESOURCES MANAGEMENT","co":"Campbell","st":"WY","trs":"T41N R72W S2","fm":null,"eur":null,"perft":null,"sound":false,"fit":"none","geur":null,"gfit":"refused"}},{"type":"Feature","geometry":{"type":"Point","coordinates":[-105.46027,43.55033]},"properties":{"api":"4900545604","name":"SIOUX RANCH 14-1","op":"E & B NATURAL RESOURCES MANAGEMENT","co":"Campbell","st":"WY","trs":"T41N R72W S1","fm":null,"eur":null,"perft":null,"sound":false,"fit":"none","geur":null,"gfit":"refused"}},{"type":"Feature","geometry":{"type":"Point","coordinates":[-105.46543,43.53917]},"properties":{"api":"4900546211","name":"SIOUX RANCH 43-11","op":"E & B NATURAL RESOURCES MANAGEMENT","co":"Campbell","st":"WY","trs":"T41N R72W S11","fm":null,"eur":null,"perft":null,"sound":false,"fit":"none","geur":null,"gfit":"refused"}},{"type":"Feature","geometry":{"type":"Point","coordinates":[-105.46597,43.54644]},"properties":{"api":"4900546212","name":"SIOUX RANCH 41-11","op":"E & B NATURAL RESOURCES MANAGEMENT","co":"Campbell","st":"WY","trs":"T41N R72W S11","fm":null,"eur":null,"perft":null,"sound":false,"fit":"none","geur":null,"gfit":"refused"}},{"type":"Feature","geometry":{"type":"Point","coordinates":[-105.4709,43.53506]},"properties":{"api":"4900546213","name":"SIOUX RANCH 34-11","op":"E & B NATURAL RESOURCES MANAGEMENT","co":"Campbell","st":"WY","trs":"T41N R72W S11","fm":null,"eur":null,"perft":null,"sound":false,"fit":"none","geur":null,"gfit":"refused"}},{"type":"Feature","geometry":{"type":"Point","coordinates":[-105.47105,43.54267]},"properties":{"api":"4900546214","name":"SIOUX RANCH 32-11","op":"E & B NATURAL RESOURCES MANAGEMENT","co":"Campbell","st":"WY","trs":"T41N R72W S11","fm":null,"eur":null,"perft":null,"sound":false,"fit":"none","geur":184671,"gfit":"sound"}},{"type":"Feature","geometry":{"type":"Point","coordinates":[-105.50109,43.52827]},"properties":{"api":"4900548934","name":"RENO FLATS FED 12-15","op":"E & B NATURAL RESOURCES MANAGEMENT","co":"Campbell","st":"WY","trs":"T41N R72W S15","fm":null,"eur":null,"perft":null,"sound":false,"fit":"none","geur":95040,"gfit":"sound"}},{"type":"Feature","geometry":{"type":"Point","coordinates":[-105.49081,43.52033]},"properties":{"api":"4900548938","name":"RENO FLATS FED 34-15","op":"E & B NATURAL RESOURCES MANAGEMENT","co":"Campbell","st":"WY","trs":"T41N R72W S15","fm":null,"eur":null,"perft":null,"sound":false,"fit":"none","geur":null,"gfit":"refused"}},{"type":"Feature","geometry":{"type":"Point","coordinates":[-105.4865,43.52404]},"properties":{"api":"4900548939","name":"SIOUX RANCH FED 43-15","op":"E & B NATURAL RESOURCES MANAGEMENT","co":"Campbell","st":"WY","trs":"T41N R72W S15","fm":null,"eur":null,"perft":null,"sound":false,"fit":"none","geur":null,"gfit":"refused"}},{"type":"Feature","geometry":{"type":"Point","coordinates":[-105.51078,43.54269]},"properties":{"api":"4900551427","name":"SIOUX RANCH 32-9","op":"E & B NATURAL RESOURCES MANAGEMENT","co":"Campbell","st":"WY","trs":"T41N R72W S9","fm":null,"eur":null,"perft":null,"sound":false,"fit":"none","geur":null,"gfit":"refused"}},{"type":"Feature","geometry":{"type":"Point","coordinates":[-105.51062,43.5355]},"properties":{"api":"4900551428","name":"SIOUX RANCH 34-9","op":"E & B NATURAL RESOURCES MANAGEMENT","co":"Campbell","st":"WY","trs":"T41N R72W S9","fm":null,"eur":null,"perft":null,"sound":false,"fit":"none","geur":null,"gfit":"refused"}},{"type":"Feature","geometry":{"type":"Point","coordinates":[-105.50575,43.53913]},"properties":{"api":"4900551432","name":"SIOUX RANCH 43-9","op":"E & B NATURAL RESOURCES MANAGEMENT","co":"Campbell","st":"WY","trs":"T41N R72W S9","fm":null,"eur":null,"perft":null,"sound":false,"fit":"none","geur":null,"gfit":"refused"}},{"type":"Feature","geometry":{"type":"Point","coordinates":[-105.50519,43.54595]},"properties":{"api":"4900551433","name":"SIOUX RANCH 41-9-4172","op":"E & B NATURAL RESOURCES MANAGEMENT","co":"Campbell","st":"WY","trs":"T41N R72W S9","fm":null,"eur":null,"perft":null,"sound":false,"fit":"none","geur":null,"gfit":"none"}},{"type":"Feature","geometry":{"type":"Point","coordinates":[-105.5209,43.54232]},"properties":{"api":"4900551738","name":"JAROSH 12-9","op":"E & B NATURAL RESOURCES MANAGEMENT","co":"Campbell","st":"WY","trs":"T41N R72W S9","fm":null,"eur":null,"perft":null,"sound":false,"fit":"none","geur":null,"gfit":"refused"}},{"type":"Feature","geometry":{"type":"Point","coordinates":[-105.51523,43.54622]},"properties":{"api":"4900551740","name":"JAROSH 21-9","op":"E & B NATURAL RESOURCES MANAGEMENT","co":"Campbell","st":"WY","trs":"T41N R72W S9","fm":null,"eur":null,"perft":null,"sound":false,"fit":"none","geur":null,"gfit":"refused"}},{"type":"Feature","geometry":{"type":"Point","coordinates":[-105.51534,43.5389]},"properties":{"api":"4900551741","name":"JAROSH 23-9","op":"E & B NATURAL RESOURCES MANAGEMENT","co":"Campbell","st":"WY","trs":"T41N R72W S9","fm":null,"eur":null,"perft":null,"sound":false,"fit":"none","geur":null,"gfit":"refused"}},{"type":"Feature","geometry":{"type":"Point","coordinates":[-105.51072,43.55025]},"properties":{"api":"4900555354","name":"SIOUX RANCH 34-4","op":"E & B NATURAL RESOURCES MANAGEMENT","co":"Campbell","st":"WY","trs":"T41N R72W S4","fm":null,"eur":null,"perft":null,"sound":false,"fit":"none","geur":null,"gfit":"refused"}},{"type":"Feature","geometry":{"type":"Point","coordinates":[-105.46218,43.53269]},"properties":{"api":"4900560880","name":"ARBALEST 07-13H","op":"EOG RESOURCES INC","co":"Campbell","st":"WY","trs":"T41N R72W S13","fm":"TURNER","eur":103152,"perft":92100,"sound":true,"fit":"sound","geur":3505254,"gfit":"sound"}},{"type":"Feature","geometry":{"type":"Point","coordinates":[-105.46163,43.53203]},"properties":{"api":"4900560890","name":"ARBALEST 05-13H","op":"EOG RESOURCES INC","co":"Campbell","st":"WY","trs":"T41N R72W S13","fm":"TURNER","eur":97793,"perft":86466,"sound":true,"fit":"sound","geur":3797047,"gfit":"sound"}},{"type":"Feature","geometry":{"type":"Point","coordinates":[-105.46452,43.54888]},"properties":{"api":"4900560891","name":"ARBALEST 03-02H","op":"EOG RESOURCES INC","co":"Campbell","st":"WY","trs":"T41N R72W S2","fm":"TURNER","eur":54878,"perft":48867,"sound":true,"fit":"sound","geur":2772825,"gfit":"sound"}},{"type":"Feature","geometry":{"type":"Point","coordinates":[-105.46164,43.51803]},"properties":{"api":"4900560893","name":"ARBALEST 11-24H","op":"EOG RESOURCES INC","co":"Campbell","st":"WY","trs":"T41N R72W S24","fm":"TURNER","eur":130957,"perft":35918,"sound":true,"fit":"sound","geur":2270923,"gfit":"sound"}},{"type":"Feature","geometry":{"type":"Point","coordinates":[-105.47798,43.56146]},"properties":{"api":"4900561158","name":"ARBALEST 52-02H","op":"EOG RESOURCES INC","co":"Campbell","st":"WY","trs":"T41N R72W S2","fm":"TURNER","eur":87606,"perft":null,"sound":true,"fit":"sound","geur":3216337,"gfit":"sound"}},{"type":"Feature","geometry":{"type":"Point","coordinates":[-105.48945,43.50497]},"properties":{"api":"4900561164","name":"ARBALEST 45-22H","op":"EOG RESOURCES INC","co":"Campbell","st":"WY","trs":"T41N R72W S22","fm":"TURNER","eur":null,"perft":null,"sound":false,"fit":"refused","geur":4407159,"gfit":"sound"}},{"type":"Feature","geometry":{"type":"Point","coordinates":[-105.47572,43.53306]},"properties":{"api":"4900561172","name":"ARBALEST 25-14H","op":"EOG RESOURCES INC","co":"Campbell","st":"WY","trs":"T41N R72W S14","fm":"TURNER","eur":null,"perft":null,"sound":false,"fit":"refused","geur":null,"gfit":"refused"}},{"type":"Feature","geometry":{"type":"Point","coordinates":[-105.47715,43.50499]},"properties":{"api":"4900561174","name":"ARBALEST 29-23H","op":"EOG RESOURCES INC","co":"Campbell","st":"WY","trs":"T41N R72W S23","fm":"TURNER","eur":null,"perft":null,"sound":false,"fit":"refused","geur":4525791,"gfit":"sound"}},{"type":"Feature","geometry":{"type":"Point","coordinates":[-105.46866,43.5324]},"properties":{"api":"4900561191","name":"ARBALEST 42-14H","op":"EOG RESOURCES INC","co":"Campbell","st":"WY","trs":"T41N R72W S14","fm":"TURNER","eur":129998,"perft":38609,"sound":true,"fit":"sound","geur":2653113,"gfit":"sound"}},{"type":"Feature","geometry":{"type":"Point","coordinates":[-105.46903,43.5033]},"properties":{"api":"4900561201","name":"ARBALEST 48-26H","op":"EOG RESOURCES INC","co":"Campbell","st":"WY","trs":"T41N R72W S26","fm":"TURNER","eur":142075,"perft":39042,"sound":true,"fit":"sound","geur":1237354,"gfit":"sound"}},{"type":"Feature","geometry":{"type":"Point","coordinates":[-105.51113,43.54677]},"properties":{"api":"4900561203","name":"ARBALEST 34-09H","op":"EOG RESOURCES INC","co":"Campbell","st":"WY","trs":"T41N R72W S9","fm":"TURNER","eur":null,"perft":null,"sound":false,"fit":"refused","geur":null,"gfit":"refused"}},{"type":"Feature","geometry":{"type":"Point","coordinates":[-105.52129,43.53193]},"properties":{"api":"4900561228","name":"ARBALEST 55-16H","op":"EOG RESOURCES INC","co":"Campbell","st":"WY","trs":"T41N R72W S16","fm":"TURNER","eur":null,"perft":null,"sound":false,"fit":"refused","geur":null,"gfit":"refused"}},{"type":"Feature","geometry":{"type":"Point","coordinates":[-105.51104,43.54677]},"properties":{"api":"4900561309","name":"ARBALEST 35-09H","op":"EOG RESOURCES INC","co":"Campbell","st":"WY","trs":"T41N R72W S9","fm":"TURNER","eur":null,"perft":null,"sound":false,"fit":"refused","geur":null,"gfit":"refused"}},{"type":"Feature","geometry":{"type":"Point","coordinates":[-105.49731,43.53285]},"properties":{"api":"4900561310","name":"ARBALEST 22-15H","op":"EOG RESOURCES INC","co":"Campbell","st":"WY","trs":"T41N R72W S15","fm":"TURNER","eur":219982,"perft":59199,"sound":true,"fit":"sound","geur":null,"gfit":"refused"}},{"type":"Feature","geometry":{"type":"Point","coordinates":[-105.54929,43.53453]},"properties":{"api":"4900561314","name":"ARBALEST 36-07H","op":"EOG RESOURCES INC","co":"Campbell","st":"WY","trs":"T41N R72W S7","fm":"TURNER","eur":null,"perft":null,"sound":false,"fit":"refused","geur":null,"gfit":"refused"}},{"type":"Feature","geometry":{"type":"Point","coordinates":[-105.44876,43.506]},"properties":{"api":"4900561315","name":"ARBALEST 50-24H","op":"EOG RESOURCES INC","co":"Campbell","st":"WY","trs":"T41N R72W S24","fm":"TURNER","eur":199424,"perft":62126,"sound":true,"fit":"sound","geur":2493479,"gfit":"sound"}},{"type":"Feature","geometry":{"type":"Point","coordinates":[-105.5376,43.53383]},"properties":{"api":"4900561324","name":"ARBALEST 21-0820H","op":"EOG RESOURCES INC","co":"Campbell","st":"WY","trs":"T41N R72W S8","fm":"TURNER","eur":null,"perft":null,"sound":false,"fit":"refused","geur":6666223,"gfit":"sound"}},{"type":"Feature","geometry":{"type":"Point","coordinates":[-105.48909,43.54875]},"properties":{"api":"4900561328","name":"ARBALEST 33-03H","op":"EOG RESOURCES INC","co":"Campbell","st":"WY","trs":"T41N R72W S3","fm":"TURNER","eur":109832,"perft":null,"sound":true,"fit":"sound","geur":2292158,"gfit":"sound"}},{"type":"Feature","geometry":{"type":"Point","coordinates":[-105.54985,43.56083]},"properties":{"api":"4900561706","name":"ARBALEST 72-06H","op":"EOG RESOURCES INC","co":"Campbell","st":"WY","trs":"T41N R72W S6","fm":"TURNER","eur":261807,"perft":null,"sound":true,"fit":"sound","geur":null,"gfit":"refused"}},{"type":"Feature","geometry":{"type":"Point","coordinates":[-105.45529,43.55429]},"properties":{"api":"4900550651","name":"LITTON 23-1","op":"E & B NATURAL RESOURCES MANAGEMENT","co":"Campbell","st":"WY","trs":"T41N R72W S1","fm":null,"eur":null,"perft":null,"sound":false,"fit":"none","geur":245178,"gfit":"sound"}},{"type":"Feature","geometry":{"type":"Point","coordinates":[-105.45142,43.54998]},"properties":{"api":"4900550652","name":"LITTON 34-1","op":"E & B NATURAL RESOURCES MANAGEMENT","co":"Campbell","st":"WY","trs":"T41N R72W S1","fm":null,"eur":null,"perft":null,"sound":false,"fit":"none","geur":242171,"gfit":"sound"}},{"type":"Feature","geometry":{"type":"Point","coordinates":[-105.45545,43.54644]},"properties":{"api":"4900550653","name":"LITTON 21-12","op":"E & B NATURAL RESOURCES MANAGEMENT","co":"Campbell","st":"WY","trs":"T41N R72W S12","fm":null,"eur":null,"perft":null,"sound":false,"fit":"none","geur":253316,"gfit":"sound"}},{"type":"Feature","geometry":{"type":"Point","coordinates":[-105.45585,43.5393]},"properties":{"api":"4900550654","name":"LITTON 23-12","op":"E & B NATURAL RESOURCES MANAGEMENT","co":"Campbell","st":"WY","trs":"T41N R72W S12","fm":null,"eur":null,"perft":null,"sound":false,"fit":"none","geur":null,"gfit":"refused"}},{"type":"Feature","geometry":{"type":"Point","coordinates":[-105.48633,43.53184]},"properties":{"api":"4900536280","name":"SIOUX RANCH FED 41-15","op":"E & B NATURAL RESOURCES MANAGEMENT","co":"Campbell","st":"WY","trs":"T41N R72W S15","fm":null,"eur":null,"perft":null,"sound":false,"fit":"none","geur":157167,"gfit":"sound"}},{"type":"Feature","geometry":{"type":"Point","coordinates":[-105.5362,43.5389]},"properties":{"api":"4900537936","name":"RENO 23-8-4172","op":"E & B NATURAL RESOURCES MANAGEMENT","co":"Campbell","st":"WY","trs":"T41N R72W S8","fm":null,"eur":null,"perft":null,"sound":false,"fit":"none","geur":null,"gfit":"refused"}},{"type":"Feature","geometry":{"type":"Point","coordinates":[-105.45674,43.5026]},"properties":{"api":"4900545342","name":"ISENBERGER 21-25","op":"E & B NATURAL RESOURCES MANAGEMENT","co":"Campbell","st":"WY","trs":"T41N R72W S25","fm":null,"eur":null,"perft":null,"sound":false,"fit":"none","geur":90614,"gfit":"sound"}},{"type":"Feature","geometry":{"type":"Point","coordinates":[-105.46131,43.49894]},"properties":{"api":"4900545344","name":"ISENBERGER 12-25","op":"E & B NATURAL RESOURCES MANAGEMENT","co":"Campbell","st":"WY","trs":"T41N R72W S25","fm":null,"eur":null,"perft":null,"sound":false,"fit":"none","geur":null,"gfit":"refused"}},{"type":"Feature","geometry":{"type":"Point","coordinates":[-105.45218,43.49867]},"properties":{"api":"4900545346","name":"ISENBERGER 32-25","op":"E & B NATURAL RESOURCES MANAGEMENT","co":"Campbell","st":"WY","trs":"T41N R72W S25","fm":null,"eur":null,"perft":null,"sound":false,"fit":"none","geur":null,"gfit":"refused"}},{"type":"Feature","geometry":{"type":"Point","coordinates":[-105.46639,43.50236]},"properties":{"api":"4900545348","name":"ISENBERGER 41-26","op":"E & B NATURAL RESOURCES MANAGEMENT","co":"Campbell","st":"WY","trs":"T41N R72W S26","fm":null,"eur":null,"perft":null,"sound":false,"fit":"none","geur":null,"gfit":"refused"}},{"type":"Feature","geometry":{"type":"Point","coordinates":[-105.47612,43.50259]},"properties":{"api":"4900545350","name":"ISENBERGER 21-26","op":"E & B NATURAL RESOURCES MANAGEMENT","co":"Campbell","st":"WY","trs":"T41N R72W S26","fm":null,"eur":null,"perft":null,"sound":false,"fit":"none","geur":117239,"gfit":"sound"}},{"type":"Feature","geometry":{"type":"Point","coordinates":[-105.48111,43.49899]},"properties":{"api":"4900545352","name":"ISENBERGER 12-26","op":"E & B NATURAL RESOURCES MANAGEMENT","co":"Campbell","st":"WY","trs":"T41N R72W S26","fm":null,"eur":null,"perft":null,"sound":false,"fit":"none","geur":null,"gfit":"refused"}},{"type":"Feature","geometry":{"type":"Point","coordinates":[-105.47112,43.49897]},"properties":{"api":"4900545354","name":"ISENBERGER 32-26","op":"E & B NATURAL RESOURCES MANAGEMENT","co":"Campbell","st":"WY","trs":"T41N R72W S26","fm":null,"eur":null,"perft":null,"sound":false,"fit":"none","geur":null,"gfit":"refused"}},{"type":"Feature","geometry":{"type":"Point","coordinates":[-105.44645,43.51706]},"properties":{"api":"4900545359","name":"ISENBERGER 41-24","op":"E & B NATURAL RESOURCES MANAGEMENT","co":"Campbell","st":"WY","trs":"T41N R72W S24","fm":null,"eur":null,"perft":null,"sound":false,"fit":"none","geur":157511,"gfit":"sound"}},{"type":"Feature","geometry":{"type":"Point","coordinates":[-105.46588,43.52469]},"properties":{"api":"4900545363","name":"ISENBERGER 43-14","op":"E & B NATURAL RESOURCES MANAGEMENT","co":"Campbell","st":"WY","trs":"T41N R72W S14","fm":null,"eur":null,"perft":null,"sound":false,"fit":"none","geur":null,"gfit":"refused"}},{"type":"Feature","geometry":{"type":"Point","coordinates":[-105.46102,43.52079]},"properties":{"api":"4900545367","name":"ISENBERGER 14-13","op":"E & B NATURAL RESOURCES MANAGEMENT","co":"Campbell","st":"WY","trs":"T41N R72W S13","fm":null,"eur":null,"perft":null,"sound":false,"fit":"none","geur":147556,"gfit":"sound"}},{"type":"Feature","geometry":{"type":"Point","coordinates":[-105.45609,43.52438]},"properties":{"api":"4900545369","name":"ISENBERGER 23-13","op":"E & B NATURAL RESOURCES MANAGEMENT","co":"Campbell","st":"WY","trs":"T41N R72W S13","fm":null,"eur":null,"perft":null,"sound":false,"fit":"none","geur":null,"gfit":"refused"}},{"type":"Feature","geometry":{"type":"Point","coordinates":[-105.4608,43.52814]},"properties":{"api":"4900545371","name":"ISENBERGER 12-13","op":"E & B NATURAL RESOURCES MANAGEMENT","co":"Campbell","st":"WY","trs":"T41N R72W S13","fm":null,"eur":null,"perft":null,"sound":false,"fit":"none","geur":null,"gfit":"refused"}},{"type":"Feature","geometry":{"type":"Point","coordinates":[-105.45577,43.53186]},"properties":{"api":"4900545373","name":"ISENBERGER 21-13","op":"E & B NATURAL RESOURCES MANAGEMENT","co":"Campbell","st":"WY","trs":"T41N R72W S13","fm":null,"eur":null,"perft":null,"sound":false,"fit":"none","geur":null,"gfit":"refused"}},{"type":"Feature","geometry":{"type":"Point","coordinates":[-105.48114,43.55805]},"properties":{"api":"4900545605","name":"SIOUX RANCH 12-2","op":"E & B NATURAL RESOURCES MANAGEMENT","co":"Campbell","st":"WY","trs":"T41N R72W S2","fm":null,"eur":null,"perft":null,"sound":false,"fit":"none","geur":null,"gfit":"refused"}},{"type":"Feature","geometry":{"type":"Point","coordinates":[-105.49573,43.53225]},"properties":{"api":"4900548936","name":"SIOUX FANCH FED 21-15","op":"E & B NATURAL RESOURCES MANAGEMENT","co":"Campbell","st":"WY","trs":"T41N R72W S15","fm":null,"eur":null,"perft":null,"sound":false,"fit":"none","geur":211974,"gfit":"sound"}},{"type":"Feature","geometry":{"type":"Point","coordinates":[-105.53079,43.53464]},"properties":{"api":"4900555355","name":"SIOUX RANCH 34-8","op":"E & B NATURAL RESOURCES MANAGEMENT","co":"Campbell","st":"WY","trs":"T41N R72W S8","fm":null,"eur":null,"perft":null,"sound":false,"fit":"none","geur":null,"gfit":"refused"}},{"type":"Feature","geometry":{"type":"Point","coordinates":[-105.46503,43.56131]},"properties":{"api":"4900536279","name":"SIOUX RANCH FED 41-2","op":"E & B NATURAL RESOURCES MANAGEMENT","co":"Campbell","st":"WY","trs":"T41N R72W S2","fm":null,"eur":null,"perft":null,"sound":false,"fit":"none","geur":null,"gfit":"refused"}},{"type":"Feature","geometry":{"type":"Point","coordinates":[-105.47009,43.55017]},"properties":{"api":"4900536281","name":"SIOUX RANCH FED 34-2","op":"E & B NATURAL RESOURCES MANAGEMENT","co":"Campbell","st":"WY","trs":"T41N R72W S2","fm":null,"eur":null,"perft":null,"sound":false,"fit":"none","geur":null,"gfit":"refused"}},{"type":"Feature","geometry":{"type":"Point","coordinates":[-105.47024,43.55756]},"properties":{"api":"4900536282","name":"SIOUX RANCH FED 32-2","op":"E & B NATURAL RESOURCES MANAGEMENT","co":"Campbell","st":"WY","trs":"T41N R72W S2","fm":null,"eur":null,"perft":null,"sound":false,"fit":"none","geur":null,"gfit":"refused"}},{"type":"Feature","geometry":{"type":"Point","coordinates":[-105.51035,43.55709]},"properties":{"api":"4900548940","name":"SIOUX RANCH FED 32-4","op":"E & B NATURAL RESOURCES MANAGEMENT","co":"Campbell","st":"WY","trs":"T41N R72W S4","fm":null,"eur":null,"perft":null,"sound":false,"fit":"none","geur":null,"gfit":"refused"}},{"type":"Feature","geometry":{"type":"Point","coordinates":[-105.50569,43.55329]},"properties":{"api":"4900548941","name":"SIOUX RANCH FED 43-4","op":"E & B NATURAL RESOURCES MANAGEMENT","co":"Campbell","st":"WY","trs":"T41N R72W S4","fm":null,"eur":null,"perft":null,"sound":false,"fit":"none","geur":null,"gfit":"refused"}},{"type":"Feature","geometry":{"type":"Point","coordinates":[-105.49556,43.56156]},"properties":{"api":"4900548943","name":"SIOUX RANCH FED 21-3","op":"E & B NATURAL RESOURCES MANAGEMENT","co":"Campbell","st":"WY","trs":"T41N R72W S3","fm":null,"eur":null,"perft":null,"sound":false,"fit":"none","geur":null,"gfit":"refused"}},{"type":"Feature","geometry":{"type":"Point","coordinates":[-105.49553,43.55379]},"properties":{"api":"4900548944","name":"SIOUX RANCH FED 23-3","op":"E & B NATURAL RESOURCES MANAGEMENT","co":"Campbell","st":"WY","trs":"T41N R72W S3","fm":null,"eur":null,"perft":null,"sound":false,"fit":"none","geur":104041,"gfit":"sound"}},{"type":"Feature","geometry":{"type":"Point","coordinates":[-105.49079,43.55771]},"properties":{"api":"4900548945","name":"SIOUX RANCH FED 32-3","op":"E & B NATURAL RESOURCES MANAGEMENT","co":"Campbell","st":"WY","trs":"T41N R72W S3","fm":null,"eur":null,"perft":null,"sound":false,"fit":"none","geur":null,"gfit":"refused"}},{"type":"Feature","geometry":{"type":"Point","coordinates":[-105.49075,43.54967]},"properties":{"api":"4900548946","name":"SIOUX RANCH FED 34-3","op":"E & B NATURAL RESOURCES MANAGEMENT","co":"Campbell","st":"WY","trs":"T41N R72W S3","fm":null,"eur":null,"perft":null,"sound":false,"fit":"none","geur":122953,"gfit":"sound"}},{"type":"Feature","geometry":{"type":"Point","coordinates":[-105.48568,43.56139]},"properties":{"api":"4900548947","name":"SIOUX RANCH FED 41-3","op":"E & B NATURAL RESOURCES MANAGEMENT","co":"Campbell","st":"WY","trs":"T41N R72W S3","fm":null,"eur":null,"perft":null,"sound":false,"fit":"none","geur":null,"gfit":"refused"}},{"type":"Feature","geometry":{"type":"Point","coordinates":[-105.48508,43.55405]},"properties":{"api":"4900548948","name":"SIOUX RANCH FED 43-3","op":"E & B NATURAL RESOURCES MANAGEMENT","co":"Campbell","st":"WY","trs":"T41N R72W S3","fm":null,"eur":null,"perft":null,"sound":false,"fit":"none","geur":111101,"gfit":"sound"}},{"type":"Feature","geometry":{"type":"Point","coordinates":[-105.50086,43.55235]},"properties":{"api":"4900551417","name":"SIOUX RANCH FED 13-3","op":"E & B NATURAL RESOURCES MANAGEMENT","co":"Campbell","st":"WY","trs":"T41N R72W S3","fm":null,"eur":null,"perft":null,"sound":false,"fit":"none","geur":null,"gfit":"refused"}},{"type":"Feature","geometry":{"type":"Point","coordinates":[-105.52104,43.54961]},"properties":{"api":"4900558757","name":"JAROSH  FEDERAL 14-4","op":"E & B NATURAL RESOURCES MANAGEMENT","co":"Campbell","st":"WY","trs":"T41N R72W S4","fm":null,"eur":null,"perft":null,"sound":false,"fit":"none","geur":null,"gfit":"none"}},{"type":"Feature","geometry":{"type":"Point","coordinates":[-105.52576,43.54628]},"properties":{"api":"4900558758","name":"JAROSH FEDERAL 41-8","op":"E & B NATURAL RESOURCES MANAGEMENT","co":"Campbell","st":"WY","trs":"T41N R72W S8","fm":null,"eur":null,"perft":null,"sound":false,"fit":"none","geur":null,"gfit":"none"}},{"type":"Feature","geometry":{"type":"Point","coordinates":[-105.52973,43.55005]},"properties":{"api":"4900558778","name":"SIOUX RANCH FED 34-5","op":"E & B NATURAL RESOURCES MANAGEMENT","co":"Campbell","st":"WY","trs":"T41N R72W S5","fm":null,"eur":null,"perft":null,"sound":false,"fit":"none","geur":null,"gfit":"refused"}},{"type":"Feature","geometry":{"type":"Point","coordinates":[-105.52583,43.55332]},"properties":{"api":"4900558779","name":"SIOUX RANCH FED 43-5","op":"E & B NATURAL RESOURCES MANAGEMENT","co":"Campbell","st":"WY","trs":"T41N R72W S5","fm":null,"eur":null,"perft":null,"sound":false,"fit":"none","geur":null,"gfit":"none"}},{"type":"Feature","geometry":{"type":"Point","coordinates":[-105.50565,43.56134]},"properties":{"api":"4900558823","name":"SIOUX RANCH FED 41-4","op":"E & B NATURAL RESOURCES MANAGEMENT","co":"Campbell","st":"WY","trs":"T41N R72W S4","fm":null,"eur":null,"perft":null,"sound":false,"fit":"none","geur":44236,"gfit":"sound"}},{"type":"Feature","geometry":{"type":"Point","coordinates":[-105.50061,43.55707]},"properties":{"api":"4900548942","name":"CARBINE CS FED COM 1","op":"EOG Y RESOURCES INC","co":"Campbell","st":"WY","trs":"T41N R72W S3","fm":null,"eur":null,"perft":null,"sound":false,"fit":"none","geur":null,"gfit":"none"}},{"type":"Feature","geometry":{"type":"Point","coordinates":[-105.45012,43.55778]},"properties":{"api":"4900554243","name":"BOLT CS FEDERAL 4","op":"EOG Y RESOURCES INC","co":"Campbell","st":"WY","trs":"T41N R72W S1","fm":null,"eur":null,"perft":null,"sound":false,"fit":"none","geur":null,"gfit":"refused"}},{"type":"Feature","geometry":{"type":"Point","coordinates":[-105.4602,43.55751]},"properties":{"api":"4900554244","name":"BOLT CS FEDERAL 3","op":"EOG Y RESOURCES INC","co":"Campbell","st":"WY","trs":"T41N R72W S1","fm":null,"eur":null,"perft":null,"sound":false,"fit":"none","geur":52754,"gfit":"sound"}},{"type":"Feature","geometry":{"type":"Point","coordinates":[-105.45457,43.56126]},"properties":{"api":"4900554245","name":"BOLT CS FEDERAL 2","op":"EOG Y RESOURCES INC","co":"Campbell","st":"WY","trs":"T41N R72W S1","fm":null,"eur":null,"perft":null,"sound":false,"fit":"none","geur":null,"gfit":"refused"}},{"type":"Feature","geometry":{"type":"Point","coordinates":[-105.4456,43.53931]},"properties":{"api":"4900554260","name":"GRUMMAN CS FEDERAL 1","op":"EOG Y RESOURCES INC","co":"Campbell","st":"WY","trs":"T41N R72W S12","fm":null,"eur":null,"perft":null,"sound":false,"fit":"none","geur":null,"gfit":"refused"}},{"type":"Feature","geometry":{"type":"Point","coordinates":[-105.45096,43.5352]},"properties":{"api":"4900554261","name":"GRUMMAN CS FEDERAL 2","op":"EOG Y RESOURCES INC","co":"Campbell","st":"WY","trs":"T41N R72W S12","fm":null,"eur":null,"perft":null,"sound":false,"fit":"none","geur":null,"gfit":"refused"}},{"type":"Feature","geometry":{"type":"Point","coordinates":[-105.46547,43.51719]},"properties":{"api":"4900554263","name":"MESSERSCHMITT CS FED 1","op":"EOG Y RESOURCES INC","co":"Campbell","st":"WY","trs":"T41N R72W S23","fm":null,"eur":null,"perft":null,"sound":false,"fit":"none","geur":null,"gfit":"refused"}},{"type":"Feature","geometry":{"type":"Point","coordinates":[-105.47118,43.51311]},"properties":{"api":"4900554264","name":"MESSERSCHMITT CS FED 2","op":"EOG Y RESOURCES INC","co":"Campbell","st":"WY","trs":"T41N R72W S23","fm":null,"eur":null,"perft":null,"sound":false,"fit":"none","geur":null,"gfit":"refused"}},{"type":"Feature","geometry":{"type":"Point","coordinates":[-105.46521,43.50936]},"properties":{"api":"4900554265","name":"MESSERSCHMITT CS FED 3","op":"EOG Y RESOURCES INC","co":"Campbell","st":"WY","trs":"T41N R72W S23","fm":null,"eur":null,"perft":null,"sound":false,"fit":"none","geur":null,"gfit":"none"}},{"type":"Feature","geometry":{"type":"Point","coordinates":[-105.48009,43.50608]},"properties":{"api":"4900554266","name":"MESSERSCHMITT CS FED 5","op":"EOG Y RESOURCES INC","co":"Campbell","st":"WY","trs":"T41N R72W S23","fm":null,"eur":null,"perft":null,"sound":false,"fit":"none","geur":null,"gfit":"none"}},{"type":"Feature","geometry":{"type":"Point","coordinates":[-105.47055,43.50626]},"properties":{"api":"4900554267","name":"MESSERSCHMITT CS FED 6","op":"EOG Y RESOURCES INC","co":"Campbell","st":"WY","trs":"T41N R72W S23","fm":null,"eur":null,"perft":null,"sound":false,"fit":"none","geur":null,"gfit":"refused"}},{"type":"Feature","geometry":{"type":"Point","coordinates":[-105.47548,43.51035]},"properties":{"api":"4900554288","name":"MESSERSCHMITT CS FED 4","op":"EOG Y RESOURCES INC","co":"Campbell","st":"WY","trs":"T41N R72W S23","fm":null,"eur":null,"perft":null,"sound":false,"fit":"none","geur":null,"gfit":"refused"}},{"type":"Feature","geometry":{"type":"Point","coordinates":[-105.4658,43.53171]},"properties":{"api":"4900545365","name":"ISENBERGER 41-14","op":"E & B NATURAL RESOURCES MANAGEMENT","co":"Campbell","st":"WY","trs":"T41N R72W S14","fm":null,"eur":null,"perft":null,"sound":false,"fit":"none","geur":null,"gfit":"refused"}},{"type":"Feature","geometry":{"type":"Point","coordinates":[-105.47612,43.52477]},"properties":{"api":"4900549739","name":"STATE 23-14-4172","op":"ANADARKO E&P ONSHORE LLC","co":"Campbell","st":"WY","trs":"T41N R72W S14","fm":null,"eur":null,"perft":null,"sound":false,"fit":"none","geur":null,"gfit":"refused"}},{"type":"Feature","geometry":{"type":"Point","coordinates":[-105.45613,43.51712]},"properties":{"api":"4900545361","name":"ISENBERGER 21-24","op":"E & B NATURAL RESOURCES MANAGEMENT","co":"Campbell","st":"WY","trs":"T41N R72W S24","fm":null,"eur":null,"perft":null,"sound":false,"fit":"none","geur":null,"gfit":"refused"}},{"type":"Feature","geometry":{"type":"Point","coordinates":[-105.50076,43.52048]},"properties":{"api":"4900548935","name":"RENO FLATS FED 14-15","op":"E & B NATURAL RESOURCES MANAGEMENT","co":"Campbell","st":"WY","trs":"T41N R72W S15","fm":null,"eur":null,"perft":null,"sound":false,"fit":"none","geur":null,"gfit":"refused"}},{"type":"Feature","geometry":{"type":"Point","coordinates":[-105.46113,43.51348]},"properties":{"api":"4900551656","name":"P LITTON FED 12-24-4172CA","op":"ANADARKO E&P ONSHORE LLC","co":"Campbell","st":"WY","trs":"T41N R72W S24","fm":null,"eur":null,"perft":null,"sound":false,"fit":"none","geur":15436,"gfit":"sound"}},{"type":"Feature","geometry":{"type":"Point","coordinates":[-105.46124,43.5062]},"properties":{"api":"4900551657","name":"P LITTON FED 14-24-4172CA","op":"ANADARKO E&P ONSHORE LLC","co":"Campbell","st":"WY","trs":"T41N R72W S24","fm":null,"eur":null,"perft":null,"sound":false,"fit":"none","geur":67385,"gfit":"sound"}},{"type":"Feature","geometry":{"type":"Point","coordinates":[-105.45667,43.50958]},"properties":{"api":"4900551659","name":"P LITTON FED 23-24-4172CA","op":"ANADARKO E&P ONSHORE LLC","co":"Campbell","st":"WY","trs":"T41N R72W S24","fm":null,"eur":null,"perft":null,"sound":false,"fit":"none","geur":3814,"gfit":"sound"}},{"type":"Feature","geometry":{"type":"Point","coordinates":[-105.45205,43.51357]},"properties":{"api":"4900551661","name":"P LITTON FED 32-24-4172CA","op":"ANADARKO E&P ONSHORE LLC","co":"Campbell","st":"WY","trs":"T41N R72W S24","fm":null,"eur":null,"perft":null,"sound":false,"fit":"none","geur":null,"gfit":"refused"}},{"type":"Feature","geometry":{"type":"Point","coordinates":[-105.50587,43.53138]},"properties":{"api":"4900534621","name":"GLASGOW STATE 1-16 LW","op":"CONTINENTAL PRODUCTION CO LLC","co":"Campbell","st":"WY","trs":"T41N R72W S16","fm":null,"eur":null,"perft":null,"sound":false,"fit":"none","geur":null,"gfit":"none"}},{"type":"Feature","geometry":{"type":"Point","coordinates":[-105.52056,43.55722]},"properties":{"api":"4900549750","name":"RENO 4-12","op":"USA EXPLORATION & PRODUCTION LLC","co":"Campbell","st":"WY","trs":"T41N R72W S4","fm":null,"eur":null,"perft":null,"sound":false,"fit":"none","geur":null,"gfit":"refused"}},{"type":"Feature","geometry":{"type":"Point","coordinates":[-105.515,43.56056]},"properties":{"api":"4900549752","name":"RENO 4-21","op":"USA EXPLORATION & PRODUCTION LLC","co":"Campbell","st":"WY","trs":"T41N R72W S4","fm":null,"eur":null,"perft":null,"sound":false,"fit":"none","geur":null,"gfit":"refused"}},{"type":"Feature","geometry":{"type":"Point","coordinates":[-105.50556,43.53173]},"properties":{"api":"4900550471","name":"GLASGOW STATE 1-16 UW","op":"CONTINENTAL PRODUCTION CO LLC","co":"Campbell","st":"WY","trs":"T41N R72W S16","fm":null,"eur":null,"perft":null,"sound":false,"fit":"none","geur":null,"gfit":"refused"}},{"type":"Feature","geometry":{"type":"Point","coordinates":[-105.52083,43.52771]},"properties":{"api":"4900550472","name":"GLASGOW STATE 5-16 LW","op":"CONTINENTAL PRODUCTION CO LLC","co":"Campbell","st":"WY","trs":"T41N R72W S16","fm":null,"eur":null,"perft":null,"sound":false,"fit":"none","geur":null,"gfit":"none"}},{"type":"Feature","geometry":{"type":"Point","coordinates":[-105.5161,43.5313]},"properties":{"api":"4900550473","name":"GLASGOW STATE 3-16 UW","op":"CONTINENTAL PRODUCTION CO LLC","co":"Campbell","st":"WY","trs":"T41N R72W S16","fm":null,"eur":null,"perft":null,"sound":false,"fit":"none","geur":null,"gfit":"none"}},{"type":"Feature","geometry":{"type":"Point","coordinates":[-105.52097,43.52778]},"properties":{"api":"4900550484","name":"GLASGOW STATE 5-16 UW","op":"CONTINENTAL PRODUCTION CO LLC","co":"Campbell","st":"WY","trs":"T41N R72W S16","fm":null,"eur":null,"perft":null,"sound":false,"fit":"none","geur":null,"gfit":"refused"}},{"type":"Feature","geometry":{"type":"Point","coordinates":[-105.51072,43.52808]},"properties":{"api":"4900550485","name":"GLASGOW STATE 7-16 LW","op":"CONTINENTAL PRODUCTION CO LLC","co":"Campbell","st":"WY","trs":"T41N R72W S16","fm":null,"eur":null,"perft":null,"sound":false,"fit":"none","geur":null,"gfit":"none"}},{"type":"Feature","geometry":{"type":"Point","coordinates":[-105.51081,43.52796]},"properties":{"api":"4900550486","name":"GLASGOW STATE 7-16 UW","op":"CONTINENTAL PRODUCTION CO LLC","co":"Campbell","st":"WY","trs":"T41N R72W S16","fm":null,"eur":null,"perft":null,"sound":false,"fit":"none","geur":null,"gfit":"refused"}},{"type":"Feature","geometry":{"type":"Point","coordinates":[-105.51043,43.52071]},"properties":{"api":"4900550487","name":"GLASGOW STATE 15-16 UW","op":"CONTINENTAL PRODUCTION CO LLC","co":"Campbell","st":"WY","trs":"T41N R72W S16","fm":null,"eur":null,"perft":null,"sound":false,"fit":"none","geur":null,"gfit":"refused"}},{"type":"Feature","geometry":{"type":"Point","coordinates":[-105.50522,43.52438]},"properties":{"api":"4900550488","name":"GLASGOW STATE 9-16 UW","op":"CONTINENTAL PRODUCTION CO LLC","co":"Campbell","st":"WY","trs":"T41N R72W S16","fm":null,"eur":null,"perft":null,"sound":false,"fit":"none","geur":null,"gfit":"refused"}},{"type":"Feature","geometry":{"type":"Point","coordinates":[-105.51568,43.52419]},"properties":{"api":"4900550489","name":"GLASGOW STATE 11-16 UW","op":"CONTINENTAL PRODUCTION CO LLC","co":"Campbell","st":"WY","trs":"T41N R72W S16","fm":null,"eur":null,"perft":null,"sound":false,"fit":"none","geur":null,"gfit":"refused"}},{"type":"Feature","geometry":{"type":"Point","coordinates":[-105.5205,43.5206]},"properties":{"api":"4900550490","name":"GLASGOW STATE 13-16 UW","op":"CONTINENTAL PRODUCTION CO LLC","co":"Campbell","st":"WY","trs":"T41N R72W S16","fm":null,"eur":null,"perft":null,"sound":false,"fit":"none","geur":null,"gfit":"none"}},{"type":"Feature","geometry":{"type":"Point","coordinates":[-105.50515,43.52446]},"properties":{"api":"4900550491","name":"GLASGOW STATE 9-16 LW","op":"CONTINENTAL PRODUCTION CO LLC","co":"Campbell","st":"WY","trs":"T41N R72W S16","fm":null,"eur":null,"perft":null,"sound":false,"fit":"none","geur":null,"gfit":"refused"}},{"type":"Feature","geometry":{"type":"Point","coordinates":[-105.51556,43.52411]},"properties":{"api":"4900550492","name":"GLASGOW STATE 11-16 LW","op":"CONTINENTAL PRODUCTION CO LLC","co":"Campbell","st":"WY","trs":"T41N R72W S16","fm":null,"eur":null,"perft":null,"sound":false,"fit":"none","geur":null,"gfit":"none"}},{"type":"Feature","geometry":{"type":"Point","coordinates":[-105.52066,43.52061]},"properties":{"api":"4900550493","name":"GLASGOW STATE 13-16 LW","op":"CONTINENTAL PRODUCTION CO LLC","co":"Campbell","st":"WY","trs":"T41N R72W S16","fm":null,"eur":null,"perft":null,"sound":false,"fit":"none","geur":null,"gfit":"none"}},{"type":"Feature","geometry":{"type":"Point","coordinates":[-105.51049,43.5206]},"properties":{"api":"4900550494","name":"GLASGOW STATE 15-16 LW","op":"CONTINENTAL PRODUCTION CO LLC","co":"Campbell","st":"WY","trs":"T41N R72W S16","fm":null,"eur":null,"perft":null,"sound":false,"fit":"none","geur":null,"gfit":"none"}},{"type":"Feature","geometry":{"type":"Point","coordinates":[-105.51602,43.53141]},"properties":{"api":"4900550495","name":"GLASGOW STATE 3-16 LW","op":"CONTINENTAL PRODUCTION CO LLC","co":"Campbell","st":"WY","trs":"T41N R72W S16","fm":null,"eur":null,"perft":null,"sound":false,"fit":"none","geur":null,"gfit":"none"}},{"type":"Feature","geometry":{"type":"Point","coordinates":[-105.44625,43.51017]},"properties":{"api":"4900551662","name":"P LITTON FED 43-24-4172CA","op":"LANCE OIL & GAS COMPANY INC","co":"Campbell","st":"WY","trs":"T41N R72W S24","fm":null,"eur":null,"perft":null,"sound":false,"fit":"none","geur":null,"gfit":"refused"}},{"type":"Feature","geometry":{"type":"Point","coordinates":[-105.44587,43.53205]},"properties":{"api":"4900554562","name":"P LITTON FED 41-13-4172CA","op":"LANCE OIL & GAS COMPANY INC","co":"Campbell","st":"WY","trs":"T41N R72W S13","fm":null,"eur":null,"perft":null,"sound":false,"fit":"none","geur":13036,"gfit":"sound"}},{"type":"Feature","geometry":{"type":"Point","coordinates":[-105.44603,43.52475]},"properties":{"api":"4900554563","name":"P LITTON FED 43-13-4172CA","op":"LANCE OIL & GAS COMPANY INC","co":"Campbell","st":"WY","trs":"T41N R72W S13","fm":null,"eur":null,"perft":null,"sound":false,"fit":"none","geur":28631,"gfit":"sound"}},{"type":"Feature","geometry":{"type":"Point","coordinates":[-105.44977,43.52136]},"properties":{"api":"4900554581","name":"P LITTON FED 34-13-4172CA","op":"LANCE OIL & GAS COMPANY INC","co":"Campbell","st":"WY","trs":"T41N R72W S13","fm":null,"eur":null,"perft":null,"sound":false,"fit":"none","geur":23731,"gfit":"sound"}},{"type":"Feature","geometry":{"type":"Point","coordinates":[-105.45083,43.52885]},"properties":{"api":"4900554582","name":"P LITTON FED 32-13-4172CA","op":"LANCE OIL & GAS COMPANY INC","co":"Campbell","st":"WY","trs":"T41N R72W S13","fm":null,"eur":null,"perft":null,"sound":false,"fit":"none","geur":18812,"gfit":"sound"}},{"type":"Feature","geometry":{"type":"Point","coordinates":[-105.44512,43.56153]},"properties":{"api":"4900554246","name":"BOLT WATER SOURCE  WELL 1","op":"EOG RESOURCES INC","co":"Campbell","st":"WY","trs":"T41N R72W S1","fm":null,"eur":null,"perft":null,"sound":false,"fit":"none","geur":null,"gfit":"refused"}},{"type":"Feature","geometry":{"type":"Point","coordinates":[-105.47675,43.51667]},"properties":{"api":"4900554541","name":"SIOUX RANCH FED 21-23-4172CA","op":"LANCE OIL & GAS COMPANY INC","co":"Campbell","st":"WY","trs":"T41N R72W S23","fm":null,"eur":null,"perft":null,"sound":false,"fit":"none","geur":null,"gfit":"refused"}},{"type":"Feature","geometry":{"type":"Point","coordinates":[-105.48173,43.5141]},"properties":{"api":"4900554542","name":"SIOUX RANCH FED 12-23-4172CA","op":"LANCE OIL & GAS COMPANY INC","co":"Campbell","st":"WY","trs":"T41N R72W S23","fm":null,"eur":null,"perft":null,"sound":false,"fit":"none","geur":8876,"gfit":"sound"}},{"type":"Feature","geometry":{"type":"Point","coordinates":[-105.48598,43.5099]},"properties":{"api":"4900554543","name":"P LITTON FED 43-22-4172CA","op":"LANCE OIL & GAS COMPANY INC","co":"Campbell","st":"WY","trs":"T41N R72W S22","fm":null,"eur":null,"perft":null,"sound":false,"fit":"none","geur":null,"gfit":"refused"}},{"type":"Feature","geometry":{"type":"Point","coordinates":[-105.48589,43.51721]},"properties":{"api":"4900554544","name":"P LITTON FED 41-22-4172CA","op":"LANCE OIL & GAS COMPANY INC","co":"Campbell","st":"WY","trs":"T41N R72W S22","fm":null,"eur":null,"perft":null,"sound":false,"fit":"none","geur":null,"gfit":"refused"}},{"type":"Feature","geometry":{"type":"Point","coordinates":[-105.49094,43.50624]},"properties":{"api":"4900554545","name":"P LITTON FED 34-22-4172CA","op":"LANCE OIL & GAS COMPANY INC","co":"Campbell","st":"WY","trs":"T41N R72W S22","fm":null,"eur":null,"perft":null,"sound":false,"fit":"none","geur":null,"gfit":"refused"}},{"type":"Feature","geometry":{"type":"Point","coordinates":[-105.49074,43.51351]},"properties":{"api":"4900554546","name":"P LITTON FED 32-22-4172WA","op":"LANCE OIL & GAS COMPANY INC","co":"Campbell","st":"WY","trs":"T41N R72W S22","fm":null,"eur":null,"perft":null,"sound":false,"fit":"none","geur":null,"gfit":"refused"}},{"type":"Feature","geometry":{"type":"Point","coordinates":[-105.4957,43.50985]},"properties":{"api":"4900554547","name":"SIOUX RANCH FED 23-22-4172CA","op":"LANCE OIL & GAS COMPANY INC","co":"Campbell","st":"WY","trs":"T41N R72W S22","fm":null,"eur":null,"perft":null,"sound":false,"fit":"none","geur":null,"gfit":"refused"}},{"type":"Feature","geometry":{"type":"Point","coordinates":[-105.47097,43.52083]},"properties":{"api":"4900554548","name":"P LITTON FED 34-14-4172CA","op":"LANCE OIL & GAS COMPANY INC","co":"Campbell","st":"WY","trs":"T41N R72W S14","fm":null,"eur":null,"perft":null,"sound":false,"fit":"none","geur":54192,"gfit":"sound"}},{"type":"Feature","geometry":{"type":"Point","coordinates":[-105.47087,43.52811]},"properties":{"api":"4900554549","name":"P LITTON FED 32-14-4172CA","op":"LANCE OIL & GAS COMPANY INC","co":"Campbell","st":"WY","trs":"T41N R72W S14","fm":null,"eur":null,"perft":null,"sound":false,"fit":"none","geur":null,"gfit":"refused"}},{"type":"Feature","geometry":{"type":"Point","coordinates":[-105.47581,43.53177]},"properties":{"api":"4900554550","name":"SIOUX RANCH FED 21-14-4172CA","op":"LANCE OIL & GAS COMPANY INC","co":"Campbell","st":"WY","trs":"T41N R72W S14","fm":null,"eur":null,"perft":null,"sound":false,"fit":"none","geur":559,"gfit":"sound"}},{"type":"Feature","geometry":{"type":"Point","coordinates":[-105.5,43.53499]},"properties":{"api":"4900554561","name":"SIOUX RANCH FED 14-10-4172CA","op":"LANCE OIL & GAS COMPANY INC","co":"Campbell","st":"WY","trs":"T41N R72W S10","fm":null,"eur":null,"perft":null,"sound":false,"fit":"none","geur":null,"gfit":"refused"}},{"type":"Feature","geometry":{"type":"Point","coordinates":[-105.48086,43.52815]},"properties":{"api":"4900554564","name":"SIOUX RANCH FED 12-14-4172CA","op":"LANCE OIL & GAS COMPANY INC","co":"Campbell","st":"WY","trs":"T41N R72W S14","fm":null,"eur":null,"perft":null,"sound":false,"fit":"none","geur":null,"gfit":"refused"}},{"type":"Feature","geometry":{"type":"Point","coordinates":[-105.47557,43.53917]},"properties":{"api":"4900554583","name":"SIOUX RANCH FED 23-11-4172CA","op":"LANCE OIL & GAS COMPANY INC","co":"Campbell","st":"WY","trs":"T41N R72W S11","fm":null,"eur":null,"perft":null,"sound":false,"fit":"none","geur":null,"gfit":"refused"}},{"type":"Feature","geometry":{"type":"Point","coordinates":[-105.4763,43.54594]},"properties":{"api":"4900554584","name":"SIOUX RANCH FED 21-11-4172CA","op":"LANCE OIL & GAS COMPANY INC","co":"Campbell","st":"WY","trs":"T41N R72W S11","fm":null,"eur":null,"perft":null,"sound":false,"fit":"none","geur":null,"gfit":"refused"}},{"type":"Feature","geometry":{"type":"Point","coordinates":[-105.48076,43.53543]},"properties":{"api":"4900554585","name":"SIOUX RANCH FED 14-11-4172CA","op":"LANCE OIL & GAS COMPANY INC","co":"Campbell","st":"WY","trs":"T41N R72W S11","fm":null,"eur":null,"perft":null,"sound":false,"fit":"none","geur":null,"gfit":"refused"}},{"type":"Feature","geometry":{"type":"Point","coordinates":[-105.48073,43.54272]},"properties":{"api":"4900554586","name":"SIOUX RANCH FED 12-11-4172CA","op":"LANCE OIL & GAS COMPANY INC","co":"Campbell","st":"WY","trs":"T41N R72W S11","fm":null,"eur":null,"perft":null,"sound":false,"fit":"none","geur":null,"gfit":"refused"}},{"type":"Feature","geometry":{"type":"Point","coordinates":[-105.48574,43.5391]},"properties":{"api":"4900554587","name":"SIOUX RANCH FED 43-10-4172CA","op":"LANCE OIL & GAS COMPANY INC","co":"Campbell","st":"WY","trs":"T41N R72W S10","fm":null,"eur":null,"perft":null,"sound":false,"fit":"none","geur":null,"gfit":"refused"}},{"type":"Feature","geometry":{"type":"Point","coordinates":[-105.48572,43.54638]},"properties":{"api":"4900554588","name":"SIOUX RANCH FED 41-10-4172CA","op":"LANCE OIL & GAS COMPANY INC","co":"Campbell","st":"WY","trs":"T41N R72W S10","fm":null,"eur":null,"perft":null,"sound":false,"fit":"none","geur":45919,"gfit":"sound"}},{"type":"Feature","geometry":{"type":"Point","coordinates":[-105.49072,43.54276]},"properties":{"api":"4900554589","name":"SIOUX RANCH FED 32-10-4172CA","op":"LANCE OIL & GAS COMPANY INC","co":"Campbell","st":"WY","trs":"T41N R72W S10","fm":null,"eur":null,"perft":null,"sound":false,"fit":"none","geur":66486,"gfit":"sound"}},{"type":"Feature","geometry":{"type":"Point","coordinates":[-105.49571,43.54643]},"properties":{"api":"4900554590","name":"SIOUX RANCH FED 21-10-4172CA","op":"LANCE OIL & GAS COMPANY INC","co":"Campbell","st":"WY","trs":"T41N R72W S10","fm":null,"eur":null,"perft":null,"sound":false,"fit":"none","geur":null,"gfit":"refused"}},{"type":"Feature","geometry":{"type":"Point","coordinates":[-105.44514,43.55379]},"properties":{"api":"4900536266","name":"LITTON FED 43-1-4172","op":"LANCE OIL & GAS COMPANY INC","co":"Campbell","st":"WY","trs":"T41N R72W S1","fm":null,"eur":null,"perft":null,"sound":false,"fit":"none","geur":217399,"gfit":"sound"}},{"type":"Feature","geometry":{"type":"Point","coordinates":[-105.44521,43.54656]},"properties":{"api":"4900536284","name":"LITTON FED 41-12-4172","op":"LANCE OIL & GAS COMPANY INC","co":"Campbell","st":"WY","trs":"T41N R72W S12","fm":null,"eur":null,"perft":null,"sound":false,"fit":"none","geur":131502,"gfit":"sound"}},{"type":"Feature","geometry":{"type":"Point","coordinates":[-105.45033,43.5429]},"properties":{"api":"4900536285","name":"LITTON FED 32-12-4172","op":"LANCE OIL & GAS COMPANY INC","co":"Campbell","st":"WY","trs":"T41N R72W S12","fm":null,"eur":null,"perft":null,"sound":false,"fit":"none","geur":164091,"gfit":"sound"}},{"type":"Feature","geometry":{"type":"Point","coordinates":[-105.45979,43.54292]},"properties":{"api":"4900546210","name":"SIOUX RANCH 12-12","op":"COLEMAN OIL & GAS INC","co":"Campbell","st":"WY","trs":"T41N R72W S12","fm":null,"eur":null,"perft":null,"sound":false,"fit":"none","geur":null,"gfit":"refused"}},{"type":"Feature","geometry":{"type":"Point","coordinates":[-105.45983,43.53509]},"properties":{"api":"4900546215","name":"SIOUX RANCH 14-12","op":"COLEMAN OIL & GAS INC","co":"Campbell","st":"WY","trs":"T41N R72W S12","fm":null,"eur":null,"perft":null,"sound":false,"fit":"none","geur":null,"gfit":"refused"}},{"type":"Feature","geometry":{"type":"Point","coordinates":[-105.52098,43.53466]},"properties":{"api":"4900551739","name":"JAROSH 14-9","op":"COLEMAN OIL & GAS INC","co":"Campbell","st":"WY","trs":"T41N R72W S9","fm":null,"eur":null,"perft":null,"sound":false,"fit":"none","geur":null,"gfit":"none"}},{"type":"Feature","geometry":{"type":"Point","coordinates":[-105.45209,43.50668]},"properties":{"api":"4900553441","name":"ISENBERGER 34-24","op":"COLEMAN OIL & GAS INC","co":"Campbell","st":"WY","trs":"T41N R72W S24","fm":null,"eur":null,"perft":null,"sound":false,"fit":"none","geur":null,"gfit":"refused"}},{"type":"Feature","geometry":{"type":"Point","coordinates":[-105.51084,43.5131]},"properties":{"api":"4900555078","name":"SIOUX RANCH FED 32-21","op":"COLEMAN OIL & GAS INC","co":"Campbell","st":"WY","trs":"T41N R72W S21","fm":null,"eur":null,"perft":null,"sound":false,"fit":"none","geur":null,"gfit":"refused"}},{"type":"Feature","geometry":{"type":"Point","coordinates":[-105.51083,43.50643]},"properties":{"api":"4900555079","name":"SIOUX RANCH FED 34-21","op":"COLEMAN OIL & GAS INC","co":"Campbell","st":"WY","trs":"T41N R72W S21","fm":null,"eur":null,"perft":null,"sound":false,"fit":"none","geur":null,"gfit":"refused"}},{"type":"Feature","geometry":{"type":"Point","coordinates":[-105.5058,43.50957]},"properties":{"api":"4900555080","name":"SIOUX RANCH FED 43-21","op":"COLEMAN OIL & GAS INC","co":"Campbell","st":"WY","trs":"T41N R72W S21","fm":null,"eur":null,"perft":null,"sound":false,"fit":"none","geur":null,"gfit":"refused"}},{"type":"Feature","geometry":{"type":"Point","coordinates":[-105.50037,43.51328]},"properties":{"api":"4900555081","name":"SIOUX RANCH FED 12-22","op":"COLEMAN OIL & GAS INC","co":"Campbell","st":"WY","trs":"T41N R72W S22","fm":null,"eur":null,"perft":null,"sound":false,"fit":"none","geur":1349,"gfit":"sound"}},{"type":"Feature","geometry":{"type":"Point","coordinates":[-105.50081,43.50646]},"properties":{"api":"4900555082","name":"SIOUX RANCH FED 14-22","op":"COLEMAN OIL & GAS INC","co":"Campbell","st":"WY","trs":"T41N R72W S22","fm":null,"eur":null,"perft":null,"sound":false,"fit":"none","geur":null,"gfit":"refused"}},{"type":"Feature","geometry":{"type":"Point","coordinates":[-105.50106,43.49895]},"properties":{"api":"4900555083","name":"SIOUX RANCH FED 12-27","op":"COLEMAN OIL & GAS INC","co":"Campbell","st":"WY","trs":"T41N R72W S27","fm":null,"eur":null,"perft":null,"sound":false,"fit":"none","geur":null,"gfit":"none"}},{"type":"Feature","geometry":{"type":"Point","coordinates":[-105.49561,43.50259]},"properties":{"api":"4900555085","name":"SIOUX RANCH FED 21-27","op":"COLEMAN OIL & GAS INC","co":"Campbell","st":"WY","trs":"T41N R72W S27","fm":null,"eur":null,"perft":null,"sound":false,"fit":"none","geur":null,"gfit":"refused"}},{"type":"Feature","geometry":{"type":"Point","coordinates":[-105.49137,43.49895]},"properties":{"api":"4900555087","name":"SIOUX RANCH FED 32-27","op":"COLEMAN OIL & GAS INC","co":"Campbell","st":"WY","trs":"T41N R72W S27","fm":null,"eur":null,"perft":null,"sound":false,"fit":"none","geur":null,"gfit":"refused"}},{"type":"Feature","geometry":{"type":"Point","coordinates":[-105.48617,43.50267]},"properties":{"api":"4900555089","name":"RENO FLATS FED 41-27","op":"COLEMAN OIL & GAS INC","co":"Campbell","st":"WY","trs":"T41N R72W S27","fm":null,"eur":null,"perft":null,"sound":false,"fit":"none","geur":null,"gfit":"none"}},{"type":"Feature","geometry":{"type":"Point","coordinates":[-105.54636,43.5604]},"properties":{"api":"4900558766","name":"RENO FED 41-6","op":"COLEMAN OIL & GAS INC","co":"Campbell","st":"WY","trs":"T41N R72W S6","fm":null,"eur":null,"perft":null,"sound":false,"fit":"none","geur":null,"gfit":"none"}},{"type":"Feature","geometry":{"type":"Point","coordinates":[-105.55675,43.51645]},"properties":{"api":"4900558817","name":"TURTLE MOUNTAIN 21-19","op":"COLEMAN OIL & GAS INC","co":"Campbell","st":"WY","trs":"T41N R72W S19","fm":null,"eur":null,"perft":null,"sound":false,"fit":"none","geur":null,"gfit":"none"}},{"type":"Feature","geometry":{"type":"Point","coordinates":[-105.54104,43.5351]},"properties":{"api":"4900558824","name":"TURTLE MOUNTAIN 14-8","op":"COLEMAN OIL & GAS INC","co":"Campbell","st":"WY","trs":"T41N R72W S8","fm":null,"eur":null,"perft":null,"sound":false,"fit":"none","geur":null,"gfit":"none"}},{"type":"Feature","geometry":{"type":"Point","coordinates":[-105.52522,43.52043]},"properties":{"api":"4900529000","name":"TENNECO FED 1-17","op":"COOK D L","co":"Campbell","st":"WY","trs":"T41N R72W S17","fm":null,"eur":null,"perft":null,"sound":false,"fit":"none","geur":null,"gfit":"none"}},{"type":"Feature","geometry":{"type":"Point","coordinates":[-105.48056,43.50256]},"properties":{"api":"4900527205","name":"KANES ISENBERGER  1","op":"MAXIM DRILLING & EXPL INC","co":"Campbell","st":"WY","trs":"T41N R72W S26","fm":null,"eur":null,"perft":null,"sound":false,"fit":"refused","geur":299905,"gfit":"sound"}},{"type":"Feature","geometry":{"type":"Point","coordinates":[-105.5486,43.49]},"properties":{"api":"4900929015","name":"ARBALEST 422-30H","op":"EOG RESOURCES INC","co":"Converse","st":"WY","trs":"T41N R72W S30","fm":"PARKMAN","eur":null,"perft":null,"sound":false,"fit":"refused","geur":null,"gfit":"refused"}},{"type":"Feature","geometry":{"type":"Point","coordinates":[-105.5202,43.4882]},"properties":{"api":"4900929030","name":"ARBALEST 441-3321H","op":"EOG RESOURCES INC","co":"Converse","st":"WY","trs":"T41N R72W S33","fm":"FRONTIER/TURNER","eur":362036,"perft":null,"sound":true,"fit":"sound","geur":6261663,"gfit":"sound"}},{"type":"Feature","geometry":{"type":"Point","coordinates":[-105.5203,43.4883]},"properties":{"api":"4900929031","name":"ARBALEST 85-3321H","op":"EOG RESOURCES INC","co":"Converse","st":"WY","trs":"T41N R72W S33","fm":"PARKMAN","eur":421282,"perft":null,"sound":true,"fit":"sound","geur":null,"gfit":"refused"}},{"type":"Feature","geometry":{"type":"Point","coordinates":[-105.5206,43.4884]},"properties":{"api":"4900929032","name":"ARBALEST 277-3304H","op":"EOG RESOURCES INC","co":"Converse","st":"WY","trs":"T41N R72W S33","fm":"FRONTIER/TURNER","eur":105882,"perft":null,"sound":true,"fit":"sound","geur":2129435,"gfit":"sound"}},{"type":"Feature","geometry":{"type":"Point","coordinates":[-105.5207,43.4885]},"properties":{"api":"4900929033","name":"ARBALEST 436-3304H","op":"EOG RESOURCES INC","co":"Converse","st":"WY","trs":"T41N R72W S33","fm":"PARKMAN","eur":null,"perft":null,"sound":false,"fit":"refused","geur":null,"gfit":"refused"}},{"type":"Feature","geometry":{"type":"Point","coordinates":[-105.549,43.49]},"properties":{"api":"4900929057","name":"ARBALEST 68-3006H","op":"EOG RESOURCES INC","co":"Converse","st":"WY","trs":"T41N R72W S30","fm":"FRONTIER","eur":null,"perft":null,"sound":false,"fit":"refused","geur":308961,"gfit":"sound"}},{"type":"Feature","geometry":{"type":"Point","coordinates":[-105.5204,43.4883]},"properties":{"api":"4900929069","name":"ARBALEST 440-3321H","op":"EOG RESOURCES INC","co":"Converse","st":"WY","trs":"T41N R72W S33","fm":"FRONTIER/TURNER","eur":355532,"perft":null,"sound":true,"fit":"sound","geur":5387666,"gfit":"sound"}},{"type":"Feature","geometry":{"type":"Point","coordinates":[-105.5094,43.4884]},"properties":{"api":"4900929072","name":"ARBALEST 438-3321H","op":"EOG RESOURCES INC","co":"Converse","st":"WY","trs":"T41N R72W S33","fm":"PARKMAN","eur":229650,"perft":null,"sound":true,"fit":"sound","geur":null,"gfit":"refused"}},{"type":"Feature","geometry":{"type":"Point","coordinates":[-105.5484,43.49]},"properties":{"api":"4900929081","name":"ARBALEST 80-3019H","op":"EOG RESOURCES INC","co":"Converse","st":"WY","trs":"T41N R72W S30","fm":"FRONTIER","eur":306355,"perft":null,"sound":true,"fit":"sound","geur":5385884,"gfit":"sound"}},{"type":"Feature","geometry":{"type":"Point","coordinates":[-105.5486,43.49]},"properties":{"api":"4900929083","name":"ARBALEST 424-30H","op":"EOG RESOURCES INC","co":"Converse","st":"WY","trs":"T41N R72W S30","fm":"PARKMAN","eur":136408,"perft":12403,"sound":true,"fit":"sound","geur":285069,"gfit":"sound"}},{"type":"Feature","geometry":{"type":"Point","coordinates":[-105.5483,43.49]},"properties":{"api":"4900929084","name":"ARBALEST 81-3006H","op":"EOG RESOURCES INC","co":"Converse","st":"WY","trs":"T41N R72W S30","fm":"FRONTIER","eur":173039,"perft":null,"sound":true,"fit":"sound","geur":null,"gfit":"refused"}},{"type":"Feature","geometry":{"type":"Point","coordinates":[-105.4778,43.489]},"properties":{"api":"4900929088","name":"ARBALEST 60-3502H","op":"EOG RESOURCES INC","co":"Converse","st":"WY","trs":"T41N R72W S35","fm":"PARKMAN","eur":271339,"perft":33058,"sound":true,"fit":"sound","geur":null,"gfit":"refused"}},{"type":"Feature","geometry":{"type":"Point","coordinates":[-105.5204,43.4884]},"properties":{"api":"4900929103","name":"ARBALEST 245-3304H","op":"EOG RESOURCES INC","co":"Converse","st":"WY","trs":"T41N R72W S33","fm":"PARKMAN","eur":278096,"perft":null,"sound":true,"fit":"sound","geur":null,"gfit":"refused"}},{"type":"Feature","geometry":{"type":"Point","coordinates":[-105.5206,43.4885]},"properties":{"api":"4900929173","name":"ARBALEST 439-3304H","op":"EOG RESOURCES INC","co":"Converse","st":"WY","trs":"T41N R72W S33","fm":"FRONTIER/TURNER","eur":165108,"perft":null,"sound":true,"fit":"sound","geur":2526931,"gfit":"sound"}},{"type":"Feature","geometry":{"type":"Point","coordinates":[-105.4696,43.489]},"properties":{"api":"4900929242","name":"ARBALEST 61-3502H","op":"EOG RESOURCES INC","co":"Converse","st":"WY","trs":"T41N R72W S35","fm":"PARKMAN","eur":null,"perft":null,"sound":false,"fit":"refused","geur":126234,"gfit":"sound"}},{"type":"Feature","geometry":{"type":"Point","coordinates":[-105.4491,43.4887]},"properties":{"api":"4900929255","name":"ARBALEST 62-3601H","op":"EOG RESOURCES INC","co":"Converse","st":"WY","trs":"T41N R72W S36","fm":"FRONTIER","eur":231917,"perft":null,"sound":true,"fit":"sound","geur":null,"gfit":"refused"}},{"type":"Feature","geometry":{"type":"Point","coordinates":[-105.5093,43.4886]},"properties":{"api":"4900929260","name":"ARBALEST 413-3304H","op":"EOG RESOURCES INC","co":"Converse","st":"WY","trs":"T41N R72W S33","fm":"FRONTIER/TURNER","eur":null,"perft":null,"sound":false,"fit":"refused","geur":null,"gfit":"refused"}},{"type":"Feature","geometry":{"type":"Point","coordinates":[-105.5092,43.4888]},"properties":{"api":"4900929261","name":"ARBALEST 244-3321H","op":"EOG RESOURCES INC","co":"Converse","st":"WY","trs":"T41N R72W S33","fm":"FRONTIER/TURNER","eur":385429,"perft":null,"sound":true,"fit":"sound","geur":null,"gfit":"refused"}},{"type":"Feature","geometry":{"type":"Point","coordinates":[-105.5205,43.4884]},"properties":{"api":"4900929464","name":"ARBALEST 54-33H","op":"EOG RESOURCES INC","co":"Converse","st":"WY","trs":"T41N R72W S33","fm":"PARKMAN","eur":87799,"perft":null,"sound":true,"fit":"sound","geur":null,"gfit":"refused"}},{"type":"Feature","geometry":{"type":"Point","coordinates":[-105.4492,43.4887]},"properties":{"api":"4900929579","name":"ARBALEST 463-3601H","op":"EOG RESOURCES INC","co":"Converse","st":"WY","trs":"T41N R72W S36","fm":"FRONTIER","eur":null,"perft":null,"sound":false,"fit":"refused","geur":null,"gfit":"refused"}},{"type":"Feature","geometry":{"type":"Point","coordinates":[-105.4796,43.4887]},"properties":{"api":"4900941661","name":"ARBALEST 479-3502H","op":"EOG RESOURCES INC","co":"Converse","st":"WY","trs":"T41N R72W S35","fm":"FRONTIER/TURNER","eur":300316,"perft":null,"sound":true,"fit":"sound","geur":4387062,"gfit":"sound"}},{"type":"Feature","geometry":{"type":"Point","coordinates":[-105.4798,43.4887]},"properties":{"api":"4900941670","name":"ARBALEST 478-3502H","op":"EOG RESOURCES INC","co":"Converse","st":"WY","trs":"T41N R72W S35","fm":"PARKMAN","eur":340335,"perft":null,"sound":true,"fit":"sound","geur":null,"gfit":"refused"}},{"type":"Feature","geometry":{"type":"Point","coordinates":[-105.4761,43.489]},"properties":{"api":"4900941672","name":"WILLOW 2614-22H","op":"EOG RESOURCES INC","co":"Converse","st":"WY","trs":"T41N R72W S35","fm":"PARKMAN","eur":626072,"perft":40890,"sound":true,"fit":"sound","geur":null,"gfit":"refused"}},{"type":"Feature","geometry":{"type":"Point","coordinates":[-105.4763,43.489]},"properties":{"api":"4900941674","name":"WILLOW 2614-21H","op":"EOG RESOURCES INC","co":"Converse","st":"WY","trs":"T41N R72W S35","fm":"PARKMAN","eur":648811,"perft":42786,"sound":true,"fit":"sound","geur":null,"gfit":"refused"}},{"type":"Feature","geometry":{"type":"Point","coordinates":[-105.4794,43.4887]},"properties":{"api":"4900941676","name":"ARBALEST 480-3502H","op":"EOG RESOURCES INC","co":"Converse","st":"WY","trs":"T41N R72W S35","fm":"FRONTIER/TURNER","eur":407524,"perft":null,"sound":true,"fit":"sound","geur":null,"gfit":"refused"}},{"type":"Feature","geometry":{"type":"Point","coordinates":[-105.53654,43.49495]},"properties":{"api":"4900922656","name":"D L COOK W-64787 1-29","op":"OILFIELD SALVAGE & SERVICE COMPANY","co":"Converse","st":"WY","trs":"T41N R72W S29","fm":null,"eur":null,"perft":null,"sound":false,"fit":"refused","geur":null,"gfit":"refused"}},{"type":"Feature","geometry":{"type":"Point","coordinates":[-105.45761,43.48889]},"properties":{"api":"4900928413","name":"ARBALEST 59-3601H","op":"EOG RESOURCES INC","co":"Converse","st":"WY","trs":"T41N R72W S36","fm":null,"eur":495620,"perft":65110,"sound":true,"fit":"sound","geur":3146239,"gfit":"sound"}},{"type":"Feature","geometry":{"type":"Point","coordinates":[-105.50917,43.48887]},"properties":{"api":"4900928430","name":"ARBALEST 53-33H","op":"EOG RESOURCES INC","co":"Converse","st":"WY","trs":"T41N R72W S33","fm":"PARKMAN","eur":268978,"perft":75407,"sound":true,"fit":"sound","geur":null,"gfit":"refused"}},{"type":"Feature","geometry":{"type":"Point","coordinates":[-105.45117,43.48386]},"properties":{"api":"4900922007","name":"CONCAMP 71-12355 1","op":"EOG RESOURCES INC","co":"Converse","st":"WY","trs":"T41N R72W S36","fm":null,"eur":55658,"perft":null,"sound":true,"fit":"sound","geur":1639803,"gfit":"sound"}},{"type":"Feature","geometry":{"type":"Point","coordinates":[-105.46148,43.47707]},"properties":{"api":"4900922221","name":"CONCAMP 71-12355 2","op":"EOG RESOURCES INC","co":"Converse","st":"WY","trs":"T41N R72W S36","fm":null,"eur":null,"perft":null,"sound":false,"fit":"refused","geur":null,"gfit":"refused"}},{"type":"Feature","geometry":{"type":"Point","coordinates":[-105.46122,43.49159]},"properties":{"api":"4900928052","name":"DOOLITTLE CS FEDERAL 2","op":"EOG Y RESOURCES INC","co":"Converse","st":"WY","trs":"T41N R72W S25","fm":null,"eur":null,"perft":null,"sound":false,"fit":"none","geur":null,"gfit":"refused"}},{"type":"Feature","geometry":{"type":"Point","coordinates":[-105.45625,43.49526]},"properties":{"api":"4900928053","name":"DOOLITTLE CS FEDERAL 1","op":"EOG Y RESOURCES INC","co":"Converse","st":"WY","trs":"T41N R72W S25","fm":null,"eur":null,"perft":null,"sound":false,"fit":"none","geur":null,"gfit":"none"}},{"type":"Feature","geometry":{"type":"Point","coordinates":[-105.47023,43.49163]},"properties":{"api":"4900922740","name":"G MARY DRAW F34-26","op":"EOG RESOURCES INC","co":"Converse","st":"WY","trs":"T41N R72W S26","fm":null,"eur":2367,"perft":null,"sound":true,"fit":"sound","geur":null,"gfit":"refused"}},{"type":"Feature","geometry":{"type":"Point","coordinates":[-105.47089,43.48436]},"properties":{"api":"4900922083","name":"STEVICK WUTHIER FEE 1","op":"MAXIM DRILLING & EXPL INC","co":"Converse","st":"WY","trs":"T41N R72W S35","fm":null,"eur":29040,"perft":null,"sound":true,"fit":"sound","geur":1271553,"gfit":"sound"}},{"type":"Feature","geometry":{"type":"Point","coordinates":[-105.50071,43.49127]},"properties":{"api":"4900928077","name":"SIOUX RANCH FED 14-27","op":"COLEMAN OIL & GAS INC","co":"Converse","st":"WY","trs":"T41N R72W S27","fm":null,"eur":null,"perft":null,"sound":false,"fit":"none","geur":null,"gfit":"refused"}},{"type":"Feature","geometry":{"type":"Point","coordinates":[-105.49616,43.49517]},"properties":{"api":"4900928078","name":"SIOUX RANCH FED 23-27","op":"COLEMAN OIL & GAS INC","co":"Converse","st":"WY","trs":"T41N R72W S27","fm":null,"eur":null,"perft":null,"sound":false,"fit":"none","geur":null,"gfit":"refused"}},{"type":"Feature","geometry":{"type":"Point","coordinates":[-105.49122,43.49152]},"properties":{"api":"4900928079","name":"SIOUX RANCH FED 34-27","op":"COLEMAN OIL & GAS INC","co":"Converse","st":"WY","trs":"T41N R72W S27","fm":null,"eur":null,"perft":null,"sound":false,"fit":"none","geur":null,"gfit":"refused"}},{"type":"Feature","geometry":{"type":"Point","coordinates":[-105.48627,43.49517]},"properties":{"api":"4900928080","name":"SIOUX RANCH FED 43-27","op":"COLEMAN OIL & GAS INC","co":"Converse","st":"WY","trs":"T41N R72W S27","fm":null,"eur":null,"perft":null,"sound":false,"fit":"none","geur":null,"gfit":"none"}}]}