{"type":"FeatureCollection","features":[{"type":"Feature","geometry":{"type":"Point","coordinates":[-106.19832,43.59186]},"properties":{"api":"4901905550","name":"SUSSEX UNIT 115","op":"CONTANGO RESOURCES LLC","co":"Johnson","st":"WY","trs":"T42N R78W S23","fm":"FRONTIER","eur":null,"perft":null,"sound":false,"fit":"refused","geur":null,"gfit":"refused"}},{"type":"Feature","geometry":{"type":"Point","coordinates":[-106.20231,43.59211]},"properties":{"api":"4901905553","name":"SUSSEX UNIT 116","op":"CONTANGO RESOURCES LLC","co":"Johnson","st":"WY","trs":"T42N R78W S23","fm":null,"eur":null,"perft":null,"sound":false,"fit":"refused","geur":null,"gfit":"refused"}},{"type":"Feature","geometry":{"type":"Point","coordinates":[-106.2022,43.59421]},"properties":{"api":"4901905555","name":"SUSSEX UNIT 94","op":"CONTANGO RESOURCES LLC","co":"Johnson","st":"WY","trs":"T42N R78W S23","fm":"TENSLEEP","eur":null,"perft":null,"sound":false,"fit":"refused","geur":null,"gfit":"refused"}},{"type":"Feature","geometry":{"type":"Point","coordinates":[-106.20718,43.59526]},"properties":{"api":"4901905559","name":"SUSSEX UNIT 97","op":"CONTANGO RESOURCES LLC","co":"Johnson","st":"WY","trs":"T42N R78W S23","fm":null,"eur":344920,"perft":null,"sound":true,"fit":"sound","geur":null,"gfit":"refused"}},{"type":"Feature","geometry":{"type":"Point","coordinates":[-106.19973,43.59538]},"properties":{"api":"4901905566","name":"SUSSEX UNIT 6","op":"CONTANGO RESOURCES LLC","co":"Johnson","st":"WY","trs":"T42N R78W S23","fm":"SUSSEX","eur":null,"perft":null,"sound":false,"fit":"refused","geur":null,"gfit":"refused"}},{"type":"Feature","geometry":{"type":"Point","coordinates":[-106.21219,43.59549]},"properties":{"api":"4901905567","name":"SUSSEX UNIT 118","op":"CONTANGO RESOURCES LLC","co":"Johnson","st":"WY","trs":"T42N R78W S22","fm":null,"eur":83414,"perft":null,"sound":true,"fit":"sound","geur":null,"gfit":"refused"}},{"type":"Feature","geometry":{"type":"Point","coordinates":[-106.20694,43.59879]},"properties":{"api":"4901905573","name":"SUSSEX UNIT 98","op":"CONTANGO RESOURCES LLC","co":"Johnson","st":"WY","trs":"T42N R78W S23","fm":null,"eur":null,"perft":null,"sound":false,"fit":"refused","geur":null,"gfit":"refused"}},{"type":"Feature","geometry":{"type":"Point","coordinates":[-106.22686,43.59887]},"properties":{"api":"4901905575","name":"SUSSEX UNIT 127","op":"CONTANGO RESOURCES LLC","co":"Johnson","st":"WY","trs":"T42N R78W S22","fm":null,"eur":null,"perft":null,"sound":false,"fit":"refused","geur":null,"gfit":"refused"}},{"type":"Feature","geometry":{"type":"Point","coordinates":[-106.21185,43.59891]},"properties":{"api":"4901905576","name":"SUSSEX UNIT 108","op":"CONTANGO RESOURCES LLC","co":"Johnson","st":"WY","trs":"T42N R78W S22","fm":null,"eur":null,"perft":null,"sound":false,"fit":"refused","geur":null,"gfit":"refused"}},{"type":"Feature","geometry":{"type":"Point","coordinates":[-106.20244,43.59898]},"properties":{"api":"4901905577","name":"SUSSEX UNIT 114","op":"CONTANGO RESOURCES LLC","co":"Johnson","st":"WY","trs":"T42N R78W S23","fm":null,"eur":405448,"perft":null,"sound":true,"fit":"sound","geur":null,"gfit":"refused"}},{"type":"Feature","geometry":{"type":"Point","coordinates":[-106.21645,43.5989]},"properties":{"api":"4901905580","name":"SUSSEX UNIT 103","op":"CONTANGO RESOURCES LLC","co":"Johnson","st":"WY","trs":"T42N R78W S22","fm":null,"eur":692230,"perft":null,"sound":true,"fit":"sound","geur":null,"gfit":"refused"}},{"type":"Feature","geometry":{"type":"Point","coordinates":[-106.19976,43.599]},"properties":{"api":"4901905581","name":"SUSSEX UNIT 11","op":"CONTANGO RESOURCES LLC","co":"Johnson","st":"WY","trs":"T42N R78W S23","fm":null,"eur":92653,"perft":null,"sound":true,"fit":"sound","geur":null,"gfit":"refused"}},{"type":"Feature","geometry":{"type":"Point","coordinates":[-106.2312,43.59892]},"properties":{"api":"4901905583","name":"SUSSEX UNIT 131","op":"CONTANGO RESOURCES LLC","co":"Johnson","st":"WY","trs":"T42N R78W S21","fm":null,"eur":532163,"perft":null,"sound":true,"fit":"sound","geur":null,"gfit":"refused"}},{"type":"Feature","geometry":{"type":"Point","coordinates":[-106.20037,43.59941]},"properties":{"api":"4901905585","name":"SUSSEX UNIT 180","op":"CONTANGO RESOURCES LLC","co":"Johnson","st":"WY","trs":"T42N R78W S23","fm":null,"eur":null,"perft":null,"sound":false,"fit":"refused","geur":null,"gfit":"refused"}},{"type":"Feature","geometry":{"type":"Point","coordinates":[-106.25154,43.60527]},"properties":{"api":"4901905624","name":"SUSSEX UNIT 91","op":"CONTANGO RESOURCES LLC","co":"Johnson","st":"WY","trs":"T42N R78W S17","fm":"FRONTIER","eur":5640,"perft":null,"sound":true,"fit":"sound","geur":null,"gfit":"none"}},{"type":"Feature","geometry":{"type":"Point","coordinates":[-106.26162,43.60605]},"properties":{"api":"4901905632","name":"SUSSEX UNIT 75","op":"CONTANGO RESOURCES LLC","co":"Johnson","st":"WY","trs":"T42N R78W S17","fm":null,"eur":null,"perft":null,"sound":false,"fit":"refused","geur":null,"gfit":"refused"}},{"type":"Feature","geometry":{"type":"Point","coordinates":[-106.22447,43.6059]},"properties":{"api":"4901905633","name":"SUSSEX UNIT 39","op":"CONTANGO RESOURCES LLC","co":"Johnson","st":"WY","trs":"T42N R78W S15","fm":null,"eur":179429,"perft":null,"sound":true,"fit":"sound","geur":null,"gfit":"refused"}},{"type":"Feature","geometry":{"type":"Point","coordinates":[-106.2097,43.60616]},"properties":{"api":"4901905636","name":"SUSSEX UNIT 52","op":"CONTANGO RESOURCES LLC","co":"Johnson","st":"WY","trs":"T42N R78W S15","fm":"SHANNON","eur":110500,"perft":null,"sound":true,"fit":"sound","geur":null,"gfit":"refused"}},{"type":"Feature","geometry":{"type":"Point","coordinates":[-106.2663,43.60797]},"properties":{"api":"4901905648","name":"SUSSEX UNIT 9","op":"CONTANGO RESOURCES LLC","co":"Johnson","st":"WY","trs":"T42N R78W S17","fm":null,"eur":null,"perft":null,"sound":false,"fit":"none","geur":null,"gfit":"none"}},{"type":"Feature","geometry":{"type":"Point","coordinates":[-106.21977,43.60572]},"properties":{"api":"4901920041","name":"SUSSEX UNIT 187","op":"CONTANGO RESOURCES LLC","co":"Johnson","st":"WY","trs":"T42N R78W S15","fm":null,"eur":695046,"perft":null,"sound":true,"fit":"sound","geur":null,"gfit":"refused"}},{"type":"Feature","geometry":{"type":"Point","coordinates":[-106.21465,43.60456]},"properties":{"api":"4901920044","name":"SUSSEX UNIT 189","op":"CONTANGO RESOURCES LLC","co":"Johnson","st":"WY","trs":"T42N R78W S15","fm":null,"eur":3320,"perft":null,"sound":true,"fit":"sound","geur":null,"gfit":"refused"}},{"type":"Feature","geometry":{"type":"Point","coordinates":[-106.20012,43.59354]},"properties":{"api":"4901920050","name":"SUSSEX UNIT 192","op":"CONTANGO RESOURCES LLC","co":"Johnson","st":"WY","trs":"T42N R78W S23","fm":null,"eur":null,"perft":null,"sound":false,"fit":"refused","geur":null,"gfit":"refused"}},{"type":"Feature","geometry":{"type":"Point","coordinates":[-106.22918,43.60283]},"properties":{"api":"4901920213","name":"SUSSEX UNIT 200","op":"CONTANGO RESOURCES LLC","co":"Johnson","st":"WY","trs":"T42N R78W S16","fm":null,"eur":278611,"perft":null,"sound":true,"fit":"sound","geur":null,"gfit":"refused"}},{"type":"Feature","geometry":{"type":"Point","coordinates":[-106.28665,43.60753]},"properties":{"api":"4901920260","name":"SUSSEX UNIT 203","op":"CONTANGO RESOURCES LLC","co":"Johnson","st":"WY","trs":"T42N R78W S18","fm":null,"eur":383085,"perft":null,"sound":true,"fit":"sound","geur":null,"gfit":"refused"}},{"type":"Feature","geometry":{"type":"Point","coordinates":[-106.26372,43.60369]},"properties":{"api":"4901920349","name":"SUSSEX UNIT 206","op":"CONTANGO RESOURCES LLC","co":"Johnson","st":"WY","trs":"T42N R78W S17","fm":null,"eur":null,"perft":null,"sound":false,"fit":"refused","geur":null,"gfit":"refused"}},{"type":"Feature","geometry":{"type":"Point","coordinates":[-106.24689,43.60148]},"properties":{"api":"4901920709","name":"SUSSEX UNIT 210","op":"CONTANGO RESOURCES LLC","co":"Johnson","st":"WY","trs":"T42N R78W S21","fm":null,"eur":381059,"perft":null,"sound":true,"fit":"sound","geur":null,"gfit":"refused"}},{"type":"Feature","geometry":{"type":"Point","coordinates":[-106.25956,43.60296]},"properties":{"api":"4901920757","name":"SUSSEX UNIT SX 215","op":"CONTANGO RESOURCES LLC","co":"Johnson","st":"WY","trs":"T42N R78W S17","fm":null,"eur":308000,"perft":null,"sound":true,"fit":"sound","geur":null,"gfit":"refused"}},{"type":"Feature","geometry":{"type":"Point","coordinates":[-106.19779,43.58929]},"properties":{"api":"4901920758","name":"SUSSEX UNIT SX 213","op":"CONTANGO RESOURCES LLC","co":"Johnson","st":"WY","trs":"T42N R78W S23","fm":null,"eur":null,"perft":null,"sound":false,"fit":"refused","geur":null,"gfit":"refused"}},{"type":"Feature","geometry":{"type":"Point","coordinates":[-106.26335,43.60382]},"properties":{"api":"4901920773","name":"SUSSEX UNIT 217","op":"CONTANGO RESOURCES LLC","co":"Johnson","st":"WY","trs":"T42N R78W S17","fm":null,"eur":122369,"perft":null,"sound":true,"fit":"sound","geur":null,"gfit":"refused"}},{"type":"Feature","geometry":{"type":"Point","coordinates":[-106.27954,43.60501]},"properties":{"api":"4901920790","name":"SUSSEX UNIT 216","op":"CONTANGO RESOURCES LLC","co":"Johnson","st":"WY","trs":"T42N R78W S18","fm":null,"eur":null,"perft":null,"sound":false,"fit":"refused","geur":null,"gfit":"refused"}},{"type":"Feature","geometry":{"type":"Point","coordinates":[-106.25046,43.60236]},"properties":{"api":"4901920809","name":"SUSSEX UNIT 220","op":"CONTANGO RESOURCES LLC","co":"Johnson","st":"WY","trs":"T42N R78W S17","fm":null,"eur":499425,"perft":null,"sound":true,"fit":"sound","geur":null,"gfit":"refused"}},{"type":"Feature","geometry":{"type":"Point","coordinates":[-106.18618,43.59342]},"properties":{"api":"4901920810","name":"TAYLOR RANCH  1-24","op":"VECTOR MINERALS CORPORATION","co":"Johnson","st":"WY","trs":"T42N R78W S24","fm":"SHANNON","eur":null,"perft":null,"sound":false,"fit":"refused","geur":null,"gfit":"refused"}},{"type":"Feature","geometry":{"type":"Point","coordinates":[-106.18146,43.56111]},"properties":{"api":"4901925180","name":"AXIOM STATE 3-36","op":"MEADOW DEEP LLC","co":"Johnson","st":"WY","trs":"T42N R78W S36","fm":"FRONTIER","eur":null,"perft":null,"sound":false,"fit":"refused","geur":null,"gfit":"refused"}},{"type":"Feature","geometry":{"type":"Point","coordinates":[-106.1908,43.56094]},"properties":{"api":"4901925336","name":"AXIOM FEDERAL 1-35","op":"MEADOW DEEP LLC","co":"Johnson","st":"WY","trs":"T42N R78W S35","fm":null,"eur":null,"perft":null,"sound":false,"fit":"none","geur":79986,"gfit":"sound"}},{"type":"Feature","geometry":{"type":"Point","coordinates":[-106.18154,43.56085]},"properties":{"api":"4901926468","name":"AXIOM STATE 3-36-SS","op":"MEADOW DEEP LLC","co":"Johnson","st":"WY","trs":"T42N R78W S36","fm":null,"eur":null,"perft":null,"sound":false,"fit":"none","geur":null,"gfit":"none"}},{"type":"Feature","geometry":{"type":"Point","coordinates":[-106.18277,43.57261]},"properties":{"api":"4901929985","name":"MEADOW CREEK DEEP 2-36-42-78H","op":"MEADOW DEEP LLC","co":"Johnson","st":"WY","trs":"T42N R78W S36","fm":"FRONTIER","eur":null,"perft":null,"sound":false,"fit":"refused","geur":null,"gfit":"refused"}},{"type":"Feature","geometry":{"type":"Point","coordinates":[-106.22112,43.59858]},"properties":{"api":"4901920312","name":"SUSSEX UNIT 205","op":"CONTANGO RESOURCES LLC","co":"Johnson","st":"WY","trs":"T42N R78W S22","fm":null,"eur":17394,"perft":null,"sound":true,"fit":"sound","geur":null,"gfit":"refused"}},{"type":"Feature","geometry":{"type":"Point","coordinates":[-106.2104,43.60439]},"properties":{"api":"4901920842","name":"SUSSEX UNIT 218","op":"CONTANGO RESOURCES LLC","co":"Johnson","st":"WY","trs":"T42N R78W S15","fm":null,"eur":61626,"perft":null,"sound":true,"fit":"sound","geur":null,"gfit":"refused"}},{"type":"Feature","geometry":{"type":"Point","coordinates":[-106.20467,43.59157]},"properties":{"api":"4901905549","name":"SUSSEX UNIT 100","op":"CONTANGO RESOURCES LLC","co":"Johnson","st":"WY","trs":"T42N R78W S23","fm":null,"eur":467131,"perft":null,"sound":true,"fit":"sound","geur":null,"gfit":"refused"}},{"type":"Feature","geometry":{"type":"Point","coordinates":[-106.26383,43.60962]},"properties":{"api":"4901905671","name":"SUSSEX UNIT 17","op":"CONTANGO RESOURCES LLC","co":"Johnson","st":"WY","trs":"T42N R78W S17","fm":null,"eur":27759,"perft":null,"sound":true,"fit":"sound","geur":8338,"gfit":"sound"}},{"type":"Feature","geometry":{"type":"Point","coordinates":[-106.20457,43.58336]},"properties":{"api":"4901925335","name":"AXIOM FEDERAL 11-26","op":"MEADOW DEEP LLC","co":"Johnson","st":"WY","trs":"T42N R78W S26","fm":"FRONTIER","eur":null,"perft":null,"sound":false,"fit":"refused","geur":null,"gfit":"none"}},{"type":"Feature","geometry":{"type":"Point","coordinates":[-106.191,43.56753]},"properties":{"api":"4901925337","name":"AXIOM FEDERAL 9-35","op":"MEADOW DEEP LLC","co":"Johnson","st":"WY","trs":"T42N R78W S35","fm":null,"eur":null,"perft":null,"sound":false,"fit":"none","geur":null,"gfit":"none"}},{"type":"Feature","geometry":{"type":"Point","coordinates":[-106.26266,43.60965]},"properties":{"api":"4901905679","name":"SUSSEX UNIT 178","op":"CONTANGO RESOURCES LLC","co":"Johnson","st":"WY","trs":"T42N R78W S17","fm":null,"eur":null,"perft":null,"sound":false,"fit":"refused","geur":null,"gfit":"refused"}},{"type":"Feature","geometry":{"type":"Point","coordinates":[-106.26159,43.60982]},"properties":{"api":"4901905689","name":"SUSSEX UNIT 79","op":"FDL OPERATING LLC","co":"Johnson","st":"WY","trs":"T42N R78W S17","fm":null,"eur":null,"perft":null,"sound":false,"fit":"refused","geur":null,"gfit":"refused"}},{"type":"Feature","geometry":{"type":"Point","coordinates":[-106.24839,43.59997]},"properties":{"api":"4901920911","name":"SUSSEX UNIT 227","op":"CONTANGO RESOURCES LLC","co":"Johnson","st":"WY","trs":"T42N R78W S20","fm":null,"eur":93084,"perft":null,"sound":true,"fit":"sound","geur":null,"gfit":"none"}},{"type":"Feature","geometry":{"type":"Point","coordinates":[-106.18224,43.63792]},"properties":{"api":"4901926668","name":"BIG BEND FEDERAL 11-1","op":"NORTH FINN LLC","co":"Johnson","st":"WY","trs":"T42N R78W S1","fm":null,"eur":null,"perft":null,"sound":false,"fit":"none","geur":null,"gfit":"none"}},{"type":"Feature","geometry":{"type":"Point","coordinates":[-106.21722,43.60252]},"properties":{"api":"4901905598","name":"SUSSEX UNIT 125","op":"CONTANGO RESOURCES LLC","co":"Johnson","st":"WY","trs":"T42N R78W S15","fm":null,"eur":null,"perft":null,"sound":false,"fit":"none","geur":null,"gfit":"none"}},{"type":"Feature","geometry":{"type":"Point","coordinates":[-106.2192,43.60834]},"properties":{"api":"4901920208","name":"SUSSEX UNIT 201","op":"CONTANGO RESOURCES LLC","co":"Johnson","st":"WY","trs":"T42N R78W S15","fm":"SUSSEX","eur":4126,"perft":null,"sound":true,"fit":"sound","geur":null,"gfit":"refused"}},{"type":"Feature","geometry":{"type":"Point","coordinates":[-106.19771,43.64077]},"properties":{"api":"4901925935","name":"BIG BEND FEDERAL 7-2","op":"NORTH FINN LLC","co":"Johnson","st":"WY","trs":"T42N R78W S2","fm":null,"eur":null,"perft":null,"sound":false,"fit":"none","geur":null,"gfit":"none"}},{"type":"Feature","geometry":{"type":"Point","coordinates":[-106.19254,43.64509]},"properties":{"api":"4901925938","name":"BIG BEND FEDERAL 1-2","op":"NORTH FINN LLC","co":"Johnson","st":"WY","trs":"T42N R78W S2","fm":null,"eur":null,"perft":null,"sound":false,"fit":"none","geur":null,"gfit":"none"}},{"type":"Feature","geometry":{"type":"Point","coordinates":[-106.17151,43.64636]},"properties":{"api":"4901926663","name":"BIG BEND FEDERAL 1-1","op":"NORTH FINN LLC","co":"Johnson","st":"WY","trs":"T42N R78W S1","fm":null,"eur":null,"perft":null,"sound":false,"fit":"none","geur":null,"gfit":"none"}},{"type":"Feature","geometry":{"type":"Point","coordinates":[-106.18703,43.64144]},"properties":{"api":"4901926665","name":"BIG BEND FEDERAL 5-1","op":"NORTH FINN LLC","co":"Johnson","st":"WY","trs":"T42N R78W S1","fm":null,"eur":null,"perft":null,"sound":false,"fit":"none","geur":null,"gfit":"none"}},{"type":"Feature","geometry":{"type":"Point","coordinates":[-106.17722,43.64194]},"properties":{"api":"4901926666","name":"BIG BEND FEDERAL 7-1","op":"NORTH FINN LLC","co":"Johnson","st":"WY","trs":"T42N R78W S1","fm":null,"eur":null,"perft":null,"sound":false,"fit":"none","geur":null,"gfit":"none"}},{"type":"Feature","geometry":{"type":"Point","coordinates":[-106.20693,43.64039]},"properties":{"api":"4901925936","name":"BIG BEND FEDERAL 5-2","op":"NORTH FINN LLC","co":"Johnson","st":"WY","trs":"T42N R78W S2","fm":null,"eur":null,"perft":null,"sound":false,"fit":"none","geur":null,"gfit":"none"}},{"type":"Feature","geometry":{"type":"Point","coordinates":[-106.20297,43.64418]},"properties":{"api":"4901925937","name":"BIG BEND FEDERAL 3-2","op":"NORTH FINN LLC","co":"Johnson","st":"WY","trs":"T42N R78W S2","fm":null,"eur":null,"perft":null,"sound":false,"fit":"none","geur":null,"gfit":"none"}},{"type":"Feature","geometry":{"type":"Point","coordinates":[-106.18237,43.64596]},"properties":{"api":"4901926664","name":"BIG BEND FEDERAL 3-1","op":"NORTH FINN LLC","co":"Johnson","st":"WY","trs":"T42N R78W S1","fm":null,"eur":null,"perft":null,"sound":false,"fit":"none","geur":null,"gfit":"none"}},{"type":"Feature","geometry":{"type":"Point","coordinates":[-106.17224,43.63927]},"properties":{"api":"4901926667","name":"BIG BEND FEDERAL 9-1","op":"NORTH FINN LLC","co":"Johnson","st":"WY","trs":"T42N R78W S1","fm":null,"eur":null,"perft":null,"sound":false,"fit":"none","geur":null,"gfit":"none"}},{"type":"Feature","geometry":{"type":"Point","coordinates":[-106.17743,43.63465]},"properties":{"api":"4901926669","name":"BIG BEND FEDERAL 15-1","op":"NORTH FINN LLC","co":"Johnson","st":"WY","trs":"T42N R78W S1","fm":null,"eur":null,"perft":null,"sound":false,"fit":"none","geur":null,"gfit":"none"}},{"type":"Feature","geometry":{"type":"Point","coordinates":[-106.21469,43.60628]},"properties":{"api":"4901905639","name":"SUSSEX UNIT 38","op":"FDL OPERATING LLC","co":"Johnson","st":"WY","trs":"T42N R78W S15","fm":null,"eur":null,"perft":null,"sound":false,"fit":"refused","geur":null,"gfit":"refused"}},{"type":"Feature","geometry":{"type":"Point","coordinates":[-106.21314,43.60492]},"properties":{"api":"4901905619","name":"SUSSEX UNIT 54","op":"CONTANGO RESOURCES LLC","co":"Johnson","st":"WY","trs":"T42N R78W S15","fm":"SHANNON","eur":93288,"perft":null,"sound":true,"fit":"sound","geur":null,"gfit":"refused"}},{"type":"Feature","geometry":{"type":"Point","coordinates":[-106.26135,43.61124]},"properties":{"api":"4901905706","name":"SUSSEX UNIT SX 158","op":"FDL OPERATING LLC","co":"Johnson","st":"WY","trs":"T42N R78W S17","fm":null,"eur":null,"perft":null,"sound":false,"fit":"refused","geur":null,"gfit":"refused"}},{"type":"Feature","geometry":{"type":"Point","coordinates":[-106.2217,43.60603]},"properties":{"api":"4901905649","name":"SUSSEX UNIT 119","op":"FDL OPERATING LLC","co":"Johnson","st":"WY","trs":"T42N R78W S15","fm":null,"eur":null,"perft":null,"sound":false,"fit":"none","geur":null,"gfit":"none"}},{"type":"Feature","geometry":{"type":"Point","coordinates":[-106.27952,43.61064]},"properties":{"api":"4901920712","name":"SUSSEX UNIT 208","op":"FDL OPERATING LLC","co":"Johnson","st":"WY","trs":"T42N R78W S18","fm":"FRONTIER","eur":null,"perft":null,"sound":false,"fit":"refused","geur":null,"gfit":"none"}},{"type":"Feature","geometry":{"type":"Point","coordinates":[-106.26259,43.60348]},"properties":{"api":"4901920808","name":"SUSSEX UNIT 222","op":"FDL OPERATING LLC","co":"Johnson","st":"WY","trs":"T42N R78W S17","fm":null,"eur":null,"perft":null,"sound":false,"fit":"none","geur":null,"gfit":"none"}},{"type":"Feature","geometry":{"type":"Point","coordinates":[-106.19773,43.5954]},"properties":{"api":"4901905561","name":"SUSSEX UNIT 95","op":"CONTANGO RESOURCES LLC","co":"Johnson","st":"WY","trs":"T42N R78W S23","fm":"FRONTIER","eur":null,"perft":null,"sound":false,"fit":"refused","geur":null,"gfit":"none"}},{"type":"Feature","geometry":{"type":"Point","coordinates":[-106.21275,43.60235]},"properties":{"api":"4901905591","name":"SUSSEX UNIT 109","op":"FDL OPERATING LLC","co":"Johnson","st":"WY","trs":"T42N R78W S15","fm":null,"eur":null,"perft":null,"sound":false,"fit":"refused","geur":null,"gfit":"refused"}},{"type":"Feature","geometry":{"type":"Point","coordinates":[-106.22666,43.60611]},"properties":{"api":"4901905638","name":"SUSSEX UNIT 124","op":"CONTANGO RESOURCES LLC","co":"Johnson","st":"WY","trs":"T42N R78W S15","fm":null,"eur":null,"perft":null,"sound":false,"fit":"none","geur":null,"gfit":"none"}},{"type":"Feature","geometry":{"type":"Point","coordinates":[-106.20429,43.59679]},"properties":{"api":"4901920064","name":"SUSSEX UNIT 198-TP-AB","op":"CONTANGO RESOURCES LLC","co":"Johnson","st":"WY","trs":"T42N R78W S23","fm":"TENSLEEP","eur":null,"perft":null,"sound":false,"fit":"refused","geur":null,"gfit":"none"}},{"type":"Feature","geometry":{"type":"Point","coordinates":[-106.193,43.59827]},"properties":{"api":"4901920730","name":"SUSSEX UNIT 212","op":"ANADARKO E&P ONSHORE LLC","co":"Johnson","st":"WY","trs":"T42N R78W S23","fm":null,"eur":null,"perft":null,"sound":false,"fit":"refused","geur":null,"gfit":"refused"}},{"type":"Feature","geometry":{"type":"Point","coordinates":[-106.22244,43.60242]},"properties":{"api":"4901905606","name":"SUSSEX UNIT 106","op":"FDL OPERATING LLC","co":"Johnson","st":"WY","trs":"T42N R78W S15","fm":null,"eur":null,"perft":null,"sound":false,"fit":"refused","geur":null,"gfit":"none"}},{"type":"Feature","geometry":{"type":"Point","coordinates":[-106.22166,43.59965]},"properties":{"api":"4901905586","name":"SUSSEX UNIT 121","op":"FDL OPERATING LLC","co":"Johnson","st":"WY","trs":"T42N R78W S22","fm":null,"eur":null,"perft":null,"sound":false,"fit":"none","geur":null,"gfit":"none"}},{"type":"Feature","geometry":{"type":"Point","coordinates":[-106.22423,43.60449]},"properties":{"api":"4901920048","name":"SUSSEX UNIT 190","op":"FDL OPERATING LLC","co":"Johnson","st":"WY","trs":"T42N R78W S15","fm":null,"eur":null,"perft":null,"sound":false,"fit":"refused","geur":null,"gfit":"none"}},{"type":"Feature","geometry":{"type":"Point","coordinates":[-106.22666,43.60765]},"properties":{"api":"4901905654","name":"SUSSEX UNIT 53","op":"ANADARKO E&P ONSHORE LLC","co":"Johnson","st":"WY","trs":"T42N R78W S15","fm":null,"eur":null,"perft":null,"sound":false,"fit":"refused","geur":null,"gfit":"refused"}},{"type":"Feature","geometry":{"type":"Point","coordinates":[-106.21526,43.59681]},"properties":{"api":"4901906191","name":"SUSSEX UNIT 184","op":"WESTPORT OIL & GAS COMPANY LP","co":"Johnson","st":"WY","trs":"T42N R78W S22","fm":null,"eur":53086,"perft":null,"sound":true,"fit":"sound","geur":null,"gfit":"none"}},{"type":"Feature","geometry":{"type":"Point","coordinates":[-106.22083,43.59642]},"properties":{"api":"4901906216","name":"SUSSEX UNIT 186","op":"WESTPORT OIL & GAS COMPANY LP","co":"Johnson","st":"WY","trs":"T42N R78W S22","fm":null,"eur":null,"perft":null,"sound":false,"fit":"none","geur":null,"gfit":"none"}},{"type":"Feature","geometry":{"type":"Point","coordinates":[-106.22012,43.60109]},"properties":{"api":"4901920057","name":"SUSSEX UNIT 194","op":"FDL OPERATING LLC","co":"Johnson","st":"WY","trs":"T42N R78W S22","fm":null,"eur":null,"perft":null,"sound":false,"fit":"refused","geur":null,"gfit":"refused"}},{"type":"Feature","geometry":{"type":"Point","coordinates":[-106.22282,43.60736]},"properties":{"api":"4901920883","name":"SUSSEX UNIT 224","op":"WESTPORT OIL & GAS COMPANY LP","co":"Johnson","st":"WY","trs":"T42N R78W S15","fm":null,"eur":null,"perft":null,"sound":false,"fit":"refused","geur":null,"gfit":"refused"}},{"type":"Feature","geometry":{"type":"Point","coordinates":[-106.19839,43.5883]},"properties":{"api":"4901905543","name":"SUSSEX UNIT 111","op":"WESTPORT OIL & GAS COMPANY LP","co":"Johnson","st":"WY","trs":"T42N R78W S23","fm":null,"eur":null,"perft":null,"sound":false,"fit":"none","geur":null,"gfit":"none"}},{"type":"Feature","geometry":{"type":"Point","coordinates":[-106.20006,43.59175]},"properties":{"api":"4901905548","name":"SUSSEX UNIT 10","op":"WESTPORT OIL & GAS COMPANY LP","co":"Johnson","st":"WY","trs":"T42N R78W S23","fm":null,"eur":6949,"perft":null,"sound":true,"fit":"sound","geur":null,"gfit":"refused"}},{"type":"Feature","geometry":{"type":"Point","coordinates":[-106.19496,43.59542]},"properties":{"api":"4901905560","name":"SUSSEX UNIT 13","op":"WESTPORT OIL & GAS COMPANY LP","co":"Johnson","st":"WY","trs":"T42N R78W S23","fm":null,"eur":null,"perft":null,"sound":false,"fit":"none","geur":null,"gfit":"none"}},{"type":"Feature","geometry":{"type":"Point","coordinates":[-106.20471,43.59533]},"properties":{"api":"4901905563","name":"SUSSEX UNIT 5","op":"WESTPORT OIL & GAS COMPANY LP","co":"Johnson","st":"WY","trs":"T42N R78W S23","fm":null,"eur":null,"perft":null,"sound":false,"fit":"none","geur":null,"gfit":"none"}},{"type":"Feature","geometry":{"type":"Point","coordinates":[-106.20969,43.5953]},"properties":{"api":"4901905564","name":"SUSSEX UNIT 18","op":"WESTPORT OIL & GAS COMPANY LP","co":"Johnson","st":"WY","trs":"T42N R78W S22","fm":null,"eur":null,"perft":null,"sound":false,"fit":"none","geur":null,"gfit":"none"}},{"type":"Feature","geometry":{"type":"Point","coordinates":[-106.20475,43.59896]},"properties":{"api":"4901905574","name":"SUSSEX UNIT 8","op":"WESTPORT OIL & GAS COMPANY LP","co":"Johnson","st":"WY","trs":"T42N R78W S23","fm":null,"eur":null,"perft":null,"sound":false,"fit":"none","geur":null,"gfit":"none"}},{"type":"Feature","geometry":{"type":"Point","coordinates":[-106.20973,43.59892]},"properties":{"api":"4901905578","name":"SUSSEX UNIT 14","op":"WESTPORT OIL & GAS COMPANY LP","co":"Johnson","st":"WY","trs":"T42N R78W S22","fm":null,"eur":null,"perft":null,"sound":false,"fit":"none","geur":null,"gfit":"none"}},{"type":"Feature","geometry":{"type":"Point","coordinates":[-106.23184,43.60227]},"properties":{"api":"4901905594","name":"SUSSEX UNIT 117","op":"WESTPORT OIL & GAS COMPANY LP","co":"Johnson","st":"WY","trs":"T42N R78W S16","fm":null,"eur":null,"perft":null,"sound":false,"fit":"none","geur":null,"gfit":"none"}},{"type":"Feature","geometry":{"type":"Point","coordinates":[-106.20503,43.60282]},"properties":{"api":"4901905605","name":"SUSSEX UNIT 144","op":"WESTPORT OIL & GAS COMPANY LP","co":"Johnson","st":"WY","trs":"T42N R78W S14","fm":null,"eur":null,"perft":null,"sound":false,"fit":"refused","geur":null,"gfit":"none"}},{"type":"Feature","geometry":{"type":"Point","coordinates":[-106.22181,43.60418]},"properties":{"api":"4901905610","name":"SUSSEX UNIT 26","op":"WESTPORT OIL & GAS COMPANY LP","co":"Johnson","st":"WY","trs":"T42N R78W S15","fm":null,"eur":null,"perft":null,"sound":false,"fit":"refused","geur":null,"gfit":"refused"}},{"type":"Feature","geometry":{"type":"Point","coordinates":[-106.26627,43.60525]},"properties":{"api":"4901905623","name":"SUSSEX UNIT 35","op":"WESTPORT OIL & GAS COMPANY LP","co":"Johnson","st":"WY","trs":"T42N R78W S17","fm":null,"eur":null,"perft":null,"sound":false,"fit":"none","geur":null,"gfit":"none"}},{"type":"Feature","geometry":{"type":"Point","coordinates":[-106.2564,43.60545]},"properties":{"api":"4901905627","name":"SUSSEX UNIT 163","op":"WESTPORT OIL & GAS COMPANY LP","co":"Johnson","st":"WY","trs":"T42N R78W S17","fm":null,"eur":null,"perft":null,"sound":false,"fit":"none","geur":null,"gfit":"none"}},{"type":"Feature","geometry":{"type":"Point","coordinates":[-106.27126,43.60619]},"properties":{"api":"4901905629","name":"SUSSEX UNIT 92","op":"CONTANGO RESOURCES LLC","co":"Johnson","st":"WY","trs":"T42N R78W S18","fm":null,"eur":192581,"perft":null,"sound":true,"fit":"sound","geur":null,"gfit":"refused"}},{"type":"Feature","geometry":{"type":"Point","coordinates":[-106.20713,43.61292]},"properties":{"api":"4901905630","name":"SUSSEX UNIT 76","op":"WESTPORT OIL & GAS COMPANY LP","co":"Johnson","st":"WY","trs":"T42N R78W S14","fm":null,"eur":null,"perft":null,"sound":false,"fit":"refused","geur":null,"gfit":"refused"}},{"type":"Feature","geometry":{"type":"Point","coordinates":[-106.22941,43.60599]},"properties":{"api":"4901905631","name":"SUSSEX UNIT 64","op":"WESTPORT OIL & GAS COMPANY LP","co":"Johnson","st":"WY","trs":"T42N R78W S16","fm":null,"eur":null,"perft":null,"sound":false,"fit":"refused","geur":null,"gfit":"refused"}},{"type":"Feature","geometry":{"type":"Point","coordinates":[-106.26129,43.60525]},"properties":{"api":"4901905646","name":"SUSSEX UNIT 31","op":"WESTPORT OIL & GAS COMPANY LP","co":"Johnson","st":"WY","trs":"T42N R78W S17","fm":null,"eur":null,"perft":null,"sound":false,"fit":"none","geur":null,"gfit":"none"}},{"type":"Feature","geometry":{"type":"Point","coordinates":[-106.24143,43.60704]},"properties":{"api":"4901905647","name":"SUSSEX UNIT 101","op":"WESTPORT OIL & GAS COMPANY LP","co":"Johnson","st":"WY","trs":"T42N R78W S16","fm":null,"eur":2144,"perft":null,"sound":true,"fit":"sound","geur":null,"gfit":"none"}},{"type":"Feature","geometry":{"type":"Point","coordinates":[-106.2663,43.60797]},"properties":{"api":"4901905656","name":"SUSSEX UNIT 20","op":"WESTPORT OIL & GAS COMPANY LP","co":"Johnson","st":"WY","trs":"T42N R78W S17","fm":null,"eur":null,"perft":null,"sound":false,"fit":"refused","geur":null,"gfit":"refused"}},{"type":"Feature","geometry":{"type":"Point","coordinates":[-106.26069,43.60845]},"properties":{"api":"4901905659","name":"SUSSEX UNIT 3","op":"WESTPORT OIL & GAS COMPANY LP","co":"Johnson","st":"WY","trs":"T42N R78W S17","fm":null,"eur":null,"perft":null,"sound":false,"fit":"none","geur":null,"gfit":"none"}},{"type":"Feature","geometry":{"type":"Point","coordinates":[-106.20433,43.60808]},"properties":{"api":"4901905661","name":"SUSSEX UNIT 149","op":"WESTPORT OIL & GAS COMPANY LP","co":"Johnson","st":"WY","trs":"T42N R78W S14","fm":null,"eur":null,"perft":null,"sound":false,"fit":"none","geur":null,"gfit":"none"}},{"type":"Feature","geometry":{"type":"Point","coordinates":[-106.2714,43.60831]},"properties":{"api":"4901905666","name":"SUSSEX UNIT 27","op":"WESTPORT OIL & GAS COMPANY LP","co":"Johnson","st":"WY","trs":"T42N R78W S18","fm":null,"eur":null,"perft":null,"sound":false,"fit":"none","geur":null,"gfit":"none"}},{"type":"Feature","geometry":{"type":"Point","coordinates":[-106.26069,43.60847]},"properties":{"api":"4901905669","name":"SUSSEX UNIT 21","op":"WESTPORT OIL & GAS COMPANY LP","co":"Johnson","st":"WY","trs":"T42N R78W S17","fm":null,"eur":null,"perft":null,"sound":false,"fit":"none","geur":null,"gfit":"none"}},{"type":"Feature","geometry":{"type":"Point","coordinates":[-106.26106,43.60822]},"properties":{"api":"4901905670","name":"SUSSEX UNIT 159","op":"WESTPORT OIL & GAS COMPANY LP","co":"Johnson","st":"WY","trs":"T42N R78W S17","fm":null,"eur":null,"perft":null,"sound":false,"fit":"none","geur":null,"gfit":"none"}},{"type":"Feature","geometry":{"type":"Point","coordinates":[-106.26881,43.60965]},"properties":{"api":"4901905673","name":"SUSSEX UNIT 28","op":"WESTPORT OIL & GAS COMPANY LP","co":"Johnson","st":"WY","trs":"T42N R78W S18","fm":null,"eur":null,"perft":null,"sound":false,"fit":"none","geur":null,"gfit":"none"}},{"type":"Feature","geometry":{"type":"Point","coordinates":[-106.27093,43.60968]},"properties":{"api":"4901905676","name":"SUSSEX UNIT 93","op":"WESTPORT OIL & GAS COMPANY LP","co":"Johnson","st":"WY","trs":"T42N R78W S18","fm":null,"eur":null,"perft":null,"sound":false,"fit":"none","geur":null,"gfit":"none"}},{"type":"Feature","geometry":{"type":"Point","coordinates":[-106.23156,43.60981]},"properties":{"api":"4901905686","name":"SUSSEX UNIT 135","op":"WESTPORT OIL & GAS COMPANY LP","co":"Johnson","st":"WY","trs":"T42N R78W S16","fm":null,"eur":null,"perft":null,"sound":false,"fit":"none","geur":null,"gfit":"none"}},{"type":"Feature","geometry":{"type":"Point","coordinates":[-106.24172,43.60957]},"properties":{"api":"4901905688","name":"SUSSEX UNIT 139","op":"WESTPORT OIL & GAS COMPANY LP","co":"Johnson","st":"WY","trs":"T42N R78W S16","fm":null,"eur":null,"perft":null,"sound":false,"fit":"none","geur":null,"gfit":"none"}},{"type":"Feature","geometry":{"type":"Point","coordinates":[-106.22659,43.60959]},"properties":{"api":"4901905690","name":"SUSSEX UNIT 140","op":"WESTPORT OIL & GAS COMPANY LP","co":"Johnson","st":"WY","trs":"T42N R78W S15","fm":null,"eur":null,"perft":null,"sound":false,"fit":"refused","geur":null,"gfit":"refused"}},{"type":"Feature","geometry":{"type":"Point","coordinates":[-106.26402,43.6099]},"properties":{"api":"4901905691","name":"SUSSEX UNIT 102","op":"WESTPORT OIL & GAS COMPANY LP","co":"Johnson","st":"WY","trs":"T42N R78W S17","fm":null,"eur":null,"perft":null,"sound":false,"fit":"refused","geur":1374,"gfit":"sound"}},{"type":"Feature","geometry":{"type":"Point","coordinates":[-106.2539,43.60976]},"properties":{"api":"4901905692","name":"SUSSEX UNIT 46","op":"WESTPORT OIL & GAS COMPANY LP","co":"Johnson","st":"WY","trs":"T42N R78W S17","fm":null,"eur":null,"perft":null,"sound":false,"fit":"none","geur":null,"gfit":"none"}},{"type":"Feature","geometry":{"type":"Point","coordinates":[-106.24974,43.61017]},"properties":{"api":"4901905693","name":"SUSSEX UNIT 89","op":"WESTPORT OIL & GAS COMPANY LP","co":"Johnson","st":"WY","trs":"T42N R78W S17","fm":null,"eur":null,"perft":null,"sound":false,"fit":"none","geur":null,"gfit":"none"}},{"type":"Feature","geometry":{"type":"Point","coordinates":[-106.2606,43.61046]},"properties":{"api":"4901905694","name":"SUSSEX UNIT 174","op":"WESTPORT OIL & GAS COMPANY LP","co":"Johnson","st":"WY","trs":"T42N R78W S17","fm":null,"eur":null,"perft":null,"sound":false,"fit":"refused","geur":null,"gfit":"refused"}},{"type":"Feature","geometry":{"type":"Point","coordinates":[-106.25911,43.61005]},"properties":{"api":"4901905695","name":"SUSSEX UNIT 104","op":"WESTPORT OIL & GAS COMPANY LP","co":"Johnson","st":"WY","trs":"T42N R78W S17","fm":null,"eur":2597,"perft":null,"sound":true,"fit":"sound","geur":null,"gfit":"refused"}},{"type":"Feature","geometry":{"type":"Point","coordinates":[-106.25532,43.61002]},"properties":{"api":"4901905697","name":"SUSSEX UNIT 138","op":"FDL OPERATING LLC","co":"Johnson","st":"WY","trs":"T42N R78W S17","fm":null,"eur":null,"perft":null,"sound":false,"fit":"none","geur":null,"gfit":"none"}},{"type":"Feature","geometry":{"type":"Point","coordinates":[-106.2564,43.6113]},"properties":{"api":"4901905701","name":"SUSSEX UNIT 45","op":"WESTPORT OIL & GAS COMPANY LP","co":"Johnson","st":"WY","trs":"T42N R78W S17","fm":null,"eur":null,"perft":null,"sound":false,"fit":"none","geur":null,"gfit":"none"}},{"type":"Feature","geometry":{"type":"Point","coordinates":[-106.2711,43.61149]},"properties":{"api":"4901905702","name":"SUSSEX UNIT 30","op":"WESTPORT OIL & GAS COMPANY LP","co":"Johnson","st":"WY","trs":"T42N R78W S18","fm":null,"eur":null,"perft":null,"sound":false,"fit":"none","geur":null,"gfit":"none"}},{"type":"Feature","geometry":{"type":"Point","coordinates":[-106.26135,43.61142]},"properties":{"api":"4901905707","name":"SUSSEX UNIT 7","op":"WESTPORT OIL & GAS COMPANY LP","co":"Johnson","st":"WY","trs":"T42N R78W S17","fm":null,"eur":null,"perft":null,"sound":false,"fit":"none","geur":null,"gfit":"none"}},{"type":"Feature","geometry":{"type":"Point","coordinates":[-106.28571,43.61257]},"properties":{"api":"4901905712","name":"SUSSEX UNIT 96","op":"WESTPORT OIL & GAS COMPANY LP","co":"Johnson","st":"WY","trs":"T42N R78W S18","fm":null,"eur":null,"perft":null,"sound":false,"fit":"refused","geur":null,"gfit":"refused"}},{"type":"Feature","geometry":{"type":"Point","coordinates":[-106.26649,43.61229]},"properties":{"api":"4901905713","name":"SUSSEX UNIT 4","op":"WESTPORT OIL & GAS COMPANY LP","co":"Johnson","st":"WY","trs":"T42N R78W S17","fm":null,"eur":null,"perft":null,"sound":false,"fit":"refused","geur":null,"gfit":"refused"}},{"type":"Feature","geometry":{"type":"Point","coordinates":[-106.28156,43.61269]},"properties":{"api":"4901905714","name":"SUSSEX UNIT 160","op":"WESTPORT OIL & GAS COMPANY LP","co":"Johnson","st":"WY","trs":"T42N R78W S18","fm":null,"eur":null,"perft":null,"sound":false,"fit":"none","geur":null,"gfit":"none"}},{"type":"Feature","geometry":{"type":"Point","coordinates":[-106.26885,43.61327]},"properties":{"api":"4901905716","name":"SUSSEX UNIT 67","op":"WESTPORT OIL & GAS COMPANY LP","co":"Johnson","st":"WY","trs":"T42N R78W S18","fm":null,"eur":null,"perft":null,"sound":false,"fit":"refused","geur":null,"gfit":"refused"}},{"type":"Feature","geometry":{"type":"Point","coordinates":[-106.28277,43.61344]},"properties":{"api":"4901905725","name":"SUSSEX UNIT 47","op":"WESTPORT OIL & GAS COMPANY LP","co":"Johnson","st":"WY","trs":"T42N R78W S18","fm":null,"eur":null,"perft":null,"sound":false,"fit":"refused","geur":null,"gfit":"refused"}},{"type":"Feature","geometry":{"type":"Point","coordinates":[-106.28067,43.61523]},"properties":{"api":"4901905739","name":"SUSSEX UNIT 48","op":"WESTPORT OIL & GAS COMPANY LP","co":"Johnson","st":"WY","trs":"T42N R78W S18","fm":null,"eur":null,"perft":null,"sound":false,"fit":"none","geur":null,"gfit":"none"}},{"type":"Feature","geometry":{"type":"Point","coordinates":[-106.26649,43.61506]},"properties":{"api":"4901906256","name":"SUSSEX UNIT 1","op":"WESTPORT OIL & GAS COMPANY LP","co":"Johnson","st":"WY","trs":"T42N R78W S17","fm":null,"eur":null,"perft":null,"sound":false,"fit":"none","geur":null,"gfit":"none"}},{"type":"Feature","geometry":{"type":"Point","coordinates":[-106.26669,43.60932]},"properties":{"api":"4901906300","name":"SUSSEX UNIT 173","op":"WESTPORT OIL & GAS COMPANY LP","co":"Johnson","st":"WY","trs":"T42N R78W S17","fm":null,"eur":null,"perft":null,"sound":false,"fit":"none","geur":null,"gfit":"none"}},{"type":"Feature","geometry":{"type":"Point","coordinates":[-106.22045,43.60712]},"properties":{"api":"4901920061","name":"SUSSEX UNIT 196","op":"FDL OPERATING LLC","co":"Johnson","st":"WY","trs":"T42N R78W S15","fm":null,"eur":12435,"perft":null,"sound":true,"fit":"sound","geur":null,"gfit":"refused"}},{"type":"Feature","geometry":{"type":"Point","coordinates":[-106.21816,43.60369]},"properties":{"api":"4901920337","name":"SUSSES UNIT 207","op":"WESTPORT OIL & GAS COMPANY LP","co":"Johnson","st":"WY","trs":"T42N R78W S15","fm":null,"eur":8911,"perft":null,"sound":true,"fit":"sound","geur":null,"gfit":"refused"}},{"type":"Feature","geometry":{"type":"Point","coordinates":[-106.22517,43.60911]},"properties":{"api":"4901920906","name":"SUSSEX UNIT 226","op":"WESTPORT OIL & GAS COMPANY LP","co":"Johnson","st":"WY","trs":"T42N R78W S15","fm":null,"eur":null,"perft":null,"sound":false,"fit":"none","geur":null,"gfit":"none"}},{"type":"Feature","geometry":{"type":"Point","coordinates":[-106.17117,43.56131]},"properties":{"api":"4901905390","name":"NO MEADOW CR 0-15515 41","op":"CONOCO INC","co":"Johnson","st":"WY","trs":"T42N R78W S36","fm":null,"eur":null,"perft":null,"sound":false,"fit":"refused","geur":null,"gfit":"refused"}},{"type":"Feature","geometry":{"type":"Point","coordinates":[-106.20455,43.56343]},"properties":{"api":"4901905401","name":"UNIT B-044519 3","op":"CONOCO INC","co":"Johnson","st":"WY","trs":"T42N R78W S35","fm":null,"eur":null,"perft":null,"sound":false,"fit":"none","geur":null,"gfit":"none"}},{"type":"Feature","geometry":{"type":"Point","coordinates":[-106.20459,43.56376]},"properties":{"api":"4901905402","name":"UNIT B-044519 53","op":"CONOCO INC","co":"Johnson","st":"WY","trs":"T42N R78W S35","fm":null,"eur":null,"perft":null,"sound":false,"fit":"none","geur":null,"gfit":"none"}},{"type":"Feature","geometry":{"type":"Point","coordinates":[-106.21014,43.56371]},"properties":{"api":"4901905404","name":"NO MEADOW CK W-01805 64","op":"CONOCO INC","co":"Johnson","st":"WY","trs":"T42N R78W S34","fm":null,"eur":null,"perft":null,"sound":false,"fit":"none","geur":null,"gfit":"none"}},{"type":"Feature","geometry":{"type":"Point","coordinates":[-106.20107,43.56452]},"properties":{"api":"4901905409","name":"UNIT B-044519 37","op":"CONOCO INC","co":"Johnson","st":"WY","trs":"T42N R78W S35","fm":null,"eur":null,"perft":null,"sound":false,"fit":"none","geur":null,"gfit":"none"}},{"type":"Feature","geometry":{"type":"Point","coordinates":[-106.17718,43.56585]},"properties":{"api":"4901905410","name":"UNIT B-044699 50","op":"CONOCO INC","co":"Johnson","st":"WY","trs":"T42N R78W S36","fm":null,"eur":null,"perft":null,"sound":false,"fit":"refused","geur":null,"gfit":"none"}},{"type":"Feature","geometry":{"type":"Point","coordinates":[-106.18713,43.56536]},"properties":{"api":"4901905413","name":"UNIT STATE 0-15515 38","op":"CONOCO INC","co":"Johnson","st":"WY","trs":"T42N R78W S36","fm":null,"eur":null,"perft":null,"sound":false,"fit":"none","geur":null,"gfit":"refused"}},{"type":"Feature","geometry":{"type":"Point","coordinates":[-106.20283,43.56511]},"properties":{"api":"4901905415","name":"UNIT B-044636 54","op":"CONOCO INC","co":"Johnson","st":"WY","trs":"T42N R78W S35","fm":null,"eur":null,"perft":null,"sound":false,"fit":"none","geur":null,"gfit":"none"}},{"type":"Feature","geometry":{"type":"Point","coordinates":[-106.20454,43.56639]},"properties":{"api":"4901905419","name":"UNIT B-042446 30","op":"CONOCO INC","co":"Johnson","st":"WY","trs":"T42N R78W S35","fm":null,"eur":null,"perft":null,"sound":false,"fit":"none","geur":null,"gfit":"none"}},{"type":"Feature","geometry":{"type":"Point","coordinates":[-106.19961,43.56741]},"properties":{"api":"4901905421","name":"UNIT B-042446 27","op":"CONOCO INC","co":"Johnson","st":"WY","trs":"T42N R78W S35","fm":null,"eur":null,"perft":null,"sound":false,"fit":"none","geur":null,"gfit":"none"}},{"type":"Feature","geometry":{"type":"Point","coordinates":[-106.18963,43.56672]},"properties":{"api":"4901905423","name":"NMCU B-042446 26","op":"CONOCO INC","co":"Johnson","st":"WY","trs":"T42N R78W S35","fm":null,"eur":null,"perft":null,"sound":false,"fit":"none","geur":null,"gfit":"none"}},{"type":"Feature","geometry":{"type":"Point","coordinates":[-106.2051,43.56638]},"properties":{"api":"4901905424","name":"UNIT W-042446 61","op":"CONOCO INC","co":"Johnson","st":"WY","trs":"T42N R78W S35","fm":null,"eur":null,"perft":null,"sound":false,"fit":"refused","geur":null,"gfit":"none"}},{"type":"Feature","geometry":{"type":"Point","coordinates":[-106.19451,43.56731]},"properties":{"api":"4901905425","name":"UNIT B-042446 16","op":"CONOCO INC","co":"Johnson","st":"WY","trs":"T42N R78W S35","fm":null,"eur":null,"perft":null,"sound":false,"fit":"none","geur":null,"gfit":"none"}},{"type":"Feature","geometry":{"type":"Point","coordinates":[-106.17153,43.5684]},"properties":{"api":"4901905426","name":"UNIT STATE 0-2048 33","op":"CONOCO INC","co":"Johnson","st":"WY","trs":"T42N R78W S36","fm":null,"eur":null,"perft":null,"sound":false,"fit":"none","geur":null,"gfit":"none"}},{"type":"Feature","geometry":{"type":"Point","coordinates":[-106.18472,43.56771]},"properties":{"api":"4901905427","name":"UNIT STATE 0-2048 14","op":"CONOCO INC","co":"Johnson","st":"WY","trs":"T42N R78W S36","fm":null,"eur":null,"perft":null,"sound":false,"fit":"refused","geur":null,"gfit":"none"}},{"type":"Feature","geometry":{"type":"Point","coordinates":[-106.18622,43.56801]},"properties":{"api":"4901905429","name":"UNIT STATE 0-2048 34","op":"CONOCO INC","co":"Johnson","st":"WY","trs":"T42N R78W S36","fm":null,"eur":null,"perft":null,"sound":false,"fit":"none","geur":null,"gfit":"refused"}},{"type":"Feature","geometry":{"type":"Point","coordinates":[-106.19583,43.56778]},"properties":{"api":"4901905430","name":"UNIT B-042446 35","op":"CONOCO INC","co":"Johnson","st":"WY","trs":"T42N R78W S35","fm":null,"eur":null,"perft":null,"sound":false,"fit":"none","geur":null,"gfit":"none"}},{"type":"Feature","geometry":{"type":"Point","coordinates":[-106.18716,43.56849]},"properties":{"api":"4901905431","name":"UNIT STATE 0-2048 55","op":"CONOCO INC","co":"Johnson","st":"WY","trs":"T42N R78W S36","fm":null,"eur":null,"perft":null,"sound":false,"fit":"none","geur":null,"gfit":"none"}},{"type":"Feature","geometry":{"type":"Point","coordinates":[-106.20699,43.56815]},"properties":{"api":"4901905434","name":"UNIT B-042446 32","op":"CONOCO INC","co":"Johnson","st":"WY","trs":"T42N R78W S35","fm":null,"eur":null,"perft":null,"sound":false,"fit":"none","geur":null,"gfit":"none"}},{"type":"Feature","geometry":{"type":"Point","coordinates":[-106.1777,43.56982]},"properties":{"api":"4901905441","name":"UNIT STATE 0-2048 13","op":"CONOCO INC","co":"Johnson","st":"WY","trs":"T42N R78W S36","fm":null,"eur":null,"perft":null,"sound":false,"fit":"refused","geur":null,"gfit":"none"}},{"type":"Feature","geometry":{"type":"Point","coordinates":[-106.20078,43.56738]},"properties":{"api":"4901905442","name":"UNIT B-042446 36","op":"CONOCO INC","co":"Johnson","st":"WY","trs":"T42N R78W S35","fm":null,"eur":null,"perft":null,"sound":false,"fit":"none","geur":null,"gfit":"none"}},{"type":"Feature","geometry":{"type":"Point","coordinates":[-106.20944,43.56993]},"properties":{"api":"4901905443","name":"UNIT B-044519 52","op":"CONOCO INC","co":"Johnson","st":"WY","trs":"T42N R78W S34","fm":null,"eur":null,"perft":null,"sound":false,"fit":"refused","geur":null,"gfit":"none"}},{"type":"Feature","geometry":{"type":"Point","coordinates":[-106.18967,43.56993]},"properties":{"api":"4901905444","name":"UNIT B-042446 60","op":"CONOCO INC","co":"Johnson","st":"WY","trs":"T42N R78W S35","fm":null,"eur":null,"perft":null,"sound":false,"fit":"none","geur":null,"gfit":"none"}},{"type":"Feature","geometry":{"type":"Point","coordinates":[-106.20957,43.56391]},"properties":{"api":"4901905446","name":"UNIT B-044519 44","op":"CONOCO INC","co":"Johnson","st":"WY","trs":"T42N R78W S34","fm":null,"eur":null,"perft":null,"sound":false,"fit":"none","geur":null,"gfit":"none"}},{"type":"Feature","geometry":{"type":"Point","coordinates":[-106.1847,43.57062]},"properties":{"api":"4901905447","name":"UNIT STATE 0-2048 8","op":"CONOCO INC","co":"Johnson","st":"WY","trs":"T42N R78W S36","fm":null,"eur":null,"perft":null,"sound":false,"fit":"none","geur":null,"gfit":"none"}},{"type":"Feature","geometry":{"type":"Point","coordinates":[-106.19948,43.57013]},"properties":{"api":"4901905448","name":"NMCU W-01793 40","op":"CONOCO INC","co":"Johnson","st":"WY","trs":"T42N R78W S35","fm":null,"eur":null,"perft":null,"sound":false,"fit":"none","geur":null,"gfit":"none"}},{"type":"Feature","geometry":{"type":"Point","coordinates":[-106.17972,43.57095]},"properties":{"api":"4901905449","name":"UNIT STATE 0-2048 11","op":"CONOCO INC","co":"Johnson","st":"WY","trs":"T42N R78W S36","fm":null,"eur":null,"perft":null,"sound":false,"fit":"refused","geur":null,"gfit":"none"}},{"type":"Feature","geometry":{"type":"Point","coordinates":[-106.18968,43.57034]},"properties":{"api":"4901905450","name":"UNIT B-042446 21","op":"CONOCO INC","co":"Johnson","st":"WY","trs":"T42N R78W S35","fm":null,"eur":null,"perft":null,"sound":false,"fit":"refused","geur":null,"gfit":"refused"}},{"type":"Feature","geometry":{"type":"Point","coordinates":[-106.20004,43.57011]},"properties":{"api":"4901905452","name":"UNIT W-01793 65","op":"CONOCO INC","co":"Johnson","st":"WY","trs":"T42N R78W S35","fm":null,"eur":null,"perft":null,"sound":false,"fit":"none","geur":null,"gfit":"none"}},{"type":"Feature","geometry":{"type":"Point","coordinates":[-106.20446,43.57002]},"properties":{"api":"4901905453","name":"UNIT B-042446 31","op":"CONOCO INC","co":"Johnson","st":"WY","trs":"T42N R78W S35","fm":null,"eur":null,"perft":null,"sound":false,"fit":"none","geur":null,"gfit":"none"}},{"type":"Feature","geometry":{"type":"Point","coordinates":[-106.19459,43.57056]},"properties":{"api":"4901905455","name":"UNIT B-042446 15","op":"CONOCO INC","co":"Johnson","st":"WY","trs":"T42N R78W S35","fm":null,"eur":null,"perft":null,"sound":false,"fit":"none","geur":null,"gfit":"none"}},{"type":"Feature","geometry":{"type":"Point","coordinates":[-106.20117,43.57063]},"properties":{"api":"4901905457","name":"UNIT W-01793 25","op":"CONOCO INC","co":"Johnson","st":"WY","trs":"T42N R78W S35","fm":null,"eur":null,"perft":null,"sound":false,"fit":"none","geur":null,"gfit":"none"}},{"type":"Feature","geometry":{"type":"Point","coordinates":[-106.18128,43.57178]},"properties":{"api":"4901905458","name":"UNIT STATE 0-2048 29","op":"CONOCO INC","co":"Johnson","st":"WY","trs":"T42N R78W S36","fm":null,"eur":null,"perft":null,"sound":false,"fit":"refused","geur":null,"gfit":"refused"}},{"type":"Feature","geometry":{"type":"Point","coordinates":[-106.17148,43.57214]},"properties":{"api":"4901905459","name":"UNIT STATE 0-2048 31","op":"CONOCO INC","co":"Johnson","st":"WY","trs":"T42N R78W S36","fm":null,"eur":null,"perft":null,"sound":false,"fit":"none","geur":null,"gfit":"none"}},{"type":"Feature","geometry":{"type":"Point","coordinates":[-106.19111,43.57151]},"properties":{"api":"4901905460","name":"UNIT B-042446 27","op":"CONOCO INC","co":"Johnson","st":"WY","trs":"T42N R78W S35","fm":null,"eur":null,"perft":null,"sound":false,"fit":"refused","geur":null,"gfit":"refused"}},{"type":"Feature","geometry":{"type":"Point","coordinates":[-106.17661,43.57223]},"properties":{"api":"4901905461","name":"UNIT STATE 0-2048 30","op":"CONOCO INC","co":"Johnson","st":"WY","trs":"T42N R78W S36","fm":null,"eur":null,"perft":null,"sound":false,"fit":"none","geur":null,"gfit":"none"}},{"type":"Feature","geometry":{"type":"Point","coordinates":[-106.18591,43.57167]},"properties":{"api":"4901905462","name":"UNIT STATE 0-2048 28","op":"CONOCO INC","co":"Johnson","st":"WY","trs":"T42N R78W S36","fm":null,"eur":null,"perft":null,"sound":false,"fit":"refused","geur":null,"gfit":"refused"}},{"type":"Feature","geometry":{"type":"Point","coordinates":[-106.19591,43.57167]},"properties":{"api":"4901905464","name":"UNIT B-042446 26","op":"CONOCO INC","co":"Johnson","st":"WY","trs":"T42N R78W S35","fm":null,"eur":null,"perft":null,"sound":false,"fit":"refused","geur":null,"gfit":"refused"}},{"type":"Feature","geometry":{"type":"Point","coordinates":[-106.20804,43.57175]},"properties":{"api":"4901905466","name":"UNIT B-042446 59","op":"CONOCO INC","co":"Johnson","st":"WY","trs":"T42N R78W S35","fm":null,"eur":null,"perft":null,"sound":false,"fit":"none","geur":null,"gfit":"none"}},{"type":"Feature","geometry":{"type":"Point","coordinates":[-106.19219,43.57209]},"properties":{"api":"4901905470","name":"UNIT B-042446 19","op":"CONOCO INC","co":"Johnson","st":"WY","trs":"T42N R78W S35","fm":null,"eur":null,"perft":null,"sound":false,"fit":"none","geur":null,"gfit":"none"}},{"type":"Feature","geometry":{"type":"Point","coordinates":[-106.17739,43.57291]},"properties":{"api":"4901905471","name":"9 NMC UNIT 9","op":"CONOCO INC","co":"Johnson","st":"WY","trs":"T42N R78W S36","fm":null,"eur":null,"perft":null,"sound":false,"fit":"none","geur":null,"gfit":"none"}},{"type":"Feature","geometry":{"type":"Point","coordinates":[-106.18222,43.57269]},"properties":{"api":"4901905472","name":"UNIT STATE 0-2048 57","op":"CONOCO INC","co":"Johnson","st":"WY","trs":"T42N R78W S36","fm":null,"eur":null,"perft":null,"sound":false,"fit":"none","geur":null,"gfit":"none"}},{"type":"Feature","geometry":{"type":"Point","coordinates":[-106.18694,43.57269]},"properties":{"api":"4901905474","name":"UNIT STATE 0-2048 56","op":"CONOCO INC","co":"Johnson","st":"WY","trs":"T42N R78W S36","fm":null,"eur":null,"perft":null,"sound":false,"fit":"none","geur":null,"gfit":"none"}},{"type":"Feature","geometry":{"type":"Point","coordinates":[-106.185,43.57401]},"properties":{"api":"4901905475","name":"UNIT B-042446 62","op":"CONOCO INC","co":"Johnson","st":"WY","trs":"T42N R78W S25","fm":null,"eur":null,"perft":null,"sound":false,"fit":"none","geur":null,"gfit":"none"}},{"type":"Feature","geometry":{"type":"Point","coordinates":[-106.17981,43.57461]},"properties":{"api":"4901905477","name":"NMCU B-042446 34","op":"CONOCO INC","co":"Johnson","st":"WY","trs":"T42N R78W S25","fm":null,"eur":null,"perft":null,"sound":false,"fit":"none","geur":null,"gfit":"none"}},{"type":"Feature","geometry":{"type":"Point","coordinates":[-106.18475,43.57424]},"properties":{"api":"4901905480","name":"UNIT B-042446 29","op":"CONOCO INC","co":"Johnson","st":"WY","trs":"T42N R78W S25","fm":null,"eur":null,"perft":null,"sound":false,"fit":"none","geur":null,"gfit":"none"}},{"type":"Feature","geometry":{"type":"Point","coordinates":[-106.19955,43.57373]},"properties":{"api":"4901905484","name":"NMCU B-042446 17","op":"CONOCO INC","co":"Johnson","st":"WY","trs":"T42N R78W S26","fm":null,"eur":null,"perft":null,"sound":false,"fit":"none","geur":null,"gfit":"none"}},{"type":"Feature","geometry":{"type":"Point","coordinates":[-106.20144,43.57406]},"properties":{"api":"4901905485","name":"23 NMC UNIT 23","op":"CONOCO INC","co":"Johnson","st":"WY","trs":"T42N R78W S26","fm":null,"eur":null,"perft":null,"sound":false,"fit":"none","geur":null,"gfit":"none"}},{"type":"Feature","geometry":{"type":"Point","coordinates":[-106.1947,43.57385]},"properties":{"api":"4901905486","name":"UNIT B-042446 23","op":"CONOCO INC","co":"Johnson","st":"WY","trs":"T42N R78W S26","fm":null,"eur":null,"perft":null,"sound":false,"fit":"none","geur":null,"gfit":"none"}},{"type":"Feature","geometry":{"type":"Point","coordinates":[-106.19113,43.5744]},"properties":{"api":"4901905488","name":"UNIT B-042446 22","op":"CONOCO INC","co":"Johnson","st":"WY","trs":"T42N R78W S26","fm":null,"eur":null,"perft":null,"sound":false,"fit":"refused","geur":null,"gfit":"refused"}},{"type":"Feature","geometry":{"type":"Point","coordinates":[-106.17148,43.5761]},"properties":{"api":"4901905489","name":"UNIT W-01806 18","op":"CONOCO INC","co":"Johnson","st":"WY","trs":"T42N R78W S25","fm":null,"eur":null,"perft":null,"sound":false,"fit":"refused","geur":null,"gfit":"refused"}},{"type":"Feature","geometry":{"type":"Point","coordinates":[-106.18649,43.57491]},"properties":{"api":"4901905490","name":"UNIT B-042446 21","op":"CONOCO INC","co":"Johnson","st":"WY","trs":"T42N R78W S25","fm":null,"eur":null,"perft":null,"sound":false,"fit":"none","geur":null,"gfit":"none"}},{"type":"Feature","geometry":{"type":"Point","coordinates":[-106.17696,43.57567]},"properties":{"api":"4901905491","name":"UNIT B-044639 19","op":"CONOCO INC","co":"Johnson","st":"WY","trs":"T42N R78W S25","fm":null,"eur":null,"perft":null,"sound":false,"fit":"none","geur":null,"gfit":"none"}},{"type":"Feature","geometry":{"type":"Point","coordinates":[-106.19946,43.57556]},"properties":{"api":"4901905494","name":"UNIT B-042446 36","op":"CONOCO INC","co":"Johnson","st":"WY","trs":"T42N R78W S26","fm":null,"eur":null,"perft":null,"sound":false,"fit":"none","geur":null,"gfit":"none"}},{"type":"Feature","geometry":{"type":"Point","coordinates":[-106.18979,43.57738]},"properties":{"api":"4901905500","name":"UNIT B-044636 69","op":"CONOCO INC","co":"Johnson","st":"WY","trs":"T42N R78W S26","fm":null,"eur":null,"perft":null,"sound":false,"fit":"none","geur":null,"gfit":"none"}},{"type":"Feature","geometry":{"type":"Point","coordinates":[-106.18549,43.57808]},"properties":{"api":"4901905501","name":"UNIT B-042446 14","op":"CONOCO INC","co":"Johnson","st":"WY","trs":"T42N R78W S25","fm":null,"eur":null,"perft":null,"sound":false,"fit":"none","geur":null,"gfit":"none"}},{"type":"Feature","geometry":{"type":"Point","coordinates":[-106.18979,43.57758]},"properties":{"api":"4901905502","name":"UNIT B-044636 46","op":"CONOCO INC","co":"Johnson","st":"WY","trs":"T42N R78W S26","fm":null,"eur":null,"perft":null,"sound":false,"fit":"none","geur":null,"gfit":"none"}},{"type":"Feature","geometry":{"type":"Point","coordinates":[-106.18979,43.57758]},"properties":{"api":"4901905505","name":"UNIT B-044636 68","op":"CONOCO INC","co":"Johnson","st":"WY","trs":"T42N R78W S26","fm":null,"eur":null,"perft":null,"sound":false,"fit":"none","geur":null,"gfit":"none"}},{"type":"Feature","geometry":{"type":"Point","coordinates":[-106.19535,43.57802]},"properties":{"api":"4901905507","name":"UNIT W-01805 12","op":"CONOCO INC","co":"Johnson","st":"WY","trs":"T42N R78W S26","fm":null,"eur":null,"perft":null,"sound":false,"fit":"none","geur":null,"gfit":"none"}},{"type":"Feature","geometry":{"type":"Point","coordinates":[-106.17638,43.57884]},"properties":{"api":"4901905510","name":"NO MEADOW CREEK UNIT 15","op":"CONOCO INC","co":"Johnson","st":"WY","trs":"T42N R78W S25","fm":null,"eur":null,"perft":null,"sound":false,"fit":"none","geur":null,"gfit":"none"}},{"type":"Feature","geometry":{"type":"Point","coordinates":[-106.20056,43.57889]},"properties":{"api":"4901905513","name":"UNIT B-044636 11","op":"CONOCO INC","co":"Johnson","st":"WY","trs":"T42N R78W S26","fm":null,"eur":null,"perft":null,"sound":false,"fit":"none","geur":null,"gfit":"none"}},{"type":"Feature","geometry":{"type":"Point","coordinates":[-106.20731,43.58653]},"properties":{"api":"4901905514","name":"UNIT B-044636 13","op":"CONOCO INC","co":"Johnson","st":"WY","trs":"T42N R78W S26","fm":null,"eur":null,"perft":null,"sound":false,"fit":"none","geur":null,"gfit":"none"}},{"type":"Feature","geometry":{"type":"Point","coordinates":[-106.20465,43.58084]},"properties":{"api":"4901905518","name":"UNIT B-044519A 10","op":"CONOCO INC","co":"Johnson","st":"WY","trs":"T42N R78W S26","fm":null,"eur":null,"perft":null,"sound":false,"fit":"none","geur":null,"gfit":"none"}},{"type":"Feature","geometry":{"type":"Point","coordinates":[-106.18714,43.58679]},"properties":{"api":"4901905521","name":"UNIT B-044519-A 7","op":"CONOCO INC","co":"Johnson","st":"WY","trs":"T42N R78W S25","fm":null,"eur":null,"perft":null,"sound":false,"fit":"none","geur":null,"gfit":"none"}},{"type":"Feature","geometry":{"type":"Point","coordinates":[-106.19225,43.57572]},"properties":{"api":"4901905526","name":"NO MEADOW CREEK UNIT 8","op":"CONOCO INC","co":"Johnson","st":"WY","trs":"T42N R78W S26","fm":null,"eur":null,"perft":null,"sound":false,"fit":"none","geur":null,"gfit":"none"}},{"type":"Feature","geometry":{"type":"Point","coordinates":[-106.20693,43.5754]},"properties":{"api":"4901905527","name":"UNIT PATENTED 9","op":"CONOCO INC","co":"Johnson","st":"WY","trs":"T42N R78W S26","fm":null,"eur":null,"perft":null,"sound":false,"fit":"none","geur":null,"gfit":"none"}},{"type":"Feature","geometry":{"type":"Point","coordinates":[-106.20635,43.57451]},"properties":{"api":"4901905535","name":"UNIT W-01805 24","op":"CONOCO INC","co":"Johnson","st":"WY","trs":"T42N R78W S26","fm":null,"eur":null,"perft":null,"sound":false,"fit":"none","geur":null,"gfit":"none"}},{"type":"Feature","geometry":{"type":"Point","coordinates":[-106.18123,43.57559]},"properties":{"api":"4901906305","name":"UNIT B-042446 20","op":"CONOCO INC","co":"Johnson","st":"WY","trs":"T42N R78W S25","fm":null,"eur":null,"perft":null,"sound":false,"fit":"refused","geur":null,"gfit":"refused"}},{"type":"Feature","geometry":{"type":"Point","coordinates":[-106.17234,43.56991]},"properties":{"api":"4901906306","name":"NO MEADOW CRK 0-2048 70","op":"CONOCO INC","co":"Johnson","st":"WY","trs":"T42N R78W S36","fm":null,"eur":null,"perft":null,"sound":false,"fit":"none","geur":null,"gfit":"none"}},{"type":"Feature","geometry":{"type":"Point","coordinates":[-106.20831,43.57059]},"properties":{"api":"4901906307","name":"UNIT B-044519 4","op":"CONOCO INC","co":"Johnson","st":"WY","trs":"T42N R78W S34","fm":null,"eur":null,"perft":null,"sound":false,"fit":"none","geur":null,"gfit":"none"}},{"type":"Feature","geometry":{"type":"Point","coordinates":[-106.17841,43.56672]},"properties":{"api":"4901920071","name":"NO MEADOW CREEK UNIT 50","op":"CONOCO INC","co":"Johnson","st":"WY","trs":"T42N R78W S36","fm":null,"eur":null,"perft":null,"sound":false,"fit":"none","geur":null,"gfit":"none"}},{"type":"Feature","geometry":{"type":"Point","coordinates":[-106.17128,43.58355]},"properties":{"api":"4901905522","name":"UNIT PATENTED 6","op":"CONOCO INC","co":"Johnson","st":"WY","trs":"T42N R78W S25","fm":null,"eur":null,"perft":null,"sound":false,"fit":"none","geur":null,"gfit":"none"}},{"type":"Feature","geometry":{"type":"Point","coordinates":[-106.19012,43.58452]},"properties":{"api":"4901905528","name":"UNIT PATENTED MCU 4","op":"CONOCO INC","co":"Johnson","st":"WY","trs":"T42N R78W S26","fm":null,"eur":null,"perft":null,"sound":false,"fit":"none","geur":null,"gfit":"none"}},{"type":"Feature","geometry":{"type":"Point","coordinates":[-106.19453,43.58452]},"properties":{"api":"4901905529","name":"UNIT PATENTED 3","op":"CONOCO INC","co":"Johnson","st":"WY","trs":"T42N R78W S26","fm":null,"eur":null,"perft":null,"sound":false,"fit":"none","geur":null,"gfit":"none"}},{"type":"Feature","geometry":{"type":"Point","coordinates":[-106.18721,43.57226]},"properties":{"api":"4901905530","name":"STATE 5","op":"CONOCO INC","co":"Johnson","st":"WY","trs":"T42N R78W S36","fm":null,"eur":null,"perft":null,"sound":false,"fit":"none","geur":null,"gfit":"none"}},{"type":"Feature","geometry":{"type":"Point","coordinates":[-106.19937,43.58631]},"properties":{"api":"4901905537","name":"UNIT B-044519-A 1","op":"CONOCO INC","co":"Johnson","st":"WY","trs":"T42N R78W S26","fm":null,"eur":null,"perft":null,"sound":false,"fit":"refused","geur":null,"gfit":"refused"}},{"type":"Feature","geometry":{"type":"Point","coordinates":[-106.19821,43.58659]},"properties":{"api":"4901905541","name":"NO MEADOW CREEK UNIT 2","op":"CONOCO INC","co":"Johnson","st":"WY","trs":"T42N R78W S26","fm":null,"eur":null,"perft":null,"sound":false,"fit":"refused","geur":null,"gfit":"refused"}},{"type":"Feature","geometry":{"type":"Point","coordinates":[-106.25312,43.60272]},"properties":{"api":"4901920734","name":"SUSSEX UNIT 211","op":"CONTANGO RESOURCES LLC","co":"Johnson","st":"WY","trs":"T42N R78W S17","fm":null,"eur":827306,"perft":null,"sound":true,"fit":"sound","geur":null,"gfit":"refused"}},{"type":"Feature","geometry":{"type":"Point","coordinates":[-106.24292,43.60106]},"properties":{"api":"4901920752","name":"SUSSEX UNIT 214","op":"CONTANGO RESOURCES LLC","co":"Johnson","st":"WY","trs":"T42N R78W S21","fm":null,"eur":null,"perft":null,"sound":false,"fit":"refused","geur":null,"gfit":"refused"}},{"type":"Feature","geometry":{"type":"Point","coordinates":[-106.27113,43.60803]},"properties":{"api":"4901905655","name":"SUSSEX UNIT 12","op":"WESTPORT OIL & GAS COMPANY LP","co":"Johnson","st":"WY","trs":"T42N R78W S18","fm":null,"eur":null,"perft":null,"sound":false,"fit":"none","geur":null,"gfit":"none"}},{"type":"Feature","geometry":{"type":"Point","coordinates":[-106.23831,43.6077]},"properties":{"api":"4901920907","name":"SUSSEX UNIT 225","op":"WESTPORT OIL & GAS COMPANY LP","co":"Johnson","st":"WY","trs":"T42N R78W S16","fm":null,"eur":null,"perft":null,"sound":false,"fit":"none","geur":null,"gfit":"none"}},{"type":"Feature","geometry":{"type":"Point","coordinates":[-106.21443,43.5989]},"properties":{"api":"4901905582","name":"SUSSEX UNIT 22","op":"WESTPORT OIL & GAS COMPANY LP","co":"Johnson","st":"WY","trs":"T42N R78W S22","fm":null,"eur":null,"perft":null,"sound":false,"fit":"none","geur":null,"gfit":"none"}},{"type":"Feature","geometry":{"type":"Point","coordinates":[-106.20719,43.60799]},"properties":{"api":"4901905662","name":"SUSSEX UNIT 43","op":"WESTPORT OIL & GAS COMPANY LP","co":"Johnson","st":"WY","trs":"T42N R78W S14","fm":null,"eur":null,"perft":null,"sound":false,"fit":"none","geur":null,"gfit":"none"}},{"type":"Feature","geometry":{"type":"Point","coordinates":[-106.22442,43.60045]},"properties":{"api":"4901920055","name":"SUSSEX UNIT 193","op":"CONTANGO RESOURCES LLC","co":"Johnson","st":"WY","trs":"T42N R78W S22","fm":null,"eur":null,"perft":null,"sound":false,"fit":"refused","geur":null,"gfit":"refused"}},{"type":"Feature","geometry":{"type":"Point","coordinates":[-106.25928,43.6029]},"properties":{"api":"4901920793","name":"SUSSEX UNIT 219","op":"FDL OPERATING LLC","co":"Johnson","st":"WY","trs":"T42N R78W S17","fm":null,"eur":27750,"perft":null,"sound":true,"fit":"sound","geur":null,"gfit":"none"}},{"type":"Feature","geometry":{"type":"Point","coordinates":[-106.26628,43.60616]},"properties":{"api":"4901905628","name":"SUSSEX UNIT 78","op":"WESTPORT OIL & GAS COMPANY LP","co":"Johnson","st":"WY","trs":"T42N R78W S17","fm":null,"eur":null,"perft":null,"sound":false,"fit":"none","geur":null,"gfit":"none"}},{"type":"Feature","geometry":{"type":"Point","coordinates":[-106.27627,43.60803]},"properties":{"api":"4901905652","name":"SUSSEX UNIT 24","op":"WESTPORT OIL & GAS COMPANY LP","co":"Johnson","st":"WY","trs":"T42N R78W S18","fm":null,"eur":null,"perft":null,"sound":false,"fit":"none","geur":null,"gfit":"none"}},{"type":"Feature","geometry":{"type":"Point","coordinates":[-106.28362,43.60696]},"properties":{"api":"4901920346","name":"SUSSEX UNIT 209","op":"CONTANGO RESOURCES LLC","co":"Johnson","st":"WY","trs":"T42N R78W S18","fm":null,"eur":null,"perft":null,"sound":false,"fit":"refused","geur":null,"gfit":"none"}},{"type":"Feature","geometry":{"type":"Point","coordinates":[-106.2216,43.60959]},"properties":{"api":"4901905678","name":"SUSSEX UNIT 141","op":"FDL OPERATING LLC","co":"Johnson","st":"WY","trs":"T42N R78W S15","fm":null,"eur":null,"perft":null,"sound":false,"fit":"refused","geur":null,"gfit":"refused"}},{"type":"Feature","geometry":{"type":"Point","coordinates":[-106.20474,43.60453]},"properties":{"api":"4901905615","name":"SUSSEX UNIT 151","op":"WESTPORT OIL & GAS COMPANY LP","co":"Johnson","st":"WY","trs":"T42N R78W S14","fm":null,"eur":7423,"perft":null,"sound":true,"fit":"sound","geur":null,"gfit":"none"}},{"type":"Feature","geometry":{"type":"Point","coordinates":[-106.28307,43.6086]},"properties":{"api":"4901920221","name":"SUSSEX UNIT 202","op":"CONTANGO RESOURCES LLC","co":"Johnson","st":"WY","trs":"T42N R78W S18","fm":null,"eur":null,"perft":null,"sound":false,"fit":"none","geur":null,"gfit":"none"}}]}