{"type":"FeatureCollection","features":[{"type":"Feature","geometry":{"type":"Point","coordinates":[-105.668,43.68]},"properties":{"api":"4900545589","name":"STARLIGHT  FEDERAL COM 29H","op":"EOG RESOURCES INC","co":"Campbell","st":"WY","trs":"T43N R73W S19","fm":"PARKMAN","eur":null,"perft":null,"sound":false,"fit":"refused","geur":null,"gfit":"refused"}},{"type":"Feature","geometry":{"type":"Point","coordinates":[-105.6744,43.7222]},"properties":{"api":"4900561153","name":"GROVES 49H","op":"EOG RESOURCES INC","co":"Campbell","st":"WY","trs":"T43N R73W S6","fm":"TURNER","eur":589373,"perft":125239,"sound":true,"fit":"sound","geur":null,"gfit":"refused"}},{"type":"Feature","geometry":{"type":"Point","coordinates":[-105.5822,43.6504]},"properties":{"api":"4900561226","name":"MUSTANG STATE 19H","op":"EOG RESOURCES INC","co":"Campbell","st":"WY","trs":"T43N R73W S36","fm":"TURNER","eur":383925,"perft":93755,"sound":true,"fit":"sound","geur":null,"gfit":"refused"}},{"type":"Feature","geometry":{"type":"Point","coordinates":[-105.6528,43.677]},"properties":{"api":"4900561271","name":"DRAKE FEDERAL 31-29 TH","op":"BALLARD PETROLEUM HOLDINGS LLC","co":"Campbell","st":"WY","trs":"T43N R73W S29","fm":"TURNER","eur":320131,"perft":91597,"sound":true,"fit":"sound","geur":null,"gfit":"refused"}},{"type":"Feature","geometry":{"type":"Point","coordinates":[-105.5974,43.6772]},"properties":{"api":"4900561318","name":"SHAMROCK COM 1H","op":"EOG RESOURCES INC","co":"Campbell","st":"WY","trs":"T43N R73W S26","fm":"TURNER","eur":390989,"perft":96137,"sound":true,"fit":"sound","geur":488544,"gfit":"sound"}},{"type":"Feature","geometry":{"type":"Point","coordinates":[-105.6559,43.7087]},"properties":{"api":"4900561456","name":"THIELEN 2H","op":"EOG RESOURCES INC","co":"Campbell","st":"WY","trs":"T43N R73W S8","fm":"TURNER","eur":461116,"perft":null,"sound":true,"fit":"sound","geur":null,"gfit":"refused"}},{"type":"Feature","geometry":{"type":"Point","coordinates":[-105.6656,43.6495]},"properties":{"api":"4900561484","name":"LEAVITT TRUST 44-31 T H","op":"BALLARD PETROLEUM HOLDINGS LLC","co":"Campbell","st":"WY","trs":"T43N R73W S31","fm":"TURNER","eur":337573,"perft":112788,"sound":true,"fit":"sound","geur":null,"gfit":"refused"}},{"type":"Feature","geometry":{"type":"Point","coordinates":[-105.6255,43.6643]},"properties":{"api":"4900561486","name":"GROVES TRUST 44-28 T H","op":"BALLARD PETROLEUM HOLDINGS LLC","co":"Campbell","st":"WY","trs":"T43N R73W S28","fm":"TURNER","eur":557183,"perft":129819,"sound":true,"fit":"sound","geur":null,"gfit":"refused"}},{"type":"Feature","geometry":{"type":"Point","coordinates":[-105.657,43.7211]},"properties":{"api":"4900561501","name":"GROVES COM 51H","op":"EOG RESOURCES INC","co":"Campbell","st":"WY","trs":"T43N R73W S8","fm":"TURNER","eur":406537,"perft":92311,"sound":true,"fit":"sound","geur":489642,"gfit":"sound"}},{"type":"Feature","geometry":{"type":"Point","coordinates":[-105.6739,43.6937]},"properties":{"api":"4900561567","name":"GROVES COM 52H","op":"EOG RESOURCES INC","co":"Campbell","st":"WY","trs":"T43N R73W S18","fm":"TURNER","eur":429713,"perft":99957,"sound":true,"fit":"sound","geur":632545,"gfit":"sound"}},{"type":"Feature","geometry":{"type":"Point","coordinates":[-105.6774,43.7212]},"properties":{"api":"4900561613","name":"STARLIGHT FEDERAL  COM 28H","op":"EOG RESOURCES INC","co":"Campbell","st":"WY","trs":"T43N R73W S7","fm":"TURNER","eur":557540,"perft":129751,"sound":true,"fit":"sound","geur":null,"gfit":"refused"}},{"type":"Feature","geometry":{"type":"Point","coordinates":[-105.6055,43.7211]},"properties":{"api":"4900561625","name":"BONITA FEDERAL COM 11H","op":"EOG RESOURCES INC","co":"Campbell","st":"WY","trs":"T43N R73W S10","fm":"TURNER","eur":328751,"perft":70836,"sound":true,"fit":"sound","geur":163229,"gfit":"sound"}},{"type":"Feature","geometry":{"type":"Point","coordinates":[-105.5722,43.65]},"properties":{"api":"4900561719","name":"MUSTANG STATE 20H","op":"EOG RESOURCES INC","co":"Campbell","st":"WY","trs":"T43N R73W S36","fm":"TURNER","eur":303122,"perft":null,"sound":true,"fit":"sound","geur":480033,"gfit":"sound"}},{"type":"Feature","geometry":{"type":"Point","coordinates":[-105.6702,43.6775]},"properties":{"api":"4900561723","name":"DRAKE TRUST 31-30 T H","op":"BALLARD PETROLEUM HOLDINGS LLC","co":"Campbell","st":"WY","trs":"T43N R73W S30","fm":"TURNER","eur":399362,"perft":null,"sound":true,"fit":"sound","geur":207737,"gfit":"sound"}},{"type":"Feature","geometry":{"type":"Point","coordinates":[-105.6158,43.6925]},"properties":{"api":"4900561729","name":"CRAZY BUFFALO 2H","op":"EOG RESOURCES INC","co":"Campbell","st":"WY","trs":"T43N R73W S22","fm":"TURNER","eur":333402,"perft":71042,"sound":true,"fit":"sound","geur":null,"gfit":"refused"}},{"type":"Feature","geometry":{"type":"Point","coordinates":[-105.6432,43.6503]},"properties":{"api":"4900561737","name":"GROVES TRUST 14-33 T H","op":"BALLARD PETROLEUM HOLDINGS LLC","co":"Campbell","st":"WY","trs":"T43N R73W S33","fm":"TURNER","eur":276346,"perft":null,"sound":true,"fit":"sound","geur":271513,"gfit":"sound"}},{"type":"Feature","geometry":{"type":"Point","coordinates":[-105.6775,43.7359]},"properties":{"api":"4900561752","name":"GROVES 54H","op":"EOG RESOURCES INC","co":"Campbell","st":"WY","trs":"T43N R73W S6","fm":"TURNER","eur":520852,"perft":115565,"sound":true,"fit":"sound","geur":null,"gfit":"refused"}},{"type":"Feature","geometry":{"type":"Point","coordinates":[-105.609,43.6784]},"properties":{"api":"4900561753","name":"SKYLINE FED 44-22-22T1H","op":"TRUE OIL LLC","co":"Campbell","st":"WY","trs":"T43N R73W S22","fm":"TURNER","eur":388992,"perft":89096,"sound":true,"fit":"sound","geur":633641,"gfit":"sound"}},{"type":"Feature","geometry":{"type":"Point","coordinates":[-105.656,43.6507]},"properties":{"api":"4900561759","name":"LEAVITT TRUST 24-32 T H","op":"BALLARD PETROLEUM HOLDINGS LLC","co":"Campbell","st":"WY","trs":"T43N R73W S32","fm":"TURNER","eur":181497,"perft":74171,"sound":true,"fit":"sound","geur":133160,"gfit":"sound"}},{"type":"Feature","geometry":{"type":"Point","coordinates":[-105.5991,43.6784]},"properties":{"api":"4900561767","name":"SKYLINE FED 14-23 23T1H","op":"TRUE OIL LLC","co":"Campbell","st":"WY","trs":"T43N R73W S23","fm":"TURNER","eur":450569,"perft":101229,"sound":true,"fit":"sound","geur":582249,"gfit":"sound"}},{"type":"Feature","geometry":{"type":"Point","coordinates":[-105.6506,43.736]},"properties":{"api":"4900561818","name":"WILLARD COM 11H","op":"EOG RESOURCES INC","co":"Campbell","st":"WY","trs":"T43N R73W S5","fm":"TURNER","eur":412301,"perft":95906,"sound":true,"fit":"sound","geur":null,"gfit":"refused"}},{"type":"Feature","geometry":{"type":"Point","coordinates":[-105.5858,43.6627]},"properties":{"api":"4900561847","name":"GAELIC 1H","op":"EOG RESOURCES INC","co":"Campbell","st":"WY","trs":"T43N R73W S35","fm":"TURNER","eur":337965,"perft":null,"sound":true,"fit":"sound","geur":null,"gfit":"refused"}},{"type":"Feature","geometry":{"type":"Point","coordinates":[-105.5715,43.6639]},"properties":{"api":"4900561887","name":"FOLKLORE COM 1H","op":"EOG RESOURCES INC","co":"Campbell","st":"WY","trs":"T43N R73W S25","fm":"TURNER","eur":285060,"perft":null,"sound":true,"fit":"sound","geur":null,"gfit":"refused"}},{"type":"Feature","geometry":{"type":"Point","coordinates":[-105.6062,43.6617]},"properties":{"api":"4900561894","name":"LEAVITT TRUST FED 41-34 TH","op":"BALLARD PETROLEUM HOLDINGS LLC","co":"Campbell","st":"WY","trs":"T43N R73W S34","fm":"TURNER","eur":361453,"perft":null,"sound":true,"fit":"sound","geur":777108,"gfit":"sound"}},{"type":"Feature","geometry":{"type":"Point","coordinates":[-105.6029,43.7078]},"properties":{"api":"4900561923","name":"MONTE FED COM 59H","op":"EOG RESOURCES INC","co":"Campbell","st":"WY","trs":"T43N R73W S11","fm":"TURNER","eur":241405,"perft":54285,"sound":true,"fit":"sound","geur":null,"gfit":"refused"}},{"type":"Feature","geometry":{"type":"Point","coordinates":[-105.6054,43.7356]},"properties":{"api":"4900561925","name":"EDRA COM 9H","op":"EOG RESOURCES INC","co":"Campbell","st":"WY","trs":"T43N R73W S3","fm":"TURNER","eur":null,"perft":null,"sound":false,"fit":"refused","geur":75585,"gfit":"sound"}},{"type":"Feature","geometry":{"type":"Point","coordinates":[-105.626,43.6789]},"properties":{"api":"4900561997","name":"THIELEN 1-21TH","op":"PEAK POWDER RIVER RESOURCES LLC","co":"Campbell","st":"WY","trs":"T43N R73W S21","fm":"TURNER","eur":345417,"perft":null,"sound":true,"fit":"sound","geur":939578,"gfit":"sound"}},{"type":"Feature","geometry":{"type":"Point","coordinates":[-105.6358,43.6789]},"properties":{"api":"4900561998","name":"THIELEN 2-21TH","op":"PEAK POWDER RIVER RESOURCES LLC","co":"Campbell","st":"WY","trs":"T43N R73W S21","fm":"TURNER","eur":562343,"perft":null,"sound":true,"fit":"sound","geur":null,"gfit":"refused"}},{"type":"Feature","geometry":{"type":"Point","coordinates":[-105.6358,43.679]},"properties":{"api":"4900562001","name":"THIELEN 2-21PH","op":"PEAK POWDER RIVER RESOURCES LLC","co":"Campbell","st":"WY","trs":"T43N R73W S21","fm":"PARKMAN","eur":363799,"perft":null,"sound":true,"fit":"sound","geur":423328,"gfit":"sound"}},{"type":"Feature","geometry":{"type":"Point","coordinates":[-105.6554,43.6774]},"properties":{"api":"4900562094","name":"BUCKIN BRONC FED COM 3H","op":"EOG RESOURCES INC","co":"Campbell","st":"WY","trs":"T43N R73W S29","fm":"TURNER","eur":631657,"perft":129757,"sound":true,"fit":"sound","geur":null,"gfit":"refused"}},{"type":"Feature","geometry":{"type":"Point","coordinates":[-105.6363,43.736]},"properties":{"api":"4900562136","name":"ROCKY BUTTE FED COM 29H","op":"EOG RESOURCES INC","co":"Campbell","st":"WY","trs":"T43N R73W S4","fm":"TURNER","eur":440290,"perft":92654,"sound":true,"fit":"sound","geur":427583,"gfit":"sound"}},{"type":"Feature","geometry":{"type":"Point","coordinates":[-105.6643,43.7223]},"properties":{"api":"4900562137","name":"CHIME COM 1H","op":"EOG RESOURCES INC","co":"Campbell","st":"WY","trs":"T43N R73W S5","fm":"TURNER","eur":316251,"perft":67923,"sound":true,"fit":"sound","geur":null,"gfit":"refused"}},{"type":"Feature","geometry":{"type":"Point","coordinates":[-105.6132,43.6928]},"properties":{"api":"4900562202","name":"BUNN FEDERAL 25H","op":"EOG RESOURCES INC","co":"Campbell","st":"WY","trs":"T43N R73W S15","fm":"TURNER","eur":352988,"perft":77682,"sound":true,"fit":"sound","geur":300969,"gfit":"sound"}},{"type":"Feature","geometry":{"type":"Point","coordinates":[-105.6029,43.6932]},"properties":{"api":"4900562242","name":"BUNN FEDERAL 24H","op":"EOG RESOURCES INC","co":"Campbell","st":"WY","trs":"T43N R73W S14","fm":"TURNER","eur":null,"perft":null,"sound":false,"fit":"refused","geur":null,"gfit":"refused"}},{"type":"Feature","geometry":{"type":"Point","coordinates":[-105.5692,43.6775]},"properties":{"api":"4900562268","name":"TED COM 3H","op":"EOG RESOURCES INC","co":"Campbell","st":"WY","trs":"T43N R73W S25","fm":"TURNER","eur":null,"perft":null,"sound":false,"fit":"refused","geur":null,"gfit":"refused"}},{"type":"Feature","geometry":{"type":"Point","coordinates":[-105.6432,43.6943]},"properties":{"api":"4900562270","name":"AMPOLEX STATE 19TH","op":"EOG RESOURCES INC","co":"Campbell","st":"WY","trs":"T43N R73W S16","fm":"TURNER","eur":null,"perft":null,"sound":false,"fit":"refused","geur":null,"gfit":"refused"}},{"type":"Feature","geometry":{"type":"Point","coordinates":[-105.6538,43.7074]},"properties":{"api":"4900562272","name":"GROVES COM 53H","op":"EOG RESOURCES INC","co":"Campbell","st":"WY","trs":"T43N R73W S8","fm":"TURNER","eur":null,"perft":null,"sound":false,"fit":"refused","geur":null,"gfit":"refused"}},{"type":"Feature","geometry":{"type":"Point","coordinates":[-105.6562,43.6936]},"properties":{"api":"4900562369","name":"NATASHA FEDERAL COM 4H","op":"EOG RESOURCES INC","co":"Campbell","st":"WY","trs":"T43N R73W S17","fm":"TURNER","eur":null,"perft":null,"sound":false,"fit":"refused","geur":null,"gfit":"refused"}},{"type":"Feature","geometry":{"type":"Point","coordinates":[-105.6842,43.6929]},"properties":{"api":"4900562374","name":"STRANGLER FED COM 1H","op":"EOG RESOURCES INC","co":"Campbell","st":"WY","trs":"T43N R73W S18","fm":"TURNER","eur":554364,"perft":116268,"sound":true,"fit":"sound","geur":null,"gfit":"refused"}},{"type":"Feature","geometry":{"type":"Point","coordinates":[-105.6734,43.7077]},"properties":{"api":"4900562378","name":"STARLIGHT FED COM 30H","op":"EOG RESOURCES INC","co":"Campbell","st":"WY","trs":"T43N R73W S7","fm":"TURNER","eur":575983,"perft":130225,"sound":true,"fit":"sound","geur":null,"gfit":"refused"}},{"type":"Feature","geometry":{"type":"Point","coordinates":[-105.5691,43.6503]},"properties":{"api":"4900562577","name":"MUSTANG STATE 22PH","op":"EOG RESOURCES INC","co":"Campbell","st":"WY","trs":"T43N R73W S36","fm":"PARKMAN","eur":228724,"perft":56308,"sound":true,"fit":"sound","geur":279881,"gfit":"sound"}},{"type":"Feature","geometry":{"type":"Point","coordinates":[-105.5684,43.6637]},"properties":{"api":"4900562726","name":"FOLKLORE COM 2PH","op":"EOG RESOURCES INC","co":"Campbell","st":"WY","trs":"T43N R73W S36","fm":"PARKMAN","eur":300917,"perft":68655,"sound":true,"fit":"sound","geur":null,"gfit":"refused"}},{"type":"Feature","geometry":{"type":"Point","coordinates":[-105.5784,43.6503]},"properties":{"api":"4900562758","name":"MUSTANG STATE 23PH","op":"EOG RESOURCES INC","co":"Campbell","st":"WY","trs":"T43N R73W S36","fm":"PARKMAN","eur":null,"perft":null,"sound":false,"fit":"refused","geur":168776,"gfit":"sound"}},{"type":"Feature","geometry":{"type":"Point","coordinates":[-105.5784,43.6504]},"properties":{"api":"4900562759","name":"MUSTANG STATE 24PH","op":"EOG RESOURCES INC","co":"Campbell","st":"WY","trs":"T43N R73W S36","fm":"PARKMAN","eur":90895,"perft":23117,"sound":true,"fit":"sound","geur":42873,"gfit":"sound"}},{"type":"Feature","geometry":{"type":"Point","coordinates":[-105.5881,43.6793]},"properties":{"api":"4900563554","name":"SKYLINE FED 44-23 23T2H","op":"TRUE OIL LLC","co":"Campbell","st":"WY","trs":"T43N R73W S23","fm":"TURNER","eur":326965,"perft":73657,"sound":true,"fit":"sound","geur":429407,"gfit":"sound"}},{"type":"Feature","geometry":{"type":"Point","coordinates":[-105.6023,43.6624]},"properties":{"api":"4900564159","name":"ADAM FEDERAL 35-43-73-2H","op":"NAVIGATION POWDER RIVER LLC","co":"Campbell","st":"WY","trs":"T43N R73W S35","fm":null,"eur":349207,"perft":null,"sound":true,"fit":"sound","geur":1409752,"gfit":"sound"}},{"type":"Feature","geometry":{"type":"Point","coordinates":[-105.5884,43.6927]},"properties":{"api":"4900564175","name":"ADAM FEDERAL 14-43-73-1H","op":"NAVIGATION POWDER RIVER LLC","co":"Campbell","st":"WY","trs":"T43N R73W S14","fm":null,"eur":null,"perft":null,"sound":false,"fit":"none","geur":null,"gfit":"none"}},{"type":"Feature","geometry":{"type":"Point","coordinates":[-105.5884,43.6929]},"properties":{"api":"4900564178","name":"ADAM FEDERAL 14-43-73-4H","op":"NAVIGATION POWDER RIVER LLC","co":"Campbell","st":"WY","trs":"T43N R73W S14","fm":"TURNER","eur":184039,"perft":45918,"sound":true,"fit":"sound","geur":null,"gfit":"refused"}},{"type":"Feature","geometry":{"type":"Point","coordinates":[-105.5793,43.6924]},"properties":{"api":"4900564183","name":"ADAM  24-43-73-2H","op":"NAVIGATION POWDER RIVER LLC","co":"Campbell","st":"WY","trs":"T43N R73W S24","fm":"TURNER","eur":235096,"perft":53334,"sound":true,"fit":"sound","geur":null,"gfit":"refused"}},{"type":"Feature","geometry":{"type":"Point","coordinates":[-105.579,43.6924]},"properties":{"api":"4900564185","name":"ADAM 24-43-73-4H","op":"NAVIGATION POWDER RIVER LLC","co":"Campbell","st":"WY","trs":"T43N R73W S24","fm":"PARKMAN","eur":null,"perft":null,"sound":false,"fit":"refused","geur":null,"gfit":"refused"}},{"type":"Feature","geometry":{"type":"Point","coordinates":[-105.5812,43.6643]},"properties":{"api":"4900564188","name":"ADAM FEDERAL 25-43-73-1H","op":"NAVIGATION POWDER RIVER LLC","co":"Campbell","st":"WY","trs":"T43N R73W S25","fm":null,"eur":454241,"perft":122635,"sound":true,"fit":"sound","geur":913413,"gfit":"sound"}},{"type":"Feature","geometry":{"type":"Point","coordinates":[-105.6173,43.6642]},"properties":{"api":"4900564274","name":"ADAM FEDERAL 27-43-73-2H","op":"NAVIGATION POWDER RIVER LLC","co":"Campbell","st":"WY","trs":"T43N R73W S27","fm":"TURNER","eur":567649,"perft":123698,"sound":true,"fit":"sound","geur":1422276,"gfit":"sound"}},{"type":"Feature","geometry":{"type":"Point","coordinates":[-105.6547,43.7094]},"properties":{"api":"4900574016","name":"BROADHEAD 556-0819H","op":"EOG RESOURCES INC","co":"Campbell","st":"WY","trs":"T43N R73W S8","fm":"FRONTIER-TURNER","eur":353677,"perft":34783,"sound":true,"fit":"sound","geur":null,"gfit":"refused"}},{"type":"Feature","geometry":{"type":"Point","coordinates":[-105.6546,43.7094]},"properties":{"api":"4900574017","name":"BROADHEAD 557-0819H","op":"EOG RESOURCES INC","co":"Campbell","st":"WY","trs":"T43N R73W S8","fm":"FRONTIER-TURNER","eur":439957,"perft":43163,"sound":true,"fit":"sound","geur":null,"gfit":"refused"}},{"type":"Feature","geometry":{"type":"Point","coordinates":[-105.6546,43.7093]},"properties":{"api":"4900574019","name":"BROADHEAD 558-0820H","op":"EOG RESOURCES INC","co":"Campbell","st":"WY","trs":"T43N R73W S8","fm":"FRONTIER/TURNER","eur":null,"perft":null,"sound":false,"fit":"refused","geur":null,"gfit":"refused"}},{"type":"Feature","geometry":{"type":"Point","coordinates":[-105.6545,43.7092]},"properties":{"api":"4900577119","name":"BROADHEAD 568-0805H","op":"EOG RESOURCES INC","co":"Campbell","st":"WY","trs":"T43N R73W S8","fm":"MOWRY","eur":null,"perft":null,"sound":false,"fit":"refused","geur":null,"gfit":"refused"}},{"type":"Feature","geometry":{"type":"Point","coordinates":[-105.6333,43.6939]},"properties":{"api":"4900577297","name":"FINCH 1609-01H","op":"EOG RESOURCES INC","co":"Campbell","st":"WY","trs":"T43N R73W S16","fm":"FRONTIER","eur":null,"perft":null,"sound":false,"fit":"refused","geur":null,"gfit":"refused"}},{"type":"Feature","geometry":{"type":"Point","coordinates":[-105.6333,43.6938]},"properties":{"api":"4900577298","name":"FINCH 1609-02H","op":"EOG RESOURCES INC","co":"Campbell","st":"WY","trs":"T43N R73W S16","fm":"FRONTIER","eur":null,"perft":null,"sound":false,"fit":"refused","geur":null,"gfit":"refused"}},{"type":"Feature","geometry":{"type":"Point","coordinates":[-105.6332,43.6937]},"properties":{"api":"4900577299","name":"FINCH 1610-03H","op":"EOG RESOURCES INC","co":"Campbell","st":"WY","trs":"T43N R73W S16","fm":"FRONTIER-TURNER","eur":null,"perft":null,"sound":false,"fit":"refused","geur":null,"gfit":"refused"}},{"type":"Feature","geometry":{"type":"Point","coordinates":[-105.6331,43.6935]},"properties":{"api":"4900577300","name":"FINCH 1510-04XH","op":"EOG RESOURCES INC","co":"Campbell","st":"WY","trs":"T43N R73W S16","fm":"FRONTIER-TURNER","eur":null,"perft":null,"sound":false,"fit":"refused","geur":null,"gfit":"refused"}},{"type":"Feature","geometry":{"type":"Point","coordinates":[-105.6554,43.7094]},"properties":{"api":"4900577633","name":"BROADHEAD 0805-14H","op":"EOG RESOURCES INC","co":"Campbell","st":"WY","trs":"T43N R73W S8","fm":"MOWRY","eur":236859,"perft":24005,"sound":true,"fit":"sound","geur":null,"gfit":"refused"}},{"type":"Feature","geometry":{"type":"Point","coordinates":[-105.6555,43.7093]},"properties":{"api":"4900577634","name":"BROADHEAD 0805-15H","op":"EOG RESOURCES INC","co":"Campbell","st":"WY","trs":"T43N R73W S8","fm":"MOWRY","eur":276936,"perft":29142,"sound":true,"fit":"sound","geur":null,"gfit":"refused"}},{"type":"Feature","geometry":{"type":"Point","coordinates":[-105.6551,43.7095]},"properties":{"api":"4900577635","name":"BROADHEAD 0805-48H","op":"EOG RESOURCES INC","co":"Campbell","st":"WY","trs":"T43N R73W S8","fm":"NIOBRARA","eur":286125,"perft":28284,"sound":true,"fit":"sound","geur":86822,"gfit":"sound"}},{"type":"Feature","geometry":{"type":"Point","coordinates":[-105.6547,43.7095]},"properties":{"api":"4900577636","name":"BROADHEAD 0805-12H","op":"EOG RESOURCES INC","co":"Campbell","st":"WY","trs":"T43N R73W S8","fm":"MOWRY","eur":410621,"perft":41215,"sound":true,"fit":"sound","geur":null,"gfit":"refused"}},{"type":"Feature","geometry":{"type":"Point","coordinates":[-105.6792,43.7094]},"properties":{"api":"4900577639","name":"SANDPIPER 0706-09H","op":"EOG RESOURCES INC","co":"Campbell","st":"WY","trs":"T43N R73W S7","fm":"MOWRY","eur":441854,"perft":42319,"sound":true,"fit":"sound","geur":null,"gfit":"refused"}},{"type":"Feature","geometry":{"type":"Point","coordinates":[-105.679,43.7094]},"properties":{"api":"4900577640","name":"SANDPIPER 0706-10H","op":"EOG RESOURCES INC","co":"Campbell","st":"WY","trs":"T43N R73W S7","fm":"MOWRY","eur":144334,"perft":13968,"sound":true,"fit":"sound","geur":null,"gfit":"refused"}},{"type":"Feature","geometry":{"type":"Point","coordinates":[-105.6789,43.7094]},"properties":{"api":"4900577641","name":"SANDPIPER 0706-11H","op":"EOG RESOURCES INC","co":"Campbell","st":"WY","trs":"T43N R73W S7","fm":"MOWRY","eur":null,"perft":null,"sound":false,"fit":"refused","geur":null,"gfit":"refused"}},{"type":"Feature","geometry":{"type":"Point","coordinates":[-105.6787,43.7094]},"properties":{"api":"4900577642","name":"SANDPIPER 0706-12H","op":"EOG RESOURCES INC","co":"Campbell","st":"WY","trs":"T43N R73W S7","fm":"MOWRY","eur":612482,"perft":58560,"sound":true,"fit":"sound","geur":null,"gfit":"refused"}},{"type":"Feature","geometry":{"type":"Point","coordinates":[-105.6786,43.7094]},"properties":{"api":"4900577690","name":"SANDPIPER 0706-01H","op":"EOG RESOURCES INC","co":"Campbell","st":"WY","trs":"T43N R73W S7","fm":"NIOBRARA","eur":150599,"perft":15574,"sound":true,"fit":"sound","geur":null,"gfit":"refused"}},{"type":"Feature","geometry":{"type":"Point","coordinates":[-105.672,43.7111]},"properties":{"api":"4900577786","name":"TANAGER 0705-18H","op":"EOG RESOURCES INC","co":"Campbell","st":"WY","trs":"T43N R73W S7","fm":"FRONTIER-TURNER","eur":470303,"perft":45387,"sound":true,"fit":"sound","geur":null,"gfit":"refused"}},{"type":"Feature","geometry":{"type":"Point","coordinates":[-105.6361,43.6529]},"properties":{"api":"4900577808","name":"GROVES FED 13-33-28 TH","op":"BALLARD PETROLEUM HOLDINGS LLC","co":"Campbell","st":"WY","trs":"T43N R73W S33","fm":"TURNER","eur":655306,"perft":84284,"sound":true,"fit":"sound","geur":null,"gfit":"refused"}},{"type":"Feature","geometry":{"type":"Point","coordinates":[-105.6359,43.6528]},"properties":{"api":"4900577809","name":"GROVES FED 33-33-28 TH","op":"BALLARD PETROLEUM HOLDINGS LLC","co":"Campbell","st":"WY","trs":"T43N R73W S33","fm":"TURNER","eur":337092,"perft":42492,"sound":true,"fit":"sound","geur":294329,"gfit":"sound"}},{"type":"Feature","geometry":{"type":"Point","coordinates":[-105.6718,43.7114]},"properties":{"api":"4900577940","name":"TANAGER 0705-19H","op":"EOG RESOURCES INC","co":"Campbell","st":"WY","trs":"T43N R73W S7","fm":"FRONTIER-TUNER","eur":277394,"perft":26054,"sound":true,"fit":"sound","geur":null,"gfit":"refused"}},{"type":"Feature","geometry":{"type":"Point","coordinates":[-105.62658,43.67978]},"properties":{"api":"4900524167","name":"ANDERMAN 1-21","op":"BLACK BEAR OIL CORPORATION","co":"Campbell","st":"WY","trs":"T43N R73W S21","fm":null,"eur":null,"perft":null,"sound":false,"fit":"refused","geur":null,"gfit":"none"}},{"type":"Feature","geometry":{"type":"Point","coordinates":[-105.58605,43.68395]},"properties":{"api":"4900524260","name":"SKYLINE FED 1-23","op":"TRUE OIL LLC","co":"Campbell","st":"WY","trs":"T43N R73W S23","fm":null,"eur":null,"perft":null,"sound":false,"fit":"refused","geur":null,"gfit":"refused"}},{"type":"Feature","geometry":{"type":"Point","coordinates":[-105.67709,43.71259]},"properties":{"api":"4900524517","name":"ALL NIGHT CREEK 1-7","op":"DNR OIL & GAS INC","co":"Campbell","st":"WY","trs":"T43N R73W S7","fm":null,"eur":null,"perft":null,"sound":false,"fit":"refused","geur":null,"gfit":"refused"}},{"type":"Feature","geometry":{"type":"Point","coordinates":[-105.64162,43.71955]},"properties":{"api":"4900531281","name":"GROVES 1","op":"EOG RESOURCES INC","co":"Campbell","st":"WY","trs":"T43N R73W S9","fm":"TURNER","eur":null,"perft":null,"sound":false,"fit":"refused","geur":null,"gfit":"refused"}},{"type":"Feature","geometry":{"type":"Point","coordinates":[-105.67867,43.72343]},"properties":{"api":"4900531401","name":"GROVES 2","op":"EOG RESOURCES INC","co":"Campbell","st":"WY","trs":"T43N R73W S6","fm":"TURNER","eur":null,"perft":null,"sound":false,"fit":"refused","geur":null,"gfit":"refused"}},{"type":"Feature","geometry":{"type":"Point","coordinates":[-105.56624,43.70142]},"properties":{"api":"4900531497","name":"BUNN 1","op":"EOG RESOURCES INC","co":"Campbell","st":"WY","trs":"T43N R73W S13","fm":"TURNER","eur":null,"perft":null,"sound":false,"fit":"refused","geur":null,"gfit":"refused"}},{"type":"Feature","geometry":{"type":"Point","coordinates":[-105.64185,43.73517]},"properties":{"api":"4900531625","name":"ROCKY BUTTE 6","op":"EOG RESOURCES INC","co":"Campbell","st":"WY","trs":"T43N R73W S4","fm":"TURNER","eur":null,"perft":null,"sound":false,"fit":"refused","geur":null,"gfit":"refused"}},{"type":"Feature","geometry":{"type":"Point","coordinates":[-105.67816,43.73099]},"properties":{"api":"4900531635","name":"GROVES 5 SWD","op":"EOG RESOURCES INC","co":"Campbell","st":"WY","trs":"T43N R73W S6","fm":"TURNER","eur":null,"perft":null,"sound":false,"fit":"refused","geur":null,"gfit":"refused"}},{"type":"Feature","geometry":{"type":"Point","coordinates":[-105.64902,43.7043]},"properties":{"api":"4900531824","name":"THIELEN 1","op":"EOG RESOURCES INC","co":"Campbell","st":"WY","trs":"T43N R73W S17","fm":"PARKMAN","eur":null,"perft":null,"sound":false,"fit":"refused","geur":null,"gfit":"refused"}},{"type":"Feature","geometry":{"type":"Point","coordinates":[-105.6575,43.72361]},"properties":{"api":"4900531825","name":"BELLE FEDERAL COM 9H","op":"EOG RESOURCES INC","co":"Campbell","st":"WY","trs":"T43N R73W S5","fm":"PARKMAN","eur":null,"perft":null,"sound":false,"fit":"refused","geur":null,"gfit":"refused"}},{"type":"Feature","geometry":{"type":"Point","coordinates":[-105.68011,43.70358]},"properties":{"api":"4900531857","name":"ICKES COM 1","op":"EOG RESOURCES INC","co":"Campbell","st":"WY","trs":"T43N R73W S18","fm":"TURNER","eur":null,"perft":null,"sound":false,"fit":"refused","geur":null,"gfit":"refused"}},{"type":"Feature","geometry":{"type":"Point","coordinates":[-105.65285,43.68461]},"properties":{"api":"4900537518","name":"BUCKIN BRONC  FED 1","op":"EOG RESOURCES INC","co":"Campbell","st":"WY","trs":"T43N R73W S20","fm":"TURNER","eur":null,"perft":null,"sound":false,"fit":"refused","geur":null,"gfit":"refused"}},{"type":"Feature","geometry":{"type":"Point","coordinates":[-105.63186,43.70895]},"properties":{"api":"4900560530","name":"BORIS FEDERAL COM 5","op":"EOG RESOURCES INC","co":"Campbell","st":"WY","trs":"T43N R73W S9","fm":"TURNER","eur":null,"perft":null,"sound":false,"fit":"refused","geur":null,"gfit":"refused"}},{"type":"Feature","geometry":{"type":"Point","coordinates":[-105.60517,43.67778]},"properties":{"api":"4900561929","name":"PICKETT 5H","op":"EOG RESOURCES INC","co":"Campbell","st":"WY","trs":"T43N R73W S27","fm":"TURNER","eur":null,"perft":null,"sound":false,"fit":"refused","geur":null,"gfit":"refused"}},{"type":"Feature","geometry":{"type":"Point","coordinates":[-105.6255,43.66437]},"properties":{"api":"4900562138","name":"GROVES TRUST 44-28PH","op":"BALLARD PETROLEUM HOLDINGS LLC","co":"Campbell","st":"WY","trs":"T43N R73W S28","fm":"PARKMAN","eur":null,"perft":null,"sound":false,"fit":"refused","geur":null,"gfit":"refused"}},{"type":"Feature","geometry":{"type":"Point","coordinates":[-105.65482,43.70954]},"properties":{"api":"4900574015","name":"BROADHEAD 555-0819H","op":"EOG RESOURCES INC","co":"Campbell","st":"WY","trs":"T43N R73W S8","fm":"FRONTIER-TURNER","eur":257463,"perft":24248,"sound":true,"fit":"sound","geur":null,"gfit":"refused"}},{"type":"Feature","geometry":{"type":"Point","coordinates":[-105.58611,43.73444]},"properties":{"api":"4900539264","name":"MONTE CS FEDERAL 1","op":"EOG RESOURCES INC","co":"Campbell","st":"WY","trs":"T43N R73W S2","fm":null,"eur":null,"perft":null,"sound":false,"fit":"none","geur":89645,"gfit":"sound"}},{"type":"Feature","geometry":{"type":"Point","coordinates":[-105.58083,43.73111]},"properties":{"api":"4900539282","name":"CRISTO CS FED COM 1","op":"EOG RESOURCES INC","co":"Campbell","st":"WY","trs":"T43N R73W S1","fm":null,"eur":null,"perft":null,"sound":false,"fit":"none","geur":98185,"gfit":"sound"}},{"type":"Feature","geometry":{"type":"Point","coordinates":[-105.59583,43.72]},"properties":{"api":"4900539369","name":"MONTE CS FEDERAL 43","op":"EOG RESOURCES INC","co":"Campbell","st":"WY","trs":"T43N R73W S11","fm":null,"eur":null,"perft":null,"sound":false,"fit":"none","geur":null,"gfit":"none"}},{"type":"Feature","geometry":{"type":"Point","coordinates":[-105.57056,43.71667]},"properties":{"api":"4900539372","name":"HAY CS FEDERAL COM 1","op":"EOG RESOURCES INC","co":"Campbell","st":"WY","trs":"T43N R73W S12","fm":null,"eur":null,"perft":null,"sound":false,"fit":"none","geur":null,"gfit":"refused"}},{"type":"Feature","geometry":{"type":"Point","coordinates":[-105.56556,43.72028]},"properties":{"api":"4900546854","name":"THRUSH CS COM 12","op":"EOG RESOURCES INC","co":"Campbell","st":"WY","trs":"T43N R73W S12","fm":null,"eur":null,"perft":null,"sound":false,"fit":"none","geur":331980,"gfit":"sound"}},{"type":"Feature","geometry":{"type":"Point","coordinates":[-105.56556,43.73444]},"properties":{"api":"4900550094","name":"JEFFERS CS FED COM 1","op":"EOG RESOURCES INC","co":"Campbell","st":"WY","trs":"T43N R73W S1","fm":null,"eur":null,"perft":null,"sound":false,"fit":"none","geur":152913,"gfit":"sound"}},{"type":"Feature","geometry":{"type":"Point","coordinates":[-105.57639,43.735]},"properties":{"api":"4900550096","name":"JOLIE CS FEDERAL COM 1","op":"EOG RESOURCES INC","co":"Campbell","st":"WY","trs":"T43N R73W S1","fm":null,"eur":null,"perft":null,"sound":false,"fit":"none","geur":null,"gfit":"refused"}},{"type":"Feature","geometry":{"type":"Point","coordinates":[-105.60083,43.71583]},"properties":{"api":"4900552129","name":"MONTE CS FEDERAL 44","op":"EOG RESOURCES INC","co":"Campbell","st":"WY","trs":"T43N R73W S11","fm":null,"eur":null,"perft":null,"sound":false,"fit":"none","geur":null,"gfit":"none"}},{"type":"Feature","geometry":{"type":"Point","coordinates":[-105.61712,43.6544]},"properties":{"api":"4900561664","name":"VERDE CS FEDERAL 1","op":"EOG RESOURCES INC","co":"Campbell","st":"WY","trs":"T43N R73W S34","fm":null,"eur":null,"perft":null,"sound":false,"fit":"none","geur":null,"gfit":"none"}},{"type":"Feature","geometry":{"type":"Point","coordinates":[-105.66666,43.71611]},"properties":{"api":"4900539760","name":"STARLIGHT FEDERAL 1H","op":"EOG RESOURCES INC","co":"Campbell","st":"WY","trs":"T43N R73W S7","fm":"PARKMAN","eur":null,"perft":null,"sound":false,"fit":"refused","geur":null,"gfit":"refused"}},{"type":"Feature","geometry":{"type":"Point","coordinates":[-105.6823,43.6501]},"properties":{"api":"4900541082","name":"ANCU LEAVITT TRUST 14-31-4373","op":"CARBON CREEK ENERGY LLC","co":"Campbell","st":"WY","trs":"T43N R73W S31","fm":null,"eur":null,"perft":null,"sound":false,"fit":"none","geur":null,"gfit":"refused"}},{"type":"Feature","geometry":{"type":"Point","coordinates":[-105.6774,43.6615]},"properties":{"api":"4900541083","name":"ANCU LEAVITT TRUST 21-31-4373","op":"CARBON CREEK ENERGY LLC","co":"Campbell","st":"WY","trs":"T43N R73W S31","fm":null,"eur":null,"perft":null,"sound":false,"fit":"none","geur":207226,"gfit":"sound"}},{"type":"Feature","geometry":{"type":"Point","coordinates":[-105.678,43.6539]},"properties":{"api":"4900541084","name":"ANCU LEAVITT TRUST 23-31-4373","op":"CARBON CREEK ENERGY LLC","co":"Campbell","st":"WY","trs":"T43N R73W S31","fm":null,"eur":null,"perft":null,"sound":false,"fit":"none","geur":260532,"gfit":"sound"}},{"type":"Feature","geometry":{"type":"Point","coordinates":[-105.6576,43.6759]},"properties":{"api":"4900541639","name":"DRAKE 21-29-4373","op":"CARBON CREEK ENERGY LLC","co":"Campbell","st":"WY","trs":"T43N R73W S29","fm":null,"eur":null,"perft":null,"sound":false,"fit":"none","geur":432848,"gfit":"sound"}},{"type":"Feature","geometry":{"type":"Point","coordinates":[-105.6724,43.6511]},"properties":{"api":"4900542221","name":"LEAVITT TRUST 34-31-4373","op":"CARBON CREEK ENERGY LLC","co":"Campbell","st":"WY","trs":"T43N R73W S31","fm":null,"eur":null,"perft":null,"sound":false,"fit":"none","geur":null,"gfit":"refused"}},{"type":"Feature","geometry":{"type":"Point","coordinates":[-105.6528,43.6723]},"properties":{"api":"4900542229","name":"DRAKE 32-29-4373","op":"CARBON CREEK ENERGY LLC","co":"Campbell","st":"WY","trs":"T43N R73W S29","fm":null,"eur":null,"perft":null,"sound":false,"fit":"none","geur":222849,"gfit":"sound"}},{"type":"Feature","geometry":{"type":"Point","coordinates":[-105.648,43.6767]},"properties":{"api":"4900542281","name":"DRAKE 41-29-4373","op":"CARBON CREEK ENERGY LLC","co":"Campbell","st":"WY","trs":"T43N R73W S29","fm":null,"eur":null,"perft":null,"sound":false,"fit":"none","geur":85636,"gfit":"sound"}},{"type":"Feature","geometry":{"type":"Point","coordinates":[-105.647,43.66863]},"properties":{"api":"4900548979","name":"DRAKE FEDERAL  43-29-4373","op":"CARBON CREEK ENERGY LLC","co":"Campbell","st":"WY","trs":"T43N R73W S29","fm":null,"eur":null,"perft":null,"sound":false,"fit":"none","geur":null,"gfit":"refused"}},{"type":"Feature","geometry":{"type":"Point","coordinates":[-105.65239,43.66529]},"properties":{"api":"4900548980","name":"DRAKE FEDERAL 34-29-4373","op":"CARBON CREEK ENERGY LLC","co":"Campbell","st":"WY","trs":"T43N R73W S29","fm":null,"eur":null,"perft":null,"sound":false,"fit":"none","geur":32463,"gfit":"sound"}},{"type":"Feature","geometry":{"type":"Point","coordinates":[-105.65708,43.66921]},"properties":{"api":"4900548981","name":"ATWOOD FEDERAL 23-29-4373","op":"CARBON CREEK ENERGY LLC","co":"Campbell","st":"WY","trs":"T43N R73W S29","fm":null,"eur":null,"perft":null,"sound":false,"fit":"none","geur":null,"gfit":"refused"}},{"type":"Feature","geometry":{"type":"Point","coordinates":[-105.66283,43.66496]},"properties":{"api":"4900548982","name":"ATWOOD FEDERAL 14-29-4373","op":"CARBON CREEK ENERGY LLC","co":"Campbell","st":"WY","trs":"T43N R73W S29","fm":null,"eur":null,"perft":null,"sound":false,"fit":"none","geur":159818,"gfit":"sound"}},{"type":"Feature","geometry":{"type":"Point","coordinates":[-105.66215,43.68757]},"properties":{"api":"4900549504","name":"DRAKE FEDERAL 12-20-4373","op":"CARBON CREEK ENERGY LLC","co":"Campbell","st":"WY","trs":"T43N R73W S20","fm":null,"eur":null,"perft":null,"sound":false,"fit":"none","geur":null,"gfit":"refused"}},{"type":"Feature","geometry":{"type":"Point","coordinates":[-105.65229,43.68719]},"properties":{"api":"4900549505","name":"DRAKE FEDERAL 32-20-4373","op":"CARBON CREEK ENERGY LLC","co":"Campbell","st":"WY","trs":"T43N R73W S20","fm":null,"eur":null,"perft":null,"sound":false,"fit":"none","geur":null,"gfit":"refused"}},{"type":"Feature","geometry":{"type":"Point","coordinates":[-105.65239,43.68022]},"properties":{"api":"4900549506","name":"DRAKE FEDERAL 34-20-4373","op":"CARBON CREEK ENERGY LLC","co":"Campbell","st":"WY","trs":"T43N R73W S20","fm":null,"eur":null,"perft":null,"sound":false,"fit":"none","geur":258528,"gfit":"sound"}},{"type":"Feature","geometry":{"type":"Point","coordinates":[-105.64759,43.69144]},"properties":{"api":"4900549507","name":"DRAKE FEDERAL 41-20-4373","op":"CARBON CREEK ENERGY LLC","co":"Campbell","st":"WY","trs":"T43N R73W S20","fm":null,"eur":null,"perft":null,"sound":false,"fit":"none","geur":null,"gfit":"refused"}},{"type":"Feature","geometry":{"type":"Point","coordinates":[-105.63894,43.70233]},"properties":{"api":"4900531537","name":"AMPOLEX STATE 1","op":"EOG RESOURCES INC","co":"Campbell","st":"WY","trs":"T43N R73W S16","fm":null,"eur":null,"perft":null,"sound":false,"fit":"refused","geur":null,"gfit":"refused"}},{"type":"Feature","geometry":{"type":"Point","coordinates":[-105.66741,43.72372]},"properties":{"api":"4900531613","name":"GROVES 3","op":"EOG RESOURCES INC","co":"Campbell","st":"WY","trs":"T43N R73W S6","fm":null,"eur":null,"perft":null,"sound":false,"fit":"refused","geur":null,"gfit":"refused"}},{"type":"Feature","geometry":{"type":"Point","coordinates":[-105.67181,43.7318]},"properties":{"api":"4900531626","name":"GROVES 4","op":"EOG RESOURCES INC","co":"Campbell","st":"WY","trs":"T43N R73W S6","fm":"NIOBRARA","eur":93825,"perft":null,"sound":true,"fit":"sound","geur":null,"gfit":"refused"}},{"type":"Feature","geometry":{"type":"Point","coordinates":[-105.66956,43.71097]},"properties":{"api":"4900531820","name":"GROVES 8","op":"EOG RESOURCES INC","co":"Campbell","st":"WY","trs":"T43N R73W S7","fm":"TURNER","eur":null,"perft":null,"sound":false,"fit":"refused","geur":null,"gfit":"refused"}},{"type":"Feature","geometry":{"type":"Point","coordinates":[-105.5661,43.6869]},"properties":{"api":"4900539686","name":"TED 2","op":"EOG RESOURCES INC","co":"Campbell","st":"WY","trs":"T43N R73W S24","fm":"TURNER","eur":null,"perft":null,"sound":false,"fit":"refused","geur":null,"gfit":"refused"}},{"type":"Feature","geometry":{"type":"Point","coordinates":[-105.56583,43.72722]},"properties":{"api":"4900546855","name":"THRUSH CS 7","op":"EOG RESOURCES INC","co":"Campbell","st":"WY","trs":"T43N R73W S1","fm":null,"eur":null,"perft":null,"sound":false,"fit":"none","geur":238854,"gfit":"sound"}},{"type":"Feature","geometry":{"type":"Point","coordinates":[-105.67777,43.69083]},"properties":{"api":"4900542596","name":"ICKES CS COM 7","op":"EOG RESOURCES INC","co":"Campbell","st":"WY","trs":"T43N R73W S19","fm":null,"eur":null,"perft":null,"sound":false,"fit":"none","geur":221606,"gfit":"sound"}},{"type":"Feature","geometry":{"type":"Point","coordinates":[-105.68275,43.70196]},"properties":{"api":"4900542597","name":"ICKES CS 10","op":"EOG RESOURCES INC","co":"Campbell","st":"WY","trs":"T43N R73W S18","fm":null,"eur":null,"perft":null,"sound":false,"fit":"none","geur":null,"gfit":"refused"}},{"type":"Feature","geometry":{"type":"Point","coordinates":[-105.67194,43.67972]},"properties":{"api":"4900542598","name":"ICKES CS 9","op":"EOG RESOURCES INC","co":"Campbell","st":"WY","trs":"T43N R73W S19","fm":null,"eur":null,"perft":null,"sound":false,"fit":"none","geur":null,"gfit":"refused"}},{"type":"Feature","geometry":{"type":"Point","coordinates":[-105.66694,43.68333]},"properties":{"api":"4900542599","name":"ICKES CS 8","op":"EOG RESOURCES INC","co":"Campbell","st":"WY","trs":"T43N R73W S19","fm":null,"eur":null,"perft":null,"sound":false,"fit":"none","geur":396027,"gfit":"sound"}},{"type":"Feature","geometry":{"type":"Point","coordinates":[-105.6825,43.69444]},"properties":{"api":"4900542651","name":"ICKES CS 4","op":"EOG RESOURCES INC","co":"Campbell","st":"WY","trs":"T43N R73W S18","fm":null,"eur":null,"perft":null,"sound":false,"fit":"none","geur":605859,"gfit":"sound"}},{"type":"Feature","geometry":{"type":"Point","coordinates":[-105.56566,43.662]},"properties":{"api":"4900533308","name":"MUSTANG CS STATE 1","op":"EOG RESOURCES INC","co":"Campbell","st":"WY","trs":"T43N R73W S36","fm":null,"eur":null,"perft":null,"sound":false,"fit":"none","geur":null,"gfit":"refused"}},{"type":"Feature","geometry":{"type":"Point","coordinates":[-105.6626,43.6732]},"properties":{"api":"4900541638","name":"DRAKE 12-29-4373","op":"CARBON CREEK ENERGY LLC","co":"Campbell","st":"WY","trs":"T43N R73W S29","fm":null,"eur":null,"perft":null,"sound":false,"fit":"none","geur":null,"gfit":"refused"}},{"type":"Feature","geometry":{"type":"Point","coordinates":[-105.6667,43.6547]},"properties":{"api":"4900542219","name":"LEAVITT TRUST 43-31-4373","op":"CARBON CREEK ENERGY LLC","co":"Campbell","st":"WY","trs":"T43N R73W S31","fm":null,"eur":null,"perft":null,"sound":false,"fit":"none","geur":null,"gfit":"refused"}},{"type":"Feature","geometry":{"type":"Point","coordinates":[-105.6671,43.6613]},"properties":{"api":"4900542220","name":"LEAVITT TRUST 41-31-4373","op":"CARBON CREEK ENERGY LLC","co":"Campbell","st":"WY","trs":"T43N R73W S31","fm":null,"eur":null,"perft":null,"sound":false,"fit":"none","geur":null,"gfit":"refused"}},{"type":"Feature","geometry":{"type":"Point","coordinates":[-105.66778,43.69835]},"properties":{"api":"4900542652","name":"ICKES CS 2","op":"EOG RESOURCES INC","co":"Campbell","st":"WY","trs":"T43N R73W S18","fm":null,"eur":null,"perft":null,"sound":false,"fit":"none","geur":null,"gfit":"refused"}},{"type":"Feature","geometry":{"type":"Point","coordinates":[-105.5657,43.65462]},"properties":{"api":"4900543629","name":"MUSTANG CS STATE 15","op":"EOG RESOURCES INC","co":"Campbell","st":"WY","trs":"T43N R73W S36","fm":null,"eur":null,"perft":null,"sound":false,"fit":"none","geur":null,"gfit":"refused"}},{"type":"Feature","geometry":{"type":"Point","coordinates":[-105.57556,43.66194]},"properties":{"api":"4900543632","name":"MUSTANG CS STATE 12","op":"EOG RESOURCES INC","co":"Campbell","st":"WY","trs":"T43N R73W S36","fm":null,"eur":null,"perft":null,"sound":false,"fit":"none","geur":null,"gfit":"refused"}},{"type":"Feature","geometry":{"type":"Point","coordinates":[-105.68306,43.70917]},"properties":{"api":"4900544394","name":"STARLIGHT CS FEDERAL 8","op":"EOG RESOURCES INC","co":"Campbell","st":"WY","trs":"T43N R73W S7","fm":null,"eur":null,"perft":null,"sound":false,"fit":"none","geur":null,"gfit":"refused"}},{"type":"Feature","geometry":{"type":"Point","coordinates":[-105.67222,43.70917]},"properties":{"api":"4900544395","name":"BEAU CS FEDERAL 1","op":"EOG RESOURCES INC","co":"Campbell","st":"WY","trs":"T43N R73W S7","fm":null,"eur":null,"perft":null,"sound":false,"fit":"none","geur":432451,"gfit":"sound"}},{"type":"Feature","geometry":{"type":"Point","coordinates":[-105.67778,43.72]},"properties":{"api":"4900544402","name":"STARLIGHT CS FEDERAL 3","op":"EOG RESOURCES INC","co":"Campbell","st":"WY","trs":"T43N R73W S7","fm":null,"eur":null,"perft":null,"sound":false,"fit":"none","geur":275695,"gfit":"sound"}},{"type":"Feature","geometry":{"type":"Point","coordinates":[-105.66722,43.72]},"properties":{"api":"4900544404","name":"STARLIGHT CS FEDERAL 2","op":"EOG RESOURCES INC","co":"Campbell","st":"WY","trs":"T43N R73W S7","fm":null,"eur":null,"perft":null,"sound":false,"fit":"none","geur":198723,"gfit":"sound"}},{"type":"Feature","geometry":{"type":"Point","coordinates":[-105.57,43.73139]},"properties":{"api":"4900546856","name":"THRUSH CS COM 5","op":"EOG RESOURCES INC","co":"Campbell","st":"WY","trs":"T43N R73W S1","fm":null,"eur":null,"perft":null,"sound":false,"fit":"none","geur":null,"gfit":"refused"}},{"type":"Feature","geometry":{"type":"Point","coordinates":[-105.57028,43.70917]},"properties":{"api":"4900546857","name":"THRUSH CS 2","op":"EOG RESOURCES INC","co":"Campbell","st":"WY","trs":"T43N R73W S12","fm":null,"eur":null,"perft":null,"sound":false,"fit":"none","geur":null,"gfit":"refused"}},{"type":"Feature","geometry":{"type":"Point","coordinates":[-105.56556,43.71306]},"properties":{"api":"4900546858","name":"THRUSH CS 3","op":"EOG RESOURCES INC","co":"Campbell","st":"WY","trs":"T43N R73W S12","fm":null,"eur":null,"perft":null,"sound":false,"fit":"none","geur":null,"gfit":"refused"}},{"type":"Feature","geometry":{"type":"Point","coordinates":[-105.57111,43.72361]},"properties":{"api":"4900546859","name":"THRUSH CS 18","op":"EOG RESOURCES INC","co":"Campbell","st":"WY","trs":"T43N R73W S1","fm":null,"eur":null,"perft":null,"sound":false,"fit":"none","geur":66891,"gfit":"sound"}},{"type":"Feature","geometry":{"type":"Point","coordinates":[-105.65704,43.6914]},"properties":{"api":"4900550339","name":"STARLIGHT CS FEDERAL 22","op":"EOG RESOURCES INC","co":"Campbell","st":"WY","trs":"T43N R73W S20","fm":null,"eur":null,"perft":null,"sound":false,"fit":"none","geur":114203,"gfit":"sound"}},{"type":"Feature","geometry":{"type":"Point","coordinates":[-105.6675,43.69083]},"properties":{"api":"4900550387","name":"STARLIGHT CS FEDERAL 9","op":"EOG RESOURCES INC","co":"Campbell","st":"WY","trs":"T43N R73W S19","fm":null,"eur":null,"perft":null,"sound":false,"fit":"none","geur":null,"gfit":"refused"}},{"type":"Feature","geometry":{"type":"Point","coordinates":[-105.65684,43.68361]},"properties":{"api":"4900550388","name":"STARLIGHT CS FED COM 23","op":"EOG RESOURCES INC","co":"Campbell","st":"WY","trs":"T43N R73W S20","fm":null,"eur":null,"perft":null,"sound":false,"fit":"none","geur":null,"gfit":"refused"}},{"type":"Feature","geometry":{"type":"Point","coordinates":[-105.65194,43.69611]},"properties":{"api":"4900551583","name":"BELLE CS FEDERAL 6","op":"EOG Y RESOURCES INC","co":"Campbell","st":"WY","trs":"T43N R73W S17","fm":null,"eur":null,"perft":null,"sound":false,"fit":"none","geur":null,"gfit":"refused"}},{"type":"Feature","geometry":{"type":"Point","coordinates":[-105.67222,43.68778]},"properties":{"api":"4900556163","name":"STARLIGHT CS FEDERAL 10","op":"EOG RESOURCES INC","co":"Campbell","st":"WY","trs":"T43N R73W S19","fm":null,"eur":null,"perft":null,"sound":false,"fit":"none","geur":null,"gfit":"refused"}},{"type":"Feature","geometry":{"type":"Point","coordinates":[-105.66294,43.71296]},"properties":{"api":"4900531633","name":"CS GROVES 6","op":"EOG RESOURCES INC","co":"Campbell","st":"WY","trs":"T43N R73W S8","fm":null,"eur":null,"perft":null,"sound":false,"fit":"none","geur":null,"gfit":"refused"}},{"type":"Feature","geometry":{"type":"Point","coordinates":[-105.67153,43.73154]},"properties":{"api":"4900531946","name":"GROVES 9","op":"EOG RESOURCES INC","co":"Campbell","st":"WY","trs":"T43N R73W S6","fm":null,"eur":null,"perft":null,"sound":false,"fit":"none","geur":null,"gfit":"refused"}},{"type":"Feature","geometry":{"type":"Point","coordinates":[-105.6625,43.73157]},"properties":{"api":"4900532358","name":"BELLE 1","op":"EOG Y RESOURCES INC","co":"Campbell","st":"WY","trs":"T43N R73W S5","fm":null,"eur":null,"perft":null,"sound":false,"fit":"none","geur":null,"gfit":"refused"}},{"type":"Feature","geometry":{"type":"Point","coordinates":[-105.65799,43.717]},"properties":{"api":"4900533461","name":"GROVES CS 12","op":"EOG RESOURCES INC","co":"Campbell","st":"WY","trs":"T43N R73W S8","fm":null,"eur":null,"perft":null,"sound":false,"fit":"none","geur":null,"gfit":"refused"}},{"type":"Feature","geometry":{"type":"Point","coordinates":[-105.65689,43.71329]},"properties":{"api":"4900533462","name":"GROVES CS 11","op":"EOG RESOURCES INC","co":"Campbell","st":"WY","trs":"T43N R73W S8","fm":null,"eur":null,"perft":null,"sound":false,"fit":"none","geur":null,"gfit":"refused"}},{"type":"Feature","geometry":{"type":"Point","coordinates":[-105.6725,43.735]},"properties":{"api":"4900534130","name":"GROVES CS 18","op":"EOG RESOURCES INC","co":"Campbell","st":"WY","trs":"T43N R73W S6","fm":null,"eur":null,"perft":null,"sound":false,"fit":"none","geur":null,"gfit":"refused"}},{"type":"Feature","geometry":{"type":"Point","coordinates":[-105.66722,43.735]},"properties":{"api":"4900534133","name":"GROVES CS 17","op":"EOG RESOURCES INC","co":"Campbell","st":"WY","trs":"T43N R73W S6","fm":null,"eur":null,"perft":null,"sound":false,"fit":"none","geur":null,"gfit":"refused"}},{"type":"Feature","geometry":{"type":"Point","coordinates":[-105.68277,43.72361]},"properties":{"api":"4900540917","name":"GROVES CS 33","op":"EOG RESOURCES INC","co":"Campbell","st":"WY","trs":"T43N R73W S6","fm":null,"eur":null,"perft":null,"sound":false,"fit":"none","geur":null,"gfit":"refused"}},{"type":"Feature","geometry":{"type":"Point","coordinates":[-105.67778,43.7275]},"properties":{"api":"4900540918","name":"GROVES CS 31","op":"EOG RESOURCES INC","co":"Campbell","st":"WY","trs":"T43N R73W S6","fm":null,"eur":null,"perft":null,"sound":false,"fit":"none","geur":null,"gfit":"refused"}},{"type":"Feature","geometry":{"type":"Point","coordinates":[-105.68333,43.73138]},"properties":{"api":"4900541030","name":"GROVES CS 30","op":"EOG RESOURCES INC","co":"Campbell","st":"WY","trs":"T43N R73W S6","fm":null,"eur":null,"perft":null,"sound":false,"fit":"none","geur":null,"gfit":"refused"}},{"type":"Feature","geometry":{"type":"Point","coordinates":[-105.68,43.735]},"properties":{"api":"4900541031","name":"GROVES CS 28","op":"EOG RESOURCES INC","co":"Campbell","st":"WY","trs":"T43N R73W S6","fm":null,"eur":null,"perft":null,"sound":false,"fit":"none","geur":null,"gfit":"refused"}},{"type":"Feature","geometry":{"type":"Point","coordinates":[-105.67305,43.72361]},"properties":{"api":"4900541032","name":"GROVES CS 35","op":"EOG RESOURCES INC","co":"Campbell","st":"WY","trs":"T43N R73W S6","fm":null,"eur":null,"perft":null,"sound":false,"fit":"none","geur":null,"gfit":"refused"}},{"type":"Feature","geometry":{"type":"Point","coordinates":[-105.6825,43.6583]},"properties":{"api":"4900541081","name":"ANCU LEAVITT TRUST 12-31-4373","op":"CARBON CREEK ENERGY LLC","co":"Campbell","st":"WY","trs":"T43N R73W S31","fm":null,"eur":null,"perft":null,"sound":false,"fit":"none","geur":295196,"gfit":"sound"}},{"type":"Feature","geometry":{"type":"Point","coordinates":[-105.6717,43.6576]},"properties":{"api":"4900542222","name":"LEAVITT TRUST 32-31-4373","op":"CARBON CREEK ENERGY LLC","co":"Campbell","st":"WY","trs":"T43N R73W S31","fm":null,"eur":null,"perft":null,"sound":false,"fit":"none","geur":null,"gfit":"refused"}},{"type":"Feature","geometry":{"type":"Point","coordinates":[-105.66722,43.70583]},"properties":{"api":"4900542655","name":"GROVES CS 38","op":"EOG RESOURCES INC","co":"Campbell","st":"WY","trs":"T43N R73W S18","fm":null,"eur":null,"perft":null,"sound":false,"fit":"none","geur":null,"gfit":"refused"}},{"type":"Feature","geometry":{"type":"Point","coordinates":[-105.63722,43.72]},"properties":{"api":"4900542656","name":"GROVES CS 37","op":"EOG RESOURCES INC","co":"Campbell","st":"WY","trs":"T43N R73W S9","fm":null,"eur":null,"perft":null,"sound":false,"fit":"none","geur":null,"gfit":"refused"}},{"type":"Feature","geometry":{"type":"Point","coordinates":[-105.64722,43.72]},"properties":{"api":"4900542657","name":"GROVES CS 36","op":"EOG RESOURCES INC","co":"Campbell","st":"WY","trs":"T43N R73W S8","fm":null,"eur":null,"perft":null,"sound":false,"fit":"none","geur":24361,"gfit":"sound"}},{"type":"Feature","geometry":{"type":"Point","coordinates":[-105.63167,43.73139]},"properties":{"api":"4900543696","name":"GROVES CS 24","op":"EOG RESOURCES INC","co":"Campbell","st":"WY","trs":"T43N R73W S4","fm":null,"eur":null,"perft":null,"sound":false,"fit":"none","geur":null,"gfit":"none"}},{"type":"Feature","geometry":{"type":"Point","coordinates":[-105.64194,43.73111]},"properties":{"api":"4900543697","name":"GROVES CS 22","op":"EOG RESOURCES INC","co":"Campbell","st":"WY","trs":"T43N R73W S4","fm":null,"eur":null,"perft":null,"sound":false,"fit":"none","geur":null,"gfit":"none"}},{"type":"Feature","geometry":{"type":"Point","coordinates":[-105.63694,43.73472]},"properties":{"api":"4900543698","name":"GROVES CS 21","op":"EOG RESOURCES INC","co":"Campbell","st":"WY","trs":"T43N R73W S4","fm":null,"eur":null,"perft":null,"sound":false,"fit":"none","geur":null,"gfit":"none"}},{"type":"Feature","geometry":{"type":"Point","coordinates":[-105.63667,43.73472]},"properties":{"api":"4900544681","name":"GROVES CS 39","op":"EOG RESOURCES INC","co":"Campbell","st":"WY","trs":"T43N R73W S4","fm":null,"eur":null,"perft":null,"sound":false,"fit":"none","geur":null,"gfit":"refused"}},{"type":"Feature","geometry":{"type":"Point","coordinates":[-105.64167,43.73083]},"properties":{"api":"4900544682","name":"GROVES CS COM 40","op":"EOG RESOURCES INC","co":"Campbell","st":"WY","trs":"T43N R73W S4","fm":null,"eur":null,"perft":null,"sound":false,"fit":"none","geur":null,"gfit":"refused"}},{"type":"Feature","geometry":{"type":"Point","coordinates":[-105.63167,43.73111]},"properties":{"api":"4900544684","name":"GROVES CS 41","op":"EOG RESOURCES INC","co":"Campbell","st":"WY","trs":"T43N R73W S4","fm":null,"eur":null,"perft":null,"sound":false,"fit":"none","geur":null,"gfit":"refused"}},{"type":"Feature","geometry":{"type":"Point","coordinates":[-105.63694,43.7275]},"properties":{"api":"4900544685","name":"GROVES CS COM 43","op":"EOG RESOURCES INC","co":"Campbell","st":"WY","trs":"T43N R73W S4","fm":null,"eur":null,"perft":null,"sound":false,"fit":"none","geur":null,"gfit":"refused"}},{"type":"Feature","geometry":{"type":"Point","coordinates":[-105.64794,43.68375]},"properties":{"api":"4900549508","name":"DRAKE FEDERAL 43-20-4373","op":"CARBON CREEK ENERGY LLC","co":"Campbell","st":"WY","trs":"T43N R73W S20","fm":null,"eur":null,"perft":null,"sound":false,"fit":"none","geur":5542,"gfit":"sound"}},{"type":"Feature","geometry":{"type":"Point","coordinates":[-105.56556,43.669]},"properties":{"api":"4900541604","name":"COSNER 43-25A","op":"LANGLEY ENERGY","co":"Campbell","st":"WY","trs":"T43N R73W S25","fm":null,"eur":null,"perft":null,"sound":false,"fit":"none","geur":null,"gfit":"refused"}},{"type":"Feature","geometry":{"type":"Point","coordinates":[-105.58583,43.66194]},"properties":{"api":"4900541605","name":"COSNER 41-35C","op":"LANGLEY ENERGY","co":"Campbell","st":"WY","trs":"T43N R73W S35","fm":null,"eur":null,"perft":null,"sound":false,"fit":"none","geur":null,"gfit":"none"}},{"type":"Feature","geometry":{"type":"Point","coordinates":[-105.56528,43.67668]},"properties":{"api":"4900541606","name":"COSNER 41-25A","op":"LANGLEY ENERGY","co":"Campbell","st":"WY","trs":"T43N R73W S25","fm":null,"eur":null,"perft":null,"sound":false,"fit":"none","geur":null,"gfit":"refused"}},{"type":"Feature","geometry":{"type":"Point","coordinates":[-105.56556,43.68361]},"properties":{"api":"4900541607","name":"COSNER 43-24A","op":"LANGLEY ENERGY","co":"Campbell","st":"WY","trs":"T43N R73W S24","fm":null,"eur":null,"perft":null,"sound":false,"fit":"none","geur":null,"gfit":"none"}},{"type":"Feature","geometry":{"type":"Point","coordinates":[-105.57083,43.665]},"properties":{"api":"4900546379","name":"COSNER 34-25 CA","op":"LANGLEY ENERGY","co":"Campbell","st":"WY","trs":"T43N R73W S25","fm":null,"eur":null,"perft":null,"sound":false,"fit":"none","geur":null,"gfit":"refused"}},{"type":"Feature","geometry":{"type":"Point","coordinates":[-105.58558,43.67611]},"properties":{"api":"4900546382","name":"COSNER 41-26 CA","op":"LANGLEY ENERGY","co":"Campbell","st":"WY","trs":"T43N R73W S26","fm":null,"eur":null,"perft":null,"sound":false,"fit":"none","geur":null,"gfit":"refused"}},{"type":"Feature","geometry":{"type":"Point","coordinates":[-105.58111,43.67248]},"properties":{"api":"4900546383","name":"COSNER 12-25 CA","op":"LANGLEY ENERGY","co":"Campbell","st":"WY","trs":"T43N R73W S25","fm":null,"eur":null,"perft":null,"sound":false,"fit":"none","geur":null,"gfit":"refused"}},{"type":"Feature","geometry":{"type":"Point","coordinates":[-105.59083,43.6725]},"properties":{"api":"4900546385","name":"COSNER 32-26 CA","op":"LANGLEY ENERGY","co":"Campbell","st":"WY","trs":"T43N R73W S26","fm":null,"eur":null,"perft":null,"sound":false,"fit":"none","geur":null,"gfit":"refused"}},{"type":"Feature","geometry":{"type":"Point","coordinates":[-105.575,43.67583]},"properties":{"api":"4900546388","name":"COSNER 21-25 CA","op":"LANGLEY ENERGY","co":"Campbell","st":"WY","trs":"T43N R73W S25","fm":null,"eur":null,"perft":null,"sound":false,"fit":"none","geur":null,"gfit":"refused"}},{"type":"Feature","geometry":{"type":"Point","coordinates":[-105.59082,43.65109]},"properties":{"api":"4900546483","name":"COSNER 34-35 CA","op":"LANGLEY ENERGY","co":"Campbell","st":"WY","trs":"T43N R73W S35","fm":null,"eur":null,"perft":null,"sound":false,"fit":"none","geur":null,"gfit":"refused"}},{"type":"Feature","geometry":{"type":"Point","coordinates":[-105.58497,43.655]},"properties":{"api":"4900546484","name":"COSNER 43-35 CA","op":"LANGLEY ENERGY","co":"Campbell","st":"WY","trs":"T43N R73W S35","fm":null,"eur":null,"perft":null,"sound":false,"fit":"none","geur":null,"gfit":"refused"}},{"type":"Feature","geometry":{"type":"Point","coordinates":[-105.59083,43.65778]},"properties":{"api":"4900546494","name":"COSNER 32-35 CA","op":"LANGLEY ENERGY","co":"Campbell","st":"WY","trs":"T43N R73W S35","fm":null,"eur":null,"perft":null,"sound":false,"fit":"none","geur":null,"gfit":"refused"}},{"type":"Feature","geometry":{"type":"Point","coordinates":[-105.57055,43.68001]},"properties":{"api":"4900546496","name":"COSNER 34-24 CA","op":"LANGLEY ENERGY","co":"Campbell","st":"WY","trs":"T43N R73W S24","fm":null,"eur":null,"perft":null,"sound":false,"fit":"none","geur":null,"gfit":"refused"}},{"type":"Feature","geometry":{"type":"Point","coordinates":[-105.58058,43.67972]},"properties":{"api":"4900546499","name":"COSNER 14-24 CA","op":"LANGLEY ENERGY","co":"Campbell","st":"WY","trs":"T43N R73W S24","fm":null,"eur":null,"perft":null,"sound":false,"fit":"none","geur":null,"gfit":"refused"}},{"type":"Feature","geometry":{"type":"Point","coordinates":[-105.57497,43.68333]},"properties":{"api":"4900546506","name":"COSNER 23-24 CA","op":"LANGLEY ENERGY","co":"Campbell","st":"WY","trs":"T43N R73W S24","fm":null,"eur":null,"perft":null,"sound":false,"fit":"none","geur":null,"gfit":"refused"}},{"type":"Feature","geometry":{"type":"Point","coordinates":[-105.65639,43.73472]},"properties":{"api":"4900548091","name":"MARQUISS 21-5U","op":"BLACK DIAMOND ENERGY INC","co":"Campbell","st":"WY","trs":"T43N R73W S5","fm":null,"eur":null,"perft":null,"sound":false,"fit":"none","geur":null,"gfit":"refused"}},{"type":"Feature","geometry":{"type":"Point","coordinates":[-105.6625,43.73528]},"properties":{"api":"4900548092","name":"MARQUISS 11-5","op":"BLACK DIAMOND ENERGY INC","co":"Campbell","st":"WY","trs":"T43N R73W S5","fm":null,"eur":null,"perft":null,"sound":false,"fit":"none","geur":126068,"gfit":"sound"}},{"type":"Feature","geometry":{"type":"Point","coordinates":[-105.65667,43.735]},"properties":{"api":"4900548396","name":"MARQUISS 21-5L","op":"BLACK DIAMOND ENERGY INC","co":"Campbell","st":"WY","trs":"T43N R73W S5","fm":null,"eur":null,"perft":null,"sound":false,"fit":"none","geur":null,"gfit":"refused"}},{"type":"Feature","geometry":{"type":"Point","coordinates":[-105.56617,43.669]},"properties":{"api":"4900555510","name":"COSNER 43-25 C","op":"LANGLEY ENERGY","co":"Campbell","st":"WY","trs":"T43N R73W S25","fm":null,"eur":null,"perft":null,"sound":false,"fit":"none","geur":null,"gfit":"refused"}},{"type":"Feature","geometry":{"type":"Point","coordinates":[-105.56626,43.68401]},"properties":{"api":"4900555513","name":"COSNER 43-24 C","op":"LANGLEY ENERGY","co":"Campbell","st":"WY","trs":"T43N R73W S24","fm":null,"eur":null,"perft":null,"sound":false,"fit":"none","geur":null,"gfit":"none"}},{"type":"Feature","geometry":{"type":"Point","coordinates":[-105.59139,43.67242]},"properties":{"api":"4900555514","name":"COSNER 32-26 A","op":"LANGLEY ENERGY","co":"Campbell","st":"WY","trs":"T43N R73W S26","fm":null,"eur":null,"perft":null,"sound":false,"fit":"none","geur":null,"gfit":"none"}},{"type":"Feature","geometry":{"type":"Point","coordinates":[-105.56614,43.67671]},"properties":{"api":"4900555516","name":"COSNER 41-25 C","op":"LANGLEY ENERGY","co":"Campbell","st":"WY","trs":"T43N R73W S25","fm":null,"eur":null,"perft":null,"sound":false,"fit":"none","geur":null,"gfit":"refused"}},{"type":"Feature","geometry":{"type":"Point","coordinates":[-105.59159,43.65107]},"properties":{"api":"4900555725","name":"COSNER 34-35A","op":"LANGLEY ENERGY","co":"Campbell","st":"WY","trs":"T43N R73W S35","fm":null,"eur":null,"perft":null,"sound":false,"fit":"none","geur":null,"gfit":"refused"}},{"type":"Feature","geometry":{"type":"Point","coordinates":[-105.58612,43.66163]},"properties":{"api":"4900555726","name":"COSNER 41-35A","op":"LANGLEY ENERGY","co":"Campbell","st":"WY","trs":"T43N R73W S35","fm":null,"eur":null,"perft":null,"sound":false,"fit":"none","geur":null,"gfit":"refused"}},{"type":"Feature","geometry":{"type":"Point","coordinates":[-105.5912,43.65791]},"properties":{"api":"4900556253","name":"COSNER 32-35A","op":"LANGLEY ENERGY","co":"Campbell","st":"WY","trs":"T43N R73W S35","fm":null,"eur":null,"perft":null,"sound":false,"fit":"none","geur":null,"gfit":"refused"}},{"type":"Feature","geometry":{"type":"Point","coordinates":[-105.65281,43.71686]},"properties":{"api":"4900543073","name":"K-BAR 7A-8","op":"CONTANGO RESOURCES LLC","co":"Campbell","st":"WY","trs":"T43N R73W S8","fm":null,"eur":null,"perft":null,"sound":false,"fit":"none","geur":null,"gfit":"refused"}},{"type":"Feature","geometry":{"type":"Point","coordinates":[-105.66286,43.69535]},"properties":{"api":"4900543079","name":"K-BAR 13A-17","op":"CONTANGO RESOURCES LLC","co":"Campbell","st":"WY","trs":"T43N R73W S17","fm":null,"eur":null,"perft":null,"sound":false,"fit":"none","geur":555966,"gfit":"sound"}},{"type":"Feature","geometry":{"type":"Point","coordinates":[-105.65783,43.69878]},"properties":{"api":"4900543080","name":"K-BAR 11A-17","op":"CONTANGO RESOURCES LLC","co":"Campbell","st":"WY","trs":"T43N R73W S17","fm":null,"eur":null,"perft":null,"sound":false,"fit":"none","geur":519637,"gfit":"sound"}},{"type":"Feature","geometry":{"type":"Point","coordinates":[-105.65797,43.70604]},"properties":{"api":"4900543081","name":"K-BAR 3A-17","op":"CONTANGO RESOURCES LLC","co":"Campbell","st":"WY","trs":"T43N R73W S17","fm":null,"eur":null,"perft":null,"sound":false,"fit":"none","geur":null,"gfit":"refused"}},{"type":"Feature","geometry":{"type":"Point","coordinates":[-105.663,43.70245]},"properties":{"api":"4900543082","name":"K-BAR 5A-17","op":"CONTANGO RESOURCES LLC","co":"Campbell","st":"WY","trs":"T43N R73W S17","fm":null,"eur":null,"perft":null,"sound":false,"fit":"none","geur":820667,"gfit":"sound"}},{"type":"Feature","geometry":{"type":"Point","coordinates":[-105.65272,43.67658]},"properties":{"api":"4900556671","name":"DRAKE 31-29","op":"BALLARD PETROLEUM HOLDINGS LLC","co":"Campbell","st":"WY","trs":"T43N R73W S29","fm":"TECKLA","eur":null,"perft":null,"sound":false,"fit":"refused","geur":null,"gfit":"none"}},{"type":"Feature","geometry":{"type":"Point","coordinates":[-105.66295,43.70967]},"properties":{"api":"4900533463","name":"GROVES CS 10","op":"EOG RESOURCES INC","co":"Campbell","st":"WY","trs":"T43N R73W S8","fm":null,"eur":null,"perft":null,"sound":false,"fit":"none","geur":null,"gfit":"refused"}},{"type":"Feature","geometry":{"type":"Point","coordinates":[-105.66804,43.73154]},"properties":{"api":"4900534129","name":"GROVES CS 14","op":"EOG RESOURCES INC","co":"Campbell","st":"WY","trs":"T43N R73W S6","fm":null,"eur":null,"perft":null,"sound":false,"fit":"none","geur":null,"gfit":"refused"}},{"type":"Feature","geometry":{"type":"Point","coordinates":[-105.66756,43.72747]},"properties":{"api":"4900534131","name":"GROVES CS 15","op":"EOG RESOURCES INC","co":"Campbell","st":"WY","trs":"T43N R73W S6","fm":null,"eur":null,"perft":null,"sound":false,"fit":"none","geur":null,"gfit":"refused"}},{"type":"Feature","geometry":{"type":"Point","coordinates":[-105.67222,43.72722]},"properties":{"api":"4900534132","name":"GROVES CS 16","op":"EOG RESOURCES INC","co":"Campbell","st":"WY","trs":"T43N R73W S6","fm":null,"eur":null,"perft":null,"sound":false,"fit":"none","geur":null,"gfit":"refused"}},{"type":"Feature","geometry":{"type":"Point","coordinates":[-105.68279,43.7348]},"properties":{"api":"4900535478","name":"GROVES CS 29","op":"EOG RESOURCES INC","co":"Campbell","st":"WY","trs":"T43N R73W S6","fm":null,"eur":null,"perft":null,"sound":false,"fit":"none","geur":null,"gfit":"refused"}},{"type":"Feature","geometry":{"type":"Point","coordinates":[-105.6772,43.6686]},"properties":{"api":"4900541080","name":"ANCU ATWOOD 23-30-4373","op":"WPX ENERGY ROCKY MOUNTAIN LLC","co":"Campbell","st":"WY","trs":"T43N R73W S30","fm":null,"eur":null,"perft":null,"sound":false,"fit":"none","geur":400958,"gfit":"sound"}},{"type":"Feature","geometry":{"type":"Point","coordinates":[-105.6574,43.6544]},"properties":{"api":"4900542206","name":"LEAVITT TRUST 23-32-4373","op":"WPX ENERGY ROCKY MOUNTAIN LLC","co":"Campbell","st":"WY","trs":"T43N R73W S32","fm":null,"eur":null,"perft":null,"sound":false,"fit":"none","geur":106498,"gfit":"sound"}},{"type":"Feature","geometry":{"type":"Point","coordinates":[-105.6574,43.6616]},"properties":{"api":"4900542207","name":"LEAVITT TRUST 21-32-4373","op":"WPX ENERGY ROCKY MOUNTAIN LLC","co":"Campbell","st":"WY","trs":"T43N R73W S32","fm":null,"eur":null,"perft":null,"sound":false,"fit":"none","geur":249844,"gfit":"sound"}},{"type":"Feature","geometry":{"type":"Point","coordinates":[-105.6669,43.6766]},"properties":{"api":"4900542217","name":"DRAKE 41-30-4373","op":"CARBON CREEK ENERGY LLC","co":"Campbell","st":"WY","trs":"T43N R73W S30","fm":null,"eur":null,"perft":null,"sound":false,"fit":"none","geur":null,"gfit":"refused"}},{"type":"Feature","geometry":{"type":"Point","coordinates":[-105.6617,43.6576]},"properties":{"api":"4900542218","name":"LEAVITT TRUST 12-32-4373","op":"WPX ENERGY ROCKY MOUNTAIN LLC","co":"Campbell","st":"WY","trs":"T43N R73W S32","fm":null,"eur":null,"perft":null,"sound":false,"fit":"none","geur":381463,"gfit":"sound"}},{"type":"Feature","geometry":{"type":"Point","coordinates":[-105.6613,43.6504]},"properties":{"api":"4900542223","name":"LEAVITT TRUST 14-32-4373","op":"WPX ENERGY ROCKY MOUNTAIN LLC","co":"Campbell","st":"WY","trs":"T43N R73W S32","fm":null,"eur":null,"perft":null,"sound":false,"fit":"none","geur":null,"gfit":"refused"}},{"type":"Feature","geometry":{"type":"Point","coordinates":[-105.6516,43.6512]},"properties":{"api":"4900542234","name":"GROVES 34-32-4373","op":"CARBON CREEK ENERGY LLC","co":"Campbell","st":"WY","trs":"T43N R73W S32","fm":null,"eur":null,"perft":null,"sound":false,"fit":"none","geur":null,"gfit":"refused"}},{"type":"Feature","geometry":{"type":"Point","coordinates":[-105.6724,43.6726]},"properties":{"api":"4900542235","name":"DRAKE 32-30-4373","op":"CARBON CREEK ENERGY LLC","co":"Campbell","st":"WY","trs":"T43N R73W S30","fm":null,"eur":null,"perft":null,"sound":false,"fit":"none","geur":null,"gfit":"refused"}},{"type":"Feature","geometry":{"type":"Point","coordinates":[-105.68297,43.66552]},"properties":{"api":"4900542566","name":"ANCU ATWOOD 14-30-4373","op":"CARBON CREEK ENERGY LLC","co":"Campbell","st":"WY","trs":"T43N R73W S30","fm":null,"eur":null,"perft":null,"sound":false,"fit":"none","geur":429667,"gfit":"sound"}},{"type":"Feature","geometry":{"type":"Point","coordinates":[-105.65194,43.72389]},"properties":{"api":"4900543690","name":"WILLARD CS 6","op":"EOG RESOURCES INC","co":"Campbell","st":"WY","trs":"T43N R73W S5","fm":null,"eur":null,"perft":null,"sound":false,"fit":"none","geur":87253,"gfit":"sound"}},{"type":"Feature","geometry":{"type":"Point","coordinates":[-105.64694,43.7275]},"properties":{"api":"4900543691","name":"WILLARD CS 5","op":"EOG RESOURCES INC","co":"Campbell","st":"WY","trs":"T43N R73W S5","fm":null,"eur":null,"perft":null,"sound":false,"fit":"none","geur":null,"gfit":"refused"}},{"type":"Feature","geometry":{"type":"Point","coordinates":[-105.65222,43.73111]},"properties":{"api":"4900543692","name":"WILLARD CS 4","op":"EOG RESOURCES INC","co":"Campbell","st":"WY","trs":"T43N R73W S5","fm":null,"eur":null,"perft":null,"sound":false,"fit":"none","geur":101515,"gfit":"sound"}},{"type":"Feature","geometry":{"type":"Point","coordinates":[-105.6575,43.7275]},"properties":{"api":"4900543693","name":"WILLARD CS 3","op":"EOG RESOURCES INC","co":"Campbell","st":"WY","trs":"T43N R73W S5","fm":null,"eur":null,"perft":null,"sound":false,"fit":"none","geur":27319,"gfit":"sound"}},{"type":"Feature","geometry":{"type":"Point","coordinates":[-105.63806,43.7275]},"properties":{"api":"4900543694","name":"GROVES CS 26","op":"EOG RESOURCES INC","co":"Campbell","st":"WY","trs":"T43N R73W S4","fm":null,"eur":null,"perft":null,"sound":false,"fit":"none","geur":null,"gfit":"none"}},{"type":"Feature","geometry":{"type":"Point","coordinates":[-105.67687,43.66553]},"properties":{"api":"4900543931","name":"LEAVITT TRUST 34-30-4373","op":"WPX ENERGY ROCKY MOUNTAIN LLC","co":"Campbell","st":"WY","trs":"T43N R73W S30","fm":null,"eur":null,"perft":null,"sound":false,"fit":"none","geur":null,"gfit":"refused"}},{"type":"Feature","geometry":{"type":"Point","coordinates":[-105.65139,43.72417]},"properties":{"api":"4900544678","name":"WILLARD CS 10","op":"EOG RESOURCES INC","co":"Campbell","st":"WY","trs":"T43N R73W S5","fm":null,"eur":null,"perft":null,"sound":false,"fit":"none","geur":null,"gfit":"none"}},{"type":"Feature","geometry":{"type":"Point","coordinates":[-105.65222,43.73111]},"properties":{"api":"4900544691","name":"WILLARD CS 7","op":"EOG RESOURCES INC","co":"Campbell","st":"WY","trs":"T43N R73W S5","fm":null,"eur":null,"perft":null,"sound":false,"fit":"none","geur":null,"gfit":"none"}},{"type":"Feature","geometry":{"type":"Point","coordinates":[-105.64667,43.72778]},"properties":{"api":"4900544692","name":"WILLARD CS 8","op":"EOG RESOURCES INC","co":"Campbell","st":"WY","trs":"T43N R73W S5","fm":null,"eur":null,"perft":null,"sound":false,"fit":"none","geur":null,"gfit":"none"}},{"type":"Feature","geometry":{"type":"Point","coordinates":[-105.65722,43.72722]},"properties":{"api":"4900544693","name":"WILLARD CS 9","op":"EOG RESOURCES INC","co":"Campbell","st":"WY","trs":"T43N R73W S5","fm":null,"eur":null,"perft":null,"sound":false,"fit":"none","geur":null,"gfit":"refused"}},{"type":"Feature","geometry":{"type":"Point","coordinates":[-105.66742,43.66896]},"properties":{"api":"4900548976","name":"ATWOOD FEDERAL 43-30-4373","op":"CARBON CREEK ENERGY LLC","co":"Campbell","st":"WY","trs":"T43N R73W S30","fm":null,"eur":null,"perft":null,"sound":false,"fit":"none","geur":null,"gfit":"refused"}},{"type":"Feature","geometry":{"type":"Point","coordinates":[-105.68262,43.67253]},"properties":{"api":"4900548978","name":"ANCU 12-30-4373","op":"CARBON CREEK ENERGY LLC","co":"Campbell","st":"WY","trs":"T43N R73W S30","fm":null,"eur":null,"perft":null,"sound":false,"fit":"none","geur":270117,"gfit":"sound"}},{"type":"Feature","geometry":{"type":"Point","coordinates":[-105.68279,43.68725]},"properties":{"api":"4900549501","name":"DRAKE FEDERAL 12-19-4373","op":"CARBON CREEK ENERGY LLC","co":"Campbell","st":"WY","trs":"T43N R73W S19","fm":null,"eur":null,"perft":null,"sound":false,"fit":"none","geur":241783,"gfit":"sound"}},{"type":"Feature","geometry":{"type":"Point","coordinates":[-105.68268,43.6799]},"properties":{"api":"4900549502","name":"DRAKE FEDERAL 14-19-4373","op":"CARBON CREEK ENERGY LLC","co":"Campbell","st":"WY","trs":"T43N R73W S19","fm":null,"eur":null,"perft":null,"sound":false,"fit":"none","geur":257561,"gfit":"sound"}},{"type":"Feature","geometry":{"type":"Point","coordinates":[-105.67804,43.68327]},"properties":{"api":"4900549503","name":"DRAKE FEDERAL 23-19-4373","op":"CARBON CREEK ENERGY LLC","co":"Campbell","st":"WY","trs":"T43N R73W S19","fm":null,"eur":null,"perft":null,"sound":false,"fit":"none","geur":null,"gfit":"refused"}},{"type":"Feature","geometry":{"type":"Point","coordinates":[-105.67788,43.67606]},"properties":{"api":"4900550731","name":"ANCU 21-30-4373R","op":"CARBON CREEK ENERGY LLC","co":"Campbell","st":"WY","trs":"T43N R73W S30","fm":null,"eur":null,"perft":null,"sound":false,"fit":"none","geur":null,"gfit":"refused"}},{"type":"Feature","geometry":{"type":"Point","coordinates":[-105.58056,43.65083]},"properties":{"api":"4900543627","name":"MUSTANG STATE WSW 17","op":"EOG RESOURCES INC","co":"Campbell","st":"WY","trs":"T43N R73W S36","fm":null,"eur":null,"perft":null,"sound":false,"fit":"none","geur":null,"gfit":"refused"}},{"type":"Feature","geometry":{"type":"Point","coordinates":[-105.65888,43.71694]},"properties":{"api":"4900539839","name":"GROVES SWD 42","op":"EOG RESOURCES INC","co":"Campbell","st":"WY","trs":"T43N R73W S8","fm":"PARKMAN","eur":null,"perft":null,"sound":false,"fit":"refused","geur":null,"gfit":"refused"}},{"type":"Feature","geometry":{"type":"Point","coordinates":[-105.5765,43.68746]},"properties":{"api":"4900539507","name":"DALE CS 8","op":"EOG Y RESOURCES INC","co":"Campbell","st":"WY","trs":"T43N R73W S24","fm":null,"eur":null,"perft":null,"sound":false,"fit":"none","geur":null,"gfit":"none"}},{"type":"Feature","geometry":{"type":"Point","coordinates":[-105.64818,43.71234]},"properties":{"api":"4900543070","name":"KB 9B-8","op":"BILL BARRETT CORPORATION","co":"Campbell","st":"WY","trs":"T43N R73W S8","fm":null,"eur":null,"perft":null,"sound":false,"fit":"none","geur":null,"gfit":"refused"}},{"type":"Feature","geometry":{"type":"Point","coordinates":[-105.64843,43.70545]},"properties":{"api":"4900543071","name":"K-BAR 1A-17","op":"BILL BARRETT CORPORATION","co":"Campbell","st":"WY","trs":"T43N R73W S17","fm":null,"eur":null,"perft":null,"sound":false,"fit":"none","geur":null,"gfit":"refused"}},{"type":"Feature","geometry":{"type":"Point","coordinates":[-105.64818,43.71261]},"properties":{"api":"4900543072","name":"K-BAR 9A-8","op":"BILL BARRETT CORPORATION","co":"Campbell","st":"WY","trs":"T43N R73W S8","fm":null,"eur":null,"perft":null,"sound":false,"fit":"none","geur":null,"gfit":"refused"}},{"type":"Feature","geometry":{"type":"Point","coordinates":[-105.65224,43.71686]},"properties":{"api":"4900543074","name":"K-BAR 7B-8","op":"BILL BARRETT CORPORATION","co":"Campbell","st":"WY","trs":"T43N R73W S8","fm":null,"eur":null,"perft":null,"sound":false,"fit":"none","geur":null,"gfit":"refused"}},{"type":"Feature","geometry":{"type":"Point","coordinates":[-105.65288,43.70963]},"properties":{"api":"4900543075","name":"K-BAR 15A-8","op":"BILL BARRETT CORPORATION","co":"Campbell","st":"WY","trs":"T43N R73W S8","fm":null,"eur":null,"perft":null,"sound":false,"fit":"none","geur":null,"gfit":"refused"}},{"type":"Feature","geometry":{"type":"Point","coordinates":[-105.65231,43.70963]},"properties":{"api":"4900543076","name":"K-BAR 15B-8","op":"BILL BARRETT CORPORATION","co":"Campbell","st":"WY","trs":"T43N R73W S8","fm":null,"eur":null,"perft":null,"sound":false,"fit":"none","geur":null,"gfit":"refused"}},{"type":"Feature","geometry":{"type":"Point","coordinates":[-105.67292,43.70282]},"properties":{"api":"4900543077","name":"K-BAR 7B-18","op":"BILL BARRETT CORPORATION","co":"Campbell","st":"WY","trs":"T43N R73W S18","fm":null,"eur":null,"perft":null,"sound":false,"fit":"none","geur":null,"gfit":"none"}},{"type":"Feature","geometry":{"type":"Point","coordinates":[-105.67292,43.7024]},"properties":{"api":"4900543078","name":"K-BAR 7A-18","op":"BILL BARRETT CORPORATION","co":"Campbell","st":"WY","trs":"T43N R73W S18","fm":null,"eur":null,"perft":null,"sound":false,"fit":"none","geur":null,"gfit":"refused"}},{"type":"Feature","geometry":{"type":"Point","coordinates":[-105.6528,43.70236]},"properties":{"api":"4900543083","name":"K-BAR 7A-17","op":"BILL BARRETT CORPORATION","co":"Campbell","st":"WY","trs":"T43N R73W S17","fm":null,"eur":null,"perft":null,"sound":false,"fit":"none","geur":null,"gfit":"refused"}},{"type":"Feature","geometry":{"type":"Point","coordinates":[-105.6528,43.70278]},"properties":{"api":"4900543084","name":"K-BAR 7B-17","op":"BILL BARRETT CORPORATION","co":"Campbell","st":"WY","trs":"T43N R73W S17","fm":null,"eur":null,"perft":null,"sound":false,"fit":"none","geur":null,"gfit":"none"}},{"type":"Feature","geometry":{"type":"Point","coordinates":[-105.66356,43.70245]},"properties":{"api":"4900543085","name":"K-BAR 5B-17","op":"BILL BARRETT CORPORATION","co":"Campbell","st":"WY","trs":"T43N R73W S17","fm":null,"eur":null,"perft":null,"sound":false,"fit":"none","geur":null,"gfit":"none"}},{"type":"Feature","geometry":{"type":"Point","coordinates":[-105.65783,43.69919]},"properties":{"api":"4900543086","name":"K-BAR 11B-17","op":"BILL BARRETT CORPORATION","co":"Campbell","st":"WY","trs":"T43N R73W S17","fm":null,"eur":null,"perft":null,"sound":false,"fit":"none","geur":null,"gfit":"none"}},{"type":"Feature","geometry":{"type":"Point","coordinates":[-105.64694,43.70553]},"properties":{"api":"4900543087","name":"K-BAR 1B-17","op":"BILL BARRETT CORPORATION","co":"Campbell","st":"WY","trs":"T43N R73W S17","fm":null,"eur":null,"perft":null,"sound":false,"fit":"none","geur":null,"gfit":"none"}},{"type":"Feature","geometry":{"type":"Point","coordinates":[-105.65854,43.70604]},"properties":{"api":"4900543088","name":"K-BAR 3B-17","op":"BILL BARRETT CORPORATION","co":"Campbell","st":"WY","trs":"T43N R73W S17","fm":null,"eur":null,"perft":null,"sound":false,"fit":"none","geur":null,"gfit":"none"}},{"type":"Feature","geometry":{"type":"Point","coordinates":[-105.66285,43.69676]},"properties":{"api":"4900543089","name":"K-BAR 13B-17","op":"BILL BARRETT CORPORATION","co":"Campbell","st":"WY","trs":"T43N R73W S17","fm":null,"eur":null,"perft":null,"sound":false,"fit":"none","geur":null,"gfit":"none"}},{"type":"Feature","geometry":{"type":"Point","coordinates":[-105.61111,43.6725]},"properties":{"api":"4900546394","name":"PICKETT CS 2","op":"EOG RESOURCES INC","co":"Campbell","st":"WY","trs":"T43N R73W S27","fm":null,"eur":null,"perft":null,"sound":false,"fit":"none","geur":null,"gfit":"none"}},{"type":"Feature","geometry":{"type":"Point","coordinates":[-105.63667,43.69806]},"properties":{"api":"4900543657","name":"AMPOLEX CS STATE 7","op":"EOG Y RESOURCES INC","co":"Campbell","st":"WY","trs":"T43N R73W S16","fm":null,"eur":null,"perft":null,"sound":false,"fit":"none","geur":null,"gfit":"none"}},{"type":"Feature","geometry":{"type":"Point","coordinates":[-105.64194,43.69472]},"properties":{"api":"4900543658","name":"AMPOLEX CS STATE 8","op":"EOG RESOURCES INC","co":"Campbell","st":"WY","trs":"T43N R73W S16","fm":null,"eur":null,"perft":null,"sound":false,"fit":"none","geur":null,"gfit":"refused"}},{"type":"Feature","geometry":{"type":"Point","coordinates":[-105.63194,43.695]},"properties":{"api":"4900543659","name":"AMPOLEX CS STATE 9","op":"EOG RESOURCES INC","co":"Campbell","st":"WY","trs":"T43N R73W S16","fm":null,"eur":null,"perft":null,"sound":false,"fit":"none","geur":null,"gfit":"refused"}},{"type":"Feature","geometry":{"type":"Point","coordinates":[-105.62667,43.69806]},"properties":{"api":"4900543660","name":"AMPOLEX CS STATE 6","op":"EOG RESOURCES INC","co":"Campbell","st":"WY","trs":"T43N R73W S16","fm":null,"eur":null,"perft":null,"sound":false,"fit":"none","geur":null,"gfit":"none"}},{"type":"Feature","geometry":{"type":"Point","coordinates":[-105.62758,43.7054]},"properties":{"api":"4900543685","name":"AMPOLEX CS STATE 2","op":"EOG RESOURCES INC","co":"Campbell","st":"WY","trs":"T43N R73W S16","fm":null,"eur":null,"perft":null,"sound":false,"fit":"none","geur":null,"gfit":"refused"}},{"type":"Feature","geometry":{"type":"Point","coordinates":[-105.63758,43.70557]},"properties":{"api":"4900543686","name":"AMPOLEX CS STATE 3","op":"EOG RESOURCES INC","co":"Campbell","st":"WY","trs":"T43N R73W S16","fm":null,"eur":null,"perft":null,"sound":false,"fit":"none","geur":null,"gfit":"refused"}},{"type":"Feature","geometry":{"type":"Point","coordinates":[-105.64263,43.70196]},"properties":{"api":"4900543687","name":"AMPOLEX CS STATE 4","op":"EOG RESOURCES INC","co":"Campbell","st":"WY","trs":"T43N R73W S16","fm":null,"eur":null,"perft":null,"sound":false,"fit":"none","geur":null,"gfit":"none"}},{"type":"Feature","geometry":{"type":"Point","coordinates":[-105.63245,43.70188]},"properties":{"api":"4900543688","name":"AMPOLEX CS STATE 5","op":"EOG RESOURCES INC","co":"Campbell","st":"WY","trs":"T43N R73W S16","fm":null,"eur":null,"perft":null,"sound":false,"fit":"none","geur":null,"gfit":"none"}},{"type":"Feature","geometry":{"type":"Point","coordinates":[-105.60611,43.73472]},"properties":{"api":"4900544188","name":"EDRA CS 1","op":"EOG Y RESOURCES INC","co":"Campbell","st":"WY","trs":"T43N R73W S3","fm":null,"eur":null,"perft":null,"sound":false,"fit":"none","geur":null,"gfit":"none"}},{"type":"Feature","geometry":{"type":"Point","coordinates":[-105.61083,43.73111]},"properties":{"api":"4900544189","name":"EDRA CS 2","op":"EOG Y RESOURCES INC","co":"Campbell","st":"WY","trs":"T43N R73W S3","fm":null,"eur":null,"perft":null,"sound":false,"fit":"none","geur":null,"gfit":"none"}},{"type":"Feature","geometry":{"type":"Point","coordinates":[-105.60639,43.72778]},"properties":{"api":"4900544190","name":"EDRA CS 3","op":"EOG Y RESOURCES INC","co":"Campbell","st":"WY","trs":"T43N R73W S3","fm":null,"eur":null,"perft":null,"sound":false,"fit":"none","geur":null,"gfit":"none"}},{"type":"Feature","geometry":{"type":"Point","coordinates":[-105.6463,43.6539]},"properties":{"api":"4900542205","name":"GROVES 43-32-4373","op":"WPX ENERGY ROCKY MOUNTAIN LLC","co":"Campbell","st":"WY","trs":"T43N R73W S32","fm":null,"eur":null,"perft":null,"sound":false,"fit":"none","geur":null,"gfit":"none"}},{"type":"Feature","geometry":{"type":"Point","coordinates":[-105.6315,43.6653]},"properties":{"api":"4900542228","name":"GROVES 34-28-4373","op":"CARBON CREEK ENERGY LLC","co":"Campbell","st":"WY","trs":"T43N R73W S28","fm":null,"eur":null,"perft":null,"sound":false,"fit":"none","geur":null,"gfit":"none"}},{"type":"Feature","geometry":{"type":"Point","coordinates":[-105.6218,43.6872]},"properties":{"api":"4900542230","name":"GROVES 12-22-4373","op":"WPX ENERGY ROCKY MOUNTAIN LLC","co":"Campbell","st":"WY","trs":"T43N R73W S22","fm":null,"eur":null,"perft":null,"sound":false,"fit":"none","geur":null,"gfit":"none"}},{"type":"Feature","geometry":{"type":"Point","coordinates":[-105.6018,43.6648]},"properties":{"api":"4900542236","name":"GROVES 14-26-4373","op":"WPX ENERGY ROCKY MOUNTAIN LLC","co":"Campbell","st":"WY","trs":"T43N R73W S26","fm":null,"eur":null,"perft":null,"sound":false,"fit":"none","geur":null,"gfit":"none"}},{"type":"Feature","geometry":{"type":"Point","coordinates":[-105.61111,43.72361]},"properties":{"api":"4900544191","name":"EDRA CS 4","op":"EOG Y RESOURCES INC","co":"Campbell","st":"WY","trs":"T43N R73W S3","fm":null,"eur":null,"perft":null,"sound":false,"fit":"none","geur":null,"gfit":"none"}},{"type":"Feature","geometry":{"type":"Point","coordinates":[-105.62676,43.65452]},"properties":{"api":"4900550236","name":"LEAVITT TRUST 43-33-4373","op":"WPX ENERGY ROCKY MOUNTAIN LLC","co":"Campbell","st":"WY","trs":"T43N R73W S33","fm":null,"eur":null,"perft":null,"sound":false,"fit":"none","geur":null,"gfit":"none"}},{"type":"Feature","geometry":{"type":"Point","coordinates":[-105.64213,43.70918]},"properties":{"api":"4900525924","name":"ICKES 14-9","op":"LOUISIANA LAND & EXPLORATION CO","co":"Campbell","st":"WY","trs":"T43N R73W S9","fm":null,"eur":null,"perft":null,"sound":false,"fit":"none","geur":null,"gfit":"none"}}]}