{"type":"FeatureCollection","features":[{"type":"Feature","geometry":{"type":"Point","coordinates":[-106.17046,43.69572]},"properties":{"api":"4901924906","name":"DRY FORK 43-13-4378","op":"CARBON CREEK ENERGY LLC","co":"Johnson","st":"WY","trs":"T43N R78W S13","fm":null,"eur":null,"perft":null,"sound":false,"fit":"none","geur":null,"gfit":"refused"}},{"type":"Feature","geometry":{"type":"Point","coordinates":[-106.17058,43.70264]},"properties":{"api":"4901924907","name":"DRY FORK 41-13-4378","op":"CARBON CREEK ENERGY LLC","co":"Johnson","st":"WY","trs":"T43N R78W S13","fm":null,"eur":null,"perft":null,"sound":false,"fit":"none","geur":null,"gfit":"refused"}},{"type":"Feature","geometry":{"type":"Point","coordinates":[-106.17595,43.69212]},"properties":{"api":"4901924908","name":"DRY FORK 34-13-4378","op":"CARBON CREEK ENERGY LLC","co":"Johnson","st":"WY","trs":"T43N R78W S13","fm":null,"eur":null,"perft":null,"sound":false,"fit":"none","geur":null,"gfit":"refused"}},{"type":"Feature","geometry":{"type":"Point","coordinates":[-106.17507,43.69911]},"properties":{"api":"4901924909","name":"DRY FORK 32-13-4378","op":"CARBON CREEK ENERGY LLC","co":"Johnson","st":"WY","trs":"T43N R78W S13","fm":null,"eur":null,"perft":null,"sound":false,"fit":"none","geur":null,"gfit":"refused"}},{"type":"Feature","geometry":{"type":"Point","coordinates":[-106.2121,43.65861]},"properties":{"api":"4901925922","name":"BIG BEND FEDERAL 1-34","op":"NORTH FINN LLC","co":"Johnson","st":"WY","trs":"T43N R78W S34","fm":null,"eur":null,"perft":null,"sound":false,"fit":"none","geur":null,"gfit":"none"}},{"type":"Feature","geometry":{"type":"Point","coordinates":[-106.20656,43.66949]},"properties":{"api":"4901926625","name":"BIG BEND FEDERAL 5-26","op":"NORTH FINN LLC","co":"Johnson","st":"WY","trs":"T43N R78W S26","fm":null,"eur":null,"perft":null,"sound":false,"fit":"none","geur":null,"gfit":"none"}},{"type":"Feature","geometry":{"type":"Point","coordinates":[-106.18989,43.70249]},"properties":{"api":"4901928008","name":"DRY FORK FED 41-14-4378","op":"CARBON CREEK ENERGY LLC","co":"Johnson","st":"WY","trs":"T43N R78W S14","fm":null,"eur":null,"perft":null,"sound":false,"fit":"none","geur":null,"gfit":"none"}},{"type":"Feature","geometry":{"type":"Point","coordinates":[-106.23049,43.69079]},"properties":{"api":"4901921527","name":"STATE 44-16-43-78","op":"NORTH FINN LLC","co":"Johnson","st":"WY","trs":"T43N R78W S16","fm":null,"eur":null,"perft":null,"sound":false,"fit":"none","geur":null,"gfit":"none"}},{"type":"Feature","geometry":{"type":"Point","coordinates":[-106.18665,43.6561]},"properties":{"api":"4901923730","name":"BIG BEND STATE 5-36","op":"NORTH FINN LLC","co":"Johnson","st":"WY","trs":"T43N R78W S36","fm":null,"eur":null,"perft":null,"sound":false,"fit":"none","geur":null,"gfit":"none"}},{"type":"Feature","geometry":{"type":"Point","coordinates":[-106.18232,43.66045]},"properties":{"api":"4901923731","name":"BIG BEND STATE 3-36","op":"NORTH FINN LLC","co":"Johnson","st":"WY","trs":"T43N R78W S36","fm":null,"eur":null,"perft":null,"sound":false,"fit":"none","geur":null,"gfit":"none"}},{"type":"Feature","geometry":{"type":"Point","coordinates":[-106.18231,43.65319]},"properties":{"api":"4901923732","name":"BIG BEND STATE 11-36","op":"NORTH FINN LLC","co":"Johnson","st":"WY","trs":"T43N R78W S36","fm":null,"eur":null,"perft":null,"sound":false,"fit":"none","geur":null,"gfit":"none"}},{"type":"Feature","geometry":{"type":"Point","coordinates":[-106.17212,43.65382]},"properties":{"api":"4901923733","name":"BIG BEND STATE 9-36","op":"NORTH FINN LLC","co":"Johnson","st":"WY","trs":"T43N R78W S36","fm":null,"eur":null,"perft":null,"sound":false,"fit":"none","geur":null,"gfit":"refused"}},{"type":"Feature","geometry":{"type":"Point","coordinates":[-106.17768,43.65667]},"properties":{"api":"4901923734","name":"BIG BEND STATE 7-36","op":"NORTH FINN LLC","co":"Johnson","st":"WY","trs":"T43N R78W S36","fm":null,"eur":null,"perft":null,"sound":false,"fit":"none","geur":null,"gfit":"none"}},{"type":"Feature","geometry":{"type":"Point","coordinates":[-106.17746,43.65005]},"properties":{"api":"4901923735","name":"BIG BEND STATE 15-36","op":"NORTH FINN LLC","co":"Johnson","st":"WY","trs":"T43N R78W S36","fm":null,"eur":null,"perft":null,"sound":false,"fit":"none","geur":null,"gfit":"refused"}},{"type":"Feature","geometry":{"type":"Point","coordinates":[-106.18768,43.64906]},"properties":{"api":"4901923736","name":"BIG BEND STATE 13-36","op":"NORTH FINN LLC","co":"Johnson","st":"WY","trs":"T43N R78W S36","fm":null,"eur":null,"perft":null,"sound":false,"fit":"none","geur":null,"gfit":"none"}},{"type":"Feature","geometry":{"type":"Point","coordinates":[-106.23119,43.6792]},"properties":{"api":"4901924948","name":"BIG BEND FEDERAL 9-21","op":"NORTH FINN LLC","co":"Johnson","st":"WY","trs":"T43N R78W S21","fm":null,"eur":null,"perft":null,"sound":false,"fit":"none","geur":null,"gfit":"none"}},{"type":"Feature","geometry":{"type":"Point","coordinates":[-106.19918,43.64759]},"properties":{"api":"4901925909","name":"BIG BEND FEDERAL 15-35","op":"NORTH FINN LLC","co":"Johnson","st":"WY","trs":"T43N R78W S35","fm":null,"eur":null,"perft":null,"sound":false,"fit":"none","geur":null,"gfit":"none"}},{"type":"Feature","geometry":{"type":"Point","coordinates":[-106.20773,43.64799]},"properties":{"api":"4901925910","name":"BIG BEND FEDERAL 13-35","op":"NORTH FINN LLC","co":"Johnson","st":"WY","trs":"T43N R78W S35","fm":null,"eur":null,"perft":null,"sound":false,"fit":"none","geur":null,"gfit":"none"}},{"type":"Feature","geometry":{"type":"Point","coordinates":[-106.20239,43.65203]},"properties":{"api":"4901925911","name":"BIG BEND FEDERAL 11-35","op":"NORTH FINN LLC","co":"Johnson","st":"WY","trs":"T43N R78W S35","fm":null,"eur":null,"perft":null,"sound":false,"fit":"none","geur":null,"gfit":"none"}},{"type":"Feature","geometry":{"type":"Point","coordinates":[-106.19313,43.65253]},"properties":{"api":"4901925912","name":"BIG BEND FEDERAL 9-35","op":"NORTH FINN LLC","co":"Johnson","st":"WY","trs":"T43N R78W S35","fm":null,"eur":null,"perft":null,"sound":false,"fit":"none","geur":null,"gfit":"none"}},{"type":"Feature","geometry":{"type":"Point","coordinates":[-106.19735,43.65586]},"properties":{"api":"4901925913","name":"BIG BEND FEDERAL 7-35","op":"NORTH FINN LLC","co":"Johnson","st":"WY","trs":"T43N R78W S35","fm":null,"eur":null,"perft":null,"sound":false,"fit":"none","geur":null,"gfit":"none"}},{"type":"Feature","geometry":{"type":"Point","coordinates":[-106.2064,43.6567]},"properties":{"api":"4901925914","name":"BIG BEND FEDERAL 5-35","op":"NORTH FINN LLC","co":"Johnson","st":"WY","trs":"T43N R78W S35","fm":null,"eur":null,"perft":null,"sound":false,"fit":"none","geur":null,"gfit":"none"}},{"type":"Feature","geometry":{"type":"Point","coordinates":[-106.20085,43.65891]},"properties":{"api":"4901925915","name":"BIG BEND FEDERAL 3-35","op":"NORTH FINN LLC","co":"Johnson","st":"WY","trs":"T43N R78W S35","fm":null,"eur":null,"perft":null,"sound":false,"fit":"none","geur":null,"gfit":"none"}},{"type":"Feature","geometry":{"type":"Point","coordinates":[-106.19227,43.65996]},"properties":{"api":"4901925916","name":"BIG BEND FEDERAL 1-35","op":"NORTH FINN LLC","co":"Johnson","st":"WY","trs":"T43N R78W S35","fm":null,"eur":null,"perft":null,"sound":false,"fit":"none","geur":null,"gfit":"none"}},{"type":"Feature","geometry":{"type":"Point","coordinates":[-106.21659,43.66222]},"properties":{"api":"4901925923","name":"BIG BEND FEDERAL 15-27","op":"NORTH FINN LLC","co":"Johnson","st":"WY","trs":"T43N R78W S27","fm":null,"eur":null,"perft":null,"sound":false,"fit":"none","geur":null,"gfit":"none"}},{"type":"Feature","geometry":{"type":"Point","coordinates":[-106.2212,43.66513]},"properties":{"api":"4901925925","name":"BIG BEND FEDERAL 11-27","op":"NORTH FINN LLC","co":"Johnson","st":"WY","trs":"T43N R78W S27","fm":null,"eur":null,"perft":null,"sound":false,"fit":"none","geur":null,"gfit":"none"}},{"type":"Feature","geometry":{"type":"Point","coordinates":[-106.21199,43.66559]},"properties":{"api":"4901925926","name":"BIG BEND FEDERAL 9-27","op":"NORTH FINN LLC","co":"Johnson","st":"WY","trs":"T43N R78W S27","fm":null,"eur":null,"perft":null,"sound":false,"fit":"none","geur":null,"gfit":"none"}},{"type":"Feature","geometry":{"type":"Point","coordinates":[-106.21681,43.66924]},"properties":{"api":"4901925927","name":"BIG BEND FEDERAL 7-27","op":"NORTH FINN LLC","co":"Johnson","st":"WY","trs":"T43N R78W S27","fm":null,"eur":null,"perft":null,"sound":false,"fit":"none","geur":null,"gfit":"none"}},{"type":"Feature","geometry":{"type":"Point","coordinates":[-106.22525,43.66877]},"properties":{"api":"4901925928","name":"BIG BEND FEDERAL 5-27","op":"NORTH FINN LLC","co":"Johnson","st":"WY","trs":"T43N R78W S27","fm":null,"eur":null,"perft":null,"sound":false,"fit":"none","geur":null,"gfit":"none"}},{"type":"Feature","geometry":{"type":"Point","coordinates":[-106.22253,43.67202]},"properties":{"api":"4901925929","name":"BIG BEND FEDERAL 3-27","op":"NORTH FINN LLC","co":"Johnson","st":"WY","trs":"T43N R78W S27","fm":null,"eur":null,"perft":null,"sound":false,"fit":"none","geur":null,"gfit":"none"}},{"type":"Feature","geometry":{"type":"Point","coordinates":[-106.21013,43.67329]},"properties":{"api":"4901925930","name":"BIG BEND FEDERAL 1-27","op":"NORTH FINN LLC","co":"Johnson","st":"WY","trs":"T43N R78W S27","fm":null,"eur":null,"perft":null,"sound":false,"fit":"none","geur":null,"gfit":"none"}},{"type":"Feature","geometry":{"type":"Point","coordinates":[-106.22085,43.67986]},"properties":{"api":"4901925933","name":"BIG BEND FEDERAL 11-22","op":"NORTH FINN LLC","co":"Johnson","st":"WY","trs":"T43N R78W S22","fm":null,"eur":null,"perft":null,"sound":false,"fit":"none","geur":null,"gfit":"none"}},{"type":"Feature","geometry":{"type":"Point","coordinates":[-106.21108,43.68002]},"properties":{"api":"4901925934","name":"BIG BEND FEDERAL 9-22","op":"NORTH FINN LLC","co":"Johnson","st":"WY","trs":"T43N R78W S22","fm":null,"eur":null,"perft":null,"sound":false,"fit":"none","geur":null,"gfit":"none"}},{"type":"Feature","geometry":{"type":"Point","coordinates":[-106.20137,43.67336]},"properties":{"api":"4901926626","name":"BIG BEND FEDERAL 3-26","op":"NORTH FINN LLC","co":"Johnson","st":"WY","trs":"T43N R78W S26","fm":null,"eur":null,"perft":null,"sound":false,"fit":"none","geur":null,"gfit":"none"}},{"type":"Feature","geometry":{"type":"Point","coordinates":[-106.1712,43.6749]},"properties":{"api":"4901926672","name":"BIG BEND FEDERAL 1-25","op":"NORTH FINN LLC","co":"Johnson","st":"WY","trs":"T43N R78W S25","fm":null,"eur":null,"perft":null,"sound":false,"fit":"none","geur":null,"gfit":"refused"}},{"type":"Feature","geometry":{"type":"Point","coordinates":[-106.18145,43.67451]},"properties":{"api":"4901926673","name":"BIG BEND FEDERAL 3-25","op":"NORTH FINN LLC","co":"Johnson","st":"WY","trs":"T43N R78W S25","fm":null,"eur":null,"perft":null,"sound":false,"fit":"none","geur":null,"gfit":"none"}},{"type":"Feature","geometry":{"type":"Point","coordinates":[-106.18664,43.67074]},"properties":{"api":"4901926674","name":"BIG BEND FEDERAL 5-25","op":"NORTH FINN LLC","co":"Johnson","st":"WY","trs":"T43N R78W S25","fm":null,"eur":null,"perft":null,"sound":false,"fit":"none","geur":null,"gfit":"none"}},{"type":"Feature","geometry":{"type":"Point","coordinates":[-106.17656,43.67173]},"properties":{"api":"4901926675","name":"BIG BEND FEDERAL 7-25","op":"NORTH FINN LLC","co":"Johnson","st":"WY","trs":"T43N R78W S25","fm":null,"eur":null,"perft":null,"sound":false,"fit":"none","geur":null,"gfit":"none"}},{"type":"Feature","geometry":{"type":"Point","coordinates":[-106.18189,43.66755]},"properties":{"api":"4901926676","name":"BIG BEND FEDERAL 11-25","op":"NORTH FINN LLC","co":"Johnson","st":"WY","trs":"T43N R78W S25","fm":null,"eur":null,"perft":null,"sound":false,"fit":"none","geur":null,"gfit":"none"}},{"type":"Feature","geometry":{"type":"Point","coordinates":[-106.18683,43.6637]},"properties":{"api":"4901926677","name":"BIG BEND FEDERAL 13-25","op":"NORTH FINN LLC","co":"Johnson","st":"WY","trs":"T43N R78W S25","fm":null,"eur":null,"perft":null,"sound":false,"fit":"none","geur":null,"gfit":"none"}},{"type":"Feature","geometry":{"type":"Point","coordinates":[-106.1765,43.66466]},"properties":{"api":"4901926678","name":"BIG BEND FEDERAL 15-25","op":"NORTH FINN LLC","co":"Johnson","st":"WY","trs":"T43N R78W S25","fm":null,"eur":null,"perft":null,"sound":false,"fit":"none","geur":null,"gfit":"none"}},{"type":"Feature","geometry":{"type":"Point","coordinates":[-106.19122,43.67415]},"properties":{"api":"4901926679","name":"BIG BEND FEDERAL 1-26","op":"NORTH FINN LLC","co":"Johnson","st":"WY","trs":"T43N R78W S26","fm":null,"eur":null,"perft":null,"sound":false,"fit":"none","geur":null,"gfit":"none"}},{"type":"Feature","geometry":{"type":"Point","coordinates":[-106.19671,43.67019]},"properties":{"api":"4901926680","name":"BIG BEND FEDERAL 7-26","op":"NORTH FINN LLC","co":"Johnson","st":"WY","trs":"T43N R78W S26","fm":null,"eur":null,"perft":null,"sound":false,"fit":"none","geur":null,"gfit":"none"}},{"type":"Feature","geometry":{"type":"Point","coordinates":[-106.19209,43.66678]},"properties":{"api":"4901926681","name":"BIG BEND FEDERAL 9-26","op":"NORTH FINN LLC","co":"Johnson","st":"WY","trs":"T43N R78W S26","fm":null,"eur":null,"perft":null,"sound":false,"fit":"none","geur":null,"gfit":"none"}},{"type":"Feature","geometry":{"type":"Point","coordinates":[-106.19737,43.66339]},"properties":{"api":"4901926682","name":"BIG BEND FEDERAL 15-26","op":"NORTH FINN LLC","co":"Johnson","st":"WY","trs":"T43N R78W S26","fm":null,"eur":null,"perft":null,"sound":false,"fit":"none","geur":null,"gfit":"none"}},{"type":"Feature","geometry":{"type":"Point","coordinates":[-106.19265,43.68828]},"properties":{"api":"4901927388","name":"BIG BEND 1-23","op":"NORTH FINN LLC","co":"Johnson","st":"WY","trs":"T43N R78W S23","fm":null,"eur":null,"perft":null,"sound":false,"fit":"none","geur":null,"gfit":"none"}},{"type":"Feature","geometry":{"type":"Point","coordinates":[-106.17197,43.66738]},"properties":{"api":"4901927604","name":"BIG BEND FEDERAL 9-25","op":"NORTH FINN LLC","co":"Johnson","st":"WY","trs":"T43N R78W S25","fm":null,"eur":null,"perft":null,"sound":false,"fit":"none","geur":null,"gfit":"refused"}},{"type":"Feature","geometry":{"type":"Point","coordinates":[-106.26909,43.69009]},"properties":{"api":"4901929793","name":"MOJAVE FEE 4378-18-13H","op":"ANSCHUTZ EXPLORATION CORPORATION","co":"Johnson","st":"WY","trs":"T43N R78W S18","fm":"NIOBRARA","eur":null,"perft":null,"sound":false,"fit":"refused","geur":null,"gfit":"refused"}},{"type":"Feature","geometry":{"type":"Point","coordinates":[-106.17221,43.66119]},"properties":{"api":"4901923729","name":"BIG BEND STATE 1-36","op":"NORTH FINN LLC","co":"Johnson","st":"WY","trs":"T43N R78W S36","fm":null,"eur":null,"perft":null,"sound":false,"fit":"none","geur":null,"gfit":"none"}},{"type":"Feature","geometry":{"type":"Point","coordinates":[-106.21601,43.6761]},"properties":{"api":"4901925931","name":"BIG BEND FEDERAL 15-22","op":"NORTH FINN LLC","co":"Johnson","st":"WY","trs":"T43N R78W S22","fm":null,"eur":null,"perft":null,"sound":false,"fit":"none","geur":null,"gfit":"none"}},{"type":"Feature","geometry":{"type":"Point","coordinates":[-106.22518,43.67568]},"properties":{"api":"4901925932","name":"BIG BEND FEDERAL 13-22","op":"NORTH FINN LLC","co":"Johnson","st":"WY","trs":"T43N R78W S22","fm":null,"eur":null,"perft":null,"sound":false,"fit":"none","geur":null,"gfit":"none"}},{"type":"Feature","geometry":{"type":"Point","coordinates":[-106.20655,43.66278]},"properties":{"api":"4901926616","name":"BIG BEND FEDERAL 13-26","op":"NORTH FINN LLC","co":"Johnson","st":"WY","trs":"T43N R78W S26","fm":null,"eur":null,"perft":null,"sound":false,"fit":"none","geur":null,"gfit":"none"}},{"type":"Feature","geometry":{"type":"Point","coordinates":[-106.20215,43.66636]},"properties":{"api":"4901926624","name":"BIG BEND FEDERAL 11-26","op":"NORTH FINN LLC","co":"Johnson","st":"WY","trs":"T43N R78W S26","fm":null,"eur":null,"perft":null,"sound":false,"fit":"none","geur":null,"gfit":"none"}}]}