{"type":"FeatureCollection","features":[{"type":"Feature","geometry":{"type":"Point","coordinates":[-104.11578,43.78285]},"properties":{"api":"4904529343","name":"LAK RANCH 19-1","op":"TOBINSNET OIL & GAS LTD","co":"Weston","st":"WY","trs":"T44N R60W S19","fm":null,"eur":null,"perft":null,"sound":false,"fit":"none","geur":null,"gfit":"none"}},{"type":"Feature","geometry":{"type":"Point","coordinates":[-104.11337,43.78669]},"properties":{"api":"4904521932","name":"LAK RANCH FEE 18-2","op":"TOBINSNET OIL & GAS LTD","co":"Weston","st":"WY","trs":"T44N R60W S18","fm":null,"eur":null,"perft":null,"sound":false,"fit":"none","geur":null,"gfit":"none"}}]}