{"type":"FeatureCollection","features":[{"type":"Feature","geometry":{"type":"Point","coordinates":[-106.18486,43.73403]},"properties":{"api":"4901927140","name":"GUMSHOE CS STATE 1","op":"EOG RESOURCES INC","co":"Johnson","st":"WY","trs":"T44N R78W S36","fm":null,"eur":null,"perft":null,"sound":false,"fit":"none","geur":null,"gfit":"none"}},{"type":"Feature","geometry":{"type":"Point","coordinates":[-106.16908,43.78256]},"properties":{"api":"4901927297","name":"HOLLENBECK CS 3","op":"EOG RESOURCES INC","co":"Johnson","st":"WY","trs":"T44N R78W S13","fm":null,"eur":null,"perft":null,"sound":false,"fit":"none","geur":null,"gfit":"none"}},{"type":"Feature","geometry":{"type":"Point","coordinates":[-106.16897,43.79728]},"properties":{"api":"4901930012","name":"ALBACORE CS FEDERAL 5","op":"EOG RESOURCES INC","co":"Johnson","st":"WY","trs":"T44N R78W S12","fm":null,"eur":null,"perft":null,"sound":false,"fit":"none","geur":null,"gfit":"none"}},{"type":"Feature","geometry":{"type":"Point","coordinates":[-106.18999,43.81926]},"properties":{"api":"4901930013","name":"WAHOO CS FEDERAL 1","op":"EOG RESOURCES INC","co":"Johnson","st":"WY","trs":"T44N R78W S2","fm":null,"eur":null,"perft":null,"sound":false,"fit":"none","geur":null,"gfit":"none"}},{"type":"Feature","geometry":{"type":"Point","coordinates":[-106.16869,43.81933]},"properties":{"api":"4901927905","name":"STREETER FEDERAL BG 41-01-44-78","op":"WINDSOR ENERGY GROUP LLC","co":"Johnson","st":"WY","trs":"T44N R78W S1","fm":null,"eur":null,"perft":null,"sound":false,"fit":"none","geur":null,"gfit":"none"}},{"type":"Feature","geometry":{"type":"Point","coordinates":[-106.17398,43.81639]},"properties":{"api":"4901927906","name":"STREETER FEDERAL BG  32-01-44-78","op":"WINDSOR ENERGY GROUP LLC","co":"Johnson","st":"WY","trs":"T44N R78W S1","fm":null,"eur":null,"perft":null,"sound":false,"fit":"none","geur":null,"gfit":"none"}},{"type":"Feature","geometry":{"type":"Point","coordinates":[-106.16889,43.745]},"properties":{"api":"4901922926","name":"PROWLER CS STATE 1","op":"EOG RESOURCES INC","co":"Johnson","st":"WY","trs":"T44N R78W S36","fm":null,"eur":null,"perft":null,"sound":false,"fit":"none","geur":null,"gfit":"none"}},{"type":"Feature","geometry":{"type":"Point","coordinates":[-106.1743,43.7713]},"properties":{"api":"4901925765","name":"MENGEL 32-24-4478 D","op":"BLACK DIAMOND ENERGY INC","co":"Johnson","st":"WY","trs":"T44N R78W S24","fm":null,"eur":null,"perft":null,"sound":false,"fit":"none","geur":null,"gfit":"none"}},{"type":"Feature","geometry":{"type":"Point","coordinates":[-106.1691,43.7751]},"properties":{"api":"4901925766","name":"MENGEL 41-24-4478 D","op":"BLACK DIAMOND ENERGY INC","co":"Johnson","st":"WY","trs":"T44N R78W S24","fm":null,"eur":null,"perft":null,"sound":false,"fit":"none","geur":null,"gfit":"none"}},{"type":"Feature","geometry":{"type":"Point","coordinates":[-106.1688,43.7676]},"properties":{"api":"4901925767","name":"MENGEL 43-24-4478 D","op":"BLACK DIAMOND ENERGY INC","co":"Johnson","st":"WY","trs":"T44N R78W S24","fm":null,"eur":null,"perft":null,"sound":false,"fit":"none","geur":null,"gfit":"none"}},{"type":"Feature","geometry":{"type":"Point","coordinates":[-106.1693,43.7597]},"properties":{"api":"4901925768","name":"MENGEL 41-25-4478 D","op":"BLACK DIAMOND ENERGY INC","co":"Johnson","st":"WY","trs":"T44N R78W S25","fm":null,"eur":null,"perft":null,"sound":false,"fit":"none","geur":null,"gfit":"none"}},{"type":"Feature","geometry":{"type":"Point","coordinates":[-106.17391,43.77136]},"properties":{"api":"4901926057","name":"MENGEL 32-24-4478 C","op":"BLACK DIAMOND ENERGY INC","co":"Johnson","st":"WY","trs":"T44N R78W S24","fm":null,"eur":null,"perft":null,"sound":false,"fit":"none","geur":null,"gfit":"none"}},{"type":"Feature","geometry":{"type":"Point","coordinates":[-106.16855,43.77523]},"properties":{"api":"4901926058","name":"MENGEL 41-24-4478 C","op":"BLACK DIAMOND ENERGY INC","co":"Johnson","st":"WY","trs":"T44N R78W S24","fm":null,"eur":null,"perft":null,"sound":false,"fit":"none","geur":null,"gfit":"none"}},{"type":"Feature","geometry":{"type":"Point","coordinates":[-106.1682,43.76775]},"properties":{"api":"4901926059","name":"MENGEL 43-24-4478 C","op":"BLACK DIAMOND ENERGY INC","co":"Johnson","st":"WY","trs":"T44N R78W S24","fm":null,"eur":null,"perft":null,"sound":false,"fit":"none","geur":null,"gfit":"none"}},{"type":"Feature","geometry":{"type":"Point","coordinates":[-106.16892,43.75971]},"properties":{"api":"4901926060","name":"MENGEL 41-25-4478 C","op":"BLACK DIAMOND ENERGY INC","co":"Johnson","st":"WY","trs":"T44N R78W S25","fm":null,"eur":null,"perft":null,"sound":false,"fit":"none","geur":null,"gfit":"none"}},{"type":"Feature","geometry":{"type":"Point","coordinates":[-106.23487,43.74855]},"properties":{"api":"4901928167","name":"DERUITER FED 4478-28-43KC","op":"BEARCAT ENERGY LLC (COLORADO)","co":"Johnson","st":"WY","trs":"T44N R78W S28","fm":null,"eur":null,"perft":null,"sound":false,"fit":"none","geur":null,"gfit":"none"}}]}