{"type":"FeatureCollection","features":[{"type":"Feature","geometry":{"type":"Point","coordinates":[-105.08872,43.76658]},"properties":{"api":"4900524077","name":"FEDERAL 25-31","op":"M & K OIL COMPANY LLC","co":"Campbell","st":"WY","trs":"T44N R69W S25","fm":null,"eur":8322,"perft":null,"sound":true,"fit":"sound","geur":1409704,"gfit":"sound"}},{"type":"Feature","geometry":{"type":"Point","coordinates":[-105.09789,43.75181]},"properties":{"api":"4900524083","name":"STATE 66-4046 36-11","op":"M & K OIL COMPANY LLC","co":"Campbell","st":"WY","trs":"T44N R69W S36","fm":null,"eur":6406,"perft":null,"sound":true,"fit":"sound","geur":1410950,"gfit":"sound"}},{"type":"Feature","geometry":{"type":"Point","coordinates":[-105.08361,43.74095]},"properties":{"api":"4900524084","name":"STATE 66-4046 36-44","op":"M & K OIL COMPANY LLC","co":"Campbell","st":"WY","trs":"T44N R69W S36","fm":null,"eur":null,"perft":null,"sound":false,"fit":"refused","geur":514027,"gfit":"sound"}},{"type":"Feature","geometry":{"type":"Point","coordinates":[-105.09733,43.74423]},"properties":{"api":"4900524085","name":"STATE 66-4046 36-13","op":"M & K OIL COMPANY LLC","co":"Campbell","st":"WY","trs":"T44N R69W S36","fm":null,"eur":4292,"perft":null,"sound":true,"fit":"sound","geur":846770,"gfit":"sound"}},{"type":"Feature","geometry":{"type":"Point","coordinates":[-105.08778,43.75189]},"properties":{"api":"4900524086","name":"STATE 66-4046 36-31","op":"M & K OIL COMPANY LLC","co":"Campbell","st":"WY","trs":"T44N R69W S36","fm":null,"eur":889,"perft":null,"sound":true,"fit":"sound","geur":624682,"gfit":"sound"}},{"type":"Feature","geometry":{"type":"Point","coordinates":[-105.09745,43.76622]},"properties":{"api":"4900524217","name":"CHAMBERS FED W-39138 1-25","op":"M & K OIL COMPANY LLC","co":"Campbell","st":"WY","trs":"T44N R69W S25","fm":null,"eur":1167,"perft":null,"sound":true,"fit":"sound","geur":1415668,"gfit":"sound"}},{"type":"Feature","geometry":{"type":"Point","coordinates":[-105.09783,43.7591]},"properties":{"api":"4900524287","name":"HA CREEK KEELINE C-1","op":"SOUTH PASS PETROLEUM INC","co":"Campbell","st":"WY","trs":"T44N R69W S25","fm":null,"eur":40852,"perft":null,"sound":true,"fit":"sound","geur":625208,"gfit":"sound"}},{"type":"Feature","geometry":{"type":"Point","coordinates":[-105.08776,43.75916]},"properties":{"api":"4900524288","name":"KEELINE B 1","op":"SOUTH PASS PETROLEUM INC","co":"Campbell","st":"WY","trs":"T44N R69W S25","fm":null,"eur":null,"perft":null,"sound":false,"fit":"refused","geur":458397,"gfit":"sound"}},{"type":"Feature","geometry":{"type":"Point","coordinates":[-105.10787,43.75182]},"properties":{"api":"4900524342","name":"3-35","op":"SOUTH PASS PETROLEUM INC","co":"Campbell","st":"WY","trs":"T44N R69W S35","fm":null,"eur":null,"perft":null,"sound":false,"fit":"refused","geur":null,"gfit":"refused"}},{"type":"Feature","geometry":{"type":"Point","coordinates":[-105.10785,43.75906]},"properties":{"api":"4900524379","name":"KEELINE D FEE 1","op":"SOUTH PASS PETROLEUM INC","co":"Campbell","st":"WY","trs":"T44N R69W S26","fm":null,"eur":null,"perft":null,"sound":false,"fit":"refused","geur":null,"gfit":"refused"}},{"type":"Feature","geometry":{"type":"Point","coordinates":[-105.19276,43.75867]},"properties":{"api":"4900525208","name":"GRIGSBY FED 23-30","op":"M & K OIL COMPANY LLC","co":"Campbell","st":"WY","trs":"T44N R69W S30","fm":null,"eur":null,"perft":null,"sound":false,"fit":"refused","geur":null,"gfit":"refused"}},{"type":"Feature","geometry":{"type":"Point","coordinates":[-105.10781,43.7664]},"properties":{"api":"4900525654","name":"FEDERAL W-64089 31-26","op":"WESCO OPERATING INC","co":"Campbell","st":"WY","trs":"T44N R69W S26","fm":null,"eur":3023,"perft":null,"sound":true,"fit":"sound","geur":null,"gfit":"refused"}},{"type":"Feature","geometry":{"type":"Point","coordinates":[-105.15148,43.74521]},"properties":{"api":"4900526009","name":"TANNER FED W-27694 1","op":"CHACO ENERGY COMPANY","co":"Campbell","st":"WY","trs":"T44N R69W S33","fm":null,"eur":28206,"perft":null,"sound":true,"fit":"sound","geur":507069,"gfit":"sound"}},{"type":"Feature","geometry":{"type":"Point","coordinates":[-105.13561,43.7416]},"properties":{"api":"4900526242","name":"TANNER W-27694 4","op":"CHACO ENERGY COMPANY","co":"Campbell","st":"WY","trs":"T44N R69W S34","fm":null,"eur":4536,"perft":null,"sound":true,"fit":"sound","geur":448520,"gfit":"sound"}},{"type":"Feature","geometry":{"type":"Point","coordinates":[-105.14534,43.74857]},"properties":{"api":"4900526257","name":"BUIE W-17922 1","op":"CHACO ENERGY COMPANY","co":"Campbell","st":"WY","trs":"T44N R69W S33","fm":null,"eur":12958,"perft":null,"sound":true,"fit":"sound","geur":445550,"gfit":"sound"}},{"type":"Feature","geometry":{"type":"Point","coordinates":[-105.14147,43.74221]},"properties":{"api":"4900526258","name":"W TANNER W-27694 2","op":"CHACO ENERGY COMPANY","co":"Campbell","st":"WY","trs":"T44N R69W S33","fm":null,"eur":9641,"perft":null,"sound":true,"fit":"sound","geur":393134,"gfit":"sound"}},{"type":"Feature","geometry":{"type":"Point","coordinates":[-105.15606,43.74965]},"properties":{"api":"4900526259","name":"BUIE W-17922 2","op":"CHACO ENERGY COMPANY","co":"Campbell","st":"WY","trs":"T44N R69W S33","fm":null,"eur":50304,"perft":null,"sound":true,"fit":"sound","geur":638675,"gfit":"sound"}},{"type":"Feature","geometry":{"type":"Point","coordinates":[-105.16218,43.75579]},"properties":{"api":"4900526627","name":"FEDERAL W-58907 1-29","op":"CHACO ENERGY COMPANY","co":"Campbell","st":"WY","trs":"T44N R69W S29","fm":null,"eur":70232,"perft":null,"sound":true,"fit":"sound","geur":446644,"gfit":"sound"}},{"type":"Feature","geometry":{"type":"Point","coordinates":[-105.12745,43.78415]},"properties":{"api":"4900560608","name":"WILD WEST UNIT 3H","op":"EMEP II OPERATING LLC","co":"Campbell","st":"WY","trs":"T44N R69W S15","fm":"MOWRY","eur":null,"perft":null,"sound":false,"fit":"refused","geur":null,"gfit":"none"}},{"type":"Feature","geometry":{"type":"Point","coordinates":[-105.1079,43.74454]},"properties":{"api":"4900524340","name":"FED 49-045108 1-35","op":"NOVA ENERGY INC","co":"Campbell","st":"WY","trs":"T44N R69W S35","fm":null,"eur":null,"perft":null,"sound":false,"fit":"refused","geur":null,"gfit":"refused"}},{"type":"Feature","geometry":{"type":"Point","coordinates":[-105.13245,43.78014]},"properties":{"api":"4900559653","name":"WILD WEST UNIT 1","op":"EMEP II OPERATING LLC","co":"Campbell","st":"WY","trs":"T44N R69W S22","fm":null,"eur":null,"perft":null,"sound":false,"fit":"none","geur":null,"gfit":"none"}},{"type":"Feature","geometry":{"type":"Point","coordinates":[-105.08231,43.8103]},"properties":{"api":"4900526393","name":"FEDERAL W-35696 41-12","op":"TIMBERLINE ENERGY INC","co":"Campbell","st":"WY","trs":"T44N R69W S12","fm":null,"eur":32833,"perft":null,"sound":true,"fit":"sound","geur":32779,"gfit":"sound"}},{"type":"Feature","geometry":{"type":"Point","coordinates":[-105.16217,43.74407]},"properties":{"api":"4900526240","name":"TANNER W-027694 3","op":"DAVIS OIL COMPANY","co":"Campbell","st":"WY","trs":"T44N R69W S32","fm":null,"eur":null,"perft":null,"sound":false,"fit":"none","geur":null,"gfit":"none"}}]}