{"type":"FeatureCollection","features":[{"type":"Feature","geometry":{"type":"Point","coordinates":[-104.51584,43.83175]},"properties":{"api":"4904520307","name":"WARNER PATENTED 34-35","op":"FDF RESOURCES","co":"Weston","st":"WY","trs":"T45N R64W S35","fm":null,"eur":3153,"perft":null,"sound":true,"fit":"sound","geur":null,"gfit":"refused"}},{"type":"Feature","geometry":{"type":"Point","coordinates":[-104.50571,43.83536]},"properties":{"api":"4904520345","name":"WARNER PATENTED 33-35","op":"FDF RESOURCES","co":"Weston","st":"WY","trs":"T45N R64W S35","fm":null,"eur":null,"perft":null,"sound":false,"fit":"refused","geur":null,"gfit":"refused"}},{"type":"Feature","geometry":{"type":"Point","coordinates":[-104.48447,43.91168]},"properties":{"api":"4904520639","name":"BRADLEY GOVT 760 1","op":"OSAGE PARTNERS LLC","co":"Weston","st":"WY","trs":"T45N R64W S1","fm":null,"eur":null,"perft":null,"sound":false,"fit":"refused","geur":null,"gfit":"none"}},{"type":"Feature","geometry":{"type":"Point","coordinates":[-104.48964,43.91111]},"properties":{"api":"4904520702","name":"BRADLEY GOVT 760 2","op":"OSAGE PARTNERS LLC","co":"Weston","st":"WY","trs":"T45N R64W S1","fm":null,"eur":null,"perft":null,"sound":false,"fit":"refused","geur":null,"gfit":"none"}},{"type":"Feature","geometry":{"type":"Point","coordinates":[-104.49571,43.83534]},"properties":{"api":"4904521703","name":"STATE 76-0558 4-36","op":"SUNSHINE VALLEY PETROLEUM","co":"Weston","st":"WY","trs":"T45N R64W S36","fm":null,"eur":63366,"perft":null,"sound":true,"fit":"sound","geur":null,"gfit":"refused"}},{"type":"Feature","geometry":{"type":"Point","coordinates":[-104.50075,43.83173]},"properties":{"api":"4904520341","name":"WARNER PATENTED 44-35","op":"FDF RESOURCES","co":"Weston","st":"WY","trs":"T45N R64W S35","fm":null,"eur":5775,"perft":null,"sound":true,"fit":"sound","geur":null,"gfit":"none"}},{"type":"Feature","geometry":{"type":"Point","coordinates":[-104.50064,43.83898]},"properties":{"api":"4904520362","name":"WARNER PATENTED 42-35","op":"FDF RESOURCES","co":"Weston","st":"WY","trs":"T45N R64W S35","fm":null,"eur":null,"perft":null,"sound":false,"fit":"refused","geur":null,"gfit":"none"}},{"type":"Feature","geometry":{"type":"Point","coordinates":[-104.52029,43.83176]},"properties":{"api":"4904522715","name":"COWGER FEE 34-1","op":"SIMMONS JIMMY JR","co":"Weston","st":"WY","trs":"T45N R64W S34","fm":null,"eur":null,"perft":null,"sound":false,"fit":"none","geur":null,"gfit":"none"}},{"type":"Feature","geometry":{"type":"Point","coordinates":[-104.56972,43.91665]},"properties":{"api":"4904521765","name":"MARTENS UNIT 5-1X","op":"TOWNSEND COMPANY","co":"Weston","st":"WY","trs":"T45N R64W S5","fm":null,"eur":null,"perft":null,"sound":false,"fit":"refused","geur":null,"gfit":"none"}},{"type":"Feature","geometry":{"type":"Point","coordinates":[-104.5007,43.83537]},"properties":{"api":"4904520346","name":"WARNER PATENTED 43-35","op":"PROVIDENT RESOURCES LTD","co":"Weston","st":"WY","trs":"T45N R64W S35","fm":null,"eur":null,"perft":null,"sound":false,"fit":"none","geur":null,"gfit":"none"}},{"type":"Feature","geometry":{"type":"Point","coordinates":[-104.49758,43.8383]},"properties":{"api":"4904522234","name":"STATE 75-61088 6-36","op":"ENERGY PRODUCTION CO","co":"Weston","st":"WY","trs":"T45N R64W S36","fm":null,"eur":null,"perft":null,"sound":false,"fit":"none","geur":null,"gfit":"none"}}]}