{"type":"FeatureCollection","features":[{"type":"Feature","geometry":{"type":"Point","coordinates":[-106.41524,43.85081]},"properties":{"api":"4901906044","name":"RENO UNIT 43-24","op":"BARN OWLS LLC","co":"Johnson","st":"WY","trs":"T45N R80W S24","fm":null,"eur":675660,"perft":null,"sound":true,"fit":"sound","geur":null,"gfit":"none"}},{"type":"Feature","geometry":{"type":"Point","coordinates":[-106.41492,43.85878]},"properties":{"api":"4901906047","name":"RENO UNIT 4124","op":"BARN OWLS LLC","co":"Johnson","st":"WY","trs":"T45N R80W S24","fm":null,"eur":327586,"perft":null,"sound":true,"fit":"sound","geur":null,"gfit":"none"}},{"type":"Feature","geometry":{"type":"Point","coordinates":[-106.41453,43.86614]},"properties":{"api":"4901906210","name":"RENO UNIT 4313","op":"BARN OWLS LLC","co":"Johnson","st":"WY","trs":"T45N R80W S13","fm":null,"eur":null,"perft":null,"sound":false,"fit":"refused","geur":null,"gfit":"none"}},{"type":"Feature","geometry":{"type":"Point","coordinates":[-106.41178,43.86089]},"properties":{"api":"4901920001","name":"RENO UNIT 4224","op":"BARN OWLS LLC","co":"Johnson","st":"WY","trs":"T45N R80W S24","fm":null,"eur":733443,"perft":null,"sound":true,"fit":"sound","geur":null,"gfit":"none"}},{"type":"Feature","geometry":{"type":"Point","coordinates":[-106.45554,43.82372]},"properties":{"api":"4901920750","name":"MILDRED CARR 40-34","op":"VALKYRIE OPERATING LLC","co":"Johnson","st":"WY","trs":"T45N R80W S34","fm":null,"eur":367125,"perft":null,"sound":true,"fit":"sound","geur":null,"gfit":"refused"}},{"type":"Feature","geometry":{"type":"Point","coordinates":[-106.51954,43.86518]},"properties":{"api":"4901920787","name":"PHEASANT 4-18","op":"DIAMOND OIL & GAS LLC","co":"Johnson","st":"WY","trs":"T45N R80W S18","fm":null,"eur":null,"perft":null,"sound":false,"fit":"refused","geur":null,"gfit":"none"}},{"type":"Feature","geometry":{"type":"Point","coordinates":[-106.46477,43.83675]},"properties":{"api":"4901920794","name":"HELEN WARD  A-1","op":"VALKYRIE OPERATING LLC","co":"Johnson","st":"WY","trs":"T45N R80W S27","fm":null,"eur":null,"perft":null,"sound":false,"fit":"refused","geur":null,"gfit":"none"}},{"type":"Feature","geometry":{"type":"Point","coordinates":[-106.51554,43.87216]},"properties":{"api":"4901920807","name":"PHEASANT 2-18","op":"DIAMOND OIL & GAS LLC","co":"Johnson","st":"WY","trs":"T45N R80W S18","fm":null,"eur":486996,"perft":null,"sound":true,"fit":"sound","geur":null,"gfit":"none"}},{"type":"Feature","geometry":{"type":"Point","coordinates":[-106.45587,43.82937]},"properties":{"api":"4901920816","name":"MILDRED CARR 3-34A","op":"VALKYRIE OPERATING LLC","co":"Johnson","st":"WY","trs":"T45N R80W S34","fm":null,"eur":495315,"perft":null,"sound":true,"fit":"sound","geur":null,"gfit":"refused"}},{"type":"Feature","geometry":{"type":"Point","coordinates":[-106.51723,43.85919]},"properties":{"api":"4901920838","name":"PHEASANT FEE 2-19","op":"DIAMOND OIL & GAS LLC","co":"Johnson","st":"WY","trs":"T45N R80W S19","fm":null,"eur":null,"perft":null,"sound":false,"fit":"refused","geur":null,"gfit":"none"}},{"type":"Feature","geometry":{"type":"Point","coordinates":[-106.46806,43.82711]},"properties":{"api":"4901920695","name":"ACKERMAN 12-34","op":"VALKYRIE OPERATING LLC","co":"Johnson","st":"WY","trs":"T45N R80W S34","fm":null,"eur":416870,"perft":null,"sound":true,"fit":"sound","geur":null,"gfit":"refused"}},{"type":"Feature","geometry":{"type":"Point","coordinates":[-106.458,43.83454]},"properties":{"api":"4901920718","name":"HILL 40-27","op":"VALKYRIE OPERATING LLC","co":"Johnson","st":"WY","trs":"T45N R80W S27","fm":null,"eur":331229,"perft":null,"sound":true,"fit":"sound","geur":null,"gfit":"refused"}},{"type":"Feature","geometry":{"type":"Point","coordinates":[-106.47801,43.83429]},"properties":{"api":"4901920719","name":"PHEASANT 34-28","op":"MCMURRY OIL LLC","co":"Johnson","st":"WY","trs":"T45N R80W S28","fm":null,"eur":null,"perft":null,"sound":false,"fit":"none","geur":null,"gfit":"none"}},{"type":"Feature","geometry":{"type":"Point","coordinates":[-106.42498,43.87252]},"properties":{"api":"4901906229","name":"RENO UNIT 2213","op":"BARN OWLS LLC","co":"Johnson","st":"WY","trs":"T45N R80W S13","fm":null,"eur":null,"perft":null,"sound":false,"fit":"none","geur":null,"gfit":"none"}}]}