{"type":"FeatureCollection","features":[{"type":"Feature","geometry":{"type":"Point","coordinates":[-106.17816,43.92752]},"properties":{"api":"4901906445","name":"KU 33-25-4678S-MON","op":"CARBON CREEK ENERGY LLC","co":"Johnson","st":"WY","trs":"T46N R78W S25","fm":null,"eur":null,"perft":null,"sound":false,"fit":"none","geur":null,"gfit":"none"}},{"type":"Feature","geometry":{"type":"Point","coordinates":[-106.18765,43.97471]},"properties":{"api":"4901929013","name":"KU 12-12-4678","op":"CARBON CREEK ENERGY LLC","co":"Johnson","st":"WY","trs":"T46N R78W S12","fm":null,"eur":null,"perft":null,"sound":false,"fit":"none","geur":null,"gfit":"refused"}},{"type":"Feature","geometry":{"type":"Point","coordinates":[-106.1871,43.96826]},"properties":{"api":"4901929014","name":"KU 14-12-4678","op":"CARBON CREEK ENERGY LLC","co":"Johnson","st":"WY","trs":"T46N R78W S12","fm":null,"eur":null,"perft":null,"sound":false,"fit":"none","geur":null,"gfit":"refused"}},{"type":"Feature","geometry":{"type":"Point","coordinates":[-106.18208,43.97199]},"properties":{"api":"4901929015","name":"KU 23-12-4678","op":"CARBON CREEK ENERGY LLC","co":"Johnson","st":"WY","trs":"T46N R78W S12","fm":null,"eur":null,"perft":null,"sound":false,"fit":"none","geur":null,"gfit":"refused"}},{"type":"Feature","geometry":{"type":"Point","coordinates":[-106.17555,43.97705]},"properties":{"api":"4901929016","name":"KU 31-12-4678","op":"CARBON CREEK ENERGY LLC","co":"Johnson","st":"WY","trs":"T46N R78W S12","fm":null,"eur":null,"perft":null,"sound":false,"fit":"none","geur":null,"gfit":"refused"}},{"type":"Feature","geometry":{"type":"Point","coordinates":[-106.17852,43.97593]},"properties":{"api":"4901929017","name":"KU 32-12-4678","op":"CARBON CREEK ENERGY LLC","co":"Johnson","st":"WY","trs":"T46N R78W S12","fm":null,"eur":null,"perft":null,"sound":false,"fit":"none","geur":null,"gfit":"refused"}},{"type":"Feature","geometry":{"type":"Point","coordinates":[-106.17729,43.96893]},"properties":{"api":"4901929018","name":"KU 34-12-4678","op":"CARBON CREEK ENERGY LLC","co":"Johnson","st":"WY","trs":"T46N R78W S12","fm":null,"eur":null,"perft":null,"sound":false,"fit":"none","geur":null,"gfit":"refused"}},{"type":"Feature","geometry":{"type":"Point","coordinates":[-106.19221,43.98773]},"properties":{"api":"4901929021","name":"KU 43-2-4678","op":"CARBON CREEK ENERGY LLC","co":"Johnson","st":"WY","trs":"T46N R78W S2","fm":null,"eur":null,"perft":null,"sound":false,"fit":"none","geur":null,"gfit":"refused"}},{"type":"Feature","geometry":{"type":"Point","coordinates":[-106.19371,43.99272]},"properties":{"api":"4901929022","name":"KU 41-2-4678","op":"CARBON CREEK ENERGY LLC","co":"Johnson","st":"WY","trs":"T46N R78W S2","fm":null,"eur":null,"perft":null,"sound":false,"fit":"none","geur":null,"gfit":"refused"}},{"type":"Feature","geometry":{"type":"Point","coordinates":[-106.19977,43.98233]},"properties":{"api":"4901929023","name":"KU 34-2-4678","op":"CARBON CREEK ENERGY LLC","co":"Johnson","st":"WY","trs":"T46N R78W S2","fm":null,"eur":null,"perft":null,"sound":false,"fit":"none","geur":null,"gfit":"refused"}},{"type":"Feature","geometry":{"type":"Point","coordinates":[-106.19821,43.98972]},"properties":{"api":"4901929024","name":"KU 32-2-4678","op":"CARBON CREEK ENERGY LLC","co":"Johnson","st":"WY","trs":"T46N R78W S2","fm":null,"eur":null,"perft":null,"sound":false,"fit":"none","geur":null,"gfit":"refused"}},{"type":"Feature","geometry":{"type":"Point","coordinates":[-106.20428,43.9871]},"properties":{"api":"4901929025","name":"KU 23-2-4678","op":"CARBON CREEK ENERGY LLC","co":"Johnson","st":"WY","trs":"T46N R78W S2","fm":null,"eur":null,"perft":null,"sound":false,"fit":"none","geur":null,"gfit":"refused"}},{"type":"Feature","geometry":{"type":"Point","coordinates":[-106.20762,43.98982]},"properties":{"api":"4901929026","name":"KU 12-2-4678","op":"CARBON CREEK ENERGY LLC","co":"Johnson","st":"WY","trs":"T46N R78W S2","fm":null,"eur":null,"perft":null,"sound":false,"fit":"none","geur":70108,"gfit":"sound"}},{"type":"Feature","geometry":{"type":"Point","coordinates":[-106.18867,43.98921]},"properties":{"api":"4901929027","name":"KU 12-1-4678","op":"CARBON CREEK ENERGY LLC","co":"Johnson","st":"WY","trs":"T46N R78W S1","fm":null,"eur":null,"perft":null,"sound":false,"fit":"none","geur":null,"gfit":"refused"}},{"type":"Feature","geometry":{"type":"Point","coordinates":[-106.18633,43.98286]},"properties":{"api":"4901929028","name":"KU 14-1-4678","op":"CARBON CREEK ENERGY LLC","co":"Johnson","st":"WY","trs":"T46N R78W S1","fm":null,"eur":null,"perft":null,"sound":false,"fit":"none","geur":null,"gfit":"refused"}},{"type":"Feature","geometry":{"type":"Point","coordinates":[-106.18367,43.9855]},"properties":{"api":"4901929029","name":"KU 23-1-4678","op":"CARBON CREEK ENERGY LLC","co":"Johnson","st":"WY","trs":"T46N R78W S1","fm":null,"eur":null,"perft":null,"sound":false,"fit":"none","geur":null,"gfit":"refused"}},{"type":"Feature","geometry":{"type":"Point","coordinates":[-106.2225,43.98605]},"properties":{"api":"4901929038","name":"FEDERAL 23-3-4678","op":"CARBON CREEK ENERGY LLC","co":"Johnson","st":"WY","trs":"T46N R78W S3","fm":null,"eur":null,"perft":null,"sound":false,"fit":"none","geur":null,"gfit":"refused"}},{"type":"Feature","geometry":{"type":"Point","coordinates":[-106.18117,43.97832]},"properties":{"api":"4901929039","name":"KU 21-12-4678","op":"CARBON CREEK ENERGY LLC","co":"Johnson","st":"WY","trs":"T46N R78W S12","fm":null,"eur":null,"perft":null,"sound":false,"fit":"none","geur":null,"gfit":"refused"}},{"type":"Feature","geometry":{"type":"Point","coordinates":[-106.18403,43.99295]},"properties":{"api":"4901929040","name":"KU 21-1-4678","op":"CARBON CREEK ENERGY LLC","co":"Johnson","st":"WY","trs":"T46N R78W S1","fm":null,"eur":null,"perft":null,"sound":false,"fit":"none","geur":null,"gfit":"refused"}},{"type":"Feature","geometry":{"type":"Point","coordinates":[-106.21848,43.98881]},"properties":{"api":"4901929041","name":"FEDERAL 32-3-4678","op":"CARBON CREEK ENERGY LLC","co":"Johnson","st":"WY","trs":"T46N R78W S3","fm":null,"eur":null,"perft":null,"sound":false,"fit":"none","geur":null,"gfit":"refused"}},{"type":"Feature","geometry":{"type":"Point","coordinates":[-106.21324,43.99341]},"properties":{"api":"4901929042","name":"FEDERAL 41-3-4678","op":"CARBON CREEK ENERGY LLC","co":"Johnson","st":"WY","trs":"T46N R78W S3","fm":null,"eur":null,"perft":null,"sound":false,"fit":"none","geur":null,"gfit":"refused"}},{"type":"Feature","geometry":{"type":"Point","coordinates":[-106.20942,43.98224]},"properties":{"api":"4901929074","name":"KU 14-2-4678","op":"CARBON CREEK ENERGY LLC","co":"Johnson","st":"WY","trs":"T46N R78W S2","fm":null,"eur":null,"perft":null,"sound":false,"fit":"none","geur":null,"gfit":"refused"}},{"type":"Feature","geometry":{"type":"Point","coordinates":[-106.20259,43.99364]},"properties":{"api":"4901929076","name":"KU 21-2-4678","op":"CARBON CREEK ENERGY LLC","co":"Johnson","st":"WY","trs":"T46N R78W S2","fm":null,"eur":null,"perft":null,"sound":false,"fit":"none","geur":null,"gfit":"refused"}},{"type":"Feature","geometry":{"type":"Point","coordinates":[-106.21951,43.90809]},"properties":{"api":"4901929984","name":"NORTH PLATTE 34 1SH","op":"ATX ENERGY PARTNERS LLC","co":"Johnson","st":"WY","trs":"T46N R78W S34","fm":"SHANNON","eur":95406,"perft":null,"sound":true,"fit":"sound","geur":null,"gfit":"refused"}},{"type":"Feature","geometry":{"type":"Point","coordinates":[-106.21951,43.9082]},"properties":{"api":"4901930131","name":"MIRACLE MILE 34-27 1SH","op":"ATX ENERGY PARTNERS LLC","co":"Johnson","st":"WY","trs":"T46N R78W S34","fm":"SHANNON","eur":288027,"perft":null,"sound":true,"fit":"sound","geur":null,"gfit":"refused"}},{"type":"Feature","geometry":{"type":"Point","coordinates":[-106.17833,43.91833]},"properties":{"api":"4901922625","name":"LOOP CS STATE 1","op":"EOG RESOURCES INC","co":"Johnson","st":"WY","trs":"T46N R78W S36","fm":null,"eur":null,"perft":null,"sound":false,"fit":"none","geur":null,"gfit":"none"}},{"type":"Feature","geometry":{"type":"Point","coordinates":[-106.17231,43.921]},"properties":{"api":"4901925665","name":"CIRCLE CS STATE 1","op":"EOG RESOURCES INC","co":"Johnson","st":"WY","trs":"T46N R78W S36","fm":null,"eur":null,"perft":null,"sound":false,"fit":"none","geur":null,"gfit":"none"}},{"type":"Feature","geometry":{"type":"Point","coordinates":[-106.18165,43.91684]},"properties":{"api":"4901921528","name":"SS DRAW CS STATE 6","op":"EOG RESOURCES INC","co":"Johnson","st":"WY","trs":"T46N R78W S36","fm":null,"eur":null,"perft":null,"sound":false,"fit":"none","geur":null,"gfit":"none"}},{"type":"Feature","geometry":{"type":"Point","coordinates":[-106.17321,43.97056]},"properties":{"api":"4901929019","name":"KU 43-12-4678","op":"CARBON CREEK ENERGY LLC","co":"Johnson","st":"WY","trs":"T46N R78W S12","fm":null,"eur":null,"perft":null,"sound":false,"fit":"none","geur":null,"gfit":"refused"}},{"type":"Feature","geometry":{"type":"Point","coordinates":[-106.17336,43.96406]},"properties":{"api":"4901928492","name":"KU FALXA 41-13-4678","op":"CARBON CREEK ENERGY LLC","co":"Johnson","st":"WY","trs":"T46N R78W S13","fm":null,"eur":null,"perft":null,"sound":false,"fit":"none","geur":null,"gfit":"none"}},{"type":"Feature","geometry":{"type":"Point","coordinates":[-106.17173,43.98473]},"properties":{"api":"4901926726","name":"KU FALXA LAND 43-1-4678","op":"CARBON CREEK ENERGY LLC","co":"Johnson","st":"WY","trs":"T46N R78W S1","fm":null,"eur":null,"perft":null,"sound":false,"fit":"none","geur":null,"gfit":"refused"}},{"type":"Feature","geometry":{"type":"Point","coordinates":[-106.24835,43.9529]},"properties":{"api":"4901926897","name":"BRUBAKER STATE 13BG-16 46-78","op":"STORM CAT ENERGY USA OPERATING CORP","co":"Johnson","st":"WY","trs":"T46N R78W S16","fm":null,"eur":null,"perft":null,"sound":false,"fit":"none","geur":null,"gfit":"none"}}]}