{"type":"FeatureCollection","features":[{"type":"Feature","geometry":{"type":"Point","coordinates":[-105.19962,43.93809]},"properties":{"api":"4900524863","name":"HAHN W-55058 1","op":"MAXIM DRILLING & EXPL INC","co":"Campbell","st":"WY","trs":"T46N R69W S30","fm":null,"eur":46978,"perft":null,"sound":true,"fit":"sound","geur":3663702,"gfit":"sound"}},{"type":"Feature","geometry":{"type":"Point","coordinates":[-105.18953,43.94485]},"properties":{"api":"4900525112","name":"HAHN W-55058 6","op":"CHACO ENERGY COMPANY","co":"Campbell","st":"WY","trs":"T46N R69W S19","fm":null,"eur":7365,"perft":null,"sound":true,"fit":"sound","geur":null,"gfit":"refused"}},{"type":"Feature","geometry":{"type":"Point","coordinates":[-105.18674,43.9331]},"properties":{"api":"4900525799","name":"HAHN W-55058 10","op":"MAXIM DRILLING & EXPL INC","co":"Campbell","st":"WY","trs":"T46N R69W S30","fm":null,"eur":null,"perft":null,"sound":false,"fit":"refused","geur":510463,"gfit":"sound"}},{"type":"Feature","geometry":{"type":"Point","coordinates":[-105.19458,43.93447]},"properties":{"api":"4900526131","name":"HAHN W-55058 11","op":"MAXIM DRILLING & EXPL INC","co":"Campbell","st":"WY","trs":"T46N R69W S30","fm":null,"eur":null,"perft":null,"sound":false,"fit":"refused","geur":197652,"gfit":"sound"}},{"type":"Feature","geometry":{"type":"Point","coordinates":[-105.19876,43.99642]},"properties":{"api":"4900522280","name":"JAYSON W-0323664 12-14","op":"RIM OPERATING INC","co":"Campbell","st":"WY","trs":"T46N R69W S6","fm":null,"eur":null,"perft":null,"sound":false,"fit":"refused","geur":null,"gfit":"refused"}},{"type":"Feature","geometry":{"type":"Point","coordinates":[-105.14789,43.99657]},"properties":{"api":"4900525893","name":"WHITETAIL FEDERAL A-1","op":"SLAWSON ENERGY LLC","co":"Campbell","st":"WY","trs":"T46N R69W S4","fm":"MINNELULSA","eur":385190,"perft":null,"sound":true,"fit":"sound","geur":null,"gfit":"refused"}},{"type":"Feature","geometry":{"type":"Point","coordinates":[-105.15205,43.99652]},"properties":{"api":"4900526511","name":"WHITETAIL W-55057A 7","op":"HOME PETROLEUM CORPORATION","co":"Campbell","st":"WY","trs":"T46N R69W S4","fm":null,"eur":null,"perft":null,"sound":false,"fit":"none","geur":null,"gfit":"none"}}]}