{"type":"FeatureCollection","features":[{"type":"Feature","geometry":{"type":"Point","coordinates":[-105.7099,44.0956]},"properties":{"api":"4900560879","name":"STATE 12-36- PH","op":"BALLARD PETROLEUM HOLDINGS LLC","co":"Campbell","st":"WY","trs":"T48N R74W S36","fm":null,"eur":318540,"perft":80176,"sound":true,"fit":"sound","geur":null,"gfit":"refused"}},{"type":"Feature","geometry":{"type":"Point","coordinates":[-105.7087,44.102]},"properties":{"api":"4900562085","name":"HJ GEER FEDERAL 14-25PH","op":"BALLARD PETROLEUM HOLDINGS LLC","co":"Campbell","st":"WY","trs":"T48N R74W S25","fm":"PARKMAN","eur":null,"perft":null,"sound":false,"fit":"refused","geur":41726,"gfit":"sound"}},{"type":"Feature","geometry":{"type":"Point","coordinates":[-105.6917,44.0915]},"properties":{"api":"4900562397","name":"STATE 43-36 PH","op":"BALLARD PETROLEUM HOLDINGS LLC","co":"Campbell","st":"WY","trs":"T48N R74W S36","fm":"PARKMAN","eur":351819,"perft":null,"sound":true,"fit":"sound","geur":64605,"gfit":"sound"}},{"type":"Feature","geometry":{"type":"Point","coordinates":[-105.7479,44.08861]},"properties":{"api":"4900526860","name":"AMOCO MANKIN 1A","op":"DIAMOND OIL & GAS LLC","co":"Campbell","st":"WY","trs":"T48N R74W S34","fm":null,"eur":null,"perft":null,"sound":false,"fit":"refused","geur":null,"gfit":"refused"}},{"type":"Feature","geometry":{"type":"Point","coordinates":[-105.72368,44.11808]},"properties":{"api":"4900531072","name":"TRUE 24-23","op":"TRUE OIL LLC","co":"Campbell","st":"WY","trs":"T48N R74W S23","fm":null,"eur":null,"perft":null,"sound":false,"fit":"refused","geur":null,"gfit":"refused"}},{"type":"Feature","geometry":{"type":"Point","coordinates":[-105.7241,44.10963]},"properties":{"api":"4900531073","name":"PHILLIPS 22-26","op":"TRUE OIL LLC","co":"Campbell","st":"WY","trs":"T48N R74W S26","fm":"PARKMAN","eur":null,"perft":null,"sound":false,"fit":"refused","geur":null,"gfit":"refused"}},{"type":"Feature","geometry":{"type":"Point","coordinates":[-105.72888,44.12059]},"properties":{"api":"4900531290","name":"TRUE FED 13-23","op":"TRUE OIL LLC","co":"Campbell","st":"WY","trs":"T48N R74W S23","fm":"PARKMAN","eur":null,"perft":null,"sound":false,"fit":"refused","geur":null,"gfit":"refused"}},{"type":"Feature","geometry":{"type":"Point","coordinates":[-105.72332,44.12455]},"properties":{"api":"4900531632","name":"TRUE STATE 22-23","op":"TRUE OIL LLC","co":"Campbell","st":"WY","trs":"T48N R74W S23","fm":"PARKMAN","eur":null,"perft":null,"sound":false,"fit":"refused","geur":null,"gfit":"refused"}},{"type":"Feature","geometry":{"type":"Point","coordinates":[-105.72922,44.10655]},"properties":{"api":"4900531637","name":"DAVIDSON 13-26","op":"TRUE OIL LLC","co":"Campbell","st":"WY","trs":"T48N R74W S26","fm":"PARKMAN","eur":null,"perft":null,"sound":false,"fit":"refused","geur":null,"gfit":"refused"}},{"type":"Feature","geometry":{"type":"Point","coordinates":[-105.72847,44.12833]},"properties":{"api":"4900531640","name":"MANKIN 11-23","op":"TRUE OIL LLC","co":"Campbell","st":"WY","trs":"T48N R74W S23","fm":null,"eur":null,"perft":null,"sound":false,"fit":"refused","geur":null,"gfit":"refused"}},{"type":"Feature","geometry":{"type":"Point","coordinates":[-105.69971,44.11496]},"properties":{"api":"4900579457","name":"JM 24-24-12 SH","op":"BALLARD PETROLEUM HOLDINGS LLC","co":"Campbell","st":"WY","trs":"T48N R74W S25","fm":null,"eur":null,"perft":null,"sound":false,"fit":"none","geur":null,"gfit":"none"}},{"type":"Feature","geometry":{"type":"Point","coordinates":[-105.69972,44.1151]},"properties":{"api":"4900579736","name":"JM 34-24-12SH","op":"BALLARD PETROLEUM HOLDINGS LLC","co":"Campbell","st":"WY","trs":"T48N R74W S25","fm":null,"eur":null,"perft":null,"sound":false,"fit":"none","geur":null,"gfit":"none"}},{"type":"Feature","geometry":{"type":"Point","coordinates":[-105.72836,44.11355]},"properties":{"api":"4900530695","name":"PHILLIPS 11-26","op":"TRUE OIL LLC","co":"Campbell","st":"WY","trs":"T48N R74W S26","fm":null,"eur":null,"perft":null,"sound":false,"fit":"refused","geur":null,"gfit":"refused"}},{"type":"Feature","geometry":{"type":"Point","coordinates":[-105.73394,44.10992]},"properties":{"api":"4900532057","name":"ROOSTER CANYON 2","op":"EOG RESOURCES INC","co":"Campbell","st":"WY","trs":"T48N R74W S27","fm":"PARKMAN","eur":null,"perft":null,"sound":false,"fit":"refused","geur":null,"gfit":"refused"}},{"type":"Feature","geometry":{"type":"Point","coordinates":[-105.74984,44.10991]},"properties":{"api":"4900559964","name":"MANKIN 12-27H","op":"TRUE OIL LLC","co":"Campbell","st":"WY","trs":"T48N R74W S27","fm":"PARKMAN","eur":42315,"perft":4700,"sound":true,"fit":"sound","geur":null,"gfit":"refused"}},{"type":"Feature","geometry":{"type":"Point","coordinates":[-105.80291,44.10608]},"properties":{"api":"4900536018","name":"NISSELIUS CS FEDERAL 30-23U","op":"EOG RESOURCES INC","co":"Campbell","st":"WY","trs":"T48N R74W S30","fm":null,"eur":null,"perft":null,"sound":false,"fit":"none","geur":null,"gfit":"none"}},{"type":"Feature","geometry":{"type":"Point","coordinates":[-105.79796,44.08766]},"properties":{"api":"4900536020","name":"NISSELIUS CS FEDERAL 31-34L","op":"EOG RESOURCES INC","co":"Campbell","st":"WY","trs":"T48N R74W S31","fm":null,"eur":null,"perft":null,"sound":false,"fit":"none","geur":null,"gfit":"none"}},{"type":"Feature","geometry":{"type":"Point","coordinates":[-105.78333,44.10611]},"properties":{"api":"4900536038","name":"NISSELIUS CS FEDERAL 29-23 L","op":"EOG RESOURCES INC","co":"Campbell","st":"WY","trs":"T48N R74W S29","fm":null,"eur":null,"perft":null,"sound":false,"fit":"none","geur":null,"gfit":"none"}},{"type":"Feature","geometry":{"type":"Point","coordinates":[-105.80281,44.10595]},"properties":{"api":"4900536047","name":"NISSELIUS CS FEDERAL 30-23L","op":"EOG RESOURCES INC","co":"Campbell","st":"WY","trs":"T48N R74W S30","fm":null,"eur":null,"perft":null,"sound":false,"fit":"none","geur":null,"gfit":"none"}},{"type":"Feature","geometry":{"type":"Point","coordinates":[-105.79786,44.10234]},"properties":{"api":"4900536049","name":"NISSELIUS CS FEDERAL 30-34L","op":"EOG RESOURCES INC","co":"Campbell","st":"WY","trs":"T48N R74W S30","fm":null,"eur":null,"perft":null,"sound":false,"fit":"none","geur":null,"gfit":"none"}},{"type":"Feature","geometry":{"type":"Point","coordinates":[-105.79301,44.10611]},"properties":{"api":"4900536051","name":"NISSELIUS CS FEDERAL 30-43L","op":"EOG RESOURCES INC","co":"Campbell","st":"WY","trs":"T48N R74W S30","fm":null,"eur":null,"perft":null,"sound":false,"fit":"none","geur":null,"gfit":"none"}},{"type":"Feature","geometry":{"type":"Point","coordinates":[-105.7983,44.10963]},"properties":{"api":"4900536053","name":"NISSELIUS CS FEDERAL 30-32L","op":"EOG RESOURCES INC","co":"Campbell","st":"WY","trs":"T48N R74W S30","fm":null,"eur":null,"perft":null,"sound":false,"fit":"none","geur":null,"gfit":"none"}},{"type":"Feature","geometry":{"type":"Point","coordinates":[-105.79299,44.11312]},"properties":{"api":"4900536055","name":"NISSELIUS CS FEDERAL 30-41L","op":"EOG RESOURCES INC","co":"Campbell","st":"WY","trs":"T48N R74W S30","fm":null,"eur":null,"perft":null,"sound":false,"fit":"none","geur":null,"gfit":"none"}},{"type":"Feature","geometry":{"type":"Point","coordinates":[-105.80729,44.10948]},"properties":{"api":"4900536057","name":"NISSELIUS CS FEDERAL 30-12 L","op":"EOG RESOURCES INC","co":"Campbell","st":"WY","trs":"T48N R74W S30","fm":null,"eur":null,"perft":null,"sound":false,"fit":"none","geur":null,"gfit":"none"}},{"type":"Feature","geometry":{"type":"Point","coordinates":[-105.80268,44.11303]},"properties":{"api":"4900536058","name":"NISSELIUS CS FEDERAL 30-21L","op":"EOG RESOURCES INC","co":"Campbell","st":"WY","trs":"T48N R74W S30","fm":null,"eur":null,"perft":null,"sound":false,"fit":"none","geur":null,"gfit":"none"}},{"type":"Feature","geometry":{"type":"Point","coordinates":[-105.79783,44.09493]},"properties":{"api":"4900536062","name":"NISSELIUS CS FEDERAL 31-32L","op":"EOG RESOURCES INC","co":"Campbell","st":"WY","trs":"T48N R74W S31","fm":null,"eur":null,"perft":null,"sound":false,"fit":"none","geur":null,"gfit":"refused"}},{"type":"Feature","geometry":{"type":"Point","coordinates":[-105.79296,44.09875]},"properties":{"api":"4900536064","name":"NISSELIUS CS FEDERAL COM 31-41L","op":"EOG RESOURCES INC","co":"Campbell","st":"WY","trs":"T48N R74W S31","fm":null,"eur":null,"perft":null,"sound":false,"fit":"none","geur":null,"gfit":"none"}},{"type":"Feature","geometry":{"type":"Point","coordinates":[-105.80712,44.09487]},"properties":{"api":"4900536065","name":"NISSELIUS CS FEDERAL 31-12 U","op":"EOG RESOURCES INC","co":"Campbell","st":"WY","trs":"T48N R74W S31","fm":null,"eur":null,"perft":null,"sound":false,"fit":"none","geur":null,"gfit":"refused"}},{"type":"Feature","geometry":{"type":"Point","coordinates":[-105.80727,44.09497]},"properties":{"api":"4900536066","name":"NISSELIUS CS FEDERAL 31-12L","op":"EOG RESOURCES INC","co":"Campbell","st":"WY","trs":"T48N R74W S31","fm":null,"eur":null,"perft":null,"sound":false,"fit":"none","geur":null,"gfit":"none"}},{"type":"Feature","geometry":{"type":"Point","coordinates":[-105.80265,44.09856]},"properties":{"api":"4900536067","name":"NISSELIUS CS FEDERAL 31-21 U","op":"EOG RESOURCES INC","co":"Campbell","st":"WY","trs":"T48N R74W S31","fm":null,"eur":null,"perft":null,"sound":false,"fit":"none","geur":null,"gfit":"refused"}},{"type":"Feature","geometry":{"type":"Point","coordinates":[-105.80278,44.09867]},"properties":{"api":"4900536068","name":"NISSELIUS CS FEDERAL 31-21 L","op":"EOG RESOURCES INC","co":"Campbell","st":"WY","trs":"T48N R74W S31","fm":null,"eur":null,"perft":null,"sound":false,"fit":"none","geur":null,"gfit":"none"}},{"type":"Feature","geometry":{"type":"Point","coordinates":[-105.80722,44.10227]},"properties":{"api":"4900536069","name":"NISSELIUS CS FEDERAL 30-14U","op":"EOG RESOURCES INC","co":"Campbell","st":"WY","trs":"T48N R74W S30","fm":null,"eur":null,"perft":null,"sound":false,"fit":"none","geur":null,"gfit":"refused"}},{"type":"Feature","geometry":{"type":"Point","coordinates":[-105.80741,44.10227]},"properties":{"api":"4900536070","name":"NISSELIUS CS FEDERAL 30-14 L","op":"EOG RESOURCES INC","co":"Campbell","st":"WY","trs":"T48N R74W S30","fm":null,"eur":null,"perft":null,"sound":false,"fit":"none","geur":null,"gfit":"none"}},{"type":"Feature","geometry":{"type":"Point","coordinates":[-105.80727,44.08788]},"properties":{"api":"4900536071","name":"NISSELIUS CS FEDERAL 31-14 U","op":"EOG RESOURCES INC","co":"Campbell","st":"WY","trs":"T48N R74W S31","fm":null,"eur":null,"perft":null,"sound":false,"fit":"none","geur":487405,"gfit":"sound"}},{"type":"Feature","geometry":{"type":"Point","coordinates":[-105.80733,44.08774]},"properties":{"api":"4900536072","name":"NISSELIUS CS FEDERAL 31-14 L","op":"EOG RESOURCES INC","co":"Campbell","st":"WY","trs":"T48N R74W S31","fm":null,"eur":null,"perft":null,"sound":false,"fit":"none","geur":null,"gfit":"none"}},{"type":"Feature","geometry":{"type":"Point","coordinates":[-105.79788,44.08778]},"properties":{"api":"4900536073","name":"NISSELIUS CS FEDERAL 31-34U","op":"EOG RESOURCES INC","co":"Campbell","st":"WY","trs":"T48N R74W S31","fm":null,"eur":null,"perft":null,"sound":false,"fit":"none","geur":null,"gfit":"refused"}},{"type":"Feature","geometry":{"type":"Point","coordinates":[-105.8028,44.09142]},"properties":{"api":"4900536074","name":"NISSELIUS CS FEDERAL 31-23U","op":"EOG RESOURCES INC","co":"Campbell","st":"WY","trs":"T48N R74W S31","fm":null,"eur":null,"perft":null,"sound":false,"fit":"none","geur":null,"gfit":"refused"}},{"type":"Feature","geometry":{"type":"Point","coordinates":[-105.80286,44.0913]},"properties":{"api":"4900536075","name":"NISSELIUS CS FEDERAL 31-23 L","op":"EOG RESOURCES INC","co":"Campbell","st":"WY","trs":"T48N R74W S31","fm":null,"eur":null,"perft":null,"sound":false,"fit":"none","geur":null,"gfit":"none"}},{"type":"Feature","geometry":{"type":"Point","coordinates":[-105.75812,44.13194]},"properties":{"api":"4900549996","name":"HEN CS STATE 8","op":"EOG RESOURCES INC","co":"Campbell","st":"WY","trs":"T48N R74W S16","fm":null,"eur":null,"perft":null,"sound":false,"fit":"none","geur":null,"gfit":"none"}},{"type":"Feature","geometry":{"type":"Point","coordinates":[-105.76333,44.12806]},"properties":{"api":"4900552617","name":"CHANTICLEER CS FED 1","op":"EOG RESOURCES INC","co":"Campbell","st":"WY","trs":"T48N R74W S21","fm":null,"eur":null,"perft":null,"sound":false,"fit":"none","geur":null,"gfit":"none"}},{"type":"Feature","geometry":{"type":"Point","coordinates":[-105.6983,44.1037]},"properties":{"api":"4900541969","name":"MANKIN 34-25-4874","op":"CARBON CREEK ENERGY LLC","co":"Campbell","st":"WY","trs":"T48N R74W S25","fm":null,"eur":null,"perft":null,"sound":false,"fit":"none","geur":null,"gfit":"refused"}},{"type":"Feature","geometry":{"type":"Point","coordinates":[-105.70848,44.1105]},"properties":{"api":"4900549882","name":"D. MANKIN FED 12-25-4874","op":"CARBON CREEK ENERGY LLC","co":"Campbell","st":"WY","trs":"T48N R74W S25","fm":null,"eur":null,"perft":null,"sound":false,"fit":"none","geur":null,"gfit":"refused"}},{"type":"Feature","geometry":{"type":"Point","coordinates":[-105.71731,44.11352]},"properties":{"api":"4900529293","name":"PHILLIPS 31-26","op":"TRUE OIL LLC","co":"Campbell","st":"WY","trs":"T48N R74W S26","fm":null,"eur":null,"perft":null,"sound":false,"fit":"refused","geur":null,"gfit":"refused"}},{"type":"Feature","geometry":{"type":"Point","coordinates":[-105.693,44.1217]},"properties":{"api":"4900541934","name":"MATHES 43-24-4874","op":"CARBON CREEK ENERGY LLC","co":"Campbell","st":"WY","trs":"T48N R74W S24","fm":null,"eur":null,"perft":null,"sound":false,"fit":"none","geur":474638,"gfit":"sound"}},{"type":"Feature","geometry":{"type":"Point","coordinates":[-105.7071,44.1457]},"properties":{"api":"4900541972","name":"GEIS 14-12-4874","op":"CARBON CREEK ENERGY LLC","co":"Campbell","st":"WY","trs":"T48N R74W S12","fm":null,"eur":null,"perft":null,"sound":false,"fit":"none","geur":null,"gfit":"refused"}},{"type":"Feature","geometry":{"type":"Point","coordinates":[-105.6917,44.1572]},"properties":{"api":"4900541976","name":"GEIS 41-12-4874","op":"CARBON CREEK ENERGY LLC","co":"Campbell","st":"WY","trs":"T48N R74W S12","fm":null,"eur":null,"perft":null,"sound":false,"fit":"none","geur":267930,"gfit":"sound"}},{"type":"Feature","geometry":{"type":"Point","coordinates":[-105.69838,44.11785]},"properties":{"api":"4900542724","name":"MANKIN 34-24-4874","op":"CARBON CREEK ENERGY LLC","co":"Campbell","st":"WY","trs":"T48N R74W S24","fm":null,"eur":null,"perft":null,"sound":false,"fit":"none","geur":null,"gfit":"refused"}},{"type":"Feature","geometry":{"type":"Point","coordinates":[-105.70326,44.11437]},"properties":{"api":"4900549884","name":"D. MANKIN FED 21-25-4874","op":"CARBON CREEK ENERGY LLC","co":"Campbell","st":"WY","trs":"T48N R74W S25","fm":null,"eur":null,"perft":null,"sound":false,"fit":"none","geur":434791,"gfit":"sound"}},{"type":"Feature","geometry":{"type":"Point","coordinates":[-105.6919,44.1505]},"properties":{"api":"4900541924","name":"GEIS 43-12-4874","op":"CARBON CREEK ENERGY LLC","co":"Campbell","st":"WY","trs":"T48N R74W S12","fm":null,"eur":null,"perft":null,"sound":false,"fit":"none","geur":485620,"gfit":"sound"}},{"type":"Feature","geometry":{"type":"Point","coordinates":[-105.7071,44.1318]},"properties":{"api":"4900541942","name":"GEIS 14-13-4874","op":"CARBON CREEK ENERGY LLC","co":"Campbell","st":"WY","trs":"T48N R74W S13","fm":null,"eur":null,"perft":null,"sound":false,"fit":"none","geur":null,"gfit":"refused"}},{"type":"Feature","geometry":{"type":"Point","coordinates":[-105.7079,44.1382]},"properties":{"api":"4900541945","name":"GEIS 12-13-4874","op":"CARBON CREEK ENERGY LLC","co":"Campbell","st":"WY","trs":"T48N R74W S13","fm":null,"eur":null,"perft":null,"sound":false,"fit":"none","geur":null,"gfit":"refused"}},{"type":"Feature","geometry":{"type":"Point","coordinates":[-105.6982,44.1388]},"properties":{"api":"4900541953","name":"GEIS 32-13-4874","op":"CARBON CREEK ENERGY LLC","co":"Campbell","st":"WY","trs":"T48N R74W S13","fm":null,"eur":null,"perft":null,"sound":false,"fit":"none","geur":220448,"gfit":"sound"}},{"type":"Feature","geometry":{"type":"Point","coordinates":[-105.6926,44.1426]},"properties":{"api":"4900541951","name":"GEIS 41-13-4874","op":"CARBON CREEK ENERGY LLC","co":"Campbell","st":"WY","trs":"T48N R74W S13","fm":null,"eur":null,"perft":null,"sound":false,"fit":"none","geur":386114,"gfit":"sound"}},{"type":"Feature","geometry":{"type":"Point","coordinates":[-105.6927,44.107]},"properties":{"api":"4900541970","name":"MANKIN 43-25-4874","op":"WPX ENERGY ROCKY MOUNTAIN LLC","co":"Campbell","st":"WY","trs":"T48N R74W S25","fm":null,"eur":null,"perft":null,"sound":false,"fit":"none","geur":327154,"gfit":"sound"}},{"type":"Feature","geometry":{"type":"Point","coordinates":[-105.77777,44.10972]},"properties":{"api":"4900536037","name":"MANKIN CS FEDERAL 29-32 L","op":"EOG Y RESOURCES INC","co":"Campbell","st":"WY","trs":"T48N R74W S29","fm":null,"eur":null,"perft":null,"sound":false,"fit":"none","geur":null,"gfit":"none"}},{"type":"Feature","geometry":{"type":"Point","coordinates":[-105.77796,44.10247]},"properties":{"api":"4900536040","name":"NISSELIUS CS FEDERAL 29-34 L","op":"EOG Y RESOURCES INC","co":"Campbell","st":"WY","trs":"T48N R74W S29","fm":null,"eur":null,"perft":null,"sound":false,"fit":"none","geur":null,"gfit":"none"}},{"type":"Feature","geometry":{"type":"Point","coordinates":[-105.773,44.10644]},"properties":{"api":"4900536042","name":"NISSELIUS CS FEDERAL 29-43 L","op":"EOG Y RESOURCES INC","co":"Campbell","st":"WY","trs":"T48N R74W S29","fm":null,"eur":null,"perft":null,"sound":false,"fit":"none","geur":null,"gfit":"none"}},{"type":"Feature","geometry":{"type":"Point","coordinates":[-105.78845,44.10245]},"properties":{"api":"4900536061","name":"NISSELIUS CS FEDERAL 29-14 L","op":"EOG Y RESOURCES INC","co":"Campbell","st":"WY","trs":"T48N R74W S29","fm":null,"eur":null,"perft":null,"sound":false,"fit":"none","geur":null,"gfit":"none"}},{"type":"Feature","geometry":{"type":"Point","coordinates":[-105.69301,44.11366]},"properties":{"api":"4900537490","name":"MANKIN 41-25","op":"WPX ENERGY ROCKY MOUNTAIN LLC","co":"Campbell","st":"WY","trs":"T48N R74W S25","fm":null,"eur":null,"perft":null,"sound":false,"fit":"none","geur":309233,"gfit":"sound"}},{"type":"Feature","geometry":{"type":"Point","coordinates":[-105.6975,44.11]},"properties":{"api":"4900541933","name":"MANKIN 32-25-48-74","op":"WPX ENERGY ROCKY MOUNTAIN LLC","co":"Campbell","st":"WY","trs":"T48N R74W S25","fm":null,"eur":null,"perft":null,"sound":false,"fit":"none","geur":389344,"gfit":"sound"}},{"type":"Feature","geometry":{"type":"Point","coordinates":[-105.6929,44.1363]},"properties":{"api":"4900541950","name":"GEIS 43-13-4874","op":"CARBON CREEK ENERGY LLC","co":"Campbell","st":"WY","trs":"T48N R74W S13","fm":null,"eur":null,"perft":null,"sound":false,"fit":"none","geur":275189,"gfit":"sound"}},{"type":"Feature","geometry":{"type":"Point","coordinates":[-105.6975,44.1322]},"properties":{"api":"4900541952","name":"GEIS 34-13-4874","op":"CARBON CREEK ENERGY LLC","co":"Campbell","st":"WY","trs":"T48N R74W S13","fm":null,"eur":null,"perft":null,"sound":false,"fit":"none","geur":null,"gfit":"refused"}},{"type":"Feature","geometry":{"type":"Point","coordinates":[-105.6976,44.1465]},"properties":{"api":"4900541975","name":"GEIS 34-12-4874","op":"CARBON CREEK ENERGY LLC","co":"Campbell","st":"WY","trs":"T48N R74W S12","fm":null,"eur":null,"perft":null,"sound":false,"fit":"none","geur":null,"gfit":"refused"}},{"type":"Feature","geometry":{"type":"Point","coordinates":[-105.7088,44.10346]},"properties":{"api":"4900549883","name":"HARI GEER FEDERAL 14-25-4874","op":"CARBON CREEK ENERGY LLC","co":"Campbell","st":"WY","trs":"T48N R74W S25","fm":null,"eur":null,"perft":null,"sound":false,"fit":"none","geur":null,"gfit":"refused"}},{"type":"Feature","geometry":{"type":"Point","coordinates":[-105.70267,44.10637]},"properties":{"api":"4900549885","name":"HARI GEER FEDERAL 23-25-4874","op":"CARBON CREEK ENERGY LLC","co":"Campbell","st":"WY","trs":"T48N R74W S25","fm":null,"eur":null,"perft":null,"sound":false,"fit":"none","geur":null,"gfit":"refused"}},{"type":"Feature","geometry":{"type":"Point","coordinates":[-105.73317,44.09199]},"properties":{"api":"4900533256","name":"MANKIN 43-34","op":"WPX ENERGY ROCKY MOUNTAIN LLC","co":"Campbell","st":"WY","trs":"T48N R74W S34","fm":null,"eur":null,"perft":null,"sound":false,"fit":"none","geur":null,"gfit":"refused"}},{"type":"Feature","geometry":{"type":"Point","coordinates":[-105.72285,44.09206]},"properties":{"api":"4900533257","name":"MANKIN 23-35","op":"WPX ENERGY ROCKY MOUNTAIN LLC","co":"Campbell","st":"WY","trs":"T48N R74W S35","fm":null,"eur":null,"perft":null,"sound":false,"fit":"none","geur":null,"gfit":"refused"}},{"type":"Feature","geometry":{"type":"Point","coordinates":[-105.7283,44.0955]},"properties":{"api":"4900541839","name":"MANKIN 12-35-4874","op":"WPX ENERGY ROCKY MOUNTAIN LLC","co":"Campbell","st":"WY","trs":"T48N R74W S35","fm":null,"eur":null,"perft":null,"sound":false,"fit":"none","geur":null,"gfit":"refused"}},{"type":"Feature","geometry":{"type":"Point","coordinates":[-105.7388,44.0958]},"properties":{"api":"4900541841","name":"MANKIN 32-34-48-74","op":"WPX ENERGY ROCKY MOUNTAIN LLC","co":"Campbell","st":"WY","trs":"T48N R74W S34","fm":null,"eur":null,"perft":null,"sound":false,"fit":"none","geur":null,"gfit":"refused"}},{"type":"Feature","geometry":{"type":"Point","coordinates":[-105.7443,44.0991]},"properties":{"api":"4900541925","name":"DAVIDSON 21-34-4874","op":"CARBON CREEK ENERGY LLC","co":"Campbell","st":"WY","trs":"T48N R74W S34","fm":null,"eur":null,"perft":null,"sound":false,"fit":"none","geur":null,"gfit":"refused"}},{"type":"Feature","geometry":{"type":"Point","coordinates":[-105.7546,44.1058]},"properties":{"api":"4900541927","name":"MANKIN 43-28-4874","op":"CARBON CREEK ENERGY LLC","co":"Campbell","st":"WY","trs":"T48N R74W S28","fm":null,"eur":null,"perft":null,"sound":false,"fit":"none","geur":null,"gfit":"none"}},{"type":"Feature","geometry":{"type":"Point","coordinates":[-105.7018,44.1419]},"properties":{"api":"4900541941","name":"GEIS 21-13-4874","op":"WPX ENERGY ROCKY MOUNTAIN LLC","co":"Campbell","st":"WY","trs":"T48N R74W S13","fm":null,"eur":null,"perft":null,"sound":false,"fit":"none","geur":null,"gfit":"refused"}},{"type":"Feature","geometry":{"type":"Point","coordinates":[-105.7493,44.1025]},"properties":{"api":"4900541944","name":"DAVIDSON 14-27-4874","op":"CARBON CREEK ENERGY LLC","co":"Campbell","st":"WY","trs":"T48N R74W S27","fm":null,"eur":null,"perft":null,"sound":false,"fit":"none","geur":null,"gfit":"refused"}},{"type":"Feature","geometry":{"type":"Point","coordinates":[-105.703,44.135]},"properties":{"api":"4900541954","name":"GEIS 23-13-4874","op":"WPX ENERGY ROCKY MOUNTAIN LLC","co":"Campbell","st":"WY","trs":"T48N R74W S13","fm":null,"eur":null,"perft":null,"sound":false,"fit":"none","geur":null,"gfit":"refused"}},{"type":"Feature","geometry":{"type":"Point","coordinates":[-105.7025,44.1496]},"properties":{"api":"4900541973","name":"GEIS 23-12-4874","op":"CARBON CREEK ENERGY LLC","co":"Campbell","st":"WY","trs":"T48N R74W S12","fm":null,"eur":null,"perft":null,"sound":false,"fit":"none","geur":null,"gfit":"refused"}},{"type":"Feature","geometry":{"type":"Point","coordinates":[-105.698,44.153]},"properties":{"api":"4900541974","name":"GEIS 32-12-4874","op":"CARBON CREEK ENERGY LLC","co":"Campbell","st":"WY","trs":"T48N R74W S12","fm":null,"eur":null,"perft":null,"sound":false,"fit":"none","geur":null,"gfit":"refused"}},{"type":"Feature","geometry":{"type":"Point","coordinates":[-105.74979,44.09598]},"properties":{"api":"4900542757","name":"MANKIN 12-34-4874","op":"WPX ENERGY ROCKY MOUNTAIN LLC","co":"Campbell","st":"WY","trs":"T48N R74W S34","fm":null,"eur":null,"perft":null,"sound":false,"fit":"none","geur":null,"gfit":"refused"}},{"type":"Feature","geometry":{"type":"Point","coordinates":[-105.74335,44.09168]},"properties":{"api":"4900542758","name":"MANKIN 23-34-4874","op":"WPX ENERGY ROCKY MOUNTAIN LLC","co":"Campbell","st":"WY","trs":"T48N R74W S34","fm":null,"eur":null,"perft":null,"sound":false,"fit":"none","geur":null,"gfit":"refused"}},{"type":"Feature","geometry":{"type":"Point","coordinates":[-105.70704,44.15275]},"properties":{"api":"4900542767","name":"SAUNDERS 12-12-4874","op":"CARBON CREEK ENERGY LLC","co":"Campbell","st":"WY","trs":"T48N R74W S12","fm":null,"eur":null,"perft":null,"sound":false,"fit":"none","geur":null,"gfit":"refused"}},{"type":"Feature","geometry":{"type":"Point","coordinates":[-105.74948,44.08838]},"properties":{"api":"4900543961","name":"MANKIN 14-34-4874","op":"WPX ENERGY ROCKY MOUNTAIN LLC","co":"Campbell","st":"WY","trs":"T48N R74W S34","fm":null,"eur":null,"perft":null,"sound":false,"fit":"none","geur":null,"gfit":"refused"}},{"type":"Feature","geometry":{"type":"Point","coordinates":[-105.72835,44.08865]},"properties":{"api":"4900549886","name":"D. MANKIN FED 14-35-4874","op":"CARBON CREEK ENERGY LLC","co":"Campbell","st":"WY","trs":"T48N R74W S35","fm":null,"eur":null,"perft":null,"sound":false,"fit":"none","geur":null,"gfit":"refused"}},{"type":"Feature","geometry":{"type":"Point","coordinates":[-105.71053,44.17039]},"properties":{"api":"4900538268","name":"WHITE 41-2-4874","op":"WPX ENERGY ROCKY MOUNTAIN LLC","co":"Campbell","st":"WY","trs":"T48N R74W S2","fm":null,"eur":null,"perft":null,"sound":false,"fit":"none","geur":null,"gfit":"refused"}},{"type":"Feature","geometry":{"type":"Point","coordinates":[-105.7395,44.0888]},"properties":{"api":"4900541840","name":"MANKIN 34-34-4874","op":"WPX ENERGY ROCKY MOUNTAIN LLC","co":"Campbell","st":"WY","trs":"T48N R74W S34","fm":null,"eur":null,"perft":null,"sound":false,"fit":"none","geur":null,"gfit":"refused"}},{"type":"Feature","geometry":{"type":"Point","coordinates":[-105.6932,44.0924]},"properties":{"api":"4900541937","name":"STATE 43-36-4874","op":"CARBON CREEK ENERGY LLC","co":"Campbell","st":"WY","trs":"T48N R74W S36","fm":null,"eur":null,"perft":null,"sound":false,"fit":"none","geur":null,"gfit":"refused"}},{"type":"Feature","geometry":{"type":"Point","coordinates":[-105.6988,44.0891]},"properties":{"api":"4900541961","name":"STATE 34-36-4874","op":"CARBON CREEK ENERGY LLC","co":"Campbell","st":"WY","trs":"T48N R74W S36","fm":null,"eur":null,"perft":null,"sound":false,"fit":"none","geur":null,"gfit":"refused"}},{"type":"Feature","geometry":{"type":"Point","coordinates":[-105.6928,44.099]},"properties":{"api":"4900541962","name":"STATE 41-36-4874","op":"CARBON CREEK ENERGY LLC","co":"Campbell","st":"WY","trs":"T48N R74W S36","fm":null,"eur":null,"perft":null,"sound":false,"fit":"none","geur":null,"gfit":"refused"}},{"type":"Feature","geometry":{"type":"Point","coordinates":[-105.6978,44.0955]},"properties":{"api":"4900541963","name":"STATE 32-36-4874","op":"CARBON CREEK ENERGY LLC","co":"Campbell","st":"WY","trs":"T48N R74W S36","fm":null,"eur":null,"perft":null,"sound":false,"fit":"none","geur":null,"gfit":"refused"}},{"type":"Feature","geometry":{"type":"Point","coordinates":[-105.7037,44.0926]},"properties":{"api":"4900541964","name":"STATE 23-36-4874","op":"CARBON CREEK ENERGY LLC","co":"Campbell","st":"WY","trs":"T48N R74W S36","fm":null,"eur":null,"perft":null,"sound":false,"fit":"none","geur":null,"gfit":"refused"}},{"type":"Feature","geometry":{"type":"Point","coordinates":[-105.7034,44.0995]},"properties":{"api":"4900541965","name":"STATE 21-36-4874","op":"CARBON CREEK ENERGY LLC","co":"Campbell","st":"WY","trs":"T48N R74W S36","fm":null,"eur":null,"perft":null,"sound":false,"fit":"none","geur":null,"gfit":"refused"}},{"type":"Feature","geometry":{"type":"Point","coordinates":[-105.7087,44.0883]},"properties":{"api":"4900541966","name":"STATE 14-36-4874","op":"CARBON CREEK ENERGY LLC","co":"Campbell","st":"WY","trs":"T48N R74W S36","fm":null,"eur":null,"perft":null,"sound":false,"fit":"none","geur":null,"gfit":"none"}},{"type":"Feature","geometry":{"type":"Point","coordinates":[-105.7083,44.0962]},"properties":{"api":"4900541967","name":"STATE 12-36-4874","op":"CARBON CREEK ENERGY LLC","co":"Campbell","st":"WY","trs":"T48N R74W S36","fm":null,"eur":null,"perft":null,"sound":false,"fit":"none","geur":null,"gfit":"refused"}},{"type":"Feature","geometry":{"type":"Point","coordinates":[-105.70194,44.15691]},"properties":{"api":"4900542768","name":"SAUNDERS 21-12-4874","op":"CARBON CREEK ENERGY LLC","co":"Campbell","st":"WY","trs":"T48N R74W S12","fm":null,"eur":null,"perft":null,"sound":false,"fit":"none","geur":7229,"gfit":"sound"}},{"type":"Feature","geometry":{"type":"Point","coordinates":[-105.71715,44.1664]},"properties":{"api":"4900544973","name":"WHITE 32-2-4874","op":"WPX ENERGY ROCKY MOUNTAIN LLC","co":"Campbell","st":"WY","trs":"T48N R74W S2","fm":null,"eur":null,"perft":null,"sound":false,"fit":"none","geur":null,"gfit":"refused"}},{"type":"Feature","geometry":{"type":"Point","coordinates":[-105.72201,44.16966]},"properties":{"api":"4900544974","name":"WHITE 21-2-4874","op":"WPX ENERGY ROCKY MOUNTAIN LLC","co":"Campbell","st":"WY","trs":"T48N R74W S2","fm":null,"eur":null,"perft":null,"sound":false,"fit":"none","geur":null,"gfit":"refused"}},{"type":"Feature","geometry":{"type":"Point","coordinates":[-105.71214,44.16308]},"properties":{"api":"4900545509","name":"SAUNDERS 43-2-4874","op":"CARBON CREEK ENERGY LLC","co":"Campbell","st":"WY","trs":"T48N R74W S2","fm":null,"eur":null,"perft":null,"sound":false,"fit":"none","geur":null,"gfit":"none"}},{"type":"Feature","geometry":{"type":"Point","coordinates":[-105.72153,44.16322]},"properties":{"api":"4900545510","name":"BARKER TRUST 23-2-4874","op":"WPX ENERGY ROCKY MOUNTAIN LLC","co":"Campbell","st":"WY","trs":"T48N R74W S2","fm":null,"eur":null,"perft":null,"sound":false,"fit":"none","geur":null,"gfit":"none"}},{"type":"Feature","geometry":{"type":"Point","coordinates":[-105.69166,44.16385]},"properties":{"api":"4900545511","name":"SAUNDERS 43-1-4874","op":"CARBON CREEK ENERGY LLC","co":"Campbell","st":"WY","trs":"T48N R74W S1","fm":null,"eur":null,"perft":null,"sound":false,"fit":"none","geur":null,"gfit":"refused"}},{"type":"Feature","geometry":{"type":"Point","coordinates":[-105.6912,44.17035]},"properties":{"api":"4900545512","name":"SAUNDERS 41-1-4874","op":"CARBON CREEK ENERGY LLC","co":"Campbell","st":"WY","trs":"T48N R74W S1","fm":null,"eur":null,"perft":null,"sound":false,"fit":"none","geur":null,"gfit":"refused"}},{"type":"Feature","geometry":{"type":"Point","coordinates":[-105.69719,44.16053]},"properties":{"api":"4900545513","name":"SAUNDERS 34-1-4874","op":"CARBON CREEK ENERGY LLC","co":"Campbell","st":"WY","trs":"T48N R74W S1","fm":null,"eur":null,"perft":null,"sound":false,"fit":"none","geur":null,"gfit":"refused"}},{"type":"Feature","geometry":{"type":"Point","coordinates":[-105.69634,44.16756]},"properties":{"api":"4900545514","name":"SAUNDERS 32-1-4874","op":"CARBON CREEK ENERGY LLC","co":"Campbell","st":"WY","trs":"T48N R74W S1","fm":null,"eur":null,"perft":null,"sound":false,"fit":"none","geur":null,"gfit":"refused"}},{"type":"Feature","geometry":{"type":"Point","coordinates":[-105.70212,44.16353]},"properties":{"api":"4900545515","name":"SAUNDERS 23-1-4874","op":"CARBON CREEK ENERGY LLC","co":"Campbell","st":"WY","trs":"T48N R74W S1","fm":null,"eur":null,"perft":null,"sound":false,"fit":"none","geur":null,"gfit":"refused"}},{"type":"Feature","geometry":{"type":"Point","coordinates":[-105.70058,44.17068]},"properties":{"api":"4900545516","name":"SAUNDERS 21-1-4874","op":"CARBON CREEK ENERGY LLC","co":"Campbell","st":"WY","trs":"T48N R74W S1","fm":null,"eur":null,"perft":null,"sound":false,"fit":"none","geur":null,"gfit":"refused"}},{"type":"Feature","geometry":{"type":"Point","coordinates":[-105.70729,44.15971]},"properties":{"api":"4900545517","name":"SAUNDERS 14-1-4874","op":"CARBON CREEK ENERGY LLC","co":"Campbell","st":"WY","trs":"T48N R74W S1","fm":null,"eur":null,"perft":null,"sound":false,"fit":"none","geur":null,"gfit":"refused"}},{"type":"Feature","geometry":{"type":"Point","coordinates":[-105.70597,44.16678]},"properties":{"api":"4900545518","name":"SAUNDERS 12-1-4874","op":"CARBON CREEK ENERGY LLC","co":"Campbell","st":"WY","trs":"T48N R74W S1","fm":null,"eur":null,"perft":null,"sound":false,"fit":"none","geur":null,"gfit":"refused"}},{"type":"Feature","geometry":{"type":"Point","coordinates":[-105.71812,44.15286]},"properties":{"api":"4900548722","name":"BARKER TRUST 32-11-4874","op":"WPX ENERGY ROCKY MOUNTAIN LLC","co":"Campbell","st":"WY","trs":"T48N R74W S11","fm":null,"eur":null,"perft":null,"sound":false,"fit":"none","geur":null,"gfit":"none"}},{"type":"Feature","geometry":{"type":"Point","coordinates":[-105.72298,44.15562]},"properties":{"api":"4900548723","name":"BARKER TRUST 21-11-4874","op":"WPX ENERGY ROCKY MOUNTAIN LLC","co":"Campbell","st":"WY","trs":"T48N R74W S11","fm":null,"eur":null,"perft":null,"sound":false,"fit":"none","geur":null,"gfit":"refused"}},{"type":"Feature","geometry":{"type":"Point","coordinates":[-105.71835,44.08862]},"properties":{"api":"4900549888","name":"D MANKIN FED 34-35-4874","op":"CARBON CREEK ENERGY LLC","co":"Campbell","st":"WY","trs":"T48N R74W S35","fm":null,"eur":null,"perft":null,"sound":false,"fit":"none","geur":null,"gfit":"none"}},{"type":"Feature","geometry":{"type":"Point","coordinates":[-105.71289,44.0991]},"properties":{"api":"4900549889","name":"D. MANKIN FED 41-35-4874","op":"CARBON CREEK ENERGY LLC","co":"Campbell","st":"WY","trs":"T48N R74W S35","fm":null,"eur":null,"perft":null,"sound":false,"fit":"none","geur":null,"gfit":"refused"}},{"type":"Feature","geometry":{"type":"Point","coordinates":[-105.71314,44.09303]},"properties":{"api":"4900549890","name":"D. MANKIN FED 43-35-4874","op":"WPX ENERGY ROCKY MOUNTAIN LLC","co":"Campbell","st":"WY","trs":"T48N R74W S35","fm":null,"eur":null,"perft":null,"sound":false,"fit":"none","geur":null,"gfit":"refused"}},{"type":"Feature","geometry":{"type":"Point","coordinates":[-105.71742,44.1617]},"properties":{"api":"4900550245","name":"BARKER TRUST 33-2-4874","op":"WPX ENERGY ROCKY MOUNTAIN LLC","co":"Campbell","st":"WY","trs":"T48N R74W S2","fm":null,"eur":null,"perft":null,"sound":false,"fit":"none","geur":null,"gfit":"none"}},{"type":"Feature","geometry":{"type":"Point","coordinates":[-105.70216,44.12554]},"properties":{"api":"4900534364","name":"TRUE STATE CBM 22-24","op":"ANADARKO PETROLEUM CORPORATION","co":"Campbell","st":"WY","trs":"T48N R74W S24","fm":null,"eur":null,"perft":null,"sound":false,"fit":"none","geur":null,"gfit":"refused"}},{"type":"Feature","geometry":{"type":"Point","coordinates":[-105.71728,44.12896]},"properties":{"api":"4900534373","name":"MANKIN CBM 31-23","op":"ANADARKO E&P ONSHORE LLC","co":"Campbell","st":"WY","trs":"T48N R74W S23","fm":null,"eur":null,"perft":null,"sound":false,"fit":"none","geur":null,"gfit":"refused"}},{"type":"Feature","geometry":{"type":"Point","coordinates":[-105.69224,44.12525]},"properties":{"api":"4900534379","name":"TRUE STATE CBM 42-24","op":"ANADARKO E&P ONSHORE LLC","co":"Campbell","st":"WY","trs":"T48N R74W S24","fm":null,"eur":null,"perft":null,"sound":false,"fit":"none","geur":null,"gfit":"refused"}},{"type":"Feature","geometry":{"type":"Point","coordinates":[-105.69729,44.12894]},"properties":{"api":"4900534382","name":"TRUE STATE CBM 31-24","op":"ANADARKO PETROLEUM CORPORATION","co":"Campbell","st":"WY","trs":"T48N R74W S24","fm":null,"eur":null,"perft":null,"sound":false,"fit":"none","geur":null,"gfit":"refused"}},{"type":"Feature","geometry":{"type":"Point","coordinates":[-105.73883,44.12798]},"properties":{"api":"4900535844","name":"MANKIN CBM 31-22","op":"ANADARKO PETROLEUM CORPORATION","co":"Campbell","st":"WY","trs":"T48N R74W S22","fm":null,"eur":null,"perft":null,"sound":false,"fit":"none","geur":null,"gfit":"none"}},{"type":"Feature","geometry":{"type":"Point","coordinates":[-105.73347,44.1252]},"properties":{"api":"4900535845","name":"MANKIN CBM 42-22","op":"ANADARKO E&P ONSHORE LLC","co":"Campbell","st":"WY","trs":"T48N R74W S22","fm":null,"eur":null,"perft":null,"sound":false,"fit":"none","geur":null,"gfit":"refused"}},{"type":"Feature","geometry":{"type":"Point","coordinates":[-105.73802,44.13533]},"properties":{"api":"4900535846","name":"MANKIN CBM 33-15","op":"ANADARKO PETROLEUM CORPORATION","co":"Campbell","st":"WY","trs":"T48N R74W S15","fm":null,"eur":null,"perft":null,"sound":false,"fit":"none","geur":null,"gfit":"none"}},{"type":"Feature","geometry":{"type":"Point","coordinates":[-105.73335,44.13208]},"properties":{"api":"4900535847","name":"MANKIN CBM 44-15","op":"ANADARKO PETROLEUM CORPORATION","co":"Campbell","st":"WY","trs":"T48N R74W S15","fm":null,"eur":null,"perft":null,"sound":false,"fit":"none","geur":null,"gfit":"none"}},{"type":"Feature","geometry":{"type":"Point","coordinates":[-105.72332,44.11009]},"properties":{"api":"4900537388","name":"PHILLIPS FEDERAL CBM 22-26","op":"ANADARKO PETROLEUM CORPORATION","co":"Campbell","st":"WY","trs":"T48N R74W S26","fm":null,"eur":null,"perft":null,"sound":false,"fit":"none","geur":null,"gfit":"refused"}},{"type":"Feature","geometry":{"type":"Point","coordinates":[-105.71279,44.11063]},"properties":{"api":"4900537389","name":"PHILLIPS FEDERAL CBM 42-26","op":"ANADARKO PETROLEUM CORPORATION","co":"Campbell","st":"WY","trs":"T48N R74W S26","fm":null,"eur":null,"perft":null,"sound":false,"fit":"none","geur":null,"gfit":"refused"}},{"type":"Feature","geometry":{"type":"Point","coordinates":[-105.72848,44.11413]},"properties":{"api":"4900537390","name":"PHILLIPS FEDERAL CBM 11-26","op":"ANADARKO PETROLEUM CORPORATION","co":"Campbell","st":"WY","trs":"T48N R74W S26","fm":null,"eur":null,"perft":null,"sound":false,"fit":"none","geur":null,"gfit":"refused"}},{"type":"Feature","geometry":{"type":"Point","coordinates":[-105.72326,44.1178]},"properties":{"api":"4900537391","name":"TRUE FED CBM 24-23","op":"ANADARKO PETROLEUM CORPORATION","co":"Campbell","st":"WY","trs":"T48N R74W S23","fm":null,"eur":null,"perft":null,"sound":false,"fit":"none","geur":null,"gfit":"refused"}},{"type":"Feature","geometry":{"type":"Point","coordinates":[-105.72838,44.12124]},"properties":{"api":"4900537392","name":"TRUE FED CBM 13-23","op":"ANADARKO PETROLEUM CORPORATION","co":"Campbell","st":"WY","trs":"T48N R74W S23","fm":null,"eur":null,"perft":null,"sound":false,"fit":"none","geur":null,"gfit":"refused"}},{"type":"Feature","geometry":{"type":"Point","coordinates":[-105.71764,44.1142]},"properties":{"api":"4900537393","name":"PHILLIPS FEDERAL CBM 31-26","op":"ANADARKO PETROLEUM CORPORATION","co":"Campbell","st":"WY","trs":"T48N R74W S26","fm":null,"eur":null,"perft":null,"sound":false,"fit":"none","geur":null,"gfit":"refused"}},{"type":"Feature","geometry":{"type":"Point","coordinates":[-105.75899,44.09488]},"properties":{"api":"4900542070","name":"MANKIN 7-33-48-74","op":"PENNACO ENERGY INCORPORATED","co":"Campbell","st":"WY","trs":"T48N R74W S33","fm":null,"eur":null,"perft":null,"sound":false,"fit":"none","geur":null,"gfit":"none"}},{"type":"Feature","geometry":{"type":"Point","coordinates":[-105.75949,44.08823]},"properties":{"api":"4900542442","name":"MANKIN 15-33-48-74 WY","op":"PENNACO ENERGY INCORPORATED","co":"Campbell","st":"WY","trs":"T48N R74W S33","fm":null,"eur":null,"perft":null,"sound":false,"fit":"none","geur":null,"gfit":"none"}},{"type":"Feature","geometry":{"type":"Point","coordinates":[-105.70722,44.12806]},"properties":{"api":"4900543449","name":"TRUE STATE 11R-24","op":"ANADARKO PETROLEUM CORPORATION","co":"Campbell","st":"WY","trs":"T48N R74W S24","fm":null,"eur":null,"perft":null,"sound":false,"fit":"none","geur":null,"gfit":"refused"}},{"type":"Feature","geometry":{"type":"Point","coordinates":[-105.7075,44.12083]},"properties":{"api":"4900543450","name":"MANKIN 13R-24","op":"ANADARKO E&P ONSHORE LLC","co":"Campbell","st":"WY","trs":"T48N R74W S24","fm":null,"eur":null,"perft":null,"sound":false,"fit":"none","geur":null,"gfit":"refused"}},{"type":"Feature","geometry":{"type":"Point","coordinates":[-105.70332,44.11784]},"properties":{"api":"4900543452","name":"MANKIN 24R-24","op":"ANADARKO PETROLEUM CORPORATION","co":"Campbell","st":"WY","trs":"T48N R74W S24","fm":null,"eur":null,"perft":null,"sound":false,"fit":"none","geur":null,"gfit":"refused"}},{"type":"Feature","geometry":{"type":"Point","coordinates":[-105.7125,44.12417]},"properties":{"api":"4900543695","name":"MANKIN 42R-23","op":"ANADARKO E&P ONSHORE LLC","co":"Campbell","st":"WY","trs":"T48N R74W S23","fm":null,"eur":null,"perft":null,"sound":false,"fit":"none","geur":null,"gfit":"refused"}},{"type":"Feature","geometry":{"type":"Point","coordinates":[-105.7222,44.12833]},"properties":{"api":"4900544660","name":"MANKIN 21-23","op":"ANADARKO PETROLEUM CORPORATION","co":"Campbell","st":"WY","trs":"T48N R74W S23","fm":null,"eur":null,"perft":null,"sound":false,"fit":"none","geur":null,"gfit":"refused"}},{"type":"Feature","geometry":{"type":"Point","coordinates":[-105.72722,44.12389]},"properties":{"api":"4900544661","name":"MANKIN 12-23","op":"ANADARKO PETROLEUM CORPORATION","co":"Campbell","st":"WY","trs":"T48N R74W S23","fm":null,"eur":null,"perft":null,"sound":false,"fit":"none","geur":null,"gfit":"none"}},{"type":"Feature","geometry":{"type":"Point","coordinates":[-105.72306,44.10511]},"properties":{"api":"4900544662","name":"DAVIDSON 23-26","op":"ANADARKO PETROLEUM CORPORATION","co":"Campbell","st":"WY","trs":"T48N R74W S26","fm":null,"eur":null,"perft":null,"sound":false,"fit":"none","geur":null,"gfit":"refused"}},{"type":"Feature","geometry":{"type":"Point","coordinates":[-105.72855,44.10297]},"properties":{"api":"4900544663","name":"DAVIDSON 14-26","op":"ANADARKO PETROLEUM CORPORATION","co":"Campbell","st":"WY","trs":"T48N R74W S26","fm":null,"eur":null,"perft":null,"sound":false,"fit":"none","geur":null,"gfit":"none"}},{"type":"Feature","geometry":{"type":"Point","coordinates":[-105.73667,44.1025]},"properties":{"api":"4900544664","name":"DAVIDSON 34-27","op":"ANADARKO PETROLEUM CORPORATION","co":"Campbell","st":"WY","trs":"T48N R74W S27","fm":null,"eur":null,"perft":null,"sound":false,"fit":"none","geur":null,"gfit":"none"}},{"type":"Feature","geometry":{"type":"Point","coordinates":[-105.74139,44.10611]},"properties":{"api":"4900544665","name":"MANKIN 23-27","op":"ANADARKO PETROLEUM CORPORATION","co":"Campbell","st":"WY","trs":"T48N R74W S27","fm":null,"eur":null,"perft":null,"sound":false,"fit":"none","geur":null,"gfit":"refused"}},{"type":"Feature","geometry":{"type":"Point","coordinates":[-105.74722,44.10944]},"properties":{"api":"4900544666","name":"MANKIN 12-27","op":"ANSCHUTZ EXPLORATION CORPORATION","co":"Campbell","st":"WY","trs":"T48N R74W S27","fm":null,"eur":null,"perft":null,"sound":false,"fit":"none","geur":null,"gfit":"none"}},{"type":"Feature","geometry":{"type":"Point","coordinates":[-105.73389,44.09917]},"properties":{"api":"4900545177","name":"DAVIDSON 41-34","op":"ANADARKO E&P ONSHORE LLC","co":"Campbell","st":"WY","trs":"T48N R74W S34","fm":null,"eur":null,"perft":null,"sound":false,"fit":"none","geur":null,"gfit":"none"}},{"type":"Feature","geometry":{"type":"Point","coordinates":[-105.72583,44.16639]},"properties":{"api":"4900547681","name":"PHILLIPS FED 2 12-2","op":"ANADARKO PETROLEUM CORPORATION","co":"Campbell","st":"WY","trs":"T48N R74W S2","fm":null,"eur":null,"perft":null,"sound":false,"fit":"none","geur":null,"gfit":"none"}},{"type":"Feature","geometry":{"type":"Point","coordinates":[-105.72644,44.15914]},"properties":{"api":"4900547682","name":"PHILLIPS FED 2 14-2","op":"ANADARKO PETROLEUM CORPORATION","co":"Campbell","st":"WY","trs":"T48N R74W S2","fm":null,"eur":null,"perft":null,"sound":false,"fit":"none","geur":null,"gfit":"none"}},{"type":"Feature","geometry":{"type":"Point","coordinates":[-105.73051,44.16972]},"properties":{"api":"4900547685","name":"PHILLIPS FED 2 41-3","op":"ANADARKO PETROLEUM CORPORATION","co":"Campbell","st":"WY","trs":"T48N R74W S3","fm":null,"eur":null,"perft":null,"sound":false,"fit":"none","geur":null,"gfit":"none"}},{"type":"Feature","geometry":{"type":"Point","coordinates":[-105.72694,44.14556]},"properties":{"api":"4900547691","name":"PHILLIPS FED 2 14-11","op":"ANADARKO PETROLEUM CORPORATION","co":"Campbell","st":"WY","trs":"T48N R74W S11","fm":null,"eur":null,"perft":null,"sound":false,"fit":"none","geur":null,"gfit":"none"}},{"type":"Feature","geometry":{"type":"Point","coordinates":[-105.72126,44.14913]},"properties":{"api":"4900547692","name":"PHILLIPS FED 2 23-11","op":"ANADARKO PETROLEUM CORPORATION","co":"Campbell","st":"WY","trs":"T48N R74W S11","fm":null,"eur":null,"perft":null,"sound":false,"fit":"none","geur":null,"gfit":"none"}},{"type":"Feature","geometry":{"type":"Point","coordinates":[-105.73699,44.14575]},"properties":{"api":"4900547693","name":"PHILLIPS FED 2 34-11","op":"ANADARKO PETROLEUM CORPORATION","co":"Campbell","st":"WY","trs":"T48N R74W S11","fm":null,"eur":null,"perft":null,"sound":false,"fit":"none","geur":null,"gfit":"none"}},{"type":"Feature","geometry":{"type":"Point","coordinates":[-105.71167,44.14944]},"properties":{"api":"4900547694","name":"PHILLIPS FED 2 43-11","op":"ANADARKO PETROLEUM CORPORATION","co":"Campbell","st":"WY","trs":"T48N R74W S11","fm":null,"eur":null,"perft":null,"sound":false,"fit":"none","geur":null,"gfit":"refused"}},{"type":"Feature","geometry":{"type":"Point","coordinates":[-105.72667,44.13194]},"properties":{"api":"4900547695","name":"PHILLIPS FED 2 14-14","op":"ANADARKO PETROLEUM CORPORATION","co":"Campbell","st":"WY","trs":"T48N R74W S14","fm":null,"eur":null,"perft":null,"sound":false,"fit":"none","geur":null,"gfit":"none"}},{"type":"Feature","geometry":{"type":"Point","coordinates":[-105.72167,44.1425]},"properties":{"api":"4900547696","name":"PHILLIPS FED 2 21-14","op":"ANADARKO PETROLEUM CORPORATION","co":"Campbell","st":"WY","trs":"T48N R74W S14","fm":null,"eur":null,"perft":null,"sound":false,"fit":"none","geur":null,"gfit":"none"}},{"type":"Feature","geometry":{"type":"Point","coordinates":[-105.72194,44.13528]},"properties":{"api":"4900547697","name":"PHILLIPS FED 2 23-14","op":"ANADARKO PETROLEUM CORPORATION","co":"Campbell","st":"WY","trs":"T48N R74W S14","fm":null,"eur":null,"perft":null,"sound":false,"fit":"none","geur":null,"gfit":"none"}},{"type":"Feature","geometry":{"type":"Point","coordinates":[-105.74722,44.13111]},"properties":{"api":"4900547698","name":"DEAD HORSE FED 14-15","op":"ANADARKO PETROLEUM CORPORATION","co":"Campbell","st":"WY","trs":"T48N R74W S15","fm":null,"eur":null,"perft":null,"sound":false,"fit":"none","geur":null,"gfit":"none"}},{"type":"Feature","geometry":{"type":"Point","coordinates":[-105.74194,44.14139]},"properties":{"api":"4900547699","name":"DEAD HORSE FED 21-15","op":"ANADARKO PETROLEUM CORPORATION","co":"Campbell","st":"WY","trs":"T48N R74W S15","fm":null,"eur":null,"perft":null,"sound":false,"fit":"none","geur":null,"gfit":"none"}},{"type":"Feature","geometry":{"type":"Point","coordinates":[-105.73722,44.13833]},"properties":{"api":"4900547700","name":"PHILLIPS FED 32-15","op":"ANADARKO PETROLEUM CORPORATION","co":"Campbell","st":"WY","trs":"T48N R74W S15","fm":null,"eur":null,"perft":null,"sound":false,"fit":"none","geur":null,"gfit":"none"}},{"type":"Feature","geometry":{"type":"Point","coordinates":[-105.73191,44.14249]},"properties":{"api":"4900547701","name":"PHILLIPS FED 41-15","op":"ANADARKO PETROLEUM CORPORATION","co":"Campbell","st":"WY","trs":"T48N R74W S15","fm":null,"eur":null,"perft":null,"sound":false,"fit":"none","geur":null,"gfit":"none"}},{"type":"Feature","geometry":{"type":"Point","coordinates":[-105.75222,44.12806]},"properties":{"api":"4900547703","name":"KRAMER FED 41-21","op":"ANADARKO PETROLEUM CORPORATION","co":"Campbell","st":"WY","trs":"T48N R74W S21","fm":null,"eur":null,"perft":null,"sound":false,"fit":"none","geur":null,"gfit":"none"}},{"type":"Feature","geometry":{"type":"Point","coordinates":[-105.7175,44.1025]},"properties":{"api":"4900547704","name":"PHILLIPS FED 34-26","op":"ANADARKO E&P ONSHORE LLC","co":"Campbell","st":"WY","trs":"T48N R74W S26","fm":null,"eur":null,"perft":null,"sound":false,"fit":"none","geur":null,"gfit":"none"}},{"type":"Feature","geometry":{"type":"Point","coordinates":[-105.71222,44.10667]},"properties":{"api":"4900547705","name":"PHILLIPS FED 43-26","op":"ANADARKO PETROLEUM CORPORATION","co":"Campbell","st":"WY","trs":"T48N R74W S26","fm":null,"eur":null,"perft":null,"sound":false,"fit":"none","geur":null,"gfit":"refused"}},{"type":"Feature","geometry":{"type":"Point","coordinates":[-105.72691,44.13806]},"properties":{"api":"4900547709","name":"PHILLIPS FD 12-14 2","op":"ANADARKO PETROLEUM CORPORATION","co":"Campbell","st":"WY","trs":"T48N R74W S14","fm":null,"eur":null,"perft":null,"sound":false,"fit":"none","geur":null,"gfit":"none"}},{"type":"Feature","geometry":{"type":"Point","coordinates":[-105.74498,44.13875]},"properties":{"api":"4900547710","name":"DEAD HORSE FED 12-15","op":"ANADARKO PETROLEUM CORPORATION","co":"Campbell","st":"WY","trs":"T48N R74W S15","fm":null,"eur":null,"perft":null,"sound":false,"fit":"none","geur":null,"gfit":"none"}},{"type":"Feature","geometry":{"type":"Point","coordinates":[-105.7408,44.13527]},"properties":{"api":"4900547711","name":"DEAD HORSE FED 23-15","op":"ANADARKO PETROLEUM CORPORATION","co":"Campbell","st":"WY","trs":"T48N R74W S15","fm":null,"eur":null,"perft":null,"sound":false,"fit":"none","geur":null,"gfit":"refused"}},{"type":"Feature","geometry":{"type":"Point","coordinates":[-105.7125,44.14139]},"properties":{"api":"4900548903","name":"BLUEGATE FED. 41-14","op":"ANADARKO PETROLEUM CORPORATION","co":"Campbell","st":"WY","trs":"T48N R74W S14","fm":null,"eur":null,"perft":null,"sound":false,"fit":"none","geur":null,"gfit":"refused"}},{"type":"Feature","geometry":{"type":"Point","coordinates":[-105.71806,44.11806]},"properties":{"api":"4900548905","name":"BLUEGATE FED. 34-23","op":"ANADARKO PETROLEUM CORPORATION","co":"Campbell","st":"WY","trs":"T48N R74W S23","fm":null,"eur":null,"perft":null,"sound":false,"fit":"none","geur":null,"gfit":"refused"}},{"type":"Feature","geometry":{"type":"Point","coordinates":[-105.71278,44.12139]},"properties":{"api":"4900548906","name":"BLUEGATE FED. 43-23","op":"ANADARKO PETROLEUM CORPORATION","co":"Campbell","st":"WY","trs":"T48N R74W S23","fm":null,"eur":null,"perft":null,"sound":false,"fit":"none","geur":null,"gfit":"refused"}},{"type":"Feature","geometry":{"type":"Point","coordinates":[-105.71194,44.13528]},"properties":{"api":"4900548907","name":"BLUEGATE FED. 43-14","op":"ANADARKO PETROLEUM CORPORATION","co":"Campbell","st":"WY","trs":"T48N R74W S14","fm":null,"eur":null,"perft":null,"sound":false,"fit":"none","geur":null,"gfit":"refused"}},{"type":"Feature","geometry":{"type":"Point","coordinates":[-105.71778,44.13194]},"properties":{"api":"4900548908","name":"BLUEGATE FED. 34-14","op":"ANADARKO PETROLEUM CORPORATION","co":"Campbell","st":"WY","trs":"T48N R74W S14","fm":null,"eur":null,"perft":null,"sound":false,"fit":"none","geur":null,"gfit":"refused"}},{"type":"Feature","geometry":{"type":"Point","coordinates":[-105.76849,44.10272]},"properties":{"api":"4900541943","name":"NISSELIUS RANCH CO 13-28-48-74 WY","op":"PENNACO ENERGY INCORPORATED","co":"Campbell","st":"WY","trs":"T48N R74W S28","fm":null,"eur":null,"perft":null,"sound":false,"fit":"none","geur":null,"gfit":"none"}},{"type":"Feature","geometry":{"type":"Point","coordinates":[-105.7542,44.09903]},"properties":{"api":"4900542071","name":"MANKIN 1-33-48-74 WY","op":"PENNACO ENERGY INCORPORATED","co":"Campbell","st":"WY","trs":"T48N R74W S33","fm":null,"eur":null,"perft":null,"sound":false,"fit":"none","geur":null,"gfit":"none"}},{"type":"Feature","geometry":{"type":"Point","coordinates":[-105.754,44.0918]},"properties":{"api":"4900542443","name":"MANKIN 9-33-48-74 WY","op":"PENNACO ENERGY INCORPORATED","co":"Campbell","st":"WY","trs":"T48N R74W S33","fm":null,"eur":null,"perft":null,"sound":false,"fit":"none","geur":null,"gfit":"none"}},{"type":"Feature","geometry":{"type":"Point","coordinates":[-105.76408,44.099]},"properties":{"api":"4900542875","name":"NISSELIUS RANCH 3-33-48-74 WY","op":"PENNACO ENERGY INCORPORATED","co":"Campbell","st":"WY","trs":"T48N R74W S33","fm":null,"eur":null,"perft":null,"sound":false,"fit":"none","geur":null,"gfit":"none"}},{"type":"Feature","geometry":{"type":"Point","coordinates":[-105.76928,44.08836]},"properties":{"api":"4900542881","name":"NISDSELIUS RANCH 13-33-48-74 WY","op":"PENNACO ENERGY INCORPORATED","co":"Campbell","st":"WY","trs":"T48N R74W S33","fm":null,"eur":null,"perft":null,"sound":false,"fit":"none","geur":null,"gfit":"refused"}},{"type":"Feature","geometry":{"type":"Point","coordinates":[-105.76427,44.09149]},"properties":{"api":"4900542882","name":"NISSELIUS RANCH 11-33-48-74 WY","op":"PENNACO ENERGY INCORPORATED","co":"Campbell","st":"WY","trs":"T48N R74W S33","fm":null,"eur":null,"perft":null,"sound":false,"fit":"none","geur":null,"gfit":"none"}},{"type":"Feature","geometry":{"type":"Point","coordinates":[-105.78876,44.09528]},"properties":{"api":"4900546612","name":"NISSELIUS RANCH 5-32-48-74 WY","op":"PENNACO ENERGY INCORPORATED","co":"Campbell","st":"WY","trs":"T48N R74W S32","fm":null,"eur":null,"perft":null,"sound":false,"fit":"none","geur":null,"gfit":"none"}},{"type":"Feature","geometry":{"type":"Point","coordinates":[-105.78388,44.09162]},"properties":{"api":"4900546614","name":"NISSELIUS RANCH 11-32-48-74 WY","op":"PENNACO ENERGY INCORPORATED","co":"Campbell","st":"WY","trs":"T48N R74W S32","fm":null,"eur":null,"perft":null,"sound":false,"fit":"none","geur":null,"gfit":"none"}},{"type":"Feature","geometry":{"type":"Point","coordinates":[-105.80844,44.12347]},"properties":{"api":"4900549202","name":"NISSELIUS RANCH 12-19-4874","op":"COLEMAN OIL & GAS INC","co":"Campbell","st":"WY","trs":"T48N R74W S19","fm":null,"eur":null,"perft":null,"sound":false,"fit":"none","geur":null,"gfit":"none"}},{"type":"Feature","geometry":{"type":"Point","coordinates":[-105.70241,44.11785]},"properties":{"api":"4900534362","name":"MANKIN CBM 24-24","op":"CONOCOPHILLIPS COMPANY","co":"Campbell","st":"WY","trs":"T48N R74W S24","fm":null,"eur":null,"perft":null,"sound":false,"fit":"none","geur":null,"gfit":"none"}},{"type":"Feature","geometry":{"type":"Point","coordinates":[-105.7073,44.12149]},"properties":{"api":"4900534367","name":"MANKIN 13-24","op":"CONOCOPHILLIPS COMPANY","co":"Campbell","st":"WY","trs":"T48N R74W S24","fm":null,"eur":null,"perft":null,"sound":false,"fit":"none","geur":null,"gfit":"none"}},{"type":"Feature","geometry":{"type":"Point","coordinates":[-105.70714,44.12905]},"properties":{"api":"4900534369","name":"TRUE STATE CBM 11-24","op":"CONOCOPHILLIPS COMPANY","co":"Campbell","st":"WY","trs":"T48N R74W S24","fm":null,"eur":null,"perft":null,"sound":false,"fit":"none","geur":null,"gfit":"none"}},{"type":"Feature","geometry":{"type":"Point","coordinates":[-105.71234,44.1257]},"properties":{"api":"4900534370","name":"MANKIN 42-23","op":"CONOCOPHILLIPS COMPANY","co":"Campbell","st":"WY","trs":"T48N R74W S23","fm":null,"eur":null,"perft":null,"sound":false,"fit":"none","geur":null,"gfit":"none"}},{"type":"Feature","geometry":{"type":"Point","coordinates":[-105.72302,44.12546]},"properties":{"api":"4900534374","name":"TRUE STATE CBM 22-23","op":"CONOCOPHILLIPS COMPANY","co":"Campbell","st":"WY","trs":"T48N R74W S23","fm":null,"eur":null,"perft":null,"sound":false,"fit":"none","geur":null,"gfit":"none"}},{"type":"Feature","geometry":{"type":"Point","coordinates":[-105.72194,44.09889]},"properties":{"api":"4900544667","name":"DAVIDSON 21-35","op":"CONOCOPHILLIPS COMPANY","co":"Campbell","st":"WY","trs":"T48N R74W S35","fm":null,"eur":null,"perft":null,"sound":false,"fit":"none","geur":null,"gfit":"none"}}]}