{"type":"FeatureCollection","features":[{"type":"Feature","geometry":{"type":"Point","coordinates":[-106.07361,44.17111]},"properties":{"api":"4901921884","name":"VAN HOUTEN DRAW CS 11","op":"EOG RESOURCES INC","co":"Johnson","st":"WY","trs":"T49N R77W S36","fm":null,"eur":null,"perft":null,"sound":false,"fit":"none","geur":null,"gfit":"refused"}},{"type":"Feature","geometry":{"type":"Point","coordinates":[-106.06917,44.17528]},"properties":{"api":"4901922579","name":"VAN HOUTEN DRAW CS 9","op":"EOG RESOURCES INC","co":"Johnson","st":"WY","trs":"T49N R77W S36","fm":null,"eur":null,"perft":null,"sound":false,"fit":"none","geur":null,"gfit":"refused"}},{"type":"Feature","geometry":{"type":"Point","coordinates":[-106.15528,44.255]},"properties":{"api":"4901922839","name":"PVU 11-5-4977","op":"CARBON CREEK ENERGY LLC","co":"Johnson","st":"WY","trs":"T49N R77W S5","fm":null,"eur":null,"perft":null,"sound":false,"fit":"none","geur":235698,"gfit":"sound"}},{"type":"Feature","geometry":{"type":"Point","coordinates":[-106.15583,44.24694]},"properties":{"api":"4901922840","name":"PVU 13-5-4977","op":"CARBON CREEK ENERGY LLC","co":"Johnson","st":"WY","trs":"T49N R77W S5","fm":null,"eur":null,"perft":null,"sound":false,"fit":"none","geur":null,"gfit":"refused"}},{"type":"Feature","geometry":{"type":"Point","coordinates":[-106.15556,44.20694]},"properties":{"api":"4901923641","name":"WARDNER RANCH 12-20-4977","op":"CARBON CREEK ENERGY LLC","co":"Johnson","st":"WY","trs":"T49N R77W S20","fm":null,"eur":null,"perft":null,"sound":false,"fit":"none","geur":null,"gfit":"refused"}},{"type":"Feature","geometry":{"type":"Point","coordinates":[-106.14139,44.23222]},"properties":{"api":"4901923751","name":"PETERSON 43-8-4977","op":"CARBON CREEK ENERGY LLC","co":"Johnson","st":"WY","trs":"T49N R77W S8","fm":null,"eur":null,"perft":null,"sound":false,"fit":"none","geur":null,"gfit":"refused"}},{"type":"Feature","geometry":{"type":"Point","coordinates":[-106.15113,44.24026]},"properties":{"api":"4901923752","name":"CHRISTIAN 21-8-4977","op":"CARBON CREEK ENERGY LLC","co":"Johnson","st":"WY","trs":"T49N R77W S8","fm":null,"eur":null,"perft":null,"sound":false,"fit":"none","geur":2714927,"gfit":"sound"}},{"type":"Feature","geometry":{"type":"Point","coordinates":[-106.13489,44.22888]},"properties":{"api":"4901923755","name":"BLUE BUTTE RANCH 14-9R-4977BG","op":"CARBON CREEK ENERGY LLC","co":"Johnson","st":"WY","trs":"T49N R77W S9","fm":null,"eur":null,"perft":null,"sound":false,"fit":"none","geur":null,"gfit":"refused"}},{"type":"Feature","geometry":{"type":"Point","coordinates":[-106.15611,44.22194]},"properties":{"api":"4901923756","name":"SCHUMACHER 12-17-4977","op":"CARBON CREEK ENERGY LLC","co":"Johnson","st":"WY","trs":"T49N R77W S17","fm":null,"eur":null,"perft":null,"sound":false,"fit":"none","geur":null,"gfit":"refused"}},{"type":"Feature","geometry":{"type":"Point","coordinates":[-106.15208,44.2108]},"properties":{"api":"4901924179","name":"WARDNER 21-20-4977","op":"CARBON CREEK ENERGY LLC","co":"Johnson","st":"WY","trs":"T49N R77W S20","fm":null,"eur":null,"perft":null,"sound":false,"fit":"none","geur":null,"gfit":"refused"}},{"type":"Feature","geometry":{"type":"Point","coordinates":[-106.11083,44.18944]},"properties":{"api":"4901924477","name":"RU FED 23-27-4977BG","op":"CARBON CREEK ENERGY LLC","co":"Johnson","st":"WY","trs":"T49N R77W S27","fm":null,"eur":null,"perft":null,"sound":false,"fit":"none","geur":null,"gfit":"refused"}},{"type":"Feature","geometry":{"type":"Point","coordinates":[-106.11944,44.19667]},"properties":{"api":"4901924478","name":"LEATH 41-28-4977BG","op":"CARBON CREEK ENERGY LLC","co":"Johnson","st":"WY","trs":"T49N R77W S28","fm":null,"eur":null,"perft":null,"sound":false,"fit":"none","geur":null,"gfit":"refused"}},{"type":"Feature","geometry":{"type":"Point","coordinates":[-106.11528,44.19278]},"properties":{"api":"4901924479","name":"LEATH 12-27-4977BG","op":"CARBON CREEK ENERGY LLC","co":"Johnson","st":"WY","trs":"T49N R77W S27","fm":null,"eur":null,"perft":null,"sound":false,"fit":"none","geur":null,"gfit":"refused"}},{"type":"Feature","geometry":{"type":"Point","coordinates":[-106.13417,44.19139]},"properties":{"api":"4901924480","name":"RU 12-28-4977BG","op":"CARBON CREEK ENERGY LLC","co":"Johnson","st":"WY","trs":"T49N R77W S28","fm":null,"eur":null,"perft":null,"sound":false,"fit":"none","geur":2037580,"gfit":"sound"}},{"type":"Feature","geometry":{"type":"Point","coordinates":[-106.11689,44.17675]},"properties":{"api":"4901924481","name":"RU FED 12-34-4977BG","op":"CARBON CREEK ENERGY LLC","co":"Johnson","st":"WY","trs":"T49N R77W S34","fm":null,"eur":null,"perft":null,"sound":false,"fit":"none","geur":2043317,"gfit":"sound"}},{"type":"Feature","geometry":{"type":"Point","coordinates":[-106.09611,44.1775]},"properties":{"api":"4901924482","name":"RU FED 12-35-4977BG","op":"CARBON CREEK ENERGY LLC","co":"Johnson","st":"WY","trs":"T49N R77W S35","fm":null,"eur":null,"perft":null,"sound":false,"fit":"none","geur":null,"gfit":"refused"}},{"type":"Feature","geometry":{"type":"Point","coordinates":[-106.13689,44.18486]},"properties":{"api":"4901924484","name":"RU FED 14-28-4977BG","op":"CARBON CREEK ENERGY LLC","co":"Johnson","st":"WY","trs":"T49N R77W S28","fm":null,"eur":null,"perft":null,"sound":false,"fit":"none","geur":1229722,"gfit":"sound"}},{"type":"Feature","geometry":{"type":"Point","coordinates":[-106.11528,44.17167]},"properties":{"api":"4901924485","name":"RU FED 14-34-4977BG","op":"CARBON CREEK ENERGY LLC","co":"Johnson","st":"WY","trs":"T49N R77W S34","fm":null,"eur":null,"perft":null,"sound":false,"fit":"none","geur":1829477,"gfit":"sound"}},{"type":"Feature","geometry":{"type":"Point","coordinates":[-106.09444,44.17139]},"properties":{"api":"4901924486","name":"RU FED 14-35-4977BG","op":"CARBON CREEK ENERGY LLC","co":"Johnson","st":"WY","trs":"T49N R77W S35","fm":null,"eur":null,"perft":null,"sound":false,"fit":"none","geur":618031,"gfit":"sound"}},{"type":"Feature","geometry":{"type":"Point","coordinates":[-106.11028,44.19639]},"properties":{"api":"4901924487","name":"RU FED 21-27-4977BG","op":"CARBON CREEK ENERGY LLC","co":"Johnson","st":"WY","trs":"T49N R77W S27","fm":null,"eur":null,"perft":null,"sound":false,"fit":"none","geur":1686,"gfit":"sound"}},{"type":"Feature","geometry":{"type":"Point","coordinates":[-106.105,44.19167]},"properties":{"api":"4901924488","name":"RU FED 32-27-4977BG","op":"CARBON CREEK ENERGY LLC","co":"Johnson","st":"WY","trs":"T49N R77W S27","fm":null,"eur":null,"perft":null,"sound":false,"fit":"none","geur":null,"gfit":"refused"}},{"type":"Feature","geometry":{"type":"Point","coordinates":[-106.10417,44.17722]},"properties":{"api":"4901924489","name":"RU FED 32-34-4977BG","op":"CARBON CREEK ENERGY LLC","co":"Johnson","st":"WY","trs":"T49N R77W S34","fm":null,"eur":null,"perft":null,"sound":false,"fit":"none","geur":null,"gfit":"refused"}},{"type":"Feature","geometry":{"type":"Point","coordinates":[-106.12578,44.18602]},"properties":{"api":"4901924490","name":"RU FED 34-28-4977BG","op":"CARBON CREEK ENERGY LLC","co":"Johnson","st":"WY","trs":"T49N R77W S28","fm":null,"eur":null,"perft":null,"sound":false,"fit":"none","geur":null,"gfit":"refused"}},{"type":"Feature","geometry":{"type":"Point","coordinates":[-106.10184,44.1824]},"properties":{"api":"4901924492","name":"RU FED 41-34-4977BG","op":"CARBON CREEK ENERGY LLC","co":"Johnson","st":"WY","trs":"T49N R77W S34","fm":null,"eur":null,"perft":null,"sound":false,"fit":"none","geur":null,"gfit":"refused"}},{"type":"Feature","geometry":{"type":"Point","coordinates":[-106.07944,44.18333]},"properties":{"api":"4901924494","name":"RU FED 41-35-4977BG","op":"CARBON CREEK ENERGY LLC","co":"Johnson","st":"WY","trs":"T49N R77W S35","fm":null,"eur":null,"perft":null,"sound":false,"fit":"none","geur":null,"gfit":"refused"}},{"type":"Feature","geometry":{"type":"Point","coordinates":[-106.11972,44.18917]},"properties":{"api":"4901924495","name":"RU FED 43-28-4977BG","op":"CARBON CREEK ENERGY LLC","co":"Johnson","st":"WY","trs":"T49N R77W S28","fm":null,"eur":null,"perft":null,"sound":false,"fit":"none","geur":1952987,"gfit":"sound"}},{"type":"Feature","geometry":{"type":"Point","coordinates":[-106.12528,44.19278]},"properties":{"api":"4901924496","name":"LEATH 32-28-4977BG","op":"CARBON CREEK ENERGY LLC","co":"Johnson","st":"WY","trs":"T49N R77W S28","fm":null,"eur":null,"perft":null,"sound":false,"fit":"none","geur":null,"gfit":"refused"}},{"type":"Feature","geometry":{"type":"Point","coordinates":[-106.10417,44.18667]},"properties":{"api":"4901924498","name":"RU FED 34-27-4977BG","op":"CARBON CREEK ENERGY LLC","co":"Johnson","st":"WY","trs":"T49N R77W S27","fm":null,"eur":null,"perft":null,"sound":false,"fit":"none","geur":null,"gfit":"refused"}},{"type":"Feature","geometry":{"type":"Point","coordinates":[-106.08609,44.17089]},"properties":{"api":"4901924500","name":"RU FED 34-35-4977BG","op":"CARBON CREEK ENERGY LLC","co":"Johnson","st":"WY","trs":"T49N R77W S35","fm":null,"eur":null,"perft":null,"sound":false,"fit":"none","geur":null,"gfit":"refused"}},{"type":"Feature","geometry":{"type":"Point","coordinates":[-106.11194,44.1825]},"properties":{"api":"4901924502","name":"RU FED 21-34-4977BG","op":"CARBON CREEK ENERGY LLC","co":"Johnson","st":"WY","trs":"T49N R77W S34","fm":null,"eur":null,"perft":null,"sound":false,"fit":"none","geur":null,"gfit":"refused"}},{"type":"Feature","geometry":{"type":"Point","coordinates":[-106.09014,44.18171]},"properties":{"api":"4901924503","name":"RU FED 21-35-4977BG","op":"CARBON CREEK ENERGY LLC","co":"Johnson","st":"WY","trs":"T49N R77W S35","fm":null,"eur":null,"perft":null,"sound":false,"fit":"none","geur":511449,"gfit":"sound"}},{"type":"Feature","geometry":{"type":"Point","coordinates":[-106.13028,44.18889]},"properties":{"api":"4901924504","name":"RU FED 23-28-4977BG","op":"CARBON CREEK ENERGY LLC","co":"Johnson","st":"WY","trs":"T49N R77W S28","fm":null,"eur":null,"perft":null,"sound":false,"fit":"none","geur":null,"gfit":"refused"}},{"type":"Feature","geometry":{"type":"Point","coordinates":[-106.11,44.17361]},"properties":{"api":"4901924505","name":"RU FED 23-34-4977BG","op":"CARBON CREEK ENERGY LLC","co":"Johnson","st":"WY","trs":"T49N R77W S34","fm":null,"eur":null,"perft":null,"sound":false,"fit":"none","geur":null,"gfit":"refused"}},{"type":"Feature","geometry":{"type":"Point","coordinates":[-106.08975,44.17386]},"properties":{"api":"4901924506","name":"RU FED 23-35-4977BG","op":"CARBON CREEK ENERGY LLC","co":"Johnson","st":"WY","trs":"T49N R77W S35","fm":null,"eur":null,"perft":null,"sound":false,"fit":"none","geur":null,"gfit":"refused"}},{"type":"Feature","geometry":{"type":"Point","coordinates":[-106.09972,44.17361]},"properties":{"api":"4901924507","name":"RU FED 43-34-4977BG","op":"CARBON CREEK ENERGY LLC","co":"Johnson","st":"WY","trs":"T49N R77W S34","fm":null,"eur":null,"perft":null,"sound":false,"fit":"none","geur":null,"gfit":"refused"}},{"type":"Feature","geometry":{"type":"Point","coordinates":[-106.07944,44.17583]},"properties":{"api":"4901924508","name":"RU FED 43-35-4977BG","op":"CARBON CREEK ENERGY LLC","co":"Johnson","st":"WY","trs":"T49N R77W S35","fm":null,"eur":null,"perft":null,"sound":false,"fit":"none","geur":null,"gfit":"refused"}},{"type":"Feature","geometry":{"type":"Point","coordinates":[-106.135,44.20611]},"properties":{"api":"4901924525","name":"RU FED 12-21-4977BG","op":"CARBON CREEK ENERGY LLC","co":"Johnson","st":"WY","trs":"T49N R77W S21","fm":null,"eur":null,"perft":null,"sound":false,"fit":"none","geur":null,"gfit":"refused"}},{"type":"Feature","geometry":{"type":"Point","coordinates":[-106.12956,44.20394]},"properties":{"api":"4901924526","name":"RU FED 23-21-4977BG","op":"CARBON CREEK ENERGY LLC","co":"Johnson","st":"WY","trs":"T49N R77W S21","fm":null,"eur":null,"perft":null,"sound":false,"fit":"none","geur":null,"gfit":"refused"}},{"type":"Feature","geometry":{"type":"Point","coordinates":[-106.12392,44.20694]},"properties":{"api":"4901924527","name":"RU FED 32-21-4977BG","op":"CARBON CREEK ENERGY LLC","co":"Johnson","st":"WY","trs":"T49N R77W S21","fm":null,"eur":null,"perft":null,"sound":false,"fit":"none","geur":null,"gfit":"refused"}},{"type":"Feature","geometry":{"type":"Point","coordinates":[-106.12028,44.20389]},"properties":{"api":"4901924529","name":"RU FED 43-21-4977BG","op":"CARBON CREEK ENERGY LLC","co":"Johnson","st":"WY","trs":"T49N R77W S21","fm":null,"eur":null,"perft":null,"sound":false,"fit":"none","geur":741831,"gfit":"sound"}},{"type":"Feature","geometry":{"type":"Point","coordinates":[-106.11806,44.21094]},"properties":{"api":"4901924530","name":"RU FED 41-21-4977BG","op":"CARBON CREEK ENERGY LLC","co":"Johnson","st":"WY","trs":"T49N R77W S21","fm":null,"eur":null,"perft":null,"sound":false,"fit":"none","geur":null,"gfit":"refused"}},{"type":"Feature","geometry":{"type":"Point","coordinates":[-106.11583,44.20722]},"properties":{"api":"4901924531","name":"RU FED 12-22-4977BG","op":"CARBON CREEK ENERGY LLC","co":"Johnson","st":"WY","trs":"T49N R77W S22","fm":null,"eur":null,"perft":null,"sound":false,"fit":"none","geur":2650643,"gfit":"sound"}},{"type":"Feature","geometry":{"type":"Point","coordinates":[-106.11639,44.19944]},"properties":{"api":"4901924532","name":"RU FED 14-22-4977BG","op":"CARBON CREEK ENERGY LLC","co":"Johnson","st":"WY","trs":"T49N R77W S22","fm":null,"eur":null,"perft":null,"sound":false,"fit":"none","geur":null,"gfit":"refused"}},{"type":"Feature","geometry":{"type":"Point","coordinates":[-106.10889,44.21139]},"properties":{"api":"4901924533","name":"RU FED 21-22-4977BG","op":"CARBON CREEK ENERGY LLC","co":"Johnson","st":"WY","trs":"T49N R77W S22","fm":null,"eur":null,"perft":null,"sound":false,"fit":"none","geur":null,"gfit":"refused"}},{"type":"Feature","geometry":{"type":"Point","coordinates":[-106.11,44.20333]},"properties":{"api":"4901924534","name":"RU FED 23-22-4977BG","op":"CARBON CREEK ENERGY LLC","co":"Johnson","st":"WY","trs":"T49N R77W S22","fm":null,"eur":null,"perft":null,"sound":false,"fit":"none","geur":1884305,"gfit":"sound"}},{"type":"Feature","geometry":{"type":"Point","coordinates":[-106.10583,44.2]},"properties":{"api":"4901924536","name":"RU FED 34-22-4977BG","op":"CARBON CREEK ENERGY LLC","co":"Johnson","st":"WY","trs":"T49N R77W S22","fm":null,"eur":null,"perft":null,"sound":false,"fit":"none","geur":1193143,"gfit":"sound"}},{"type":"Feature","geometry":{"type":"Point","coordinates":[-106.16088,44.24319]},"properties":{"api":"4901924768","name":"PVU FED 44-6-4977BG","op":"CARBON CREEK ENERGY LLC","co":"Johnson","st":"WY","trs":"T49N R77W S6","fm":null,"eur":null,"perft":null,"sound":false,"fit":"none","geur":null,"gfit":"refused"}},{"type":"Feature","geometry":{"type":"Point","coordinates":[-106.16144,44.25082]},"properties":{"api":"4901924771","name":"PVU FED 42-6-4977BG","op":"CARBON CREEK ENERGY LLC","co":"Johnson","st":"WY","trs":"T49N R77W S6","fm":null,"eur":null,"perft":null,"sound":false,"fit":"none","geur":2066434,"gfit":"sound"}},{"type":"Feature","geometry":{"type":"Point","coordinates":[-106.16877,44.24761]},"properties":{"api":"4901924773","name":"PVU FED 33-6-4977BG","op":"CARBON CREEK ENERGY LLC","co":"Johnson","st":"WY","trs":"T49N R77W S6","fm":null,"eur":null,"perft":null,"sound":false,"fit":"none","geur":1715953,"gfit":"sound"}},{"type":"Feature","geometry":{"type":"Point","coordinates":[-106.17152,44.24284]},"properties":{"api":"4901924778","name":"PVU FED 24-6-4977BG","op":"CARBON CREEK ENERGY LLC","co":"Johnson","st":"WY","trs":"T49N R77W S6","fm":null,"eur":null,"perft":null,"sound":false,"fit":"none","geur":1666546,"gfit":"sound"}},{"type":"Feature","geometry":{"type":"Point","coordinates":[-106.17108,44.25019]},"properties":{"api":"4901924781","name":"PVU FED 22-6-4977BG","op":"CARBON CREEK ENERGY LLC","co":"Johnson","st":"WY","trs":"T49N R77W S6","fm":null,"eur":null,"perft":null,"sound":false,"fit":"none","geur":2174499,"gfit":"sound"}},{"type":"Feature","geometry":{"type":"Point","coordinates":[-106.17728,44.24655]},"properties":{"api":"4901924783","name":"PVU FED 13-6-4977BG","op":"CARBON CREEK ENERGY LLC","co":"Johnson","st":"WY","trs":"T49N R77W S6","fm":null,"eur":null,"perft":null,"sound":false,"fit":"none","geur":654187,"gfit":"sound"}},{"type":"Feature","geometry":{"type":"Point","coordinates":[-106.14544,44.22918]},"properties":{"api":"4901925185","name":"LEATH FED 34-8-4977","op":"CARBON CREEK ENERGY LLC","co":"Johnson","st":"WY","trs":"T49N R77W S8","fm":null,"eur":null,"perft":null,"sound":false,"fit":"none","geur":2583994,"gfit":"sound"}},{"type":"Feature","geometry":{"type":"Point","coordinates":[-106.13158,44.24032]},"properties":{"api":"4901925186","name":"BLUE BUTTE RANCH 21-9-4977BG","op":"CARBON CREEK ENERGY LLC","co":"Johnson","st":"WY","trs":"T49N R77W S9","fm":null,"eur":null,"perft":null,"sound":false,"fit":"none","geur":null,"gfit":"refused"}},{"type":"Feature","geometry":{"type":"Point","coordinates":[-106.12584,44.23604]},"properties":{"api":"4901925187","name":"BLUE BUTTE RANCH 32-9-4977BG","op":"CARBON CREEK ENERGY LLC","co":"Johnson","st":"WY","trs":"T49N R77W S9","fm":null,"eur":null,"perft":null,"sound":false,"fit":"none","geur":null,"gfit":"refused"}},{"type":"Feature","geometry":{"type":"Point","coordinates":[-106.11998,44.2399]},"properties":{"api":"4901925188","name":"BLUE BUTTE RANCH 41-9-4977BG","op":"CARBON CREEK ENERGY LLC","co":"Johnson","st":"WY","trs":"T49N R77W S9","fm":null,"eur":null,"perft":null,"sound":false,"fit":"none","geur":null,"gfit":"refused"}},{"type":"Feature","geometry":{"type":"Point","coordinates":[-106.13035,44.21841]},"properties":{"api":"4901925243","name":"RU STATE 23-16-4977BG","op":"CARBON CREEK ENERGY LLC","co":"Johnson","st":"WY","trs":"T49N R77W S16","fm":null,"eur":null,"perft":null,"sound":false,"fit":"none","geur":null,"gfit":"refused"}},{"type":"Feature","geometry":{"type":"Point","coordinates":[-106.12122,44.21854]},"properties":{"api":"4901925244","name":"RU STATE 43-16-4977BG","op":"CARBON CREEK ENERGY LLC","co":"Johnson","st":"WY","trs":"T49N R77W S16","fm":null,"eur":null,"perft":null,"sound":false,"fit":"none","geur":1197233,"gfit":"sound"}},{"type":"Feature","geometry":{"type":"Point","coordinates":[-106.12451,44.22243]},"properties":{"api":"4901925246","name":"RU STATE 32-16-4977BG","op":"CARBON CREEK ENERGY LLC","co":"Johnson","st":"WY","trs":"T49N R77W S16","fm":null,"eur":null,"perft":null,"sound":false,"fit":"none","geur":null,"gfit":"refused"}},{"type":"Feature","geometry":{"type":"Point","coordinates":[-106.13661,44.22149]},"properties":{"api":"4901925247","name":"RU STATE 12-16-4977BG","op":"CARBON CREEK ENERGY LLC","co":"Johnson","st":"WY","trs":"T49N R77W S16","fm":null,"eur":null,"perft":null,"sound":false,"fit":"none","geur":1921122,"gfit":"sound"}},{"type":"Feature","geometry":{"type":"Point","coordinates":[-106.13717,44.23551]},"properties":{"api":"4901925264","name":"BLUE BUTTE RANCH 12-9-4977BG","op":"CARBON CREEK ENERGY LLC","co":"Johnson","st":"WY","trs":"T49N R77W S9","fm":null,"eur":null,"perft":null,"sound":false,"fit":"none","geur":601589,"gfit":"sound"}},{"type":"Feature","geometry":{"type":"Point","coordinates":[-106.14569,44.23505]},"properties":{"api":"4901925272","name":"CHRISTIAN 32-8-4977BG","op":"CARBON CREEK ENERGY LLC","co":"Johnson","st":"WY","trs":"T49N R77W S8","fm":null,"eur":null,"perft":null,"sound":false,"fit":"none","geur":1221331,"gfit":"sound"}},{"type":"Feature","geometry":{"type":"Point","coordinates":[-106.06417,44.17789]},"properties":{"api":"4901925320","name":"RELISH CS STATE 1","op":"EOG RESOURCES INC","co":"Johnson","st":"WY","trs":"T49N R77W S36","fm":null,"eur":null,"perft":null,"sound":false,"fit":"none","geur":null,"gfit":"refused"}},{"type":"Feature","geometry":{"type":"Point","coordinates":[-106.05956,44.18208]},"properties":{"api":"4901925321","name":"VAN HOUTEN DRAW CS  1","op":"EOG RESOURCES INC","co":"Johnson","st":"WY","trs":"T49N R77W S36","fm":null,"eur":null,"perft":null,"sound":false,"fit":"none","geur":862423,"gfit":"sound"}},{"type":"Feature","geometry":{"type":"Point","coordinates":[-106.06867,44.18225]},"properties":{"api":"4901925322","name":"VAN HOUTEN DRAW CS 2","op":"EOG RESOURCES INC","co":"Johnson","st":"WY","trs":"T49N R77W S36","fm":null,"eur":null,"perft":null,"sound":false,"fit":"none","geur":null,"gfit":"refused"}},{"type":"Feature","geometry":{"type":"Point","coordinates":[-106.07511,44.17883]},"properties":{"api":"4901925323","name":"VAN HOUTEN DRAW CS 3","op":"EOG RESOURCES INC","co":"Johnson","st":"WY","trs":"T49N R77W S36","fm":null,"eur":null,"perft":null,"sound":false,"fit":"none","geur":null,"gfit":"refused"}},{"type":"Feature","geometry":{"type":"Point","coordinates":[-106.05903,44.17472]},"properties":{"api":"4901925324","name":"VAN HOUTEN DRAW CS 4","op":"EOG RESOURCES INC","co":"Johnson","st":"WY","trs":"T49N R77W S36","fm":null,"eur":null,"perft":null,"sound":false,"fit":"none","geur":911318,"gfit":"sound"}},{"type":"Feature","geometry":{"type":"Point","coordinates":[-106.06328,44.17185]},"properties":{"api":"4901925328","name":"VANHOUTEN DRAW CS ST 5","op":"EOG RESOURCES INC","co":"Johnson","st":"WY","trs":"T49N R77W S36","fm":null,"eur":null,"perft":null,"sound":false,"fit":"none","geur":null,"gfit":"refused"}},{"type":"Feature","geometry":{"type":"Point","coordinates":[-106.09142,44.21117]},"properties":{"api":"4901925632","name":"RU FED 21-23-4977BG","op":"CARBON CREEK ENERGY LLC","co":"Johnson","st":"WY","trs":"T49N R77W S23","fm":null,"eur":null,"perft":null,"sound":false,"fit":"none","geur":938087,"gfit":"sound"}},{"type":"Feature","geometry":{"type":"Point","coordinates":[-106.09428,44.20078]},"properties":{"api":"4901925633","name":"RU FED 14-23-4977BG","op":"CARBON CREEK ENERGY LLC","co":"Johnson","st":"WY","trs":"T49N R77W S23","fm":null,"eur":null,"perft":null,"sound":false,"fit":"none","geur":null,"gfit":"refused"}},{"type":"Feature","geometry":{"type":"Point","coordinates":[-106.09619,44.20747]},"properties":{"api":"4901925634","name":"RU FED 12-23-4977BG","op":"CARBON CREEK ENERGY LLC","co":"Johnson","st":"WY","trs":"T49N R77W S23","fm":null,"eur":null,"perft":null,"sound":false,"fit":"none","geur":null,"gfit":"refused"}},{"type":"Feature","geometry":{"type":"Point","coordinates":[-106.08864,44.20281]},"properties":{"api":"4901925636","name":"RU FED 23-23-4977BG","op":"CARBON CREEK ENERGY LLC","co":"Johnson","st":"WY","trs":"T49N R77W S23","fm":null,"eur":null,"perft":null,"sound":false,"fit":"none","geur":527672,"gfit":"sound"}},{"type":"Feature","geometry":{"type":"Point","coordinates":[-106.07844,44.20489]},"properties":{"api":"4901925664","name":"RU FED 43-23-4977BG","op":"CARBON CREEK ENERGY LLC","co":"Johnson","st":"WY","trs":"T49N R77W S23","fm":null,"eur":null,"perft":null,"sound":false,"fit":"none","geur":null,"gfit":"refused"}},{"type":"Feature","geometry":{"type":"Point","coordinates":[-106.05953,44.20187]},"properties":{"api":"4901925750","name":"RU FED 43-24-4977BG","op":"CARBON CREEK ENERGY LLC","co":"Johnson","st":"WY","trs":"T49N R77W S24","fm":null,"eur":null,"perft":null,"sound":false,"fit":"none","geur":null,"gfit":"refused"}},{"type":"Feature","geometry":{"type":"Point","coordinates":[-106.06428,44.20894]},"properties":{"api":"4901925752","name":"RU FED 32-24-4977BG","op":"CARBON CREEK ENERGY LLC","co":"Johnson","st":"WY","trs":"T49N R77W S24","fm":null,"eur":null,"perft":null,"sound":false,"fit":"none","geur":null,"gfit":"refused"}},{"type":"Feature","geometry":{"type":"Point","coordinates":[-106.07028,44.21117]},"properties":{"api":"4901925754","name":"RU FED 21-24-4977BG","op":"CARBON CREEK ENERGY LLC","co":"Johnson","st":"WY","trs":"T49N R77W S24","fm":null,"eur":null,"perft":null,"sound":false,"fit":"none","geur":811755,"gfit":"sound"}},{"type":"Feature","geometry":{"type":"Point","coordinates":[-106.17127,44.23958]},"properties":{"api":"4901925774","name":"ADVOCATE CS FEDERAL 2","op":"EOG RESOURCES INC","co":"Johnson","st":"WY","trs":"T49N R77W S7","fm":null,"eur":null,"perft":null,"sound":false,"fit":"none","geur":null,"gfit":"refused"}},{"type":"Feature","geometry":{"type":"Point","coordinates":[-106.17687,44.23678]},"properties":{"api":"4901925775","name":"ADVOCATE CS FEDERAL 3","op":"EOG RESOURCES INC","co":"Johnson","st":"WY","trs":"T49N R77W S7","fm":null,"eur":null,"perft":null,"sound":false,"fit":"none","geur":null,"gfit":"refused"}},{"type":"Feature","geometry":{"type":"Point","coordinates":[-106.1645,44.23604]},"properties":{"api":"4901925776","name":"ADVOCATE CS FEDERAL 4","op":"EOG RESOURCES INC","co":"Johnson","st":"WY","trs":"T49N R77W S7","fm":null,"eur":null,"perft":null,"sound":false,"fit":"none","geur":null,"gfit":"refused"}},{"type":"Feature","geometry":{"type":"Point","coordinates":[-106.15089,44.23254]},"properties":{"api":"4901925778","name":"ADVOCATE CS FEDERAL 6","op":"EOG RESOURCES INC","co":"Johnson","st":"WY","trs":"T49N R77W S8","fm":null,"eur":null,"perft":null,"sound":false,"fit":"none","geur":null,"gfit":"refused"}},{"type":"Feature","geometry":{"type":"Point","coordinates":[-106.15561,44.22903]},"properties":{"api":"4901925779","name":"ADVOCATE CS FEDERAL 7","op":"EOG RESOURCES INC","co":"Johnson","st":"WY","trs":"T49N R77W S8","fm":null,"eur":null,"perft":null,"sound":false,"fit":"none","geur":null,"gfit":"refused"}},{"type":"Feature","geometry":{"type":"Point","coordinates":[-106.16093,44.22533]},"properties":{"api":"4901925787","name":"BOLSTER CS FEDERAL 1","op":"EOG RESOURCES INC","co":"Johnson","st":"WY","trs":"T49N R77W S18","fm":null,"eur":null,"perft":null,"sound":false,"fit":"none","geur":null,"gfit":"refused"}},{"type":"Feature","geometry":{"type":"Point","coordinates":[-106.17049,44.22574]},"properties":{"api":"4901925788","name":"BOLSTER CS FEDERAL 2","op":"EOG RESOURCES INC","co":"Johnson","st":"WY","trs":"T49N R77W S18","fm":null,"eur":null,"perft":null,"sound":false,"fit":"none","geur":null,"gfit":"refused"}},{"type":"Feature","geometry":{"type":"Point","coordinates":[-106.17729,44.22045]},"properties":{"api":"4901925789","name":"BOLSTER CS FEDERAL 3","op":"EOG RESOURCES INC","co":"Johnson","st":"WY","trs":"T49N R77W S18","fm":null,"eur":null,"perft":null,"sound":false,"fit":"none","geur":null,"gfit":"refused"}},{"type":"Feature","geometry":{"type":"Point","coordinates":[-106.17105,44.21798]},"properties":{"api":"4901925792","name":"BOLSTER CS FEDERAL 6","op":"EOG RESOURCES INC","co":"Johnson","st":"WY","trs":"T49N R77W S18","fm":null,"eur":null,"perft":null,"sound":false,"fit":"none","geur":null,"gfit":"refused"}},{"type":"Feature","geometry":{"type":"Point","coordinates":[-106.14047,44.20972]},"properties":{"api":"4901925829","name":"RU FED 41-20-4977BG","op":"CARBON CREEK ENERGY LLC","co":"Johnson","st":"WY","trs":"T49N R77W S20","fm":null,"eur":null,"perft":null,"sound":false,"fit":"none","geur":null,"gfit":"refused"}},{"type":"Feature","geometry":{"type":"Point","coordinates":[-106.14519,44.20697]},"properties":{"api":"4901925830","name":"RU FED 32-20-4977BG","op":"CARBON CREEK ENERGY LLC","co":"Johnson","st":"WY","trs":"T49N R77W S20","fm":null,"eur":null,"perft":null,"sound":false,"fit":"none","geur":null,"gfit":"refused"}},{"type":"Feature","geometry":{"type":"Point","coordinates":[-106.06569,44.19453]},"properties":{"api":"4901925835","name":"RU FED 32-25-4977BG","op":"CARBON CREEK ENERGY LLC","co":"Johnson","st":"WY","trs":"T49N R77W S25","fm":null,"eur":null,"perft":null,"sound":false,"fit":"none","geur":null,"gfit":"refused"}},{"type":"Feature","geometry":{"type":"Point","coordinates":[-106.08569,44.19189]},"properties":{"api":"4901925838","name":"RU FED 32-26-4977BG","op":"CARBON CREEK ENERGY LLC","co":"Johnson","st":"WY","trs":"T49N R77W S26","fm":null,"eur":null,"perft":null,"sound":false,"fit":"none","geur":668682,"gfit":"sound"}},{"type":"Feature","geometry":{"type":"Point","coordinates":[-106.08825,44.19681]},"properties":{"api":"4901925841","name":"RU FED 21-26-4977BG","op":"CARBON CREEK ENERGY LLC","co":"Johnson","st":"WY","trs":"T49N R77W S26","fm":null,"eur":null,"perft":null,"sound":false,"fit":"none","geur":null,"gfit":"refused"}},{"type":"Feature","geometry":{"type":"Point","coordinates":[-106.09408,44.18633]},"properties":{"api":"4901925843","name":"RU FED 14-26-4977BG","op":"CARBON CREEK ENERGY LLC","co":"Johnson","st":"WY","trs":"T49N R77W S26","fm":null,"eur":null,"perft":null,"sound":false,"fit":"none","geur":null,"gfit":"refused"}},{"type":"Feature","geometry":{"type":"Point","coordinates":[-106.09656,44.19253]},"properties":{"api":"4901925844","name":"RU FED 12-26-4977BG","op":"CARBON CREEK ENERGY LLC","co":"Johnson","st":"WY","trs":"T49N R77W S26","fm":null,"eur":null,"perft":null,"sound":false,"fit":"none","geur":null,"gfit":"refused"}},{"type":"Feature","geometry":{"type":"Point","coordinates":[-106.11076,44.21751]},"properties":{"api":"4901925845","name":"BLUE BUTTE RANCH 23-15-4977BG","op":"CARBON CREEK ENERGY LLC","co":"Johnson","st":"WY","trs":"T49N R77W S15","fm":null,"eur":null,"perft":null,"sound":false,"fit":"none","geur":null,"gfit":"refused"}},{"type":"Feature","geometry":{"type":"Point","coordinates":[-106.07691,44.22038]},"properties":{"api":"4901925855","name":"WILLIAMS DU FED 12-13-4977WR","op":"CARBON CREEK ENERGY LLC","co":"Johnson","st":"WY","trs":"T49N R77W S13","fm":null,"eur":null,"perft":null,"sound":false,"fit":"none","geur":732457,"gfit":"sound"}},{"type":"Feature","geometry":{"type":"Point","coordinates":[-106.09602,44.22255]},"properties":{"api":"4901925856","name":"WILLIAMS DU FED 12-14-4977WR","op":"CARBON CREEK ENERGY LLC","co":"Johnson","st":"WY","trs":"T49N R77W S14","fm":null,"eur":null,"perft":null,"sound":false,"fit":"none","geur":null,"gfit":"refused"}},{"type":"Feature","geometry":{"type":"Point","coordinates":[-106.09544,44.21335]},"properties":{"api":"4901925857","name":"WILLIAMS DU FED 14-14-4977WR","op":"CARBON CREEK ENERGY LLC","co":"Johnson","st":"WY","trs":"T49N R77W S14","fm":null,"eur":null,"perft":null,"sound":false,"fit":"none","geur":673589,"gfit":"sound"}},{"type":"Feature","geometry":{"type":"Point","coordinates":[-106.06853,44.22619]},"properties":{"api":"4901925858","name":"WILLIAMS DU FED 21-13-4977","op":"CARBON CREEK ENERGY LLC","co":"Johnson","st":"WY","trs":"T49N R77W S13","fm":null,"eur":null,"perft":null,"sound":false,"fit":"none","geur":423362,"gfit":"sound"}},{"type":"Feature","geometry":{"type":"Point","coordinates":[-106.09093,44.22366]},"properties":{"api":"4901925859","name":"WILLIAMS DU FED 21-14-4977WR","op":"CARBON CREEK ENERGY LLC","co":"Johnson","st":"WY","trs":"T49N R77W S14","fm":null,"eur":null,"perft":null,"sound":false,"fit":"none","geur":null,"gfit":"refused"}},{"type":"Feature","geometry":{"type":"Point","coordinates":[-106.06914,44.21822]},"properties":{"api":"4901925860","name":"WILLIAMS DU FED 23-13-4977WR","op":"CARBON CREEK ENERGY LLC","co":"Johnson","st":"WY","trs":"T49N R77W S13","fm":null,"eur":null,"perft":null,"sound":false,"fit":"none","geur":null,"gfit":"refused"}},{"type":"Feature","geometry":{"type":"Point","coordinates":[-106.06694,44.22141]},"properties":{"api":"4901925861","name":"WILLIAMS DU FED 32-13-4977WR","op":"CARBON CREEK ENERGY LLC","co":"Johnson","st":"WY","trs":"T49N R77W S13","fm":null,"eur":null,"perft":null,"sound":false,"fit":"none","geur":400118,"gfit":"sound"}},{"type":"Feature","geometry":{"type":"Point","coordinates":[-106.08573,44.22198]},"properties":{"api":"4901925862","name":"WILLIAMS DU FED 32-14-4977WR","op":"CARBON CREEK ENERGY LLC","co":"Johnson","st":"WY","trs":"T49N R77W S14","fm":null,"eur":null,"perft":null,"sound":false,"fit":"none","geur":null,"gfit":"refused"}},{"type":"Feature","geometry":{"type":"Point","coordinates":[-106.05863,44.22352]},"properties":{"api":"4901925863","name":"WILLIAMS DU FED 41-13-4977","op":"CARBON CREEK ENERGY LLC","co":"Johnson","st":"WY","trs":"T49N R77W S13","fm":null,"eur":null,"perft":null,"sound":false,"fit":"none","geur":198907,"gfit":"sound"}},{"type":"Feature","geometry":{"type":"Point","coordinates":[-106.07789,44.22398]},"properties":{"api":"4901925864","name":"WILLIAMS DU FED 41-14-4977WR","op":"CARBON CREEK ENERGY LLC","co":"Johnson","st":"WY","trs":"T49N R77W S14","fm":null,"eur":null,"perft":null,"sound":false,"fit":"none","geur":null,"gfit":"refused"}},{"type":"Feature","geometry":{"type":"Point","coordinates":[-106.05853,44.21786]},"properties":{"api":"4901925865","name":"WILLIAMS DU FED 43-13-4977WR","op":"CARBON CREEK ENERGY LLC","co":"Johnson","st":"WY","trs":"T49N R77W S13","fm":null,"eur":null,"perft":null,"sound":false,"fit":"none","geur":null,"gfit":"refused"}},{"type":"Feature","geometry":{"type":"Point","coordinates":[-106.05907,44.19006]},"properties":{"api":"4901925876","name":"RU FED 43-25-4977BG","op":"CARBON CREEK ENERGY LLC","co":"Johnson","st":"WY","trs":"T49N R77W S25","fm":null,"eur":null,"perft":null,"sound":false,"fit":"none","geur":312622,"gfit":"sound"}},{"type":"Feature","geometry":{"type":"Point","coordinates":[-106.08557,44.2129]},"properties":{"api":"4901925877","name":"WILLIAMS DU FED 34-14-4977WR","op":"CARBON CREEK ENERGY LLC","co":"Johnson","st":"WY","trs":"T49N R77W S14","fm":null,"eur":null,"perft":null,"sound":false,"fit":"none","geur":null,"gfit":"refused"}},{"type":"Feature","geometry":{"type":"Point","coordinates":[-106.10611,44.22887]},"properties":{"api":"4901925975","name":"WILLIAMS DU FED 34-10-4977WR","op":"CARBON CREEK ENERGY LLC","co":"Johnson","st":"WY","trs":"T49N R77W S10","fm":null,"eur":null,"perft":null,"sound":false,"fit":"none","geur":1028354,"gfit":"sound"}},{"type":"Feature","geometry":{"type":"Point","coordinates":[-106.10514,44.23522]},"properties":{"api":"4901925976","name":"WILLIAMS DU FED 32-10-4977WR","op":"CARBON CREEK ENERGY LLC","co":"Johnson","st":"WY","trs":"T49N R77W S10","fm":null,"eur":null,"perft":null,"sound":false,"fit":"none","geur":1670333,"gfit":"sound"}},{"type":"Feature","geometry":{"type":"Point","coordinates":[-106.10836,44.23286]},"properties":{"api":"4901925977","name":"WILLIAMS DU FED 23-10-4977WR","op":"CARBON CREEK ENERGY LLC","co":"Johnson","st":"WY","trs":"T49N R77W S10","fm":null,"eur":null,"perft":null,"sound":false,"fit":"none","geur":2159815,"gfit":"sound"}},{"type":"Feature","geometry":{"type":"Point","coordinates":[-106.09797,44.23869]},"properties":{"api":"4901925978","name":"WILLIAMS DU FED 41-10-4977","op":"CARBON CREEK ENERGY LLC","co":"Johnson","st":"WY","trs":"T49N R77W S10","fm":null,"eur":null,"perft":null,"sound":false,"fit":"none","geur":null,"gfit":"refused"}},{"type":"Feature","geometry":{"type":"Point","coordinates":[-106.10081,44.23111]},"properties":{"api":"4901925979","name":"WILLIAMS DU FED 43-10-4977WR","op":"CARBON CREEK ENERGY LLC","co":"Johnson","st":"WY","trs":"T49N R77W S10","fm":null,"eur":null,"perft":null,"sound":false,"fit":"none","geur":950112,"gfit":"sound"}},{"type":"Feature","geometry":{"type":"Point","coordinates":[-106.0906,44.24002]},"properties":{"api":"4901925981","name":"WILLIAMS DU FED 21-11-4977","op":"CARBON CREEK ENERGY LLC","co":"Johnson","st":"WY","trs":"T49N R77W S11","fm":null,"eur":null,"perft":null,"sound":false,"fit":"none","geur":null,"gfit":"refused"}},{"type":"Feature","geometry":{"type":"Point","coordinates":[-106.0895,44.2335]},"properties":{"api":"4901925982","name":"WILLIAMS DU FED 23-11-4977","op":"CARBON CREEK ENERGY LLC","co":"Johnson","st":"WY","trs":"T49N R77W S11","fm":null,"eur":null,"perft":null,"sound":false,"fit":"none","geur":null,"gfit":"refused"}},{"type":"Feature","geometry":{"type":"Point","coordinates":[-106.08456,44.23719]},"properties":{"api":"4901925983","name":"WILLIAMS DU FED 32-11-4977","op":"CARBON CREEK ENERGY LLC","co":"Johnson","st":"WY","trs":"T49N R77W S11","fm":null,"eur":null,"perft":null,"sound":false,"fit":"none","geur":null,"gfit":"refused"}},{"type":"Feature","geometry":{"type":"Point","coordinates":[-106.08234,44.23988]},"properties":{"api":"4901925984","name":"WILLIAMS DU FED 41-11-4977","op":"CARBON CREEK ENERGY LLC","co":"Johnson","st":"WY","trs":"T49N R77W S11","fm":null,"eur":null,"perft":null,"sound":false,"fit":"none","geur":null,"gfit":"refused"}},{"type":"Feature","geometry":{"type":"Point","coordinates":[-106.05893,44.23371]},"properties":{"api":"4901925988","name":"WILLIAMS DU FED 43-12-4977","op":"CARBON CREEK ENERGY LLC","co":"Johnson","st":"WY","trs":"T49N R77W S12","fm":null,"eur":null,"perft":null,"sound":false,"fit":"none","geur":null,"gfit":"refused"}},{"type":"Feature","geometry":{"type":"Point","coordinates":[-106.05978,44.19333]},"properties":{"api":"4901926062","name":"RU FED 41-25-4977BG","op":"CARBON CREEK ENERGY LLC","co":"Johnson","st":"WY","trs":"T49N R77W S25","fm":null,"eur":null,"perft":null,"sound":false,"fit":"none","geur":452076,"gfit":"sound"}},{"type":"Feature","geometry":{"type":"Point","coordinates":[-106.06811,44.18531]},"properties":{"api":"4901926063","name":"RU FED 24-25-4977BG","op":"CARBON CREEK ENERGY LLC","co":"Johnson","st":"WY","trs":"T49N R77W S25","fm":null,"eur":null,"perft":null,"sound":false,"fit":"none","geur":null,"gfit":"refused"}},{"type":"Feature","geometry":{"type":"Point","coordinates":[-106.07592,44.18522]},"properties":{"api":"4901926064","name":"RU FED 14-25-4977BG","op":"CARBON CREEK ENERGY LLC","co":"Johnson","st":"WY","trs":"T49N R77W S25","fm":null,"eur":null,"perft":null,"sound":false,"fit":"none","geur":1571572,"gfit":"sound"}},{"type":"Feature","geometry":{"type":"Point","coordinates":[-106.06619,44.21103]},"properties":{"api":"4901926065","name":"RU FED 31-24-4977BG","op":"CARBON CREEK ENERGY LLC","co":"Johnson","st":"WY","trs":"T49N R77W S24","fm":null,"eur":null,"perft":null,"sound":false,"fit":"none","geur":723035,"gfit":"sound"}},{"type":"Feature","geometry":{"type":"Point","coordinates":[-106.07918,44.21116]},"properties":{"api":"4901926066","name":"RU FED 41-23-4977BG","op":"CARBON CREEK ENERGY LLC","co":"Johnson","st":"WY","trs":"T49N R77W S23","fm":null,"eur":null,"perft":null,"sound":false,"fit":"none","geur":653569,"gfit":"sound"}},{"type":"Feature","geometry":{"type":"Point","coordinates":[-106.0799,44.23239]},"properties":{"api":"4901926099","name":"WILLIAMS DU FED 43-11-4977WR","op":"CARBON CREEK ENERGY LLC","co":"Johnson","st":"WY","trs":"T49N R77W S11","fm":null,"eur":null,"perft":null,"sound":false,"fit":"none","geur":721153,"gfit":"sound"}},{"type":"Feature","geometry":{"type":"Point","coordinates":[-106.07717,44.22745]},"properties":{"api":"4901926100","name":"WILLIAMS DU FED 14-12-4977WR","op":"CARBON CREEK ENERGY LLC","co":"Johnson","st":"WY","trs":"T49N R77W S12","fm":null,"eur":null,"perft":null,"sound":false,"fit":"none","geur":null,"gfit":"refused"}},{"type":"Feature","geometry":{"type":"Point","coordinates":[-106.08569,44.22808]},"properties":{"api":"4901926101","name":"WILLIAMS DU FED 34-11-4977WR","op":"CARBON CREEK ENERGY LLC","co":"Johnson","st":"WY","trs":"T49N R77W S11","fm":null,"eur":null,"perft":null,"sound":false,"fit":"none","geur":1295909,"gfit":"sound"}},{"type":"Feature","geometry":{"type":"Point","coordinates":[-106.10945,44.24018]},"properties":{"api":"4901926103","name":"WILLIAMS DU FED 21-10-4977WR","op":"CARBON CREEK ENERGY LLC","co":"Johnson","st":"WY","trs":"T49N R77W S10","fm":null,"eur":null,"perft":null,"sound":false,"fit":"none","geur":1039517,"gfit":"sound"}},{"type":"Feature","geometry":{"type":"Point","coordinates":[-106.11564,44.22972]},"properties":{"api":"4901926104","name":"WILLIAMS DU FED 14-10-4977WR","op":"CARBON CREEK ENERGY LLC","co":"Johnson","st":"WY","trs":"T49N R77W S10","fm":null,"eur":null,"perft":null,"sound":false,"fit":"none","geur":2128195,"gfit":"sound"}},{"type":"Feature","geometry":{"type":"Point","coordinates":[-106.17454,44.25439]},"properties":{"api":"4901926106","name":"PVU FED 11-6-4977BG","op":"CARBON CREEK ENERGY LLC","co":"Johnson","st":"WY","trs":"T49N R77W S6","fm":null,"eur":null,"perft":null,"sound":false,"fit":"none","geur":2596583,"gfit":"sound"}},{"type":"Feature","geometry":{"type":"Point","coordinates":[-106.14159,44.24385]},"properties":{"api":"4901926107","name":"PVU FED 44-5-4977BG","op":"CARBON CREEK ENERGY LLC","co":"Johnson","st":"WY","trs":"T49N R77W S5","fm":null,"eur":null,"perft":null,"sound":false,"fit":"none","geur":57504,"gfit":"sound"}},{"type":"Feature","geometry":{"type":"Point","coordinates":[-106.13963,44.25025]},"properties":{"api":"4901926108","name":"PVU FED 42-5-4977BG","op":"CARBON CREEK ENERGY LLC","co":"Johnson","st":"WY","trs":"T49N R77W S5","fm":null,"eur":null,"perft":null,"sound":false,"fit":"none","geur":779699,"gfit":"sound"}},{"type":"Feature","geometry":{"type":"Point","coordinates":[-106.12264,44.2429]},"properties":{"api":"4901926109","name":"PVU FED 44-4-4977BG","op":"CARBON CREEK ENERGY LLC","co":"Johnson","st":"WY","trs":"T49N R77W S4","fm":null,"eur":null,"perft":null,"sound":false,"fit":"none","geur":null,"gfit":"refused"}},{"type":"Feature","geometry":{"type":"Point","coordinates":[-106.12774,44.24656]},"properties":{"api":"4901926110","name":"PVU FED 33-4-4977BG","op":"CARBON CREEK ENERGY LLC","co":"Johnson","st":"WY","trs":"T49N R77W S4","fm":null,"eur":null,"perft":null,"sound":false,"fit":"none","geur":null,"gfit":"refused"}},{"type":"Feature","geometry":{"type":"Point","coordinates":[-106.12863,44.25229]},"properties":{"api":"4901926111","name":"PVU FED 32-4-4977BG","op":"CARBON CREEK ENERGY LLC","co":"Johnson","st":"WY","trs":"T49N R77W S4","fm":null,"eur":null,"perft":null,"sound":false,"fit":"none","geur":null,"gfit":"refused"}},{"type":"Feature","geometry":{"type":"Point","coordinates":[-106.13233,44.243]},"properties":{"api":"4901926112","name":"PVU FED 24-4-4977BG","op":"CARBON CREEK ENERGY LLC","co":"Johnson","st":"WY","trs":"T49N R77W S4","fm":null,"eur":null,"perft":null,"sound":false,"fit":"none","geur":null,"gfit":"refused"}},{"type":"Feature","geometry":{"type":"Point","coordinates":[-106.13186,44.25091]},"properties":{"api":"4901926113","name":"PVU FED 22-4-4977BG","op":"CARBON CREEK ENERGY LLC","co":"Johnson","st":"WY","trs":"T49N R77W S4","fm":null,"eur":null,"perft":null,"sound":false,"fit":"none","geur":563819,"gfit":"sound"}},{"type":"Feature","geometry":{"type":"Point","coordinates":[-106.13734,44.25433]},"properties":{"api":"4901926115","name":"PVU FED 11-4-4977BG","op":"CARBON CREEK ENERGY LLC","co":"Johnson","st":"WY","trs":"T49N R77W S4","fm":null,"eur":null,"perft":null,"sound":false,"fit":"none","geur":689170,"gfit":"sound"}},{"type":"Feature","geometry":{"type":"Point","coordinates":[-106.16703,44.22833]},"properties":{"api":"4901926185","name":"FEDERAL 34-7-4977","op":"CARBON CREEK ENERGY LLC","co":"Johnson","st":"WY","trs":"T49N R77W S7","fm":null,"eur":null,"perft":null,"sound":false,"fit":"none","geur":null,"gfit":"refused"}},{"type":"Feature","geometry":{"type":"Point","coordinates":[-106.16071,44.23235]},"properties":{"api":"4901926186","name":"FEDERAL 43-7-4977BG","op":"CARBON CREEK ENERGY LLC","co":"Johnson","st":"WY","trs":"T49N R77W S7","fm":null,"eur":null,"perft":null,"sound":false,"fit":"none","geur":752836,"gfit":"sound"}},{"type":"Feature","geometry":{"type":"Point","coordinates":[-106.10126,44.21859]},"properties":{"api":"4901926204","name":"LEATH 43-15-4977BG","op":"CARBON CREEK ENERGY LLC","co":"Johnson","st":"WY","trs":"T49N R77W S15","fm":null,"eur":null,"perft":null,"sound":false,"fit":"none","geur":null,"gfit":"refused"}},{"type":"Feature","geometry":{"type":"Point","coordinates":[-106.07611,44.20056]},"properties":{"api":"4901926208","name":"RU FED 14-24-4977BG","op":"CARBON CREEK ENERGY LLC","co":"Johnson","st":"WY","trs":"T49N R77W S24","fm":null,"eur":null,"perft":null,"sound":false,"fit":"none","geur":null,"gfit":"refused"}},{"type":"Feature","geometry":{"type":"Point","coordinates":[-106.0833,44.20882]},"properties":{"api":"4901926426","name":"RU FED 32-23-4977BG","op":"CARBON CREEK ENERGY LLC","co":"Johnson","st":"WY","trs":"T49N R77W S23","fm":null,"eur":null,"perft":null,"sound":false,"fit":"none","geur":null,"gfit":"refused"}},{"type":"Feature","geometry":{"type":"Point","coordinates":[-106.14589,44.25027]},"properties":{"api":"4901926435","name":"PVU 32-5-4977BG","op":"CARBON CREEK ENERGY LLC","co":"Johnson","st":"WY","trs":"T49N R77W S5","fm":null,"eur":null,"perft":null,"sound":false,"fit":"none","geur":null,"gfit":"refused"}},{"type":"Feature","geometry":{"type":"Point","coordinates":[-106.13964,44.22483]},"properties":{"api":"4901926457","name":"PETERSON 41-17-4977BG","op":"CARBON CREEK ENERGY LLC","co":"Johnson","st":"WY","trs":"T49N R77W S17","fm":null,"eur":null,"perft":null,"sound":false,"fit":"none","geur":737382,"gfit":"sound"}},{"type":"Feature","geometry":{"type":"Point","coordinates":[-106.13856,44.17579]},"properties":{"api":"4901926459","name":"RIVER UNIT 43-32-4977BG","op":"CARBON CREEK ENERGY LLC","co":"Johnson","st":"WY","trs":"T49N R77W S32","fm":null,"eur":null,"perft":null,"sound":false,"fit":"none","geur":null,"gfit":"refused"}},{"type":"Feature","geometry":{"type":"Point","coordinates":[-106.12947,44.19569]},"properties":{"api":"4901926460","name":"RU 21-28-4977BG","op":"CARBON CREEK ENERGY LLC","co":"Johnson","st":"WY","trs":"T49N R77W S28","fm":null,"eur":null,"perft":null,"sound":false,"fit":"none","geur":null,"gfit":"refused"}},{"type":"Feature","geometry":{"type":"Point","coordinates":[-106.14553,44.18592]},"properties":{"api":"4901926461","name":"RU 34-29-4977BG","op":"CARBON CREEK ENERGY LLC","co":"Johnson","st":"WY","trs":"T49N R77W S29","fm":null,"eur":null,"perft":null,"sound":false,"fit":"none","geur":1129564,"gfit":"sound"}},{"type":"Feature","geometry":{"type":"Point","coordinates":[-106.13503,44.17419]},"properties":{"api":"4901926479","name":"RIVER UNIT 13-33-4977BG","op":"CARBON CREEK ENERGY LLC","co":"Johnson","st":"WY","trs":"T49N R77W S33","fm":null,"eur":null,"perft":null,"sound":false,"fit":"none","geur":1671716,"gfit":"sound"}},{"type":"Feature","geometry":{"type":"Point","coordinates":[-106.12481,44.21372]},"properties":{"api":"4901926562","name":"RU STATE 34-16-4977BG","op":"CARBON CREEK ENERGY LLC","co":"Johnson","st":"WY","trs":"T49N R77W S16","fm":null,"eur":null,"perft":null,"sound":false,"fit":"none","geur":1144834,"gfit":"sound"}},{"type":"Feature","geometry":{"type":"Point","coordinates":[-106.14178,44.18313]},"properties":{"api":"4901926630","name":"HEALY 41-32-4977","op":"CARBON CREEK ENERGY LLC","co":"Johnson","st":"WY","trs":"T49N R77W S32","fm":null,"eur":null,"perft":null,"sound":false,"fit":"none","geur":62492,"gfit":"sound"}},{"type":"Feature","geometry":{"type":"Point","coordinates":[-106.06197,44.23577]},"properties":{"api":"4901926713","name":"WILLIAMS DU FED 42-12-4977","op":"CARBON CREEK ENERGY LLC","co":"Johnson","st":"WY","trs":"T49N R77W S12","fm":null,"eur":null,"perft":null,"sound":false,"fit":"none","geur":null,"gfit":"refused"}},{"type":"Feature","geometry":{"type":"Point","coordinates":[-106.13711,44.20117]},"properties":{"api":"4901926725","name":"WARDNER RANCH 14-21-4977BG","op":"CARBON CREEK ENERGY LLC","co":"Johnson","st":"WY","trs":"T49N R77W S21","fm":null,"eur":null,"perft":null,"sound":false,"fit":"none","geur":null,"gfit":"refused"}},{"type":"Feature","geometry":{"type":"Point","coordinates":[-106.16184,44.193]},"properties":{"api":"4901927123","name":"BOLSTER CS FEDERAL 20","op":"EOG RESOURCES INC","co":"Johnson","st":"WY","trs":"T49N R77W S30","fm":null,"eur":null,"perft":null,"sound":false,"fit":"none","geur":null,"gfit":"refused"}},{"type":"Feature","geometry":{"type":"Point","coordinates":[-106.17589,44.18587]},"properties":{"api":"4901927514","name":"BOLSTER CS FEDERAL 23","op":"EOG RESOURCES INC","co":"Johnson","st":"WY","trs":"T49N R77W S30","fm":null,"eur":null,"perft":null,"sound":false,"fit":"none","geur":1158629,"gfit":"sound"}},{"type":"Feature","geometry":{"type":"Point","coordinates":[-106.16098,44.18961]},"properties":{"api":"4901927515","name":"BOLSTER CS FEDERAL 21","op":"EOG RESOURCES INC","co":"Johnson","st":"WY","trs":"T49N R77W S30","fm":null,"eur":null,"perft":null,"sound":false,"fit":"none","geur":null,"gfit":"refused"}},{"type":"Feature","geometry":{"type":"Point","coordinates":[-106.15957,44.20359]},"properties":{"api":"4901927516","name":"BOLSTER CS FEDERAL 13","op":"EOG RESOURCES INC","co":"Johnson","st":"WY","trs":"T49N R77W S19","fm":null,"eur":null,"perft":null,"sound":false,"fit":"none","geur":null,"gfit":"refused"}},{"type":"Feature","geometry":{"type":"Point","coordinates":[-106.17502,44.2003]},"properties":{"api":"4901927517","name":"BOLSTER CS FEDERAL 15","op":"EOG RESOURCES INC","co":"Johnson","st":"WY","trs":"T49N R77W S19","fm":null,"eur":null,"perft":null,"sound":false,"fit":"none","geur":null,"gfit":"refused"}},{"type":"Feature","geometry":{"type":"Point","coordinates":[-106.15952,44.19687]},"properties":{"api":"4901927588","name":"BOLSTER CS FEDERAL 17","op":"EOG RESOURCES INC","co":"Johnson","st":"WY","trs":"T49N R77W S30","fm":null,"eur":null,"perft":null,"sound":false,"fit":"none","geur":null,"gfit":"refused"}},{"type":"Feature","geometry":{"type":"Point","coordinates":[-106.15992,44.20999]},"properties":{"api":"4901927616","name":"BOLSTER CS FEDERAL 9","op":"EOG RESOURCES INC","co":"Johnson","st":"WY","trs":"T49N R77W S19","fm":null,"eur":null,"perft":null,"sound":false,"fit":"none","geur":null,"gfit":"refused"}},{"type":"Feature","geometry":{"type":"Point","coordinates":[-106.17627,44.20591]},"properties":{"api":"4901927617","name":"BOLSTER CS FEDERAL 11","op":"EOG RESOURCES INC","co":"Johnson","st":"WY","trs":"T49N R77W S19","fm":null,"eur":null,"perft":null,"sound":false,"fit":"none","geur":507736,"gfit":"sound"}},{"type":"Feature","geometry":{"type":"Point","coordinates":[-106.16957,44.21234]},"properties":{"api":"4901927618","name":"BOLSTER CS FEDERAL 10","op":"EOG RESOURCES INC","co":"Johnson","st":"WY","trs":"T49N R77W S19","fm":null,"eur":null,"perft":null,"sound":false,"fit":"none","geur":null,"gfit":"refused"}},{"type":"Feature","geometry":{"type":"Point","coordinates":[-106.16325,44.20599]},"properties":{"api":"4901927619","name":"BOLSTER CS FEDERAL 12","op":"EOG RESOURCES INC","co":"Johnson","st":"WY","trs":"T49N R77W S19","fm":null,"eur":null,"perft":null,"sound":false,"fit":"none","geur":null,"gfit":"refused"}},{"type":"Feature","geometry":{"type":"Point","coordinates":[-106.16816,44.20475]},"properties":{"api":"4901927620","name":"BOLSTER CS FEDERAL 14","op":"EOG RESOURCES INC","co":"Johnson","st":"WY","trs":"T49N R77W S19","fm":null,"eur":null,"perft":null,"sound":false,"fit":"none","geur":null,"gfit":"refused"}},{"type":"Feature","geometry":{"type":"Point","coordinates":[-106.16362,44.20012]},"properties":{"api":"4901927621","name":"BOLSTER CS FEDERAL 16","op":"EOG RESOURCES INC","co":"Johnson","st":"WY","trs":"T49N R77W S19","fm":null,"eur":null,"perft":null,"sound":false,"fit":"none","geur":null,"gfit":"refused"}},{"type":"Feature","geometry":{"type":"Point","coordinates":[-106.16345,44.18678]},"properties":{"api":"4901927626","name":"BOLSTER CS FEDERAL 24","op":"EOG RESOURCES INC","co":"Johnson","st":"WY","trs":"T49N R77W S30","fm":null,"eur":null,"perft":null,"sound":false,"fit":"none","geur":null,"gfit":"refused"}},{"type":"Feature","geometry":{"type":"Point","coordinates":[-106.16995,44.18788]},"properties":{"api":"4901927627","name":"BOLSTER CS FEDERAL 22","op":"EOG RESOURCES INC","co":"Johnson","st":"WY","trs":"T49N R77W S30","fm":null,"eur":null,"perft":null,"sound":false,"fit":"none","geur":null,"gfit":"none"}},{"type":"Feature","geometry":{"type":"Point","coordinates":[-106.17614,44.19575]},"properties":{"api":"4901927628","name":"BOLSTER CS FEDERAL 19","op":"EOG RESOURCES INC","co":"Johnson","st":"WY","trs":"T49N R77W S30","fm":null,"eur":null,"perft":null,"sound":false,"fit":"none","geur":null,"gfit":"refused"}},{"type":"Feature","geometry":{"type":"Point","coordinates":[-106.17056,44.19183]},"properties":{"api":"4901927629","name":"BOLSTER CS FEDERAL 18","op":"EOG RESOURCES INC","co":"Johnson","st":"WY","trs":"T49N R77W S30","fm":null,"eur":null,"perft":null,"sound":false,"fit":"none","geur":null,"gfit":"refused"}},{"type":"Feature","geometry":{"type":"Point","coordinates":[-106.06453,44.22689]},"properties":{"api":"4901927638","name":"WILLIAMS DU FED 31-13-4977","op":"CARBON CREEK ENERGY LLC","co":"Johnson","st":"WY","trs":"T49N R77W S13","fm":null,"eur":null,"perft":null,"sound":false,"fit":"none","geur":402257,"gfit":"sound"}},{"type":"Feature","geometry":{"type":"Point","coordinates":[-106.14538,44.20034]},"properties":{"api":"4901928036","name":"WARDNER RANCH 34-20-4977","op":"CARBON CREEK ENERGY LLC","co":"Johnson","st":"WY","trs":"T49N R77W S20","fm":null,"eur":null,"perft":null,"sound":false,"fit":"none","geur":2737056,"gfit":"sound"}},{"type":"Feature","geometry":{"type":"Point","coordinates":[-106.12535,44.17743]},"properties":{"api":"4901928088","name":"RU FED 32-33-4977","op":"CARBON CREEK ENERGY LLC","co":"Johnson","st":"WY","trs":"T49N R77W S33","fm":null,"eur":null,"perft":null,"sound":false,"fit":"none","geur":null,"gfit":"refused"}},{"type":"Feature","geometry":{"type":"Point","coordinates":[-106.1565,44.17782]},"properties":{"api":"4901928095","name":"RU FED 12-32-4977","op":"CARBON CREEK ENERGY LLC","co":"Johnson","st":"WY","trs":"T49N R77W S32","fm":null,"eur":null,"perft":null,"sound":false,"fit":"none","geur":1904059,"gfit":"sound"}},{"type":"Feature","geometry":{"type":"Point","coordinates":[-106.16708,44.17138]},"properties":{"api":"4901928098","name":"RU FED 34-31-4977","op":"CARBON CREEK ENERGY LLC","co":"Johnson","st":"WY","trs":"T49N R77W S31","fm":null,"eur":null,"perft":null,"sound":false,"fit":"none","geur":null,"gfit":"refused"}},{"type":"Feature","geometry":{"type":"Point","coordinates":[-106.17083,44.17473]},"properties":{"api":"4901928100","name":"RU FED 23-31-4977","op":"CARBON CREEK ENERGY LLC","co":"Johnson","st":"WY","trs":"T49N R77W S31","fm":null,"eur":null,"perft":null,"sound":false,"fit":"none","geur":914450,"gfit":"sound"}},{"type":"Feature","geometry":{"type":"Point","coordinates":[-106.17222,44.18018]},"properties":{"api":"4901928101","name":"RU FED 21-31-4977","op":"CARBON CREEK ENERGY LLC","co":"Johnson","st":"WY","trs":"T49N R77W S31","fm":null,"eur":null,"perft":null,"sound":false,"fit":"none","geur":1665406,"gfit":"sound"}},{"type":"Feature","geometry":{"type":"Point","coordinates":[-106.1753,44.17103]},"properties":{"api":"4901928102","name":"RU FED 14-31-4977","op":"CARBON CREEK ENERGY LLC","co":"Johnson","st":"WY","trs":"T49N R77W S31","fm":null,"eur":null,"perft":null,"sound":false,"fit":"none","geur":1452038,"gfit":"sound"}},{"type":"Feature","geometry":{"type":"Point","coordinates":[-106.17448,44.17721]},"properties":{"api":"4901928103","name":"RU FED 12-31-4977","op":"CARBON CREEK ENERGY LLC","co":"Johnson","st":"WY","trs":"T49N R77W S31","fm":null,"eur":null,"perft":null,"sound":false,"fit":"none","geur":1716435,"gfit":"sound"}},{"type":"Feature","geometry":{"type":"Point","coordinates":[-106.13975,44.18849]},"properties":{"api":"4901928104","name":"RU FED 43-29-4977","op":"CARBON CREEK ENERGY LLC","co":"Johnson","st":"WY","trs":"T49N R77W S29","fm":null,"eur":null,"perft":null,"sound":false,"fit":"none","geur":1367637,"gfit":"sound"}},{"type":"Feature","geometry":{"type":"Point","coordinates":[-106.14603,44.19627]},"properties":{"api":"4901928105","name":"RU FED 31-29-4977","op":"CARBON CREEK ENERGY LLC","co":"Johnson","st":"WY","trs":"T49N R77W S29","fm":null,"eur":null,"perft":null,"sound":false,"fit":"none","geur":null,"gfit":"refused"}},{"type":"Feature","geometry":{"type":"Point","coordinates":[-106.15215,44.1847]},"properties":{"api":"4901928106","name":"RU FED 24-29-4977","op":"CARBON CREEK ENERGY LLC","co":"Johnson","st":"WY","trs":"T49N R77W S29","fm":null,"eur":null,"perft":null,"sound":false,"fit":"none","geur":1338681,"gfit":"sound"}},{"type":"Feature","geometry":{"type":"Point","coordinates":[-106.14898,44.18844]},"properties":{"api":"4901928107","name":"RU FED 23-29-4977","op":"CARBON CREEK ENERGY LLC","co":"Johnson","st":"WY","trs":"T49N R77W S29","fm":null,"eur":null,"perft":null,"sound":false,"fit":"none","geur":null,"gfit":"refused"}},{"type":"Feature","geometry":{"type":"Point","coordinates":[-106.15244,44.19502]},"properties":{"api":"4901928108","name":"RU FED 21-29-4977","op":"CARBON CREEK ENERGY LLC","co":"Johnson","st":"WY","trs":"T49N R77W S29","fm":null,"eur":null,"perft":null,"sound":false,"fit":"none","geur":null,"gfit":"refused"}},{"type":"Feature","geometry":{"type":"Point","coordinates":[-106.15516,44.19126]},"properties":{"api":"4901928109","name":"RU FED 12-29-4977","op":"CARBON CREEK ENERGY LLC","co":"Johnson","st":"WY","trs":"T49N R77W S29","fm":null,"eur":null,"perft":null,"sound":false,"fit":"none","geur":null,"gfit":"refused"}},{"type":"Feature","geometry":{"type":"Point","coordinates":[-106.10838,44.22381]},"properties":{"api":"4901928112","name":"RU FED 21-15-4977","op":"CARBON CREEK ENERGY LLC","co":"Johnson","st":"WY","trs":"T49N R77W S15","fm":null,"eur":null,"perft":null,"sound":false,"fit":"none","geur":null,"gfit":"refused"}},{"type":"Feature","geometry":{"type":"Point","coordinates":[-106.12073,44.17402]},"properties":{"api":"4901928114","name":"RU FED 43-33-4977","op":"CARBON CREEK ENERGY LLC","co":"Johnson","st":"WY","trs":"T49N R77W S33","fm":null,"eur":null,"perft":null,"sound":false,"fit":"none","geur":2423196,"gfit":"sound"}},{"type":"Feature","geometry":{"type":"Point","coordinates":[-106.17451,44.23162]},"properties":{"api":"4901928731","name":"FEDERAL 13-7-4977","op":"CARBON CREEK ENERGY LLC","co":"Johnson","st":"WY","trs":"T49N R77W S7","fm":null,"eur":null,"perft":null,"sound":false,"fit":"none","geur":null,"gfit":"refused"}},{"type":"Feature","geometry":{"type":"Point","coordinates":[-106.10412,44.25537]},"properties":{"api":"4901928922","name":"WILLIAMS DU FED 31-3-4977","op":"CARBON CREEK ENERGY LLC","co":"Johnson","st":"WY","trs":"T49N R77W S3","fm":null,"eur":null,"perft":null,"sound":false,"fit":"none","geur":593582,"gfit":"sound"}},{"type":"Feature","geometry":{"type":"Point","coordinates":[-106.11017,44.25003]},"properties":{"api":"4901928947","name":"WILLIAMS DU FED 22-3-4977","op":"CARBON CREEK ENERGY LLC","co":"Johnson","st":"WY","trs":"T49N R77W S3","fm":null,"eur":null,"perft":null,"sound":false,"fit":"none","geur":null,"gfit":"refused"}},{"type":"Feature","geometry":{"type":"Point","coordinates":[-106.11024,44.2541]},"properties":{"api":"4901928948","name":"WILLIAMS DU FED 21-3-4977","op":"CARBON CREEK ENERGY LLC","co":"Johnson","st":"WY","trs":"T49N R77W S3","fm":null,"eur":null,"perft":null,"sound":false,"fit":"none","geur":630555,"gfit":"sound"}},{"type":"Feature","geometry":{"type":"Point","coordinates":[-106.11498,44.24566]},"properties":{"api":"4901928949","name":"WILLIAMS DU FED 13-3-4977","op":"CARBON CREEK ENERGY LLC","co":"Johnson","st":"WY","trs":"T49N R77W S3","fm":null,"eur":null,"perft":null,"sound":false,"fit":"none","geur":1322689,"gfit":"sound"}},{"type":"Feature","geometry":{"type":"Point","coordinates":[-106.08116,44.24574]},"properties":{"api":"4901928950","name":"WILLIAMS DU FED 43-2-4977","op":"CARBON CREEK ENERGY LLC","co":"Johnson","st":"WY","trs":"T49N R77W S2","fm":null,"eur":null,"perft":null,"sound":false,"fit":"none","geur":103476,"gfit":"sound"}},{"type":"Feature","geometry":{"type":"Point","coordinates":[-106.08561,44.24311]},"properties":{"api":"4901928952","name":"WILLIAMS DU FED 34-2-4977","op":"CARBON CREEK ENERGY LLC","co":"Johnson","st":"WY","trs":"T49N R77W S2","fm":null,"eur":null,"perft":null,"sound":false,"fit":"none","geur":609680,"gfit":"sound"}},{"type":"Feature","geometry":{"type":"Point","coordinates":[-106.08766,44.25083]},"properties":{"api":"4901928953","name":"WILLIAMS DU FED 32-2-4977","op":"CARBON CREEK ENERGY LLC","co":"Johnson","st":"WY","trs":"T49N R77W S2","fm":null,"eur":null,"perft":null,"sound":false,"fit":"none","geur":null,"gfit":"none"}},{"type":"Feature","geometry":{"type":"Point","coordinates":[-106.09129,44.24815]},"properties":{"api":"4901928954","name":"WILLIAMS DU FED 23-2-4977","op":"CARBON CREEK ENERGY LLC","co":"Johnson","st":"WY","trs":"T49N R77W S2","fm":null,"eur":null,"perft":null,"sound":false,"fit":"none","geur":518813,"gfit":"sound"}},{"type":"Feature","geometry":{"type":"Point","coordinates":[-106.09219,44.25566]},"properties":{"api":"4901928955","name":"WILLIAMS DU FED 21-2-4977","op":"CARBON CREEK ENERGY LLC","co":"Johnson","st":"WY","trs":"T49N R77W S2","fm":null,"eur":null,"perft":null,"sound":false,"fit":"none","geur":625538,"gfit":"sound"}},{"type":"Feature","geometry":{"type":"Point","coordinates":[-106.09589,44.24404]},"properties":{"api":"4901928956","name":"WILLIAMS DU FED 14-2-4977","op":"CARBON CREEK ENERGY LLC","co":"Johnson","st":"WY","trs":"T49N R77W S2","fm":null,"eur":null,"perft":null,"sound":false,"fit":"none","geur":761489,"gfit":"sound"}},{"type":"Feature","geometry":{"type":"Point","coordinates":[-106.09414,44.25268]},"properties":{"api":"4901928957","name":"WILLIAMS DU FED 11-2-4977","op":"CARBON CREEK ENERGY LLC","co":"Johnson","st":"WY","trs":"T49N R77W S2","fm":null,"eur":null,"perft":null,"sound":false,"fit":"none","geur":807753,"gfit":"sound"}},{"type":"Feature","geometry":{"type":"Point","coordinates":[-106.05921,44.24861]},"properties":{"api":"4901928958","name":"WILLIAMS DU FED 43-1-4977","op":"CARBON CREEK ENERGY LLC","co":"Johnson","st":"WY","trs":"T49N R77W S1","fm":null,"eur":null,"perft":null,"sound":false,"fit":"none","geur":null,"gfit":"refused"}},{"type":"Feature","geometry":{"type":"Point","coordinates":[-106.05984,44.25302]},"properties":{"api":"4901928959","name":"WILLIAMS DU FED 41-1-4977","op":"CARBON CREEK ENERGY LLC","co":"Johnson","st":"WY","trs":"T49N R77W S1","fm":null,"eur":null,"perft":null,"sound":false,"fit":"none","geur":null,"gfit":"refused"}},{"type":"Feature","geometry":{"type":"Point","coordinates":[-106.06686,44.24742]},"properties":{"api":"4901928960","name":"WILLIAMS DU FED 33-1-4977","op":"CARBON CREEK ENERGY LLC","co":"Johnson","st":"WY","trs":"T49N R77W S1","fm":null,"eur":null,"perft":null,"sound":false,"fit":"none","geur":null,"gfit":"refused"}},{"type":"Feature","geometry":{"type":"Point","coordinates":[-106.0636,44.24875]},"properties":{"api":"4901928961","name":"WILLIAMS DU FED 32-1-4977","op":"CARBON CREEK ENERGY LLC","co":"Johnson","st":"WY","trs":"T49N R77W S1","fm":null,"eur":null,"perft":null,"sound":false,"fit":"none","geur":null,"gfit":"refused"}},{"type":"Feature","geometry":{"type":"Point","coordinates":[-106.0717,44.24813]},"properties":{"api":"4901928963","name":"WILLIAMS DU FED 23-1-4977","op":"CARBON CREEK ENERGY LLC","co":"Johnson","st":"WY","trs":"T49N R77W S1","fm":null,"eur":null,"perft":null,"sound":false,"fit":"none","geur":null,"gfit":"refused"}},{"type":"Feature","geometry":{"type":"Point","coordinates":[-106.10058,44.24307]},"properties":{"api":"4901928985","name":"WILLIAMS DU FED 44-3-4977","op":"CARBON CREEK ENERGY LLC","co":"Johnson","st":"WY","trs":"T49N R77W S3","fm":null,"eur":null,"perft":null,"sound":false,"fit":"none","geur":null,"gfit":"refused"}},{"type":"Feature","geometry":{"type":"Point","coordinates":[-106.10235,44.24712]},"properties":{"api":"4901928986","name":"WILLIAMS DU FED 43-3-4977","op":"CARBON CREEK ENERGY LLC","co":"Johnson","st":"WY","trs":"T49N R77W S3","fm":null,"eur":null,"perft":null,"sound":false,"fit":"none","geur":557583,"gfit":"sound"}},{"type":"Feature","geometry":{"type":"Point","coordinates":[-106.1172,44.24945]},"properties":{"api":"4901929002","name":"WILLIAMS DU FED 12-3-4977","op":"CARBON CREEK ENERGY LLC","co":"Johnson","st":"WY","trs":"T49N R77W S3","fm":null,"eur":null,"perft":null,"sound":false,"fit":"none","geur":1217739,"gfit":"sound"}},{"type":"Feature","geometry":{"type":"Point","coordinates":[-106.17675,44.22971]},"properties":{"api":"4901929004","name":"FEDERAL 14-7-4977S","op":"CARBON CREEK ENERGY LLC","co":"Johnson","st":"WY","trs":"T49N R77W S7","fm":null,"eur":null,"perft":null,"sound":false,"fit":"none","geur":null,"gfit":"refused"}},{"type":"Feature","geometry":{"type":"Point","coordinates":[-106.06972,44.2148]},"properties":{"api":"4901921478","name":"JONES 42-1397","op":"BEARCAT ENERGY LLC (COLORADO)","co":"Johnson","st":"WY","trs":"T49N R77W S13","fm":null,"eur":null,"perft":null,"sound":false,"fit":"none","geur":null,"gfit":"refused"}},{"type":"Feature","geometry":{"type":"Point","coordinates":[-106.05921,44.21419]},"properties":{"api":"4901921480","name":"JONES 44-1397","op":"BEARCAT ENERGY LLC (COLORADO)","co":"Johnson","st":"WY","trs":"T49N R77W S13","fm":null,"eur":null,"perft":null,"sound":false,"fit":"none","geur":null,"gfit":"refused"}},{"type":"Feature","geometry":{"type":"Point","coordinates":[-106.09431,44.21812]},"properties":{"api":"4901921481","name":"JONES 31-1497","op":"BEARCAT ENERGY LLC (COLORADO)","co":"Johnson","st":"WY","trs":"T49N R77W S14","fm":null,"eur":null,"perft":null,"sound":false,"fit":"none","geur":null,"gfit":"refused"}},{"type":"Feature","geometry":{"type":"Point","coordinates":[-106.08461,44.21816]},"properties":{"api":"4901921483","name":"JONES 33-1497","op":"BEARCAT ENERGY LLC (COLORADO)","co":"Johnson","st":"WY","trs":"T49N R77W S14","fm":null,"eur":null,"perft":null,"sound":false,"fit":"none","geur":null,"gfit":"refused"}},{"type":"Feature","geometry":{"type":"Point","coordinates":[-106.1565,44.23677]},"properties":{"api":"4901925777","name":"ADVOCATE CS FED COM 5","op":"EOG RESOURCES INC","co":"Johnson","st":"WY","trs":"T49N R77W S8","fm":null,"eur":null,"perft":null,"sound":false,"fit":"none","geur":null,"gfit":"refused"}},{"type":"Feature","geometry":{"type":"Point","coordinates":[-106.13731,44.22694]},"properties":{"api":"4901925825","name":"STATE 11-16-4977M","op":"ANADARKO E&P ONSHORE LLC","co":"Johnson","st":"WY","trs":"T49N R77W S16","fm":null,"eur":null,"perft":null,"sound":false,"fit":"none","geur":null,"gfit":"none"}},{"type":"Feature","geometry":{"type":"Point","coordinates":[-106.16266,44.23857]},"properties":{"api":"4901927389","name":"ADVOCATE CS FEDERAL 15","op":"EOG RESOURCES INC","co":"Johnson","st":"WY","trs":"T49N R77W S7","fm":null,"eur":null,"perft":null,"sound":false,"fit":"none","geur":null,"gfit":"refused"}},{"type":"Feature","geometry":{"type":"Point","coordinates":[-106.15152,44.18194]},"properties":{"api":"4901928093","name":"RU FED 21-32-4977","op":"CARBON CREEK ENERGY LLC","co":"Johnson","st":"WY","trs":"T49N R77W S32","fm":null,"eur":null,"perft":null,"sound":false,"fit":"none","geur":null,"gfit":"refused"}},{"type":"Feature","geometry":{"type":"Point","coordinates":[-106.06627,44.20018]},"properties":{"api":"4901925751","name":"RU FED 34-24-4977BG","op":"CARBON CREEK ENERGY LLC","co":"Johnson","st":"WY","trs":"T49N R77W S24","fm":null,"eur":null,"perft":null,"sound":false,"fit":"none","geur":null,"gfit":"refused"}},{"type":"Feature","geometry":{"type":"Point","coordinates":[-106.07353,44.20803]},"properties":{"api":"4901925755","name":"RU FED 12-24-4977BG","op":"CARBON CREEK ENERGY LLC","co":"Johnson","st":"WY","trs":"T49N R77W S24","fm":null,"eur":null,"perft":null,"sound":false,"fit":"none","geur":null,"gfit":"refused"}},{"type":"Feature","geometry":{"type":"Point","coordinates":[-106.079,44.19639]},"properties":{"api":"4901925834","name":"RU FED 41-26-4977BG","op":"CARBON CREEK ENERGY LLC","co":"Johnson","st":"WY","trs":"T49N R77W S26","fm":null,"eur":null,"perft":null,"sound":false,"fit":"none","geur":null,"gfit":"refused"}},{"type":"Feature","geometry":{"type":"Point","coordinates":[-106.07315,44.19281]},"properties":{"api":"4901925836","name":"RU FED 12-25-4977BG","op":"CARBON CREEK ENERGY LLC","co":"Johnson","st":"WY","trs":"T49N R77W S25","fm":null,"eur":null,"perft":null,"sound":false,"fit":"none","geur":null,"gfit":"refused"}},{"type":"Feature","geometry":{"type":"Point","coordinates":[-106.06925,44.18858]},"properties":{"api":"4901925840","name":"RU FED 23-25-4977BG","op":"CARBON CREEK ENERGY LLC","co":"Johnson","st":"WY","trs":"T49N R77W S25","fm":null,"eur":null,"perft":null,"sound":false,"fit":"none","geur":null,"gfit":"refused"}},{"type":"Feature","geometry":{"type":"Point","coordinates":[-106.06933,44.19689]},"properties":{"api":"4901925842","name":"RU FED 21-25-4977BG","op":"CARBON CREEK ENERGY LLC","co":"Johnson","st":"WY","trs":"T49N R77W S25","fm":null,"eur":null,"perft":null,"sound":false,"fit":"none","geur":null,"gfit":"refused"}},{"type":"Feature","geometry":{"type":"Point","coordinates":[-106.14614,44.24383]},"properties":{"api":"4901926434","name":"PVU 34-5-4977BG","op":"CARBON CREEK ENERGY LLC","co":"Johnson","st":"WY","trs":"T49N R77W S5","fm":null,"eur":null,"perft":null,"sound":false,"fit":"none","geur":null,"gfit":"refused"}},{"type":"Feature","geometry":{"type":"Point","coordinates":[-106.09833,44.195]},"properties":{"api":"4901924491","name":"RU FED 41-27-4977BG","op":"CARBON CREEK ENERGY LLC","co":"Johnson","st":"WY","trs":"T49N R77W S27","fm":null,"eur":null,"perft":null,"sound":false,"fit":"none","geur":null,"gfit":"refused"}},{"type":"Feature","geometry":{"type":"Point","coordinates":[-106.10472,44.17139]},"properties":{"api":"4901924499","name":"RU FED 34-34-4977BG","op":"CARBON CREEK ENERGY LLC","co":"Johnson","st":"WY","trs":"T49N R77W S34","fm":null,"eur":null,"perft":null,"sound":false,"fit":"none","geur":null,"gfit":"refused"}},{"type":"Feature","geometry":{"type":"Point","coordinates":[-106.10167,44.18833]},"properties":{"api":"4901924501","name":"RU FED 43-27-4977BG","op":"CARBON CREEK ENERGY LLC","co":"Johnson","st":"WY","trs":"T49N R77W S27","fm":null,"eur":null,"perft":null,"sound":false,"fit":"none","geur":null,"gfit":"refused"}},{"type":"Feature","geometry":{"type":"Point","coordinates":[-106.13194,44.20944]},"properties":{"api":"4901924524","name":"RU FED 21-21-4977BG","op":"CARBON CREEK ENERGY LLC","co":"Johnson","st":"WY","trs":"T49N R77W S21","fm":null,"eur":null,"perft":null,"sound":false,"fit":"none","geur":null,"gfit":"refused"}},{"type":"Feature","geometry":{"type":"Point","coordinates":[-106.09861,44.21167]},"properties":{"api":"4901924537","name":"RU FED 41-22-4977BG","op":"CARBON CREEK ENERGY LLC","co":"Johnson","st":"WY","trs":"T49N R77W S22","fm":null,"eur":null,"perft":null,"sound":false,"fit":"none","geur":null,"gfit":"refused"}},{"type":"Feature","geometry":{"type":"Point","coordinates":[-106.1,44.20333]},"properties":{"api":"4901924538","name":"RU FED 43-22-4977BG","op":"CARBON CREEK ENERGY LLC","co":"Johnson","st":"WY","trs":"T49N R77W S22","fm":null,"eur":null,"perft":null,"sound":false,"fit":"none","geur":null,"gfit":"refused"}},{"type":"Feature","geometry":{"type":"Point","coordinates":[-106.1655,44.25457]},"properties":{"api":"4901924776","name":"PVU FED 31-6-4977BG","op":"CARBON CREEK ENERGY LLC","co":"Johnson","st":"WY","trs":"T49N R77W S6","fm":null,"eur":null,"perft":null,"sound":false,"fit":"none","geur":null,"gfit":"refused"}},{"type":"Feature","geometry":{"type":"Point","coordinates":[-106.08009,44.18805]},"properties":{"api":"4901925833","name":"RU FED 43-26-4977BG","op":"CARBON CREEK ENERGY LLC","co":"Johnson","st":"WY","trs":"T49N R77W S26","fm":null,"eur":null,"perft":null,"sound":false,"fit":"none","geur":null,"gfit":"refused"}},{"type":"Feature","geometry":{"type":"Point","coordinates":[-106.0834,44.18569]},"properties":{"api":"4901925837","name":"RU FED 34-26-4977BG","op":"CARBON CREEK ENERGY LLC","co":"Johnson","st":"WY","trs":"T49N R77W S26","fm":null,"eur":null,"perft":null,"sound":false,"fit":"none","geur":null,"gfit":"refused"}},{"type":"Feature","geometry":{"type":"Point","coordinates":[-106.11625,44.23552]},"properties":{"api":"4901926105","name":"WILLIAMS DU FED 12-10-4977WR","op":"CARBON CREEK ENERGY LLC","co":"Johnson","st":"WY","trs":"T49N R77W S10","fm":null,"eur":null,"perft":null,"sound":false,"fit":"none","geur":null,"gfit":"refused"}},{"type":"Feature","geometry":{"type":"Point","coordinates":[-106.08594,44.19975]},"properties":{"api":"4901926209","name":"RU FED 34-23-4977BG","op":"CARBON CREEK ENERGY LLC","co":"Johnson","st":"WY","trs":"T49N R77W S23","fm":null,"eur":null,"perft":null,"sound":false,"fit":"none","geur":null,"gfit":"refused"}},{"type":"Feature","geometry":{"type":"Point","coordinates":[-106.14483,44.17067]},"properties":{"api":"4901926458","name":"RIVER UNIT 34-32-4977BG","op":"CARBON CREEK ENERGY LLC","co":"Johnson","st":"WY","trs":"T49N R77W S32","fm":null,"eur":null,"perft":null,"sound":false,"fit":"none","geur":null,"gfit":"refused"}},{"type":"Feature","geometry":{"type":"Point","coordinates":[-106.15323,44.19992]},"properties":{"api":"4901926689","name":"RU FED 14-20-4977","op":"CARBON CREEK ENERGY LLC","co":"Johnson","st":"WY","trs":"T49N R77W S20","fm":null,"eur":null,"perft":null,"sound":false,"fit":"none","geur":null,"gfit":"refused"}},{"type":"Feature","geometry":{"type":"Point","coordinates":[-106.07887,44.23585]},"properties":{"api":"4901926730","name":"WILLIAMS DU FED 42-11-4977WR","op":"CARBON CREEK ENERGY LLC","co":"Johnson","st":"WY","trs":"T49N R77W S11","fm":null,"eur":null,"perft":null,"sound":false,"fit":"none","geur":null,"gfit":"refused"}},{"type":"Feature","geometry":{"type":"Point","coordinates":[-106.06301,44.2408]},"properties":{"api":"4901927659","name":"WILLIAMS DU FED 31-12-4977","op":"CARBON CREEK ENERGY LLC","co":"Johnson","st":"WY","trs":"T49N R77W S12","fm":null,"eur":null,"perft":null,"sound":false,"fit":"none","geur":null,"gfit":"refused"}},{"type":"Feature","geometry":{"type":"Point","coordinates":[-106.15636,44.17134]},"properties":{"api":"4901928094","name":"RU FED 14-32-4977","op":"CARBON CREEK ENERGY LLC","co":"Johnson","st":"WY","trs":"T49N R77W S32","fm":null,"eur":null,"perft":null,"sound":false,"fit":"none","geur":null,"gfit":"refused"}},{"type":"Feature","geometry":{"type":"Point","coordinates":[-106.16407,44.17822]},"properties":{"api":"4901928099","name":"RU FED 32-31-4977","op":"CARBON CREEK ENERGY LLC","co":"Johnson","st":"WY","trs":"T49N R77W S31","fm":null,"eur":null,"perft":null,"sound":false,"fit":"none","geur":null,"gfit":"refused"}},{"type":"Feature","geometry":{"type":"Point","coordinates":[-106.10029,44.22472]},"properties":{"api":"4901928110","name":"RU FED 41-15-4977","op":"CARBON CREEK ENERGY LLC","co":"Johnson","st":"WY","trs":"T49N R77W S15","fm":null,"eur":null,"perft":null,"sound":false,"fit":"none","geur":null,"gfit":"refused"}},{"type":"Feature","geometry":{"type":"Point","coordinates":[-106.10517,44.22193]},"properties":{"api":"4901928111","name":"RU FED 32-15-4977","op":"CARBON CREEK ENERGY LLC","co":"Johnson","st":"WY","trs":"T49N R77W S15","fm":null,"eur":null,"perft":null,"sound":false,"fit":"none","geur":null,"gfit":"refused"}},{"type":"Feature","geometry":{"type":"Point","coordinates":[-106.07959,44.25421]},"properties":{"api":"4901928951","name":"WILLIAMS DU FED 41-2-4977","op":"CARBON CREEK ENERGY LLC","co":"Johnson","st":"WY","trs":"T49N R77W S2","fm":null,"eur":null,"perft":null,"sound":false,"fit":"none","geur":null,"gfit":"none"}},{"type":"Feature","geometry":{"type":"Point","coordinates":[-106.07529,44.25191]},"properties":{"api":"4901928964","name":"WILLIAMS DU FED 12-1-4977","op":"CARBON CREEK ENERGY LLC","co":"Johnson","st":"WY","trs":"T49N R77W S1","fm":null,"eur":null,"perft":null,"sound":false,"fit":"none","geur":null,"gfit":"none"}},{"type":"Feature","geometry":{"type":"Point","coordinates":[-106.12458,44.20036]},"properties":{"api":"4901924528","name":"LEATH 34-21-4977BG","op":"CARBON CREEK ENERGY LLC","co":"Johnson","st":"WY","trs":"T49N R77W S21","fm":null,"eur":null,"perft":null,"sound":false,"fit":"none","geur":null,"gfit":"refused"}},{"type":"Feature","geometry":{"type":"Point","coordinates":[-106.14599,44.2219]},"properties":{"api":"4901925784","name":"ADVOCATE CS FED COM 12","op":"EOG RESOURCES INC","co":"Johnson","st":"WY","trs":"T49N R77W S17","fm":null,"eur":null,"perft":null,"sound":false,"fit":"none","geur":null,"gfit":"refused"}},{"type":"Feature","geometry":{"type":"Point","coordinates":[-106.16376,44.22218]},"properties":{"api":"4901925790","name":"BOLSTER CS FEDERAL 4","op":"EOG RESOURCES INC","co":"Johnson","st":"WY","trs":"T49N R77W S18","fm":null,"eur":null,"perft":null,"sound":false,"fit":"none","geur":null,"gfit":"refused"}},{"type":"Feature","geometry":{"type":"Point","coordinates":[-106.16076,44.21867]},"properties":{"api":"4901925791","name":"BOLSTER CS FEDERAL 5","op":"EOG RESOURCES INC","co":"Johnson","st":"WY","trs":"T49N R77W S18","fm":null,"eur":null,"perft":null,"sound":false,"fit":"none","geur":null,"gfit":"refused"}},{"type":"Feature","geometry":{"type":"Point","coordinates":[-106.15064,44.21756]},"properties":{"api":"4901926456","name":"PETERSON 23-17-4977BG","op":"CARBON CREEK ENERGY LLC","co":"Johnson","st":"WY","trs":"T49N R77W S17","fm":null,"eur":null,"perft":null,"sound":false,"fit":"none","geur":null,"gfit":"refused"}},{"type":"Feature","geometry":{"type":"Point","coordinates":[-106.14803,44.20362]},"properties":{"api":"4901926731","name":"WARDNER RANCH 23-20-4977BG","op":"CARBON CREEK ENERGY LLC","co":"Johnson","st":"WY","trs":"T49N R77W S20","fm":null,"eur":null,"perft":null,"sound":false,"fit":"none","geur":null,"gfit":"refused"}},{"type":"Feature","geometry":{"type":"Point","coordinates":[-106.16361,44.21628]},"properties":{"api":"4901928187","name":"BOLSTER CS FEDERAL 25","op":"EOG RESOURCES INC","co":"Johnson","st":"WY","trs":"T49N R77W S18","fm":null,"eur":null,"perft":null,"sound":false,"fit":"none","geur":1238836,"gfit":"sound"}},{"type":"Feature","geometry":{"type":"Point","coordinates":[-106.11417,44.18639]},"properties":{"api":"4901924483","name":"RU FED 14-27-4977BG","op":"CARBON CREEK ENERGY LLC","co":"Johnson","st":"WY","trs":"T49N R77W S27","fm":null,"eur":null,"perft":null,"sound":false,"fit":"none","geur":null,"gfit":"refused"}},{"type":"Feature","geometry":{"type":"Point","coordinates":[-106.13028,44.17722]},"properties":{"api":"4901924493","name":"RU 22-33-4977BG","op":"CARBON CREEK ENERGY LLC","co":"Johnson","st":"WY","trs":"T49N R77W S33","fm":null,"eur":null,"perft":null,"sound":false,"fit":"none","geur":null,"gfit":"refused"}},{"type":"Feature","geometry":{"type":"Point","coordinates":[-106.0855,44.17414]},"properties":{"api":"4901924497","name":"RU FED 33-35-4977BG","op":"CARBON CREEK ENERGY LLC","co":"Johnson","st":"WY","trs":"T49N R77W S35","fm":null,"eur":null,"perft":null,"sound":false,"fit":"none","geur":null,"gfit":"refused"}},{"type":"Feature","geometry":{"type":"Point","coordinates":[-106.10431,44.20569]},"properties":{"api":"4901924535","name":"RU FED 32-22-4977BG","op":"CARBON CREEK ENERGY LLC","co":"Johnson","st":"WY","trs":"T49N R77W S22","fm":null,"eur":null,"perft":null,"sound":false,"fit":"none","geur":null,"gfit":"refused"}},{"type":"Feature","geometry":{"type":"Point","coordinates":[-106.14564,44.19269]},"properties":{"api":"4901925154","name":"RU 32-29-4977","op":"CARBON CREEK ENERGY LLC","co":"Johnson","st":"WY","trs":"T49N R77W S29","fm":null,"eur":null,"perft":null,"sound":false,"fit":"none","geur":null,"gfit":"refused"}},{"type":"Feature","geometry":{"type":"Point","coordinates":[-106.12226,44.22566]},"properties":{"api":"4901925245","name":"RU STATE 41-16-4977BG","op":"CARBON CREEK ENERGY LLC","co":"Johnson","st":"WY","trs":"T49N R77W S16","fm":null,"eur":null,"perft":null,"sound":false,"fit":"none","geur":null,"gfit":"refused"}},{"type":"Feature","geometry":{"type":"Point","coordinates":[-106.13,44.22596]},"properties":{"api":"4901925271","name":"RU STATE 21-16-4977BG","op":"CARBON CREEK ENERGY LLC","co":"Johnson","st":"WY","trs":"T49N R77W S16","fm":null,"eur":null,"perft":null,"sound":false,"fit":"none","geur":null,"gfit":"none"}},{"type":"Feature","geometry":{"type":"Point","coordinates":[-106.06758,44.20347]},"properties":{"api":"4901925753","name":"RU FED 23-24-4977BG","op":"CARBON CREEK ENERGY LLC","co":"Johnson","st":"WY","trs":"T49N R77W S24","fm":null,"eur":null,"perft":null,"sound":false,"fit":"none","geur":null,"gfit":"refused"}},{"type":"Feature","geometry":{"type":"Point","coordinates":[-106.12891,44.23202]},"properties":{"api":"4901925781","name":"ADVOCATE CS FEDERAL 9","op":"EOG Y RESOURCES INC","co":"Johnson","st":"WY","trs":"T49N R77W S9","fm":null,"eur":null,"perft":null,"sound":false,"fit":"none","geur":null,"gfit":"refused"}},{"type":"Feature","geometry":{"type":"Point","coordinates":[-106.1503,44.22527]},"properties":{"api":"4901925783","name":"ADVOCATE CS FED COM 11","op":"EOG Y RESOURCES INC","co":"Johnson","st":"WY","trs":"T49N R77W S17","fm":null,"eur":null,"perft":null,"sound":false,"fit":"none","geur":null,"gfit":"refused"}},{"type":"Feature","geometry":{"type":"Point","coordinates":[-106.14048,44.21778]},"properties":{"api":"4901925785","name":"ADVOCATE CS FEDERAL 13","op":"EOG Y RESOURCES INC","co":"Johnson","st":"WY","trs":"T49N R77W S17","fm":null,"eur":null,"perft":null,"sound":false,"fit":"none","geur":null,"gfit":"refused"}},{"type":"Feature","geometry":{"type":"Point","coordinates":[-106.14588,44.21399]},"properties":{"api":"4901925786","name":"ADVOCATE CS FEDERAL 14","op":"EOG Y RESOURCES INC","co":"Johnson","st":"WY","trs":"T49N R77W S17","fm":null,"eur":null,"perft":null,"sound":false,"fit":"none","geur":null,"gfit":"refused"}},{"type":"Feature","geometry":{"type":"Point","coordinates":[-106.13922,44.20467]},"properties":{"api":"4901925828","name":"RU FED 43-20-4977BG","op":"CARBON CREEK ENERGY LLC","co":"Johnson","st":"WY","trs":"T49N R77W S20","fm":null,"eur":null,"perft":null,"sound":false,"fit":"none","geur":null,"gfit":"refused"}},{"type":"Feature","geometry":{"type":"Point","coordinates":[-106.08903,44.18854]},"properties":{"api":"4901925839","name":"RU FED 23-26-4977BG","op":"CARBON CREEK ENERGY LLC","co":"Johnson","st":"WY","trs":"T49N R77W S26","fm":null,"eur":null,"perft":null,"sound":false,"fit":"none","geur":null,"gfit":"none"}},{"type":"Feature","geometry":{"type":"Point","coordinates":[-106.13319,44.21522]},"properties":{"api":"4901926561","name":"RU STATE 14-16-4977BG","op":"CARBON CREEK ENERGY LLC","co":"Johnson","st":"WY","trs":"T49N R77W S16","fm":null,"eur":null,"perft":null,"sound":false,"fit":"none","geur":null,"gfit":"refused"}},{"type":"Feature","geometry":{"type":"Point","coordinates":[-106.14746,44.17675]},"properties":{"api":"4901928091","name":"RU FED 32-32-4977","op":"CARBON CREEK ENERGY LLC","co":"Johnson","st":"WY","trs":"T49N R77W S32","fm":null,"eur":null,"perft":null,"sound":false,"fit":"none","geur":null,"gfit":"refused"}},{"type":"Feature","geometry":{"type":"Point","coordinates":[-106.15075,44.17441]},"properties":{"api":"4901928092","name":"RU FED 23-32-4977","op":"CARBON CREEK ENERGY LLC","co":"Johnson","st":"WY","trs":"T49N R77W S32","fm":null,"eur":null,"perft":null,"sound":false,"fit":"none","geur":null,"gfit":"none"}},{"type":"Feature","geometry":{"type":"Point","coordinates":[-106.16225,44.17427]},"properties":{"api":"4901928096","name":"RU FED 43-31-4977","op":"CARBON CREEK ENERGY LLC","co":"Johnson","st":"WY","trs":"T49N R77W S31","fm":null,"eur":null,"perft":null,"sound":false,"fit":"none","geur":null,"gfit":"refused"}},{"type":"Feature","geometry":{"type":"Point","coordinates":[-106.16016,44.18231]},"properties":{"api":"4901928097","name":"RU FED 41-31-4977","op":"CARBON CREEK ENERGY LLC","co":"Johnson","st":"WY","trs":"T49N R77W S31","fm":null,"eur":null,"perft":null,"sound":false,"fit":"none","geur":null,"gfit":"refused"}},{"type":"Feature","geometry":{"type":"Point","coordinates":[-106.11547,44.22171]},"properties":{"api":"4901928113","name":"RU FED 12-15-4977","op":"CARBON CREEK ENERGY LLC","co":"Johnson","st":"WY","trs":"T49N R77W S15","fm":null,"eur":null,"perft":null,"sound":false,"fit":"none","geur":null,"gfit":"refused"}},{"type":"Feature","geometry":{"type":"Point","coordinates":[-106.11907,44.18211]},"properties":{"api":"4901928115","name":"RU FED 41-33-4977","op":"CARBON CREEK ENERGY LLC","co":"Johnson","st":"WY","trs":"T49N R77W S33","fm":null,"eur":null,"perft":null,"sound":false,"fit":"none","geur":null,"gfit":"refused"}},{"type":"Feature","geometry":{"type":"Point","coordinates":[-106.13036,44.18184]},"properties":{"api":"4901925334","name":"BIG GEORGE 33-3","op":"PETROX RESOURCES INC","co":"Johnson","st":"WY","trs":"T49N R77W S33","fm":null,"eur":null,"perft":null,"sound":false,"fit":"none","geur":null,"gfit":"refused"}},{"type":"Feature","geometry":{"type":"Point","coordinates":[-106.14066,44.24148]},"properties":{"api":"4901925270","name":"BLUE BUTTE RANCH 41-8-4977BG","op":"CARBON CREEK ENERGY LLC","co":"Johnson","st":"WY","trs":"T49N R77W S8","fm":null,"eur":null,"perft":null,"sound":false,"fit":"none","geur":null,"gfit":"none"}},{"type":"Feature","geometry":{"type":"Point","coordinates":[-106.17689,44.22982]},"properties":{"api":"4901926181","name":"FEDERAL 14-7-4977","op":"LANCE OIL & GAS COMPANY INC","co":"Johnson","st":"WY","trs":"T49N R77W S7","fm":null,"eur":null,"perft":null,"sound":false,"fit":"none","geur":null,"gfit":"none"}},{"type":"Feature","geometry":{"type":"Point","coordinates":[-106.14641,44.23982]},"properties":{"api":"4901921470","name":"JONES 13-897","op":"MCCARTNEY ENGINEERING LLC","co":"Johnson","st":"WY","trs":"T49N R77W S8","fm":null,"eur":null,"perft":null,"sound":false,"fit":"none","geur":null,"gfit":"none"}},{"type":"Feature","geometry":{"type":"Point","coordinates":[-106.1357,44.23965]},"properties":{"api":"4901921472","name":"JONES 11-997","op":"MCCARTNEY ENGINEERING LLC","co":"Johnson","st":"WY","trs":"T49N R77W S9","fm":null,"eur":null,"perft":null,"sound":false,"fit":"none","geur":null,"gfit":"none"}},{"type":"Feature","geometry":{"type":"Point","coordinates":[-106.12607,44.23995]},"properties":{"api":"4901921474","name":"JONES 13-997","op":"MCCARTNEY ENGINEERING LLC","co":"Johnson","st":"WY","trs":"T49N R77W S9","fm":null,"eur":null,"perft":null,"sound":false,"fit":"none","geur":null,"gfit":"none"}},{"type":"Feature","geometry":{"type":"Point","coordinates":[-106.12067,44.23669]},"properties":{"api":"4901921477","name":"JONES 24-997","op":"MCCARTNEY ENGINEERING LLC","co":"Johnson","st":"WY","trs":"T49N R77W S9","fm":null,"eur":null,"perft":null,"sound":false,"fit":"none","geur":null,"gfit":"none"}},{"type":"Feature","geometry":{"type":"Point","coordinates":[-106.05893,44.25047]},"properties":{"api":"4901920946","name":"ARTESIAN 1","op":"GILMORE OIL & GAS","co":"Johnson","st":"WY","trs":"T49N R77W S1","fm":null,"eur":null,"perft":null,"sound":false,"fit":"none","geur":null,"gfit":"none"}}]}