{"type":"FeatureCollection","features":[{"type":"Feature","geometry":{"type":"Point","coordinates":[-105.2455,44.2319]},"properties":{"api":"4900529041","name":"SEPCO W-102943 11-14","op":"CARDINAL WYOMING LLC","co":"Campbell","st":"WY","trs":"T49N R70W S14","fm":null,"eur":857523,"perft":null,"sound":true,"fit":"sound","geur":null,"gfit":"none"}},{"type":"Feature","geometry":{"type":"Point","coordinates":[-105.30901,44.22817]},"properties":{"api":"4900505420","name":"LESUEUR W-012692 1","op":"CARDINAL WYOMING LLC","co":"Campbell","st":"WY","trs":"T49N R70W S18","fm":null,"eur":null,"perft":null,"sound":false,"fit":"refused","geur":null,"gfit":"refused"}},{"type":"Feature","geometry":{"type":"Point","coordinates":[-105.30483,44.23177]},"properties":{"api":"4900505431","name":"LESEUR W-012692A 1","op":"CARDINAL WYOMING LLC","co":"Campbell","st":"WY","trs":"T49N R70W S17","fm":"FOX HILLS","eur":838451,"perft":null,"sound":true,"fit":"sound","geur":null,"gfit":"refused"}},{"type":"Feature","geometry":{"type":"Point","coordinates":[-105.30917,44.23177]},"properties":{"api":"4900505432","name":"LESUEUR W-012692 2","op":"CARDINAL WYOMING LLC","co":"Campbell","st":"WY","trs":"T49N R70W S18","fm":null,"eur":null,"perft":null,"sound":false,"fit":"refused","geur":null,"gfit":"refused"}},{"type":"Feature","geometry":{"type":"Point","coordinates":[-105.3098,44.23907]},"properties":{"api":"4900505477","name":"F E COOK 3","op":"CARDINAL WYOMING LLC","co":"Campbell","st":"WY","trs":"T49N R70W S7","fm":null,"eur":null,"perft":null,"sound":false,"fit":"refused","geur":null,"gfit":"none"}},{"type":"Feature","geometry":{"type":"Point","coordinates":[-105.31273,44.24171]},"properties":{"api":"4900505486","name":"TORO 2","op":"CARDINAL WYOMING LLC","co":"Campbell","st":"WY","trs":"T49N R70W S7","fm":null,"eur":null,"perft":null,"sound":false,"fit":"refused","geur":null,"gfit":"refused"}},{"type":"Feature","geometry":{"type":"Point","coordinates":[-105.30959,44.24298]},"properties":{"api":"4900505491","name":"F E COOK 5","op":"CARDINAL WYOMING LLC","co":"Campbell","st":"WY","trs":"T49N R70W S7","fm":null,"eur":null,"perft":null,"sound":false,"fit":"refused","geur":null,"gfit":"refused"}},{"type":"Feature","geometry":{"type":"Point","coordinates":[-105.31399,44.24623]},"properties":{"api":"4900505505","name":"TORO FEDERAL 31-7","op":"CARDINAL WYOMING LLC","co":"Campbell","st":"WY","trs":"T49N R70W S7","fm":null,"eur":null,"perft":null,"sound":false,"fit":"refused","geur":null,"gfit":"refused"}},{"type":"Feature","geometry":{"type":"Point","coordinates":[-105.20779,44.26183]},"properties":{"api":"4900505549","name":"HALVERSON PATENTED 41-1","op":"TR OPERATING LLC","co":"Campbell","st":"WY","trs":"T49N R70W S1","fm":"MINNELUSA","eur":null,"perft":null,"sound":false,"fit":"refused","geur":null,"gfit":"refused"}},{"type":"Feature","geometry":{"type":"Point","coordinates":[-105.22305,44.2543]},"properties":{"api":"4900524193","name":"RIDENOUR PATENTED 3","op":"BARN OWLS LLC","co":"Campbell","st":"WY","trs":"T49N R70W S1","fm":null,"eur":303380,"perft":null,"sound":true,"fit":"sound","geur":null,"gfit":"refused"}},{"type":"Feature","geometry":{"type":"Point","coordinates":[-105.22306,44.25637]},"properties":{"api":"4900524455","name":"THOLSON UNIT FEE 1","op":"BARN OWLS LLC","co":"Campbell","st":"WY","trs":"T49N R70W S1","fm":null,"eur":232470,"perft":null,"sound":true,"fit":"sound","geur":null,"gfit":"refused"}},{"type":"Feature","geometry":{"type":"Point","coordinates":[-105.30921,44.23549]},"properties":{"api":"4900524759","name":"F E COOK 2-9","op":"CARDINAL WYOMING LLC","co":"Campbell","st":"WY","trs":"T49N R70W S7","fm":null,"eur":null,"perft":null,"sound":false,"fit":"refused","geur":null,"gfit":"refused"}},{"type":"Feature","geometry":{"type":"Point","coordinates":[-105.29843,44.26148]},"properties":{"api":"4900524811","name":"LEOLA 1","op":"OILFIELD SALVAGE & SERVICE COMPANY","co":"Campbell","st":"WY","trs":"T49N R70W S5","fm":null,"eur":null,"perft":null,"sound":false,"fit":"refused","geur":null,"gfit":"refused"}},{"type":"Feature","geometry":{"type":"Point","coordinates":[-105.30996,44.23831]},"properties":{"api":"4900525050","name":"F E COOK 3-9","op":"CARDINAL WYOMING LLC","co":"Campbell","st":"WY","trs":"T49N R70W S7","fm":null,"eur":null,"perft":null,"sound":false,"fit":"refused","geur":null,"gfit":"refused"}},{"type":"Feature","geometry":{"type":"Point","coordinates":[-105.31329,44.26026]},"properties":{"api":"4900525213","name":"NO TIMBER CREEK 6","op":"PINE HAVEN RESOURCES LLC","co":"Campbell","st":"WY","trs":"T49N R70W S6","fm":null,"eur":null,"perft":null,"sound":false,"fit":"refused","geur":null,"gfit":"refused"}},{"type":"Feature","geometry":{"type":"Point","coordinates":[-105.225,44.26091]},"properties":{"api":"4900526299","name":"THOLSON B FEE 3","op":"BARN OWLS LLC","co":"Campbell","st":"WY","trs":"T49N R70W S1","fm":null,"eur":928279,"perft":null,"sound":true,"fit":"sound","geur":null,"gfit":"refused"}},{"type":"Feature","geometry":{"type":"Point","coordinates":[-105.21251,44.23641]},"properties":{"api":"4900527731","name":"W MORAN MINNELUSA UN 5-1","op":"BARN OWLS LLC","co":"Campbell","st":"WY","trs":"T49N R70W S12","fm":null,"eur":null,"perft":null,"sound":false,"fit":"refused","geur":null,"gfit":"refused"}},{"type":"Feature","geometry":{"type":"Point","coordinates":[-105.2067,44.22929]},"properties":{"api":"4900528217","name":"W MORAN MINNELUSA UN 5-3","op":"BARN OWLS LLC","co":"Campbell","st":"WY","trs":"T49N R70W S13","fm":null,"eur":502610,"perft":null,"sound":true,"fit":"sound","geur":null,"gfit":"none"}},{"type":"Feature","geometry":{"type":"Point","coordinates":[-105.24806,44.23621]},"properties":{"api":"4900528866","name":"WEST STAR W-90955 1-10","op":"CARDINAL WYOMING LLC","co":"Campbell","st":"WY","trs":"T49N R70W S10","fm":null,"eur":null,"perft":null,"sound":false,"fit":"refused","geur":null,"gfit":"none"}},{"type":"Feature","geometry":{"type":"Point","coordinates":[-105.24851,44.24011]},"properties":{"api":"4900528934","name":"BIG DIPPER FEE 2-10","op":"CARDINAL WYOMING LLC","co":"Campbell","st":"WY","trs":"T49N R70W S10","fm":null,"eur":1283622,"perft":null,"sound":true,"fit":"sound","geur":null,"gfit":"none"}},{"type":"Feature","geometry":{"type":"Point","coordinates":[-105.32327,44.19137]},"properties":{"api":"4900529281","name":"SO TIMBER CREEK FEE 14-30","op":"Kissack Resources. LLC","co":"Campbell","st":"WY","trs":"T49N R70W S30","fm":null,"eur":null,"perft":null,"sound":false,"fit":"refused","geur":null,"gfit":"refused"}},{"type":"Feature","geometry":{"type":"Point","coordinates":[-105.25291,44.24289]},"properties":{"api":"4900529553","name":"ORION W-99908 32-10","op":"CARDINAL WYOMING LLC","co":"Campbell","st":"WY","trs":"T49N R70W S10","fm":null,"eur":1311183,"perft":null,"sound":true,"fit":"sound","geur":null,"gfit":"none"}},{"type":"Feature","geometry":{"type":"Point","coordinates":[-105.31358,44.24503]},"properties":{"api":"4900548089","name":"TORO 3","op":"CARDINAL WYOMING LLC","co":"Campbell","st":"WY","trs":"T49N R70W S7","fm":"MINNELUSA B","eur":null,"perft":null,"sound":false,"fit":"refused","geur":null,"gfit":"none"}},{"type":"Feature","geometry":{"type":"Point","coordinates":[-105.22861,44.26119]},"properties":{"api":"4900521836","name":"THOLSON UNIT PATENT 3","op":"OSBORN HEIRS COMPANY LTD","co":"Campbell","st":"WY","trs":"T49N R70W S2","fm":null,"eur":341462,"perft":null,"sound":true,"fit":"sound","geur":null,"gfit":"refused"}},{"type":"Feature","geometry":{"type":"Point","coordinates":[-105.30328,44.2351]},"properties":{"api":"4900505450","name":"F E COOK PATENTED 1","op":"CARDINAL WYOMING LLC","co":"Campbell","st":"WY","trs":"T49N R70W S8","fm":"MINNELUSA \"B\"","eur":761640,"perft":null,"sound":true,"fit":"sound","geur":null,"gfit":"refused"}},{"type":"Feature","geometry":{"type":"Point","coordinates":[-105.30419,44.23867]},"properties":{"api":"4900505466","name":"F E COOK PATENTED 4","op":"CARDINAL WYOMING LLC","co":"Campbell","st":"WY","trs":"T49N R70W S8","fm":null,"eur":null,"perft":null,"sound":false,"fit":"refused","geur":null,"gfit":"refused"}},{"type":"Feature","geometry":{"type":"Point","coordinates":[-105.314,44.23892]},"properties":{"api":"4900507101","name":"V H WOLFF 1","op":"CARDINAL WYOMING LLC","co":"Campbell","st":"WY","trs":"T49N R70W S7","fm":null,"eur":null,"perft":null,"sound":false,"fit":"refused","geur":null,"gfit":"refused"}},{"type":"Feature","geometry":{"type":"Point","coordinates":[-105.24369,44.23917]},"properties":{"api":"4900528796","name":"NORTH STAR FEE 1-11","op":"CARDINAL WYOMING LLC","co":"Campbell","st":"WY","trs":"T49N R70W S11","fm":null,"eur":null,"perft":null,"sound":false,"fit":"refused","geur":null,"gfit":"none"}},{"type":"Feature","geometry":{"type":"Point","coordinates":[-105.2083,44.24224]},"properties":{"api":"4900530639","name":"W MORAN MINNELUSA UN 3-3","op":"NORTH STAR OPERATING COMPANY","co":"Campbell","st":"WY","trs":"T49N R70W S12","fm":null,"eur":null,"perft":null,"sound":false,"fit":"refused","geur":null,"gfit":"none"}},{"type":"Feature","geometry":{"type":"Point","coordinates":[-105.30911,44.24701]},"properties":{"api":"4900561234","name":"GENE GEORGE 1","op":"CARDINAL WYOMING LLC","co":"Campbell","st":"WY","trs":"T49N R70W S7","fm":null,"eur":null,"perft":null,"sound":false,"fit":"none","geur":null,"gfit":"none"}},{"type":"Feature","geometry":{"type":"Point","coordinates":[-105.23164,44.25517]},"properties":{"api":"4900526812","name":"THOLSON 6-A","op":"OSBORN HEIRS COMPANY LTD","co":"Campbell","st":"WY","trs":"T49N R70W S2","fm":null,"eur":47648,"perft":null,"sound":true,"fit":"sound","geur":null,"gfit":"refused"}},{"type":"Feature","geometry":{"type":"Point","coordinates":[-105.21178,44.23282]},"properties":{"api":"4900527663","name":"WMMU 5-2","op":"BARN OWLS LLC","co":"Campbell","st":"WY","trs":"T49N R70W S13","fm":null,"eur":96617,"perft":null,"sound":true,"fit":"sound","geur":null,"gfit":"refused"}},{"type":"Feature","geometry":{"type":"Point","coordinates":[-105.24413,44.2365]},"properties":{"api":"4900528935","name":"HORIZON FEE 2-11","op":"LARIO OIL & GAS COMPANY","co":"Campbell","st":"WY","trs":"T49N R70W S11","fm":null,"eur":null,"perft":null,"sound":false,"fit":"refused","geur":null,"gfit":"none"}},{"type":"Feature","geometry":{"type":"Point","coordinates":[-105.22886,44.25433]},"properties":{"api":"4900521749","name":"RIDENOUR PATENTED 1","op":"OSBORN HEIRS COMPANY LTD","co":"Campbell","st":"WY","trs":"T49N R70W S2","fm":null,"eur":645485,"perft":null,"sound":true,"fit":"sound","geur":null,"gfit":"refused"}},{"type":"Feature","geometry":{"type":"Point","coordinates":[-105.22307,44.258]},"properties":{"api":"4900522336","name":"THOLSON UNIT PATENT 2","op":"OSBORN HEIRS COMPANY LTD","co":"Campbell","st":"WY","trs":"T49N R70W S1","fm":null,"eur":null,"perft":null,"sound":false,"fit":"refused","geur":null,"gfit":"refused"}},{"type":"Feature","geometry":{"type":"Point","coordinates":[-105.22761,44.25796]},"properties":{"api":"4900524133","name":"THOLSON UNIT FEE 4","op":"BARN OWLS LLC","co":"Campbell","st":"WY","trs":"T49N R70W S2","fm":"MINNELUSA \"B\"","eur":152460,"perft":null,"sound":true,"fit":"sound","geur":null,"gfit":"refused"}},{"type":"Feature","geometry":{"type":"Point","coordinates":[-105.20717,44.23282]},"properties":{"api":"4900527662","name":"E MORAN A 7-1","op":"NORTH STAR OPERATING COMPANY","co":"Campbell","st":"WY","trs":"T49N R70W S13","fm":null,"eur":null,"perft":null,"sound":false,"fit":"refused","geur":null,"gfit":"refused"}},{"type":"Feature","geometry":{"type":"Point","coordinates":[-105.31851,44.23539]},"properties":{"api":"4900505453","name":"V H WOLFF 6","op":"SAMEDAN OIL CORPORATION","co":"Campbell","st":"WY","trs":"T49N R70W S7","fm":null,"eur":null,"perft":null,"sound":false,"fit":"none","geur":null,"gfit":"none"}},{"type":"Feature","geometry":{"type":"Point","coordinates":[-105.31816,44.23251]},"properties":{"api":"4900507102","name":"WOLFF V H 4","op":"SAMEDAN OIL CORPORATION","co":"Campbell","st":"WY","trs":"T49N R70W S18","fm":null,"eur":null,"perft":null,"sound":false,"fit":"none","geur":null,"gfit":"none"}},{"type":"Feature","geometry":{"type":"Point","coordinates":[-105.20826,44.2392]},"properties":{"api":"4900527921","name":"W MORAN MINNELUSA UN 3-2","op":"BARN OWLS LLC","co":"Campbell","st":"WY","trs":"T49N R70W S12","fm":null,"eur":null,"perft":null,"sound":false,"fit":"refused","geur":null,"gfit":"refused"}},{"type":"Feature","geometry":{"type":"Point","coordinates":[-105.23271,44.26121]},"properties":{"api":"4900525028","name":"THOLSON UNIT FEE 5","op":"OSBORN HEIRS COMPANY LTD","co":"Campbell","st":"WY","trs":"T49N R70W S2","fm":null,"eur":44193,"perft":null,"sound":true,"fit":"sound","geur":null,"gfit":"refused"}},{"type":"Feature","geometry":{"type":"Point","coordinates":[-105.23041,44.26121]},"properties":{"api":"4900526058","name":"THOLSON UNIT FEE 7","op":"OSBORN HEIRS COMPANY LTD","co":"Campbell","st":"WY","trs":"T49N R70W S2","fm":null,"eur":null,"perft":null,"sound":false,"fit":"refused","geur":null,"gfit":"refused"}},{"type":"Feature","geometry":{"type":"Point","coordinates":[-105.31391,44.23502]},"properties":{"api":"4900505447","name":"V H WOLFF 3","op":"CARDINAL WYOMING LLC","co":"Campbell","st":"WY","trs":"T49N R70W S7","fm":"MINNELUSA","eur":null,"perft":null,"sound":false,"fit":"refused","geur":null,"gfit":"refused"}},{"type":"Feature","geometry":{"type":"Point","coordinates":[-105.31942,44.23884]},"properties":{"api":"4900505467","name":"V H WOLFF 5","op":"CARDINAL WYOMING LLC","co":"Campbell","st":"WY","trs":"T49N R70W S7","fm":"MINNELUSA","eur":null,"perft":null,"sound":false,"fit":"refused","geur":null,"gfit":"refused"}},{"type":"Feature","geometry":{"type":"Point","coordinates":[-105.29908,44.23497]},"properties":{"api":"4900505448","name":"FEDERAL 311 1","op":"CARDINAL WYOMING LLC","co":"Campbell","st":"WY","trs":"T49N R70W S8","fm":"MINNELUSA","eur":null,"perft":null,"sound":false,"fit":"refused","geur":null,"gfit":"refused"}},{"type":"Feature","geometry":{"type":"Point","coordinates":[-105.20781,44.2363]},"properties":{"api":"4900527809","name":"W MORAN MINNELUSA UN 3-1","op":"NORTH STAR OPERATING COMPANY","co":"Campbell","st":"WY","trs":"T49N R70W S12","fm":null,"eur":null,"perft":null,"sound":false,"fit":"refused","geur":null,"gfit":"refused"}},{"type":"Feature","geometry":{"type":"Point","coordinates":[-105.31972,44.17696]},"properties":{"api":"4900529369","name":"SO TIMBER CREEK FEE 21-31","op":"NORTHERN PRODUCTION CO","co":"Campbell","st":"WY","trs":"T49N R70W S31","fm":null,"eur":22189,"perft":null,"sound":true,"fit":"sound","geur":null,"gfit":"refused"}},{"type":"Feature","geometry":{"type":"Point","coordinates":[-105.29891,44.23176]},"properties":{"api":"4900505433","name":"LESUEUR 2-S","op":"CARDINAL WYOMING LLC","co":"Campbell","st":"WY","trs":"T49N R70W S17","fm":"MINNELUSA","eur":null,"perft":null,"sound":false,"fit":"refused","geur":null,"gfit":"refused"}},{"type":"Feature","geometry":{"type":"Point","coordinates":[-105.31911,44.25351]},"properties":{"api":"4900528853","name":"TORO W-83418 23-6","op":"TRUE OIL LLC","co":"Campbell","st":"WY","trs":"T49N R70W S6","fm":null,"eur":null,"perft":null,"sound":false,"fit":"none","geur":null,"gfit":"none"}},{"type":"Feature","geometry":{"type":"Point","coordinates":[-105.24845,44.24292]},"properties":{"api":"4900529591","name":"PEGASUS W-113703 42-10","op":"CARDINAL WYOMING LLC","co":"Campbell","st":"WY","trs":"T49N R70W S10","fm":null,"eur":null,"perft":null,"sound":false,"fit":"none","geur":null,"gfit":"none"}},{"type":"Feature","geometry":{"type":"Point","coordinates":[-105.23857,44.23575]},"properties":{"api":"4900526898","name":"MORAN FEE 11-14","op":"GENERAL ATLANTIC RESOURCES INC","co":"Campbell","st":"WY","trs":"T49N R70W S11","fm":null,"eur":null,"perft":null,"sound":false,"fit":"refused","geur":null,"gfit":"none"}},{"type":"Feature","geometry":{"type":"Point","coordinates":[-105.25342,44.23951]},"properties":{"api":"4900529592","name":"CENTAURIAN W-112703 33-10","op":"CARDINAL WYOMING LLC","co":"Campbell","st":"WY","trs":"T49N R70W S10","fm":null,"eur":null,"perft":null,"sound":false,"fit":"none","geur":null,"gfit":"none"}},{"type":"Feature","geometry":{"type":"Point","coordinates":[-105.2084,44.17694]},"properties":{"api":"4900529120","name":"STATE 36 82-369 1","op":"GILMORE OIL & GAS","co":"Campbell","st":"WY","trs":"T49N R70W S36","fm":null,"eur":null,"perft":null,"sound":false,"fit":"none","geur":null,"gfit":"none"}},{"type":"Feature","geometry":{"type":"Point","coordinates":[-105.21198,44.24296]},"properties":{"api":"4900528010","name":"W MORAN PATENTED 1-1  2","op":"BARN OWLS LLC","co":"Campbell","st":"WY","trs":"T49N R70W S12","fm":null,"eur":null,"perft":null,"sound":false,"fit":"none","geur":null,"gfit":"none"}},{"type":"Feature","geometry":{"type":"Point","coordinates":[-105.22287,44.22492]},"properties":{"api":"4900505415","name":"49-70 MORAN PATENTED 13-13","op":"PRENALTA CORPORATION","co":"Campbell","st":"WY","trs":"T49N R70W S13","fm":null,"eur":null,"perft":null,"sound":false,"fit":"refused","geur":null,"gfit":"none"}},{"type":"Feature","geometry":{"type":"Point","coordinates":[-105.21263,44.23971]},"properties":{"api":"4900527562","name":"W MORAN MINNELUSA UN 4-1","op":"NORTH STAR OPERATING COMPANY","co":"Campbell","st":"WY","trs":"T49N R70W S12","fm":null,"eur":null,"perft":null,"sound":false,"fit":"refused","geur":null,"gfit":"refused"}},{"type":"Feature","geometry":{"type":"Point","coordinates":[-105.21185,44.22926]},"properties":{"api":"4900528218","name":"CZAPANSKIY A FEE 5-4","op":"NORTH STAR OPERATING COMPANY","co":"Campbell","st":"WY","trs":"T49N R70W S13","fm":null,"eur":null,"perft":null,"sound":false,"fit":"none","geur":null,"gfit":"none"}},{"type":"Feature","geometry":{"type":"Point","coordinates":[-105.30844,44.26141]},"properties":{"api":"4900525262","name":"NO TIMBER CREEK 1-6","op":"PINE HAVEN RESOURCES LLC","co":"Campbell","st":"WY","trs":"T49N R70W S6","fm":null,"eur":null,"perft":null,"sound":false,"fit":"refused","geur":null,"gfit":"none"}},{"type":"Feature","geometry":{"type":"Point","coordinates":[-105.30398,44.22809]},"properties":{"api":"4900505423","name":"LESUEUR 2","op":"TRUE OIL LLC","co":"Campbell","st":"WY","trs":"T49N R70W S17","fm":null,"eur":null,"perft":null,"sound":false,"fit":"refused","geur":null,"gfit":"refused"}},{"type":"Feature","geometry":{"type":"Point","coordinates":[-105.28377,44.22092]},"properties":{"api":"4900505437","name":"STATE TC16-1","op":"TRUE OIL LLC","co":"Campbell","st":"WY","trs":"T49N R70W S16","fm":null,"eur":null,"perft":null,"sound":false,"fit":"none","geur":null,"gfit":"none"}},{"type":"Feature","geometry":{"type":"Point","coordinates":[-105.24315,44.23193]},"properties":{"api":"4900523760","name":"FEDERAL 4-14","op":"PRENALTA CORPORATION","co":"Campbell","st":"WY","trs":"T49N R70W S14","fm":null,"eur":31459,"perft":null,"sound":true,"fit":"sound","geur":null,"gfit":"none"}},{"type":"Feature","geometry":{"type":"Point","coordinates":[-105.29407,44.23146]},"properties":{"api":"4900525438","name":"LESUEUR S W-012692A 31-17","op":"TRUE OIL LLC","co":"Campbell","st":"WY","trs":"T49N R70W S17","fm":null,"eur":null,"perft":null,"sound":false,"fit":"none","geur":null,"gfit":"none"}},{"type":"Feature","geometry":{"type":"Point","coordinates":[-105.31432,44.23171]},"properties":{"api":"4900505435","name":"LESUEUR W-012692 3","op":"CARDINAL WYOMING LLC","co":"Campbell","st":"WY","trs":"T49N R70W S18","fm":null,"eur":null,"perft":null,"sound":false,"fit":"none","geur":null,"gfit":"none"}}]}