{"type":"FeatureCollection","features":[{"type":"Feature","geometry":{"type":"Point","coordinates":[-106.31399,46.05264]},"properties":{"api":"2508705024","name":"Philbrick  1","op":"Gulf Oil Corporation","co":"Rosebud","st":"MT","trs":"T4N R44E S31","fm":null,"eur":null,"perft":null,"sound":false,"fit":"none","geur":null,"gfit":"none"}},{"type":"Feature","geometry":{"type":"Point","coordinates":[-106.25094,46.05268]},"properties":{"api":"2508705025","name":"ROY LUND 1","op":"Gulf Oil Corporation","co":"Rosebud","st":"MT","trs":"T4N R44E S34","fm":null,"eur":null,"perft":null,"sound":false,"fit":"none","geur":null,"gfit":"none"}},{"type":"Feature","geometry":{"type":"Point","coordinates":[-106.20482,46.05999]},"properties":{"api":"2508721074","name":"STATE 36-1B","op":"Hunt, Estate Of H L","co":"Rosebud","st":"MT","trs":"T4N R44E S36","fm":null,"eur":null,"perft":null,"sound":false,"fit":"none","geur":null,"gfit":"none"}}]}