{"type":"FeatureCollection","features":[{"type":"Feature","geometry":{"type":"Point","coordinates":[-105.24601,46.04757]},"properties":{"api":"2501705035","name":"FED MACLELLAN 1","op":"El Paso Natural Gas Company","co":"Custer","st":"MT","trs":"T4N R52E S34","fm":null,"eur":null,"perft":null,"sound":false,"fit":"none","geur":null,"gfit":"none"}},{"type":"Feature","geometry":{"type":"Point","coordinates":[-105.28768,46.09105]},"properties":{"api":"2501705040","name":"NPRR 2","op":"El Paso Natural Gas Company","co":"Custer","st":"MT","trs":"T4N R52E S17","fm":null,"eur":null,"perft":null,"sound":false,"fit":"none","geur":null,"gfit":"none"}},{"type":"Feature","geometry":{"type":"Point","coordinates":[-105.24674,46.05804]},"properties":{"api":"2501721006","name":"GOVT 11-34","op":"Sumatra Oil Et Al","co":"Custer","st":"MT","trs":"T4N R52E S34","fm":null,"eur":null,"perft":null,"sound":false,"fit":"none","geur":null,"gfit":"none"}}]}