{"type":"FeatureCollection","features":[{"type":"Feature","geometry":{"type":"Point","coordinates":[-106.06555,44.26901]},"properties":{"api":"4901921131","name":"WILLIAMS DU STATE 31-36-5077","op":"CARBON CREEK ENERGY LLC","co":"Johnson","st":"WY","trs":"T50N R77W S36","fm":null,"eur":null,"perft":null,"sound":false,"fit":"none","geur":null,"gfit":"refused"}},{"type":"Feature","geometry":{"type":"Point","coordinates":[-106.0594,44.25754]},"properties":{"api":"4901921139","name":"WILLIAMS DU STATE 44-36-5077","op":"CARBON CREEK ENERGY LLC","co":"Johnson","st":"WY","trs":"T50N R77W S36","fm":null,"eur":null,"perft":null,"sound":false,"fit":"none","geur":null,"gfit":"refused"}},{"type":"Feature","geometry":{"type":"Point","coordinates":[-106.16417,44.3425]},"properties":{"api":"4901921259","name":"KDU 41-06-5077","op":"CARBON CREEK ENERGY LLC","co":"Johnson","st":"WY","trs":"T50N R77W S6","fm":null,"eur":null,"perft":null,"sound":false,"fit":"none","geur":null,"gfit":"refused"}},{"type":"Feature","geometry":{"type":"Point","coordinates":[-106.15806,44.33806]},"properties":{"api":"4901921260","name":"KDU 12-5-5077","op":"CARBON CREEK ENERGY LLC","co":"Johnson","st":"WY","trs":"T50N R77W S5","fm":null,"eur":null,"perft":null,"sound":false,"fit":"none","geur":null,"gfit":"refused"}},{"type":"Feature","geometry":{"type":"Point","coordinates":[-106.15333,44.34167]},"properties":{"api":"4901921261","name":"KDU 21-5-5077","op":"CARBON CREEK ENERGY LLC","co":"Johnson","st":"WY","trs":"T50N R77W S5","fm":null,"eur":null,"perft":null,"sound":false,"fit":"none","geur":null,"gfit":"refused"}},{"type":"Feature","geometry":{"type":"Point","coordinates":[-106.13248,44.30219]},"properties":{"api":"4901921526","name":"POWDER R RANCH STATE 24-16-5077","op":"CARBON CREEK ENERGY LLC","co":"Johnson","st":"WY","trs":"T50N R77W S16","fm":null,"eur":null,"perft":null,"sound":false,"fit":"none","geur":null,"gfit":"refused"}},{"type":"Feature","geometry":{"type":"Point","coordinates":[-106.15333,44.27972]},"properties":{"api":"4901921647","name":"PVU 22-29-5077","op":"CARBON CREEK ENERGY LLC","co":"Johnson","st":"WY","trs":"T50N R77W S29","fm":null,"eur":null,"perft":null,"sound":false,"fit":"none","geur":null,"gfit":"refused"}},{"type":"Feature","geometry":{"type":"Point","coordinates":[-106.14806,44.27667]},"properties":{"api":"4901921649","name":"PVU 33-29-5077","op":"CARBON CREEK ENERGY LLC","co":"Johnson","st":"WY","trs":"T50N R77W S29","fm":null,"eur":null,"perft":null,"sound":false,"fit":"none","geur":2080062,"gfit":"sound"}},{"type":"Feature","geometry":{"type":"Point","coordinates":[-106.14278,44.28028]},"properties":{"api":"4901921650","name":"PVU 42-29-5077","op":"CARBON CREEK ENERGY LLC","co":"Johnson","st":"WY","trs":"T50N R77W S29","fm":null,"eur":null,"perft":null,"sound":false,"fit":"none","geur":811181,"gfit":"sound"}},{"type":"Feature","geometry":{"type":"Point","coordinates":[-106.14306,44.27306]},"properties":{"api":"4901921651","name":"PVU 44-29-5077","op":"CARBON CREEK ENERGY LLC","co":"Johnson","st":"WY","trs":"T50N R77W S29","fm":null,"eur":null,"perft":null,"sound":false,"fit":"none","geur":null,"gfit":"refused"}},{"type":"Feature","geometry":{"type":"Point","coordinates":[-106.13944,44.27583]},"properties":{"api":"4901921788","name":"PVU 13-28-5077","op":"CARBON CREEK ENERGY LLC","co":"Johnson","st":"WY","trs":"T50N R77W S28","fm":null,"eur":null,"perft":null,"sound":false,"fit":"none","geur":1769969,"gfit":"sound"}},{"type":"Feature","geometry":{"type":"Point","coordinates":[-106.1725,44.34167]},"properties":{"api":"4901921880","name":"KDU 21-6-5077","op":"CARBON CREEK ENERGY LLC","co":"Johnson","st":"WY","trs":"T50N R77W S6","fm":null,"eur":null,"perft":null,"sound":false,"fit":"none","geur":null,"gfit":"refused"}},{"type":"Feature","geometry":{"type":"Point","coordinates":[-106.1625,44.33472]},"properties":{"api":"4901922609","name":"KDU 43-6-5077","op":"CARBON CREEK ENERGY LLC","co":"Johnson","st":"WY","trs":"T50N R77W S6","fm":null,"eur":null,"perft":null,"sound":false,"fit":"none","geur":null,"gfit":"refused"}},{"type":"Feature","geometry":{"type":"Point","coordinates":[-106.1677,44.33139]},"properties":{"api":"4901922610","name":"KDU 34-6-5077","op":"CARBON CREEK ENERGY LLC","co":"Johnson","st":"WY","trs":"T50N R77W S6","fm":null,"eur":null,"perft":null,"sound":false,"fit":"none","geur":null,"gfit":"refused"}},{"type":"Feature","geometry":{"type":"Point","coordinates":[-106.17243,44.33571]},"properties":{"api":"4901922611","name":"KDU 23-6-5077","op":"CARBON CREEK ENERGY LLC","co":"Johnson","st":"WY","trs":"T50N R77W S6","fm":null,"eur":null,"perft":null,"sound":false,"fit":"none","geur":null,"gfit":"refused"}},{"type":"Feature","geometry":{"type":"Point","coordinates":[-106.1775,44.33083]},"properties":{"api":"4901922612","name":"KDU 14-6-5077","op":"CARBON CREEK ENERGY LLC","co":"Johnson","st":"WY","trs":"T50N R77W S6","fm":null,"eur":null,"perft":null,"sound":false,"fit":"none","geur":null,"gfit":"refused"}},{"type":"Feature","geometry":{"type":"Point","coordinates":[-106.14806,44.33056]},"properties":{"api":"4901922613","name":"KDU 34-5-5077","op":"CARBON CREEK ENERGY LLC","co":"Johnson","st":"WY","trs":"T50N R77W S5","fm":null,"eur":null,"perft":null,"sound":false,"fit":"none","geur":null,"gfit":"refused"}},{"type":"Feature","geometry":{"type":"Point","coordinates":[-106.15266,44.33443]},"properties":{"api":"4901922614","name":"KDU 23-5-5077","op":"CARBON CREEK ENERGY LLC","co":"Johnson","st":"WY","trs":"T50N R77W S5","fm":null,"eur":null,"perft":null,"sound":false,"fit":"none","geur":null,"gfit":"refused"}},{"type":"Feature","geometry":{"type":"Point","coordinates":[-106.16917,44.32222]},"properties":{"api":"4901922841","name":"PVU 32-7-5077","op":"CARBON CREEK ENERGY LLC","co":"Johnson","st":"WY","trs":"T50N R77W S7","fm":null,"eur":null,"perft":null,"sound":false,"fit":"none","geur":null,"gfit":"refused"}},{"type":"Feature","geometry":{"type":"Point","coordinates":[-106.16361,44.32778]},"properties":{"api":"4901922842","name":"PVU 41-7-5077","op":"CARBON CREEK ENERGY LLC","co":"Johnson","st":"WY","trs":"T50N R77W S7","fm":null,"eur":null,"perft":null,"sound":false,"fit":"none","geur":1085837,"gfit":"sound"}},{"type":"Feature","geometry":{"type":"Point","coordinates":[-106.12306,44.28722]},"properties":{"api":"4901922844","name":"PVU 44-21-5077","op":"CARBON CREEK ENERGY LLC","co":"Johnson","st":"WY","trs":"T50N R77W S21","fm":null,"eur":null,"perft":null,"sound":false,"fit":"none","geur":null,"gfit":"refused"}},{"type":"Feature","geometry":{"type":"Point","coordinates":[-106.12726,44.28351]},"properties":{"api":"4901922847","name":"PVU 31-28-5077","op":"CARBON CREEK ENERGY LLC","co":"Johnson","st":"WY","trs":"T50N R77W S28","fm":null,"eur":null,"perft":null,"sound":false,"fit":"none","geur":null,"gfit":"refused"}},{"type":"Feature","geometry":{"type":"Point","coordinates":[-106.12389,44.28222]},"properties":{"api":"4901922848","name":"PVU 42-28-5077","op":"CARBON CREEK ENERGY LLC","co":"Johnson","st":"WY","trs":"T50N R77W S28","fm":null,"eur":null,"perft":null,"sound":false,"fit":"none","geur":1950561,"gfit":"sound"}},{"type":"Feature","geometry":{"type":"Point","coordinates":[-106.15278,44.25833]},"properties":{"api":"4901922849","name":"PVU 24-32-5077","op":"CARBON CREEK ENERGY LLC","co":"Johnson","st":"WY","trs":"T50N R77W S32","fm":null,"eur":null,"perft":null,"sound":false,"fit":"none","geur":null,"gfit":"refused"}},{"type":"Feature","geometry":{"type":"Point","coordinates":[-106.14778,44.26167]},"properties":{"api":"4901922850","name":"PVU 33-32-5077","op":"CARBON CREEK ENERGY LLC","co":"Johnson","st":"WY","trs":"T50N R77W S32","fm":null,"eur":null,"perft":null,"sound":false,"fit":"none","geur":null,"gfit":"refused"}},{"type":"Feature","geometry":{"type":"Point","coordinates":[-106.16806,44.33833]},"properties":{"api":"4901922999","name":"KDU FED 32-6-5077","op":"CARBON CREEK ENERGY LLC","co":"Johnson","st":"WY","trs":"T50N R77W S6","fm":null,"eur":null,"perft":null,"sound":false,"fit":"none","geur":null,"gfit":"refused"}},{"type":"Feature","geometry":{"type":"Point","coordinates":[-106.14722,44.33806]},"properties":{"api":"4901923001","name":"KDU FED 32-5-5077","op":"CARBON CREEK ENERGY LLC","co":"Johnson","st":"WY","trs":"T50N R77W S5","fm":null,"eur":null,"perft":null,"sound":false,"fit":"none","geur":null,"gfit":"refused"}},{"type":"Feature","geometry":{"type":"Point","coordinates":[-106.1577,44.33083]},"properties":{"api":"4901923002","name":"KDU FED 14-5-5077","op":"CARBON CREEK ENERGY LLC","co":"Johnson","st":"WY","trs":"T50N R77W S5","fm":null,"eur":null,"perft":null,"sound":false,"fit":"none","geur":null,"gfit":"refused"}},{"type":"Feature","geometry":{"type":"Point","coordinates":[-106.13722,44.28417]},"properties":{"api":"4901923012","name":"PVU FED 11-28-5077","op":"CARBON CREEK ENERGY LLC","co":"Johnson","st":"WY","trs":"T50N R77W S28","fm":null,"eur":null,"perft":null,"sound":false,"fit":"none","geur":434109,"gfit":"sound"}},{"type":"Feature","geometry":{"type":"Point","coordinates":[-106.15783,44.28417]},"properties":{"api":"4901923013","name":"PVU FED 11-29-5077","op":"CARBON CREEK ENERGY LLC","co":"Johnson","st":"WY","trs":"T50N R77W S29","fm":null,"eur":null,"perft":null,"sound":false,"fit":"none","geur":1820499,"gfit":"sound"}},{"type":"Feature","geometry":{"type":"Point","coordinates":[-106.1575,44.27667]},"properties":{"api":"4901923014","name":"PVU FED 13-29-5077","op":"CARBON CREEK ENERGY LLC","co":"Johnson","st":"WY","trs":"T50N R77W S29","fm":null,"eur":null,"perft":null,"sound":false,"fit":"none","geur":2743415,"gfit":"sound"}},{"type":"Feature","geometry":{"type":"Point","coordinates":[-106.14778,44.28417]},"properties":{"api":"4901923015","name":"PVU FED 31-29-5077","op":"CARBON CREEK ENERGY LLC","co":"Johnson","st":"WY","trs":"T50N R77W S29","fm":null,"eur":null,"perft":null,"sound":false,"fit":"none","geur":1396007,"gfit":"sound"}},{"type":"Feature","geometry":{"type":"Point","coordinates":[-106.1775,44.28472]},"properties":{"api":"4901923016","name":"PVU FED 11-30-5077","op":"CARBON CREEK ENERGY LLC","co":"Johnson","st":"WY","trs":"T50N R77W S30","fm":null,"eur":null,"perft":null,"sound":false,"fit":"none","geur":null,"gfit":"refused"}},{"type":"Feature","geometry":{"type":"Point","coordinates":[-106.17583,44.27611]},"properties":{"api":"4901923017","name":"PVU FED 13-30-5077","op":"CARBON CREEK ENERGY LLC","co":"Johnson","st":"WY","trs":"T50N R77W S30","fm":null,"eur":null,"perft":null,"sound":false,"fit":"none","geur":null,"gfit":"refused"}},{"type":"Feature","geometry":{"type":"Point","coordinates":[-106.17361,44.28194]},"properties":{"api":"4901923018","name":"PVU FED 22-30-5077","op":"CARBON CREEK ENERGY LLC","co":"Johnson","st":"WY","trs":"T50N R77W S30","fm":null,"eur":null,"perft":null,"sound":false,"fit":"none","geur":null,"gfit":"refused"}},{"type":"Feature","geometry":{"type":"Point","coordinates":[-106.16778,44.28389]},"properties":{"api":"4901923020","name":"PVU FED 31-30-5077","op":"CARBON CREEK ENERGY LLC","co":"Johnson","st":"WY","trs":"T50N R77W S30","fm":null,"eur":null,"perft":null,"sound":false,"fit":"none","geur":null,"gfit":"refused"}},{"type":"Feature","geometry":{"type":"Point","coordinates":[-106.16806,44.27694]},"properties":{"api":"4901923021","name":"PVU FED 33-30-5077","op":"CARBON CREEK ENERGY LLC","co":"Johnson","st":"WY","trs":"T50N R77W S30","fm":null,"eur":null,"perft":null,"sound":false,"fit":"none","geur":null,"gfit":"refused"}},{"type":"Feature","geometry":{"type":"Point","coordinates":[-106.16306,44.28111]},"properties":{"api":"4901923022","name":"PVU FED 42-30-5077","op":"CARBON CREEK ENERGY LLC","co":"Johnson","st":"WY","trs":"T50N R77W S30","fm":null,"eur":null,"perft":null,"sound":false,"fit":"none","geur":null,"gfit":"refused"}},{"type":"Feature","geometry":{"type":"Point","coordinates":[-106.17667,44.26944]},"properties":{"api":"4901923024","name":"PVU FED 11-31-5077","op":"CARBON CREEK ENERGY LLC","co":"Johnson","st":"WY","trs":"T50N R77W S31","fm":null,"eur":null,"perft":null,"sound":false,"fit":"none","geur":null,"gfit":"refused"}},{"type":"Feature","geometry":{"type":"Point","coordinates":[-106.15624,44.27073]},"properties":{"api":"4901923025","name":"PVU FED 11-32-5077","op":"CARBON CREEK ENERGY LLC","co":"Johnson","st":"WY","trs":"T50N R77W S32","fm":null,"eur":null,"perft":null,"sound":false,"fit":"none","geur":null,"gfit":"none"}},{"type":"Feature","geometry":{"type":"Point","coordinates":[-106.15778,44.26306]},"properties":{"api":"4901923026","name":"PVU FED 13-32-5077","op":"CARBON CREEK ENERGY LLC","co":"Johnson","st":"WY","trs":"T50N R77W S32","fm":null,"eur":null,"perft":null,"sound":false,"fit":"none","geur":null,"gfit":"refused"}},{"type":"Feature","geometry":{"type":"Point","coordinates":[-106.15222,44.26611]},"properties":{"api":"4901923027","name":"PVU FED 22-32-5077","op":"CARBON CREEK ENERGY LLC","co":"Johnson","st":"WY","trs":"T50N R77W S32","fm":null,"eur":null,"perft":null,"sound":false,"fit":"none","geur":null,"gfit":"refused"}},{"type":"Feature","geometry":{"type":"Point","coordinates":[-106.14141,44.32462]},"properties":{"api":"4901923391","name":"PVU 42-8-5077BG","op":"CARBON CREEK ENERGY LLC","co":"Johnson","st":"WY","trs":"T50N R77W S8","fm":null,"eur":null,"perft":null,"sound":false,"fit":"none","geur":null,"gfit":"refused"}},{"type":"Feature","geometry":{"type":"Point","coordinates":[-106.15075,44.31483]},"properties":{"api":"4901923431","name":"PVU 24-8-5077","op":"CARBON CREEK ENERGY LLC","co":"Johnson","st":"WY","trs":"T50N R77W S8","fm":null,"eur":null,"perft":null,"sound":false,"fit":"none","geur":null,"gfit":"refused"}},{"type":"Feature","geometry":{"type":"Point","coordinates":[-106.14683,44.3284]},"properties":{"api":"4901923432","name":"PVU 31-8-5077","op":"CARBON CREEK ENERGY LLC","co":"Johnson","st":"WY","trs":"T50N R77W S8","fm":null,"eur":null,"perft":null,"sound":false,"fit":"none","geur":null,"gfit":"refused"}},{"type":"Feature","geometry":{"type":"Point","coordinates":[-106.14435,44.31531]},"properties":{"api":"4901923433","name":"POWDER VALLEY (CBM) 44-8-5077BG","op":"CARBON CREEK ENERGY LLC","co":"Johnson","st":"WY","trs":"T50N R77W S8","fm":null,"eur":null,"perft":null,"sound":false,"fit":"none","geur":400011,"gfit":"sound"}},{"type":"Feature","geometry":{"type":"Point","coordinates":[-106.1349,44.30923]},"properties":{"api":"4901923434","name":"PVU STATE 22-16-5077GA","op":"CARBON CREEK ENERGY LLC","co":"Johnson","st":"WY","trs":"T50N R77W S16","fm":null,"eur":null,"perft":null,"sound":false,"fit":"none","geur":null,"gfit":"none"}},{"type":"Feature","geometry":{"type":"Point","coordinates":[-106.12687,44.31165]},"properties":{"api":"4901923435","name":"PVU STATE 31-16-5077","op":"CARBON CREEK ENERGY LLC","co":"Johnson","st":"WY","trs":"T50N R77W S16","fm":null,"eur":null,"perft":null,"sound":false,"fit":"none","geur":null,"gfit":"refused"}},{"type":"Feature","geometry":{"type":"Point","coordinates":[-106.12442,44.30222]},"properties":{"api":"4901923437","name":"PVU STATE 44-16-5077","op":"CARBON CREEK ENERGY LLC","co":"Johnson","st":"WY","trs":"T50N R77W S16","fm":null,"eur":null,"perft":null,"sound":false,"fit":"none","geur":null,"gfit":"refused"}},{"type":"Feature","geometry":{"type":"Point","coordinates":[-106.15045,44.30792]},"properties":{"api":"4901923438","name":"PVU 22-17-5077","op":"CARBON CREEK ENERGY LLC","co":"Johnson","st":"WY","trs":"T50N R77W S17","fm":null,"eur":null,"perft":null,"sound":false,"fit":"none","geur":null,"gfit":"refused"}},{"type":"Feature","geometry":{"type":"Point","coordinates":[-106.15022,44.31279]},"properties":{"api":"4901923439","name":"PVU 31-17-5077BG","op":"CARBON CREEK ENERGY LLC","co":"Johnson","st":"WY","trs":"T50N R77W S17","fm":null,"eur":null,"perft":null,"sound":false,"fit":"none","geur":null,"gfit":"refused"}},{"type":"Feature","geometry":{"type":"Point","coordinates":[-106.1375,44.32028]},"properties":{"api":"4901923440","name":"PVU 13-9-5077","op":"CARBON CREEK ENERGY LLC","co":"Johnson","st":"WY","trs":"T50N R77W S9","fm":null,"eur":null,"perft":null,"sound":false,"fit":"none","geur":null,"gfit":"refused"}},{"type":"Feature","geometry":{"type":"Point","coordinates":[-106.13444,44.32528]},"properties":{"api":"4901923441","name":"PVU 22-9-5077","op":"CARBON CREEK ENERGY LLC","co":"Johnson","st":"WY","trs":"T50N R77W S9","fm":null,"eur":null,"perft":null,"sound":false,"fit":"none","geur":null,"gfit":"refused"}},{"type":"Feature","geometry":{"type":"Point","coordinates":[-106.13389,44.31528]},"properties":{"api":"4901923442","name":"PVU 24-9-5077","op":"CARBON CREEK ENERGY LLC","co":"Johnson","st":"WY","trs":"T50N R77W S9","fm":null,"eur":null,"perft":null,"sound":false,"fit":"none","geur":null,"gfit":"refused"}},{"type":"Feature","geometry":{"type":"Point","coordinates":[-106.12778,44.32806]},"properties":{"api":"4901923443","name":"PVU 31-9-5077","op":"CARBON CREEK ENERGY LLC","co":"Johnson","st":"WY","trs":"T50N R77W S9","fm":null,"eur":null,"perft":null,"sound":false,"fit":"none","geur":null,"gfit":"refused"}},{"type":"Feature","geometry":{"type":"Point","coordinates":[-106.12306,44.32309]},"properties":{"api":"4901923444","name":"PVU 42-9-5077","op":"CARBON CREEK ENERGY LLC","co":"Johnson","st":"WY","trs":"T50N R77W S9","fm":null,"eur":null,"perft":null,"sound":false,"fit":"none","geur":null,"gfit":"refused"}},{"type":"Feature","geometry":{"type":"Point","coordinates":[-106.15111,44.30194]},"properties":{"api":"4901923445","name":"PVU 24-17-5077","op":"CARBON CREEK ENERGY LLC","co":"Johnson","st":"WY","trs":"T50N R77W S17","fm":null,"eur":null,"perft":null,"sound":false,"fit":"none","geur":null,"gfit":"refused"}},{"type":"Feature","geometry":{"type":"Point","coordinates":[-106.14833,44.30528]},"properties":{"api":"4901923447","name":"PVU 33-17-5077","op":"CARBON CREEK ENERGY LLC","co":"Johnson","st":"WY","trs":"T50N R77W S17","fm":null,"eur":null,"perft":null,"sound":false,"fit":"none","geur":null,"gfit":"refused"}},{"type":"Feature","geometry":{"type":"Point","coordinates":[-106.13611,44.30639]},"properties":{"api":"4901923448","name":"PVU STATE 13-16-5077","op":"CARBON CREEK ENERGY LLC","co":"Johnson","st":"WY","trs":"T50N R77W S16","fm":null,"eur":null,"perft":null,"sound":false,"fit":"none","geur":null,"gfit":"refused"}},{"type":"Feature","geometry":{"type":"Point","coordinates":[-106.14528,44.30306]},"properties":{"api":"4901923449","name":"PVU 44-17-5077","op":"CARBON CREEK ENERGY LLC","co":"Johnson","st":"WY","trs":"T50N R77W S17","fm":null,"eur":null,"perft":null,"sound":false,"fit":"none","geur":null,"gfit":"refused"}},{"type":"Feature","geometry":{"type":"Point","coordinates":[-106.12389,44.30778]},"properties":{"api":"4901923450","name":"PVU STATE 42-16-5077","op":"CARBON CREEK ENERGY LLC","co":"Johnson","st":"WY","trs":"T50N R77W S16","fm":null,"eur":null,"perft":null,"sound":false,"fit":"none","geur":null,"gfit":"none"}},{"type":"Feature","geometry":{"type":"Point","coordinates":[-106.14944,44.32076]},"properties":{"api":"4901923931","name":"PVU FED 33-8-5077WR","op":"CARBON CREEK ENERGY LLC","co":"Johnson","st":"WY","trs":"T50N R77W S8","fm":null,"eur":null,"perft":null,"sound":false,"fit":"none","geur":null,"gfit":"refused"}},{"type":"Feature","geometry":{"type":"Point","coordinates":[-106.17635,44.34154]},"properties":{"api":"4901924169","name":"KDU FED 11-6-5077BG","op":"CARBON CREEK ENERGY LLC","co":"Johnson","st":"WY","trs":"T50N R77W S6","fm":null,"eur":null,"perft":null,"sound":false,"fit":"none","geur":null,"gfit":"refused"}},{"type":"Feature","geometry":{"type":"Point","coordinates":[-106.12805,44.27628]},"properties":{"api":"4901924172","name":"PVU 33-28-5077WR","op":"CARBON CREEK ENERGY LLC","co":"Johnson","st":"WY","trs":"T50N R77W S28","fm":null,"eur":null,"perft":null,"sound":false,"fit":"none","geur":629842,"gfit":"sound"}},{"type":"Feature","geometry":{"type":"Point","coordinates":[-106.14097,44.26694]},"properties":{"api":"4901924174","name":"PVU 42-32-5077","op":"CARBON CREEK ENERGY LLC","co":"Johnson","st":"WY","trs":"T50N R77W S32","fm":null,"eur":null,"perft":null,"sound":false,"fit":"none","geur":null,"gfit":"refused"}},{"type":"Feature","geometry":{"type":"Point","coordinates":[-106.14096,44.25792]},"properties":{"api":"4901924175","name":"PVU FED 44-32-5077WR","op":"CARBON CREEK ENERGY LLC","co":"Johnson","st":"WY","trs":"T50N R77W S32","fm":null,"eur":null,"perft":null,"sound":false,"fit":"none","geur":1048401,"gfit":"sound"}},{"type":"Feature","geometry":{"type":"Point","coordinates":[-106.12325,44.31644]},"properties":{"api":"4901924250","name":"PVU FED 44-9-5077WR","op":"CARBON CREEK ENERGY LLC","co":"Johnson","st":"WY","trs":"T50N R77W S9","fm":null,"eur":null,"perft":null,"sound":false,"fit":"none","geur":null,"gfit":"refused"}},{"type":"Feature","geometry":{"type":"Point","coordinates":[-106.12563,44.32057]},"properties":{"api":"4901924251","name":"PVU FED 33-9-5077WR","op":"CARBON CREEK ENERGY LLC","co":"Johnson","st":"WY","trs":"T50N R77W S9","fm":null,"eur":null,"perft":null,"sound":false,"fit":"none","geur":null,"gfit":"refused"}},{"type":"Feature","geometry":{"type":"Point","coordinates":[-106.13447,44.32799]},"properties":{"api":"4901924252","name":"PVU FED 11-9-5077WR","op":"CARBON CREEK ENERGY LLC","co":"Johnson","st":"WY","trs":"T50N R77W S9","fm":null,"eur":null,"perft":null,"sound":false,"fit":"none","geur":null,"gfit":"refused"}},{"type":"Feature","geometry":{"type":"Point","coordinates":[-106.12334,44.29357]},"properties":{"api":"4901924254","name":"PVU FED 42-21-5077WR","op":"CARBON CREEK ENERGY LLC","co":"Johnson","st":"WY","trs":"T50N R77W S21","fm":null,"eur":null,"perft":null,"sound":false,"fit":"none","geur":null,"gfit":"refused"}},{"type":"Feature","geometry":{"type":"Point","coordinates":[-106.12629,44.29864]},"properties":{"api":"4901924255","name":"PVU FED 31-21-5077WR","op":"CARBON CREEK ENERGY LLC","co":"Johnson","st":"WY","trs":"T50N R77W S21","fm":null,"eur":null,"perft":null,"sound":false,"fit":"none","geur":null,"gfit":"none"}},{"type":"Feature","geometry":{"type":"Point","coordinates":[-106.1627,44.32096]},"properties":{"api":"4901924257","name":"PVU FED 43-7-5077WR","op":"CARBON CREEK ENERGY LLC","co":"Johnson","st":"WY","trs":"T50N R77W S7","fm":null,"eur":null,"perft":null,"sound":false,"fit":"none","geur":350890,"gfit":"sound"}},{"type":"Feature","geometry":{"type":"Point","coordinates":[-106.16834,44.31708]},"properties":{"api":"4901924258","name":"PVU FED 34-7-5077WR","op":"CARBON CREEK ENERGY LLC","co":"Johnson","st":"WY","trs":"T50N R77W S7","fm":null,"eur":null,"perft":null,"sound":false,"fit":"none","geur":null,"gfit":"refused"}},{"type":"Feature","geometry":{"type":"Point","coordinates":[-106.17325,44.32023]},"properties":{"api":"4901924259","name":"PVU FED 23-7-5077WR","op":"CARBON CREEK ENERGY LLC","co":"Johnson","st":"WY","trs":"T50N R77W S7","fm":null,"eur":null,"perft":null,"sound":false,"fit":"none","geur":null,"gfit":"refused"}},{"type":"Feature","geometry":{"type":"Point","coordinates":[-106.14381,44.28785]},"properties":{"api":"4901924260","name":"PVU FED 44-20-5077WR","op":"CARBON CREEK ENERGY LLC","co":"Johnson","st":"WY","trs":"T50N R77W S20","fm":null,"eur":null,"perft":null,"sound":false,"fit":"none","geur":1649716,"gfit":"sound"}},{"type":"Feature","geometry":{"type":"Point","coordinates":[-106.15303,44.28758]},"properties":{"api":"4901924262","name":"PVU FED 24-20-5077WR","op":"CARBON CREEK ENERGY LLC","co":"Johnson","st":"WY","trs":"T50N R77W S20","fm":null,"eur":null,"perft":null,"sound":false,"fit":"none","geur":null,"gfit":"refused"}},{"type":"Feature","geometry":{"type":"Point","coordinates":[-106.13672,44.2896]},"properties":{"api":"4901924263","name":"PVU FED 13-21-5077WR","op":"CARBON CREEK ENERGY LLC","co":"Johnson","st":"WY","trs":"T50N R77W S21","fm":null,"eur":null,"perft":null,"sound":false,"fit":"none","geur":null,"gfit":"refused"}},{"type":"Feature","geometry":{"type":"Point","coordinates":[-106.15309,44.29339]},"properties":{"api":"4901924264","name":"PVU FED 22-20-5077WR","op":"CARBON CREEK ENERGY LLC","co":"Johnson","st":"WY","trs":"T50N R77W S20","fm":null,"eur":null,"perft":null,"sound":false,"fit":"none","geur":null,"gfit":"refused"}},{"type":"Feature","geometry":{"type":"Point","coordinates":[-106.15777,44.29141]},"properties":{"api":"4901924265","name":"PVU FED 13-20-5077WR","op":"CARBON CREEK ENERGY LLC","co":"Johnson","st":"WY","trs":"T50N R77W S20","fm":null,"eur":null,"perft":null,"sound":false,"fit":"none","geur":null,"gfit":"refused"}},{"type":"Feature","geometry":{"type":"Point","coordinates":[-106.15736,44.29794]},"properties":{"api":"4901924266","name":"PVU FED 11-20-5077WR","op":"CARBON CREEK ENERGY LLC","co":"Johnson","st":"WY","trs":"T50N R77W S20","fm":null,"eur":null,"perft":null,"sound":false,"fit":"none","geur":null,"gfit":"refused"}},{"type":"Feature","geometry":{"type":"Point","coordinates":[-106.15306,44.32333]},"properties":{"api":"4901924267","name":"PVU FED 22-8-5077WR","op":"CARBON CREEK ENERGY LLC","co":"Johnson","st":"WY","trs":"T50N R77W S8","fm":null,"eur":null,"perft":null,"sound":false,"fit":"none","geur":null,"gfit":"refused"}},{"type":"Feature","geometry":{"type":"Point","coordinates":[-106.15667,44.32103]},"properties":{"api":"4901924268","name":"PVU FED 13-8-5077WR","op":"CARBON CREEK ENERGY LLC","co":"Johnson","st":"WY","trs":"T50N R77W S8","fm":null,"eur":null,"perft":null,"sound":false,"fit":"none","geur":null,"gfit":"refused"}},{"type":"Feature","geometry":{"type":"Point","coordinates":[-106.15861,44.32833]},"properties":{"api":"4901924269","name":"PVU FED 11-8-5077WR","op":"CARBON CREEK ENERGY LLC","co":"Johnson","st":"WY","trs":"T50N R77W S8","fm":null,"eur":null,"perft":null,"sound":false,"fit":"none","geur":1410275,"gfit":"sound"}},{"type":"Feature","geometry":{"type":"Point","coordinates":[-106.15737,44.31335]},"properties":{"api":"4901924270","name":"PVU FED 11-17-5077WR","op":"CARBON CREEK ENERGY LLC","co":"Johnson","st":"WY","trs":"T50N R77W S17","fm":null,"eur":null,"perft":null,"sound":false,"fit":"none","geur":null,"gfit":"refused"}},{"type":"Feature","geometry":{"type":"Point","coordinates":[-106.15802,44.3083]},"properties":{"api":"4901924271","name":"PVU FED 13-17-5077WR","op":"CARBON CREEK ENERGY LLC","co":"Johnson","st":"WY","trs":"T50N R77W S17","fm":null,"eur":null,"perft":null,"sound":false,"fit":"none","geur":null,"gfit":"refused"}},{"type":"Feature","geometry":{"type":"Point","coordinates":[-106.16193,44.2575]},"properties":{"api":"4901924770","name":"PVU FED 44-31-5077BG","op":"CARBON CREEK ENERGY LLC","co":"Johnson","st":"WY","trs":"T50N R77W S31","fm":null,"eur":null,"perft":null,"sound":false,"fit":"none","geur":1228488,"gfit":"sound"}},{"type":"Feature","geometry":{"type":"Point","coordinates":[-106.16333,44.26556]},"properties":{"api":"4901924772","name":"PVU FED 42-31-5077BG","op":"CARBON CREEK ENERGY LLC","co":"Johnson","st":"WY","trs":"T50N R77W S31","fm":null,"eur":null,"perft":null,"sound":false,"fit":"none","geur":1680447,"gfit":"sound"}},{"type":"Feature","geometry":{"type":"Point","coordinates":[-106.16783,44.2613]},"properties":{"api":"4901924775","name":"PVU FED 33-31-5077WR","op":"CARBON CREEK ENERGY LLC","co":"Johnson","st":"WY","trs":"T50N R77W S31","fm":null,"eur":null,"perft":null,"sound":false,"fit":"none","geur":1445394,"gfit":"sound"}},{"type":"Feature","geometry":{"type":"Point","coordinates":[-106.16732,44.27032]},"properties":{"api":"4901924777","name":"PVU FED 31-31-5077BG","op":"CARBON CREEK ENERGY LLC","co":"Johnson","st":"WY","trs":"T50N R77W S31","fm":null,"eur":null,"perft":null,"sound":false,"fit":"none","geur":null,"gfit":"refused"}},{"type":"Feature","geometry":{"type":"Point","coordinates":[-106.13324,44.25825]},"properties":{"api":"4901924779","name":"PVU FED 24-33-5077WR","op":"CARBON CREEK ENERGY LLC","co":"Johnson","st":"WY","trs":"T50N R77W S33","fm":null,"eur":null,"perft":null,"sound":false,"fit":"none","geur":2741597,"gfit":"sound"}},{"type":"Feature","geometry":{"type":"Point","coordinates":[-106.17159,44.25858]},"properties":{"api":"4901924780","name":"PVU FED 24-31-5077BG","op":"CARBON CREEK ENERGY LLC","co":"Johnson","st":"WY","trs":"T50N R77W S31","fm":null,"eur":null,"perft":null,"sound":false,"fit":"none","geur":2355658,"gfit":"sound"}},{"type":"Feature","geometry":{"type":"Point","coordinates":[-106.17158,44.26728]},"properties":{"api":"4901924782","name":"PVU FED 22-31-5077BG","op":"CARBON CREEK ENERGY LLC","co":"Johnson","st":"WY","trs":"T50N R77W S31","fm":null,"eur":null,"perft":null,"sound":false,"fit":"none","geur":null,"gfit":"refused"}},{"type":"Feature","geometry":{"type":"Point","coordinates":[-106.17638,44.26208]},"properties":{"api":"4901924784","name":"PVU FED 13-31-5077WR","op":"CARBON CREEK ENERGY LLC","co":"Johnson","st":"WY","trs":"T50N R77W S31","fm":null,"eur":null,"perft":null,"sound":false,"fit":"none","geur":null,"gfit":"refused"}},{"type":"Feature","geometry":{"type":"Point","coordinates":[-106.11818,44.32538]},"properties":{"api":"4901924799","name":"WILLIAMS DU 12-10-5077BG","op":"CARBON CREEK ENERGY LLC","co":"Johnson","st":"WY","trs":"T50N R77W S10","fm":null,"eur":null,"perft":null,"sound":false,"fit":"none","geur":null,"gfit":"refused"}},{"type":"Feature","geometry":{"type":"Point","coordinates":[-106.11415,44.32607]},"properties":{"api":"4901924800","name":"WILLIAMS DU 21-10-5077BG","op":"CARBON CREEK ENERGY LLC","co":"Johnson","st":"WY","trs":"T50N R77W S10","fm":null,"eur":null,"perft":null,"sound":false,"fit":"none","geur":null,"gfit":"refused"}},{"type":"Feature","geometry":{"type":"Point","coordinates":[-106.10873,44.32388]},"properties":{"api":"4901924801","name":"WILLIAMS DU 32-10-5077BG","op":"CARBON CREEK ENERGY LLC","co":"Johnson","st":"WY","trs":"T50N R77W S10","fm":null,"eur":null,"perft":null,"sound":false,"fit":"none","geur":null,"gfit":"refused"}},{"type":"Feature","geometry":{"type":"Point","coordinates":[-106.10419,44.3195]},"properties":{"api":"4901924802","name":"WILLIAMS DU 43-10-5077BG","op":"CARBON CREEK ENERGY LLC","co":"Johnson","st":"WY","trs":"T50N R77W S10","fm":null,"eur":null,"perft":null,"sound":false,"fit":"none","geur":null,"gfit":"refused"}},{"type":"Feature","geometry":{"type":"Point","coordinates":[-106.10061,44.32659]},"properties":{"api":"4901924803","name":"WILLIAMS DU 41-10-5077BG","op":"CARBON CREEK ENERGY LLC","co":"Johnson","st":"WY","trs":"T50N R77W S10","fm":null,"eur":null,"perft":null,"sound":false,"fit":"none","geur":null,"gfit":"refused"}},{"type":"Feature","geometry":{"type":"Point","coordinates":[-106.11585,44.31754]},"properties":{"api":"4901924804","name":"WILLIAMS DU FED 14-10-5077WR","op":"CARBON CREEK ENERGY LLC","co":"Johnson","st":"WY","trs":"T50N R77W S10","fm":null,"eur":null,"perft":null,"sound":false,"fit":"none","geur":null,"gfit":"refused"}},{"type":"Feature","geometry":{"type":"Point","coordinates":[-106.111,44.32005]},"properties":{"api":"4901924805","name":"WILLIAMS DU FED 23-10-5077WR","op":"CARBON CREEK ENERGY LLC","co":"Johnson","st":"WY","trs":"T50N R77W S10","fm":null,"eur":null,"perft":null,"sound":false,"fit":"none","geur":null,"gfit":"refused"}},{"type":"Feature","geometry":{"type":"Point","coordinates":[-106.10844,44.31658]},"properties":{"api":"4901924806","name":"WILLIAMS DU FED 34-10-5077WR","op":"CARBON CREEK ENERGY LLC","co":"Johnson","st":"WY","trs":"T50N R77W S10","fm":null,"eur":null,"perft":null,"sound":false,"fit":"none","geur":null,"gfit":"refused"}},{"type":"Feature","geometry":{"type":"Point","coordinates":[-106.08204,44.32703]},"properties":{"api":"4901924810","name":"WILLIAMS DU FED 41-11-5077BG","op":"CARBON CREEK ENERGY LLC","co":"Johnson","st":"WY","trs":"T50N R77W S11","fm":null,"eur":null,"perft":null,"sound":false,"fit":"none","geur":null,"gfit":"refused"}},{"type":"Feature","geometry":{"type":"Point","coordinates":[-106.09568,44.3128]},"properties":{"api":"4901924811","name":"WILLIAMS DU FED 11-14-5077WR","op":"CARBON CREEK ENERGY LLC","co":"Johnson","st":"WY","trs":"T50N R77W S14","fm":null,"eur":null,"perft":null,"sound":false,"fit":"none","geur":null,"gfit":"refused"}},{"type":"Feature","geometry":{"type":"Point","coordinates":[-106.09946,44.32571]},"properties":{"api":"4901924812","name":"WILLIAMS DU FED 11-11-5077WR","op":"CARBON CREEK ENERGY LLC","co":"Johnson","st":"WY","trs":"T50N R77W S11","fm":null,"eur":null,"perft":null,"sound":false,"fit":"none","geur":null,"gfit":"refused"}},{"type":"Feature","geometry":{"type":"Point","coordinates":[-106.08462,44.3199]},"properties":{"api":"4901924813","name":"WILLIAMS DU 43-11-5077BG","op":"CARBON CREEK ENERGY LLC","co":"Johnson","st":"WY","trs":"T50N R77W S11","fm":null,"eur":null,"perft":null,"sound":false,"fit":"none","geur":null,"gfit":"refused"}},{"type":"Feature","geometry":{"type":"Point","coordinates":[-106.08626,44.32527]},"properties":{"api":"4901924815","name":"WILLIAMS DU 32-11-5077BG","op":"CARBON CREEK ENERGY LLC","co":"Johnson","st":"WY","trs":"T50N R77W S11","fm":null,"eur":null,"perft":null,"sound":false,"fit":"none","geur":null,"gfit":"refused"}},{"type":"Feature","geometry":{"type":"Point","coordinates":[-106.09376,44.31982]},"properties":{"api":"4901924816","name":"WILLIAMS DU 23-11-5077BG","op":"CARBON CREEK ENERGY LLC","co":"Johnson","st":"WY","trs":"T50N R77W S11","fm":null,"eur":null,"perft":null,"sound":false,"fit":"none","geur":null,"gfit":"refused"}},{"type":"Feature","geometry":{"type":"Point","coordinates":[-106.09079,44.32347]},"properties":{"api":"4901924817","name":"WILLIAMS DU 22-11-5077BG","op":"CARBON CREEK ENERGY LLC","co":"Johnson","st":"WY","trs":"T50N R77W S11","fm":null,"eur":null,"perft":null,"sound":false,"fit":"none","geur":null,"gfit":"refused"}},{"type":"Feature","geometry":{"type":"Point","coordinates":[-106.09858,44.32093]},"properties":{"api":"4901924818","name":"WILLIAMS DU 13-11-5077BG","op":"CARBON CREEK ENERGY LLC","co":"Johnson","st":"WY","trs":"T50N R77W S11","fm":null,"eur":null,"perft":null,"sound":false,"fit":"none","geur":null,"gfit":"refused"}},{"type":"Feature","geometry":{"type":"Point","coordinates":[-106.09927,44.30601]},"properties":{"api":"4901924924","name":"WILLIAMS DU FED 13-14-5077WR","op":"CARBON CREEK ENERGY LLC","co":"Johnson","st":"WY","trs":"T50N R77W S14","fm":null,"eur":null,"perft":null,"sound":false,"fit":"none","geur":1159235,"gfit":"sound"}},{"type":"Feature","geometry":{"type":"Point","coordinates":[-106.09294,44.30747]},"properties":{"api":"4901924925","name":"WILLIAMS DU FED 23-14-5077WR","op":"CARBON CREEK ENERGY LLC","co":"Johnson","st":"WY","trs":"T50N R77W S14","fm":null,"eur":null,"perft":null,"sound":false,"fit":"none","geur":1739097,"gfit":"sound"}},{"type":"Feature","geometry":{"type":"Point","coordinates":[-106.08599,44.30935]},"properties":{"api":"4901924926","name":"WILLIAMS DU FED 32-14-5077WR","op":"CARBON CREEK ENERGY LLC","co":"Johnson","st":"WY","trs":"T50N R77W S14","fm":null,"eur":null,"perft":null,"sound":false,"fit":"none","geur":null,"gfit":"refused"}},{"type":"Feature","geometry":{"type":"Point","coordinates":[-106.08353,44.31306]},"properties":{"api":"4901924927","name":"WILLIAMS DU FED 41-14-5077WR","op":"CARBON CREEK ENERGY LLC","co":"Johnson","st":"WY","trs":"T50N R77W S14","fm":null,"eur":null,"perft":null,"sound":false,"fit":"none","geur":null,"gfit":"refused"}},{"type":"Feature","geometry":{"type":"Point","coordinates":[-106.08348,44.30541]},"properties":{"api":"4901924928","name":"WILLIAMS DU FED 43-14-5077WR","op":"CARBON CREEK ENERGY LLC","co":"Johnson","st":"WY","trs":"T50N R77W S14","fm":null,"eur":null,"perft":null,"sound":false,"fit":"none","geur":null,"gfit":"refused"}},{"type":"Feature","geometry":{"type":"Point","coordinates":[-106.10403,44.29279]},"properties":{"api":"4901924933","name":"WILLIAMS DU FED 43-22-5077WR","op":"CARBON CREEK ENERGY LLC","co":"Johnson","st":"WY","trs":"T50N R77W S22","fm":null,"eur":null,"perft":null,"sound":false,"fit":"none","geur":null,"gfit":"none"}},{"type":"Feature","geometry":{"type":"Point","coordinates":[-106.08331,44.29899]},"properties":{"api":"4901924934","name":"WILLIAMS DU FED 41-23-5077WR","op":"CARBON CREEK ENERGY LLC","co":"Johnson","st":"WY","trs":"T50N R77W S23","fm":null,"eur":null,"perft":null,"sound":false,"fit":"none","geur":null,"gfit":"refused"}},{"type":"Feature","geometry":{"type":"Point","coordinates":[-106.10692,44.28819]},"properties":{"api":"4901924937","name":"WILLIAMS DU FED 34-22-5077WR","op":"CARBON CREEK ENERGY LLC","co":"Johnson","st":"WY","trs":"T50N R77W S22","fm":null,"eur":null,"perft":null,"sound":false,"fit":"none","geur":null,"gfit":"refused"}},{"type":"Feature","geometry":{"type":"Point","coordinates":[-106.0872,44.29567]},"properties":{"api":"4901924938","name":"WILLIAMS DU FED 32-23-5077WR","op":"CARBON CREEK ENERGY LLC","co":"Johnson","st":"WY","trs":"T50N R77W S23","fm":null,"eur":null,"perft":null,"sound":false,"fit":"none","geur":null,"gfit":"refused"}},{"type":"Feature","geometry":{"type":"Point","coordinates":[-106.10727,44.29487]},"properties":{"api":"4901924939","name":"WILLIAMS DU FED 32-22-5077WR","op":"CARBON CREEK ENERGY LLC","co":"Johnson","st":"WY","trs":"T50N R77W S22","fm":null,"eur":null,"perft":null,"sound":false,"fit":"none","geur":null,"gfit":"refused"}},{"type":"Feature","geometry":{"type":"Point","coordinates":[-106.09475,44.29221]},"properties":{"api":"4901924940","name":"WILLIAMS DU FED 23-23-5077WR","op":"CARBON CREEK ENERGY LLC","co":"Johnson","st":"WY","trs":"T50N R77W S23","fm":null,"eur":null,"perft":null,"sound":false,"fit":"none","geur":1525971,"gfit":"sound"}},{"type":"Feature","geometry":{"type":"Point","coordinates":[-106.11099,44.29081]},"properties":{"api":"4901924941","name":"WILLIAMS DU FED 23-22-5077WR","op":"CARBON CREEK ENERGY LLC","co":"Johnson","st":"WY","trs":"T50N R77W S22","fm":null,"eur":null,"perft":null,"sound":false,"fit":"none","geur":null,"gfit":"refused"}},{"type":"Feature","geometry":{"type":"Point","coordinates":[-106.09033,44.29858]},"properties":{"api":"4901924942","name":"WILLIAMS DU FED 21-23-5077WR","op":"CARBON CREEK ENERGY LLC","co":"Johnson","st":"WY","trs":"T50N R77W S23","fm":null,"eur":null,"perft":null,"sound":false,"fit":"none","geur":1680217,"gfit":"sound"}},{"type":"Feature","geometry":{"type":"Point","coordinates":[-106.09632,44.2891]},"properties":{"api":"4901924944","name":"WILLIAMS DU FED 14-23-5077WR","op":"CARBON CREEK ENERGY LLC","co":"Johnson","st":"WY","trs":"T50N R77W S23","fm":null,"eur":null,"perft":null,"sound":false,"fit":"none","geur":null,"gfit":"refused"}},{"type":"Feature","geometry":{"type":"Point","coordinates":[-106.11611,44.28675]},"properties":{"api":"4901924945","name":"WILLIAMS DU FED 14-22-5077WR","op":"CARBON CREEK ENERGY LLC","co":"Johnson","st":"WY","trs":"T50N R77W S22","fm":null,"eur":null,"perft":null,"sound":false,"fit":"none","geur":null,"gfit":"refused"}},{"type":"Feature","geometry":{"type":"Point","coordinates":[-106.11653,44.29378]},"properties":{"api":"4901924947","name":"WILLIAMS DU FED 12-22-5077WR","op":"CARBON CREEK ENERGY LLC","co":"Johnson","st":"WY","trs":"T50N R77W S22","fm":null,"eur":null,"perft":null,"sound":false,"fit":"none","geur":null,"gfit":"refused"}},{"type":"Feature","geometry":{"type":"Point","coordinates":[-106.08552,44.30152]},"properties":{"api":"4901924949","name":"WILLIAMS DU FED 34-14-5077WR","op":"CARBON CREEK ENERGY LLC","co":"Johnson","st":"WY","trs":"T50N R77W S14","fm":null,"eur":null,"perft":null,"sound":false,"fit":"none","geur":661667,"gfit":"sound"}},{"type":"Feature","geometry":{"type":"Point","coordinates":[-106.10967,44.31369]},"properties":{"api":"4901924963","name":"WILLIAMS DU FED 21-15-5077WR","op":"CARBON CREEK ENERGY LLC","co":"Johnson","st":"WY","trs":"T50N R77W S15","fm":null,"eur":null,"perft":null,"sound":false,"fit":"none","geur":1554470,"gfit":"sound"}},{"type":"Feature","geometry":{"type":"Point","coordinates":[-106.10941,44.31038]},"properties":{"api":"4901924964","name":"WILLIAMS DU FED 32-15-5077WR","op":"CARBON CREEK ENERGY LLC","co":"Johnson","st":"WY","trs":"T50N R77W S15","fm":null,"eur":null,"perft":null,"sound":false,"fit":"none","geur":null,"gfit":"refused"}},{"type":"Feature","geometry":{"type":"Point","coordinates":[-106.10498,44.31308]},"properties":{"api":"4901924966","name":"WILLIAMS DU FED 41-15-5077WR","op":"CARBON CREEK ENERGY LLC","co":"Johnson","st":"WY","trs":"T50N R77W S15","fm":null,"eur":null,"perft":null,"sound":false,"fit":"none","geur":null,"gfit":"refused"}},{"type":"Feature","geometry":{"type":"Point","coordinates":[-106.10268,44.30676]},"properties":{"api":"4901924967","name":"WILLIAMS DU FED 43-15-5077WR","op":"CARBON CREEK ENERGY LLC","co":"Johnson","st":"WY","trs":"T50N R77W S15","fm":null,"eur":null,"perft":null,"sound":false,"fit":"none","geur":1779579,"gfit":"sound"}},{"type":"Feature","geometry":{"type":"Point","coordinates":[-106.17655,44.28836]},"properties":{"api":"4901924970","name":"PVU FED 14-19-5077WR","op":"CARBON CREEK ENERGY LLC","co":"Johnson","st":"WY","trs":"T50N R77W S19","fm":null,"eur":null,"perft":null,"sound":false,"fit":"none","geur":null,"gfit":"refused"}},{"type":"Feature","geometry":{"type":"Point","coordinates":[-106.16929,44.29008]},"properties":{"api":"4901924971","name":"PVU FED 33-19-5077WR","op":"CARBON CREEK ENERGY LLC","co":"Johnson","st":"WY","trs":"T50N R77W S19","fm":null,"eur":null,"perft":null,"sound":false,"fit":"none","geur":null,"gfit":"refused"}},{"type":"Feature","geometry":{"type":"Point","coordinates":[-106.16839,44.28639]},"properties":{"api":"4901924972","name":"PVU FED 34-19-5077WR","op":"CARBON CREEK ENERGY LLC","co":"Johnson","st":"WY","trs":"T50N R77W S19","fm":null,"eur":null,"perft":null,"sound":false,"fit":"none","geur":1134158,"gfit":"sound"}},{"type":"Feature","geometry":{"type":"Point","coordinates":[-106.11711,44.30068]},"properties":{"api":"4901924998","name":"WILLIAMS DU FED 14-15-5077WR","op":"CARBON CREEK ENERGY LLC","co":"Johnson","st":"WY","trs":"T50N R77W S15","fm":null,"eur":null,"perft":null,"sound":false,"fit":"none","geur":null,"gfit":"refused"}},{"type":"Feature","geometry":{"type":"Point","coordinates":[-106.14444,44.315]},"properties":{"api":"4901925013","name":"POWDER VALLEY (CBM)  44-8-5077SM","op":"CARBON CREEK ENERGY LLC","co":"Johnson","st":"WY","trs":"T50N R77W S8","fm":null,"eur":null,"perft":null,"sound":false,"fit":"none","geur":null,"gfit":"refused"}},{"type":"Feature","geometry":{"type":"Point","coordinates":[-106.17687,44.32262]},"properties":{"api":"4901925184","name":"PVU FED 12-7-5077WR","op":"CARBON CREEK ENERGY LLC","co":"Johnson","st":"WY","trs":"T50N R77W S7","fm":null,"eur":null,"perft":null,"sound":false,"fit":"none","geur":null,"gfit":"refused"}},{"type":"Feature","geometry":{"type":"Point","coordinates":[-106.0611,44.31409]},"properties":{"api":"4901926436","name":"WILLIAMS DU 41-13-5077","op":"CARBON CREEK ENERGY LLC","co":"Johnson","st":"WY","trs":"T50N R77W S13","fm":null,"eur":null,"perft":null,"sound":false,"fit":"none","geur":null,"gfit":"refused"}},{"type":"Feature","geometry":{"type":"Point","coordinates":[-106.07639,44.31725]},"properties":{"api":"4901926514","name":"WILLIAMS DU 14-12-5077WR","op":"CARBON CREEK ENERGY LLC","co":"Johnson","st":"WY","trs":"T50N R77W S12","fm":null,"eur":null,"perft":null,"sound":false,"fit":"none","geur":null,"gfit":"refused"}},{"type":"Feature","geometry":{"type":"Point","coordinates":[-106.10821,44.27274]},"properties":{"api":"4901927117","name":"WILLIAMS DU 34-27-5077","op":"CARBON CREEK ENERGY LLC","co":"Johnson","st":"WY","trs":"T50N R77W S27","fm":null,"eur":null,"perft":null,"sound":false,"fit":"none","geur":null,"gfit":"refused"}},{"type":"Feature","geometry":{"type":"Point","coordinates":[-106.1166,44.27292]},"properties":{"api":"4901927118","name":"WILLIAMS DU 14-27-5077","op":"CARBON CREEK ENERGY LLC","co":"Johnson","st":"WY","trs":"T50N R77W S27","fm":null,"eur":null,"perft":null,"sound":false,"fit":"none","geur":null,"gfit":"refused"}},{"type":"Feature","geometry":{"type":"Point","coordinates":[-106.13385,44.2654]},"properties":{"api":"4901927139","name":"PVU 22-33-5077BG","op":"CARBON CREEK ENERGY LLC","co":"Johnson","st":"WY","trs":"T50N R77W S33","fm":null,"eur":null,"perft":null,"sound":false,"fit":"none","geur":null,"gfit":"refused"}},{"type":"Feature","geometry":{"type":"Point","coordinates":[-106.11642,44.28062]},"properties":{"api":"4901927994","name":"WILLIAMS DU 12-27-5077","op":"CARBON CREEK ENERGY LLC","co":"Johnson","st":"WY","trs":"T50N R77W S27","fm":null,"eur":null,"perft":null,"sound":false,"fit":"none","geur":1143542,"gfit":"sound"}},{"type":"Feature","geometry":{"type":"Point","coordinates":[-106.13374,44.30031]},"properties":{"api":"4901928582","name":"PVU 31-20-5077","op":"CARBON CREEK ENERGY LLC","co":"Johnson","st":"WY","trs":"T50N R77W S20","fm":null,"eur":null,"perft":null,"sound":false,"fit":"none","geur":null,"gfit":"refused"}},{"type":"Feature","geometry":{"type":"Point","coordinates":[-106.16346,44.29874]},"properties":{"api":"4901928583","name":"PVU FED 41-19-5077","op":"CARBON CREEK ENERGY LLC","co":"Johnson","st":"WY","trs":"T50N R77W S19","fm":null,"eur":null,"perft":null,"sound":false,"fit":"none","geur":41824,"gfit":"sound"}},{"type":"Feature","geometry":{"type":"Point","coordinates":[-106.16423,44.29353]},"properties":{"api":"4901928584","name":"PVU FED 42-19-5077","op":"CARBON CREEK ENERGY LLC","co":"Johnson","st":"WY","trs":"T50N R77W S19","fm":null,"eur":null,"perft":null,"sound":false,"fit":"none","geur":null,"gfit":"refused"}},{"type":"Feature","geometry":{"type":"Point","coordinates":[-106.16554,44.29222]},"properties":{"api":"4901928599","name":"PVU FED 43-19-5077","op":"CARBON CREEK ENERGY LLC","co":"Johnson","st":"WY","trs":"T50N R77W S19","fm":null,"eur":null,"perft":null,"sound":false,"fit":"none","geur":null,"gfit":"refused"}},{"type":"Feature","geometry":{"type":"Point","coordinates":[-106.13712,44.26105]},"properties":{"api":"4901928600","name":"PVU FED 42-33-5077","op":"CARBON CREEK ENERGY LLC","co":"Johnson","st":"WY","trs":"T50N R77W S33","fm":null,"eur":null,"perft":null,"sound":false,"fit":"none","geur":1723900,"gfit":"sound"}},{"type":"Feature","geometry":{"type":"Point","coordinates":[-106.12912,44.25937]},"properties":{"api":"4901928601","name":"PVU FED 34-33-5077","op":"CARBON CREEK ENERGY LLC","co":"Johnson","st":"WY","trs":"T50N R77W S33","fm":null,"eur":null,"perft":null,"sound":false,"fit":"none","geur":null,"gfit":"none"}},{"type":"Feature","geometry":{"type":"Point","coordinates":[-106.17522,44.2942]},"properties":{"api":"4901928603","name":"PVU FED 22-19-5077","op":"CARBON CREEK ENERGY LLC","co":"Johnson","st":"WY","trs":"T50N R77W S19","fm":null,"eur":null,"perft":null,"sound":false,"fit":"none","geur":1186482,"gfit":"sound"}},{"type":"Feature","geometry":{"type":"Point","coordinates":[-106.11301,44.26958]},"properties":{"api":"4901928764","name":"WILLIAMS DU 21-34-5077","op":"CARBON CREEK ENERGY LLC","co":"Johnson","st":"WY","trs":"T50N R77W S34","fm":null,"eur":null,"perft":null,"sound":false,"fit":"none","geur":null,"gfit":"refused"}},{"type":"Feature","geometry":{"type":"Point","coordinates":[-106.10394,44.26912]},"properties":{"api":"4901928765","name":"WILLIAMS DU 41-34-5077","op":"CARBON CREEK ENERGY LLC","co":"Johnson","st":"WY","trs":"T50N R77W S34","fm":null,"eur":null,"perft":null,"sound":false,"fit":"none","geur":null,"gfit":"refused"}},{"type":"Feature","geometry":{"type":"Point","coordinates":[-106.05834,44.31634]},"properties":{"api":"4901928767","name":"WILLIAMS DU 44-12-5077","op":"CARBON CREEK ENERGY LLC","co":"Johnson","st":"WY","trs":"T50N R77W S12","fm":null,"eur":null,"perft":null,"sound":false,"fit":"none","geur":null,"gfit":"refused"}},{"type":"Feature","geometry":{"type":"Point","coordinates":[-106.11724,44.26473]},"properties":{"api":"4901928773","name":"WILLIAMS DU 12-34-5077","op":"CARBON CREEK ENERGY LLC","co":"Johnson","st":"WY","trs":"T50N R77W S34","fm":null,"eur":null,"perft":null,"sound":false,"fit":"none","geur":null,"gfit":"refused"}},{"type":"Feature","geometry":{"type":"Point","coordinates":[-106.11361,44.2832]},"properties":{"api":"4901928877","name":"WILLIAMS DU 21-27-5077","op":"CARBON CREEK ENERGY LLC","co":"Johnson","st":"WY","trs":"T50N R77W S27","fm":null,"eur":null,"perft":null,"sound":false,"fit":"none","geur":null,"gfit":"refused"}},{"type":"Feature","geometry":{"type":"Point","coordinates":[-106.11361,44.27795]},"properties":{"api":"4901928878","name":"WILLIAMS DU 23-27-5077","op":"CARBON CREEK ENERGY LLC","co":"Johnson","st":"WY","trs":"T50N R77W S27","fm":null,"eur":null,"perft":null,"sound":false,"fit":"none","geur":1645912,"gfit":"sound"}},{"type":"Feature","geometry":{"type":"Point","coordinates":[-106.0578,44.28549]},"properties":{"api":"4901928921","name":"WILLIAMS DU FED 41-25-5077","op":"CARBON CREEK ENERGY LLC","co":"Johnson","st":"WY","trs":"T50N R77W S25","fm":null,"eur":null,"perft":null,"sound":false,"fit":"none","geur":null,"gfit":"refused"}},{"type":"Feature","geometry":{"type":"Point","coordinates":[-106.06988,44.27249]},"properties":{"api":"4901928973","name":"WILLIAMS DU FED 34-25-5077","op":"CARBON CREEK ENERGY LLC","co":"Johnson","st":"WY","trs":"T50N R77W S25","fm":null,"eur":null,"perft":null,"sound":false,"fit":"none","geur":null,"gfit":"none"}},{"type":"Feature","geometry":{"type":"Point","coordinates":[-106.06617,44.27985]},"properties":{"api":"4901928974","name":"WILLIAMS DU FED 32-25-5077","op":"CARBON CREEK ENERGY LLC","co":"Johnson","st":"WY","trs":"T50N R77W S25","fm":null,"eur":null,"perft":null,"sound":false,"fit":"none","geur":null,"gfit":"refused"}},{"type":"Feature","geometry":{"type":"Point","coordinates":[-106.07328,44.27713]},"properties":{"api":"4901928975","name":"WILLIAMS DU FED 23-25-5077","op":"CARBON CREEK ENERGY LLC","co":"Johnson","st":"WY","trs":"T50N R77W S25","fm":null,"eur":null,"perft":null,"sound":false,"fit":"none","geur":120728,"gfit":"sound"}},{"type":"Feature","geometry":{"type":"Point","coordinates":[-106.07531,44.27575]},"properties":{"api":"4901928977","name":"WILLIAMS DU FED 13-25-5077","op":"CARBON CREEK ENERGY LLC","co":"Johnson","st":"WY","trs":"T50N R77W S25","fm":null,"eur":null,"perft":null,"sound":false,"fit":"none","geur":null,"gfit":"refused"}},{"type":"Feature","geometry":{"type":"Point","coordinates":[-106.05818,44.293]},"properties":{"api":"4901928978","name":"WILLIAMS DU FED 42-24-5077","op":"CARBON CREEK ENERGY LLC","co":"Johnson","st":"WY","trs":"T50N R77W S24","fm":null,"eur":null,"perft":null,"sound":false,"fit":"none","geur":null,"gfit":"refused"}},{"type":"Feature","geometry":{"type":"Point","coordinates":[-106.06295,44.29805]},"properties":{"api":"4901928979","name":"WILLIAMS DU FED 41-24-5077","op":"CARBON CREEK ENERGY LLC","co":"Johnson","st":"WY","trs":"T50N R77W S24","fm":null,"eur":null,"perft":null,"sound":false,"fit":"none","geur":382964,"gfit":"sound"}},{"type":"Feature","geometry":{"type":"Point","coordinates":[-106.0687,44.29417]},"properties":{"api":"4901928982","name":"WILLIAMS DU FED 32-24-5077","op":"CARBON CREEK ENERGY LLC","co":"Johnson","st":"WY","trs":"T50N R77W S24","fm":null,"eur":null,"perft":null,"sound":false,"fit":"none","geur":1131970,"gfit":"sound"}},{"type":"Feature","geometry":{"type":"Point","coordinates":[-106.07035,44.29841]},"properties":{"api":"4901928983","name":"WILLIAMS DU FED 21-24-5077","op":"CARBON CREEK ENERGY LLC","co":"Johnson","st":"WY","trs":"T50N R77W S24","fm":null,"eur":null,"perft":null,"sound":false,"fit":"none","geur":null,"gfit":"none"}},{"type":"Feature","geometry":{"type":"Point","coordinates":[-106.07043,44.30481]},"properties":{"api":"4901929120","name":"WILLIAMS DU FED 23-13-5077","op":"CARBON CREEK ENERGY LLC","co":"Johnson","st":"WY","trs":"T50N R77W S13","fm":null,"eur":null,"perft":null,"sound":false,"fit":"none","geur":1606770,"gfit":"sound"}},{"type":"Feature","geometry":{"type":"Point","coordinates":[-106.07782,44.30295]},"properties":{"api":"4901929121","name":"WILLIAMS DU FED 14-13-5077","op":"CARBON CREEK ENERGY LLC","co":"Johnson","st":"WY","trs":"T50N R77W S13","fm":null,"eur":null,"perft":null,"sound":false,"fit":"none","geur":null,"gfit":"refused"}},{"type":"Feature","geometry":{"type":"Point","coordinates":[-106.07927,44.30542]},"properties":{"api":"4901929122","name":"WILLIAMS DU FED 13-13-5077","op":"CARBON CREEK ENERGY LLC","co":"Johnson","st":"WY","trs":"T50N R77W S13","fm":null,"eur":null,"perft":null,"sound":false,"fit":"none","geur":null,"gfit":"refused"}},{"type":"Feature","geometry":{"type":"Point","coordinates":[-106.07535,44.3088]},"properties":{"api":"4901929123","name":"WILLIAMS DU FED 12-13-5077","op":"CARBON CREEK ENERGY LLC","co":"Johnson","st":"WY","trs":"T50N R77W S13","fm":null,"eur":null,"perft":null,"sound":false,"fit":"none","geur":null,"gfit":"refused"}},{"type":"Feature","geometry":{"type":"Point","coordinates":[-106.07797,44.31255]},"properties":{"api":"4901929124","name":"WILLIAMS DU FED 11-13-5077","op":"CARBON CREEK ENERGY LLC","co":"Johnson","st":"WY","trs":"T50N R77W S13","fm":null,"eur":null,"perft":null,"sound":false,"fit":"none","geur":null,"gfit":"refused"}},{"type":"Feature","geometry":{"type":"Point","coordinates":[-106.1119,44.2569]},"properties":{"api":"4901929127","name":"WILLIAMS DU FED 24-34-5077","op":"CARBON CREEK ENERGY LLC","co":"Johnson","st":"WY","trs":"T50N R77W S34","fm":null,"eur":null,"perft":null,"sound":false,"fit":"none","geur":996043,"gfit":"sound"}},{"type":"Feature","geometry":{"type":"Point","coordinates":[-106.10806,44.26579]},"properties":{"api":"4901929128","name":"WILLIAMS DU FED 32-34-5077","op":"CARBON CREEK ENERGY LLC","co":"Johnson","st":"WY","trs":"T50N R77W S34","fm":null,"eur":null,"perft":null,"sound":false,"fit":"none","geur":null,"gfit":"refused"}},{"type":"Feature","geometry":{"type":"Point","coordinates":[-106.10813,44.26226]},"properties":{"api":"4901929129","name":"WILLIAMS DU FED 33-34-5077","op":"CARBON CREEK ENERGY LLC","co":"Johnson","st":"WY","trs":"T50N R77W S34","fm":null,"eur":null,"perft":null,"sound":false,"fit":"none","geur":null,"gfit":"refused"}},{"type":"Feature","geometry":{"type":"Point","coordinates":[-106.0924,44.26127]},"properties":{"api":"4901929132","name":"WILLIAMS DU FED 23-35-5077","op":"CARBON CREEK ENERGY LLC","co":"Johnson","st":"WY","trs":"T50N R77W S35","fm":null,"eur":null,"perft":null,"sound":false,"fit":"none","geur":null,"gfit":"refused"}},{"type":"Feature","geometry":{"type":"Point","coordinates":[-106.08881,44.26051]},"properties":{"api":"4901929135","name":"WILLIAMS DU FED 33-35-5077","op":"CARBON CREEK ENERGY LLC","co":"Johnson","st":"WY","trs":"T50N R77W S35","fm":null,"eur":null,"perft":null,"sound":false,"fit":"none","geur":null,"gfit":"refused"}},{"type":"Feature","geometry":{"type":"Point","coordinates":[-106.08179,44.25729]},"properties":{"api":"4901929142","name":"WILLIAMS DU FED 44-35-5077","op":"CARBON CREEK ENERGY LLC","co":"Johnson","st":"WY","trs":"T50N R77W S35","fm":null,"eur":null,"perft":null,"sound":false,"fit":"none","geur":2138134,"gfit":"sound"}},{"type":"Feature","geometry":{"type":"Point","coordinates":[-106.1035,44.264]},"properties":{"api":"4901929146","name":"WILLIAMS DU FED 43-34-5077","op":"CARBON CREEK ENERGY LLC","co":"Johnson","st":"WY","trs":"T50N R77W S34","fm":null,"eur":null,"perft":null,"sound":false,"fit":"none","geur":null,"gfit":"refused"}},{"type":"Feature","geometry":{"type":"Point","coordinates":[-106.06218,44.3198]},"properties":{"api":"4901929147","name":"WILLIAMS DU FED 43-12-5077","op":"CARBON CREEK ENERGY LLC","co":"Johnson","st":"WY","trs":"T50N R77W S12","fm":null,"eur":null,"perft":null,"sound":false,"fit":"none","geur":null,"gfit":"refused"}},{"type":"Feature","geometry":{"type":"Point","coordinates":[-106.06828,44.30171]},"properties":{"api":"4901929148","name":"WILLIAMS DU FED 34-13-5077","op":"CARBON CREEK ENERGY LLC","co":"Johnson","st":"WY","trs":"T50N R77W S13","fm":null,"eur":null,"perft":null,"sound":false,"fit":"none","geur":385926,"gfit":"sound"}},{"type":"Feature","geometry":{"type":"Point","coordinates":[-106.05884,44.30501]},"properties":{"api":"4901929149","name":"WILLIAMS DU FED 43-13-5077","op":"CARBON CREEK ENERGY LLC","co":"Johnson","st":"WY","trs":"T50N R77W S13","fm":null,"eur":null,"perft":null,"sound":false,"fit":"none","geur":null,"gfit":"refused"}},{"type":"Feature","geometry":{"type":"Point","coordinates":[-106.10745,44.2579]},"properties":{"api":"4901929150","name":"WILLIAMS DU FED 34-34-5077","op":"CARBON CREEK ENERGY LLC","co":"Johnson","st":"WY","trs":"T50N R77W S34","fm":null,"eur":null,"perft":null,"sound":false,"fit":"none","geur":1373667,"gfit":"sound"}},{"type":"Feature","geometry":{"type":"Point","coordinates":[-106.05955,44.3222]},"properties":{"api":"4901929151","name":"WILLIAMS DU FED 42-12-5077","op":"CARBON CREEK ENERGY LLC","co":"Johnson","st":"WY","trs":"T50N R77W S12","fm":null,"eur":null,"perft":null,"sound":false,"fit":"none","geur":null,"gfit":"refused"}},{"type":"Feature","geometry":{"type":"Point","coordinates":[-106.06196,44.32696]},"properties":{"api":"4901929152","name":"WILLIAMS DU FED 41-12-5077","op":"CARBON CREEK ENERGY LLC","co":"Johnson","st":"WY","trs":"T50N R77W S12","fm":null,"eur":null,"perft":null,"sound":false,"fit":"none","geur":826505,"gfit":"sound"}},{"type":"Feature","geometry":{"type":"Point","coordinates":[-106.06995,44.32049]},"properties":{"api":"4901929153","name":"WILLIAMS DU FED 33-12-5077","op":"CARBON CREEK ENERGY LLC","co":"Johnson","st":"WY","trs":"T50N R77W S12","fm":null,"eur":null,"perft":null,"sound":false,"fit":"none","geur":null,"gfit":"refused"}},{"type":"Feature","geometry":{"type":"Point","coordinates":[-106.06719,44.32315]},"properties":{"api":"4901929154","name":"WILLIAMS DU FED 32-12-5077","op":"CARBON CREEK ENERGY LLC","co":"Johnson","st":"WY","trs":"T50N R77W S12","fm":null,"eur":null,"perft":null,"sound":false,"fit":"none","geur":null,"gfit":"refused"}},{"type":"Feature","geometry":{"type":"Point","coordinates":[-106.11793,44.33946]},"properties":{"api":"4901929314","name":"KDU FED 12-3-5077","op":"CARBON CREEK ENERGY LLC","co":"Johnson","st":"WY","trs":"T50N R77W S3","fm":null,"eur":null,"perft":null,"sound":false,"fit":"none","geur":null,"gfit":"refused"}},{"type":"Feature","geometry":{"type":"Point","coordinates":[-106.10777,44.33053]},"properties":{"api":"4901929315","name":"KDU FED 34-3-5077","op":"CARBON CREEK ENERGY LLC","co":"Johnson","st":"WY","trs":"T50N R77W S3","fm":null,"eur":null,"perft":null,"sound":false,"fit":"none","geur":850358,"gfit":"sound"}},{"type":"Feature","geometry":{"type":"Point","coordinates":[-106.10053,44.34346]},"properties":{"api":"4901929316","name":"KDU FED 41-3-5077","op":"CARBON CREEK ENERGY LLC","co":"Johnson","st":"WY","trs":"T50N R77W S3","fm":null,"eur":null,"perft":null,"sound":false,"fit":"none","geur":null,"gfit":"refused"}},{"type":"Feature","geometry":{"type":"Point","coordinates":[-106.1029,44.33814]},"properties":{"api":"4901929317","name":"KDU FED 42-3-5077","op":"CARBON CREEK ENERGY LLC","co":"Johnson","st":"WY","trs":"T50N R77W S3","fm":null,"eur":null,"perft":null,"sound":false,"fit":"none","geur":null,"gfit":"refused"}},{"type":"Feature","geometry":{"type":"Point","coordinates":[-106.12305,44.34194]},"properties":{"api":"4901929321","name":"KDU FED 41-4-5077","op":"CARBON CREEK ENERGY LLC","co":"Johnson","st":"WY","trs":"T50N R77W S4","fm":null,"eur":null,"perft":null,"sound":false,"fit":"none","geur":407550,"gfit":"sound"}},{"type":"Feature","geometry":{"type":"Point","coordinates":[-106.12844,44.34244]},"properties":{"api":"4901929322","name":"KDU FED 31-4-5077","op":"CARBON CREEK ENERGY LLC","co":"Johnson","st":"WY","trs":"T50N R77W S4","fm":null,"eur":null,"perft":null,"sound":false,"fit":"none","geur":241513,"gfit":"sound"}},{"type":"Feature","geometry":{"type":"Point","coordinates":[-106.13043,44.33695]},"properties":{"api":"4901929323","name":"KDU FED 32-4-5077","op":"CARBON CREEK ENERGY LLC","co":"Johnson","st":"WY","trs":"T50N R77W S4","fm":null,"eur":null,"perft":null,"sound":false,"fit":"none","geur":687219,"gfit":"sound"}},{"type":"Feature","geometry":{"type":"Point","coordinates":[-106.11526,44.34319]},"properties":{"api":"4901929327","name":"KDU FED 21-3-5077","op":"CARBON CREEK ENERGY LLC","co":"Johnson","st":"WY","trs":"T50N R77W S3","fm":null,"eur":null,"perft":null,"sound":false,"fit":"none","geur":null,"gfit":"refused"}},{"type":"Feature","geometry":{"type":"Point","coordinates":[-106.13016,44.32957]},"properties":{"api":"4901929368","name":"KUD FED 34-4-5077","op":"CARBON CREEK ENERGY LLC","co":"Johnson","st":"WY","trs":"T50N R77W S4","fm":null,"eur":null,"perft":null,"sound":false,"fit":"none","geur":167664,"gfit":"sound"}},{"type":"Feature","geometry":{"type":"Point","coordinates":[-106.12455,44.3294]},"properties":{"api":"4901929369","name":"KDU FED 44-4-5077","op":"CARBON CREEK ENERGY LLC","co":"Johnson","st":"WY","trs":"T50N R77W S4","fm":null,"eur":null,"perft":null,"sound":false,"fit":"none","geur":null,"gfit":"refused"}},{"type":"Feature","geometry":{"type":"Point","coordinates":[-106.17108,44.31358]},"properties":{"api":"4901929384","name":"PVU FED 21-18-5077","op":"CARBON CREEK ENERGY LLC","co":"Johnson","st":"WY","trs":"T50N R77W S18","fm":null,"eur":null,"perft":null,"sound":false,"fit":"none","geur":null,"gfit":"refused"}},{"type":"Feature","geometry":{"type":"Point","coordinates":[-106.17392,44.31119]},"properties":{"api":"4901929385","name":"PVU FED 22-18-5077","op":"CARBON CREEK ENERGY LLC","co":"Johnson","st":"WY","trs":"T50N R77W S18","fm":null,"eur":null,"perft":null,"sound":false,"fit":"none","geur":1067620,"gfit":"sound"}},{"type":"Feature","geometry":{"type":"Point","coordinates":[-106.16189,44.31276]},"properties":{"api":"4901929388","name":"PVU FED 41-18-5077","op":"CARBON CREEK ENERGY LLC","co":"Johnson","st":"WY","trs":"T50N R77W S18","fm":null,"eur":null,"perft":null,"sound":false,"fit":"none","geur":null,"gfit":"refused"}},{"type":"Feature","geometry":{"type":"Point","coordinates":[-106.16183,44.31056]},"properties":{"api":"4901929389","name":"PVU FED 42-18-5077","op":"CARBON CREEK ENERGY LLC","co":"Johnson","st":"WY","trs":"T50N R77W S18","fm":null,"eur":null,"perft":null,"sound":false,"fit":"none","geur":null,"gfit":"refused"}},{"type":"Feature","geometry":{"type":"Point","coordinates":[-106.16431,44.30633]},"properties":{"api":"4901929390","name":"PVU FED 43-18-5077","op":"CARBON CREEK ENERGY LLC","co":"Johnson","st":"WY","trs":"T50N R77W S18","fm":null,"eur":null,"perft":null,"sound":false,"fit":"none","geur":null,"gfit":"refused"}},{"type":"Feature","geometry":{"type":"Point","coordinates":[-106.11449,44.3302]},"properties":{"api":"4901929444","name":"KDU FED 24-3-5077","op":"CARBON CREEK ENERGY LLC","co":"Johnson","st":"WY","trs":"T50N R77W S3","fm":null,"eur":null,"perft":null,"sound":false,"fit":"none","geur":null,"gfit":"refused"}},{"type":"Feature","geometry":{"type":"Point","coordinates":[-106.07152,44.34197]},"properties":{"api":"4901929758","name":"KDU FED 21-1-5077","op":"CARBON CREEK ENERGY LLC","co":"Johnson","st":"WY","trs":"T50N R77W S1","fm":null,"eur":null,"perft":null,"sound":false,"fit":"none","geur":null,"gfit":"refused"}},{"type":"Feature","geometry":{"type":"Point","coordinates":[-106.06052,44.34206]},"properties":{"api":"4901929761","name":"KDU FED 41-1-5077","op":"CARBON CREEK ENERGY LLC","co":"Johnson","st":"WY","trs":"T50N R77W S1","fm":null,"eur":null,"perft":null,"sound":false,"fit":"none","geur":null,"gfit":"refused"}},{"type":"Feature","geometry":{"type":"Point","coordinates":[-106.09848,44.33922]},"properties":{"api":"4901929763","name":"KDU FED 12-2-5077","op":"CARBON CREEK ENERGY LLC","co":"Johnson","st":"WY","trs":"T50N R77W S2","fm":null,"eur":null,"perft":null,"sound":false,"fit":"none","geur":null,"gfit":"refused"}},{"type":"Feature","geometry":{"type":"Point","coordinates":[-106.08655,44.34088]},"properties":{"api":"4901929765","name":"KDU FED 31-2-5077","op":"CARBON CREEK ENERGY LLC","co":"Johnson","st":"WY","trs":"T50N R77W S2","fm":null,"eur":null,"perft":null,"sound":false,"fit":"none","geur":null,"gfit":"none"}},{"type":"Feature","geometry":{"type":"Point","coordinates":[-106.08841,44.33909]},"properties":{"api":"4901929766","name":"KDU FED 32-2-5077","op":"CARBON CREEK ENERGY LLC","co":"Johnson","st":"WY","trs":"T50N R77W S2","fm":null,"eur":null,"perft":null,"sound":false,"fit":"none","geur":null,"gfit":"refused"}},{"type":"Feature","geometry":{"type":"Point","coordinates":[-106.08259,44.33769]},"properties":{"api":"4901929768","name":"KDU FED 42-2-5077","op":"CARBON CREEK ENERGY LLC","co":"Johnson","st":"WY","trs":"T50N R77W S2","fm":null,"eur":null,"perft":null,"sound":false,"fit":"none","geur":null,"gfit":"none"}},{"type":"Feature","geometry":{"type":"Point","coordinates":[-106.07011,44.33698]},"properties":{"api":"4901929976","name":"KDU FED 22-1-5077","op":"CARBON CREEK ENERGY LLC","co":"Johnson","st":"WY","trs":"T50N R77W S1","fm":null,"eur":null,"perft":null,"sound":false,"fit":"none","geur":null,"gfit":"refused"}},{"type":"Feature","geometry":{"type":"Point","coordinates":[-106.08333,44.28056]},"properties":{"api":"4901921645","name":"PVU 22-28-5077","op":"CARBON CREEK ENERGY LLC","co":"Johnson","st":"WY","trs":"T50N R77W S28","fm":null,"eur":null,"perft":null,"sound":false,"fit":"none","geur":null,"gfit":"refused"}},{"type":"Feature","geometry":{"type":"Point","coordinates":[-106.1376,44.29844]},"properties":{"api":"4901924256","name":"PVU FED 11-21-5077WR","op":"CARBON CREEK ENERGY LLC","co":"Johnson","st":"WY","trs":"T50N R77W S21","fm":null,"eur":null,"perft":null,"sound":false,"fit":"none","geur":null,"gfit":"refused"}},{"type":"Feature","geometry":{"type":"Point","coordinates":[-106.12677,44.26291]},"properties":{"api":"4901924774","name":"PVU FED 33-33-5077WR","op":"CARBON CREEK ENERGY LLC","co":"Johnson","st":"WY","trs":"T50N R77W S33","fm":null,"eur":null,"perft":null,"sound":false,"fit":"none","geur":null,"gfit":"refused"}},{"type":"Feature","geometry":{"type":"Point","coordinates":[-106.10106,44.29828]},"properties":{"api":"4901924935","name":"WILLIAMS DU FED 41-22-5077WR","op":"CARBON CREEK ENERGY LLC","co":"Johnson","st":"WY","trs":"T50N R77W S22","fm":null,"eur":null,"perft":null,"sound":false,"fit":"none","geur":null,"gfit":"none"}},{"type":"Feature","geometry":{"type":"Point","coordinates":[-106.0979,44.29577]},"properties":{"api":"4901924946","name":"WILLIAMS DU FED 12-23-5077WR","op":"CARBON CREEK ENERGY LLC","co":"Johnson","st":"WY","trs":"T50N R77W S23","fm":null,"eur":null,"perft":null,"sound":false,"fit":"none","geur":null,"gfit":"refused"}},{"type":"Feature","geometry":{"type":"Point","coordinates":[-106.09199,44.31369]},"properties":{"api":"4901924950","name":"WILLIAMS DU FED 21-14-5077WR","op":"CARBON CREEK ENERGY LLC","co":"Johnson","st":"WY","trs":"T50N R77W S14","fm":null,"eur":null,"perft":null,"sound":false,"fit":"none","geur":null,"gfit":"refused"}},{"type":"Feature","geometry":{"type":"Point","coordinates":[-106.13791,44.29605]},"properties":{"api":"4901925623","name":"PVU FED 12-21-5077WR","op":"CARBON CREEK ENERGY LLC","co":"Johnson","st":"WY","trs":"T50N R77W S21","fm":null,"eur":null,"perft":null,"sound":false,"fit":"none","geur":null,"gfit":"refused"}},{"type":"Feature","geometry":{"type":"Point","coordinates":[-106.06707,44.33961]},"properties":{"api":"4901929759","name":"KDU FED 32-1-5077","op":"CARBON CREEK ENERGY LLC","co":"Johnson","st":"WY","trs":"T50N R77W S1","fm":null,"eur":null,"perft":null,"sound":false,"fit":"none","geur":null,"gfit":"refused"}},{"type":"Feature","geometry":{"type":"Point","coordinates":[-106.12823,44.29187]},"properties":{"api":"4901924171","name":"PVU 33-21-5077BG","op":"CARBON CREEK ENERGY LLC","co":"Johnson","st":"WY","trs":"T50N R77W S21","fm":null,"eur":null,"perft":null,"sound":false,"fit":"none","geur":null,"gfit":"none"}},{"type":"Feature","geometry":{"type":"Point","coordinates":[-106.08888,44.31604]},"properties":{"api":"4901924814","name":"WILLIAMS DU 34-11-5077BG","op":"CARBON CREEK ENERGY LLC","co":"Johnson","st":"WY","trs":"T50N R77W S11","fm":null,"eur":null,"perft":null,"sound":false,"fit":"none","geur":null,"gfit":"refused"}},{"type":"Feature","geometry":{"type":"Point","coordinates":[-106.14101,44.31578]},"properties":{"api":"4901927186","name":"WAGONER 44-8E-5077BG","op":"BLACK DIAMOND ENERGY INC","co":"Johnson","st":"WY","trs":"T50N R77W S8","fm":null,"eur":null,"perft":null,"sound":false,"fit":"none","geur":null,"gfit":"none"}},{"type":"Feature","geometry":{"type":"Point","coordinates":[-106.1409,44.31589]},"properties":{"api":"4901927187","name":"WAGONER 44-8E-5077S","op":"BLACK DIAMOND ENERGY INC","co":"Johnson","st":"WY","trs":"T50N R77W S8","fm":null,"eur":null,"perft":null,"sound":false,"fit":"none","geur":null,"gfit":"none"}},{"type":"Feature","geometry":{"type":"Point","coordinates":[-106.14616,44.31199]},"properties":{"api":"4901927188","name":"WAGONER 31-17-5077BG","op":"BLACK DIAMOND ENERGY INC","co":"Johnson","st":"WY","trs":"T50N R77W S17","fm":null,"eur":null,"perft":null,"sound":false,"fit":"none","geur":null,"gfit":"none"}},{"type":"Feature","geometry":{"type":"Point","coordinates":[-106.14816,44.26861]},"properties":{"api":"4901921652","name":"PVU 31-32-5077","op":"CARBON CREEK ENERGY LLC","co":"Johnson","st":"WY","trs":"T50N R77W S32","fm":null,"eur":null,"perft":null,"sound":false,"fit":"none","geur":null,"gfit":"none"}},{"type":"Feature","geometry":{"type":"Point","coordinates":[-106.13302,44.29429]},"properties":{"api":"4901924170","name":"PVU 22-21-5077BG","op":"ANADARKO E&P ONSHORE LLC","co":"Johnson","st":"WY","trs":"T50N R77W S21","fm":null,"eur":null,"perft":null,"sound":false,"fit":"none","geur":null,"gfit":"none"}},{"type":"Feature","geometry":{"type":"Point","coordinates":[-106.05896,44.25731]},"properties":{"api":"4901920799","name":"BELMONT 82-373 36-1","op":"IREX OPERATING COMPANY","co":"Johnson","st":"WY","trs":"T50N R77W S36","fm":null,"eur":null,"perft":null,"sound":false,"fit":"none","geur":null,"gfit":"none"}}]}