{"type":"FeatureCollection","features":[{"type":"Feature","geometry":{"type":"Point","coordinates":[-106.25694,44.26089]},"properties":{"api":"4901921088","name":"SKYWARD CS DEEP FED 1","op":"EOG RESOURCES INC","co":"Johnson","st":"WY","trs":"T50N R78W S33","fm":null,"eur":null,"perft":null,"sound":false,"fit":"none","geur":null,"gfit":"refused"}},{"type":"Feature","geometry":{"type":"Point","coordinates":[-106.26686,44.26117]},"properties":{"api":"4901921089","name":"FLYING CS DEEP FED 1","op":"EOG RESOURCES INC","co":"Johnson","st":"WY","trs":"T50N R78W S32","fm":null,"eur":null,"perft":null,"sound":false,"fit":"none","geur":812358,"gfit":"sound"}},{"type":"Feature","geometry":{"type":"Point","coordinates":[-106.18547,44.25831]},"properties":{"api":"4901921093","name":"DRY CREEK CS STATE 1","op":"EOG RESOURCES INC","co":"Johnson","st":"WY","trs":"T50N R78W S36","fm":null,"eur":null,"perft":null,"sound":false,"fit":"none","geur":1520923,"gfit":"sound"}},{"type":"Feature","geometry":{"type":"Point","coordinates":[-106.24702,44.30537]},"properties":{"api":"4901921642","name":"COAL GULCH CS STATE 10","op":"EOG RESOURCES INC","co":"Johnson","st":"WY","trs":"T50N R78W S16","fm":null,"eur":null,"perft":null,"sound":false,"fit":"none","geur":null,"gfit":"refused"}},{"type":"Feature","geometry":{"type":"Point","coordinates":[-106.18167,44.26944]},"properties":{"api":"4901922071","name":"DRY CREEK CS STATE 2","op":"EOG RESOURCES INC","co":"Johnson","st":"WY","trs":"T50N R78W S36","fm":null,"eur":null,"perft":null,"sound":false,"fit":"none","geur":null,"gfit":"refused"}},{"type":"Feature","geometry":{"type":"Point","coordinates":[-106.19083,44.26944]},"properties":{"api":"4901922072","name":"DRY CREEK  CS STATE 3","op":"EOG RESOURCES INC","co":"Johnson","st":"WY","trs":"T50N R78W S36","fm":null,"eur":null,"perft":null,"sound":false,"fit":"none","geur":771217,"gfit":"sound"}},{"type":"Feature","geometry":{"type":"Point","coordinates":[-106.18667,44.26528]},"properties":{"api":"4901922073","name":"DRY CREEK CS STATE 5","op":"EOG RESOURCES INC","co":"Johnson","st":"WY","trs":"T50N R78W S36","fm":null,"eur":null,"perft":null,"sound":false,"fit":"none","geur":null,"gfit":"refused"}},{"type":"Feature","geometry":{"type":"Point","coordinates":[-106.18139,44.26194]},"properties":{"api":"4901922074","name":"DRY CREEK CS STATE 6","op":"EOG RESOURCES INC","co":"Johnson","st":"WY","trs":"T50N R78W S36","fm":null,"eur":null,"perft":null,"sound":false,"fit":"none","geur":null,"gfit":"refused"}},{"type":"Feature","geometry":{"type":"Point","coordinates":[-106.19083,44.26222]},"properties":{"api":"4901922075","name":"DRY CREEK CS STATE 7","op":"EOG RESOURCES INC","co":"Johnson","st":"WY","trs":"T50N R78W S36","fm":null,"eur":null,"perft":null,"sound":false,"fit":"none","geur":null,"gfit":"refused"}},{"type":"Feature","geometry":{"type":"Point","coordinates":[-106.19611,44.25833]},"properties":{"api":"4901922076","name":"DRY CREEK CS STATE 8","op":"EOG RESOURCES INC","co":"Johnson","st":"WY","trs":"T50N R78W S36","fm":null,"eur":null,"perft":null,"sound":false,"fit":"none","geur":null,"gfit":"refused"}},{"type":"Feature","geometry":{"type":"Point","coordinates":[-106.19611,44.26556]},"properties":{"api":"4901922077","name":"DRY CREEK CS STATE 4","op":"EOG RESOURCES INC","co":"Johnson","st":"WY","trs":"T50N R78W S36","fm":null,"eur":null,"perft":null,"sound":false,"fit":"none","geur":null,"gfit":"refused"}},{"type":"Feature","geometry":{"type":"Point","coordinates":[-106.18611,44.28417]},"properties":{"api":"4901922845","name":"PVU 31-25-5078","op":"CARBON CREEK ENERGY LLC","co":"Johnson","st":"WY","trs":"T50N R78W S25","fm":null,"eur":null,"perft":null,"sound":false,"fit":"none","geur":null,"gfit":"refused"}},{"type":"Feature","geometry":{"type":"Point","coordinates":[-106.18278,44.28111]},"properties":{"api":"4901922846","name":"PVU 42-25-5078","op":"CARBON CREEK ENERGY LLC","co":"Johnson","st":"WY","trs":"T50N R78W S25","fm":null,"eur":null,"perft":null,"sound":false,"fit":"none","geur":null,"gfit":"refused"}},{"type":"Feature","geometry":{"type":"Point","coordinates":[-106.185,44.27639]},"properties":{"api":"4901923011","name":"PVU FED 33-25-5078","op":"CARBON CREEK ENERGY LLC","co":"Johnson","st":"WY","trs":"T50N R78W S25","fm":null,"eur":null,"perft":null,"sound":false,"fit":"none","geur":null,"gfit":"refused"}},{"type":"Feature","geometry":{"type":"Point","coordinates":[-106.1925,44.27944]},"properties":{"api":"4901923029","name":"PVU FED 22-25-5078","op":"CARBON CREEK ENERGY LLC","co":"Johnson","st":"WY","trs":"T50N R78W S25","fm":null,"eur":null,"perft":null,"sound":false,"fit":"none","geur":null,"gfit":"refused"}},{"type":"Feature","geometry":{"type":"Point","coordinates":[-106.19278,44.27417]},"properties":{"api":"4901923030","name":"PVU FED 24-25-5078","op":"CARBON CREEK ENERGY LLC","co":"Johnson","st":"WY","trs":"T50N R78W S25","fm":null,"eur":null,"perft":null,"sound":false,"fit":"none","geur":null,"gfit":"refused"}},{"type":"Feature","geometry":{"type":"Point","coordinates":[-106.29705,44.26435]},"properties":{"api":"4901923220","name":"STRANAHAN 12-31-5078BG","op":"CARBON CREEK ENERGY LLC","co":"Johnson","st":"WY","trs":"T50N R78W S31","fm":null,"eur":null,"perft":null,"sound":false,"fit":"none","geur":null,"gfit":"refused"}},{"type":"Feature","geometry":{"type":"Point","coordinates":[-106.29112,44.268]},"properties":{"api":"4901923221","name":"STRANAHAN 21-31-5078BG","op":"CARBON CREEK ENERGY LLC","co":"Johnson","st":"WY","trs":"T50N R78W S31","fm":null,"eur":null,"perft":null,"sound":false,"fit":"none","geur":null,"gfit":"refused"}},{"type":"Feature","geometry":{"type":"Point","coordinates":[-106.28593,44.26509]},"properties":{"api":"4901923222","name":"STRANAHAN 32-31-5078BG","op":"CARBON CREEK ENERGY LLC","co":"Johnson","st":"WY","trs":"T50N R78W S31","fm":null,"eur":null,"perft":null,"sound":false,"fit":"none","geur":null,"gfit":"refused"}},{"type":"Feature","geometry":{"type":"Point","coordinates":[-106.28283,44.26744]},"properties":{"api":"4901923223","name":"STRANAHAN 41-31-5078BG","op":"CARBON CREEK ENERGY LLC","co":"Johnson","st":"WY","trs":"T50N R78W S31","fm":null,"eur":null,"perft":null,"sound":false,"fit":"none","geur":null,"gfit":"refused"}},{"type":"Feature","geometry":{"type":"Point","coordinates":[-106.26597,44.3302]},"properties":{"api":"4901923607","name":"CRAZY WOMAN FED 3405-5078","op":"CARBON CREEK ENERGY LLC","co":"Johnson","st":"WY","trs":"T50N R78W S5","fm":null,"eur":null,"perft":null,"sound":false,"fit":"none","geur":null,"gfit":"refused"}},{"type":"Feature","geometry":{"type":"Point","coordinates":[-106.29688,44.32984]},"properties":{"api":"4901923608","name":"CRAZY WOMAN FED 1406-5078","op":"CARBON CREEK ENERGY LLC","co":"Johnson","st":"WY","trs":"T50N R78W S6","fm":null,"eur":null,"perft":null,"sound":false,"fit":"none","geur":null,"gfit":"refused"}},{"type":"Feature","geometry":{"type":"Point","coordinates":[-106.28686,44.33056]},"properties":{"api":"4901923609","name":"CRAZY WOMAN FED 3406-5078","op":"CARBON CREEK ENERGY LLC","co":"Johnson","st":"WY","trs":"T50N R78W S6","fm":null,"eur":null,"perft":null,"sound":false,"fit":"none","geur":null,"gfit":"refused"}},{"type":"Feature","geometry":{"type":"Point","coordinates":[-106.29584,44.31597]},"properties":{"api":"4901923610","name":"CRAZY WOMAN FED 1407-5078","op":"CARBON CREEK ENERGY LLC","co":"Johnson","st":"WY","trs":"T50N R78W S7","fm":null,"eur":null,"perft":null,"sound":false,"fit":"none","geur":null,"gfit":"refused"}},{"type":"Feature","geometry":{"type":"Point","coordinates":[-106.28661,44.3162]},"properties":{"api":"4901923611","name":"CRAZY WOMAN FED 3407-5078","op":"CARBON CREEK ENERGY LLC","co":"Johnson","st":"WY","trs":"T50N R78W S7","fm":null,"eur":null,"perft":null,"sound":false,"fit":"none","geur":null,"gfit":"refused"}},{"type":"Feature","geometry":{"type":"Point","coordinates":[-106.29072,44.32702]},"properties":{"api":"4901923612","name":"CRAZY WOMAN FED 2107-5078","op":"CARBON CREEK ENERGY LLC","co":"Johnson","st":"WY","trs":"T50N R78W S7","fm":null,"eur":null,"perft":null,"sound":false,"fit":"none","geur":null,"gfit":"refused"}},{"type":"Feature","geometry":{"type":"Point","coordinates":[-106.29204,44.31893]},"properties":{"api":"4901923613","name":"CRAZY WOMAN FED 2307-5078","op":"CARBON CREEK ENERGY LLC","co":"Johnson","st":"WY","trs":"T50N R78W S7","fm":null,"eur":null,"perft":null,"sound":false,"fit":"none","geur":1841824,"gfit":"sound"}},{"type":"Feature","geometry":{"type":"Point","coordinates":[-106.28619,44.32286]},"properties":{"api":"4901923614","name":"CRAZY WOMAN FED 3207-5078","op":"CARBON CREEK ENERGY LLC","co":"Johnson","st":"WY","trs":"T50N R78W S7","fm":null,"eur":null,"perft":null,"sound":false,"fit":"none","geur":null,"gfit":"refused"}},{"type":"Feature","geometry":{"type":"Point","coordinates":[-106.28161,44.32658]},"properties":{"api":"4901923616","name":"CRAZY WOMAN FED 4107-5078","op":"CARBON CREEK ENERGY LLC","co":"Johnson","st":"WY","trs":"T50N R78W S7","fm":null,"eur":null,"perft":null,"sound":false,"fit":"none","geur":null,"gfit":"refused"}},{"type":"Feature","geometry":{"type":"Point","coordinates":[-106.28227,44.31884]},"properties":{"api":"4901923617","name":"CRAZY WOMAN FED 4307-5078","op":"CARBON CREEK ENERGY LLC","co":"Johnson","st":"WY","trs":"T50N R78W S7","fm":null,"eur":null,"perft":null,"sound":false,"fit":"none","geur":null,"gfit":"refused"}},{"type":"Feature","geometry":{"type":"Point","coordinates":[-106.277,44.32352]},"properties":{"api":"4901923618","name":"CRAZY WOMAN FED 1208-5078","op":"CARBON CREEK ENERGY LLC","co":"Johnson","st":"WY","trs":"T50N R78W S8","fm":null,"eur":null,"perft":null,"sound":false,"fit":"none","geur":null,"gfit":"refused"}},{"type":"Feature","geometry":{"type":"Point","coordinates":[-106.27584,44.31595]},"properties":{"api":"4901923619","name":"CRAZY WOMAN FED 1408-5078","op":"CARBON CREEK ENERGY LLC","co":"Johnson","st":"WY","trs":"T50N R78W S8","fm":null,"eur":null,"perft":null,"sound":false,"fit":"none","geur":null,"gfit":"refused"}},{"type":"Feature","geometry":{"type":"Point","coordinates":[-106.27114,44.32638]},"properties":{"api":"4901923620","name":"CRAZY WOMAN FED 2108-5078","op":"CARBON CREEK ENERGY LLC","co":"Johnson","st":"WY","trs":"T50N R78W S8","fm":null,"eur":null,"perft":null,"sound":false,"fit":"none","geur":null,"gfit":"refused"}},{"type":"Feature","geometry":{"type":"Point","coordinates":[-106.27203,44.31949]},"properties":{"api":"4901923621","name":"CRAZY WOMAN FED 2308-5078","op":"CARBON CREEK ENERGY LLC","co":"Johnson","st":"WY","trs":"T50N R78W S8","fm":null,"eur":null,"perft":null,"sound":false,"fit":"none","geur":null,"gfit":"refused"}},{"type":"Feature","geometry":{"type":"Point","coordinates":[-106.2663,44.32296]},"properties":{"api":"4901923622","name":"CRAZY WOMAN FED 3208-5078","op":"CARBON CREEK ENERGY LLC","co":"Johnson","st":"WY","trs":"T50N R78W S8","fm":null,"eur":null,"perft":null,"sound":false,"fit":"none","geur":null,"gfit":"refused"}},{"type":"Feature","geometry":{"type":"Point","coordinates":[-106.26639,44.3155]},"properties":{"api":"4901923623","name":"CRAZY WOMAN FED 3408-5078","op":"CARBON CREEK ENERGY LLC","co":"Johnson","st":"WY","trs":"T50N R78W S8","fm":null,"eur":null,"perft":null,"sound":false,"fit":"none","geur":null,"gfit":"refused"}},{"type":"Feature","geometry":{"type":"Point","coordinates":[-106.26163,44.31927]},"properties":{"api":"4901923624","name":"CRAZY WOMAN FED 4308-5078","op":"CARBON CREEK ENERGY LLC","co":"Johnson","st":"WY","trs":"T50N R78W S8","fm":null,"eur":null,"perft":null,"sound":false,"fit":"none","geur":null,"gfit":"refused"}},{"type":"Feature","geometry":{"type":"Point","coordinates":[-106.27641,44.30839]},"properties":{"api":"4901923625","name":"CRAZY WOMAN FED 1217-5078","op":"CARBON CREEK ENERGY LLC","co":"Johnson","st":"WY","trs":"T50N R78W S17","fm":null,"eur":null,"perft":null,"sound":false,"fit":"none","geur":null,"gfit":"refused"}},{"type":"Feature","geometry":{"type":"Point","coordinates":[-106.27178,44.31257]},"properties":{"api":"4901923626","name":"CRAZY WOMAN FED 2117-5078","op":"CARBON CREEK ENERGY LLC","co":"Johnson","st":"WY","trs":"T50N R78W S17","fm":null,"eur":null,"perft":null,"sound":false,"fit":"none","geur":null,"gfit":"refused"}},{"type":"Feature","geometry":{"type":"Point","coordinates":[-106.27093,44.30448]},"properties":{"api":"4901923627","name":"CRAZY WOMAN FED 2317-5078","op":"CARBON CREEK ENERGY LLC","co":"Johnson","st":"WY","trs":"T50N R78W S17","fm":null,"eur":null,"perft":null,"sound":false,"fit":"none","geur":null,"gfit":"refused"}},{"type":"Feature","geometry":{"type":"Point","coordinates":[-106.26633,44.30824]},"properties":{"api":"4901923628","name":"CRAZY WOMAN FED 3217-5078","op":"CARBON CREEK ENERGY LLC","co":"Johnson","st":"WY","trs":"T50N R78W S17","fm":null,"eur":null,"perft":null,"sound":false,"fit":"none","geur":null,"gfit":"refused"}},{"type":"Feature","geometry":{"type":"Point","coordinates":[-106.29128,44.30494]},"properties":{"api":"4901923629","name":"CRAZY WOMAN FED 2318-5078","op":"CARBON CREEK ENERGY LLC","co":"Johnson","st":"WY","trs":"T50N R78W S18","fm":null,"eur":null,"perft":null,"sound":false,"fit":"none","geur":null,"gfit":"refused"}},{"type":"Feature","geometry":{"type":"Point","coordinates":[-106.26176,44.31178]},"properties":{"api":"4901923630","name":"CRAZY WOMAN FED 4117-5078","op":"CARBON CREEK ENERGY LLC","co":"Johnson","st":"WY","trs":"T50N R78W S17","fm":null,"eur":null,"perft":null,"sound":false,"fit":"none","geur":835039,"gfit":"sound"}},{"type":"Feature","geometry":{"type":"Point","coordinates":[-106.28117,44.30485]},"properties":{"api":"4901923631","name":"CRAZY WOMAN FED 4318-5078","op":"CARBON CREEK ENERGY LLC","co":"Johnson","st":"WY","trs":"T50N R78W S18","fm":null,"eur":null,"perft":null,"sound":false,"fit":"none","geur":null,"gfit":"refused"}},{"type":"Feature","geometry":{"type":"Point","coordinates":[-106.29606,44.30153]},"properties":{"api":"4901923632","name":"CRAZY WOMAN FED 1418-5078","op":"CARBON CREEK ENERGY LLC","co":"Johnson","st":"WY","trs":"T50N R78W S18","fm":null,"eur":null,"perft":null,"sound":false,"fit":"none","geur":null,"gfit":"refused"}},{"type":"Feature","geometry":{"type":"Point","coordinates":[-106.26202,44.30486]},"properties":{"api":"4901923633","name":"CRAZY WOMAN FED 4317-5078","op":"CARBON CREEK ENERGY LLC","co":"Johnson","st":"WY","trs":"T50N R78W S17","fm":null,"eur":null,"perft":null,"sound":false,"fit":"none","geur":null,"gfit":"refused"}},{"type":"Feature","geometry":{"type":"Point","coordinates":[-106.27475,44.33011]},"properties":{"api":"4901923634","name":"CRAZY WOMAN FED 1405-5078","op":"CARBON CREEK ENERGY LLC","co":"Johnson","st":"WY","trs":"T50N R78W S5","fm":null,"eur":null,"perft":null,"sound":false,"fit":"none","geur":null,"gfit":"refused"}},{"type":"Feature","geometry":{"type":"Point","coordinates":[-106.29421,44.32468]},"properties":{"api":"4901923635","name":"CRAZY WOMAN FED 1207-5078","op":"CARBON CREEK ENERGY LLC","co":"Johnson","st":"WY","trs":"T50N R78W S7","fm":null,"eur":null,"perft":null,"sound":false,"fit":"none","geur":null,"gfit":"refused"}},{"type":"Feature","geometry":{"type":"Point","coordinates":[-106.27778,44.30092]},"properties":{"api":"4901923636","name":"CRAZY WOMAN FED 1417-5078","op":"CARBON CREEK ENERGY LLC","co":"Johnson","st":"WY","trs":"T50N R78W S17","fm":null,"eur":null,"perft":null,"sound":false,"fit":"none","geur":null,"gfit":"refused"}},{"type":"Feature","geometry":{"type":"Point","coordinates":[-106.26582,44.30118]},"properties":{"api":"4901923637","name":"CRAZY WOMAN FED 3417-5078","op":"CARBON CREEK ENERGY LLC","co":"Johnson","st":"WY","trs":"T50N R78W S17","fm":null,"eur":null,"perft":null,"sound":false,"fit":"none","geur":null,"gfit":"refused"}},{"type":"Feature","geometry":{"type":"Point","coordinates":[-106.28532,44.30159]},"properties":{"api":"4901923638","name":"CRAZY WOMAN FED 3418-5078","op":"CARBON CREEK ENERGY LLC","co":"Johnson","st":"WY","trs":"T50N R78W S18","fm":null,"eur":null,"perft":null,"sound":false,"fit":"none","geur":null,"gfit":"refused"}},{"type":"Feature","geometry":{"type":"Point","coordinates":[-106.1825,44.27222]},"properties":{"api":"4901924227","name":"PVU FED 44-25-5078","op":"CARBON CREEK ENERGY LLC","co":"Johnson","st":"WY","trs":"T50N R78W S25","fm":null,"eur":null,"perft":null,"sound":false,"fit":"none","geur":null,"gfit":"refused"}},{"type":"Feature","geometry":{"type":"Point","coordinates":[-106.19544,44.28697]},"properties":{"api":"4901924973","name":"ARNDT FEDERAL 14-24-5078WR","op":"CARBON CREEK ENERGY LLC","co":"Johnson","st":"WY","trs":"T50N R78W S24","fm":null,"eur":null,"perft":null,"sound":false,"fit":"none","geur":null,"gfit":"refused"}},{"type":"Feature","geometry":{"type":"Point","coordinates":[-106.19147,44.28947]},"properties":{"api":"4901924974","name":"FEDERAL 23-24-5078WR","op":"CARBON CREEK ENERGY LLC","co":"Johnson","st":"WY","trs":"T50N R78W S24","fm":null,"eur":null,"perft":null,"sound":false,"fit":"none","geur":null,"gfit":"refused"}},{"type":"Feature","geometry":{"type":"Point","coordinates":[-106.18696,44.28653]},"properties":{"api":"4901924975","name":"ARNDT FEDERAL 34-24-5078WR","op":"CARBON CREEK ENERGY LLC","co":"Johnson","st":"WY","trs":"T50N R78W S24","fm":null,"eur":null,"perft":null,"sound":false,"fit":"none","geur":null,"gfit":"refused"}},{"type":"Feature","geometry":{"type":"Point","coordinates":[-106.25685,44.30068]},"properties":{"api":"4901925000","name":"COAL GULCH CS STATE 6","op":"EOG RESOURCES INC","co":"Johnson","st":"WY","trs":"T50N R78W S16","fm":null,"eur":null,"perft":null,"sound":false,"fit":"none","geur":null,"gfit":"refused"}},{"type":"Feature","geometry":{"type":"Point","coordinates":[-106.24145,44.31193]},"properties":{"api":"4901925001","name":"COAL GULCH CS STATE 1","op":"EOG RESOURCES INC","co":"Johnson","st":"WY","trs":"T50N R78W S16","fm":null,"eur":null,"perft":null,"sound":false,"fit":"none","geur":null,"gfit":"refused"}},{"type":"Feature","geometry":{"type":"Point","coordinates":[-106.25071,44.31241]},"properties":{"api":"4901925002","name":"COAL GULCH CS STATE 2","op":"EOG RESOURCES INC","co":"Johnson","st":"WY","trs":"T50N R78W S16","fm":null,"eur":null,"perft":null,"sound":false,"fit":"none","geur":null,"gfit":"refused"}},{"type":"Feature","geometry":{"type":"Point","coordinates":[-106.25165,44.30359]},"properties":{"api":"4901925003","name":"COAL GULCH CS STATE 5","op":"EOG RESOURCES INC","co":"Johnson","st":"WY","trs":"T50N R78W S16","fm":null,"eur":null,"perft":null,"sound":false,"fit":"none","geur":null,"gfit":"refused"}},{"type":"Feature","geometry":{"type":"Point","coordinates":[-106.24584,44.30899]},"properties":{"api":"4901925004","name":"COAL GULCH CS STATE 4","op":"EOG RESOURCES INC","co":"Johnson","st":"WY","trs":"T50N R78W S16","fm":null,"eur":null,"perft":null,"sound":false,"fit":"none","geur":null,"gfit":"refused"}},{"type":"Feature","geometry":{"type":"Point","coordinates":[-106.2556,44.30831]},"properties":{"api":"4901925005","name":"COAL GULCH CS STATE 3","op":"EOG RESOURCES INC","co":"Johnson","st":"WY","trs":"T50N R78W S16","fm":null,"eur":null,"perft":null,"sound":false,"fit":"none","geur":null,"gfit":"refused"}},{"type":"Feature","geometry":{"type":"Point","coordinates":[-106.24159,44.30135]},"properties":{"api":"4901925006","name":"COAL GULCH CS STATE 8","op":"EOG RESOURCES INC","co":"Johnson","st":"WY","trs":"T50N R78W S16","fm":null,"eur":null,"perft":null,"sound":false,"fit":"none","geur":null,"gfit":"refused"}},{"type":"Feature","geometry":{"type":"Point","coordinates":[-106.18004,44.31618]},"properties":{"api":"4901925183","name":"PVU FED 44-12-5078WR","op":"CARBON CREEK ENERGY LLC","co":"Johnson","st":"WY","trs":"T50N R78W S12","fm":null,"eur":null,"perft":null,"sound":false,"fit":"none","geur":null,"gfit":"refused"}},{"type":"Feature","geometry":{"type":"Point","coordinates":[-106.25628,44.33013]},"properties":{"api":"4901925329","name":"CGU 14-4-5078BG","op":"CARBON CREEK ENERGY LLC","co":"Johnson","st":"WY","trs":"T50N R78W S4","fm":null,"eur":null,"perft":null,"sound":false,"fit":"none","geur":null,"gfit":"refused"}},{"type":"Feature","geometry":{"type":"Point","coordinates":[-106.28526,44.338]},"properties":{"api":"4901925940","name":"CGU FED 32-6-5078BG","op":"CARBON CREEK ENERGY LLC","co":"Johnson","st":"WY","trs":"T50N R78W S6","fm":null,"eur":null,"perft":null,"sound":false,"fit":"none","geur":null,"gfit":"refused"}},{"type":"Feature","geometry":{"type":"Point","coordinates":[-106.2569,44.33807]},"properties":{"api":"4901925941","name":"CGU FED 12-4-5078BG","op":"CARBON CREEK ENERGY LLC","co":"Johnson","st":"WY","trs":"T50N R78W S4","fm":null,"eur":null,"perft":null,"sound":false,"fit":"none","geur":null,"gfit":"refused"}},{"type":"Feature","geometry":{"type":"Point","coordinates":[-106.24928,44.34052]},"properties":{"api":"4901925943","name":"CGU FED 21-4-5078BG","op":"CARBON CREEK ENERGY LLC","co":"Johnson","st":"WY","trs":"T50N R78W S4","fm":null,"eur":null,"perft":null,"sound":false,"fit":"none","geur":436301,"gfit":"sound"}},{"type":"Feature","geometry":{"type":"Point","coordinates":[-106.29468,44.33581]},"properties":{"api":"4901925944","name":"CGU FED 12-6-5078BG","op":"CARBON CREEK ENERGY LLC","co":"Johnson","st":"WY","trs":"T50N R78W S6","fm":null,"eur":null,"perft":null,"sound":false,"fit":"none","geur":null,"gfit":"refused"}},{"type":"Feature","geometry":{"type":"Point","coordinates":[-106.2715,44.34142]},"properties":{"api":"4901925947","name":"CGU FED 21-5-5078BG","op":"CARBON CREEK ENERGY LLC","co":"Johnson","st":"WY","trs":"T50N R78W S5","fm":null,"eur":null,"perft":null,"sound":false,"fit":"none","geur":null,"gfit":"refused"}},{"type":"Feature","geometry":{"type":"Point","coordinates":[-106.2676,44.33681]},"properties":{"api":"4901925949","name":"CGU FED 32-5-5078BG","op":"CARBON CREEK ENERGY LLC","co":"Johnson","st":"WY","trs":"T50N R78W S5","fm":null,"eur":null,"perft":null,"sound":false,"fit":"none","geur":null,"gfit":"refused"}},{"type":"Feature","geometry":{"type":"Point","coordinates":[-106.26142,44.33383]},"properties":{"api":"4901925951","name":"CGU FED 43-5-5078BG","op":"CARBON CREEK ENERGY LLC","co":"Johnson","st":"WY","trs":"T50N R78W S5","fm":null,"eur":null,"perft":null,"sound":false,"fit":"none","geur":null,"gfit":"refused"}},{"type":"Feature","geometry":{"type":"Point","coordinates":[-106.28243,44.34247]},"properties":{"api":"4901925954","name":"CGU FED 41-6-5078BG","op":"CARBON CREEK ENERGY LLC","co":"Johnson","st":"WY","trs":"T50N R78W S6","fm":null,"eur":null,"perft":null,"sound":false,"fit":"none","geur":null,"gfit":"refused"}},{"type":"Feature","geometry":{"type":"Point","coordinates":[-106.2503,44.31917]},"properties":{"api":"4901925957","name":"CGU FED 23-9-5078BG","op":"CARBON CREEK ENERGY LLC","co":"Johnson","st":"WY","trs":"T50N R78W S9","fm":null,"eur":null,"perft":null,"sound":false,"fit":"none","geur":701074,"gfit":"sound"}},{"type":"Feature","geometry":{"type":"Point","coordinates":[-106.28328,44.31182]},"properties":{"api":"4901926168","name":"BEAR DRAW UNIT 41-18-5078BG","op":"CARBON CREEK ENERGY LLC","co":"Johnson","st":"WY","trs":"T50N R78W S18","fm":null,"eur":null,"perft":null,"sound":false,"fit":"none","geur":null,"gfit":"refused"}},{"type":"Feature","geometry":{"type":"Point","coordinates":[-106.28728,44.30796]},"properties":{"api":"4901926170","name":"BEAR DRAW UNIT 32-18-5078BG","op":"CARBON CREEK ENERGY LLC","co":"Johnson","st":"WY","trs":"T50N R78W S18","fm":null,"eur":null,"perft":null,"sound":false,"fit":"none","geur":707709,"gfit":"sound"}},{"type":"Feature","geometry":{"type":"Point","coordinates":[-106.29164,44.3118]},"properties":{"api":"4901926171","name":"BEAR DRAW UNIT 21-18-5078BG","op":"CARBON CREEK ENERGY LLC","co":"Johnson","st":"WY","trs":"T50N R78W S18","fm":null,"eur":null,"perft":null,"sound":false,"fit":"none","geur":null,"gfit":"refused"}},{"type":"Feature","geometry":{"type":"Point","coordinates":[-106.29598,44.30905]},"properties":{"api":"4901926172","name":"BEAR DRAW UNIT 12-18-5078BG","op":"CARBON CREEK ENERGY LLC","co":"Johnson","st":"WY","trs":"T50N R78W S18","fm":null,"eur":null,"perft":null,"sound":false,"fit":"none","geur":null,"gfit":"refused"}},{"type":"Feature","geometry":{"type":"Point","coordinates":[-106.28312,44.3334]},"properties":{"api":"4901926753","name":"CGU FED 43-6-5078BG","op":"CARBON CREEK ENERGY LLC","co":"Johnson","st":"WY","trs":"T50N R78W S6","fm":null,"eur":null,"perft":null,"sound":false,"fit":"none","geur":null,"gfit":"refused"}},{"type":"Feature","geometry":{"type":"Point","coordinates":[-106.25675,44.3426]},"properties":{"api":"4901926827","name":"CGU FED 11-4-5078BG","op":"CARBON CREEK ENERGY LLC","co":"Johnson","st":"WY","trs":"T50N R78W S4","fm":null,"eur":null,"perft":null,"sound":false,"fit":"none","geur":null,"gfit":"refused"}},{"type":"Feature","geometry":{"type":"Point","coordinates":[-106.27745,44.33969]},"properties":{"api":"4901927685","name":"CGU FED 11-5-5078BG","op":"CARBON CREEK ENERGY LLC","co":"Johnson","st":"WY","trs":"T50N R78W S5","fm":null,"eur":null,"perft":null,"sound":false,"fit":"none","geur":null,"gfit":"refused"}},{"type":"Feature","geometry":{"type":"Point","coordinates":[-106.27177,44.26102]},"properties":{"api":"4901927691","name":"FLYING CS FEDERAL 20","op":"EOG RESOURCES INC","co":"Johnson","st":"WY","trs":"T50N R78W S32","fm":null,"eur":null,"perft":null,"sound":false,"fit":"none","geur":null,"gfit":"refused"}},{"type":"Feature","geometry":{"type":"Point","coordinates":[-106.27676,44.25729]},"properties":{"api":"4901927692","name":"FLYING CS FEDERAL 21","op":"EOG RESOURCES INC","co":"Johnson","st":"WY","trs":"T50N R78W S32","fm":null,"eur":null,"perft":null,"sound":false,"fit":"none","geur":null,"gfit":"refused"}},{"type":"Feature","geometry":{"type":"Point","coordinates":[-106.22667,44.27205]},"properties":{"api":"4901927694","name":"FLYING CS FEDERAL 7","op":"EOG RESOURCES INC","co":"Johnson","st":"WY","trs":"T50N R78W S27","fm":null,"eur":null,"perft":null,"sound":false,"fit":"none","geur":null,"gfit":"refused"}},{"type":"Feature","geometry":{"type":"Point","coordinates":[-106.24038,44.28345]},"properties":{"api":"4901927695","name":"FLYING CS FEDERAL 8","op":"EOG RESOURCES INC","co":"Johnson","st":"WY","trs":"T50N R78W S28","fm":null,"eur":null,"perft":null,"sound":false,"fit":"none","geur":null,"gfit":"refused"}},{"type":"Feature","geometry":{"type":"Point","coordinates":[-106.25602,44.27952]},"properties":{"api":"4901927696","name":"FLYING CS FEDERAL 10","op":"EOG RESOURCES INC","co":"Johnson","st":"WY","trs":"T50N R78W S28","fm":null,"eur":null,"perft":null,"sound":false,"fit":"none","geur":null,"gfit":"refused"}},{"type":"Feature","geometry":{"type":"Point","coordinates":[-106.24547,44.27942]},"properties":{"api":"4901927697","name":"FLYING CS FEDERAL 11","op":"EOG RESOURCES INC","co":"Johnson","st":"WY","trs":"T50N R78W S28","fm":null,"eur":null,"perft":null,"sound":false,"fit":"none","geur":null,"gfit":"refused"}},{"type":"Feature","geometry":{"type":"Point","coordinates":[-106.24151,44.27585]},"properties":{"api":"4901927698","name":"FLYING CS FEDERAL 12","op":"EOG RESOURCES INC","co":"Johnson","st":"WY","trs":"T50N R78W S28","fm":null,"eur":null,"perft":null,"sound":false,"fit":"none","geur":null,"gfit":"refused"}},{"type":"Feature","geometry":{"type":"Point","coordinates":[-106.27128,44.26794]},"properties":{"api":"4901927699","name":"FLYING CS FEDERAL 17","op":"EOG RESOURCES INC","co":"Johnson","st":"WY","trs":"T50N R78W S32","fm":null,"eur":null,"perft":null,"sound":false,"fit":"none","geur":null,"gfit":"refused"}},{"type":"Feature","geometry":{"type":"Point","coordinates":[-106.27586,44.26474]},"properties":{"api":"4901927700","name":"FLYING CS FEDERAL 18","op":"EOG RESOURCES INC","co":"Johnson","st":"WY","trs":"T50N R78W S32","fm":null,"eur":null,"perft":null,"sound":false,"fit":"none","geur":null,"gfit":"refused"}},{"type":"Feature","geometry":{"type":"Point","coordinates":[-106.26653,44.26478]},"properties":{"api":"4901927701","name":"FLYING CS FEDERAL 19","op":"EOG RESOURCES INC","co":"Johnson","st":"WY","trs":"T50N R78W S32","fm":null,"eur":null,"perft":null,"sound":false,"fit":"none","geur":null,"gfit":"refused"}},{"type":"Feature","geometry":{"type":"Point","coordinates":[-106.27182,44.27551]},"properties":{"api":"4901927713","name":"SKYWARD CS FEDERAL 8","op":"EOG RESOURCES INC","co":"Johnson","st":"WY","trs":"T50N R78W S29","fm":null,"eur":null,"perft":null,"sound":false,"fit":"none","geur":null,"gfit":"refused"}},{"type":"Feature","geometry":{"type":"Point","coordinates":[-106.27539,44.27188]},"properties":{"api":"4901927714","name":"SKYWARD CS FEDERAL 9","op":"EOG RESOURCES INC","co":"Johnson","st":"WY","trs":"T50N R78W S29","fm":null,"eur":null,"perft":null,"sound":false,"fit":"none","geur":null,"gfit":"refused"}},{"type":"Feature","geometry":{"type":"Point","coordinates":[-106.26563,44.27149]},"properties":{"api":"4901927715","name":"SKYWARD CS FEDERAL 10","op":"EOG RESOURCES INC","co":"Johnson","st":"WY","trs":"T50N R78W S29","fm":null,"eur":null,"perft":null,"sound":false,"fit":"none","geur":null,"gfit":"refused"}},{"type":"Feature","geometry":{"type":"Point","coordinates":[-106.24071,44.26885]},"properties":{"api":"4901927716","name":"SKYWARD CS FEDERAL 11","op":"EOG RESOURCES INC","co":"Johnson","st":"WY","trs":"T50N R78W S33","fm":null,"eur":null,"perft":null,"sound":false,"fit":"none","geur":1228562,"gfit":"sound"}},{"type":"Feature","geometry":{"type":"Point","coordinates":[-106.24587,44.26484]},"properties":{"api":"4901927717","name":"SKYWARD CS FEDERAL 12","op":"EOG RESOURCES INC","co":"Johnson","st":"WY","trs":"T50N R78W S33","fm":null,"eur":null,"perft":null,"sound":false,"fit":"none","geur":509878,"gfit":"sound"}},{"type":"Feature","geometry":{"type":"Point","coordinates":[-106.27029,44.29714]},"properties":{"api":"4901927721","name":"SKYWARD CS FED COM 2","op":"EOG RESOURCES INC","co":"Johnson","st":"WY","trs":"T50N R78W S20","fm":null,"eur":null,"perft":null,"sound":false,"fit":"none","geur":null,"gfit":"refused"}},{"type":"Feature","geometry":{"type":"Point","coordinates":[-106.26109,44.28279]},"properties":{"api":"4901927722","name":"SKYWARD CS FEDERAL 3","op":"EOG RESOURCES INC","co":"Johnson","st":"WY","trs":"T50N R78W S29","fm":null,"eur":null,"perft":null,"sound":false,"fit":"none","geur":null,"gfit":"refused"}},{"type":"Feature","geometry":{"type":"Point","coordinates":[-106.24504,44.27167]},"properties":{"api":"4901927725","name":"FLYING CS FEDERAL 15","op":"EOG RESOURCES INC","co":"Johnson","st":"WY","trs":"T50N R78W S28","fm":null,"eur":null,"perft":null,"sound":false,"fit":"none","geur":null,"gfit":"refused"}},{"type":"Feature","geometry":{"type":"Point","coordinates":[-106.23659,44.28302]},"properties":{"api":"4901927726","name":"FLYING CS FEDERAL 2","op":"EOG RESOURCES INC","co":"Johnson","st":"WY","trs":"T50N R78W S27","fm":null,"eur":null,"perft":null,"sound":false,"fit":"none","geur":null,"gfit":"refused"}},{"type":"Feature","geometry":{"type":"Point","coordinates":[-106.23414,44.2755]},"properties":{"api":"4901927728","name":"FLYING CS FEDERAL 5","op":"EOG RESOURCES INC","co":"Johnson","st":"WY","trs":"T50N R78W S27","fm":null,"eur":null,"perft":null,"sound":false,"fit":"none","geur":null,"gfit":"refused"}},{"type":"Feature","geometry":{"type":"Point","coordinates":[-106.23214,44.27209]},"properties":{"api":"4901927729","name":"FLYING CS FEDERAL 6","op":"EOG RESOURCES INC","co":"Johnson","st":"WY","trs":"T50N R78W S27","fm":null,"eur":null,"perft":null,"sound":false,"fit":"none","geur":null,"gfit":"refused"}},{"type":"Feature","geometry":{"type":"Point","coordinates":[-106.2498,44.28372]},"properties":{"api":"4901927730","name":"FLYING CS FEDERAL 9","op":"EOG RESOURCES INC","co":"Johnson","st":"WY","trs":"T50N R78W S28","fm":null,"eur":null,"perft":null,"sound":false,"fit":"none","geur":null,"gfit":"refused"}},{"type":"Feature","geometry":{"type":"Point","coordinates":[-106.25232,44.27504]},"properties":{"api":"4901927731","name":"FLYING CS FEDERAL 13","op":"EOG RESOURCES INC","co":"Johnson","st":"WY","trs":"T50N R78W S28","fm":null,"eur":null,"perft":null,"sound":false,"fit":"none","geur":null,"gfit":"refused"}},{"type":"Feature","geometry":{"type":"Point","coordinates":[-106.23166,44.27932]},"properties":{"api":"4901927733","name":"FLYING CS FEDERAL 3","op":"EOG RESOURCES INC","co":"Johnson","st":"WY","trs":"T50N R78W S27","fm":null,"eur":null,"perft":null,"sound":false,"fit":"none","geur":null,"gfit":"refused"}},{"type":"Feature","geometry":{"type":"Point","coordinates":[-106.26238,44.27572]},"properties":{"api":"4901927741","name":"SKYWARD CS FEDERAL 7","op":"EOG RESOURCES INC","co":"Johnson","st":"WY","trs":"T50N R78W S29","fm":null,"eur":null,"perft":null,"sound":false,"fit":"none","geur":null,"gfit":"refused"}},{"type":"Feature","geometry":{"type":"Point","coordinates":[-106.24571,44.26159]},"properties":{"api":"4901927742","name":"SKYWARD CS FEDERAL 13","op":"EOG RESOURCES INC","co":"Johnson","st":"WY","trs":"T50N R78W S33","fm":null,"eur":null,"perft":null,"sound":false,"fit":"none","geur":820174,"gfit":"sound"}},{"type":"Feature","geometry":{"type":"Point","coordinates":[-106.27588,44.28301]},"properties":{"api":"4901927743","name":"SKYWARD CS FEDERAL 4","op":"EOG RESOURCES INC","co":"Johnson","st":"WY","trs":"T50N R78W S29","fm":null,"eur":null,"perft":null,"sound":false,"fit":"none","geur":null,"gfit":"refused"}},{"type":"Feature","geometry":{"type":"Point","coordinates":[-106.27218,44.27927]},"properties":{"api":"4901927744","name":"SKYWARD CS FEDERAL 5","op":"EOG RESOURCES INC","co":"Johnson","st":"WY","trs":"T50N R78W S29","fm":null,"eur":null,"perft":null,"sound":false,"fit":"none","geur":null,"gfit":"refused"}},{"type":"Feature","geometry":{"type":"Point","coordinates":[-106.26677,44.28028]},"properties":{"api":"4901927745","name":"SKYWARD CS FEDERAL 6","op":"EOG RESOURCES INC","co":"Johnson","st":"WY","trs":"T50N R78W S29","fm":null,"eur":null,"perft":null,"sound":false,"fit":"none","geur":null,"gfit":"refused"}},{"type":"Feature","geometry":{"type":"Point","coordinates":[-106.25066,44.25794]},"properties":{"api":"4901927746","name":"SKYWARD CS FEDERAL 14","op":"EOG RESOURCES INC","co":"Johnson","st":"WY","trs":"T50N R78W S33","fm":null,"eur":null,"perft":null,"sound":false,"fit":"none","geur":null,"gfit":"refused"}},{"type":"Feature","geometry":{"type":"Point","coordinates":[-106.26246,44.26735]},"properties":{"api":"4901927747","name":"FLYING CS FEDERAL 16","op":"EOG RESOURCES INC","co":"Johnson","st":"WY","trs":"T50N R78W S32","fm":null,"eur":null,"perft":null,"sound":false,"fit":"none","geur":null,"gfit":"refused"}},{"type":"Feature","geometry":{"type":"Point","coordinates":[-106.26159,44.25739]},"properties":{"api":"4901927748","name":"FLYING CS FEDERAL 22","op":"EOG RESOURCES INC","co":"Johnson","st":"WY","trs":"T50N R78W S32","fm":null,"eur":null,"perft":null,"sound":false,"fit":"none","geur":null,"gfit":"refused"}},{"type":"Feature","geometry":{"type":"Point","coordinates":[-106.24126,44.25789]},"properties":{"api":"4901927768","name":"SKYWARD CS FEDERAL 15","op":"EOG RESOURCES INC","co":"Johnson","st":"WY","trs":"T50N R78W S33","fm":null,"eur":null,"perft":null,"sound":false,"fit":"none","geur":1311279,"gfit":"sound"}},{"type":"Feature","geometry":{"type":"Point","coordinates":[-106.25396,44.33702]},"properties":{"api":"4901927988","name":"CGU FED 22-4-5078BG","op":"CARBON CREEK ENERGY LLC","co":"Johnson","st":"WY","trs":"T50N R78W S4","fm":null,"eur":null,"perft":null,"sound":false,"fit":"none","geur":null,"gfit":"refused"}},{"type":"Feature","geometry":{"type":"Point","coordinates":[-106.26879,44.3335]},"properties":{"api":"4901927989","name":"CGU FED 33-5-5078BG","op":"CARBON CREEK ENERGY LLC","co":"Johnson","st":"WY","trs":"T50N R78W S5","fm":null,"eur":null,"perft":null,"sound":false,"fit":"none","geur":null,"gfit":"refused"}},{"type":"Feature","geometry":{"type":"Point","coordinates":[-106.2954,44.34049]},"properties":{"api":"4901927990","name":"CGU 11-6-5078BG","op":"CARBON CREEK ENERGY LLC","co":"Johnson","st":"WY","trs":"T50N R78W S6","fm":null,"eur":null,"perft":null,"sound":false,"fit":"none","geur":null,"gfit":"refused"}},{"type":"Feature","geometry":{"type":"Point","coordinates":[-106.25292,44.31563]},"properties":{"api":"4901927991","name":"CGU 24-9-5078BG","op":"CARBON CREEK ENERGY LLC","co":"Johnson","st":"WY","trs":"T50N R78W S9","fm":null,"eur":null,"perft":null,"sound":false,"fit":"none","geur":null,"gfit":"refused"}},{"type":"Feature","geometry":{"type":"Point","coordinates":[-106.25677,44.32851]},"properties":{"api":"4901927993","name":"CGU 11-9-5078BG","op":"CARBON CREEK ENERGY LLC","co":"Johnson","st":"WY","trs":"T50N R78W S9","fm":null,"eur":null,"perft":null,"sound":false,"fit":"none","geur":null,"gfit":"refused"}},{"type":"Feature","geometry":{"type":"Point","coordinates":[-106.18254,44.34096]},"properties":{"api":"4901928041","name":"PVU 41-1-5078BG","op":"CARBON CREEK ENERGY LLC","co":"Johnson","st":"WY","trs":"T50N R78W S1","fm":null,"eur":null,"perft":null,"sound":false,"fit":"none","geur":61883,"gfit":"sound"}},{"type":"Feature","geometry":{"type":"Point","coordinates":[-106.18025,44.3343]},"properties":{"api":"4901928064","name":"PVU 43-1-5078BG","op":"CARBON CREEK ENERGY LLC","co":"Johnson","st":"WY","trs":"T50N R78W S1","fm":null,"eur":null,"perft":null,"sound":false,"fit":"none","geur":null,"gfit":"refused"}},{"type":"Feature","geometry":{"type":"Point","coordinates":[-106.22274,44.27565]},"properties":{"api":"4901928363","name":"FLYING CS FEDERAL 4-R","op":"EOG RESOURCES INC","co":"Johnson","st":"WY","trs":"T50N R78W S27","fm":null,"eur":null,"perft":null,"sound":false,"fit":"none","geur":null,"gfit":"refused"}},{"type":"Feature","geometry":{"type":"Point","coordinates":[-106.26233,44.32718]},"properties":{"api":"4901928417","name":"CRAZY WOMAN FED 41-8-5078","op":"CARBON CREEK ENERGY LLC","co":"Johnson","st":"WY","trs":"T50N R78W S8","fm":null,"eur":null,"perft":null,"sound":false,"fit":"none","geur":null,"gfit":"refused"}},{"type":"Feature","geometry":{"type":"Point","coordinates":[-106.29833,44.25752]},"properties":{"api":"4901928418","name":"TEAR DROP FED 14-31-5078","op":"CARBON CREEK ENERGY LLC","co":"Johnson","st":"WY","trs":"T50N R78W S31","fm":null,"eur":null,"perft":null,"sound":false,"fit":"none","geur":null,"gfit":"refused"}},{"type":"Feature","geometry":{"type":"Point","coordinates":[-106.27708,44.2862]},"properties":{"api":"4901928455","name":"FEDERAL 14-20-5078","op":"CARBON CREEK ENERGY LLC","co":"Johnson","st":"WY","trs":"T50N R78W S20","fm":null,"eur":null,"perft":null,"sound":false,"fit":"none","geur":null,"gfit":"refused"}},{"type":"Feature","geometry":{"type":"Point","coordinates":[-106.25078,44.28981]},"properties":{"api":"4901928456","name":"FEDERAL 23-21-5078","op":"CARBON CREEK ENERGY LLC","co":"Johnson","st":"WY","trs":"T50N R78W S21","fm":null,"eur":null,"perft":null,"sound":false,"fit":"none","geur":997303,"gfit":"sound"}},{"type":"Feature","geometry":{"type":"Point","coordinates":[-106.2816,44.2609]},"properties":{"api":"4901928457","name":"TEAR DROP FED 43-31-5078","op":"CARBON CREEK ENERGY LLC","co":"Johnson","st":"WY","trs":"T50N R78W S31","fm":null,"eur":null,"perft":null,"sound":false,"fit":"none","geur":null,"gfit":"refused"}},{"type":"Feature","geometry":{"type":"Point","coordinates":[-106.2749,44.29491]},"properties":{"api":"4901928477","name":"BOOTJACK FED 12-20-5078","op":"CARBON CREEK ENERGY LLC","co":"Johnson","st":"WY","trs":"T50N R78W S20","fm":null,"eur":null,"perft":null,"sound":false,"fit":"none","geur":null,"gfit":"refused"}},{"type":"Feature","geometry":{"type":"Point","coordinates":[-106.27254,44.28705]},"properties":{"api":"4901928479","name":"FEDERAL 24-20-5078","op":"CARBON CREEK ENERGY LLC","co":"Johnson","st":"WY","trs":"T50N R78W S20","fm":null,"eur":null,"perft":null,"sound":false,"fit":"none","geur":null,"gfit":"refused"}},{"type":"Feature","geometry":{"type":"Point","coordinates":[-106.26253,44.29262]},"properties":{"api":"4901928480","name":"BOOTJACK FED 42-20-5078","op":"CARBON CREEK ENERGY LLC","co":"Johnson","st":"WY","trs":"T50N R78W S20","fm":null,"eur":null,"perft":null,"sound":false,"fit":"none","geur":2064761,"gfit":"sound"}},{"type":"Feature","geometry":{"type":"Point","coordinates":[-106.25522,44.28861]},"properties":{"api":"4901928483","name":"FEDERAL 13-21-5078","op":"CARBON CREEK ENERGY LLC","co":"Johnson","st":"WY","trs":"T50N R78W S21","fm":null,"eur":null,"perft":null,"sound":false,"fit":"none","geur":null,"gfit":"refused"}},{"type":"Feature","geometry":{"type":"Point","coordinates":[-106.25445,44.29325]},"properties":{"api":"4901928484","name":"BOOTJACK FED 12-21-5078","op":"CARBON CREEK ENERGY LLC","co":"Johnson","st":"WY","trs":"T50N R78W S21","fm":null,"eur":null,"perft":null,"sound":false,"fit":"none","geur":1515121,"gfit":"sound"}},{"type":"Feature","geometry":{"type":"Point","coordinates":[-106.24336,44.29652]},"properties":{"api":"4901928486","name":"FEDERAL 41-21-5078","op":"CARBON CREEK ENERGY LLC","co":"Johnson","st":"WY","trs":"T50N R78W S21","fm":null,"eur":null,"perft":null,"sound":false,"fit":"none","geur":1739385,"gfit":"sound"}},{"type":"Feature","geometry":{"type":"Point","coordinates":[-106.24291,44.28863]},"properties":{"api":"4901928487","name":"FEDERAL 44-21-5078","op":"CARBON CREEK ENERGY LLC","co":"Johnson","st":"WY","trs":"T50N R78W S21","fm":null,"eur":null,"perft":null,"sound":false,"fit":"none","geur":811288,"gfit":"sound"}},{"type":"Feature","geometry":{"type":"Point","coordinates":[-106.25177,44.26549]},"properties":{"api":"4901928488","name":"FEDERAL 22-33-5078","op":"CARBON CREEK ENERGY LLC","co":"Johnson","st":"WY","trs":"T50N R78W S33","fm":null,"eur":null,"perft":null,"sound":false,"fit":"none","geur":1268615,"gfit":"sound"}},{"type":"Feature","geometry":{"type":"Point","coordinates":[-106.25328,44.29687]},"properties":{"api":"4901928505","name":"FEDERAL 21-21-5078","op":"CARBON CREEK ENERGY LLC","co":"Johnson","st":"WY","trs":"T50N R78W S21","fm":null,"eur":null,"perft":null,"sound":false,"fit":"none","geur":1909040,"gfit":"sound"}},{"type":"Feature","geometry":{"type":"Point","coordinates":[-106.24736,44.29525]},"properties":{"api":"4901928506","name":"BOOTJACK FED 32-21-5078","op":"CARBON CREEK ENERGY LLC","co":"Johnson","st":"WY","trs":"T50N R78W S21","fm":null,"eur":null,"perft":null,"sound":false,"fit":"none","geur":3022713,"gfit":"sound"}},{"type":"Feature","geometry":{"type":"Point","coordinates":[-106.24814,44.28633]},"properties":{"api":"4901928507","name":"FEDERAL 34-21-5078","op":"CARBON CREEK ENERGY LLC","co":"Johnson","st":"WY","trs":"T50N R78W S21","fm":null,"eur":null,"perft":null,"sound":false,"fit":"none","geur":1236623,"gfit":"sound"}},{"type":"Feature","geometry":{"type":"Point","coordinates":[-106.28422,44.25804]},"properties":{"api":"4901928508","name":"TEAR DROP FED 34-31-5078","op":"CARBON CREEK ENERGY LLC","co":"Johnson","st":"WY","trs":"T50N R78W S31","fm":null,"eur":null,"perft":null,"sound":false,"fit":"none","geur":794316,"gfit":"sound"}},{"type":"Feature","geometry":{"type":"Point","coordinates":[-106.26546,44.29364]},"properties":{"api":"4901928510","name":"BOOTJACK FED 32-20-5078","op":"CARBON CREEK ENERGY LLC","co":"Johnson","st":"WY","trs":"T50N R78W S20","fm":null,"eur":null,"perft":null,"sound":false,"fit":"none","geur":2348251,"gfit":"sound"}},{"type":"Feature","geometry":{"type":"Point","coordinates":[-106.22839,44.28658]},"properties":{"api":"4901928577","name":"PVU 34-22-5078","op":"CARBON CREEK ENERGY LLC","co":"Johnson","st":"WY","trs":"T50N R78W S22","fm":null,"eur":null,"perft":null,"sound":false,"fit":"none","geur":2158475,"gfit":"sound"}},{"type":"Feature","geometry":{"type":"Point","coordinates":[-106.20772,44.26514]},"properties":{"api":"4901928578","name":"PVU FED 32-35-5078","op":"CARBON CREEK ENERGY LLC","co":"Johnson","st":"WY","trs":"T50N R78W S35","fm":null,"eur":null,"perft":null,"sound":false,"fit":"none","geur":1505178,"gfit":"sound"}},{"type":"Feature","geometry":{"type":"Point","coordinates":[-106.20685,44.25744]},"properties":{"api":"4901928579","name":"PVU FED 34-35-5078","op":"CARBON CREEK ENERGY LLC","co":"Johnson","st":"WY","trs":"T50N R78W S35","fm":null,"eur":null,"perft":null,"sound":false,"fit":"none","geur":3564850,"gfit":"sound"}},{"type":"Feature","geometry":{"type":"Point","coordinates":[-106.20131,44.26843]},"properties":{"api":"4901928580","name":"PVU FED 41-35-5078","op":"CARBON CREEK ENERGY LLC","co":"Johnson","st":"WY","trs":"T50N R78W S35","fm":null,"eur":null,"perft":null,"sound":false,"fit":"none","geur":2272286,"gfit":"sound"}},{"type":"Feature","geometry":{"type":"Point","coordinates":[-106.20226,44.26344]},"properties":{"api":"4901928581","name":"PVU FED 43-35-5078","op":"CARBON CREEK ENERGY LLC","co":"Johnson","st":"WY","trs":"T50N R78W S35","fm":null,"eur":null,"perft":null,"sound":false,"fit":"none","geur":3220333,"gfit":"sound"}},{"type":"Feature","geometry":{"type":"Point","coordinates":[-106.21233,44.26163]},"properties":{"api":"4901928585","name":"PVU FED 23-35-5078","op":"CARBON CREEK ENERGY LLC","co":"Johnson","st":"WY","trs":"T50N R78W S35","fm":null,"eur":null,"perft":null,"sound":false,"fit":"none","geur":3061504,"gfit":"sound"}},{"type":"Feature","geometry":{"type":"Point","coordinates":[-106.21084,44.26813]},"properties":{"api":"4901928586","name":"PVU FED 21-35-5078","op":"CARBON CREEK ENERGY LLC","co":"Johnson","st":"WY","trs":"T50N R78W S35","fm":null,"eur":null,"perft":null,"sound":false,"fit":"none","geur":1285608,"gfit":"sound"}},{"type":"Feature","geometry":{"type":"Point","coordinates":[-106.22701,44.25949]},"properties":{"api":"4901928587","name":"PVU FED 34-34-5078","op":"CARBON CREEK ENERGY LLC","co":"Johnson","st":"WY","trs":"T50N R78W S34","fm":null,"eur":null,"perft":null,"sound":false,"fit":"none","geur":2460291,"gfit":"sound"}},{"type":"Feature","geometry":{"type":"Point","coordinates":[-106.22345,44.26512]},"properties":{"api":"4901928588","name":"PVU FED 42-34-5078","op":"CARBON CREEK ENERGY LLC","co":"Johnson","st":"WY","trs":"T50N R78W S34","fm":null,"eur":null,"perft":null,"sound":false,"fit":"none","geur":1696478,"gfit":"sound"}},{"type":"Feature","geometry":{"type":"Point","coordinates":[-106.22419,44.26187]},"properties":{"api":"4901928589","name":"PVU FED 43-34-5078","op":"CARBON CREEK ENERGY LLC","co":"Johnson","st":"WY","trs":"T50N R78W S34","fm":null,"eur":null,"perft":null,"sound":false,"fit":"none","geur":1025286,"gfit":"sound"}},{"type":"Feature","geometry":{"type":"Point","coordinates":[-106.21473,44.2668]},"properties":{"api":"4901928590","name":"PVU FED 12-35-5078","op":"CARBON CREEK ENERGY LLC","co":"Johnson","st":"WY","trs":"T50N R78W S35","fm":null,"eur":null,"perft":null,"sound":false,"fit":"none","geur":1914026,"gfit":"sound"}},{"type":"Feature","geometry":{"type":"Point","coordinates":[-106.2117,44.27239]},"properties":{"api":"4901928591","name":"PVU FED 24-26-5078","op":"CARBON CREEK ENERGY LLC","co":"Johnson","st":"WY","trs":"T50N R78W S26","fm":null,"eur":null,"perft":null,"sound":false,"fit":"none","geur":2268344,"gfit":"sound"}},{"type":"Feature","geometry":{"type":"Point","coordinates":[-106.20041,44.28345]},"properties":{"api":"4901928592","name":"PVU FED 41-26-5078","op":"CARBON CREEK ENERGY LLC","co":"Johnson","st":"WY","trs":"T50N R78W S26","fm":null,"eur":null,"perft":null,"sound":false,"fit":"none","geur":3886849,"gfit":"sound"}},{"type":"Feature","geometry":{"type":"Point","coordinates":[-106.19985,44.27206]},"properties":{"api":"4901928593","name":"PVU FED 44-26-5078","op":"CARBON CREEK ENERGY LLC","co":"Johnson","st":"WY","trs":"T50N R78W S26","fm":null,"eur":null,"perft":null,"sound":false,"fit":"none","geur":2166150,"gfit":"sound"}},{"type":"Feature","geometry":{"type":"Point","coordinates":[-106.22335,44.26847]},"properties":{"api":"4901928594","name":"PVU FED 41-34-5078","op":"CARBON CREEK ENERGY LLC","co":"Johnson","st":"WY","trs":"T50N R78W S34","fm":null,"eur":null,"perft":null,"sound":false,"fit":"none","geur":2137352,"gfit":"sound"}},{"type":"Feature","geometry":{"type":"Point","coordinates":[-106.21708,44.29426]},"properties":{"api":"4901928595","name":"PVU FED 12-23-5078","op":"CARBON CREEK ENERGY LLC","co":"Johnson","st":"WY","trs":"T50N R78W S23","fm":null,"eur":null,"perft":null,"sound":false,"fit":"none","geur":507626,"gfit":"sound"}},{"type":"Feature","geometry":{"type":"Point","coordinates":[-106.21089,44.28997]},"properties":{"api":"4901928596","name":"PVU FED 23-23-5078","op":"CARBON CREEK ENERGY LLC","co":"Johnson","st":"WY","trs":"T50N R78W S23","fm":null,"eur":null,"perft":null,"sound":false,"fit":"none","geur":null,"gfit":"refused"}},{"type":"Feature","geometry":{"type":"Point","coordinates":[-106.23302,44.26185]},"properties":{"api":"4901928597","name":"PVU FED 23-34-5078","op":"CARBON CREEK ENERGY LLC","co":"Johnson","st":"WY","trs":"T50N R78W S34","fm":null,"eur":null,"perft":null,"sound":false,"fit":"none","geur":898411,"gfit":"sound"}},{"type":"Feature","geometry":{"type":"Point","coordinates":[-106.22245,44.28652]},"properties":{"api":"4901928598","name":"PVU FED 44-22-5078","op":"CARBON CREEK ENERGY LLC","co":"Johnson","st":"WY","trs":"T50N R78W S22","fm":null,"eur":null,"perft":null,"sound":false,"fit":"none","geur":805187,"gfit":"sound"}},{"type":"Feature","geometry":{"type":"Point","coordinates":[-106.2048,44.27117]},"properties":{"api":"4901928602","name":"PVU FED 34-26-5078","op":"CARBON CREEK ENERGY LLC","co":"Johnson","st":"WY","trs":"T50N R78W S26","fm":null,"eur":null,"perft":null,"sound":false,"fit":"none","geur":2162116,"gfit":"sound"}},{"type":"Feature","geometry":{"type":"Point","coordinates":[-106.22608,44.28]},"properties":{"api":"4901928604","name":"FEDERAL 32-27-5078","op":"CARBON CREEK ENERGY LLC","co":"Johnson","st":"WY","trs":"T50N R78W S27","fm":null,"eur":null,"perft":null,"sound":false,"fit":"none","geur":287064,"gfit":"sound"}},{"type":"Feature","geometry":{"type":"Point","coordinates":[-106.20616,44.27933]},"properties":{"api":"4901928605","name":"PVU FED 32-26-5078","op":"CARBON CREEK ENERGY LLC","co":"Johnson","st":"WY","trs":"T50N R78W S26","fm":null,"eur":null,"perft":null,"sound":false,"fit":"none","geur":null,"gfit":"refused"}},{"type":"Feature","geometry":{"type":"Point","coordinates":[-106.21514,44.2818]},"properties":{"api":"4901928606","name":"PVU FED 11-26-5078","op":"CARBON CREEK ENERGY LLC","co":"Johnson","st":"WY","trs":"T50N R78W S26","fm":null,"eur":null,"perft":null,"sound":false,"fit":"none","geur":null,"gfit":"refused"}},{"type":"Feature","geometry":{"type":"Point","coordinates":[-106.19676,44.27648]},"properties":{"api":"4901928607","name":"PVU FED 13-25-5078","op":"CARBON CREEK ENERGY LLC","co":"Johnson","st":"WY","trs":"T50N R78W S25","fm":null,"eur":null,"perft":null,"sound":false,"fit":"none","geur":2059951,"gfit":"sound"}},{"type":"Feature","geometry":{"type":"Point","coordinates":[-106.18095,44.2968]},"properties":{"api":"4901928608","name":"PVU FED 41-24-5078","op":"CARBON CREEK ENERGY LLC","co":"Johnson","st":"WY","trs":"T50N R78W S24","fm":null,"eur":null,"perft":null,"sound":false,"fit":"none","geur":null,"gfit":"refused"}},{"type":"Feature","geometry":{"type":"Point","coordinates":[-106.19463,44.29447]},"properties":{"api":"4901928646","name":"FEDERAL 12-24-5078","op":"CARBON CREEK ENERGY LLC","co":"Johnson","st":"WY","trs":"T50N R78W S24","fm":null,"eur":null,"perft":null,"sound":false,"fit":"none","geur":null,"gfit":"refused"}},{"type":"Feature","geometry":{"type":"Point","coordinates":[-106.20286,44.28998]},"properties":{"api":"4901928647","name":"RUBY FED 43-23-5078","op":"CARBON CREEK ENERGY LLC","co":"Johnson","st":"WY","trs":"T50N R78W S23","fm":null,"eur":null,"perft":null,"sound":false,"fit":"none","geur":null,"gfit":"refused"}},{"type":"Feature","geometry":{"type":"Point","coordinates":[-106.2089,44.28676]},"properties":{"api":"4901928648","name":"RUBY FED 34-23-5078","op":"CARBON CREEK ENERGY LLC","co":"Johnson","st":"WY","trs":"T50N R78W S23","fm":null,"eur":null,"perft":null,"sound":false,"fit":"none","geur":1779076,"gfit":"sound"}},{"type":"Feature","geometry":{"type":"Point","coordinates":[-106.18439,44.29295]},"properties":{"api":"4901928649","name":"PVU FED 32-24-5078","op":"CARBON CREEK ENERGY LLC","co":"Johnson","st":"WY","trs":"T50N R78W S24","fm":null,"eur":null,"perft":null,"sound":false,"fit":"none","geur":null,"gfit":"refused"}},{"type":"Feature","geometry":{"type":"Point","coordinates":[-106.2048,44.29379]},"properties":{"api":"4901928650","name":"FADDIS-KENNEDY FED 32-23-5078","op":"CARBON CREEK ENERGY LLC","co":"Johnson","st":"WY","trs":"T50N R78W S23","fm":null,"eur":null,"perft":null,"sound":false,"fit":"none","geur":1244771,"gfit":"sound"}},{"type":"Feature","geometry":{"type":"Point","coordinates":[-106.18771,44.29686]},"properties":{"api":"4901928651","name":"PVU FED 31-24-5078","op":"CARBON CREEK ENERGY LLC","co":"Johnson","st":"WY","trs":"T50N R78W S24","fm":null,"eur":null,"perft":null,"sound":false,"fit":"none","geur":null,"gfit":"refused"}},{"type":"Feature","geometry":{"type":"Point","coordinates":[-106.23126,44.26927]},"properties":{"api":"4901928652","name":"PVU FED 21-34-5078","op":"CARBON CREEK ENERGY LLC","co":"Johnson","st":"WY","trs":"T50N R78W S34","fm":null,"eur":null,"perft":null,"sound":false,"fit":"none","geur":null,"gfit":"refused"}},{"type":"Feature","geometry":{"type":"Point","coordinates":[-106.23754,44.25592]},"properties":{"api":"4901928653","name":"PVU FED 14-34-5078D","op":"CARBON CREEK ENERGY LLC","co":"Johnson","st":"WY","trs":"T50N R78W S34","fm":null,"eur":null,"perft":null,"sound":false,"fit":"none","geur":1440742,"gfit":"sound"}},{"type":"Feature","geometry":{"type":"Point","coordinates":[-106.23656,44.26334]},"properties":{"api":"4901928654","name":"PVU FED 12-34-5078","op":"CARBON CREEK ENERGY LLC","co":"Johnson","st":"WY","trs":"T50N R78W S34","fm":null,"eur":null,"perft":null,"sound":false,"fit":"none","geur":null,"gfit":"refused"}},{"type":"Feature","geometry":{"type":"Point","coordinates":[-106.22423,44.28267]},"properties":{"api":"4901928732","name":"FEDERAL 31-27-5078","op":"CARBON CREEK ENERGY LLC","co":"Johnson","st":"WY","trs":"T50N R78W S27","fm":null,"eur":null,"perft":null,"sound":false,"fit":"none","geur":null,"gfit":"refused"}},{"type":"Feature","geometry":{"type":"Point","coordinates":[-106.2899,44.29081]},"properties":{"api":"4901928811","name":"BEAR DRAW UNIT 23-19-5078","op":"CARBON CREEK ENERGY LLC","co":"Johnson","st":"WY","trs":"T50N R78W S19","fm":null,"eur":null,"perft":null,"sound":false,"fit":"none","geur":975537,"gfit":"sound"}},{"type":"Feature","geometry":{"type":"Point","coordinates":[-106.22932,44.29154]},"properties":{"api":"4901928876","name":"PVU 23-22-5078","op":"CARBON CREEK ENERGY LLC","co":"Johnson","st":"WY","trs":"T50N R78W S22","fm":null,"eur":null,"perft":null,"sound":false,"fit":"none","geur":null,"gfit":"refused"}},{"type":"Feature","geometry":{"type":"Point","coordinates":[-106.25605,44.27117]},"properties":{"api":"4901928880","name":"FLYING CS FEDERAL 14-R","op":"EOG RESOURCES INC","co":"Johnson","st":"WY","trs":"T50N R78W S28","fm":null,"eur":null,"perft":null,"sound":false,"fit":"none","geur":null,"gfit":"refused"}},{"type":"Feature","geometry":{"type":"Point","coordinates":[-106.29672,44.29596]},"properties":{"api":"4901929163","name":"BEAR DRAW UNIT 11-19-5078","op":"CARBON CREEK ENERGY LLC","co":"Johnson","st":"WY","trs":"T50N R78W S19","fm":null,"eur":null,"perft":null,"sound":false,"fit":"none","geur":null,"gfit":"refused"}},{"type":"Feature","geometry":{"type":"Point","coordinates":[-106.28845,44.27241]},"properties":{"api":"4901929178","name":"BEAR DRAW UNIT 34-30-5078","op":"CARBON CREEK ENERGY LLC","co":"Johnson","st":"WY","trs":"T50N R78W S30","fm":null,"eur":null,"perft":null,"sound":false,"fit":"none","geur":null,"gfit":"refused"}},{"type":"Feature","geometry":{"type":"Point","coordinates":[-106.29134,44.27536]},"properties":{"api":"4901929179","name":"BEAR DRAW UNIT 23-30-5078","op":"CARBON CREEK ENERGY LLC","co":"Johnson","st":"WY","trs":"T50N R78W S30","fm":null,"eur":null,"perft":null,"sound":false,"fit":"none","geur":1366496,"gfit":"sound"}},{"type":"Feature","geometry":{"type":"Point","coordinates":[-106.29376,44.28397]},"properties":{"api":"4901929181","name":"BEAR DRAW UNIT 21-30-5078","op":"CARBON CREEK ENERGY LLC","co":"Johnson","st":"WY","trs":"T50N R78W S30","fm":null,"eur":null,"perft":null,"sound":false,"fit":"none","geur":1048852,"gfit":"sound"}},{"type":"Feature","geometry":{"type":"Point","coordinates":[-106.29885,44.27153]},"properties":{"api":"4901929182","name":"BDU FED 14-30-5078","op":"CARBON CREEK ENERGY LLC","co":"Johnson","st":"WY","trs":"T50N R78W S30","fm":null,"eur":null,"perft":null,"sound":false,"fit":"none","geur":728099,"gfit":"sound"}},{"type":"Feature","geometry":{"type":"Point","coordinates":[-106.29578,44.27799]},"properties":{"api":"4901929183","name":"BEAR DRAW UNIT 12-30-5078","op":"CARBON CREEK ENERGY LLC","co":"Johnson","st":"WY","trs":"T50N R78W S30","fm":null,"eur":null,"perft":null,"sound":false,"fit":"none","geur":null,"gfit":"refused"}},{"type":"Feature","geometry":{"type":"Point","coordinates":[-106.28379,44.29638]},"properties":{"api":"4901929184","name":"BEAR DRAW UNIT 41-19-5078","op":"CARBON CREEK ENERGY LLC","co":"Johnson","st":"WY","trs":"T50N R78W S19","fm":null,"eur":null,"perft":null,"sound":false,"fit":"none","geur":null,"gfit":"refused"}},{"type":"Feature","geometry":{"type":"Point","coordinates":[-106.28655,44.29418]},"properties":{"api":"4901929185","name":"BEAR DRAW UNIT 32-19-5078","op":"CARBON CREEK ENERGY LLC","co":"Johnson","st":"WY","trs":"T50N R78W S19","fm":null,"eur":null,"perft":null,"sound":false,"fit":"none","geur":891953,"gfit":"sound"}},{"type":"Feature","geometry":{"type":"Point","coordinates":[-106.29782,44.28493]},"properties":{"api":"4901929186","name":"BEAR DRAW UNIT 14-19-5078","op":"CARBON CREEK ENERGY LLC","co":"Johnson","st":"WY","trs":"T50N R78W S19","fm":null,"eur":null,"perft":null,"sound":false,"fit":"none","geur":1594246,"gfit":"sound"}},{"type":"Feature","geometry":{"type":"Point","coordinates":[-106.29501,44.29384]},"properties":{"api":"4901929187","name":"BEAR DRAW UNIT 12-19-5078","op":"CARBON CREEK ENERGY LLC","co":"Johnson","st":"WY","trs":"T50N R78W S19","fm":null,"eur":null,"perft":null,"sound":false,"fit":"none","geur":789607,"gfit":"sound"}},{"type":"Feature","geometry":{"type":"Point","coordinates":[-106.29102,44.29839]},"properties":{"api":"4901929188","name":"BEAR DRAW UNIT 21-19-5078","op":"CARBON CREEK ENERGY LLC","co":"Johnson","st":"WY","trs":"T50N R78W S19","fm":null,"eur":null,"perft":null,"sound":false,"fit":"none","geur":null,"gfit":"refused"}},{"type":"Feature","geometry":{"type":"Point","coordinates":[-106.27949,44.29444]},"properties":{"api":"4901929189","name":"BEAR DRAW UNIT 42-19 5078","op":"CARBON CREEK ENERGY LLC","co":"Johnson","st":"WY","trs":"T50N R78W S19","fm":null,"eur":null,"perft":null,"sound":false,"fit":"none","geur":757712,"gfit":"sound"}},{"type":"Feature","geometry":{"type":"Point","coordinates":[-106.2463,44.34227]},"properties":{"api":"4901929374","name":"CGU FED 31-4-5078","op":"CARBON CREEK ENERGY LLC","co":"Johnson","st":"WY","trs":"T50N R78W S4","fm":null,"eur":null,"perft":null,"sound":false,"fit":"none","geur":null,"gfit":"refused"}},{"type":"Feature","geometry":{"type":"Point","coordinates":[-106.24876,44.33888]},"properties":{"api":"4901929375","name":"CGU FED 32-4-5078","op":"CARBON CREEK ENERGY LLC","co":"Johnson","st":"WY","trs":"T50N R78W S4","fm":null,"eur":null,"perft":null,"sound":false,"fit":"none","geur":null,"gfit":"refused"}},{"type":"Feature","geometry":{"type":"Point","coordinates":[-106.24077,44.34312]},"properties":{"api":"4901929376","name":"CGU FED 41-4-5078","op":"CARBON CREEK ENERGY LLC","co":"Johnson","st":"WY","trs":"T50N R78W S4","fm":null,"eur":null,"perft":null,"sound":false,"fit":"none","geur":null,"gfit":"refused"}},{"type":"Feature","geometry":{"type":"Point","coordinates":[-106.23981,44.33376]},"properties":{"api":"4901929377","name":"CGU FED 43-4-5078","op":"CARBON CREEK ENERGY LLC","co":"Johnson","st":"WY","trs":"T50N R78W S4","fm":null,"eur":null,"perft":null,"sound":false,"fit":"none","geur":null,"gfit":"refused"}},{"type":"Feature","geometry":{"type":"Point","coordinates":[-106.24563,44.31942]},"properties":{"api":"4901929378","name":"CGU FED 33-9-5078","op":"CARBON CREEK ENERGY LLC","co":"Johnson","st":"WY","trs":"T50N R78W S9","fm":null,"eur":null,"perft":null,"sound":false,"fit":"none","geur":723452,"gfit":"sound"}},{"type":"Feature","geometry":{"type":"Point","coordinates":[-106.2344,44.34311]},"properties":{"api":"4901929379","name":"CGU FED 11-3-5078","op":"CARBON CREEK ENERGY LLC","co":"Johnson","st":"WY","trs":"T50N R78W S3","fm":null,"eur":null,"perft":null,"sound":false,"fit":"none","geur":1245884,"gfit":"sound"}},{"type":"Feature","geometry":{"type":"Point","coordinates":[-106.2378,44.33749]},"properties":{"api":"4901929380","name":"CGU FED 12-3-5078","op":"CARBON CREEK ENERGY LLC","co":"Johnson","st":"WY","trs":"T50N R78W S3","fm":null,"eur":null,"perft":null,"sound":false,"fit":"none","geur":null,"gfit":"refused"}},{"type":"Feature","geometry":{"type":"Point","coordinates":[-106.22432,44.34332]},"properties":{"api":"4901929381","name":"CGU FED 31-3-5078","op":"CARBON CREEK ENERGY LLC","co":"Johnson","st":"WY","trs":"T50N R78W S3","fm":null,"eur":null,"perft":null,"sound":false,"fit":"none","geur":787627,"gfit":"sound"}},{"type":"Feature","geometry":{"type":"Point","coordinates":[-106.22126,44.3409]},"properties":{"api":"4901929382","name":"CGU FED 41-3-5078","op":"CARBON CREEK ENERGY LLC","co":"Johnson","st":"WY","trs":"T50N R78W S3","fm":null,"eur":null,"perft":null,"sound":false,"fit":"none","geur":814381,"gfit":"sound"}},{"type":"Feature","geometry":{"type":"Point","coordinates":[-106.25137,44.33231]},"properties":{"api":"4901929383","name":"CGU FED 24-4-5078","op":"CARBON CREEK ENERGY LLC","co":"Johnson","st":"WY","trs":"T50N R78W S4","fm":null,"eur":null,"perft":null,"sound":false,"fit":"none","geur":null,"gfit":"refused"}},{"type":"Feature","geometry":{"type":"Point","coordinates":[-106.21373,44.33539]},"properties":{"api":"4901929454","name":"PVU FED 14-3-5078","op":"CARBON CREEK ENERGY LLC","co":"Johnson","st":"WY","trs":"T50N R78W S3","fm":null,"eur":null,"perft":null,"sound":false,"fit":"none","geur":984264,"gfit":"sound"}},{"type":"Feature","geometry":{"type":"Point","coordinates":[-106.19294,44.34329]},"properties":{"api":"4901929455","name":"PVU FED 21-1-5078","op":"CARBON CREEK ENERGY LLC","co":"Johnson","st":"WY","trs":"T50N R78W S1","fm":null,"eur":null,"perft":null,"sound":false,"fit":"none","geur":null,"gfit":"refused"}},{"type":"Feature","geometry":{"type":"Point","coordinates":[-106.20186,44.29987]},"properties":{"api":"4901929456","name":"FEDERAL 41-23-5078","op":"CARBON CREEK ENERGY LLC","co":"Johnson","st":"WY","trs":"T50N R78W S23","fm":null,"eur":null,"perft":null,"sound":false,"fit":"none","geur":1018593,"gfit":"sound"}},{"type":"Feature","geometry":{"type":"Point","coordinates":[-106.19312,44.33438]},"properties":{"api":"4901929458","name":"PVU FED 23-1-5078","op":"CARBON CREEK ENERGY LLC","co":"Johnson","st":"WY","trs":"T50N R78W S1","fm":null,"eur":null,"perft":null,"sound":false,"fit":"none","geur":676311,"gfit":"sound"}},{"type":"Feature","geometry":{"type":"Point","coordinates":[-106.19397,44.33798]},"properties":{"api":"4901929459","name":"PVU FED 22-1-5078","op":"CARBON CREEK ENERGY LLC","co":"Johnson","st":"WY","trs":"T50N R78W S1","fm":null,"eur":null,"perft":null,"sound":false,"fit":"none","geur":73042,"gfit":"sound"}},{"type":"Feature","geometry":{"type":"Point","coordinates":[-106.18446,44.33036]},"properties":{"api":"4901929460","name":"PVU FED 34-1-5078","op":"CARBON CREEK ENERGY LLC","co":"Johnson","st":"WY","trs":"T50N R78W S1","fm":null,"eur":null,"perft":null,"sound":false,"fit":"none","geur":null,"gfit":"refused"}},{"type":"Feature","geometry":{"type":"Point","coordinates":[-106.18692,44.33874]},"properties":{"api":"4901929461","name":"PVU FED 32-1-5078","op":"CARBON CREEK ENERGY LLC","co":"Johnson","st":"WY","trs":"T50N R78W S1","fm":null,"eur":null,"perft":null,"sound":false,"fit":"none","geur":null,"gfit":"refused"}},{"type":"Feature","geometry":{"type":"Point","coordinates":[-106.21652,44.33712]},"properties":{"api":"4901929462","name":"PVU FED 12-2-5078","op":"CARBON CREEK ENERGY LLC","co":"Johnson","st":"WY","trs":"T50N R78W S2","fm":null,"eur":null,"perft":null,"sound":false,"fit":"none","geur":704030,"gfit":"sound"}},{"type":"Feature","geometry":{"type":"Point","coordinates":[-106.21314,44.34152]},"properties":{"api":"4901929464","name":"PVU FED 21-2-5078","op":"CARBON CREEK ENERGY LLC","co":"Johnson","st":"WY","trs":"T50N R78W S2","fm":null,"eur":null,"perft":null,"sound":false,"fit":"none","geur":null,"gfit":"refused"}},{"type":"Feature","geometry":{"type":"Point","coordinates":[-106.21373,44.33539]},"properties":{"api":"4901929465","name":"PVU FED 23-2-5078","op":"CARBON CREEK ENERGY LLC","co":"Johnson","st":"WY","trs":"T50N R78W S2","fm":null,"eur":null,"perft":null,"sound":false,"fit":"none","geur":1131631,"gfit":"sound"}},{"type":"Feature","geometry":{"type":"Point","coordinates":[-106.20593,44.33884]},"properties":{"api":"4901929466","name":"PVU FED 32-2-5078","op":"CARBON CREEK ENERGY LLC","co":"Johnson","st":"WY","trs":"T50N R78W S2","fm":null,"eur":null,"perft":null,"sound":false,"fit":"none","geur":1030047,"gfit":"sound"}},{"type":"Feature","geometry":{"type":"Point","coordinates":[-106.2022,44.34201]},"properties":{"api":"4901929468","name":"PVU FED 41-2-5078","op":"CARBON CREEK ENERGY LLC","co":"Johnson","st":"WY","trs":"T50N R78W S2","fm":null,"eur":null,"perft":null,"sound":false,"fit":"none","geur":686863,"gfit":"sound"}},{"type":"Feature","geometry":{"type":"Point","coordinates":[-106.20242,44.33654]},"properties":{"api":"4901929469","name":"PVU FED 42-2-5078","op":"CARBON CREEK ENERGY LLC","co":"Johnson","st":"WY","trs":"T50N R78W S2","fm":null,"eur":null,"perft":null,"sound":false,"fit":"none","geur":null,"gfit":"refused"}},{"type":"Feature","geometry":{"type":"Point","coordinates":[-106.23275,44.32955]},"properties":{"api":"4901929470","name":"PVU FED  24-3-5078","op":"CARBON CREEK ENERGY LLC","co":"Johnson","st":"WY","trs":"T50N R78W S3","fm":null,"eur":null,"perft":null,"sound":false,"fit":"none","geur":null,"gfit":"refused"}},{"type":"Feature","geometry":{"type":"Point","coordinates":[-106.22196,44.29237]},"properties":{"api":"4901929471","name":"PVU FED 43-22-5078","op":"CARBON CREEK ENERGY LLC","co":"Johnson","st":"WY","trs":"T50N R78W S22","fm":null,"eur":null,"perft":null,"sound":false,"fit":"none","geur":1374295,"gfit":"sound"}},{"type":"Feature","geometry":{"type":"Point","coordinates":[-106.22497,44.33141]},"properties":{"api":"4901929472","name":"PVU FED 34-3-5078","op":"CARBON CREEK ENERGY LLC","co":"Johnson","st":"WY","trs":"T50N R78W S3","fm":null,"eur":null,"perft":null,"sound":false,"fit":"none","geur":null,"gfit":"refused"}},{"type":"Feature","geometry":{"type":"Point","coordinates":[-106.22155,44.33167]},"properties":{"api":"4901929473","name":"PVU FED 44-3-5078","op":"CARBON CREEK ENERGY LLC","co":"Johnson","st":"WY","trs":"T50N R78W S3","fm":null,"eur":null,"perft":null,"sound":false,"fit":"none","geur":null,"gfit":"refused"}},{"type":"Feature","geometry":{"type":"Point","coordinates":[-106.23661,44.32864]},"properties":{"api":"4901929474","name":"PVU FED 11-10-5078","op":"CARBON CREEK ENERGY LLC","co":"Johnson","st":"WY","trs":"T50N R78W S10","fm":null,"eur":null,"perft":null,"sound":false,"fit":"none","geur":1503810,"gfit":"sound"}},{"type":"Feature","geometry":{"type":"Point","coordinates":[-106.22971,44.31905]},"properties":{"api":"4901929475","name":"PVU FED 23-10-5078","op":"CARBON CREEK ENERGY LLC","co":"Johnson","st":"WY","trs":"T50N R78W S10","fm":null,"eur":null,"perft":null,"sound":false,"fit":"none","geur":1378044,"gfit":"sound"}},{"type":"Feature","geometry":{"type":"Point","coordinates":[-106.22938,44.31495]},"properties":{"api":"4901929476","name":"PVU FED 24-10-5078","op":"CARBON CREEK ENERGY LLC","co":"Johnson","st":"WY","trs":"T50N R78W S10","fm":null,"eur":null,"perft":null,"sound":false,"fit":"none","geur":null,"gfit":"refused"}},{"type":"Feature","geometry":{"type":"Point","coordinates":[-106.22663,44.32359]},"properties":{"api":"4901929477","name":"PVU FED 32-10-5078","op":"CARBON CREEK ENERGY LLC","co":"Johnson","st":"WY","trs":"T50N R78W S10","fm":null,"eur":null,"perft":null,"sound":false,"fit":"none","geur":null,"gfit":"refused"}},{"type":"Feature","geometry":{"type":"Point","coordinates":[-106.22368,44.32779]},"properties":{"api":"4901929478","name":"PVU FED 41-10-5078","op":"CARBON CREEK ENERGY LLC","co":"Johnson","st":"WY","trs":"T50N R78W S10","fm":null,"eur":null,"perft":null,"sound":false,"fit":"none","geur":null,"gfit":"refused"}},{"type":"Feature","geometry":{"type":"Point","coordinates":[-106.24746,44.31771]},"properties":{"api":"4901929492","name":"CGU FED 34-9-5078","op":"CARBON CREEK ENERGY LLC","co":"Johnson","st":"WY","trs":"T50N R78W S9","fm":null,"eur":null,"perft":null,"sound":false,"fit":"none","geur":null,"gfit":"refused"}},{"type":"Feature","geometry":{"type":"Point","coordinates":[-106.241,44.32662]},"properties":{"api":"4901929493","name":"CGU FED 41-9-5078","op":"CARBON CREEK ENERGY LLC","co":"Johnson","st":"WY","trs":"T50N R78W S9","fm":null,"eur":null,"perft":null,"sound":false,"fit":"none","geur":null,"gfit":"refused"}},{"type":"Feature","geometry":{"type":"Point","coordinates":[-106.24071,44.32021]},"properties":{"api":"4901929494","name":"CGU FED 43-9-5078","op":"CARBON CREEK ENERGY LLC","co":"Johnson","st":"WY","trs":"T50N R78W S9","fm":null,"eur":null,"perft":null,"sound":false,"fit":"none","geur":null,"gfit":"refused"}},{"type":"Feature","geometry":{"type":"Point","coordinates":[-106.19014,44.30676]},"properties":{"api":"4901929526","name":"PVU FED 23-13-5078","op":"CARBON CREEK ENERGY LLC","co":"Johnson","st":"WY","trs":"T50N R78W S13","fm":null,"eur":null,"perft":null,"sound":false,"fit":"none","geur":1368875,"gfit":"sound"}},{"type":"Feature","geometry":{"type":"Point","coordinates":[-106.1854,44.3091]},"properties":{"api":"4901929527","name":"PVU FED 32-13-5078","op":"CARBON CREEK ENERGY LLC","co":"Johnson","st":"WY","trs":"T50N R78W S13","fm":null,"eur":null,"perft":null,"sound":false,"fit":"none","geur":1651249,"gfit":"sound"}},{"type":"Feature","geometry":{"type":"Point","coordinates":[-106.18172,44.31375]},"properties":{"api":"4901929528","name":"PVU FED 41-13-5078","op":"CARBON CREEK ENERGY LLC","co":"Johnson","st":"WY","trs":"T50N R78W S13","fm":null,"eur":null,"perft":null,"sound":false,"fit":"none","geur":null,"gfit":"refused"}},{"type":"Feature","geometry":{"type":"Point","coordinates":[-106.18293,44.30901]},"properties":{"api":"4901929529","name":"PVU FED 42-13-5078","op":"CARBON CREEK ENERGY LLC","co":"Johnson","st":"WY","trs":"T50N R78W S13","fm":null,"eur":null,"perft":null,"sound":false,"fit":"none","geur":2168040,"gfit":"sound"}},{"type":"Feature","geometry":{"type":"Point","coordinates":[-106.21785,44.30785]},"properties":{"api":"4901929530","name":"PVU FED 12-14-5078","op":"CARBON CREEK ENERGY LLC","co":"Johnson","st":"WY","trs":"T50N R78W S14","fm":null,"eur":null,"perft":null,"sound":false,"fit":"none","geur":402775,"gfit":"sound"}},{"type":"Feature","geometry":{"type":"Point","coordinates":[-106.21175,44.31343]},"properties":{"api":"4901929531","name":"PVU FED 21-14-5078","op":"CARBON CREEK ENERGY LLC","co":"Johnson","st":"WY","trs":"T50N R78W S14","fm":null,"eur":null,"perft":null,"sound":false,"fit":"none","geur":785860,"gfit":"sound"}},{"type":"Feature","geometry":{"type":"Point","coordinates":[-106.2118,44.30941]},"properties":{"api":"4901929532","name":"PVU FED 22-14-5078","op":"CARBON CREEK ENERGY LLC","co":"Johnson","st":"WY","trs":"T50N R78W S14","fm":null,"eur":null,"perft":null,"sound":false,"fit":"none","geur":675079,"gfit":"sound"}},{"type":"Feature","geometry":{"type":"Point","coordinates":[-106.21246,44.30709]},"properties":{"api":"4901929533","name":"PVU FED 23-14-5078","op":"CARBON CREEK ENERGY LLC","co":"Johnson","st":"WY","trs":"T50N R78W S14","fm":null,"eur":null,"perft":null,"sound":false,"fit":"none","geur":856137,"gfit":"sound"}},{"type":"Feature","geometry":{"type":"Point","coordinates":[-106.21382,44.30335]},"properties":{"api":"4901929534","name":"PVU FED 24-14-5078","op":"CARBON CREEK ENERGY LLC","co":"Johnson","st":"WY","trs":"T50N R78W S14","fm":null,"eur":null,"perft":null,"sound":false,"fit":"none","geur":1340142,"gfit":"sound"}},{"type":"Feature","geometry":{"type":"Point","coordinates":[-106.20593,44.30217]},"properties":{"api":"4901929535","name":"PVU FED 34-14-5078","op":"CARBON CREEK ENERGY LLC","co":"Johnson","st":"WY","trs":"T50N R78W S14","fm":null,"eur":null,"perft":null,"sound":false,"fit":"none","geur":784196,"gfit":"sound"}},{"type":"Feature","geometry":{"type":"Point","coordinates":[-106.23426,44.30708]},"properties":{"api":"4901929536","name":"PVU FED 12-15-5078","op":"CARBON CREEK ENERGY LLC","co":"Johnson","st":"WY","trs":"T50N R78W S15","fm":null,"eur":null,"perft":null,"sound":false,"fit":"none","geur":1476272,"gfit":"sound"}},{"type":"Feature","geometry":{"type":"Point","coordinates":[-106.23711,44.30327]},"properties":{"api":"4901929537","name":"PVU FED 14-15-5078","op":"CARBON CREEK ENERGY LLC","co":"Johnson","st":"WY","trs":"T50N R78W S15","fm":null,"eur":null,"perft":null,"sound":false,"fit":"none","geur":1321599,"gfit":"sound"}},{"type":"Feature","geometry":{"type":"Point","coordinates":[-106.23354,44.31293]},"properties":{"api":"4901929538","name":"PVU FED 21-15-5078","op":"CARBON CREEK ENERGY LLC","co":"Johnson","st":"WY","trs":"T50N R78W S15","fm":null,"eur":null,"perft":null,"sound":false,"fit":"none","geur":1404131,"gfit":"sound"}},{"type":"Feature","geometry":{"type":"Point","coordinates":[-106.23329,44.30472]},"properties":{"api":"4901929539","name":"PVU FED 23-15-5078","op":"CARBON CREEK ENERGY LLC","co":"Johnson","st":"WY","trs":"T50N R78W S15","fm":null,"eur":null,"perft":null,"sound":false,"fit":"none","geur":null,"gfit":"refused"}},{"type":"Feature","geometry":{"type":"Point","coordinates":[-106.22516,44.30792]},"properties":{"api":"4901929540","name":"PVU FED 32-15-5078","op":"CARBON CREEK ENERGY LLC","co":"Johnson","st":"WY","trs":"T50N R78W S15","fm":null,"eur":null,"perft":null,"sound":false,"fit":"none","geur":870143,"gfit":"sound"}},{"type":"Feature","geometry":{"type":"Point","coordinates":[-106.22297,44.30548]},"properties":{"api":"4901929541","name":"PVU FED 43-15-5078","op":"CARBON CREEK ENERGY LLC","co":"Johnson","st":"WY","trs":"T50N R78W S15","fm":null,"eur":null,"perft":null,"sound":false,"fit":"none","geur":1727939,"gfit":"sound"}},{"type":"Feature","geometry":{"type":"Point","coordinates":[-106.22151,44.30164]},"properties":{"api":"4901929542","name":"PVU FED 44-15-5078","op":"CARBON CREEK ENERGY LLC","co":"Johnson","st":"WY","trs":"T50N R78W S15","fm":null,"eur":null,"perft":null,"sound":false,"fit":"none","geur":960009,"gfit":"sound"}},{"type":"Feature","geometry":{"type":"Point","coordinates":[-106.2351,44.29481]},"properties":{"api":"4901929543","name":"PVU FED 12-22-5078","op":"CARBON CREEK ENERGY LLC","co":"Johnson","st":"WY","trs":"T50N R78W S22","fm":null,"eur":null,"perft":null,"sound":false,"fit":"none","geur":1588260,"gfit":"sound"}},{"type":"Feature","geometry":{"type":"Point","coordinates":[-106.2366,44.28646]},"properties":{"api":"4901929544","name":"PVU FED 14-22-5078","op":"CARBON CREEK ENERGY LLC","co":"Johnson","st":"WY","trs":"T50N R78W S22","fm":null,"eur":null,"perft":null,"sound":false,"fit":"none","geur":943941,"gfit":"sound"}},{"type":"Feature","geometry":{"type":"Point","coordinates":[-106.23343,44.2981]},"properties":{"api":"4901929545","name":"PVU FED 21-22-5078","op":"CARBON CREEK ENERGY LLC","co":"Johnson","st":"WY","trs":"T50N R78W S22","fm":null,"eur":null,"perft":null,"sound":false,"fit":"none","geur":2450634,"gfit":"sound"}},{"type":"Feature","geometry":{"type":"Point","coordinates":[-106.22647,44.29281]},"properties":{"api":"4901929546","name":"PVU FED 32-22-5078","op":"CARBON CREEK ENERGY LLC","co":"Johnson","st":"WY","trs":"T50N R78W S22","fm":null,"eur":null,"perft":null,"sound":false,"fit":"none","geur":992275,"gfit":"sound"}},{"type":"Feature","geometry":{"type":"Point","coordinates":[-106.22028,44.29929]},"properties":{"api":"4901929547","name":"PVU FED 41-22-5078","op":"CARBON CREEK ENERGY LLC","co":"Johnson","st":"WY","trs":"T50N R78W S22","fm":null,"eur":null,"perft":null,"sound":false,"fit":"none","geur":2258320,"gfit":"sound"}},{"type":"Feature","geometry":{"type":"Point","coordinates":[-106.194,44.30867]},"properties":{"api":"4901929548","name":"PVU FED 22-13-5078","op":"CARBON CREEK ENERGY LLC","co":"Johnson","st":"WY","trs":"T50N R78W S13","fm":null,"eur":null,"perft":null,"sound":false,"fit":"none","geur":null,"gfit":"refused"}},{"type":"Feature","geometry":{"type":"Point","coordinates":[-106.19231,44.31174]},"properties":{"api":"4901929549","name":"PVU FED 21-13-5078","op":"CARBON CREEK ENERGY LLC","co":"Johnson","st":"WY","trs":"T50N R78W S13","fm":null,"eur":null,"perft":null,"sound":false,"fit":"none","geur":1266143,"gfit":"sound"}},{"type":"Feature","geometry":{"type":"Point","coordinates":[-106.19578,44.3143]},"properties":{"api":"4901929550","name":"PVU FED 11-13-5078","op":"CARBON CREEK ENERGY LLC","co":"Johnson","st":"WY","trs":"T50N R78W S13","fm":null,"eur":null,"perft":null,"sound":false,"fit":"none","geur":null,"gfit":"refused"}},{"type":"Feature","geometry":{"type":"Point","coordinates":[-106.18631,44.31649]},"properties":{"api":"4901929551","name":"PVU FED 34-12-5078","op":"CARBON CREEK ENERGY LLC","co":"Johnson","st":"WY","trs":"T50N R78W S12","fm":null,"eur":null,"perft":null,"sound":false,"fit":"none","geur":null,"gfit":"refused"}},{"type":"Feature","geometry":{"type":"Point","coordinates":[-106.18607,44.32254]},"properties":{"api":"4901929552","name":"PVU FED 32-12-5078","op":"CARBON CREEK ENERGY LLC","co":"Johnson","st":"WY","trs":"T50N R78W S12","fm":null,"eur":null,"perft":null,"sound":false,"fit":"none","geur":739048,"gfit":"sound"}},{"type":"Feature","geometry":{"type":"Point","coordinates":[-106.1918,44.32137]},"properties":{"api":"4901929553","name":"PVU FED 23-12-5078","op":"CARBON CREEK ENERGY LLC","co":"Johnson","st":"WY","trs":"T50N R78W S12","fm":null,"eur":null,"perft":null,"sound":false,"fit":"none","geur":2302324,"gfit":"sound"}},{"type":"Feature","geometry":{"type":"Point","coordinates":[-106.18915,44.32588]},"properties":{"api":"4901929554","name":"PVU FED 21-12-5078","op":"CARBON CREEK ENERGY LLC","co":"Johnson","st":"WY","trs":"T50N R78W S12","fm":null,"eur":null,"perft":null,"sound":false,"fit":"none","geur":1112992,"gfit":"sound"}},{"type":"Feature","geometry":{"type":"Point","coordinates":[-106.19588,44.32402]},"properties":{"api":"4901929555","name":"PVU FED 12-12-5078","op":"CARBON CREEK ENERGY LLC","co":"Johnson","st":"WY","trs":"T50N R78W S12","fm":null,"eur":null,"perft":null,"sound":false,"fit":"none","geur":2060169,"gfit":"sound"}},{"type":"Feature","geometry":{"type":"Point","coordinates":[-106.19564,44.3287]},"properties":{"api":"4901929556","name":"PVU FED 11-12-5078","op":"CARBON CREEK ENERGY LLC","co":"Johnson","st":"WY","trs":"T50N R78W S12","fm":null,"eur":null,"perft":null,"sound":false,"fit":"none","geur":1579011,"gfit":"sound"}},{"type":"Feature","geometry":{"type":"Point","coordinates":[-106.19952,44.32343]},"properties":{"api":"4901929557","name":"PVU FED 42-11-5078","op":"CARBON CREEK ENERGY LLC","co":"Johnson","st":"WY","trs":"T50N R78W S11","fm":null,"eur":null,"perft":null,"sound":false,"fit":"none","geur":1679710,"gfit":"sound"}},{"type":"Feature","geometry":{"type":"Point","coordinates":[-106.20021,44.32573]},"properties":{"api":"4901929558","name":"PVU FED 41-11-5078","op":"CARBON CREEK ENERGY LLC","co":"Johnson","st":"WY","trs":"T50N R78W S11","fm":null,"eur":null,"perft":null,"sound":false,"fit":"none","geur":1729440,"gfit":"sound"}},{"type":"Feature","geometry":{"type":"Point","coordinates":[-106.20403,44.32872]},"properties":{"api":"4901929559","name":"PVU FED 31-11-5078","op":"CARBON CREEK ENERGY LLC","co":"Johnson","st":"WY","trs":"T50N R78W S11","fm":null,"eur":null,"perft":null,"sound":false,"fit":"none","geur":1231281,"gfit":"sound"}},{"type":"Feature","geometry":{"type":"Point","coordinates":[-106.21349,44.31717]},"properties":{"api":"4901929560","name":"PVU FED 24-11-5078","op":"CARBON CREEK ENERGY LLC","co":"Johnson","st":"WY","trs":"T50N R78W S11","fm":null,"eur":null,"perft":null,"sound":false,"fit":"none","geur":null,"gfit":"refused"}},{"type":"Feature","geometry":{"type":"Point","coordinates":[-106.21414,44.31469]},"properties":{"api":"4901929562","name":"PVU FED 14-11-5078","op":"CARBON CREEK ENERGY LLC","co":"Johnson","st":"WY","trs":"T50N R78W S11","fm":null,"eur":null,"perft":null,"sound":false,"fit":"none","geur":807035,"gfit":"sound"}},{"type":"Feature","geometry":{"type":"Point","coordinates":[-106.23805,44.31568]},"properties":{"api":"4901929564","name":"PVU FED 14-10-5078","op":"CARBON CREEK ENERGY LLC","co":"Johnson","st":"WY","trs":"T50N R78W S10","fm":null,"eur":null,"perft":null,"sound":false,"fit":"none","geur":975803,"gfit":"sound"}},{"type":"Feature","geometry":{"type":"Point","coordinates":[-106.22032,44.31069]},"properties":{"api":"4901929565","name":"PVU FED 42-15-5078","op":"CARBON CREEK ENERGY LLC","co":"Johnson","st":"WY","trs":"T50N R78W S15","fm":null,"eur":null,"perft":null,"sound":false,"fit":"none","geur":920250,"gfit":"sound"}},{"type":"Feature","geometry":{"type":"Point","coordinates":[-106.19704,44.30089]},"properties":{"api":"4901929566","name":"FEDERAL 14-13-5078","op":"CARBON CREEK ENERGY LLC","co":"Johnson","st":"WY","trs":"T50N R78W S13","fm":null,"eur":null,"perft":null,"sound":false,"fit":"none","geur":2272538,"gfit":"sound"}},{"type":"Feature","geometry":{"type":"Point","coordinates":[-106.17965,44.32908]},"properties":{"api":"4901929568","name":"PVU FED 41-12-5078","op":"CARBON CREEK ENERGY LLC","co":"Johnson","st":"WY","trs":"T50N R78W S12","fm":null,"eur":null,"perft":null,"sound":false,"fit":"none","geur":1369719,"gfit":"sound"}},{"type":"Feature","geometry":{"type":"Point","coordinates":[-106.19984,44.30422]},"properties":{"api":"4901929570","name":"PVU FED 43-14-5078","op":"CARBON CREEK ENERGY LLC","co":"Johnson","st":"WY","trs":"T50N R78W S14","fm":null,"eur":null,"perft":null,"sound":false,"fit":"none","geur":1335669,"gfit":"sound"}},{"type":"Feature","geometry":{"type":"Point","coordinates":[-106.256,44.27936]},"properties":{"api":"4901920159","name":"HAYS INJECTOR 1","op":"EOG RESOURCES INC","co":"Johnson","st":"WY","trs":"T50N R78W S28","fm":"FORT UNION","eur":null,"perft":null,"sound":false,"fit":"refused","geur":null,"gfit":"refused"}},{"type":"Feature","geometry":{"type":"Point","coordinates":[-106.26104,44.28295]},"properties":{"api":"4901920130","name":"YATES FED INJECTOR 1","op":"EOG RESOURCES INC","co":"Johnson","st":"WY","trs":"T50N R78W S29","fm":"FORT UNION","eur":null,"perft":null,"sound":false,"fit":"refused","geur":14493,"gfit":"sound"}}]}