{"type":"FeatureCollection","features":[{"type":"Feature","geometry":{"type":"Point","coordinates":[-105.37651,44.34799]},"properties":{"api":"4900521531","name":"SPRINGEN 1","op":"BANDING M R INC","co":"Campbell","st":"WY","trs":"T50N R71W S3","fm":null,"eur":null,"perft":null,"sound":false,"fit":"refused","geur":null,"gfit":"refused"}},{"type":"Feature","geometry":{"type":"Point","coordinates":[-105.32961,44.30077]},"properties":{"api":"4900526702","name":"RICH 2-24","op":"PINE HAVEN RESOURCES LLC","co":"Campbell","st":"WY","trs":"T50N R71W S24","fm":null,"eur":null,"perft":null,"sound":false,"fit":"refused","geur":null,"gfit":"none"}},{"type":"Feature","geometry":{"type":"Point","coordinates":[-105.32876,44.26768]},"properties":{"api":"4900528481","name":"FALCON RIDGE 43-36","op":"PINE HAVEN RESOURCES LLC","co":"Campbell","st":"WY","trs":"T50N R71W S36","fm":null,"eur":null,"perft":null,"sound":false,"fit":"refused","geur":null,"gfit":"refused"}},{"type":"Feature","geometry":{"type":"Point","coordinates":[-105.32806,44.27071]},"properties":{"api":"4900528518","name":"FALCON RIDGE  42-36","op":"PINE HAVEN RESOURCES LLC","co":"Campbell","st":"WY","trs":"T50N R71W S36","fm":null,"eur":null,"perft":null,"sound":false,"fit":"refused","geur":null,"gfit":"refused"}},{"type":"Feature","geometry":{"type":"Point","coordinates":[-105.33525,44.30994]},"properties":{"api":"4900529996","name":"RECORD 33-13","op":"PINE HAVEN RESOURCES LLC","co":"Campbell","st":"WY","trs":"T50N R71W S13","fm":null,"eur":1277622,"perft":null,"sound":true,"fit":"sound","geur":null,"gfit":"none"}},{"type":"Feature","geometry":{"type":"Point","coordinates":[-105.33417,44.30806]},"properties":{"api":"4900536192","name":"RECORD 34-13","op":"PINE HAVEN RESOURCES LLC","co":"Campbell","st":"WY","trs":"T50N R71W S13","fm":null,"eur":null,"perft":null,"sound":false,"fit":"refused","geur":null,"gfit":"none"}},{"type":"Feature","geometry":{"type":"Point","coordinates":[-105.3371,44.3123]},"properties":{"api":"4900541428","name":"RECORD 2-13","op":"PINE HAVEN RESOURCES LLC","co":"Campbell","st":"WY","trs":"T50N R71W S13","fm":"MINNELUSA","eur":370385,"perft":null,"sound":true,"fit":"sound","geur":null,"gfit":"none"}},{"type":"Feature","geometry":{"type":"Point","coordinates":[-105.42679,44.27405]},"properties":{"api":"4900529860","name":"AG FARMS 2","op":"VECTA OIL & GAS LTD","co":"Campbell","st":"WY","trs":"T50N R71W S32","fm":null,"eur":472569,"perft":null,"sound":true,"fit":"sound","geur":null,"gfit":"none"}},{"type":"Feature","geometry":{"type":"Point","coordinates":[-105.42681,44.27041]},"properties":{"api":"4900528692","name":"CAMPBELL CO LAND FEE 1-32","op":"VECTA OIL & GAS LTD","co":"Campbell","st":"WY","trs":"T50N R71W S32","fm":null,"eur":null,"perft":null,"sound":false,"fit":"refused","geur":null,"gfit":"none"}},{"type":"Feature","geometry":{"type":"Point","coordinates":[-105.43667,44.3]},"properties":{"api":"4900542972","name":"STONEPILE 5071-7-19","op":"L & J OPERATING INC","co":"Campbell","st":"WY","trs":"T50N R71W S19","fm":null,"eur":null,"perft":null,"sound":false,"fit":"none","geur":null,"gfit":"none"}},{"type":"Feature","geometry":{"type":"Point","coordinates":[-105.44167,44.29639]},"properties":{"api":"4900542973","name":"STONEPILE 5071-11-19","op":"L & J OPERATING INC","co":"Campbell","st":"WY","trs":"T50N R71W S19","fm":null,"eur":null,"perft":null,"sound":false,"fit":"none","geur":null,"gfit":"refused"}},{"type":"Feature","geometry":{"type":"Point","coordinates":[-105.44194,44.30361]},"properties":{"api":"4900550436","name":"LEO # 3-19","op":"L & J OPERATING INC","co":"Campbell","st":"WY","trs":"T50N R71W S19","fm":null,"eur":null,"perft":null,"sound":false,"fit":"none","geur":null,"gfit":"refused"}},{"type":"Feature","geometry":{"type":"Point","coordinates":[-105.44694,44.3]},"properties":{"api":"4900550438","name":"LEO #5-19","op":"L & J OPERATING INC","co":"Campbell","st":"WY","trs":"T50N R71W S19","fm":null,"eur":null,"perft":null,"sound":false,"fit":"none","geur":null,"gfit":"refused"}},{"type":"Feature","geometry":{"type":"Point","coordinates":[-105.43162,44.27767]},"properties":{"api":"4900528770","name":"FOX FEE 1-31","op":"VECTA OIL & GAS LTD","co":"Campbell","st":"WY","trs":"T50N R71W S30","fm":"MINNELUSA","eur":null,"perft":null,"sound":false,"fit":"refused","geur":null,"gfit":"none"}},{"type":"Feature","geometry":{"type":"Point","coordinates":[-105.36916,44.31221]},"properties":{"api":"4900529667","name":"FEDERAL 1-15","op":"BLACK HILLS EXPLORATION & PRODUCTION INC","co":"Campbell","st":"WY","trs":"T50N R71W S15","fm":null,"eur":null,"perft":null,"sound":false,"fit":"refused","geur":null,"gfit":"none"}},{"type":"Feature","geometry":{"type":"Point","coordinates":[-105.37918,44.31871]},"properties":{"api":"4900529760","name":"SUPERHORNET 3-15","op":"BLACK HILLS EXPLORATION & PRODUCTION INC","co":"Campbell","st":"WY","trs":"T50N R71W S15","fm":null,"eur":null,"perft":null,"sound":false,"fit":"refused","geur":null,"gfit":"none"}},{"type":"Feature","geometry":{"type":"Point","coordinates":[-105.41105,44.28557]},"properties":{"api":"4900530417","name":"KM FEE 8-29","op":"SM ENERGY COMPANY","co":"Campbell","st":"WY","trs":"T50N R71W S29","fm":null,"eur":149412,"perft":null,"sound":true,"fit":"sound","geur":null,"gfit":"none"}},{"type":"Feature","geometry":{"type":"Point","coordinates":[-105.21366,44.19448]},"properties":{"api":"4900550273","name":"DW STATE 22-11","op":"BALLARD PETROLEUM HOLDINGS LLC","co":"Campbell","st":"WY","trs":"T50N R71W S11","fm":null,"eur":null,"perft":null,"sound":false,"fit":"none","geur":null,"gfit":"none"}},{"type":"Feature","geometry":{"type":"Point","coordinates":[-105.43694,44.30361]},"properties":{"api":"4900550435","name":"LEO 2-19","op":"L & J OPERATING INC","co":"Campbell","st":"WY","trs":"T50N R71W S19","fm":null,"eur":null,"perft":null,"sound":false,"fit":"none","geur":null,"gfit":"none"}},{"type":"Feature","geometry":{"type":"Point","coordinates":[-105.44139,44.31139]},"properties":{"api":"4900550705","name":"IOLA 11-18","op":"L & J OPERATING INC","co":"Campbell","st":"WY","trs":"T50N R71W S18","fm":null,"eur":null,"perft":null,"sound":false,"fit":"none","geur":null,"gfit":"none"}},{"type":"Feature","geometry":{"type":"Point","coordinates":[-105.35066,44.3001]},"properties":{"api":"4900529988","name":"TIGERS TAIL 3","op":"RICHARDSON OPERATING CO","co":"Campbell","st":"WY","trs":"T50N R71W S23","fm":null,"eur":97781,"perft":null,"sound":true,"fit":"sound","geur":null,"gfit":"none"}},{"type":"Feature","geometry":{"type":"Point","coordinates":[-105.3552,44.29895]},"properties":{"api":"4900529957","name":"TIGERS TAIL 2","op":"RICHARDSON OPERATING CO","co":"Campbell","st":"WY","trs":"T50N R71W S23","fm":null,"eur":null,"perft":null,"sound":false,"fit":"none","geur":null,"gfit":"none"}},{"type":"Feature","geometry":{"type":"Point","coordinates":[-105.44279,44.3363]},"properties":{"api":"4900521195","name":"SPRINGEN 44","op":"EMERALD RESTORATION & PROD","co":"Campbell","st":"WY","trs":"T50N R71W S6","fm":null,"eur":null,"perft":null,"sound":false,"fit":"none","geur":null,"gfit":"none"}},{"type":"Feature","geometry":{"type":"Point","coordinates":[-105.44794,44.33986]},"properties":{"api":"4900521297","name":"SPRINGEN 41","op":"EMERALD RESTORATION & PROD","co":"Campbell","st":"WY","trs":"T50N R71W S6","fm":null,"eur":null,"perft":null,"sound":false,"fit":"refused","geur":null,"gfit":"refused"}},{"type":"Feature","geometry":{"type":"Point","coordinates":[-105.40763,44.34796]},"properties":{"api":"4900522249","name":"SPRINGEN 37","op":"EMERALD RESTORATION & PROD","co":"Campbell","st":"WY","trs":"T50N R71W S4","fm":null,"eur":null,"perft":null,"sound":false,"fit":"refused","geur":null,"gfit":"none"}},{"type":"Feature","geometry":{"type":"Point","coordinates":[-105.41648,44.33303]},"properties":{"api":"4900522254","name":"SPRINGEN RANCH UNIT 48","op":"EMERALD RESTORATION & PROD","co":"Campbell","st":"WY","trs":"T50N R71W S8","fm":null,"eur":null,"perft":null,"sound":false,"fit":"refused","geur":null,"gfit":"refused"}},{"type":"Feature","geometry":{"type":"Point","coordinates":[-105.4173,44.34739]},"properties":{"api":"4900522351","name":"SPRINGEN RANCH 36","op":"EMERALD RESTORATION & PROD","co":"Campbell","st":"WY","trs":"T50N R71W S5","fm":null,"eur":null,"perft":null,"sound":false,"fit":"refused","geur":null,"gfit":"none"}},{"type":"Feature","geometry":{"type":"Point","coordinates":[-105.42789,44.34731]},"properties":{"api":"4900522376","name":"BURKHARDT A 35","op":"EMERALD RESTORATION & PROD","co":"Campbell","st":"WY","trs":"T50N R71W S5","fm":null,"eur":null,"perft":null,"sound":false,"fit":"refused","geur":null,"gfit":"none"}},{"type":"Feature","geometry":{"type":"Point","coordinates":[-105.41675,44.34027]},"properties":{"api":"4900522421","name":"A J BURKHARDT B 43","op":"EMERALD RESTORATION & PROD","co":"Campbell","st":"WY","trs":"T50N R71W S5","fm":null,"eur":null,"perft":null,"sound":false,"fit":"refused","geur":null,"gfit":"none"}},{"type":"Feature","geometry":{"type":"Point","coordinates":[-105.42753,44.3401]},"properties":{"api":"4900522434","name":"A J BURKHARDT B 42","op":"EMERALD RESTORATION & PROD","co":"Campbell","st":"WY","trs":"T50N R71W S5","fm":null,"eur":null,"perft":null,"sound":false,"fit":"refused","geur":null,"gfit":"none"}},{"type":"Feature","geometry":{"type":"Point","coordinates":[-105.42228,44.33656]},"properties":{"api":"4900522454","name":"A J BURKHARDT C 46","op":"EMERALD RESTORATION & PROD","co":"Campbell","st":"WY","trs":"T50N R71W S5","fm":null,"eur":null,"perft":null,"sound":false,"fit":"refused","geur":null,"gfit":"refused"}},{"type":"Feature","geometry":{"type":"Point","coordinates":[-105.42719,44.33286]},"properties":{"api":"4900522492","name":"SPRINGEN 47","op":"EMERALD RESTORATION & PROD","co":"Campbell","st":"WY","trs":"T50N R71W S8","fm":null,"eur":null,"perft":null,"sound":false,"fit":"none","geur":null,"gfit":"none"}},{"type":"Feature","geometry":{"type":"Point","coordinates":[-105.42209,44.32932]},"properties":{"api":"4900522536","name":"SPRINGEN RANCH UNIT 49","op":"EMERALD RESTORATION & PROD","co":"Campbell","st":"WY","trs":"T50N R71W S8","fm":null,"eur":null,"perft":null,"sound":false,"fit":"none","geur":null,"gfit":"none"}},{"type":"Feature","geometry":{"type":"Point","coordinates":[-105.43185,44.27768]},"properties":{"api":"4900528851","name":"CAMPBELL CO LAND FEE 1-30","op":"VECTA OIL & GAS LTD","co":"Campbell","st":"WY","trs":"T50N R71W S30","fm":null,"eur":null,"perft":null,"sound":false,"fit":"none","geur":null,"gfit":"none"}},{"type":"Feature","geometry":{"type":"Point","coordinates":[-105.41161,44.31856]},"properties":{"api":"4900530915","name":"K/M MINES 41-17 1","op":"SWIFT ENERGY COMPANY","co":"Campbell","st":"WY","trs":"T50N R71W S17","fm":null,"eur":null,"perft":null,"sound":false,"fit":"none","geur":null,"gfit":"none"}},{"type":"Feature","geometry":{"type":"Point","coordinates":[-105.33519,44.29739]},"properties":{"api":"4900526495","name":"RICH 1-24","op":"DUNCAN OIL INC","co":"Campbell","st":"WY","trs":"T50N R71W S24","fm":null,"eur":null,"perft":null,"sound":false,"fit":"refused","geur":null,"gfit":"none"}},{"type":"Feature","geometry":{"type":"Point","coordinates":[-105.35006,44.28227]},"properties":{"api":"4900528294","name":"THOLSON FEE 1","op":"DCD INC","co":"Campbell","st":"WY","trs":"T50N R71W S26","fm":null,"eur":21581,"perft":null,"sound":true,"fit":"sound","geur":null,"gfit":"refused"}},{"type":"Feature","geometry":{"type":"Point","coordinates":[-105.36509,44.27491]},"properties":{"api":"4900528667","name":"PICKREL FEE 1-35","op":"DCD INC","co":"Campbell","st":"WY","trs":"T50N R71W S35","fm":null,"eur":20084,"perft":null,"sound":true,"fit":"sound","geur":null,"gfit":"none"}},{"type":"Feature","geometry":{"type":"Point","coordinates":[-105.37409,44.31142]},"properties":{"api":"4900530449","name":"SUPERHORNET 4-15R","op":"BLACK HILLS EXPLORATION & PRODUCTION INC","co":"Campbell","st":"WY","trs":"T50N R71W S15","fm":null,"eur":null,"perft":null,"sound":false,"fit":"none","geur":null,"gfit":"none"}},{"type":"Feature","geometry":{"type":"Point","coordinates":[-105.37879,44.31501]},"properties":{"api":"4900529738","name":"SUPERHORNET 2-15","op":"BLACK HILLS EXPLORATION & PRODUCTION INC","co":"Campbell","st":"WY","trs":"T50N R71W S15","fm":null,"eur":null,"perft":null,"sound":false,"fit":"refused","geur":null,"gfit":"none"}},{"type":"Feature","geometry":{"type":"Point","coordinates":[-105.37392,44.31169]},"properties":{"api":"4900529819","name":"SUPERHORNET FEDERAL 4-15","op":"BALLARD PETROLEUM HOLDINGS LLC","co":"Campbell","st":"WY","trs":"T50N R71W S15","fm":null,"eur":null,"perft":null,"sound":false,"fit":"refused","geur":null,"gfit":"none"}},{"type":"Feature","geometry":{"type":"Point","coordinates":[-105.32852,44.26433]},"properties":{"api":"4900528260","name":"FALCON RIDGE 44-36","op":"PINE HAVEN RESOURCES LLC","co":"Campbell","st":"WY","trs":"T50N R71W S36","fm":null,"eur":null,"perft":null,"sound":false,"fit":"refused","geur":null,"gfit":"refused"}},{"type":"Feature","geometry":{"type":"Point","coordinates":[-105.37971,44.32187]},"properties":{"api":"4900529848","name":"SUPERHORNET 5-10A","op":"BLACK HILLS EXPLORATION & PRODUCTION INC","co":"Campbell","st":"WY","trs":"T50N R71W S10","fm":null,"eur":null,"perft":null,"sound":false,"fit":"none","geur":null,"gfit":"none"}},{"type":"Feature","geometry":{"type":"Point","coordinates":[-105.43133,44.26826]},"properties":{"api":"4900529707","name":"AG FARMS UNIT FEE 1","op":"VECTA OIL & GAS LTD","co":"Campbell","st":"WY","trs":"T50N R71W S31","fm":null,"eur":null,"perft":null,"sound":false,"fit":"none","geur":null,"gfit":"none"}},{"type":"Feature","geometry":{"type":"Point","coordinates":[-105.33411,44.26821]},"properties":{"api":"4900529091","name":"FALCON RIDGE  33-36","op":"PINE HAVEN RESOURCES LLC","co":"Campbell","st":"WY","trs":"T50N R71W S36","fm":null,"eur":null,"perft":null,"sound":false,"fit":"none","geur":null,"gfit":"none"}},{"type":"Feature","geometry":{"type":"Point","coordinates":[-105.38131,44.34389]},"properties":{"api":"4900521609","name":"BRICKER RANCH 3","op":"LUFF EXPLORATION","co":"Campbell","st":"WY","trs":"T50N R71W S3","fm":null,"eur":100335,"perft":null,"sound":true,"fit":"sound","geur":null,"gfit":"none"}},{"type":"Feature","geometry":{"type":"Point","coordinates":[-105.3866,44.34746]},"properties":{"api":"4900521631","name":"BRICKER RANCH 4","op":"LUFF EXPLORATION","co":"Campbell","st":"WY","trs":"T50N R71W S3","fm":null,"eur":9026,"perft":null,"sound":true,"fit":"sound","geur":null,"gfit":"none"}},{"type":"Feature","geometry":{"type":"Point","coordinates":[-105.37017,44.264]},"properties":{"api":"4900523632","name":"FEDERAL 44-34","op":"FANCHER OIL LLC","co":"Campbell","st":"WY","trs":"T50N R71W S34","fm":null,"eur":null,"perft":null,"sound":false,"fit":"none","geur":null,"gfit":"none"}}]}