{"type":"FeatureCollection","features":[{"type":"Feature","geometry":{"type":"Point","coordinates":[-106.7217,44.42456]},"properties":{"api":"4901921133","name":"LDEC 41K-412","op":"FIDELITY EXPLORATION & PRODUCTION CO","co":"Johnson","st":"WY","trs":"T51N R82W S4","fm":null,"eur":null,"perft":null,"sound":false,"fit":"none","geur":null,"gfit":"none"}},{"type":"Feature","geometry":{"type":"Point","coordinates":[-106.71104,44.42426]},"properties":{"api":"4901921137","name":"LDEC 21HE-312","op":"FIDELITY EXPLORATION & PRODUCTION CO","co":"Johnson","st":"WY","trs":"T51N R82W S3","fm":null,"eur":null,"perft":null,"sound":false,"fit":"none","geur":null,"gfit":"none"}},{"type":"Feature","geometry":{"type":"Point","coordinates":[-106.71584,44.42465]},"properties":{"api":"4901921158","name":"LDEC 11BC-312","op":"FIDELITY EXPLORATION & PRODUCTION CO","co":"Johnson","st":"WY","trs":"T51N R82W S3","fm":null,"eur":null,"perft":null,"sound":false,"fit":"none","geur":null,"gfit":"none"}},{"type":"Feature","geometry":{"type":"Point","coordinates":[-106.71102,44.42448]},"properties":{"api":"4901921159","name":"TEXACO 21BC1-312","op":"FIDELITY EXPLORATION & PRODUCTION CO","co":"Johnson","st":"WY","trs":"T51N R82W S3","fm":null,"eur":null,"perft":null,"sound":false,"fit":"none","geur":null,"gfit":"none"}},{"type":"Feature","geometry":{"type":"Point","coordinates":[-106.69592,44.4247]},"properties":{"api":"4901921262","name":"LDEC 11UF-212","op":"FIDELITY EXPLORATION & PRODUCTION CO","co":"Johnson","st":"WY","trs":"T51N R82W S2","fm":null,"eur":null,"perft":null,"sound":false,"fit":"none","geur":null,"gfit":"none"}},{"type":"Feature","geometry":{"type":"Point","coordinates":[-106.69574,44.42086]},"properties":{"api":"4901921263","name":"LDEC 12BC-212","op":"FIDELITY EXPLORATION & PRODUCTION CO","co":"Johnson","st":"WY","trs":"T51N R82W S2","fm":null,"eur":null,"perft":null,"sound":false,"fit":"none","geur":null,"gfit":"none"}},{"type":"Feature","geometry":{"type":"Point","coordinates":[-106.69576,44.42109]},"properties":{"api":"4901921264","name":"LDEC 12UF-212","op":"FIDELITY EXPLORATION & PRODUCTION CO","co":"Johnson","st":"WY","trs":"T51N R82W S2","fm":null,"eur":null,"perft":null,"sound":false,"fit":"none","geur":null,"gfit":"none"}},{"type":"Feature","geometry":{"type":"Point","coordinates":[-106.69582,44.42132]},"properties":{"api":"4901921265","name":"LDEC 12U-212","op":"FIDELITY EXPLORATION & PRODUCTION CO","co":"Johnson","st":"WY","trs":"T51N R82W S2","fm":null,"eur":null,"perft":null,"sound":false,"fit":"none","geur":null,"gfit":"none"}},{"type":"Feature","geometry":{"type":"Point","coordinates":[-106.69581,44.41407]},"properties":{"api":"4901921268","name":"LDEC 14U-212","op":"FIDELITY EXPLORATION & PRODUCTION CO","co":"Johnson","st":"WY","trs":"T51N R82W S2","fm":null,"eur":null,"perft":null,"sound":false,"fit":"none","geur":null,"gfit":"none"}},{"type":"Feature","geometry":{"type":"Point","coordinates":[-106.69078,44.42452]},"properties":{"api":"4901921269","name":"LDEC 21BC-212","op":"SASOL SYNFUELS INTERNATIONAL PTY LTD","co":"Johnson","st":"WY","trs":"T51N R82W S2","fm":null,"eur":null,"perft":null,"sound":false,"fit":"none","geur":null,"gfit":"none"}},{"type":"Feature","geometry":{"type":"Point","coordinates":[-106.69086,44.42473]},"properties":{"api":"4901921270","name":"LDEC 21UF-212","op":"SASOL SYNFUELS INTERNATIONAL PTY LTD","co":"Johnson","st":"WY","trs":"T51N R82W S2","fm":null,"eur":null,"perft":null,"sound":false,"fit":"none","geur":null,"gfit":"none"}},{"type":"Feature","geometry":{"type":"Point","coordinates":[-106.69096,44.42494]},"properties":{"api":"4901921271","name":"LDEC 21U-212","op":"FIDELITY EXPLORATION & PRODUCTION CO","co":"Johnson","st":"WY","trs":"T51N R82W S2","fm":null,"eur":null,"perft":null,"sound":false,"fit":"none","geur":null,"gfit":"none"}},{"type":"Feature","geometry":{"type":"Point","coordinates":[-106.69074,44.42102]},"properties":{"api":"4901921272","name":"LDEC 22BC-212","op":"FIDELITY EXPLORATION & PRODUCTION CO","co":"Johnson","st":"WY","trs":"T51N R82W S2","fm":null,"eur":null,"perft":null,"sound":false,"fit":"none","geur":null,"gfit":"none"}},{"type":"Feature","geometry":{"type":"Point","coordinates":[-106.69087,44.42127]},"properties":{"api":"4901921273","name":"LDEC 22UF-212","op":"FIDELITY EXPLORATION & PRODUCTION CO","co":"Johnson","st":"WY","trs":"T51N R82W S2","fm":null,"eur":null,"perft":null,"sound":false,"fit":"none","geur":null,"gfit":"none"}},{"type":"Feature","geometry":{"type":"Point","coordinates":[-106.68626,44.4211]},"properties":{"api":"4901921277","name":"LDEC 32U-212","op":"FIDELITY EXPLORATION & PRODUCTION CO","co":"Johnson","st":"WY","trs":"T51N R82W S2","fm":null,"eur":null,"perft":null,"sound":false,"fit":"none","geur":null,"gfit":"none"}},{"type":"Feature","geometry":{"type":"Point","coordinates":[-106.68144,44.42486]},"properties":{"api":"4901921279","name":"LDEC 41U-212","op":"FIDELITY EXPLORATION & PRODUCTION CO","co":"Johnson","st":"WY","trs":"T51N R82W S2","fm":null,"eur":null,"perft":null,"sound":false,"fit":"none","geur":null,"gfit":"none"}},{"type":"Feature","geometry":{"type":"Point","coordinates":[-106.68074,44.41756]},"properties":{"api":"4901921280","name":"LDEC 43U-212","op":"FIDELITY EXPLORATION & PRODUCTION CO","co":"Johnson","st":"WY","trs":"T51N R82W S2","fm":null,"eur":null,"perft":null,"sound":false,"fit":"none","geur":null,"gfit":"none"}},{"type":"Feature","geometry":{"type":"Point","coordinates":[-106.6959,44.42449]},"properties":{"api":"4901921286","name":"LDEC 11BC-212","op":"FIDELITY EXPLORATION & PRODUCTION CO","co":"Johnson","st":"WY","trs":"T51N R82W S2","fm":null,"eur":null,"perft":null,"sound":false,"fit":"none","geur":null,"gfit":"none"}},{"type":"Feature","geometry":{"type":"Point","coordinates":[-106.67538,44.42117]},"properties":{"api":"4901921294","name":"TEXACO-BELUS 12U-112","op":"FIDELITY EXPLORATION & PRODUCTION CO","co":"Johnson","st":"WY","trs":"T51N R82W S1","fm":null,"eur":null,"perft":null,"sound":false,"fit":"none","geur":null,"gfit":"none"}},{"type":"Feature","geometry":{"type":"Point","coordinates":[-106.70059,44.42145]},"properties":{"api":"4901921310","name":"LDEC 42UF-312","op":"FIDELITY EXPLORATION & PRODUCTION CO","co":"Johnson","st":"WY","trs":"T51N R82W S3","fm":null,"eur":null,"perft":null,"sound":false,"fit":"none","geur":null,"gfit":"none"}},{"type":"Feature","geometry":{"type":"Point","coordinates":[-106.70272,44.42186]},"properties":{"api":"4901921311","name":"LDEC 42BC-312","op":"FIDELITY EXPLORATION & PRODUCTION CO","co":"Johnson","st":"WY","trs":"T51N R82W S3","fm":null,"eur":null,"perft":null,"sound":false,"fit":"none","geur":null,"gfit":"none"}},{"type":"Feature","geometry":{"type":"Point","coordinates":[-106.70093,44.42493]},"properties":{"api":"4901921312","name":"LDEC 41UF-312","op":"FIDELITY EXPLORATION & PRODUCTION CO","co":"Johnson","st":"WY","trs":"T51N R82W S3","fm":null,"eur":null,"perft":null,"sound":false,"fit":"none","geur":null,"gfit":"none"}},{"type":"Feature","geometry":{"type":"Point","coordinates":[-106.70092,44.42451]},"properties":{"api":"4901921313","name":"LDEC 41BC-312","op":"FIDELITY EXPLORATION & PRODUCTION CO","co":"Johnson","st":"WY","trs":"T51N R82W S3","fm":null,"eur":null,"perft":null,"sound":false,"fit":"none","geur":null,"gfit":"none"}},{"type":"Feature","geometry":{"type":"Point","coordinates":[-106.70551,44.41398]},"properties":{"api":"4901921315","name":"LDEC 34BC-312","op":"FIDELITY EXPLORATION & PRODUCTION CO","co":"Johnson","st":"WY","trs":"T51N R82W S3","fm":null,"eur":null,"perft":null,"sound":false,"fit":"none","geur":null,"gfit":"none"}},{"type":"Feature","geometry":{"type":"Point","coordinates":[-106.70605,44.4213]},"properties":{"api":"4901921318","name":"LDEC 32HE-312","op":"FIDELITY EXPLORATION & PRODUCTION CO","co":"Johnson","st":"WY","trs":"T51N R82W S3","fm":null,"eur":null,"perft":null,"sound":false,"fit":"none","geur":null,"gfit":"none"}},{"type":"Feature","geometry":{"type":"Point","coordinates":[-106.70604,44.42088]},"properties":{"api":"4901921319","name":"LDEC 32BC-312","op":"FIDELITY EXPLORATION & PRODUCTION CO","co":"Johnson","st":"WY","trs":"T51N R82W S3","fm":null,"eur":null,"perft":null,"sound":false,"fit":"none","geur":null,"gfit":"none"}},{"type":"Feature","geometry":{"type":"Point","coordinates":[-106.70642,44.42489]},"properties":{"api":"4901921320","name":"LDEC 31HE-312","op":"FIDELITY EXPLORATION & PRODUCTION CO","co":"Johnson","st":"WY","trs":"T51N R82W S3","fm":null,"eur":null,"perft":null,"sound":false,"fit":"none","geur":null,"gfit":"none"}},{"type":"Feature","geometry":{"type":"Point","coordinates":[-106.70642,44.42489]},"properties":{"api":"4901921321","name":"LDEC 31BC-312","op":"FIDELITY EXPLORATION & PRODUCTION CO","co":"Johnson","st":"WY","trs":"T51N R82W S3","fm":null,"eur":null,"perft":null,"sound":false,"fit":"none","geur":null,"gfit":"none"}},{"type":"Feature","geometry":{"type":"Point","coordinates":[-106.71669,44.42094]},"properties":{"api":"4901921323","name":"LDEC 12HE-312","op":"FIDELITY EXPLORATION & PRODUCTION CO","co":"Johnson","st":"WY","trs":"T51N R82W S3","fm":null,"eur":null,"perft":null,"sound":false,"fit":"none","geur":null,"gfit":"none"}},{"type":"Feature","geometry":{"type":"Point","coordinates":[-106.70109,44.41766]},"properties":{"api":"4901921379","name":"LDEC 43BC-312","op":"FIDELITY EXPLORATION & PRODUCTION CO","co":"Johnson","st":"WY","trs":"T51N R82W S3","fm":null,"eur":null,"perft":null,"sound":false,"fit":"none","geur":null,"gfit":"none"}},{"type":"Feature","geometry":{"type":"Point","coordinates":[-106.71167,44.41806]},"properties":{"api":"4901921684","name":"LDEC 23BC-312","op":"FIDELITY EXPLORATION & PRODUCTION CO","co":"Johnson","st":"WY","trs":"T51N R82W S3","fm":null,"eur":null,"perft":null,"sound":false,"fit":"none","geur":null,"gfit":"none"}},{"type":"Feature","geometry":{"type":"Point","coordinates":[-106.71672,44.41419]},"properties":{"api":"4901921685","name":"LDEC 14BC-312","op":"FIDELITY EXPLORATION & PRODUCTION CO","co":"Johnson","st":"WY","trs":"T51N R82W S3","fm":null,"eur":null,"perft":null,"sound":false,"fit":"none","geur":null,"gfit":"none"}},{"type":"Feature","geometry":{"type":"Point","coordinates":[-106.72246,44.42474]},"properties":{"api":"4901921886","name":"LDEC 41UF-412","op":"FIDELITY EXPLORATION & PRODUCTION CO","co":"Johnson","st":"WY","trs":"T51N R82W S4","fm":null,"eur":null,"perft":null,"sound":false,"fit":"none","geur":null,"gfit":"none"}}]}