{"type":"FeatureCollection","features":[{"type":"Feature","geometry":{"type":"Point","coordinates":[-106.18367,44.49025]},"properties":{"api":"4901922835","name":"RDU PACKARD 44-12-5278","op":"CARBON CREEK ENERGY LLC","co":"Johnson","st":"WY","trs":"T52N R78W S12","fm":null,"eur":null,"perft":null,"sound":false,"fit":"none","geur":null,"gfit":"none"}},{"type":"Feature","geometry":{"type":"Point","coordinates":[-106.18876,44.46919]},"properties":{"api":"4901924923","name":"RDU E KNUDSON FED 32-24-5278","op":"CARBON CREEK ENERGY LLC","co":"Johnson","st":"WY","trs":"T52N R78W S24","fm":null,"eur":null,"perft":null,"sound":false,"fit":"none","geur":null,"gfit":"none"}},{"type":"Feature","geometry":{"type":"Point","coordinates":[-106.28483,44.46569]},"properties":{"api":"4901926205","name":"LAWRENCE 43-19-5278WA","op":"CARBON CREEK ENERGY LLC","co":"Johnson","st":"WY","trs":"T52N R78W S19","fm":null,"eur":null,"perft":null,"sound":false,"fit":"none","geur":null,"gfit":"none"}},{"type":"Feature","geometry":{"type":"Point","coordinates":[-106.20311,44.47293]},"properties":{"api":"4901926331","name":"RDU FED 41-23-5278","op":"CARBON CREEK ENERGY LLC","co":"Johnson","st":"WY","trs":"T52N R78W S23","fm":null,"eur":null,"perft":null,"sound":false,"fit":"none","geur":null,"gfit":"refused"}},{"type":"Feature","geometry":{"type":"Point","coordinates":[-106.20398,44.46552]},"properties":{"api":"4901926332","name":"RDU FED 43-23-5278","op":"CARBON CREEK ENERGY LLC","co":"Johnson","st":"WY","trs":"T52N R78W S23","fm":null,"eur":null,"perft":null,"sound":false,"fit":"none","geur":null,"gfit":"none"}},{"type":"Feature","geometry":{"type":"Point","coordinates":[-106.19804,44.46896]},"properties":{"api":"4901926333","name":"RDU FED 12-24-5278","op":"CARBON CREEK ENERGY LLC","co":"Johnson","st":"WY","trs":"T52N R78W S24","fm":null,"eur":null,"perft":null,"sound":false,"fit":"none","geur":null,"gfit":"none"}},{"type":"Feature","geometry":{"type":"Point","coordinates":[-106.19228,44.47245]},"properties":{"api":"4901926334","name":"RDU FED 21-24-5278","op":"CARBON CREEK ENERGY LLC","co":"Johnson","st":"WY","trs":"T52N R78W S24","fm":null,"eur":null,"perft":null,"sound":false,"fit":"none","geur":null,"gfit":"none"}},{"type":"Feature","geometry":{"type":"Point","coordinates":[-106.19151,44.46639]},"properties":{"api":"4901926335","name":"RDU FED 23-24-5278","op":"CARBON CREEK ENERGY LLC","co":"Johnson","st":"WY","trs":"T52N R78W S24","fm":null,"eur":null,"perft":null,"sound":false,"fit":"none","geur":null,"gfit":"none"}},{"type":"Feature","geometry":{"type":"Point","coordinates":[-106.18438,44.46626]},"properties":{"api":"4901926336","name":"RDU FED 43-24-5278","op":"CARBON CREEK ENERGY LLC","co":"Johnson","st":"WY","trs":"T52N R78W S24","fm":null,"eur":null,"perft":null,"sound":false,"fit":"none","geur":null,"gfit":"none"}},{"type":"Feature","geometry":{"type":"Point","coordinates":[-106.21542,44.46548]},"properties":{"api":"4901926337","name":"RDU FED 23-23-5278","op":"CARBON CREEK ENERGY LLC","co":"Johnson","st":"WY","trs":"T52N R78W S23","fm":null,"eur":null,"perft":null,"sound":false,"fit":"none","geur":null,"gfit":"none"}},{"type":"Feature","geometry":{"type":"Point","coordinates":[-106.18728,44.46328]},"properties":{"api":"4901926431","name":"RDU FED 34-24-5278","op":"CARBON CREEK ENERGY LLC","co":"Johnson","st":"WY","trs":"T52N R78W S24","fm":null,"eur":null,"perft":null,"sound":false,"fit":"none","geur":null,"gfit":"none"}},{"type":"Feature","geometry":{"type":"Point","coordinates":[-106.21793,44.4616]},"properties":{"api":"4901926432","name":"RDU FED 14-23-5278","op":"CARBON CREEK ENERGY LLC","co":"Johnson","st":"WY","trs":"T52N R78W S23","fm":null,"eur":null,"perft":null,"sound":false,"fit":"none","geur":null,"gfit":"none"}},{"type":"Feature","geometry":{"type":"Point","coordinates":[-106.21539,44.47223]},"properties":{"api":"4901926433","name":"RDU  21-23-5278WA","op":"CARBON CREEK ENERGY LLC","co":"Johnson","st":"WY","trs":"T52N R78W S23","fm":null,"eur":null,"perft":null,"sound":false,"fit":"none","geur":null,"gfit":"none"}},{"type":"Feature","geometry":{"type":"Point","coordinates":[-106.21457,44.48722]},"properties":{"api":"4901926467","name":"RDU PACKARD 21-14-5278WA","op":"CARBON CREEK ENERGY LLC","co":"Johnson","st":"WY","trs":"T52N R78W S14","fm":null,"eur":null,"perft":null,"sound":false,"fit":"none","geur":null,"gfit":"none"}},{"type":"Feature","geometry":{"type":"Point","coordinates":[-106.19816,44.49834]},"properties":{"api":"4901926893","name":"RDU PACKARD 12-12-5278WA","op":"CARBON CREEK ENERGY LLC","co":"Johnson","st":"WY","trs":"T52N R78W S12","fm":null,"eur":null,"perft":null,"sound":false,"fit":"none","geur":null,"gfit":"none"}},{"type":"Feature","geometry":{"type":"Point","coordinates":[-106.21208,44.49424]},"properties":{"api":"4901927383","name":"RDU PACKARD 23-11-5278","op":"CARBON CREEK ENERGY LLC","co":"Johnson","st":"WY","trs":"T52N R78W S11","fm":null,"eur":null,"perft":null,"sound":false,"fit":"none","geur":null,"gfit":"none"}},{"type":"Feature","geometry":{"type":"Point","coordinates":[-106.2555,44.46451]},"properties":{"api":"4901927670","name":"RDU 23-21-5278","op":"CARBON CREEK ENERGY LLC","co":"Johnson","st":"WY","trs":"T52N R78W S21","fm":null,"eur":null,"perft":null,"sound":false,"fit":"none","geur":null,"gfit":"none"}},{"type":"Feature","geometry":{"type":"Point","coordinates":[-106.24404,44.46605]},"properties":{"api":"4901927671","name":"RDU 43-21-5278","op":"CARBON CREEK ENERGY LLC","co":"Johnson","st":"WY","trs":"T52N R78W S21","fm":null,"eur":null,"perft":null,"sound":false,"fit":"none","geur":null,"gfit":"none"}},{"type":"Feature","geometry":{"type":"Point","coordinates":[-106.24236,44.4806]},"properties":{"api":"4901927765","name":"RDU STATE 43-16-5278","op":"CARBON CREEK ENERGY LLC","co":"Johnson","st":"WY","trs":"T52N R78W S16","fm":null,"eur":null,"perft":null,"sound":false,"fit":"none","geur":null,"gfit":"none"}},{"type":"Feature","geometry":{"type":"Point","coordinates":[-106.25475,44.47994]},"properties":{"api":"4901927767","name":"RDU STATE 23-16-5278","op":"CARBON CREEK ENERGY LLC","co":"Johnson","st":"WY","trs":"T52N R78W S16","fm":null,"eur":null,"perft":null,"sound":false,"fit":"none","geur":null,"gfit":"none"}},{"type":"Feature","geometry":{"type":"Point","coordinates":[-106.24428,44.47293]},"properties":{"api":"4901927839","name":"RDU 41-21-5278","op":"CARBON CREEK ENERGY LLC","co":"Johnson","st":"WY","trs":"T52N R78W S21","fm":null,"eur":null,"perft":null,"sound":false,"fit":"none","geur":null,"gfit":"none"}},{"type":"Feature","geometry":{"type":"Point","coordinates":[-106.18654,44.50471]},"properties":{"api":"4901928168","name":"RDU PACKARD 34-1-5278","op":"CARBON CREEK ENERGY LLC","co":"Johnson","st":"WY","trs":"T52N R78W S1","fm":null,"eur":null,"perft":null,"sound":false,"fit":"none","geur":null,"gfit":"none"}},{"type":"Feature","geometry":{"type":"Point","coordinates":[-106.18346,44.50818]},"properties":{"api":"4901928169","name":"RDU PACKARD 43-1-5278","op":"CARBON CREEK ENERGY LLC","co":"Johnson","st":"WY","trs":"T52N R78W S1","fm":null,"eur":null,"perft":null,"sound":false,"fit":"none","geur":null,"gfit":"none"}},{"type":"Feature","geometry":{"type":"Point","coordinates":[-106.2112,44.49118]},"properties":{"api":"4901928170","name":"RDU PACKARD 34-11-5278","op":"CARBON CREEK ENERGY LLC","co":"Johnson","st":"WY","trs":"T52N R78W S11","fm":null,"eur":null,"perft":null,"sound":false,"fit":"none","geur":null,"gfit":"none"}},{"type":"Feature","geometry":{"type":"Point","coordinates":[-106.20376,44.49482]},"properties":{"api":"4901928171","name":"RDU PACKARD 43-11-5278","op":"CARBON CREEK ENERGY LLC","co":"Johnson","st":"WY","trs":"T52N R78W S11","fm":null,"eur":null,"perft":null,"sound":false,"fit":"none","geur":null,"gfit":"none"}},{"type":"Feature","geometry":{"type":"Point","coordinates":[-106.19354,44.50242]},"properties":{"api":"4901928173","name":"RDU PACKARD 21-12-5278","op":"CARBON CREEK ENERGY LLC","co":"Johnson","st":"WY","trs":"T52N R78W S12","fm":null,"eur":null,"perft":null,"sound":false,"fit":"none","geur":null,"gfit":"none"}},{"type":"Feature","geometry":{"type":"Point","coordinates":[-106.19372,44.49463]},"properties":{"api":"4901928174","name":"RDU PACKARD 23-12-5278","op":"CARBON CREEK ENERGY LLC","co":"Johnson","st":"WY","trs":"T52N R78W S12","fm":null,"eur":null,"perft":null,"sound":false,"fit":"none","geur":null,"gfit":"none"}},{"type":"Feature","geometry":{"type":"Point","coordinates":[-106.18931,44.49886]},"properties":{"api":"4901928175","name":"RDU PACKARD 32-12-5278","op":"CARBON CREEK ENERGY LLC","co":"Johnson","st":"WY","trs":"T52N R78W S12","fm":null,"eur":null,"perft":null,"sound":false,"fit":"none","geur":null,"gfit":"none"}},{"type":"Feature","geometry":{"type":"Point","coordinates":[-106.18976,44.49049]},"properties":{"api":"4901928176","name":"RDU PACKARD 34-12-5278","op":"CARBON CREEK ENERGY LLC","co":"Johnson","st":"WY","trs":"T52N R78W S12","fm":null,"eur":null,"perft":null,"sound":false,"fit":"none","geur":null,"gfit":"none"}},{"type":"Feature","geometry":{"type":"Point","coordinates":[-106.18297,44.50182]},"properties":{"api":"4901928177","name":"RDU PACKARD 41-12-5278","op":"CARBON CREEK ENERGY LLC","co":"Johnson","st":"WY","trs":"T52N R78W S12","fm":null,"eur":null,"perft":null,"sound":false,"fit":"none","geur":null,"gfit":"none"}},{"type":"Feature","geometry":{"type":"Point","coordinates":[-106.18583,44.49613]},"properties":{"api":"4901928178","name":"RDU PACKARD 43-12-5278","op":"CARBON CREEK ENERGY LLC","co":"Johnson","st":"WY","trs":"T52N R78W S12","fm":null,"eur":null,"perft":null,"sound":false,"fit":"none","geur":null,"gfit":"none"}},{"type":"Feature","geometry":{"type":"Point","coordinates":[-106.18746,44.4778]},"properties":{"api":"4901928181","name":"RDU PACKARD 34-13-5278","op":"CARBON CREEK ENERGY LLC","co":"Johnson","st":"WY","trs":"T52N R78W S13","fm":null,"eur":null,"perft":null,"sound":false,"fit":"none","geur":null,"gfit":"none"}},{"type":"Feature","geometry":{"type":"Point","coordinates":[-106.18402,44.47924]},"properties":{"api":"4901928183","name":"RDU PACKARD 43-13-5278","op":"CARBON CREEK ENERGY LLC","co":"Johnson","st":"WY","trs":"T52N R78W S13","fm":null,"eur":null,"perft":null,"sound":false,"fit":"none","geur":null,"gfit":"none"}},{"type":"Feature","geometry":{"type":"Point","coordinates":[-106.21756,44.4828]},"properties":{"api":"4901928184","name":"RDU PACKARD 12-14-5278","op":"CARBON CREEK ENERGY LLC","co":"Johnson","st":"WY","trs":"T52N R78W S14","fm":null,"eur":null,"perft":null,"sound":false,"fit":"none","geur":null,"gfit":"none"}},{"type":"Feature","geometry":{"type":"Point","coordinates":[-106.20842,44.48483]},"properties":{"api":"4901928185","name":"RDU PACKARD 32-14-5278","op":"CARBON CREEK ENERGY LLC","co":"Johnson","st":"WY","trs":"T52N R78W S14","fm":null,"eur":null,"perft":null,"sound":false,"fit":"none","geur":null,"gfit":"none"}},{"type":"Feature","geometry":{"type":"Point","coordinates":[-106.19177,44.47961]},"properties":{"api":"4901928660","name":"RDU PACKARD 23-13-5278","op":"CARBON CREEK ENERGY LLC","co":"Johnson","st":"WY","trs":"T52N R78W S13","fm":null,"eur":null,"perft":null,"sound":false,"fit":"none","geur":null,"gfit":"none"}},{"type":"Feature","geometry":{"type":"Point","coordinates":[-106.20407,44.48004]},"properties":{"api":"4901928689","name":"RDU LAWRENCE FED 43-14-5278","op":"CARBON CREEK ENERGY LLC","co":"Johnson","st":"WY","trs":"T52N R78W S14","fm":null,"eur":null,"perft":null,"sound":false,"fit":"none","geur":null,"gfit":"none"}},{"type":"Feature","geometry":{"type":"Point","coordinates":[-106.23888,44.46325]},"properties":{"api":"4901928690","name":"RDU LAWRENCE FED 14-22-5278","op":"CARBON CREEK ENERGY LLC","co":"Johnson","st":"WY","trs":"T52N R78W S22","fm":null,"eur":null,"perft":null,"sound":false,"fit":"none","geur":null,"gfit":"none"}},{"type":"Feature","geometry":{"type":"Point","coordinates":[-106.24043,44.46893]},"properties":{"api":"4901928691","name":"RDU LAWRENCE FED 12-22-5278","op":"CARBON CREEK ENERGY LLC","co":"Johnson","st":"WY","trs":"T52N R78W S22","fm":null,"eur":null,"perft":null,"sound":false,"fit":"none","geur":null,"gfit":"none"}},{"type":"Feature","geometry":{"type":"Point","coordinates":[-106.20648,44.47767]},"properties":{"api":"4901928692","name":"RDU LAWRENCE FED 34-14-5278","op":"CARBON CREEK ENERGY LLC","co":"Johnson","st":"WY","trs":"T52N R78W S14","fm":null,"eur":null,"perft":null,"sound":false,"fit":"none","geur":null,"gfit":"none"}},{"type":"Feature","geometry":{"type":"Point","coordinates":[-106.19788,44.47735]},"properties":{"api":"4901928693","name":"RDU LAWRENCE FED 14-13-5278","op":"CARBON CREEK ENERGY LLC","co":"Johnson","st":"WY","trs":"T52N R78W S13","fm":null,"eur":null,"perft":null,"sound":false,"fit":"none","geur":null,"gfit":"none"}},{"type":"Feature","geometry":{"type":"Point","coordinates":[-106.25948,44.46253]},"properties":{"api":"4901928695","name":"RDU LAWRENCE FED 14-21-5278","op":"CARBON CREEK ENERGY LLC","co":"Johnson","st":"WY","trs":"T52N R78W S21","fm":null,"eur":null,"perft":null,"sound":false,"fit":"none","geur":null,"gfit":"none"}},{"type":"Feature","geometry":{"type":"Point","coordinates":[-106.19992,44.46312]},"properties":{"api":"4901928702","name":"RDU LAWRENCE FED 14-24-5278","op":"CARBON CREEK ENERGY LLC","co":"Johnson","st":"WY","trs":"T52N R78W S24","fm":null,"eur":null,"perft":null,"sound":false,"fit":"none","geur":null,"gfit":"none"}},{"type":"Feature","geometry":{"type":"Point","coordinates":[-106.2273,44.4648]},"properties":{"api":"4901928703","name":"RDU LAWRENCE FED 33-22-5278","op":"CARBON CREEK ENERGY LLC","co":"Johnson","st":"WY","trs":"T52N R78W S22","fm":null,"eur":null,"perft":null,"sound":false,"fit":"none","geur":null,"gfit":"none"}},{"type":"Feature","geometry":{"type":"Point","coordinates":[-106.20866,44.46431]},"properties":{"api":"4901928705","name":"RDU FED 33-23-5278","op":"CARBON CREEK ENERGY LLC","co":"Johnson","st":"WY","trs":"T52N R78W S23","fm":null,"eur":null,"perft":null,"sound":false,"fit":"none","geur":null,"gfit":"none"}},{"type":"Feature","geometry":{"type":"Point","coordinates":[-106.23151,44.46333]},"properties":{"api":"4901928706","name":"RDU LAWRENCE FED 34-22-5278","op":"CARBON CREEK ENERGY LLC","co":"Johnson","st":"WY","trs":"T52N R78W S22","fm":null,"eur":null,"perft":null,"sound":false,"fit":"none","geur":null,"gfit":"none"}},{"type":"Feature","geometry":{"type":"Point","coordinates":[-106.22086,44.46865]},"properties":{"api":"4901928707","name":"RDU STATE 12-23-5278","op":"CARBON CREEK ENERGY LLC","co":"Johnson","st":"WY","trs":"T52N R78W S23","fm":null,"eur":null,"perft":null,"sound":false,"fit":"none","geur":null,"gfit":"none"}},{"type":"Feature","geometry":{"type":"Point","coordinates":[-106.23465,44.46533]},"properties":{"api":"4901928708","name":"RDU LAWRENCE FED 23-22-5278","op":"CARBON CREEK ENERGY LLC","co":"Johnson","st":"WY","trs":"T52N R78W S22","fm":null,"eur":null,"perft":null,"sound":false,"fit":"none","geur":null,"gfit":"none"}},{"type":"Feature","geometry":{"type":"Point","coordinates":[-106.21907,44.47721]},"properties":{"api":"4901928722","name":"RDU STATE 14-14-5278","op":"CARBON CREEK ENERGY LLC","co":"Johnson","st":"WY","trs":"T52N R78W S14","fm":null,"eur":null,"perft":null,"sound":false,"fit":"none","geur":null,"gfit":"none"}},{"type":"Feature","geometry":{"type":"Point","coordinates":[-106.23707,44.47684]},"properties":{"api":"4901928723","name":"RDU STATE 14-15-5278","op":"CARBON CREEK ENERGY LLC","co":"Johnson","st":"WY","trs":"T52N R78W S15","fm":null,"eur":null,"perft":null,"sound":false,"fit":"none","geur":null,"gfit":"none"}},{"type":"Feature","geometry":{"type":"Point","coordinates":[-106.23363,44.47972]},"properties":{"api":"4901928724","name":"RDU STATE 23-15-5278","op":"CARBON CREEK ENERGY LLC","co":"Johnson","st":"WY","trs":"T52N R78W S15","fm":null,"eur":null,"perft":null,"sound":false,"fit":"none","geur":null,"gfit":"none"}},{"type":"Feature","geometry":{"type":"Point","coordinates":[-106.22953,44.47659]},"properties":{"api":"4901928725","name":"RDU STATE 34-15-5278","op":"CARBON CREEK ENERGY LLC","co":"Johnson","st":"WY","trs":"T52N R78W S15","fm":null,"eur":null,"perft":null,"sound":false,"fit":"none","geur":null,"gfit":"none"}},{"type":"Feature","geometry":{"type":"Point","coordinates":[-106.23358,44.47338]},"properties":{"api":"4901928726","name":"RDU STATE 21-22-5278","op":"CARBON CREEK ENERGY LLC","co":"Johnson","st":"WY","trs":"T52N R78W S22","fm":null,"eur":null,"perft":null,"sound":false,"fit":"none","geur":null,"gfit":"none"}},{"type":"Feature","geometry":{"type":"Point","coordinates":[-106.23158,44.46969]},"properties":{"api":"4901928727","name":"RDU STATE 32-22-5278","op":"CARBON CREEK ENERGY LLC","co":"Johnson","st":"WY","trs":"T52N R78W S22","fm":null,"eur":null,"perft":null,"sound":false,"fit":"none","geur":null,"gfit":"none"}},{"type":"Feature","geometry":{"type":"Point","coordinates":[-106.19807,44.44042]},"properties":{"api":"4901929001","name":"YACHT CS STATE 3","op":"EOG RESOURCES INC","co":"Johnson","st":"WY","trs":"T52N R78W S36","fm":null,"eur":null,"perft":null,"sound":false,"fit":"none","geur":null,"gfit":"none"}},{"type":"Feature","geometry":{"type":"Point","coordinates":[-106.24562,44.47658]},"properties":{"api":"4901929584","name":"RDU STATE 44-16-5278","op":"CARBON CREEK ENERGY LLC","co":"Johnson","st":"WY","trs":"T52N R78W S16","fm":null,"eur":null,"perft":null,"sound":false,"fit":"none","geur":null,"gfit":"none"}},{"type":"Feature","geometry":{"type":"Point","coordinates":[-106.25278,44.44458]},"properties":{"api":"4901930009","name":"KAYAK CS FEDERAL 15","op":"EOG RESOURCES INC","co":"Johnson","st":"WY","trs":"T52N R78W S33","fm":null,"eur":null,"perft":null,"sound":false,"fit":"none","geur":null,"gfit":"none"}},{"type":"Feature","geometry":{"type":"Point","coordinates":[-106.18147,44.46956]},"properties":{"api":"4901924952","name":"RDU FED 42-24-5278","op":"CARBON CREEK ENERGY LLC","co":"Johnson","st":"WY","trs":"T52N R78W S24","fm":null,"eur":null,"perft":null,"sound":false,"fit":"none","geur":null,"gfit":"none"}},{"type":"Feature","geometry":{"type":"Point","coordinates":[-106.25446,44.47293]},"properties":{"api":"4901927837","name":"RDU 21-21-5278","op":"CARBON CREEK ENERGY LLC","co":"Johnson","st":"WY","trs":"T52N R78W S21","fm":null,"eur":null,"perft":null,"sound":false,"fit":"none","geur":null,"gfit":"none"}},{"type":"Feature","geometry":{"type":"Point","coordinates":[-106.28569,44.45897]},"properties":{"api":"4901926207","name":"RDU LAWRENCE 41-30-5278WA","op":"ANADARKO E&P ONSHORE LLC","co":"Johnson","st":"WY","trs":"T52N R78W S30","fm":null,"eur":null,"perft":null,"sound":false,"fit":"none","geur":null,"gfit":"none"}}]}