{"type":"FeatureCollection","features":[{"type":"Feature","geometry":{"type":"Point","coordinates":[-106.54036,44.49702]},"properties":{"api":"4901922335","name":"ESPONDA 1-12A","op":"NORTHWEST ENERGY LLC","co":"Johnson","st":"WY","trs":"T52N R81W S12","fm":null,"eur":null,"perft":null,"sound":false,"fit":"none","geur":null,"gfit":"none"}},{"type":"Feature","geometry":{"type":"Point","coordinates":[-106.54485,44.49379]},"properties":{"api":"4901922338","name":"WATT 7-12A","op":"NORTHWEST ENERGY LLC","co":"Johnson","st":"WY","trs":"T52N R81W S12","fm":null,"eur":null,"perft":null,"sound":false,"fit":"none","geur":null,"gfit":"none"}},{"type":"Feature","geometry":{"type":"Point","coordinates":[-106.5454,44.4863]},"properties":{"api":"4901922356","name":"WATT 15-12A","op":"NORTHWEST ENERGY LLC","co":"Johnson","st":"WY","trs":"T52N R81W S12","fm":null,"eur":null,"perft":null,"sound":false,"fit":"none","geur":null,"gfit":"none"}},{"type":"Feature","geometry":{"type":"Point","coordinates":[-106.55056,44.48231]},"properties":{"api":"4901922357","name":"WATT 3-13A","op":"NORTHWEST ENERGY LLC","co":"Johnson","st":"WY","trs":"T52N R81W S13","fm":null,"eur":null,"perft":null,"sound":false,"fit":"none","geur":null,"gfit":"none"}},{"type":"Feature","geometry":{"type":"Point","coordinates":[-106.54106,44.46005]},"properties":{"api":"4901922360","name":"STATE 9-24R","op":"NORTHWEST ENERGY LLC","co":"Johnson","st":"WY","trs":"T52N R81W S24","fm":null,"eur":null,"perft":null,"sound":false,"fit":"none","geur":null,"gfit":"none"}},{"type":"Feature","geometry":{"type":"Point","coordinates":[-106.55011,44.49739]},"properties":{"api":"4901922457","name":"ESPONDA 3-12A","op":"NORTHWEST ENERGY LLC","co":"Johnson","st":"WY","trs":"T52N R81W S12","fm":null,"eur":null,"perft":null,"sound":false,"fit":"none","geur":null,"gfit":"none"}},{"type":"Feature","geometry":{"type":"Point","coordinates":[-106.54556,44.50091]},"properties":{"api":"4901922458","name":"ESPONDA 15-1A","op":"NORTHWEST ENERGY LLC","co":"Johnson","st":"WY","trs":"T52N R81W S1","fm":null,"eur":null,"perft":null,"sound":false,"fit":"none","geur":null,"gfit":"none"}},{"type":"Feature","geometry":{"type":"Point","coordinates":[-106.55098,44.50466]},"properties":{"api":"4901922459","name":"ESPONDA 11-1A","op":"NORTHWEST ENERGY LLC","co":"Johnson","st":"WY","trs":"T52N R81W S1","fm":null,"eur":null,"perft":null,"sound":false,"fit":"none","geur":null,"gfit":"none"}},{"type":"Feature","geometry":{"type":"Point","coordinates":[-106.54587,44.50802]},"properties":{"api":"4901922460","name":"ESPONDA 7-1A","op":"NORTHWEST ENERGY LLC","co":"Johnson","st":"WY","trs":"T52N R81W S1","fm":null,"eur":null,"perft":null,"sound":false,"fit":"none","geur":null,"gfit":"none"}},{"type":"Feature","geometry":{"type":"Point","coordinates":[-106.55096,44.48918]},"properties":{"api":"4901922493","name":"WATT 11-12A","op":"NORTHWEST ENERGY LLC","co":"Johnson","st":"WY","trs":"T52N R81W S12","fm":null,"eur":null,"perft":null,"sound":false,"fit":"none","geur":null,"gfit":"none"}},{"type":"Feature","geometry":{"type":"Point","coordinates":[-106.55312,44.48593]},"properties":{"api":"4901922496","name":"WATT 13-12A","op":"NORTHWEST ENERGY LLC","co":"Johnson","st":"WY","trs":"T52N R81W S12","fm":null,"eur":null,"perft":null,"sound":false,"fit":"none","geur":null,"gfit":"none"}},{"type":"Feature","geometry":{"type":"Point","coordinates":[-106.56595,44.50093]},"properties":{"api":"4901922760","name":"LEIS 15-2A","op":"NORTHWEST ENERGY LLC","co":"Johnson","st":"WY","trs":"T52N R81W S2","fm":null,"eur":null,"perft":null,"sound":false,"fit":"none","geur":null,"gfit":"none"}},{"type":"Feature","geometry":{"type":"Point","coordinates":[-106.57086,44.50435]},"properties":{"api":"4901922761","name":"LEIS 11-2A","op":"NORTHWEST ENERGY LLC","co":"Johnson","st":"WY","trs":"T52N R81W S2","fm":null,"eur":null,"perft":null,"sound":false,"fit":"none","geur":null,"gfit":"none"}},{"type":"Feature","geometry":{"type":"Point","coordinates":[-106.56086,44.50493]},"properties":{"api":"4901922762","name":"LEIS 9-2A","op":"NORTHWEST ENERGY LLC","co":"Johnson","st":"WY","trs":"T52N R81W S2","fm":null,"eur":null,"perft":null,"sound":false,"fit":"none","geur":null,"gfit":"none"}},{"type":"Feature","geometry":{"type":"Point","coordinates":[-106.5654,44.50794]},"properties":{"api":"4901922763","name":"LEIS 7-2A","op":"NORTHWEST ENERGY LLC","co":"Johnson","st":"WY","trs":"T52N R81W S2","fm":null,"eur":null,"perft":null,"sound":false,"fit":"none","geur":null,"gfit":"none"}},{"type":"Feature","geometry":{"type":"Point","coordinates":[-106.56062,44.51167]},"properties":{"api":"4901922764","name":"LEIS 1-2A","op":"NORTHWEST ENERGY LLC","co":"Johnson","st":"WY","trs":"T52N R81W S2","fm":null,"eur":null,"perft":null,"sound":false,"fit":"none","geur":null,"gfit":"none"}},{"type":"Feature","geometry":{"type":"Point","coordinates":[-106.55563,44.50807]},"properties":{"api":"4901922766","name":"LEIS 5-1A","op":"NORTHWEST ENERGY LLC","co":"Johnson","st":"WY","trs":"T52N R81W S1","fm":null,"eur":null,"perft":null,"sound":false,"fit":"none","geur":null,"gfit":"none"}},{"type":"Feature","geometry":{"type":"Point","coordinates":[-106.54983,44.46147]},"properties":{"api":"4901922068","name":"STATE 11-24R","op":"NORTHWEST ENERGY LLC","co":"Johnson","st":"WY","trs":"T52N R81W S24","fm":null,"eur":null,"perft":null,"sound":false,"fit":"none","geur":null,"gfit":"none"}},{"type":"Feature","geometry":{"type":"Point","coordinates":[-106.54492,44.47204]},"properties":{"api":"4901922069","name":"STATE 15-13R","op":"NORTHWEST ENERGY LLC","co":"Johnson","st":"WY","trs":"T52N R81W S13","fm":null,"eur":null,"perft":null,"sound":false,"fit":"none","geur":null,"gfit":"none"}},{"type":"Feature","geometry":{"type":"Point","coordinates":[-106.56091,44.49094]},"properties":{"api":"4901922327","name":"WATT 9-11A","op":"NORTHWEST ENERGY LLC","co":"Johnson","st":"WY","trs":"T52N R81W S11","fm":null,"eur":null,"perft":null,"sound":false,"fit":"none","geur":null,"gfit":"none"}},{"type":"Feature","geometry":{"type":"Point","coordinates":[-106.54989,44.47561]},"properties":{"api":"4901922331","name":"DOWD 11-13A","op":"NORTHWEST ENERGY LLC","co":"Johnson","st":"WY","trs":"T52N R81W S13","fm":null,"eur":null,"perft":null,"sound":false,"fit":"none","geur":null,"gfit":"none"}},{"type":"Feature","geometry":{"type":"Point","coordinates":[-106.54022,44.50419]},"properties":{"api":"4901922332","name":"ESPONDA 9-1A","op":"NORTHWEST ENERGY LLC","co":"Johnson","st":"WY","trs":"T52N R81W S1","fm":null,"eur":null,"perft":null,"sound":false,"fit":"none","geur":null,"gfit":"none"}},{"type":"Feature","geometry":{"type":"Point","coordinates":[-106.54531,44.47912]},"properties":{"api":"4901922347","name":"STATE 7-13R","op":"NORTHWEST ENERGY LLC","co":"Johnson","st":"WY","trs":"T52N R81W S13","fm":null,"eur":null,"perft":null,"sound":false,"fit":"none","geur":null,"gfit":"none"}},{"type":"Feature","geometry":{"type":"Point","coordinates":[-106.54055,44.47565]},"properties":{"api":"4901922348","name":"STATE 9-13R","op":"NORTHWEST ENERGY LLC","co":"Johnson","st":"WY","trs":"T52N R81W S13","fm":null,"eur":null,"perft":null,"sound":false,"fit":"none","geur":null,"gfit":"none"}},{"type":"Feature","geometry":{"type":"Point","coordinates":[-106.55043,44.4683]},"properties":{"api":"4901922349","name":"STATE 3-24R","op":"NORTHWEST ENERGY LLC","co":"Johnson","st":"WY","trs":"T52N R81W S24","fm":null,"eur":null,"perft":null,"sound":false,"fit":"none","geur":null,"gfit":"none"}},{"type":"Feature","geometry":{"type":"Point","coordinates":[-106.54018,44.49102]},"properties":{"api":"4901922355","name":"WATT 9-12A","op":"NORTHWEST ENERGY LLC","co":"Johnson","st":"WY","trs":"T52N R81W S12","fm":null,"eur":null,"perft":null,"sound":false,"fit":"none","geur":null,"gfit":"none"}},{"type":"Feature","geometry":{"type":"Point","coordinates":[-106.55054,44.46128]},"properties":{"api":"4901922358","name":"STATE 11-24A","op":"NORTHWEST ENERGY LLC","co":"Johnson","st":"WY","trs":"T52N R81W S24","fm":null,"eur":null,"perft":null,"sound":false,"fit":"none","geur":null,"gfit":"none"}},{"type":"Feature","geometry":{"type":"Point","coordinates":[-106.54567,44.45812]},"properties":{"api":"4901922359","name":"STATE 15-24A","op":"NORTHWEST ENERGY LLC","co":"Johnson","st":"WY","trs":"T52N R81W S24","fm":null,"eur":null,"perft":null,"sound":false,"fit":"none","geur":null,"gfit":"none"}},{"type":"Feature","geometry":{"type":"Point","coordinates":[-106.55054,44.46833]},"properties":{"api":"4901922361","name":"STATE 3-24S","op":"NORTHWEST ENERGY LLC","co":"Johnson","st":"WY","trs":"T52N R81W S24","fm":null,"eur":null,"perft":null,"sound":false,"fit":"none","geur":null,"gfit":"none"}},{"type":"Feature","geometry":{"type":"Point","coordinates":[-106.5454,44.47904]},"properties":{"api":"4901922362","name":"STATE 7-13A","op":"NORTHWEST ENERGY LLC","co":"Johnson","st":"WY","trs":"T52N R81W S13","fm":null,"eur":null,"perft":null,"sound":false,"fit":"none","geur":null,"gfit":"none"}},{"type":"Feature","geometry":{"type":"Point","coordinates":[-106.54054,44.47575]},"properties":{"api":"4901922363","name":"STATE 9-13A","op":"NORTHWEST ENERGY LLC","co":"Johnson","st":"WY","trs":"T52N R81W S13","fm":null,"eur":null,"perft":null,"sound":false,"fit":"none","geur":null,"gfit":"none"}},{"type":"Feature","geometry":{"type":"Point","coordinates":[-106.54539,44.47219]},"properties":{"api":"4901922364","name":"STATE 15-13A","op":"NORTHWEST ENERGY LLC","co":"Johnson","st":"WY","trs":"T52N R81W S13","fm":null,"eur":null,"perft":null,"sound":false,"fit":"none","geur":null,"gfit":"none"}},{"type":"Feature","geometry":{"type":"Point","coordinates":[-106.56077,44.49711]},"properties":{"api":"4901922365","name":"STATE 1-11A","op":"NORTHWEST ENERGY LLC","co":"Johnson","st":"WY","trs":"T52N R81W S11","fm":null,"eur":null,"perft":null,"sound":false,"fit":"none","geur":null,"gfit":"none"}},{"type":"Feature","geometry":{"type":"Point","coordinates":[-106.57106,44.4972]},"properties":{"api":"4901922366","name":"STATE 3-11A","op":"NORTHWEST ENERGY LLC","co":"Johnson","st":"WY","trs":"T52N R81W S11","fm":null,"eur":null,"perft":null,"sound":false,"fit":"none","geur":null,"gfit":"none"}},{"type":"Feature","geometry":{"type":"Point","coordinates":[-106.57616,44.49348]},"properties":{"api":"4901922367","name":"STATE 5-11A","op":"NORTHWEST ENERGY LLC","co":"Johnson","st":"WY","trs":"T52N R81W S11","fm":null,"eur":null,"perft":null,"sound":false,"fit":"none","geur":null,"gfit":"none"}},{"type":"Feature","geometry":{"type":"Point","coordinates":[-106.56587,44.49371]},"properties":{"api":"4901922368","name":"STATE 7-11A","op":"NORTHWEST ENERGY LLC","co":"Johnson","st":"WY","trs":"T52N R81W S11","fm":null,"eur":null,"perft":null,"sound":false,"fit":"none","geur":null,"gfit":"none"}},{"type":"Feature","geometry":{"type":"Point","coordinates":[-106.56587,44.48666]},"properties":{"api":"4901922369","name":"STATE 15-11A","op":"NORTHWEST ENERGY LLC","co":"Johnson","st":"WY","trs":"T52N R81W S11","fm":null,"eur":null,"perft":null,"sound":false,"fit":"none","geur":null,"gfit":"none"}},{"type":"Feature","geometry":{"type":"Point","coordinates":[-106.57599,44.48654]},"properties":{"api":"4901922370","name":"STATE 13-11A","op":"NORTHWEST ENERGY LLC","co":"Johnson","st":"WY","trs":"T52N R81W S11","fm":null,"eur":null,"perft":null,"sound":false,"fit":"none","geur":null,"gfit":"none"}},{"type":"Feature","geometry":{"type":"Point","coordinates":[-106.54029,44.46809]},"properties":{"api":"4901922376","name":"STATE 1-24A","op":"NORTHWEST ENERGY LLC","co":"Johnson","st":"WY","trs":"T52N R81W S24","fm":null,"eur":null,"perft":null,"sound":false,"fit":"none","geur":null,"gfit":"none"}},{"type":"Feature","geometry":{"type":"Point","coordinates":[-106.55482,44.46594]},"properties":{"api":"4901922453","name":"DOWD 5-24A","op":"NORTHWEST ENERGY LLC","co":"Johnson","st":"WY","trs":"T52N R81W S24","fm":null,"eur":null,"perft":null,"sound":false,"fit":"none","geur":null,"gfit":"none"}},{"type":"Feature","geometry":{"type":"Point","coordinates":[-106.55541,44.45754]},"properties":{"api":"4901922454","name":"DOWD 13-24A","op":"NORTHWEST ENERGY LLC","co":"Johnson","st":"WY","trs":"T52N R81W S24","fm":null,"eur":null,"perft":null,"sound":false,"fit":"none","geur":null,"gfit":"none"}},{"type":"Feature","geometry":{"type":"Point","coordinates":[-106.55648,44.4933]},"properties":{"api":"4901922499","name":"WATT 5-12A","op":"NORTHWEST ENERGY LLC","co":"Johnson","st":"WY","trs":"T52N R81W S12","fm":null,"eur":null,"perft":null,"sound":false,"fit":"none","geur":null,"gfit":"none"}},{"type":"Feature","geometry":{"type":"Point","coordinates":[-106.57015,44.49073]},"properties":{"api":"4901922589","name":"STATE 11-11A","op":"NORTHWEST ENERGY LLC","co":"Johnson","st":"WY","trs":"T52N R81W S11","fm":null,"eur":null,"perft":null,"sound":false,"fit":"none","geur":null,"gfit":"none"}},{"type":"Feature","geometry":{"type":"Point","coordinates":[-106.55541,44.50112]},"properties":{"api":"4901922765","name":"LEIS 13-1A","op":"NORTHWEST ENERGY LLC","co":"Johnson","st":"WY","trs":"T52N R81W S1","fm":null,"eur":null,"perft":null,"sound":false,"fit":"none","geur":null,"gfit":"none"}},{"type":"Feature","geometry":{"type":"Point","coordinates":[-106.56576,44.51163]},"properties":{"api":"4901922767","name":"LEIS 3-1A","op":"NORTHWEST ENERGY LLC","co":"Johnson","st":"WY","trs":"T52N R81W S1","fm":null,"eur":null,"perft":null,"sound":false,"fit":"none","geur":null,"gfit":"none"}},{"type":"Feature","geometry":{"type":"Point","coordinates":[-106.54055,44.51136]},"properties":{"api":"4901922937","name":"STATE ESPONDA 1-1A","op":"NORTHWEST ENERGY LLC","co":"Johnson","st":"WY","trs":"T52N R81W S1","fm":null,"eur":null,"perft":null,"sound":false,"fit":"none","geur":null,"gfit":"none"}},{"type":"Feature","geometry":{"type":"Point","coordinates":[-106.64519,44.50049]},"properties":{"api":"4901921999","name":"BELUS D3-06","op":"COMET ENERGY SERVICES LLC","co":"Johnson","st":"WY","trs":"T52N R81W S6","fm":null,"eur":null,"perft":null,"sound":false,"fit":"none","geur":null,"gfit":"none"}},{"type":"Feature","geometry":{"type":"Point","coordinates":[-106.63604,44.49997]},"properties":{"api":"4901922000","name":"BELUS D1-05","op":"COMET ENERGY SERVICES LLC","co":"Johnson","st":"WY","trs":"T52N R81W S5","fm":null,"eur":null,"perft":null,"sound":false,"fit":"none","geur":null,"gfit":"none"}},{"type":"Feature","geometry":{"type":"Point","coordinates":[-106.58089,44.4396]},"properties":{"api":"4901922218","name":"LAWRENCE A4-34","op":"COMET ENERGY SERVICES LLC","co":"Johnson","st":"WY","trs":"T52N R81W S34","fm":null,"eur":null,"perft":null,"sound":false,"fit":"none","geur":null,"gfit":"none"}},{"type":"Feature","geometry":{"type":"Point","coordinates":[-106.59096,44.44675]},"properties":{"api":"4901922224","name":"LAWRENCE C2-27","op":"COMET ENERGY SERVICES LLC","co":"Johnson","st":"WY","trs":"T52N R81W S27","fm":null,"eur":null,"perft":null,"sound":false,"fit":"none","geur":null,"gfit":"none"}},{"type":"Feature","geometry":{"type":"Point","coordinates":[-106.59595,44.44414]},"properties":{"api":"4901922286","name":"LAWRENCE BLM D1-27","op":"COMET ENERGY SERVICES LLC","co":"Johnson","st":"WY","trs":"T52N R81W S27","fm":null,"eur":null,"perft":null,"sound":false,"fit":"none","geur":null,"gfit":"none"}},{"type":"Feature","geometry":{"type":"Point","coordinates":[-106.59144,44.43938]},"properties":{"api":"4901922289","name":"LAWRENCE A2-34","op":"COMET ENERGY SERVICES LLC","co":"Johnson","st":"WY","trs":"T52N R81W S34","fm":null,"eur":null,"perft":null,"sound":false,"fit":"none","geur":null,"gfit":"none"}},{"type":"Feature","geometry":{"type":"Point","coordinates":[-106.58049,44.44719]},"properties":{"api":"4901922294","name":"LAWRENCE C4-27","op":"COMET ENERGY SERVICES LLC","co":"Johnson","st":"WY","trs":"T52N R81W S27","fm":null,"eur":null,"perft":null,"sound":false,"fit":"none","geur":null,"gfit":"none"}},{"type":"Feature","geometry":{"type":"Point","coordinates":[-106.58703,44.44297]},"properties":{"api":"4901922466","name":"LAWRENCE D3-27","op":"COMET ENERGY SERVICES LLC","co":"Johnson","st":"WY","trs":"T52N R81W S27","fm":null,"eur":null,"perft":null,"sound":false,"fit":"none","geur":null,"gfit":"none"}},{"type":"Feature","geometry":{"type":"Point","coordinates":[-106.6155,44.4449]},"properties":{"api":"4901922491","name":"LAWRENCE BLM D2a-28","op":"COMET ENERGY SERVICES LLC","co":"Johnson","st":"WY","trs":"T52N R81W S28","fm":null,"eur":null,"perft":null,"sound":false,"fit":"none","geur":null,"gfit":"none"}},{"type":"Feature","geometry":{"type":"Point","coordinates":[-106.59104,44.44675]},"properties":{"api":"4901922675","name":"LAWRENCE C2A-27","op":"COMET ENERGY SERVICES LLC","co":"Johnson","st":"WY","trs":"T52N R81W S27","fm":null,"eur":null,"perft":null,"sound":false,"fit":"none","geur":null,"gfit":"refused"}},{"type":"Feature","geometry":{"type":"Point","coordinates":[-106.58049,44.44725]},"properties":{"api":"4901922676","name":"LAWRENCE C4A-27","op":"COMET ENERGY SERVICES LLC","co":"Johnson","st":"WY","trs":"T52N R81W S27","fm":null,"eur":null,"perft":null,"sound":false,"fit":"none","geur":null,"gfit":"none"}},{"type":"Feature","geometry":{"type":"Point","coordinates":[-106.59058,44.43992]},"properties":{"api":"4901922677","name":"LAWRENCE A2A-34","op":"COMET ENERGY SERVICES LLC","co":"Johnson","st":"WY","trs":"T52N R81W S34","fm":null,"eur":null,"perft":null,"sound":false,"fit":"none","geur":null,"gfit":"none"}},{"type":"Feature","geometry":{"type":"Point","coordinates":[-106.58101,44.43953]},"properties":{"api":"4901922678","name":"LAWRENCE A4A-34","op":"COMET ENERGY SERVICES LLC","co":"Johnson","st":"WY","trs":"T52N R81W S34","fm":null,"eur":null,"perft":null,"sound":false,"fit":"none","geur":null,"gfit":"none"}},{"type":"Feature","geometry":{"type":"Point","coordinates":[-106.59593,44.44418]},"properties":{"api":"4901922679","name":"LAWRENCE D1A-27","op":"COMET ENERGY SERVICES LLC","co":"Johnson","st":"WY","trs":"T52N R81W S27","fm":null,"eur":null,"perft":null,"sound":false,"fit":"none","geur":null,"gfit":"none"}},{"type":"Feature","geometry":{"type":"Point","coordinates":[-106.58711,44.44297]},"properties":{"api":"4901922680","name":"LAWRENCE D3A-27","op":"COMET ENERGY SERVICES LLC","co":"Johnson","st":"WY","trs":"T52N R81W S27","fm":null,"eur":null,"perft":null,"sound":false,"fit":"none","geur":null,"gfit":"none"}}]}