{"type":"FeatureCollection","features":[{"type":"Feature","geometry":{"type":"Point","coordinates":[-105.56655,44.64962]},"properties":{"api":"4900520686","name":"GAS DRAW UT W-043749 22-19A","op":"DENBURY ONSHORE LLC","co":"Campbell","st":"WY","trs":"T54N R72W S19","fm":null,"eur":null,"perft":null,"sound":false,"fit":"refused","geur":null,"gfit":"refused"}},{"type":"Feature","geometry":{"type":"Point","coordinates":[-105.55715,44.65694]},"properties":{"api":"4900520847","name":"GAS DRAW UT PATENTED 44-18A","op":"DENBURY ONSHORE LLC","co":"Campbell","st":"WY","trs":"T54N R72W S18","fm":null,"eur":null,"perft":null,"sound":false,"fit":"refused","geur":null,"gfit":"none"}},{"type":"Feature","geometry":{"type":"Point","coordinates":[-105.54731,44.62058]},"properties":{"api":"4900521067","name":"GAS DRAW UT W-043749 22-32A","op":"DENBURY ONSHORE LLC","co":"Campbell","st":"WY","trs":"T54N R72W S32","fm":null,"eur":66929,"perft":null,"sound":true,"fit":"sound","geur":null,"gfit":"refused"}},{"type":"Feature","geometry":{"type":"Point","coordinates":[-105.54285,44.61674]},"properties":{"api":"4900521202","name":"GAS DRAW UT 33-32A","op":"DENBURY ONSHORE LLC","co":"Campbell","st":"WY","trs":"T54N R72W S32","fm":null,"eur":309867,"perft":null,"sound":true,"fit":"sound","geur":null,"gfit":"refused"}},{"type":"Feature","geometry":{"type":"Point","coordinates":[-105.55735,44.66377]},"properties":{"api":"4900521221","name":"GAS DRAW UT  42-18A","op":"DENBURY ONSHORE LLC","co":"Campbell","st":"WY","trs":"T54N R72W S18","fm":null,"eur":30795,"perft":null,"sound":true,"fit":"sound","geur":null,"gfit":"none"}},{"type":"Feature","geometry":{"type":"Point","coordinates":[-105.56288,44.68174]},"properties":{"api":"4900521693","name":"GAS DRAW UNIT  31-7A","op":"DENBURY ONSHORE LLC","co":"Campbell","st":"WY","trs":"T54N R72W S7","fm":null,"eur":84999,"perft":null,"sound":true,"fit":"sound","geur":null,"gfit":"refused"}},{"type":"Feature","geometry":{"type":"Point","coordinates":[-105.57175,44.69652]},"properties":{"api":"4900522086","name":"ROGERS W-582A 3-1","op":"DENBURY ONSHORE LLC","co":"Campbell","st":"WY","trs":"T54N R72W S6","fm":null,"eur":null,"perft":null,"sound":false,"fit":"none","geur":null,"gfit":"none"}},{"type":"Feature","geometry":{"type":"Point","coordinates":[-105.57175,44.68926]},"properties":{"api":"4900522192","name":"ROGERS PATENTED 15-1","op":"DENBURY ONSHORE LLC","co":"Campbell","st":"WY","trs":"T54N R72W S6","fm":null,"eur":109752,"perft":null,"sound":true,"fit":"sound","geur":null,"gfit":"refused"}},{"type":"Feature","geometry":{"type":"Point","coordinates":[-105.56634,44.69284]},"properties":{"api":"4900522318","name":"ROGERS W-582A 4-1","op":"DENBURY ONSHORE LLC","co":"Campbell","st":"WY","trs":"T54N R72W S6","fm":null,"eur":109983,"perft":null,"sound":true,"fit":"sound","geur":null,"gfit":"refused"}},{"type":"Feature","geometry":{"type":"Point","coordinates":[-105.56066,44.64975]},"properties":{"api":"4900523697","name":"GAS DRAW UT 32-19A","op":"DENBURY ONSHORE LLC","co":"Campbell","st":"WY","trs":"T54N R72W S19","fm":null,"eur":514505,"perft":null,"sound":true,"fit":"sound","geur":1271,"gfit":"sound"}},{"type":"Feature","geometry":{"type":"Point","coordinates":[-105.53606,44.67144]},"properties":{"api":"4900525395","name":"FRITTS 3","op":"JOEMAR WYOMING OPERATING LLC","co":"Campbell","st":"WY","trs":"T54N R72W S8","fm":null,"eur":111646,"perft":null,"sound":true,"fit":"sound","geur":4931,"gfit":"sound"}},{"type":"Feature","geometry":{"type":"Point","coordinates":[-105.54174,44.6573]},"properties":{"api":"4900528015","name":"JESSIE FEE 1","op":"JOEMAR WYOMING OPERATING LLC","co":"Campbell","st":"WY","trs":"T54N R72W S17","fm":null,"eur":188708,"perft":null,"sound":true,"fit":"sound","geur":10906,"gfit":"sound"}},{"type":"Feature","geometry":{"type":"Point","coordinates":[-105.57302,44.66467]},"properties":{"api":"4900557373","name":"FEDERAL W12-18-42","op":"DENBURY ONSHORE LLC","co":"Campbell","st":"WY","trs":"T54N R72W S18","fm":null,"eur":null,"perft":null,"sound":false,"fit":"none","geur":null,"gfit":"refused"}},{"type":"Feature","geometry":{"type":"Point","coordinates":[-105.57112,44.6454]},"properties":{"api":"4900533648","name":"TWENTY MILE 13C-1942","op":"DENBURY ONSHORE LLC","co":"Campbell","st":"WY","trs":"T54N R72W S19","fm":null,"eur":null,"perft":null,"sound":false,"fit":"none","geur":null,"gfit":"refused"}},{"type":"Feature","geometry":{"type":"Point","coordinates":[-105.56285,44.68961]},"properties":{"api":"4900534623","name":"POWNALL P33-6-42","op":"DENBURY ONSHORE LLC","co":"Campbell","st":"WY","trs":"T54N R72W S6","fm":null,"eur":null,"perft":null,"sound":false,"fit":"none","geur":null,"gfit":"refused"}},{"type":"Feature","geometry":{"type":"Point","coordinates":[-105.57171,44.68601]},"properties":{"api":"4900534636","name":"TWENTY MILE P14-6-42","op":"DENBURY ONSHORE LLC","co":"Campbell","st":"WY","trs":"T54N R72W S6","fm":null,"eur":null,"perft":null,"sound":false,"fit":"none","geur":83463,"gfit":"sound"}},{"type":"Feature","geometry":{"type":"Point","coordinates":[-105.5477,44.66063]},"properties":{"api":"4900552519","name":"POWNALL W23-17-42","op":"DENBURY ONSHORE LLC","co":"Campbell","st":"WY","trs":"T54N R72W S17","fm":null,"eur":null,"perft":null,"sound":false,"fit":"none","geur":null,"gfit":"refused"}},{"type":"Feature","geometry":{"type":"Point","coordinates":[-105.55229,44.66443]},"properties":{"api":"4900552521","name":"POWNALL W12-17-42","op":"DENBURY ONSHORE LLC","co":"Campbell","st":"WY","trs":"T54N R72W S17","fm":null,"eur":null,"perft":null,"sound":false,"fit":"none","geur":null,"gfit":"refused"}},{"type":"Feature","geometry":{"type":"Point","coordinates":[-105.56297,44.65646]},"properties":{"api":"4900552522","name":"TWENTY MILE P34-18-42","op":"DENBURY ONSHORE LLC","co":"Campbell","st":"WY","trs":"T54N R72W S18","fm":null,"eur":null,"perft":null,"sound":false,"fit":"none","geur":null,"gfit":"refused"}},{"type":"Feature","geometry":{"type":"Point","coordinates":[-105.56288,44.65661]},"properties":{"api":"4900552524","name":"TWENTY MILE W34-18-42","op":"DENBURY ONSHORE LLC","co":"Campbell","st":"WY","trs":"T54N R72W S18","fm":null,"eur":null,"perft":null,"sound":false,"fit":"none","geur":null,"gfit":"refused"}},{"type":"Feature","geometry":{"type":"Point","coordinates":[-105.56774,44.66076]},"properties":{"api":"4900552525","name":"TWENTY MILE W23-18-42","op":"DENBURY ONSHORE LLC","co":"Campbell","st":"WY","trs":"T54N R72W S18","fm":null,"eur":null,"perft":null,"sound":false,"fit":"none","geur":35523,"gfit":"sound"}},{"type":"Feature","geometry":{"type":"Point","coordinates":[-105.57259,44.65656]},"properties":{"api":"4900552527","name":"TWENTY MILE W14-18-42","op":"DENBURY ONSHORE LLC","co":"Campbell","st":"WY","trs":"T54N R72W S18","fm":null,"eur":null,"perft":null,"sound":false,"fit":"none","geur":85874,"gfit":"sound"}},{"type":"Feature","geometry":{"type":"Point","coordinates":[-105.55791,44.66084]},"properties":{"api":"4900552528","name":"TWENTY MILE W43-18-42","op":"DENBURY ONSHORE LLC","co":"Campbell","st":"WY","trs":"T54N R72W S18","fm":null,"eur":null,"perft":null,"sound":false,"fit":"none","geur":18787,"gfit":"sound"}},{"type":"Feature","geometry":{"type":"Point","coordinates":[-105.57219,44.64223]},"properties":{"api":"4900552529","name":"TWENTY MILE W14-19-42","op":"DENBURY ONSHORE LLC","co":"Campbell","st":"WY","trs":"T54N R72W S19","fm":null,"eur":null,"perft":null,"sound":false,"fit":"none","geur":31010,"gfit":"sound"}},{"type":"Feature","geometry":{"type":"Point","coordinates":[-105.57608,44.64577]},"properties":{"api":"4900552530","name":"TWENTY MILE C23-19-42","op":"DENBURY ONSHORE LLC","co":"Campbell","st":"WY","trs":"T54N R72W S19","fm":null,"eur":null,"perft":null,"sound":false,"fit":"none","geur":null,"gfit":"refused"}},{"type":"Feature","geometry":{"type":"Point","coordinates":[-105.56295,44.64259]},"properties":{"api":"4900552533","name":"TWENTY MILE W34-19-42","op":"DENBURY ONSHORE LLC","co":"Campbell","st":"WY","trs":"T54N R72W S19","fm":null,"eur":null,"perft":null,"sound":false,"fit":"none","geur":null,"gfit":"refused"}},{"type":"Feature","geometry":{"type":"Point","coordinates":[-105.56749,44.66082]},"properties":{"api":"4900552535","name":"TWENTY MILE P23-18-42","op":"DENBURY ONSHORE LLC","co":"Campbell","st":"WY","trs":"T54N R72W S18","fm":null,"eur":null,"perft":null,"sound":false,"fit":"none","geur":null,"gfit":"none"}},{"type":"Feature","geometry":{"type":"Point","coordinates":[-105.55355,44.65733]},"properties":{"api":"4900552940","name":"POWNALL W14-17-42","op":"DENBURY ONSHORE LLC","co":"Campbell","st":"WY","trs":"T54N R72W S17","fm":null,"eur":null,"perft":null,"sound":false,"fit":"none","geur":null,"gfit":"refused"}},{"type":"Feature","geometry":{"type":"Point","coordinates":[-105.56707,44.64594]},"properties":{"api":"4900554190","name":"TWENTY MILE P23-19-42","op":"DENBURY ONSHORE LLC","co":"Campbell","st":"WY","trs":"T54N R72W S19","fm":null,"eur":null,"perft":null,"sound":false,"fit":"none","geur":null,"gfit":"refused"}},{"type":"Feature","geometry":{"type":"Point","coordinates":[-105.55183,44.69252]},"properties":{"api":"4900554196","name":"POWNALL W12-5-42","op":"DENBURY ONSHORE LLC","co":"Campbell","st":"WY","trs":"T54N R72W S5","fm":null,"eur":null,"perft":null,"sound":false,"fit":"none","geur":null,"gfit":"refused"}},{"type":"Feature","geometry":{"type":"Point","coordinates":[-105.55287,44.67094]},"properties":{"api":"4900557337","name":"FEDERAL W14-8-42","op":"DENBURY ONSHORE LLC","co":"Campbell","st":"WY","trs":"T54N R72W S8","fm":null,"eur":null,"perft":null,"sound":false,"fit":"none","geur":null,"gfit":"refused"}},{"type":"Feature","geometry":{"type":"Point","coordinates":[-105.56797,44.65283]},"properties":{"api":"4900557347","name":"FEDERAL W21-19-42","op":"DENBURY ONSHORE LLC","co":"Campbell","st":"WY","trs":"T54N R72W S19","fm":null,"eur":null,"perft":null,"sound":false,"fit":"none","geur":27527,"gfit":"sound"}},{"type":"Feature","geometry":{"type":"Point","coordinates":[-105.56815,44.66773]},"properties":{"api":"4900557349","name":"FEDERAL W21-18-42","op":"DENBURY ONSHORE LLC","co":"Campbell","st":"WY","trs":"T54N R72W S18","fm":null,"eur":null,"perft":null,"sound":false,"fit":"none","geur":null,"gfit":"refused"}},{"type":"Feature","geometry":{"type":"Point","coordinates":[-105.56784,44.67516]},"properties":{"api":"4900557944","name":"FEDERAL W23-7-42","op":"DENBURY ONSHORE LLC","co":"Campbell","st":"WY","trs":"T54N R72W S7","fm":null,"eur":null,"perft":null,"sound":false,"fit":"none","geur":45052,"gfit":"sound"}},{"type":"Feature","geometry":{"type":"Point","coordinates":[-105.46272,44.69108]},"properties":{"api":"4900560277","name":"TREND FEDERAL 33-1R","op":"TEAM OPERATING LLC","co":"Campbell","st":"WY","trs":"T54N R72W S1","fm":"MUDDY","eur":null,"perft":null,"sound":false,"fit":"refused","geur":null,"gfit":"none"}},{"type":"Feature","geometry":{"type":"Point","coordinates":[-105.57183,44.68212]},"properties":{"api":"4900539181","name":"HEYDECKER P-11-7-42","op":"DENBURY ONSHORE LLC","co":"Campbell","st":"WY","trs":"T54N R72W S7","fm":null,"eur":null,"perft":null,"sound":false,"fit":"none","geur":null,"gfit":"refused"}},{"type":"Feature","geometry":{"type":"Point","coordinates":[-105.56704,44.68572]},"properties":{"api":"4900539183","name":"HEYDECKER P-24-6-42","op":"DENBURY ONSHORE LLC","co":"Campbell","st":"WY","trs":"T54N R72W S6","fm":null,"eur":null,"perft":null,"sound":false,"fit":"none","geur":63565,"gfit":"sound"}},{"type":"Feature","geometry":{"type":"Point","coordinates":[-105.56748,44.67846]},"properties":{"api":"4900539188","name":"HEYDECKER P-22-7-42","op":"DENBURY ONSHORE LLC","co":"Campbell","st":"WY","trs":"T54N R72W S7","fm":null,"eur":null,"perft":null,"sound":false,"fit":"none","geur":null,"gfit":"refused"}},{"type":"Feature","geometry":{"type":"Point","coordinates":[-105.55742,44.64618]},"properties":{"api":"4900552532","name":"TWENTY MILE W43-19-42","op":"DENBURY ONSHORE LLC","co":"Campbell","st":"WY","trs":"T54N R72W S19","fm":null,"eur":null,"perft":null,"sound":false,"fit":"none","geur":null,"gfit":"refused"}},{"type":"Feature","geometry":{"type":"Point","coordinates":[-105.56245,44.6669]},"properties":{"api":"4900521095","name":"GAS DRAW UT W0309244 31-18A","op":"DENBURY ONSHORE LLC","co":"Campbell","st":"WY","trs":"T54N R72W S18","fm":null,"eur":null,"perft":null,"sound":false,"fit":"none","geur":null,"gfit":"none"}},{"type":"Feature","geometry":{"type":"Point","coordinates":[-105.53788,44.66437]},"properties":{"api":"4900557535","name":"POWNALL W42-17-42","op":"DENBURY ONSHORE LLC","co":"Campbell","st":"WY","trs":"T54N R72W S17","fm":null,"eur":null,"perft":null,"sound":false,"fit":"none","geur":null,"gfit":"none"}},{"type":"Feature","geometry":{"type":"Point","coordinates":[-105.54188,44.62474]},"properties":{"api":"4900521066","name":"GAS DRAW UT W-043749 31-32A","op":"DENBURY ONSHORE LLC","co":"Campbell","st":"WY","trs":"T54N R72W S32","fm":null,"eur":null,"perft":null,"sound":false,"fit":"refused","geur":null,"gfit":"refused"}},{"type":"Feature","geometry":{"type":"Point","coordinates":[-105.54728,44.61337]},"properties":{"api":"4900521200","name":"GAS DRAW UNIT 34-32A","op":"DENBURY ONSHORE LLC","co":"Campbell","st":"WY","trs":"T54N R72W S32","fm":null,"eur":null,"perft":null,"sound":false,"fit":"none","geur":null,"gfit":"none"}},{"type":"Feature","geometry":{"type":"Point","coordinates":[-105.54818,44.66696]},"properties":{"api":"4900553846","name":"POWNALL W21-17-42","op":"DENBURY ONSHORE LLC","co":"Campbell","st":"WY","trs":"T54N R72W S17","fm":null,"eur":null,"perft":null,"sound":false,"fit":"none","geur":null,"gfit":"refused"}},{"type":"Feature","geometry":{"type":"Point","coordinates":[-105.54288,44.65683]},"properties":{"api":"4900554202","name":"POWNALL W34-17-42","op":"DENBURY ONSHORE LLC","co":"Campbell","st":"WY","trs":"T54N R72W S17","fm":null,"eur":null,"perft":null,"sound":false,"fit":"none","geur":null,"gfit":"refused"}},{"type":"Feature","geometry":{"type":"Point","coordinates":[-105.53707,44.66057]},"properties":{"api":"4900554206","name":"POWNALL W43-17-42","op":"DENBURY ONSHORE LLC","co":"Campbell","st":"WY","trs":"T54N R72W S17","fm":null,"eur":null,"perft":null,"sound":false,"fit":"none","geur":null,"gfit":"none"}},{"type":"Feature","geometry":{"type":"Point","coordinates":[-105.56333,44.66407]},"properties":{"api":"4900557336","name":"FEDERAL W32-18-42","op":"DENBURY ONSHORE LLC","co":"Campbell","st":"WY","trs":"T54N R72W S18","fm":null,"eur":null,"perft":null,"sound":false,"fit":"none","geur":5289,"gfit":"sound"}},{"type":"Feature","geometry":{"type":"Point","coordinates":[-105.55788,44.65339]},"properties":{"api":"4900557346","name":"FEDERAL W41-19-42","op":"DENBURY ONSHORE LLC","co":"Campbell","st":"WY","trs":"T54N R72W S19","fm":null,"eur":null,"perft":null,"sound":false,"fit":"none","geur":null,"gfit":"refused"}},{"type":"Feature","geometry":{"type":"Point","coordinates":[-105.57298,44.69281]},"properties":{"api":"4900557350","name":"FEDERAL W12-6-42","op":"DENBURY ONSHORE LLC","co":"Campbell","st":"WY","trs":"T54N R72W S6","fm":null,"eur":null,"perft":null,"sound":false,"fit":"none","geur":13605,"gfit":"sound"}},{"type":"Feature","geometry":{"type":"Point","coordinates":[-105.56717,44.69644]},"properties":{"api":"4900557352","name":"FEDERAL W21-6-42","op":"DENBURY ONSHORE LLC","co":"Campbell","st":"WY","trs":"T54N R72W S6","fm":null,"eur":null,"perft":null,"sound":false,"fit":"none","geur":null,"gfit":"none"}},{"type":"Feature","geometry":{"type":"Point","coordinates":[-105.55837,44.66645]},"properties":{"api":"4900557377","name":"FEDERAL W41-18-42","op":"DENBURY ONSHORE LLC","co":"Campbell","st":"WY","trs":"T54N R72W S18","fm":null,"eur":null,"perft":null,"sound":false,"fit":"none","geur":null,"gfit":"none"}},{"type":"Feature","geometry":{"type":"Point","coordinates":[-105.532,44.61343]},"properties":{"api":"4900520996","name":"GAS DRAW UT PATENTED 14-33A","op":"DENBURY ONSHORE LLC","co":"Campbell","st":"WY","trs":"T54N R72W S33","fm":null,"eur":null,"perft":null,"sound":false,"fit":"none","geur":null,"gfit":"none"}},{"type":"Feature","geometry":{"type":"Point","coordinates":[-105.55658,44.62839]},"properties":{"api":"4900521025","name":"GAS DRAW UT W0306141 44-30A","op":"DENBURY ONSHORE LLC","co":"Campbell","st":"WY","trs":"T54N R72W S30","fm":null,"eur":null,"perft":null,"sound":false,"fit":"none","geur":null,"gfit":"none"}},{"type":"Feature","geometry":{"type":"Point","coordinates":[-105.56667,44.67121]},"properties":{"api":"4900521129","name":"GAS DRAW UT W-4758 24-7A","op":"DENBURY ONSHORE LLC","co":"Campbell","st":"WY","trs":"T54N R72W S7","fm":null,"eur":null,"perft":null,"sound":false,"fit":"none","geur":null,"gfit":"none"}},{"type":"Feature","geometry":{"type":"Point","coordinates":[-105.56713,44.68198]},"properties":{"api":"4900534624","name":"HEYDECKER P21-7-42","op":"DENBURY ONSHORE LLC","co":"Campbell","st":"WY","trs":"T54N R72W S7","fm":null,"eur":null,"perft":null,"sound":false,"fit":"none","geur":null,"gfit":"refused"}},{"type":"Feature","geometry":{"type":"Point","coordinates":[-105.54748,44.66051]},"properties":{"api":"4900552534","name":"POWNALL P23-17-42","op":"DENBURY ONSHORE LLC","co":"Campbell","st":"WY","trs":"T54N R72W S17","fm":null,"eur":null,"perft":null,"sound":false,"fit":"none","geur":null,"gfit":"none"}},{"type":"Feature","geometry":{"type":"Point","coordinates":[-105.57111,44.6457]},"properties":{"api":"4900533647","name":"TWENTY MILE 13A-1942","op":"DENBURY ONSHORE LLC","co":"Campbell","st":"WY","trs":"T54N R72W S19","fm":null,"eur":null,"perft":null,"sound":false,"fit":"none","geur":null,"gfit":"none"}},{"type":"Feature","geometry":{"type":"Point","coordinates":[-105.56706,44.68941]},"properties":{"api":"4900539185","name":"HEYDECKER P-23-6-42","op":"DENBURY ONSHORE LLC","co":"Campbell","st":"WY","trs":"T54N R72W S6","fm":null,"eur":null,"perft":null,"sound":false,"fit":"none","geur":null,"gfit":"refused"}},{"type":"Feature","geometry":{"type":"Point","coordinates":[-105.57186,44.68909]},"properties":{"api":"4900539187","name":"TWENTY MILE P-13-6-42","op":"DENBURY ONSHORE LLC","co":"Campbell","st":"WY","trs":"T54N R72W S6","fm":null,"eur":null,"perft":null,"sound":false,"fit":"none","geur":null,"gfit":"refused"}},{"type":"Feature","geometry":{"type":"Point","coordinates":[-105.57201,44.67781]},"properties":{"api":"4900552512","name":"HEYDECKER 12-7-42","op":"DENBURY ONSHORE LLC","co":"Campbell","st":"WY","trs":"T54N R72W S7","fm":null,"eur":null,"perft":null,"sound":false,"fit":"none","geur":null,"gfit":"none"}},{"type":"Feature","geometry":{"type":"Point","coordinates":[-105.56732,44.68945]},"properties":{"api":"4900552513","name":"TWENTY MILE 23-6-42","op":"DENBURY ONSHORE LLC","co":"Campbell","st":"WY","trs":"T54N R72W S6","fm":null,"eur":null,"perft":null,"sound":false,"fit":"none","geur":null,"gfit":"none"}},{"type":"Feature","geometry":{"type":"Point","coordinates":[-105.56796,44.68177]},"properties":{"api":"4900552514","name":"HEYDECKER 21-7-42","op":"DENBURY ONSHORE LLC","co":"Campbell","st":"WY","trs":"T54N R72W S7","fm":null,"eur":null,"perft":null,"sound":false,"fit":"none","geur":null,"gfit":"refused"}},{"type":"Feature","geometry":{"type":"Point","coordinates":[-105.57204,44.68581]},"properties":{"api":"4900552518","name":"TWENTY MILE 14-6-42","op":"DENBURY ONSHORE LLC","co":"Campbell","st":"WY","trs":"T54N R72W S6","fm":null,"eur":null,"perft":null,"sound":false,"fit":"none","geur":null,"gfit":"none"}},{"type":"Feature","geometry":{"type":"Point","coordinates":[-105.55211,44.66454]},"properties":{"api":"4900552523","name":"POWNALL P12-17-42","op":"DENBURY ONSHORE LLC","co":"Campbell","st":"WY","trs":"T54N R72W S17","fm":null,"eur":null,"perft":null,"sound":false,"fit":"none","geur":null,"gfit":"none"}},{"type":"Feature","geometry":{"type":"Point","coordinates":[-105.57267,44.65671]},"properties":{"api":"4900552531","name":"TWENTY MILE P14-18-42","op":"DENBURY ONSHORE LLC","co":"Campbell","st":"WY","trs":"T54N R72W S18","fm":null,"eur":null,"perft":null,"sound":false,"fit":"none","geur":null,"gfit":"refused"}},{"type":"Feature","geometry":{"type":"Point","coordinates":[-105.55791,44.66084]},"properties":{"api":"4900552537","name":"TWENTY MILE P43-18-42","op":"DENBURY ONSHORE LLC","co":"Campbell","st":"WY","trs":"T54N R72W S18","fm":null,"eur":null,"perft":null,"sound":false,"fit":"none","geur":null,"gfit":"none"}},{"type":"Feature","geometry":{"type":"Point","coordinates":[-105.55359,44.65717]},"properties":{"api":"4900552941","name":"POWNALL P14-17-42","op":"DENBURY ONSHORE LLC","co":"Campbell","st":"WY","trs":"T54N R72W S17","fm":null,"eur":null,"perft":null,"sound":false,"fit":"none","geur":null,"gfit":"none"}},{"type":"Feature","geometry":{"type":"Point","coordinates":[-105.57229,44.64545]},"properties":{"api":"4900557076","name":"TWENTY MILE P13R-19-42","op":"DENBURY ONSHORE LLC","co":"Campbell","st":"WY","trs":"T54N R72W S19","fm":null,"eur":null,"perft":null,"sound":false,"fit":"none","geur":null,"gfit":"none"}},{"type":"Feature","geometry":{"type":"Point","coordinates":[-105.57254,44.6496]},"properties":{"api":"4900557348","name":"FEDERAL W12-19-42","op":"DENBURY ONSHORE LLC","co":"Campbell","st":"WY","trs":"T54N R72W S19","fm":null,"eur":null,"perft":null,"sound":false,"fit":"none","geur":null,"gfit":"refused"}},{"type":"Feature","geometry":{"type":"Point","coordinates":[-105.56269,44.69268]},"properties":{"api":"4900557351","name":"FEDERAL W32-6-42","op":"DENBURY ONSHORE LLC","co":"Campbell","st":"WY","trs":"T54N R72W S6","fm":null,"eur":null,"perft":null,"sound":false,"fit":"none","geur":null,"gfit":"none"}},{"type":"Feature","geometry":{"type":"Point","coordinates":[-105.54306,44.66461]},"properties":{"api":"4900557363","name":"POWNALL W32-17-42","op":"DENBURY ONSHORE LLC","co":"Campbell","st":"WY","trs":"T54N R72W S17","fm":null,"eur":null,"perft":null,"sound":false,"fit":"none","geur":null,"gfit":"refused"}},{"type":"Feature","geometry":{"type":"Point","coordinates":[-105.56137,44.64945]},"properties":{"api":"4900557375","name":"FEDERAL W32-19-42","op":"DENBURY ONSHORE LLC","co":"Campbell","st":"WY","trs":"T54N R72W S19","fm":null,"eur":null,"perft":null,"sound":false,"fit":"none","geur":null,"gfit":"none"}},{"type":"Feature","geometry":{"type":"Point","coordinates":[-105.51656,44.66838]},"properties":{"api":"4900533274","name":"WALL CS STATE 1","op":"EOG Y RESOURCES INC","co":"Campbell","st":"WY","trs":"T54N R72W S16","fm":null,"eur":null,"perft":null,"sound":false,"fit":"none","geur":null,"gfit":"none"}},{"type":"Feature","geometry":{"type":"Point","coordinates":[-105.57189,44.64377]},"properties":{"api":"4900534157","name":"TWENTY MILE 13P1942","op":"DENBURY ONSHORE LLC","co":"Campbell","st":"WY","trs":"T54N R72W S19","fm":null,"eur":null,"perft":null,"sound":false,"fit":"none","geur":null,"gfit":"none"}},{"type":"Feature","geometry":{"type":"Point","coordinates":[-105.51694,44.66111]},"properties":{"api":"4900546216","name":"WALL CS STATE 7","op":"EOG Y RESOURCES INC","co":"Campbell","st":"WY","trs":"T54N R72W S16","fm":null,"eur":null,"perft":null,"sound":false,"fit":"none","geur":null,"gfit":"none"}},{"type":"Feature","geometry":{"type":"Point","coordinates":[-105.56205,44.66052]},"properties":{"api":"4900520846","name":"GAS DRAW UT PATENTED 33-18A","op":"DENBURY ONSHORE LLC","co":"Campbell","st":"WY","trs":"T54N R72W S18","fm":null,"eur":null,"perft":null,"sound":false,"fit":"none","geur":null,"gfit":"none"}},{"type":"Feature","geometry":{"type":"Point","coordinates":[-105.55147,44.68252]},"properties":{"api":"4900525167","name":"FRITTS 1","op":"THOMAS OPERATING COMPANY INC","co":"Campbell","st":"WY","trs":"T54N R72W S8","fm":null,"eur":7668,"perft":null,"sound":true,"fit":"sound","geur":null,"gfit":"refused"}},{"type":"Feature","geometry":{"type":"Point","coordinates":[-105.56642,44.65674]},"properties":{"api":"4900520744","name":"GAS DRAW UT PATENTED 24-18A","op":"DENBURY ONSHORE LLC","co":"Campbell","st":"WY","trs":"T54N R72W S18","fm":null,"eur":null,"perft":null,"sound":false,"fit":"none","geur":null,"gfit":"none"}},{"type":"Feature","geometry":{"type":"Point","coordinates":[-105.57153,44.64556]},"properties":{"api":"4900520746","name":"GAS DRAW UNIT 13-19A","op":"DENBURY ONSHORE LLC","co":"Campbell","st":"WY","trs":"T54N R72W S19","fm":null,"eur":129212,"perft":null,"sound":true,"fit":"sound","geur":null,"gfit":"refused"}},{"type":"Feature","geometry":{"type":"Point","coordinates":[-105.55763,44.64241]},"properties":{"api":"4900520848","name":"GAS DRAW UT PATENTED 44-19A","op":"DENBURY ONSHORE LLC","co":"Campbell","st":"WY","trs":"T54N R72W S19","fm":null,"eur":53592,"perft":null,"sound":true,"fit":"sound","geur":null,"gfit":"refused"}},{"type":"Feature","geometry":{"type":"Point","coordinates":[-105.56662,44.68918]},"properties":{"api":"4900524067","name":"ROGERS KMD SD UT FEE 15-2","op":"DENBURY ONSHORE LLC","co":"Campbell","st":"WY","trs":"T54N R72W S6","fm":null,"eur":115993,"perft":null,"sound":true,"fit":"sound","geur":null,"gfit":"none"}},{"type":"Feature","geometry":{"type":"Point","coordinates":[-105.56695,44.68579]},"properties":{"api":"4900524310","name":"ROGERS KMD SD UN FEE 15-3","op":"DENBURY ONSHORE LLC","co":"Campbell","st":"WY","trs":"T54N R72W S6","fm":null,"eur":null,"perft":null,"sound":false,"fit":"refused","geur":null,"gfit":"none"}},{"type":"Feature","geometry":{"type":"Point","coordinates":[-105.54099,44.6673]},"properties":{"api":"4900525466","name":"PIERSON LEWIS FEE 2","op":"COOK D L","co":"Campbell","st":"WY","trs":"T54N R72W S17","fm":null,"eur":null,"perft":null,"sound":false,"fit":"refused","geur":null,"gfit":"refused"}},{"type":"Feature","geometry":{"type":"Point","coordinates":[-105.56203,44.67478]},"properties":{"api":"4900521270","name":"GAS DRAW UNIT 33-7A","op":"SKULL CREEK A LLC","co":"Campbell","st":"WY","trs":"T54N R72W S7","fm":null,"eur":null,"perft":null,"sound":false,"fit":"none","geur":null,"gfit":"none"}},{"type":"Feature","geometry":{"type":"Point","coordinates":[-105.57151,44.67787]},"properties":{"api":"4900534635","name":"HEYDECKER P12-7-42","op":"SKULL CREEK A LLC","co":"Campbell","st":"WY","trs":"T54N R72W S7","fm":null,"eur":null,"perft":null,"sound":false,"fit":"none","geur":null,"gfit":"none"}},{"type":"Feature","geometry":{"type":"Point","coordinates":[-105.56237,44.64598]},"properties":{"api":"4900520747","name":"GAS DRAW UT PATENTED 33-19A","op":"SKULL CREEK A LLC","co":"Campbell","st":"WY","trs":"T54N R72W S19","fm":null,"eur":370100,"perft":null,"sound":true,"fit":"sound","geur":29620,"gfit":"sound"}},{"type":"Feature","geometry":{"type":"Point","coordinates":[-105.56709,44.64231]},"properties":{"api":"4900520849","name":"GAS DRAW UT PATENTED 24-19A","op":"SKULL CREEK A LLC","co":"Campbell","st":"WY","trs":"T54N R72W S19","fm":null,"eur":null,"perft":null,"sound":false,"fit":"none","geur":null,"gfit":"none"}},{"type":"Feature","geometry":{"type":"Point","coordinates":[-105.57169,44.6747]},"properties":{"api":"4900521190","name":"GAS DRAW UT PATENTED 13-7A","op":"SKULL CREEK A LLC","co":"Campbell","st":"WY","trs":"T54N R72W S7","fm":null,"eur":null,"perft":null,"sound":false,"fit":"refused","geur":null,"gfit":"refused"}},{"type":"Feature","geometry":{"type":"Point","coordinates":[-105.56728,44.67841]},"properties":{"api":"4900521302","name":"GAS DRAW UNIT 22-7A","op":"SKULL CREEK A LLC","co":"Campbell","st":"WY","trs":"T54N R72W S7","fm":null,"eur":null,"perft":null,"sound":false,"fit":"none","geur":null,"gfit":"none"}},{"type":"Feature","geometry":{"type":"Point","coordinates":[-105.57146,44.67835]},"properties":{"api":"4900521762","name":"GAS DRAW UT PATENTED 12-7A","op":"SKULL CREEK A LLC","co":"Campbell","st":"WY","trs":"T54N R72W S7","fm":null,"eur":null,"perft":null,"sound":false,"fit":"refused","geur":null,"gfit":"refused"}},{"type":"Feature","geometry":{"type":"Point","coordinates":[-105.57171,44.65367]},"properties":{"api":"4900520660","name":"HARRINGTON 11-19A","op":"RICHARDSON OPERATING CO","co":"Campbell","st":"WY","trs":"T54N R72W S19","fm":null,"eur":null,"perft":null,"sound":false,"fit":"none","geur":null,"gfit":"none"}},{"type":"Feature","geometry":{"type":"Point","coordinates":[-105.56229,44.63873]},"properties":{"api":"4900520831","name":"GAS DRAW UT W-043749 31-30A","op":"RICHARDSON OPERATING CO","co":"Campbell","st":"WY","trs":"T54N R72W S30","fm":null,"eur":17978,"perft":null,"sound":true,"fit":"sound","geur":null,"gfit":"refused"}},{"type":"Feature","geometry":{"type":"Point","coordinates":[-105.55215,44.66059]},"properties":{"api":"4900521051","name":"GAS DRAW UT PATENTED 13-17A","op":"DENBURY ONSHORE LLC","co":"Campbell","st":"WY","trs":"T54N R72W S17","fm":null,"eur":null,"perft":null,"sound":false,"fit":"none","geur":null,"gfit":"none"}},{"type":"Feature","geometry":{"type":"Point","coordinates":[-105.55641,44.68639]},"properties":{"api":"4900524359","name":"PUGH FEE 1","op":"DAVIS OIL COMPANY","co":"Campbell","st":"WY","trs":"T54N R72W S6","fm":null,"eur":null,"perft":null,"sound":false,"fit":"refused","geur":null,"gfit":"refused"}}]}