{"type":"FeatureCollection","features":[{"type":"Feature","geometry":{"type":"Point","coordinates":[-104.9491,44.65815]},"properties":{"api":"4901120633","name":"SHEPHERD 34-18","op":"TRUE OIL LLC","co":"Crook","st":"WY","trs":"T54N R67W S18","fm":null,"eur":436666,"perft":null,"sound":true,"fit":"sound","geur":null,"gfit":"refused"}},{"type":"Feature","geometry":{"type":"Point","coordinates":[-104.95021,44.65453]},"properties":{"api":"4901120708","name":"SHEPHERD 31-19","op":"TRUE OIL LLC","co":"Crook","st":"WY","trs":"T54N R67W S19","fm":null,"eur":501471,"perft":null,"sound":true,"fit":"sound","geur":null,"gfit":"refused"}},{"type":"Feature","geometry":{"type":"Point","coordinates":[-104.94589,44.6581]},"properties":{"api":"4901120785","name":"SHEPHERD 44-18","op":"TRUE OIL LLC","co":"Crook","st":"WY","trs":"T54N R67W S18","fm":null,"eur":1173317,"perft":null,"sound":true,"fit":"sound","geur":null,"gfit":"refused"}},{"type":"Feature","geometry":{"type":"Point","coordinates":[-104.95022,44.66136]},"properties":{"api":"4901120787","name":"SHEPHERD 33-18","op":"TRUE OIL LLC","co":"Crook","st":"WY","trs":"T54N R67W S18","fm":null,"eur":645052,"perft":null,"sound":true,"fit":"sound","geur":null,"gfit":"refused"}},{"type":"Feature","geometry":{"type":"Point","coordinates":[-104.94585,44.66124]},"properties":{"api":"4901121225","name":"SHEPHERD 43-18","op":"TRUE OIL LLC","co":"Crook","st":"WY","trs":"T54N R67W S18","fm":null,"eur":357540,"perft":null,"sound":true,"fit":"sound","geur":null,"gfit":"refused"}},{"type":"Feature","geometry":{"type":"Point","coordinates":[-104.95805,44.6801]},"properties":{"api":"4901121295","name":"FOWLER 12-7X","op":"BERENERGY CORPORATION","co":"Crook","st":"WY","trs":"T54N R67W S7","fm":null,"eur":null,"perft":null,"sound":false,"fit":"refused","geur":null,"gfit":"none"}},{"type":"Feature","geometry":{"type":"Point","coordinates":[-104.93528,44.69889]},"properties":{"api":"4901122057","name":"FOWLER FEE 3-5","op":"SIX BAR OIL LLC","co":"Crook","st":"WY","trs":"T54N R67W S5","fm":null,"eur":266700,"perft":null,"sound":true,"fit":"sound","geur":null,"gfit":"none"}},{"type":"Feature","geometry":{"type":"Point","coordinates":[-104.93665,44.69625]},"properties":{"api":"4901122100","name":"FOWLER 4-5","op":"SIX BAR OIL LLC","co":"Crook","st":"WY","trs":"T54N R67W S5","fm":null,"eur":null,"perft":null,"sound":false,"fit":"refused","geur":null,"gfit":"none"}},{"type":"Feature","geometry":{"type":"Point","coordinates":[-104.94015,44.69512]},"properties":{"api":"4901122192","name":"FOWLER FEE 5-5","op":"SIX BAR OIL LLC","co":"Crook","st":"WY","trs":"T54N R67W S5","fm":null,"eur":null,"perft":null,"sound":false,"fit":"refused","geur":null,"gfit":"none"}},{"type":"Feature","geometry":{"type":"Point","coordinates":[-104.94233,44.65869]},"properties":{"api":"4901122301","name":"SHEPHERD 14-17","op":"TRUE OIL LLC","co":"Crook","st":"WY","trs":"T54N R67W S17","fm":null,"eur":840778,"perft":null,"sound":true,"fit":"sound","geur":null,"gfit":"refused"}},{"type":"Feature","geometry":{"type":"Point","coordinates":[-104.93921,44.65094]},"properties":{"api":"4901122488","name":"EVANS FEE 1","op":"JOEMAR WYOMING OPERATING LLC","co":"Crook","st":"WY","trs":"T54N R67W S20","fm":null,"eur":265290,"perft":null,"sound":true,"fit":"sound","geur":null,"gfit":"none"}},{"type":"Feature","geometry":{"type":"Point","coordinates":[-104.94055,44.66046]},"properties":{"api":"4901123024","name":"SHEPHERD 13-17","op":"TRUE OIL LLC","co":"Crook","st":"WY","trs":"T54N R67W S17","fm":null,"eur":270760,"perft":null,"sound":true,"fit":"sound","geur":null,"gfit":"none"}},{"type":"Feature","geometry":{"type":"Point","coordinates":[-104.93284,44.67563]},"properties":{"api":"4901123115","name":"FOWLER FEDERAL 23-8","op":"SIX BAR OIL LLC","co":"Crook","st":"WY","trs":"T54N R67W S8","fm":"MINNELUSA C","eur":459459,"perft":null,"sound":true,"fit":"sound","geur":null,"gfit":"none"}},{"type":"Feature","geometry":{"type":"Point","coordinates":[-104.9469,44.662]},"properties":{"api":"4901123384","name":"SHEPHERD 43-18B","op":"TRUE OIL LLC","co":"Crook","st":"WY","trs":"T54N R67W S18","fm":null,"eur":null,"perft":null,"sound":false,"fit":"refused","geur":null,"gfit":"none"}},{"type":"Feature","geometry":{"type":"Point","coordinates":[-104.93447,44.67866]},"properties":{"api":"4901123136","name":"FOWLER 22-8","op":"SIX BAR OIL LLC","co":"Crook","st":"WY","trs":"T54N R67W S8","fm":"MINNELUSA C SAND","eur":null,"perft":null,"sound":false,"fit":"refused","geur":null,"gfit":"none"}},{"type":"Feature","geometry":{"type":"Point","coordinates":[-104.96001,44.68035]},"properties":{"api":"4901105596","name":"FOWLER 12-7","op":"GARY-WILLIAMS PRODUCTION COMPANY","co":"Crook","st":"WY","trs":"T54N R67W S7","fm":null,"eur":null,"perft":null,"sound":false,"fit":"refused","geur":null,"gfit":"none"}},{"type":"Feature","geometry":{"type":"Point","coordinates":[-104.93991,44.64723]},"properties":{"api":"4901121348","name":"CHARLOTTE B FEE 1","op":"LARIO OIL & GAS COMPANY","co":"Crook","st":"WY","trs":"T54N R67W S20","fm":null,"eur":null,"perft":null,"sound":false,"fit":"refused","geur":null,"gfit":"none"}},{"type":"Feature","geometry":{"type":"Point","coordinates":[-104.92951,44.69859]},"properties":{"api":"4901122020","name":"FOWLER FEE 1-5","op":"SIX BAR OIL LLC","co":"Crook","st":"WY","trs":"T54N R67W S5","fm":"MINNELUSA","eur":147411,"perft":null,"sound":true,"fit":"sound","geur":null,"gfit":"none"}},{"type":"Feature","geometry":{"type":"Point","coordinates":[-104.94044,44.64339]},"properties":{"api":"4901120963","name":"CHARLOTTE FEE 1","op":"LARIO OIL & GAS COMPANY","co":"Crook","st":"WY","trs":"T54N R67W S20","fm":null,"eur":null,"perft":null,"sound":false,"fit":"none","geur":null,"gfit":"none"}},{"type":"Feature","geometry":{"type":"Point","coordinates":[-104.95056,44.61888]},"properties":{"api":"4901121183","name":"EVANS FEE 1","op":"GALLAGHER DRILLING INC","co":"Crook","st":"WY","trs":"T54N R67W S31","fm":null,"eur":768,"perft":null,"sound":true,"fit":"sound","geur":null,"gfit":"none"}},{"type":"Feature","geometry":{"type":"Point","coordinates":[-104.95453,44.66145]},"properties":{"api":"4901121228","name":"SHEPHERD 23-18 (I)","op":"TRUE OIL LLC","co":"Crook","st":"WY","trs":"T54N R67W S18","fm":null,"eur":null,"perft":null,"sound":false,"fit":"none","geur":null,"gfit":"none"}},{"type":"Feature","geometry":{"type":"Point","coordinates":[-104.95502,44.65436]},"properties":{"api":"4901121229","name":"SHEPHERD 21-19 (I)","op":"TRUE OIL LLC","co":"Crook","st":"WY","trs":"T54N R67W S19","fm":null,"eur":null,"perft":null,"sound":false,"fit":"none","geur":null,"gfit":"none"}},{"type":"Feature","geometry":{"type":"Point","coordinates":[-104.95538,44.65825]},"properties":{"api":"4901120676","name":"SHEPHERD 24-18 (I)","op":"TRUE OIL LLC","co":"Crook","st":"WY","trs":"T54N R67W S18","fm":"MINNELUSA","eur":29454,"perft":null,"sound":true,"fit":"sound","geur":null,"gfit":"none"}}]}