{"type":"FeatureCollection","features":[{"type":"Feature","geometry":{"type":"Point","coordinates":[-106.52193,44.75731]},"properties":{"api":"4903323699","name":"FKCC STATE 3E-8- 55-80","op":"WINDSOR ENERGY GROUP LLC","co":"Sheridan","st":"WY","trs":"T55N R80W S8","fm":null,"eur":null,"perft":null,"sound":false,"fit":"none","geur":null,"gfit":"none"}},{"type":"Feature","geometry":{"type":"Point","coordinates":[-106.53926,44.74996]},"properties":{"api":"4903323854","name":"FKCC STATE 11R-7 55-80","op":"WINDSOR ENERGY GROUP LLC","co":"Sheridan","st":"WY","trs":"T55N R80W S7","fm":null,"eur":null,"perft":null,"sound":false,"fit":"none","geur":null,"gfit":"none"}},{"type":"Feature","geometry":{"type":"Point","coordinates":[-106.54258,44.74597]},"properties":{"api":"4903323855","name":"FKCC STATE 13R-7 55-80","op":"WINDSOR ENERGY GROUP LLC","co":"Sheridan","st":"WY","trs":"T55N R80W S7","fm":null,"eur":null,"perft":null,"sound":false,"fit":"none","geur":null,"gfit":"none"}},{"type":"Feature","geometry":{"type":"Point","coordinates":[-106.51666,44.70988]},"properties":{"api":"4903324033","name":"FKCC STATE 7R-29 55-80","op":"WINDSOR ENERGY GROUP LLC","co":"Sheridan","st":"WY","trs":"T55N R80W S29","fm":null,"eur":null,"perft":null,"sound":false,"fit":"none","geur":null,"gfit":"none"}},{"type":"Feature","geometry":{"type":"Point","coordinates":[-106.49682,44.7032]},"properties":{"api":"4903324090","name":"FKCC STATE 15E-28 55-80","op":"WINDSOR ENERGY GROUP LLC","co":"Sheridan","st":"WY","trs":"T55N R80W S28","fm":null,"eur":null,"perft":null,"sound":false,"fit":"none","geur":null,"gfit":"none"}},{"type":"Feature","geometry":{"type":"Point","coordinates":[-106.49619,44.72509]},"properties":{"api":"4903324091","name":"FKCC STATE 7E-21-55-80","op":"WINDSOR ENERGY GROUP LLC","co":"Sheridan","st":"WY","trs":"T55N R80W S21","fm":null,"eur":null,"perft":null,"sound":false,"fit":"none","geur":null,"gfit":"none"}},{"type":"Feature","geometry":{"type":"Point","coordinates":[-106.50153,44.72136]},"properties":{"api":"4903324093","name":"FKCC STATE 11E-21-55-80","op":"WINDSOR ENERGY GROUP LLC","co":"Sheridan","st":"WY","trs":"T55N R80W S21","fm":null,"eur":null,"perft":null,"sound":false,"fit":"none","geur":null,"gfit":"none"}},{"type":"Feature","geometry":{"type":"Point","coordinates":[-106.52708,44.76095]},"properties":{"api":"4903323567","name":"FKCC STATE 13R-5 55-80","op":"WINDSOR ENERGY GROUP LLC","co":"Sheridan","st":"WY","trs":"T55N R80W S5","fm":null,"eur":null,"perft":null,"sound":false,"fit":"none","geur":null,"gfit":"none"}},{"type":"Feature","geometry":{"type":"Point","coordinates":[-106.53622,44.76106]},"properties":{"api":"4903323700","name":"FKCC STATE 15R-6 55-80","op":"WINDSOR ENERGY GROUP LLC","co":"Sheridan","st":"WY","trs":"T55N R80W S6","fm":null,"eur":null,"perft":null,"sound":false,"fit":"none","geur":null,"gfit":"none"}},{"type":"Feature","geometry":{"type":"Point","coordinates":[-106.53134,44.75727]},"properties":{"api":"4903323726","name":"FKCC STATE 1R-7 55-80","op":"WINDSOR ENERGY GROUP LLC","co":"Sheridan","st":"WY","trs":"T55N R80W S7","fm":null,"eur":null,"perft":null,"sound":false,"fit":"none","geur":null,"gfit":"none"}},{"type":"Feature","geometry":{"type":"Point","coordinates":[-106.51609,44.76106]},"properties":{"api":"4903323844","name":"FKCC  STATE 15E-5 55-80","op":"WINDSOR ENERGY GROUP LLC","co":"Sheridan","st":"WY","trs":"T55N R80W S5","fm":null,"eur":null,"perft":null,"sound":false,"fit":"none","geur":null,"gfit":"none"}},{"type":"Feature","geometry":{"type":"Point","coordinates":[-106.52209,44.76446]},"properties":{"api":"4903323845","name":"FKCC  STATE 11E-5 55-80","op":"WINDSOR ENERGY GROUP LLC","co":"Sheridan","st":"WY","trs":"T55N R80W S5","fm":null,"eur":null,"perft":null,"sound":false,"fit":"none","geur":null,"gfit":"none"}},{"type":"Feature","geometry":{"type":"Point","coordinates":[-106.51721,44.76867]},"properties":{"api":"4903323847","name":"FKCC STATE 7E-5-55-80","op":"WINDSOR ENERGY GROUP LLC","co":"Sheridan","st":"WY","trs":"T55N R80W S5","fm":null,"eur":null,"perft":null,"sound":false,"fit":"none","geur":null,"gfit":"none"}},{"type":"Feature","geometry":{"type":"Point","coordinates":[-106.52628,44.7683]},"properties":{"api":"4903323848","name":"FKCC STATE 5E-5-55-80","op":"WINDSOR ENERGY GROUP LLC","co":"Sheridan","st":"WY","trs":"T55N R80W S5","fm":null,"eur":null,"perft":null,"sound":false,"fit":"none","geur":null,"gfit":"none"}},{"type":"Feature","geometry":{"type":"Point","coordinates":[-106.52184,44.77245]},"properties":{"api":"4903323849","name":"FKCC STATE 3E-5-55-80","op":"WINDSOR ENERGY GROUP LLC","co":"Sheridan","st":"WY","trs":"T55N R80W S5","fm":null,"eur":null,"perft":null,"sound":false,"fit":"none","geur":null,"gfit":"none"}},{"type":"Feature","geometry":{"type":"Point","coordinates":[-106.53841,44.7567]},"properties":{"api":"4903323850","name":"FKCC STATE 3R-7 55-80","op":"WINDSOR ENERGY GROUP LLC","co":"Sheridan","st":"WY","trs":"T55N R80W S7","fm":null,"eur":null,"perft":null,"sound":false,"fit":"none","geur":null,"gfit":"none"}},{"type":"Feature","geometry":{"type":"Point","coordinates":[-106.54272,44.75383]},"properties":{"api":"4903323851","name":"FKCC STATE 5R-7 55-80","op":"WINDSOR ENERGY GROUP LLC","co":"Sheridan","st":"WY","trs":"T55N R80W S7","fm":null,"eur":null,"perft":null,"sound":false,"fit":"none","geur":null,"gfit":"none"}},{"type":"Feature","geometry":{"type":"Point","coordinates":[-106.53518,44.75385]},"properties":{"api":"4903323852","name":"FKCC STATE 7R-7 55-80","op":"WINDSOR ENERGY GROUP LLC","co":"Sheridan","st":"WY","trs":"T55N R80W S7","fm":null,"eur":null,"perft":null,"sound":false,"fit":"none","geur":null,"gfit":"none"}},{"type":"Feature","geometry":{"type":"Point","coordinates":[-106.53107,44.74991]},"properties":{"api":"4903323853","name":"FKCC STATE 9E-7 55-80","op":"WINDSOR ENERGY GROUP LLC","co":"Sheridan","st":"WY","trs":"T55N R80W S7","fm":null,"eur":null,"perft":null,"sound":false,"fit":"none","geur":null,"gfit":"none"}},{"type":"Feature","geometry":{"type":"Point","coordinates":[-106.53503,44.74659]},"properties":{"api":"4903323856","name":"FKCC STATE 15R-7 55-80","op":"WINDSOR ENERGY GROUP LLC","co":"Sheridan","st":"WY","trs":"T55N R80W S7","fm":null,"eur":null,"perft":null,"sound":false,"fit":"none","geur":null,"gfit":"none"}},{"type":"Feature","geometry":{"type":"Point","coordinates":[-106.51094,44.72126]},"properties":{"api":"4903323987","name":"FKCC STATE 9E-20 55-80","op":"WINDSOR ENERGY GROUP LLC","co":"Sheridan","st":"WY","trs":"T55N R80W S20","fm":null,"eur":null,"perft":null,"sound":false,"fit":"none","geur":null,"gfit":"none"}},{"type":"Feature","geometry":{"type":"Point","coordinates":[-106.53949,44.74991]},"properties":{"api":"4903323988","name":"FKCC STATE 11E-7 55-80","op":"WINDSOR ENERGY GROUP LLC","co":"Sheridan","st":"WY","trs":"T55N R80W S7","fm":null,"eur":null,"perft":null,"sound":false,"fit":"none","geur":null,"gfit":"none"}},{"type":"Feature","geometry":{"type":"Point","coordinates":[-106.49119,44.70713]},"properties":{"api":"4903324016","name":"FKCC STATE 9E-28 55-80","op":"WINDSOR ENERGY GROUP LLC","co":"Sheridan","st":"WY","trs":"T55N R80W S28","fm":null,"eur":null,"perft":null,"sound":false,"fit":"none","geur":null,"gfit":"none"}},{"type":"Feature","geometry":{"type":"Point","coordinates":[-106.51141,44.72902]},"properties":{"api":"4903324018","name":"FKCC STATE 1E-20 55-80","op":"WINDSOR ENERGY GROUP LLC","co":"Sheridan","st":"WY","trs":"T55N R80W S20","fm":null,"eur":null,"perft":null,"sound":false,"fit":"none","geur":null,"gfit":"none"}},{"type":"Feature","geometry":{"type":"Point","coordinates":[-106.5013,44.72866]},"properties":{"api":"4903324019","name":"FKCC STATE 3E-21-55-80","op":"WINDSOR ENERGY GROUP LLC","co":"Sheridan","st":"WY","trs":"T55N R80W S21","fm":null,"eur":null,"perft":null,"sound":false,"fit":"none","geur":null,"gfit":"none"}},{"type":"Feature","geometry":{"type":"Point","coordinates":[-106.50626,44.7026]},"properties":{"api":"4903324021","name":"FKCC STATE  13E-28 55-80","op":"WINDSOR ENERGY GROUP LLC","co":"Sheridan","st":"WY","trs":"T55N R80W S28","fm":null,"eur":null,"perft":null,"sound":false,"fit":"none","geur":null,"gfit":"none"}},{"type":"Feature","geometry":{"type":"Point","coordinates":[-106.50621,44.70276]},"properties":{"api":"4903324022","name":"FKCC STATE 13R-28 55-80","op":"WINDSOR ENERGY GROUP LLC","co":"Sheridan","st":"WY","trs":"T55N R80W S28","fm":null,"eur":null,"perft":null,"sound":false,"fit":"none","geur":null,"gfit":"none"}},{"type":"Feature","geometry":{"type":"Point","coordinates":[-106.49641,44.71111]},"properties":{"api":"4903324028","name":"FKCC STATE 7R-28-55-80","op":"WINDSOR ENERGY GROUP LLC","co":"Sheridan","st":"WY","trs":"T55N R80W S28","fm":null,"eur":null,"perft":null,"sound":false,"fit":"none","geur":null,"gfit":"none"}},{"type":"Feature","geometry":{"type":"Point","coordinates":[-106.50181,44.70713]},"properties":{"api":"4903324029","name":"FKCC STATE 11R-28 55-80","op":"WINDSOR ENERGY GROUP LLC","co":"Sheridan","st":"WY","trs":"T55N R80W S28","fm":null,"eur":null,"perft":null,"sound":false,"fit":"none","geur":null,"gfit":"none"}},{"type":"Feature","geometry":{"type":"Point","coordinates":[-106.50666,44.71809]},"properties":{"api":"4903324030","name":"FKCC STATE 13R-21 55-80","op":"WINDSOR ENERGY GROUP LLC","co":"Sheridan","st":"WY","trs":"T55N R80W S21","fm":null,"eur":null,"perft":null,"sound":false,"fit":"none","geur":null,"gfit":"refused"}},{"type":"Feature","geometry":{"type":"Point","coordinates":[-106.50088,44.71385]},"properties":{"api":"4903324031","name":"FKCC STATE 3R-28 55-80","op":"WINDSOR ENERGY GROUP LLC","co":"Sheridan","st":"WY","trs":"T55N R80W S28","fm":null,"eur":null,"perft":null,"sound":false,"fit":"none","geur":null,"gfit":"none"}},{"type":"Feature","geometry":{"type":"Point","coordinates":[-106.51074,44.71381]},"properties":{"api":"4903324032","name":"FKCC STATE 1R-29 55-80","op":"WINDSOR ENERGY GROUP LLC","co":"Sheridan","st":"WY","trs":"T55N R80W S29","fm":null,"eur":null,"perft":null,"sound":false,"fit":"none","geur":null,"gfit":"refused"}},{"type":"Feature","geometry":{"type":"Point","coordinates":[-106.51074,44.70623]},"properties":{"api":"4903324034","name":"FKCC STATE 9R-29 55-80","op":"WINDSOR ENERGY GROUP LLC","co":"Sheridan","st":"WY","trs":"T55N R80W S29","fm":null,"eur":null,"perft":null,"sound":false,"fit":"none","geur":null,"gfit":"none"}},{"type":"Feature","geometry":{"type":"Point","coordinates":[-106.48689,44.71052]},"properties":{"api":"4903324085","name":"FKCC STATE 5E-27-55-80","op":"WINDSOR ENERGY GROUP LLC","co":"Sheridan","st":"WY","trs":"T55N R80W S27","fm":null,"eur":null,"perft":null,"sound":false,"fit":"none","geur":null,"gfit":"none"}},{"type":"Feature","geometry":{"type":"Point","coordinates":[-106.48095,44.70734]},"properties":{"api":"4903324087","name":"FKCC STATE 11E-27 55-80","op":"WINDSOR ENERGY GROUP LLC","co":"Sheridan","st":"WY","trs":"T55N R80W S27","fm":null,"eur":null,"perft":null,"sound":false,"fit":"none","geur":null,"gfit":"none"}},{"type":"Feature","geometry":{"type":"Point","coordinates":[-106.49088,44.71492]},"properties":{"api":"4903324089","name":"FKCC STATE 1E-28 55-80","op":"WINDSOR ENERGY GROUP LLC","co":"Sheridan","st":"WY","trs":"T55N R80W S28","fm":null,"eur":null,"perft":null,"sound":false,"fit":"none","geur":null,"gfit":"none"}},{"type":"Feature","geometry":{"type":"Point","coordinates":[-106.48162,44.71494]},"properties":{"api":"4903324092","name":"FKCC STATE 3E-27-55-80","op":"WINDSOR ENERGY GROUP LLC","co":"Sheridan","st":"WY","trs":"T55N R80W S27","fm":null,"eur":null,"perft":null,"sound":false,"fit":"none","geur":null,"gfit":"none"}},{"type":"Feature","geometry":{"type":"Point","coordinates":[-106.48609,44.7037]},"properties":{"api":"4903324102","name":"FKCC STATE 13E-27 55-80","op":"WINDSOR ENERGY GROUP LLC","co":"Sheridan","st":"WY","trs":"T55N R80W S27","fm":null,"eur":null,"perft":null,"sound":false,"fit":"none","geur":null,"gfit":"none"}},{"type":"Feature","geometry":{"type":"Point","coordinates":[-106.50562,44.70899]},"properties":{"api":"4903324114","name":"FKCC STATE 5RX-28 55-80","op":"WINDSOR ENERGY GROUP LLC","co":"Sheridan","st":"WY","trs":"T55N R80W S28","fm":null,"eur":null,"perft":null,"sound":false,"fit":"none","geur":null,"gfit":"none"}}]}