{"type":"FeatureCollection","features":[{"type":"Feature","geometry":{"type":"Point","coordinates":[-105.05895,44.94967]},"properties":{"api":"4901106228","name":"F M DONALDSON 1","op":"BLACK BANK LLC","co":"Crook","st":"WY","trs":"T57N R68W S8","fm":null,"eur":7773,"perft":null,"sound":true,"fit":"sound","geur":null,"gfit":"none"}},{"type":"Feature","geometry":{"type":"Point","coordinates":[-105.05911,44.95381]},"properties":{"api":"4901106373","name":"F DONALDSON 2","op":"BLACK BANK LLC","co":"Crook","st":"WY","trs":"T57N R68W S5","fm":null,"eur":24819,"perft":null,"sound":true,"fit":"sound","geur":null,"gfit":"none"}},{"type":"Feature","geometry":{"type":"Point","coordinates":[-105.06318,44.94949]},"properties":{"api":"4901106390","name":"Craft 2","op":"BLACK BANK LLC","co":"Crook","st":"WY","trs":"T57N R68W S8","fm":"MUDDY","eur":null,"perft":null,"sound":false,"fit":"refused","geur":null,"gfit":"none"}},{"type":"Feature","geometry":{"type":"Point","coordinates":[-105.0559,44.95972]},"properties":{"api":"4901122446","name":"Delbert Jones 1-A","op":"BLACK BANK LLC","co":"Crook","st":"WY","trs":"T57N R68W S5","fm":null,"eur":null,"perft":null,"sound":false,"fit":"none","geur":null,"gfit":"none"}},{"type":"Feature","geometry":{"type":"Point","coordinates":[-105.06096,44.95142]},"properties":{"api":"4901123420","name":"BBMU 1","op":"BLACK BANK LLC","co":"Crook","st":"WY","trs":"T57N R68W S8","fm":null,"eur":null,"perft":null,"sound":false,"fit":"none","geur":null,"gfit":"none"}},{"type":"Feature","geometry":{"type":"Point","coordinates":[-105.05156,44.88307]},"properties":{"api":"4901122989","name":"NORTH FORK FEDERAL 44-32","op":"BALLARD PETROLEUM HOLDINGS LLC","co":"Crook","st":"WY","trs":"T57N R68W S32","fm":null,"eur":null,"perft":null,"sound":false,"fit":"none","geur":null,"gfit":"none"}},{"type":"Feature","geometry":{"type":"Point","coordinates":[-105.0589,44.95645]},"properties":{"api":"4901106367","name":"JONES 5-1","op":"BLACK BANK LLC","co":"Crook","st":"WY","trs":"T57N R68W S5","fm":"MUDDY","eur":21200,"perft":null,"sound":true,"fit":"sound","geur":null,"gfit":"none"}}]}