{"type":"FeatureCollection","features":[{"type":"Feature","geometry":{"type":"Point","coordinates":[-106.42733,44.91425]},"properties":{"api":"4903323134","name":"REMINGTON 57-79-18-07R","op":"POWDER BATTALION HOLDINGS LLC","co":"Sheridan","st":"WY","trs":"T57N R79W S18","fm":null,"eur":null,"perft":null,"sound":false,"fit":"none","geur":null,"gfit":"none"}},{"type":"Feature","geometry":{"type":"Point","coordinates":[-106.43809,44.91373]},"properties":{"api":"4903323135","name":"REMINGTON 57-79-18-05R","op":"POWDER BATTALION HOLDINGS LLC","co":"Sheridan","st":"WY","trs":"T57N R79W S18","fm":null,"eur":null,"perft":null,"sound":false,"fit":"none","geur":null,"gfit":"none"}},{"type":"Feature","geometry":{"type":"Point","coordinates":[-106.43215,44.91805]},"properties":{"api":"4903323136","name":"REMINGTON 57-79-18-03R","op":"POWDER BATTALION HOLDINGS LLC","co":"Sheridan","st":"WY","trs":"T57N R79W S18","fm":null,"eur":null,"perft":null,"sound":false,"fit":"none","geur":null,"gfit":"none"}},{"type":"Feature","geometry":{"type":"Point","coordinates":[-106.42833,44.92141]},"properties":{"api":"4903323137","name":"REMINGTON 57-79-07-15R","op":"POWDER BATTALION HOLDINGS LLC","co":"Sheridan","st":"WY","trs":"T57N R79W S7","fm":null,"eur":null,"perft":null,"sound":false,"fit":"none","geur":null,"gfit":"none"}},{"type":"Feature","geometry":{"type":"Point","coordinates":[-106.43757,44.92137]},"properties":{"api":"4903323142","name":"REMINGTON 57-79-07-13R","op":"POWDER BATTALION HOLDINGS LLC","co":"Sheridan","st":"WY","trs":"T57N R79W S7","fm":null,"eur":null,"perft":null,"sound":false,"fit":"none","geur":null,"gfit":"none"}},{"type":"Feature","geometry":{"type":"Point","coordinates":[-106.42256,44.91847]},"properties":{"api":"4903324103","name":"REMINGTON 57-79-18-01R","op":"POWDER BATTALION HOLDINGS LLC","co":"Sheridan","st":"WY","trs":"T57N R79W S18","fm":null,"eur":null,"perft":null,"sound":false,"fit":"none","geur":null,"gfit":"none"}},{"type":"Feature","geometry":{"type":"Point","coordinates":[-106.33134,44.913]},"properties":{"api":"4903324809","name":"REMINGTON 57-79-13-11","op":"POWDER BATTALION HOLDINGS LLC","co":"Sheridan","st":"WY","trs":"T57N R79W S13","fm":null,"eur":null,"perft":null,"sound":false,"fit":"none","geur":null,"gfit":"none"}},{"type":"Feature","geometry":{"type":"Point","coordinates":[-106.42737,44.90737]},"properties":{"api":"4903326715","name":"DOME 57-79-18-15KB","op":"POWDER BATTALION HOLDINGS LLC","co":"Sheridan","st":"WY","trs":"T57N R79W S18","fm":null,"eur":null,"perft":null,"sound":false,"fit":"none","geur":null,"gfit":"none"}},{"type":"Feature","geometry":{"type":"Point","coordinates":[-106.41266,44.94731]},"properties":{"api":"4903326718","name":"REMINGTON 57-79-05-03CK","op":"POWDER BATTALION HOLDINGS LLC","co":"Sheridan","st":"WY","trs":"T57N R79W S5","fm":null,"eur":null,"perft":null,"sound":false,"fit":"none","geur":null,"gfit":"refused"}},{"type":"Feature","geometry":{"type":"Point","coordinates":[-106.40311,44.9402]},"properties":{"api":"4903326719","name":"REMINGTON 57-79-05-09CK","op":"POWDER BATTALION HOLDINGS LLC","co":"Sheridan","st":"WY","trs":"T57N R79W S5","fm":null,"eur":null,"perft":null,"sound":false,"fit":"none","geur":null,"gfit":"refused"}},{"type":"Feature","geometry":{"type":"Point","coordinates":[-106.42742,44.94745]},"properties":{"api":"4903326720","name":"REMINGTON 57-79-06-02CK","op":"POWDER BATTALION HOLDINGS LLC","co":"Sheridan","st":"WY","trs":"T57N R79W S6","fm":null,"eur":null,"perft":null,"sound":false,"fit":"none","geur":null,"gfit":"refused"}},{"type":"Feature","geometry":{"type":"Point","coordinates":[-106.42297,44.93963]},"properties":{"api":"4903326721","name":"WY STATE 57-79-06-09CK","op":"POWDER BATTALION HOLDINGS LLC","co":"Sheridan","st":"WY","trs":"T57N R79W S6","fm":null,"eur":null,"perft":null,"sound":false,"fit":"none","geur":null,"gfit":"refused"}},{"type":"Feature","geometry":{"type":"Point","coordinates":[-106.42327,44.93251]},"properties":{"api":"4903326722","name":"WY STATE 57-79-07-01CK","op":"POWDER BATTALION HOLDINGS LLC","co":"Sheridan","st":"WY","trs":"T57N R79W S7","fm":null,"eur":null,"perft":null,"sound":false,"fit":"none","geur":null,"gfit":"refused"}},{"type":"Feature","geometry":{"type":"Point","coordinates":[-106.4326,44.93214]},"properties":{"api":"4903326723","name":"REMINGTON 57-79-07-03CK","op":"POWDER BATTALION HOLDINGS LLC","co":"Sheridan","st":"WY","trs":"T57N R79W S7","fm":null,"eur":null,"perft":null,"sound":false,"fit":"none","geur":null,"gfit":"none"}},{"type":"Feature","geometry":{"type":"Point","coordinates":[-106.42743,44.94731]},"properties":{"api":"4903326726","name":"REMINGTON 57-79-06-02KB","op":"POWDER BATTALION HOLDINGS LLC","co":"Sheridan","st":"WY","trs":"T57N R79W S6","fm":null,"eur":null,"perft":null,"sound":false,"fit":"none","geur":null,"gfit":"none"}},{"type":"Feature","geometry":{"type":"Point","coordinates":[-106.40288,44.9402]},"properties":{"api":"4903326727","name":"REMINGTON 57-79-05-09KB","op":"POWDER BATTALION HOLDINGS LLC","co":"Sheridan","st":"WY","trs":"T57N R79W S5","fm":null,"eur":null,"perft":null,"sound":false,"fit":"none","geur":null,"gfit":"none"}},{"type":"Feature","geometry":{"type":"Point","coordinates":[-106.41254,44.94719]},"properties":{"api":"4903326728","name":"REMINGTON 57-79-05-03KB","op":"POWDER BATTALION HOLDINGS LLC","co":"Sheridan","st":"WY","trs":"T57N R79W S5","fm":null,"eur":null,"perft":null,"sound":false,"fit":"none","geur":null,"gfit":"none"}},{"type":"Feature","geometry":{"type":"Point","coordinates":[-106.38138,44.93317]},"properties":{"api":"4903326733","name":"DOME 57-79-09-01CK","op":"POWDER BATTALION HOLDINGS LLC","co":"Sheridan","st":"WY","trs":"T57N R79W S9","fm":null,"eur":null,"perft":null,"sound":false,"fit":"none","geur":null,"gfit":"none"}},{"type":"Feature","geometry":{"type":"Point","coordinates":[-106.41301,44.93302]},"properties":{"api":"4903326735","name":"WY STATE 57-79-08-03CK","op":"POWDER BATTALION HOLDINGS LLC","co":"Sheridan","st":"WY","trs":"T57N R79W S8","fm":null,"eur":null,"perft":null,"sound":false,"fit":"none","geur":null,"gfit":"refused"}},{"type":"Feature","geometry":{"type":"Point","coordinates":[-106.40238,44.93268]},"properties":{"api":"4903326737","name":"REMINGTON 57-79-08-01CK","op":"POWDER BATTALION HOLDINGS LLC","co":"Sheridan","st":"WY","trs":"T57N R79W S8","fm":null,"eur":null,"perft":null,"sound":false,"fit":"none","geur":null,"gfit":"refused"}},{"type":"Feature","geometry":{"type":"Point","coordinates":[-106.43257,44.92534]},"properties":{"api":"4903326738","name":"REMINGTON 57-79-07-11CK","op":"POWDER BATTALION HOLDINGS LLC","co":"Sheridan","st":"WY","trs":"T57N R79W S7","fm":null,"eur":null,"perft":null,"sound":false,"fit":"none","geur":null,"gfit":"none"}},{"type":"Feature","geometry":{"type":"Point","coordinates":[-106.42237,44.92539]},"properties":{"api":"4903326740","name":"DOME 57-79-07-09CK","op":"POWDER BATTALION HOLDINGS LLC","co":"Sheridan","st":"WY","trs":"T57N R79W S7","fm":null,"eur":null,"perft":null,"sound":false,"fit":"none","geur":null,"gfit":"none"}},{"type":"Feature","geometry":{"type":"Point","coordinates":[-106.42247,44.92552]},"properties":{"api":"4903326741","name":"DOME 57-79-07-09KB","op":"POWDER BATTALION HOLDINGS LLC","co":"Sheridan","st":"WY","trs":"T57N R79W S7","fm":null,"eur":null,"perft":null,"sound":false,"fit":"none","geur":null,"gfit":"none"}},{"type":"Feature","geometry":{"type":"Point","coordinates":[-106.43256,44.9252]},"properties":{"api":"4903326743","name":"REMINGTON 57-79-07-11KB","op":"POWDER BATTALION HOLDINGS LLC","co":"Sheridan","st":"WY","trs":"T57N R79W S7","fm":null,"eur":null,"perft":null,"sound":false,"fit":"none","geur":null,"gfit":"none"}},{"type":"Feature","geometry":{"type":"Point","coordinates":[-106.4024,44.93283]},"properties":{"api":"4903326744","name":"REMINGTON 57-79-08-01KB","op":"POWDER BATTALION HOLDINGS LLC","co":"Sheridan","st":"WY","trs":"T57N R79W S8","fm":null,"eur":null,"perft":null,"sound":false,"fit":"none","geur":null,"gfit":"none"}},{"type":"Feature","geometry":{"type":"Point","coordinates":[-106.38122,44.9331]},"properties":{"api":"4903326745","name":"DOME 57-79-09-01KB","op":"POWDER BATTALION HOLDINGS LLC","co":"Sheridan","st":"WY","trs":"T57N R79W S9","fm":null,"eur":null,"perft":null,"sound":false,"fit":"none","geur":null,"gfit":"none"}},{"type":"Feature","geometry":{"type":"Point","coordinates":[-106.40258,44.92607]},"properties":{"api":"4903326747","name":"REMINGTON 57-79-08-09KB","op":"POWDER BATTALION HOLDINGS LLC","co":"Sheridan","st":"WY","trs":"T57N R79W S8","fm":null,"eur":null,"perft":null,"sound":false,"fit":"none","geur":null,"gfit":"none"}},{"type":"Feature","geometry":{"type":"Point","coordinates":[-106.43261,44.93229]},"properties":{"api":"4903326748","name":"REMINGTON 57-79-07-03KB","op":"POWDER BATTALION HOLDINGS LLC","co":"Sheridan","st":"WY","trs":"T57N R79W S7","fm":null,"eur":null,"perft":null,"sound":false,"fit":"none","geur":null,"gfit":"none"}},{"type":"Feature","geometry":{"type":"Point","coordinates":[-106.41068,44.93914]},"properties":{"api":"4903326750","name":"WY STATE 57-79-05-11CK","op":"POWDER BATTALION HOLDINGS LLC","co":"Sheridan","st":"WY","trs":"T57N R79W S5","fm":null,"eur":null,"perft":null,"sound":false,"fit":"none","geur":null,"gfit":"refused"}},{"type":"Feature","geometry":{"type":"Point","coordinates":[-106.43574,44.94651]},"properties":{"api":"4903326751","name":"REMINGTON 57-79-06-03CK","op":"POWDER BATTALION HOLDINGS LLC","co":"Sheridan","st":"WY","trs":"T57N R79W S6","fm":null,"eur":null,"perft":null,"sound":false,"fit":"none","geur":null,"gfit":"refused"}},{"type":"Feature","geometry":{"type":"Point","coordinates":[-106.43534,44.93966]},"properties":{"api":"4903326752","name":"DOME 57-79-06-11CK","op":"POWDER BATTALION HOLDINGS LLC","co":"Sheridan","st":"WY","trs":"T57N R79W S6","fm":null,"eur":null,"perft":null,"sound":false,"fit":"none","geur":null,"gfit":"refused"}},{"type":"Feature","geometry":{"type":"Point","coordinates":[-106.39141,44.93192]},"properties":{"api":"4903326754","name":"REMINGTON 57-79-09-03CK","op":"POWDER BATTALION HOLDINGS LLC","co":"Sheridan","st":"WY","trs":"T57N R79W S9","fm":null,"eur":null,"perft":null,"sound":false,"fit":"none","geur":null,"gfit":"none"}},{"type":"Feature","geometry":{"type":"Point","coordinates":[-106.40371,44.94818]},"properties":{"api":"4903326757","name":"REMINGTON 57-79-05-01CK","op":"POWDER BATTALION HOLDINGS LLC","co":"Sheridan","st":"WY","trs":"T57N R79W S5","fm":null,"eur":null,"perft":null,"sound":false,"fit":"none","geur":null,"gfit":"refused"}},{"type":"Feature","geometry":{"type":"Point","coordinates":[-106.3938,44.94116]},"properties":{"api":"4903326758","name":"REMINGTON 57-79-04-11CK","op":"POWDER BATTALION HOLDINGS LLC","co":"Sheridan","st":"WY","trs":"T57N R79W S4","fm":null,"eur":null,"perft":null,"sound":false,"fit":"none","geur":null,"gfit":"refused"}},{"type":"Feature","geometry":{"type":"Point","coordinates":[-106.38365,44.94117]},"properties":{"api":"4903326759","name":"REMINGTON 57-79-04-09CK","op":"POWDER BATTALION HOLDINGS LLC","co":"Sheridan","st":"WY","trs":"T57N R79W S4","fm":null,"eur":null,"perft":null,"sound":false,"fit":"none","geur":null,"gfit":"refused"}},{"type":"Feature","geometry":{"type":"Point","coordinates":[-106.39424,44.94692]},"properties":{"api":"4903326760","name":"REMINGTON 57-79-04-03CK","op":"POWDER BATTALION HOLDINGS LLC","co":"Sheridan","st":"WY","trs":"T57N R79W S4","fm":null,"eur":null,"perft":null,"sound":false,"fit":"none","geur":null,"gfit":"refused"}},{"type":"Feature","geometry":{"type":"Point","coordinates":[-106.38428,44.94662]},"properties":{"api":"4903326761","name":"DOME 57-79-04-01CK","op":"POWDER BATTALION HOLDINGS LLC","co":"Sheridan","st":"WY","trs":"T57N R79W S4","fm":null,"eur":null,"perft":null,"sound":false,"fit":"none","geur":null,"gfit":"refused"}},{"type":"Feature","geometry":{"type":"Point","coordinates":[-106.43168,44.91133]},"properties":{"api":"4903326764","name":"REMINGTON 57-79-18-11KB","op":"POWDER BATTALION HOLDINGS LLC","co":"Sheridan","st":"WY","trs":"T57N R79W S18","fm":null,"eur":null,"perft":null,"sound":false,"fit":"none","geur":null,"gfit":"none"}},{"type":"Feature","geometry":{"type":"Point","coordinates":[-106.39209,44.92466]},"properties":{"api":"4903326765","name":"REMINGTON 57-79-09-11KB","op":"POWDER BATTALION HOLDINGS LLC","co":"Sheridan","st":"WY","trs":"T57N R79W S9","fm":null,"eur":null,"perft":null,"sound":false,"fit":"none","geur":null,"gfit":"none"}},{"type":"Feature","geometry":{"type":"Point","coordinates":[-106.39158,44.93198]},"properties":{"api":"4903326766","name":"REMINGTON 57-79-09-03KB","op":"POWDER BATTALION HOLDINGS LLC","co":"Sheridan","st":"WY","trs":"T57N R79W S9","fm":null,"eur":null,"perft":null,"sound":false,"fit":"none","geur":null,"gfit":"none"}},{"type":"Feature","geometry":{"type":"Point","coordinates":[-106.40653,44.92317]},"properties":{"api":"4903326767","name":"DOME 57-79-08-15KB","op":"POWDER BATTALION HOLDINGS LLC","co":"Sheridan","st":"WY","trs":"T57N R79W S8","fm":null,"eur":null,"perft":null,"sound":false,"fit":"none","geur":null,"gfit":"none"}},{"type":"Feature","geometry":{"type":"Point","coordinates":[-106.43531,44.93949]},"properties":{"api":"4903326768","name":"DOME 57-79-06-11KB","op":"POWDER BATTALION HOLDINGS LLC","co":"Sheridan","st":"WY","trs":"T57N R79W S6","fm":null,"eur":null,"perft":null,"sound":false,"fit":"none","geur":null,"gfit":"none"}},{"type":"Feature","geometry":{"type":"Point","coordinates":[-106.43576,44.94667]},"properties":{"api":"4903326769","name":"REMINGTON 57-79-06-03KB","op":"POWDER BATTALION HOLDINGS LLC","co":"Sheridan","st":"WY","trs":"T57N R79W S6","fm":null,"eur":null,"perft":null,"sound":false,"fit":"none","geur":null,"gfit":"none"}},{"type":"Feature","geometry":{"type":"Point","coordinates":[-106.40352,44.94811]},"properties":{"api":"4903326770","name":"REMINGTON 57-79-05-01KB","op":"POWDER BATTALION HOLDINGS LLC","co":"Sheridan","st":"WY","trs":"T57N R79W S5","fm":null,"eur":null,"perft":null,"sound":false,"fit":"none","geur":null,"gfit":"none"}},{"type":"Feature","geometry":{"type":"Point","coordinates":[-106.39365,44.94107]},"properties":{"api":"4903326771","name":"REMINGTON 57-79-04-11KB","op":"POWDER BATTALION HOLDINGS LLC","co":"Sheridan","st":"WY","trs":"T57N R79W S4","fm":null,"eur":null,"perft":null,"sound":false,"fit":"none","geur":null,"gfit":"none"}},{"type":"Feature","geometry":{"type":"Point","coordinates":[-106.38365,44.94102]},"properties":{"api":"4903326772","name":"REMINGTON 57-79-04-09KB","op":"POWDER BATTALION HOLDINGS LLC","co":"Sheridan","st":"WY","trs":"T57N R79W S4","fm":null,"eur":null,"perft":null,"sound":false,"fit":"none","geur":null,"gfit":"none"}},{"type":"Feature","geometry":{"type":"Point","coordinates":[-106.39407,44.94682]},"properties":{"api":"4903326773","name":"REMINGTON 57-79-04-03KB","op":"POWDER BATTALION HOLDINGS LLC","co":"Sheridan","st":"WY","trs":"T57N R79W S4","fm":null,"eur":null,"perft":null,"sound":false,"fit":"none","geur":null,"gfit":"none"}},{"type":"Feature","geometry":{"type":"Point","coordinates":[-106.38436,44.94676]},"properties":{"api":"4903326774","name":"DOME 57-79-04-01KB","op":"POWDER BATTALION HOLDINGS LLC","co":"Sheridan","st":"WY","trs":"T57N R79W S4","fm":null,"eur":null,"perft":null,"sound":false,"fit":"none","geur":null,"gfit":"none"}},{"type":"Feature","geometry":{"type":"Point","coordinates":[-106.43546,44.94727]},"properties":{"api":"4903327669","name":"REMINGTON 57-79-06-03R-H","op":"POWDER BATTALION HOLDINGS LLC","co":"Sheridan","st":"WY","trs":"T57N R79W S6","fm":null,"eur":null,"perft":null,"sound":false,"fit":"none","geur":null,"gfit":"none"}},{"type":"Feature","geometry":{"type":"Point","coordinates":[-106.43637,44.87816]},"properties":{"api":"4903327691","name":"HANGING WOMAN FED 1430-5779","op":"KENNEDY OIL","co":"Sheridan","st":"WY","trs":"T57N R79W S30","fm":null,"eur":null,"perft":null,"sound":false,"fit":"none","geur":null,"gfit":"none"}},{"type":"Feature","geometry":{"type":"Point","coordinates":[-106.43523,44.86311]},"properties":{"api":"4903327689","name":"HANGING WOMAN FED 1431-5779","op":"KENNEDY OIL","co":"Sheridan","st":"WY","trs":"T57N R79W S31","fm":null,"eur":null,"perft":null,"sound":false,"fit":"none","geur":null,"gfit":"none"}},{"type":"Feature","geometry":{"type":"Point","coordinates":[-106.42279,44.93953]},"properties":{"api":"4903326725","name":"WY STATE 57-79-06-09KB","op":"STORM CAT ENERGY USA OPERATING CORP","co":"Sheridan","st":"WY","trs":"T57N R79W S6","fm":null,"eur":null,"perft":null,"sound":false,"fit":"none","geur":null,"gfit":"none"}},{"type":"Feature","geometry":{"type":"Point","coordinates":[-106.41051,44.93922]},"properties":{"api":"4903326775","name":"WY STATE 57-79-05-11KB","op":"STORM CAT ENERGY USA OPERATING CORP","co":"Sheridan","st":"WY","trs":"T57N R79W S5","fm":null,"eur":null,"perft":null,"sound":false,"fit":"none","geur":null,"gfit":"none"}},{"type":"Feature","geometry":{"type":"Point","coordinates":[-106.39151,44.91887]},"properties":{"api":"4903325810","name":"WY STATE 57-79-16-03KB","op":"STORM CAT ENERGY USA OPERATING CORP","co":"Sheridan","st":"WY","trs":"T57N R79W S16","fm":null,"eur":null,"perft":null,"sound":false,"fit":"none","geur":null,"gfit":"none"}},{"type":"Feature","geometry":{"type":"Point","coordinates":[-106.42307,44.93247]},"properties":{"api":"4903326724","name":"WY STATE 57-79-07-01KB","op":"STORM CAT ENERGY USA OPERATING CORP","co":"Sheridan","st":"WY","trs":"T57N R79W S7","fm":null,"eur":null,"perft":null,"sound":false,"fit":"none","geur":null,"gfit":"none"}},{"type":"Feature","geometry":{"type":"Point","coordinates":[-106.38194,44.91918]},"properties":{"api":"4903326739","name":"WY STATE 57-79-16-01KB","op":"STORM CAT ENERGY USA OPERATING CORP","co":"Sheridan","st":"WY","trs":"T57N R79W S16","fm":null,"eur":null,"perft":null,"sound":false,"fit":"none","geur":null,"gfit":"none"}},{"type":"Feature","geometry":{"type":"Point","coordinates":[-106.41282,44.93295]},"properties":{"api":"4903326746","name":"WY STATE 57-79-08-03KB","op":"STORM CAT ENERGY USA OPERATING CORP","co":"Sheridan","st":"WY","trs":"T57N R79W S8","fm":null,"eur":null,"perft":null,"sound":false,"fit":"none","geur":null,"gfit":"none"}},{"type":"Feature","geometry":{"type":"Point","coordinates":[-106.39026,44.91158]},"properties":{"api":"4903326776","name":"WY STATE 57-79-16-11KB","op":"STORM CAT ENERGY USA OPERATING CORP","co":"Sheridan","st":"WY","trs":"T57N R79W S16","fm":null,"eur":null,"perft":null,"sound":false,"fit":"none","geur":null,"gfit":"none"}},{"type":"Feature","geometry":{"type":"Point","coordinates":[-106.38192,44.91318]},"properties":{"api":"4903326777","name":"WY STATE 57-79-16-09KB","op":"STORM CAT ENERGY USA OPERATING CORP","co":"Sheridan","st":"WY","trs":"T57N R79W S16","fm":null,"eur":null,"perft":null,"sound":false,"fit":"none","geur":null,"gfit":"none"}},{"type":"Feature","geometry":{"type":"Point","coordinates":[-106.43234,44.91809]},"properties":{"api":"4903323133","name":"NANCE 57-79-18-03WIW","op":"STORM CAT ENERGY USA OPERATING CORP","co":"Sheridan","st":"WY","trs":"T57N R79W S18","fm":null,"eur":null,"perft":null,"sound":false,"fit":"none","geur":null,"gfit":"none"}}]}