{"type":"FeatureCollection","features":[{"type":"Feature","geometry":{"type":"Point","coordinates":[-107.03735,44.96449]},"properties":{"api":"4903305069","name":"J HALLWORTH 3","op":"STEAMBOAT OIL AND GAS LLC","co":"Sheridan","st":"WY","trs":"T58N R84W S31","fm":null,"eur":null,"perft":null,"sound":false,"fit":"refused","geur":null,"gfit":"none"}},{"type":"Feature","geometry":{"type":"Point","coordinates":[-107.0369,44.95763]},"properties":{"api":"4903305071","name":"J HALLWORTH 5","op":"STEAMBOAT OIL AND GAS LLC","co":"Sheridan","st":"WY","trs":"T58N R84W S31","fm":null,"eur":286855,"perft":null,"sound":true,"fit":"sound","geur":null,"gfit":"none"}},{"type":"Feature","geometry":{"type":"Point","coordinates":[-107.02617,44.96514]},"properties":{"api":"4903305087","name":"JV STATES B 1","op":"STEAMBOAT OIL AND GAS LLC","co":"Sheridan","st":"WY","trs":"T58N R84W S32","fm":null,"eur":263928,"perft":null,"sound":true,"fit":"sound","geur":null,"gfit":"none"}},{"type":"Feature","geometry":{"type":"Point","coordinates":[-107.03299,44.96525]},"properties":{"api":"4903305089","name":"J HALLWORTH 1-9","op":"STEAMBOAT OIL AND GAS LLC","co":"Sheridan","st":"WY","trs":"T58N R84W S31","fm":null,"eur":102836,"perft":null,"sound":true,"fit":"sound","geur":null,"gfit":"none"}},{"type":"Feature","geometry":{"type":"Point","coordinates":[-107.03518,44.96758]},"properties":{"api":"4903305093","name":"I BUSZKIEWIC 2","op":"STEAMBOAT OIL AND GAS LLC","co":"Sheridan","st":"WY","trs":"T58N R84W S30","fm":"SHANNON","eur":87607,"perft":null,"sound":true,"fit":"sound","geur":null,"gfit":"none"}},{"type":"Feature","geometry":{"type":"Point","coordinates":[-107.03116,44.96786]},"properties":{"api":"4903305096","name":"I BUSZKIEWIC 1","op":"STEAMBOAT OIL AND GAS LLC","co":"Sheridan","st":"WY","trs":"T58N R84W S30","fm":null,"eur":303464,"perft":null,"sound":true,"fit":"sound","geur":null,"gfit":"none"}},{"type":"Feature","geometry":{"type":"Point","coordinates":[-107.02618,44.96867]},"properties":{"api":"4903305097","name":"J V STATES C 1","op":"STEAMBOAT OIL AND GAS LLC","co":"Sheridan","st":"WY","trs":"T58N R84W S29","fm":null,"eur":null,"perft":null,"sound":false,"fit":"refused","geur":null,"gfit":"none"}},{"type":"Feature","geometry":{"type":"Point","coordinates":[-107.02727,44.97132]},"properties":{"api":"4903305101","name":"J V STATES C 2","op":"STEAMBOAT OIL AND GAS LLC","co":"Sheridan","st":"WY","trs":"T58N R84W S29","fm":null,"eur":null,"perft":null,"sound":false,"fit":"refused","geur":null,"gfit":"none"}},{"type":"Feature","geometry":{"type":"Point","coordinates":[-107.04931,44.98719]},"properties":{"api":"4903305122","name":"TRUSLER 10","op":"SUNSHINE VALLEY PETROLEUM","co":"Sheridan","st":"WY","trs":"T58N R84W S19","fm":"SHANNON","eur":null,"perft":null,"sound":false,"fit":"refused","geur":null,"gfit":"none"}},{"type":"Feature","geometry":{"type":"Point","coordinates":[-107.04097,44.99278]},"properties":{"api":"4903305144","name":"1 BAKER 1","op":"SUNSHINE VALLEY PETROLEUM","co":"Sheridan","st":"WY","trs":"T58N R84W S19","fm":null,"eur":null,"perft":null,"sound":false,"fit":"none","geur":null,"gfit":"none"}},{"type":"Feature","geometry":{"type":"Point","coordinates":[-107.03705,44.99365]},"properties":{"api":"4903305146","name":"BAKER 3","op":"SUNSHINE VALLEY PETROLEUM","co":"Sheridan","st":"WY","trs":"T58N R84W S19","fm":"SHANNON","eur":null,"perft":null,"sound":false,"fit":"refused","geur":null,"gfit":"none"}},{"type":"Feature","geometry":{"type":"Point","coordinates":[-107.04705,44.98552]},"properties":{"api":"4903320135","name":"TRUSLER 15","op":"SUNSHINE VALLEY PETROLEUM","co":"Sheridan","st":"WY","trs":"T58N R84W S19","fm":"SHANNON","eur":null,"perft":null,"sound":false,"fit":"refused","geur":null,"gfit":"none"}},{"type":"Feature","geometry":{"type":"Point","coordinates":[-107.0315,44.96103]},"properties":{"api":"4903305075","name":"J HALLWORTH 8","op":"STEAMBOAT OIL AND GAS LLC","co":"Sheridan","st":"WY","trs":"T58N R84W S31","fm":null,"eur":173070,"perft":null,"sound":true,"fit":"sound","geur":null,"gfit":"none"}},{"type":"Feature","geometry":{"type":"Point","coordinates":[-107.04391,44.9836]},"properties":{"api":"4903305113","name":"TRUSLER 13","op":"SUNSHINE VALLEY PETROLEUM","co":"Sheridan","st":"WY","trs":"T58N R84W S19","fm":null,"eur":null,"perft":null,"sound":false,"fit":"none","geur":null,"gfit":"none"}},{"type":"Feature","geometry":{"type":"Point","coordinates":[-107.04931,44.9836]},"properties":{"api":"4903305114","name":"TRUSLER 11","op":"SUNSHINE VALLEY PETROLEUM","co":"Sheridan","st":"WY","trs":"T58N R84W S19","fm":null,"eur":null,"perft":null,"sound":false,"fit":"none","geur":null,"gfit":"none"}},{"type":"Feature","geometry":{"type":"Point","coordinates":[-107.03872,44.99092]},"properties":{"api":"4903305140","name":"BAKER RE 2","op":"SUNSHINE VALLEY PETROLEUM","co":"Sheridan","st":"WY","trs":"T58N R84W S19","fm":null,"eur":null,"perft":null,"sound":false,"fit":"none","geur":null,"gfit":"none"}},{"type":"Feature","geometry":{"type":"Point","coordinates":[-106.9338,44.96566]},"properties":{"api":"4903305310","name":"DELAPP 31MW-3684","op":"FIDELITY EXPLORATION & PRODUCTION CO","co":"Sheridan","st":"WY","trs":"T58N R84W S36","fm":null,"eur":null,"perft":null,"sound":false,"fit":"none","geur":null,"gfit":"none"}},{"type":"Feature","geometry":{"type":"Point","coordinates":[-106.92802,44.98781]},"properties":{"api":"4903321236","name":"RESERVE 43C-2484","op":"FIDELITY EXPLORATION & PRODUCTION CO","co":"Sheridan","st":"WY","trs":"T58N R84W S24","fm":null,"eur":null,"perft":null,"sound":false,"fit":"none","geur":null,"gfit":"refused"}},{"type":"Feature","geometry":{"type":"Point","coordinates":[-106.92798,44.98765]},"properties":{"api":"4903321238","name":"RESERVE 43D 2/3-2484","op":"FIDELITY EXPLORATION & PRODUCTION CO","co":"Sheridan","st":"WY","trs":"T58N R84W S24","fm":null,"eur":null,"perft":null,"sound":false,"fit":"none","geur":null,"gfit":"refused"}},{"type":"Feature","geometry":{"type":"Point","coordinates":[-106.92778,44.98762]},"properties":{"api":"4903321239","name":"RESERVE 43M-2484","op":"FIDELITY EXPLORATION & PRODUCTION CO","co":"Sheridan","st":"WY","trs":"T58N R84W S24","fm":null,"eur":null,"perft":null,"sound":false,"fit":"none","geur":null,"gfit":"refused"}},{"type":"Feature","geometry":{"type":"Point","coordinates":[-106.94781,44.98023]},"properties":{"api":"4903320948","name":"RESERVE 41C-2684","op":"FIDELITY EXPLORATION & PRODUCTION CO","co":"Sheridan","st":"WY","trs":"T58N R84W S26","fm":null,"eur":null,"perft":null,"sound":false,"fit":"none","geur":41434,"gfit":"sound"}},{"type":"Feature","geometry":{"type":"Point","coordinates":[-106.94762,44.98029]},"properties":{"api":"4903320949","name":"RESERVE 41D2/3-2684","op":"FIDELITY EXPLORATION & PRODUCTION CO","co":"Sheridan","st":"WY","trs":"T58N R84W S26","fm":null,"eur":null,"perft":null,"sound":false,"fit":"none","geur":11121,"gfit":"sound"}},{"type":"Feature","geometry":{"type":"Point","coordinates":[-106.94779,44.98036]},"properties":{"api":"4903320950","name":"RESERVE 41K/R-2684","op":"FIDELITY EXPLORATION & PRODUCTION CO","co":"Sheridan","st":"WY","trs":"T58N R84W S26","fm":null,"eur":null,"perft":null,"sound":false,"fit":"none","geur":null,"gfit":"refused"}},{"type":"Feature","geometry":{"type":"Point","coordinates":[-106.92788,44.97291]},"properties":{"api":"4903320963","name":"RESERVE 43C-2584","op":"FIDELITY EXPLORATION & PRODUCTION CO","co":"Sheridan","st":"WY","trs":"T58N R84W S25","fm":null,"eur":null,"perft":null,"sound":false,"fit":"none","geur":null,"gfit":"refused"}},{"type":"Feature","geometry":{"type":"Point","coordinates":[-106.92788,44.97263]},"properties":{"api":"4903320964","name":"RESERVE 43D2/3-2584","op":"FIDELITY EXPLORATION & PRODUCTION CO","co":"Sheridan","st":"WY","trs":"T58N R84W S25","fm":null,"eur":null,"perft":null,"sound":false,"fit":"none","geur":51029,"gfit":"sound"}},{"type":"Feature","geometry":{"type":"Point","coordinates":[-106.92786,44.97277]},"properties":{"api":"4903320965","name":"RESERVE 43M-2584","op":"FIDELITY EXPLORATION & PRODUCTION CO","co":"Sheridan","st":"WY","trs":"T58N R84W S25","fm":null,"eur":null,"perft":null,"sound":false,"fit":"none","geur":null,"gfit":"refused"}},{"type":"Feature","geometry":{"type":"Point","coordinates":[-106.92731,44.98023]},"properties":{"api":"4903320966","name":"CHEVRON 41C-2584","op":"FIDELITY EXPLORATION & PRODUCTION CO","co":"Sheridan","st":"WY","trs":"T58N R84W S25","fm":null,"eur":null,"perft":null,"sound":false,"fit":"none","geur":null,"gfit":"refused"}},{"type":"Feature","geometry":{"type":"Point","coordinates":[-106.92712,44.98017]},"properties":{"api":"4903320967","name":"CHEVRON 41D2/3-2584","op":"FIDELITY EXPLORATION & PRODUCTION CO","co":"Sheridan","st":"WY","trs":"T58N R84W S25","fm":null,"eur":null,"perft":null,"sound":false,"fit":"none","geur":null,"gfit":"refused"}},{"type":"Feature","geometry":{"type":"Point","coordinates":[-106.92713,44.98031]},"properties":{"api":"4903320968","name":"CHEVRON 41M-2584","op":"FIDELITY EXPLORATION & PRODUCTION CO","co":"Sheridan","st":"WY","trs":"T58N R84W S25","fm":null,"eur":null,"perft":null,"sound":false,"fit":"none","geur":null,"gfit":"refused"}},{"type":"Feature","geometry":{"type":"Point","coordinates":[-106.93283,44.96916]},"properties":{"api":"4903320969","name":"RESERVE 34C-2584","op":"FIDELITY EXPLORATION & PRODUCTION CO","co":"Sheridan","st":"WY","trs":"T58N R84W S25","fm":null,"eur":null,"perft":null,"sound":false,"fit":"none","geur":null,"gfit":"refused"}},{"type":"Feature","geometry":{"type":"Point","coordinates":[-106.93302,44.9692]},"properties":{"api":"4903320970","name":"RESERVE 34D2/2584","op":"FIDELITY EXPLORATION & PRODUCTION CO","co":"Sheridan","st":"WY","trs":"T58N R84W S25","fm":null,"eur":null,"perft":null,"sound":false,"fit":"none","geur":null,"gfit":"refused"}},{"type":"Feature","geometry":{"type":"Point","coordinates":[-106.93287,44.96931]},"properties":{"api":"4903320971","name":"RESERVE 34M-2584","op":"FIDELITY EXPLORATION & PRODUCTION CO","co":"Sheridan","st":"WY","trs":"T58N R84W S25","fm":null,"eur":null,"perft":null,"sound":false,"fit":"none","geur":null,"gfit":"refused"}},{"type":"Feature","geometry":{"type":"Point","coordinates":[-106.93257,44.9762]},"properties":{"api":"4903320972","name":"RESERVE 32C-2584","op":"FIDELITY EXPLORATION & PRODUCTION CO","co":"Sheridan","st":"WY","trs":"T58N R84W S25","fm":null,"eur":null,"perft":null,"sound":false,"fit":"none","geur":null,"gfit":"refused"}},{"type":"Feature","geometry":{"type":"Point","coordinates":[-106.93242,44.97611]},"properties":{"api":"4903320973","name":"RESERVE 32D2/3-2584","op":"FIDELITY EXPLORATION & PRODUCTION CO","co":"Sheridan","st":"WY","trs":"T58N R84W S25","fm":null,"eur":null,"perft":null,"sound":false,"fit":"none","geur":75723,"gfit":"sound"}},{"type":"Feature","geometry":{"type":"Point","coordinates":[-106.93227,44.97601]},"properties":{"api":"4903320974","name":"RESERVE 32M-2584","op":"FIDELITY EXPLORATION & PRODUCTION CO","co":"Sheridan","st":"WY","trs":"T58N R84W S25","fm":null,"eur":null,"perft":null,"sound":false,"fit":"none","geur":1839,"gfit":"sound"}},{"type":"Feature","geometry":{"type":"Point","coordinates":[-106.93798,44.97301]},"properties":{"api":"4903320975","name":"RESERVE 23C-2584","op":"FIDELITY EXPLORATION & PRODUCTION CO","co":"Sheridan","st":"WY","trs":"T58N R84W S25","fm":null,"eur":null,"perft":null,"sound":false,"fit":"none","geur":null,"gfit":"refused"}},{"type":"Feature","geometry":{"type":"Point","coordinates":[-106.93795,44.97315]},"properties":{"api":"4903320976","name":"RESERVE 23D2/3-2584","op":"FIDELITY EXPLORATION & PRODUCTION CO","co":"Sheridan","st":"WY","trs":"T58N R84W S25","fm":null,"eur":null,"perft":null,"sound":false,"fit":"none","geur":11800,"gfit":"sound"}},{"type":"Feature","geometry":{"type":"Point","coordinates":[-106.93816,44.97311]},"properties":{"api":"4903320977","name":"RESERVE 23M-2584","op":"FIDELITY EXPLORATION & PRODUCTION CO","co":"Sheridan","st":"WY","trs":"T58N R84W S25","fm":null,"eur":null,"perft":null,"sound":false,"fit":"none","geur":null,"gfit":"refused"}},{"type":"Feature","geometry":{"type":"Point","coordinates":[-106.93831,44.97987]},"properties":{"api":"4903320978","name":"RESERVE 21M-2584","op":"FIDELITY EXPLORATION & PRODUCTION CO","co":"Sheridan","st":"WY","trs":"T58N R84W S25","fm":null,"eur":null,"perft":null,"sound":false,"fit":"none","geur":null,"gfit":"refused"}},{"type":"Feature","geometry":{"type":"Point","coordinates":[-106.93816,44.97978]},"properties":{"api":"4903320979","name":"RESERVE 21D2/3-2584","op":"FIDELITY EXPLORATION & PRODUCTION CO","co":"Sheridan","st":"WY","trs":"T58N R84W S25","fm":null,"eur":null,"perft":null,"sound":false,"fit":"none","geur":34381,"gfit":"sound"}},{"type":"Feature","geometry":{"type":"Point","coordinates":[-106.938,44.97969]},"properties":{"api":"4903320980","name":"RESERVE 21C-2584","op":"FIDELITY EXPLORATION & PRODUCTION CO","co":"Sheridan","st":"WY","trs":"T58N R84W S25","fm":null,"eur":null,"perft":null,"sound":false,"fit":"none","geur":null,"gfit":"refused"}},{"type":"Feature","geometry":{"type":"Point","coordinates":[-106.94339,44.96898]},"properties":{"api":"4903320981","name":"RESERVE 14C-2584","op":"FIDELITY EXPLORATION & PRODUCTION CO","co":"Sheridan","st":"WY","trs":"T58N R84W S25","fm":null,"eur":null,"perft":null,"sound":false,"fit":"none","geur":null,"gfit":"refused"}},{"type":"Feature","geometry":{"type":"Point","coordinates":[-106.9435,44.96886]},"properties":{"api":"4903320982","name":"RESERVE 14D2/3-2584","op":"FIDELITY EXPLORATION & PRODUCTION CO","co":"Sheridan","st":"WY","trs":"T58N R84W S25","fm":null,"eur":null,"perft":null,"sound":false,"fit":"none","geur":null,"gfit":"refused"}},{"type":"Feature","geometry":{"type":"Point","coordinates":[-106.94359,44.96899]},"properties":{"api":"4903320983","name":"RESERVE 14M-2584","op":"FIDELITY EXPLORATION & PRODUCTION CO","co":"Sheridan","st":"WY","trs":"T58N R84W S25","fm":null,"eur":null,"perft":null,"sound":false,"fit":"none","geur":null,"gfit":"refused"}},{"type":"Feature","geometry":{"type":"Point","coordinates":[-106.94291,44.97659]},"properties":{"api":"4903320984","name":"RESERVE 12M-2584","op":"FIDELITY EXPLORATION & PRODUCTION CO","co":"Sheridan","st":"WY","trs":"T58N R84W S25","fm":null,"eur":null,"perft":null,"sound":false,"fit":"none","geur":null,"gfit":"refused"}},{"type":"Feature","geometry":{"type":"Point","coordinates":[-106.94275,44.97649]},"properties":{"api":"4903320985","name":"RESERVE 12D2/3-2584","op":"FIDELITY EXPLORATION & PRODUCTION CO","co":"Sheridan","st":"WY","trs":"T58N R84W S25","fm":null,"eur":null,"perft":null,"sound":false,"fit":"none","geur":2668,"gfit":"sound"}},{"type":"Feature","geometry":{"type":"Point","coordinates":[-106.94304,44.9767]},"properties":{"api":"4903320986","name":"RESERVE 12C-2584","op":"FIDELITY EXPLORATION & PRODUCTION CO","co":"Sheridan","st":"WY","trs":"T58N R84W S25","fm":null,"eur":null,"perft":null,"sound":false,"fit":"none","geur":null,"gfit":"refused"}},{"type":"Feature","geometry":{"type":"Point","coordinates":[-106.92891,44.97247]},"properties":{"api":"4903321197","name":"RESERVE 43D1-2584","op":"FIDELITY EXPLORATION & PRODUCTION CO","co":"Sheridan","st":"WY","trs":"T58N R84W S25","fm":null,"eur":null,"perft":null,"sound":false,"fit":"none","geur":null,"gfit":"none"}},{"type":"Feature","geometry":{"type":"Point","coordinates":[-106.94367,44.98352]},"properties":{"api":"4903321217","name":"RESERVE 14C-2484","op":"FIDELITY EXPLORATION & PRODUCTION CO","co":"Sheridan","st":"WY","trs":"T58N R84W S24","fm":null,"eur":null,"perft":null,"sound":false,"fit":"none","geur":null,"gfit":"refused"}},{"type":"Feature","geometry":{"type":"Point","coordinates":[-106.94424,44.98347]},"properties":{"api":"4903321218","name":"RESERVE 14D1-2484","op":"FIDELITY EXPLORATION & PRODUCTION CO","co":"Sheridan","st":"WY","trs":"T58N R84W S24","fm":null,"eur":null,"perft":null,"sound":false,"fit":"none","geur":null,"gfit":"none"}},{"type":"Feature","geometry":{"type":"Point","coordinates":[-106.94386,44.98345]},"properties":{"api":"4903321219","name":"RESERVE 14D2/3 2484","op":"FIDELITY EXPLORATION & PRODUCTION CO","co":"Sheridan","st":"WY","trs":"T58N R84W S24","fm":null,"eur":null,"perft":null,"sound":false,"fit":"none","geur":7506,"gfit":"sound"}},{"type":"Feature","geometry":{"type":"Point","coordinates":[-106.94406,44.98346]},"properties":{"api":"4903321220","name":"RESERVE 14M-2484","op":"FIDELITY EXPLORATION & PRODUCTION CO","co":"Sheridan","st":"WY","trs":"T58N R84W S24","fm":null,"eur":null,"perft":null,"sound":false,"fit":"none","geur":null,"gfit":"refused"}},{"type":"Feature","geometry":{"type":"Point","coordinates":[-106.93908,44.97974]},"properties":{"api":"4903321222","name":"RESERVE 21D1-2584","op":"FIDELITY EXPLORATION & PRODUCTION CO","co":"Sheridan","st":"WY","trs":"T58N R84W S25","fm":null,"eur":null,"perft":null,"sound":false,"fit":"none","geur":null,"gfit":"none"}},{"type":"Feature","geometry":{"type":"Point","coordinates":[-106.93448,44.98208]},"properties":{"api":"4903321229","name":"RESERVE 34M/C-2484","op":"FIDELITY EXPLORATION & PRODUCTION CO","co":"Sheridan","st":"WY","trs":"T58N R84W S24","fm":null,"eur":null,"perft":null,"sound":false,"fit":"none","geur":null,"gfit":"refused"}},{"type":"Feature","geometry":{"type":"Point","coordinates":[-106.93452,44.98223]},"properties":{"api":"4903321230","name":"RESERVE 34D2/3-2484","op":"FIDELITY EXPLORATION & PRODUCTION CO","co":"Sheridan","st":"WY","trs":"T58N R84W S24","fm":null,"eur":null,"perft":null,"sound":false,"fit":"none","geur":84115,"gfit":"sound"}},{"type":"Feature","geometry":{"type":"Point","coordinates":[-106.94325,44.97641]},"properties":{"api":"4903321776","name":"RESERVE 12D1-2584","op":"FIDELITY EXPLORATION & PRODUCTION CO","co":"Sheridan","st":"WY","trs":"T58N R84W S25","fm":null,"eur":null,"perft":null,"sound":false,"fit":"none","geur":null,"gfit":"none"}},{"type":"Feature","geometry":{"type":"Point","coordinates":[-106.93375,44.96899]},"properties":{"api":"4903321778","name":"RESERVE 34D1-2584","op":"FIDELITY EXPLORATION & PRODUCTION CO","co":"Sheridan","st":"WY","trs":"T58N R84W S25","fm":null,"eur":null,"perft":null,"sound":false,"fit":"none","geur":null,"gfit":"none"}},{"type":"Feature","geometry":{"type":"Point","coordinates":[-106.96397,44.95413]},"properties":{"api":"4903323742","name":"PADLOCK 13LK-35 58-84","op":"STORM CAT ENERGY USA OPERATING CORP","co":"Sheridan","st":"WY","trs":"T58N R84W S35","fm":null,"eur":null,"perft":null,"sound":false,"fit":"none","geur":null,"gfit":"refused"}},{"type":"Feature","geometry":{"type":"Point","coordinates":[-106.92767,44.96217]},"properties":{"api":"4903320417","name":"DELAPP 8K-36-58-84","op":"STORM CAT ENERGY USA OPERATING CORP","co":"Sheridan","st":"WY","trs":"T58N R84W S36","fm":null,"eur":null,"perft":null,"sound":false,"fit":"none","geur":232414,"gfit":"sound"}},{"type":"Feature","geometry":{"type":"Point","coordinates":[-106.92805,44.96542]},"properties":{"api":"4903320418","name":"DELAPP 1K-36-58-84","op":"STORM CAT ENERGY USA OPERATING CORP","co":"Sheridan","st":"WY","trs":"T58N R84W S36","fm":null,"eur":null,"perft":null,"sound":false,"fit":"none","geur":null,"gfit":"refused"}},{"type":"Feature","geometry":{"type":"Point","coordinates":[-106.92717,44.9578]},"properties":{"api":"4903320420","name":"DELAPP 9K-36-58-84","op":"STORM CAT ENERGY USA OPERATING CORP","co":"Sheridan","st":"WY","trs":"T58N R84W S36","fm":null,"eur":null,"perft":null,"sound":false,"fit":"none","geur":null,"gfit":"refused"}},{"type":"Feature","geometry":{"type":"Point","coordinates":[-106.93787,44.96193]},"properties":{"api":"4903320421","name":"DELAPP 6K-36-58-84","op":"STORM CAT ENERGY USA OPERATING CORP","co":"Sheridan","st":"WY","trs":"T58N R84W S36","fm":null,"eur":null,"perft":null,"sound":false,"fit":"none","geur":140524,"gfit":"sound"}},{"type":"Feature","geometry":{"type":"Point","coordinates":[-106.93284,44.96547]},"properties":{"api":"4903320422","name":"DELAPP 2K-36-58-84","op":"STORM CAT ENERGY USA OPERATING CORP","co":"Sheridan","st":"WY","trs":"T58N R84W S36","fm":null,"eur":null,"perft":null,"sound":false,"fit":"none","geur":null,"gfit":"refused"}},{"type":"Feature","geometry":{"type":"Point","coordinates":[-106.97392,44.96911]},"properties":{"api":"4903320939","name":"DELAPP 34C-2784","op":"FIDELITY EXPLORATION & PRODUCTION CO","co":"Sheridan","st":"WY","trs":"T58N R84W S27","fm":null,"eur":null,"perft":null,"sound":false,"fit":"none","geur":null,"gfit":"none"}},{"type":"Feature","geometry":{"type":"Point","coordinates":[-106.97414,44.96911]},"properties":{"api":"4903320940","name":"DELAPP 34D2/3-2784","op":"FIDELITY EXPLORATION & PRODUCTION CO","co":"Sheridan","st":"WY","trs":"T58N R84W S27","fm":null,"eur":null,"perft":null,"sound":false,"fit":"none","geur":null,"gfit":"none"}},{"type":"Feature","geometry":{"type":"Point","coordinates":[-106.97402,44.96898]},"properties":{"api":"4903320941","name":"DELAPP 34M-2784","op":"FIDELITY EXPLORATION & PRODUCTION CO","co":"Sheridan","st":"WY","trs":"T58N R84W S27","fm":null,"eur":null,"perft":null,"sound":false,"fit":"none","geur":null,"gfit":"none"}},{"type":"Feature","geometry":{"type":"Point","coordinates":[-106.95384,44.96925]},"properties":{"api":"4903320951","name":"RESERVE 34K/R-2684","op":"FIDELITY EXPLORATION & PRODUCTION CO","co":"Sheridan","st":"WY","trs":"T58N R84W S26","fm":null,"eur":null,"perft":null,"sound":false,"fit":"none","geur":null,"gfit":"refused"}},{"type":"Feature","geometry":{"type":"Point","coordinates":[-106.95405,44.96927]},"properties":{"api":"4903320952","name":"RESERVE 34D2/3-2684","op":"FIDELITY EXPLORATION & PRODUCTION CO","co":"Sheridan","st":"WY","trs":"T58N R84W S26","fm":null,"eur":null,"perft":null,"sound":false,"fit":"none","geur":null,"gfit":"refused"}},{"type":"Feature","geometry":{"type":"Point","coordinates":[-106.95398,44.96911]},"properties":{"api":"4903320953","name":"RESERVE 34M-2684","op":"FIDELITY EXPLORATION & PRODUCTION CO","co":"Sheridan","st":"WY","trs":"T58N R84W S26","fm":null,"eur":null,"perft":null,"sound":false,"fit":"none","geur":null,"gfit":"none"}},{"type":"Feature","geometry":{"type":"Point","coordinates":[-106.95379,44.97673]},"properties":{"api":"4903320954","name":"RESERVE 32K/R-2684","op":"FIDELITY EXPLORATION & PRODUCTION CO","co":"Sheridan","st":"WY","trs":"T58N R84W S26","fm":null,"eur":null,"perft":null,"sound":false,"fit":"none","geur":null,"gfit":"refused"}},{"type":"Feature","geometry":{"type":"Point","coordinates":[-106.95325,44.97685]},"properties":{"api":"4903320955","name":"RESERVE 32D2/3-2684","op":"FIDELITY EXPLORATION & PRODUCTION CO","co":"Sheridan","st":"WY","trs":"T58N R84W S26","fm":null,"eur":null,"perft":null,"sound":false,"fit":"none","geur":null,"gfit":"refused"}},{"type":"Feature","geometry":{"type":"Point","coordinates":[-106.95304,44.97687]},"properties":{"api":"4903320956","name":"RESERVE 32M-2684","op":"FIDELITY EXPLORATION & PRODUCTION CO","co":"Sheridan","st":"WY","trs":"T58N R84W S26","fm":null,"eur":null,"perft":null,"sound":false,"fit":"none","geur":null,"gfit":"none"}},{"type":"Feature","geometry":{"type":"Point","coordinates":[-106.95904,44.97255]},"properties":{"api":"4903320957","name":"RESERVE 23K/R-2684","op":"FIDELITY EXPLORATION & PRODUCTION CO","co":"Sheridan","st":"WY","trs":"T58N R84W S26","fm":null,"eur":null,"perft":null,"sound":false,"fit":"none","geur":null,"gfit":"refused"}},{"type":"Feature","geometry":{"type":"Point","coordinates":[-106.95348,44.97243]},"properties":{"api":"4903320958","name":"RESERVE 23D2/3-2684","op":"FIDELITY EXPLORATION & PRODUCTION CO","co":"Sheridan","st":"WY","trs":"T58N R84W S26","fm":null,"eur":null,"perft":null,"sound":false,"fit":"none","geur":null,"gfit":"refused"}},{"type":"Feature","geometry":{"type":"Point","coordinates":[-106.95882,44.97252]},"properties":{"api":"4903320959","name":"RESERVE 23M-2684","op":"FIDELITY EXPLORATION & PRODUCTION CO","co":"Sheridan","st":"WY","trs":"T58N R84W S26","fm":null,"eur":null,"perft":null,"sound":false,"fit":"none","geur":null,"gfit":"none"}},{"type":"Feature","geometry":{"type":"Point","coordinates":[-106.95376,44.98369]},"properties":{"api":"4903321079","name":"RESERVE 34K-2384","op":"FIDELITY EXPLORATION & PRODUCTION CO","co":"Sheridan","st":"WY","trs":"T58N R84W S23","fm":null,"eur":null,"perft":null,"sound":false,"fit":"none","geur":null,"gfit":"refused"}},{"type":"Feature","geometry":{"type":"Point","coordinates":[-106.96394,44.98384]},"properties":{"api":"4903321080","name":"RESERVE 14C-2384","op":"FIDELITY EXPLORATION & PRODUCTION CO","co":"Sheridan","st":"WY","trs":"T58N R84W S23","fm":null,"eur":null,"perft":null,"sound":false,"fit":"none","geur":null,"gfit":"refused"}},{"type":"Feature","geometry":{"type":"Point","coordinates":[-106.94834,44.99487]},"properties":{"api":"4903321081","name":"RESERVE 41C-2384","op":"FIDELITY EXPLORATION & PRODUCTION CO","co":"Sheridan","st":"WY","trs":"T58N R84W S23","fm":null,"eur":null,"perft":null,"sound":false,"fit":"none","geur":null,"gfit":"refused"}},{"type":"Feature","geometry":{"type":"Point","coordinates":[-106.94864,44.98723]},"properties":{"api":"4903321082","name":"RESERVE 43D-2/3-2384","op":"FIDELITY EXPLORATION & PRODUCTION CO","co":"Sheridan","st":"WY","trs":"T58N R84W S23","fm":null,"eur":null,"perft":null,"sound":false,"fit":"none","geur":null,"gfit":"refused"}},{"type":"Feature","geometry":{"type":"Point","coordinates":[-106.95912,44.98008]},"properties":{"api":"4903321085","name":"RESERVE 21M-2684","op":"FIDELITY EXPLORATION & PRODUCTION CO","co":"Sheridan","st":"WY","trs":"T58N R84W S26","fm":null,"eur":null,"perft":null,"sound":false,"fit":"none","geur":null,"gfit":"none"}},{"type":"Feature","geometry":{"type":"Point","coordinates":[-106.95893,44.98004]},"properties":{"api":"4903321087","name":"RESERVE 21K/R-2684","op":"FIDELITY EXPLORATION & PRODUCTION CO","co":"Sheridan","st":"WY","trs":"T58N R84W S26","fm":null,"eur":null,"perft":null,"sound":false,"fit":"none","geur":null,"gfit":"refused"}},{"type":"Feature","geometry":{"type":"Point","coordinates":[-106.96425,44.97675]},"properties":{"api":"4903321090","name":"RESERVE 12K/R-2684","op":"FIDELITY EXPLORATION & PRODUCTION CO","co":"Sheridan","st":"WY","trs":"T58N R84W S26","fm":null,"eur":null,"perft":null,"sound":false,"fit":"none","geur":null,"gfit":"refused"}},{"type":"Feature","geometry":{"type":"Point","coordinates":[-106.94934,44.98733]},"properties":{"api":"4903321130","name":"RESERVE 43D1-2384","op":"FIDELITY EXPLORATION & PRODUCTION CO","co":"Sheridan","st":"WY","trs":"T58N R84W S23","fm":null,"eur":null,"perft":null,"sound":false,"fit":"none","geur":null,"gfit":"none"}},{"type":"Feature","geometry":{"type":"Point","coordinates":[-106.95366,44.98357]},"properties":{"api":"4903321133","name":"RESERVE 34D2/3-2384","op":"FIDELITY EXPLORATION & PRODUCTION CO","co":"Sheridan","st":"WY","trs":"T58N R84W S23","fm":null,"eur":null,"perft":null,"sound":false,"fit":"none","geur":790,"gfit":"sound"}},{"type":"Feature","geometry":{"type":"Point","coordinates":[-106.95386,44.98358]},"properties":{"api":"4903321134","name":"RESERVE 34M-2384","op":"FIDELITY EXPLORATION & PRODUCTION CO","co":"Sheridan","st":"WY","trs":"T58N R84W S23","fm":null,"eur":null,"perft":null,"sound":false,"fit":"none","geur":null,"gfit":"none"}},{"type":"Feature","geometry":{"type":"Point","coordinates":[-106.95897,44.98017]},"properties":{"api":"4903321144","name":"RESERVE 21D2/3-2684","op":"FIDELITY EXPLORATION & PRODUCTION CO","co":"Sheridan","st":"WY","trs":"T58N R84W S26","fm":null,"eur":null,"perft":null,"sound":false,"fit":"none","geur":null,"gfit":"refused"}},{"type":"Feature","geometry":{"type":"Point","coordinates":[-106.96439,44.97685]},"properties":{"api":"4903321145","name":"RESERVE 12D2/3-2684","op":"FIDELITY EXPLORATION & PRODUCTION CO","co":"Sheridan","st":"WY","trs":"T58N R84W S26","fm":null,"eur":null,"perft":null,"sound":false,"fit":"none","geur":null,"gfit":"refused"}},{"type":"Feature","geometry":{"type":"Point","coordinates":[-106.96404,44.98397]},"properties":{"api":"4903321185","name":"RESERVE 14M-2384","op":"FIDELITY EXPLORATION & PRODUCTION CO","co":"Sheridan","st":"WY","trs":"T58N R84W S23","fm":null,"eur":null,"perft":null,"sound":false,"fit":"none","geur":null,"gfit":"none"}},{"type":"Feature","geometry":{"type":"Point","coordinates":[-106.93807,44.9941]},"properties":{"api":"4903321198","name":"RESERVE 21D-2484","op":"FIDELITY EXPLORATION & PRODUCTION CO","co":"Sheridan","st":"WY","trs":"T58N R84W S24","fm":null,"eur":null,"perft":null,"sound":false,"fit":"none","geur":null,"gfit":"none"}},{"type":"Feature","geometry":{"type":"Point","coordinates":[-106.93798,44.99397]},"properties":{"api":"4903321199","name":"RESERVE 21M-2484","op":"FIDELITY EXPLORATION & PRODUCTION CO","co":"Sheridan","st":"WY","trs":"T58N R84W S24","fm":null,"eur":null,"perft":null,"sound":false,"fit":"none","geur":null,"gfit":"refused"}},{"type":"Feature","geometry":{"type":"Point","coordinates":[-106.95886,44.98833]},"properties":{"api":"4903321200","name":"RESERVE 23C-2384","op":"FIDELITY EXPLORATION & PRODUCTION CO","co":"Sheridan","st":"WY","trs":"T58N R84W S23","fm":null,"eur":null,"perft":null,"sound":false,"fit":"none","geur":3216,"gfit":"sound"}},{"type":"Feature","geometry":{"type":"Point","coordinates":[-106.93686,44.98892]},"properties":{"api":"4903321201","name":"RESERVE 23C-2484","op":"FIDELITY EXPLORATION & PRODUCTION CO","co":"Sheridan","st":"WY","trs":"T58N R84W S24","fm":null,"eur":null,"perft":null,"sound":false,"fit":"none","geur":null,"gfit":"refused"}},{"type":"Feature","geometry":{"type":"Point","coordinates":[-106.93663,44.98901]},"properties":{"api":"4903321203","name":"RESERVE 23D2/3-2484","op":"FIDELITY EXPLORATION & PRODUCTION CO","co":"Sheridan","st":"WY","trs":"T58N R84W S24","fm":null,"eur":null,"perft":null,"sound":false,"fit":"none","geur":null,"gfit":"refused"}},{"type":"Feature","geometry":{"type":"Point","coordinates":[-106.95899,44.98825]},"properties":{"api":"4903321204","name":"RESERVE 23M-2384","op":"FIDELITY EXPLORATION & PRODUCTION CO","co":"Sheridan","st":"WY","trs":"T58N R84W S23","fm":null,"eur":null,"perft":null,"sound":false,"fit":"none","geur":null,"gfit":"refused"}},{"type":"Feature","geometry":{"type":"Point","coordinates":[-106.95249,44.98951]},"properties":{"api":"4903321205","name":"RESERVE 32C-2384","op":"FIDELITY EXPLORATION & PRODUCTION CO","co":"Sheridan","st":"WY","trs":"T58N R84W S23","fm":null,"eur":null,"perft":null,"sound":false,"fit":"none","geur":null,"gfit":"refused"}},{"type":"Feature","geometry":{"type":"Point","coordinates":[-106.95254,44.98964]},"properties":{"api":"4903321206","name":"RESERVE 32D2/3","op":"FIDELITY EXPLORATION & PRODUCTION CO","co":"Sheridan","st":"WY","trs":"T58N R84W S23","fm":null,"eur":null,"perft":null,"sound":false,"fit":"none","geur":null,"gfit":"none"}},{"type":"Feature","geometry":{"type":"Point","coordinates":[-106.93788,44.99409]},"properties":{"api":"4903321221","name":"RESERVE 21C-2484","op":"FIDELITY EXPLORATION & PRODUCTION CO","co":"Sheridan","st":"WY","trs":"T58N R84W S24","fm":null,"eur":null,"perft":null,"sound":false,"fit":"none","geur":189374,"gfit":"sound"}},{"type":"Feature","geometry":{"type":"Point","coordinates":[-106.93326,44.99133]},"properties":{"api":"4903321223","name":"RESERVE 32M2-2484","op":"FIDELITY EXPLORATION & PRODUCTION CO","co":"Sheridan","st":"WY","trs":"T58N R84W S24","fm":null,"eur":null,"perft":null,"sound":false,"fit":"none","geur":null,"gfit":"refused"}},{"type":"Feature","geometry":{"type":"Point","coordinates":[-106.93671,44.98886]},"properties":{"api":"4903321224","name":"RESERVE 23M-2484","op":"FIDELITY EXPLORATION & PRODUCTION CO","co":"Sheridan","st":"WY","trs":"T58N R84W S24","fm":null,"eur":null,"perft":null,"sound":false,"fit":"none","geur":null,"gfit":"refused"}},{"type":"Feature","geometry":{"type":"Point","coordinates":[-106.93344,44.99127]},"properties":{"api":"4903321226","name":"RESERVE 32M-2484","op":"FIDELITY EXPLORATION & PRODUCTION CO","co":"Sheridan","st":"WY","trs":"T58N R84W S24","fm":null,"eur":null,"perft":null,"sound":false,"fit":"none","geur":null,"gfit":"none"}},{"type":"Feature","geometry":{"type":"Point","coordinates":[-106.9334,44.99142]},"properties":{"api":"4903321227","name":"RESERVE 32D-2484","op":"FIDELITY EXPLORATION & PRODUCTION CO","co":"Sheridan","st":"WY","trs":"T58N R84W S24","fm":null,"eur":null,"perft":null,"sound":false,"fit":"none","geur":null,"gfit":"refused"}},{"type":"Feature","geometry":{"type":"Point","coordinates":[-106.95269,44.98952]},"properties":{"api":"4903321228","name":"RESERVE 32M-2384","op":"FIDELITY EXPLORATION & PRODUCTION CO","co":"Sheridan","st":"WY","trs":"T58N R84W S23","fm":null,"eur":null,"perft":null,"sound":false,"fit":"none","geur":null,"gfit":"refused"}},{"type":"Feature","geometry":{"type":"Point","coordinates":[-106.9284,44.9942]},"properties":{"api":"4903321232","name":"RESERVE 41C-2484","op":"FIDELITY EXPLORATION & PRODUCTION CO","co":"Sheridan","st":"WY","trs":"T58N R84W S24","fm":null,"eur":null,"perft":null,"sound":false,"fit":"none","geur":null,"gfit":"refused"}},{"type":"Feature","geometry":{"type":"Point","coordinates":[-106.92837,44.99403]},"properties":{"api":"4903321234","name":"RESERVE 41D-2484","op":"FIDELITY EXPLORATION & PRODUCTION CO","co":"Sheridan","st":"WY","trs":"T58N R84W S24","fm":null,"eur":null,"perft":null,"sound":false,"fit":"none","geur":null,"gfit":"refused"}},{"type":"Feature","geometry":{"type":"Point","coordinates":[-106.92822,44.99413]},"properties":{"api":"4903321235","name":"RESERVE 41M-2484","op":"FIDELITY EXPLORATION & PRODUCTION CO","co":"Sheridan","st":"WY","trs":"T58N R84W S24","fm":null,"eur":null,"perft":null,"sound":false,"fit":"none","geur":null,"gfit":"refused"}},{"type":"Feature","geometry":{"type":"Point","coordinates":[-106.92783,44.98775]},"properties":{"api":"4903321237","name":"RESERVE 43D1-2484","op":"FIDELITY EXPLORATION & PRODUCTION CO","co":"Sheridan","st":"WY","trs":"T58N R84W S24","fm":null,"eur":null,"perft":null,"sound":false,"fit":"none","geur":null,"gfit":"refused"}},{"type":"Feature","geometry":{"type":"Point","coordinates":[-106.948,44.99497]},"properties":{"api":"4903321417","name":"RESERVE 41M-2384","op":"FIDELITY EXPLORATION & PRODUCTION CO","co":"Sheridan","st":"WY","trs":"T58N R84W S23","fm":null,"eur":null,"perft":null,"sound":false,"fit":"none","geur":null,"gfit":"refused"}},{"type":"Feature","geometry":{"type":"Point","coordinates":[-106.94312,44.99218]},"properties":{"api":"4903321474","name":"RESERVE 12C-2484","op":"FIDELITY EXPLORATION & PRODUCTION CO","co":"Sheridan","st":"WY","trs":"T58N R84W S24","fm":null,"eur":null,"perft":null,"sound":false,"fit":"none","geur":null,"gfit":"refused"}},{"type":"Feature","geometry":{"type":"Point","coordinates":[-106.94859,44.95828]},"properties":{"api":"4903322141","name":"WILLSON 9K-35 58-84","op":"STORM CAT ENERGY USA OPERATING CORP","co":"Sheridan","st":"WY","trs":"T58N R84W S35","fm":null,"eur":null,"perft":null,"sound":false,"fit":"none","geur":null,"gfit":"refused"}},{"type":"Feature","geometry":{"type":"Point","coordinates":[-106.95876,44.96542]},"properties":{"api":"4903323664","name":"WILSON 3D3-35 58-84","op":"STORM CAT ENERGY USA OPERATING CORP","co":"Sheridan","st":"WY","trs":"T58N R84W S35","fm":null,"eur":null,"perft":null,"sound":false,"fit":"none","geur":null,"gfit":"refused"}},{"type":"Feature","geometry":{"type":"Point","coordinates":[-106.95881,44.96558]},"properties":{"api":"4903323665","name":"WILSON 3LK-35 58-84","op":"STORM CAT ENERGY USA OPERATING CORP","co":"Sheridan","st":"WY","trs":"T58N R84W S35","fm":null,"eur":null,"perft":null,"sound":false,"fit":"none","geur":101996,"gfit":"sound"}},{"type":"Feature","geometry":{"type":"Point","coordinates":[-106.93241,44.95494]},"properties":{"api":"4903323715","name":"DELAPP 15LK-36 58-84","op":"STORM CAT ENERGY USA OPERATING CORP","co":"Sheridan","st":"WY","trs":"T58N R84W S36","fm":null,"eur":null,"perft":null,"sound":false,"fit":"none","geur":33081,"gfit":"sound"}},{"type":"Feature","geometry":{"type":"Point","coordinates":[-106.94293,44.95413]},"properties":{"api":"4903323716","name":"DELAPP 13K-36 58-84","op":"STORM CAT ENERGY USA OPERATING CORP","co":"Sheridan","st":"WY","trs":"T58N R84W S36","fm":null,"eur":null,"perft":null,"sound":false,"fit":"none","geur":null,"gfit":"refused"}},{"type":"Feature","geometry":{"type":"Point","coordinates":[-106.93268,44.95474]},"properties":{"api":"4903323718","name":"DELAPP 15D3-36 58-84","op":"STORM CAT ENERGY USA OPERATING CORP","co":"Sheridan","st":"WY","trs":"T58N R84W S36","fm":null,"eur":null,"perft":null,"sound":false,"fit":"none","geur":null,"gfit":"refused"}},{"type":"Feature","geometry":{"type":"Point","coordinates":[-106.92717,44.95806]},"properties":{"api":"4903323719","name":"DELAPP 9D3-36 58-84","op":"STORM CAT ENERGY USA OPERATING CORP","co":"Sheridan","st":"WY","trs":"T58N R84W S36","fm":null,"eur":null,"perft":null,"sound":false,"fit":"none","geur":42011,"gfit":"sound"}},{"type":"Feature","geometry":{"type":"Point","coordinates":[-106.93252,44.96219]},"properties":{"api":"4903323720","name":"DELAPP 7D3-36 58-84","op":"STORM CAT ENERGY USA OPERATING CORP","co":"Sheridan","st":"WY","trs":"T58N R84W S36","fm":null,"eur":null,"perft":null,"sound":false,"fit":"none","geur":12294,"gfit":"sound"}},{"type":"Feature","geometry":{"type":"Point","coordinates":[-106.92798,44.96517]},"properties":{"api":"4903323721","name":"DELAPP 1D-36 58-84","op":"STORM CAT ENERGY USA OPERATING CORP","co":"Sheridan","st":"WY","trs":"T58N R84W S36","fm":null,"eur":null,"perft":null,"sound":false,"fit":"none","geur":59582,"gfit":"sound"}},{"type":"Feature","geometry":{"type":"Point","coordinates":[-106.93809,44.96576]},"properties":{"api":"4903323722","name":"DELAPP 3D-36 58-84","op":"STORM CAT ENERGY USA OPERATING CORP","co":"Sheridan","st":"WY","trs":"T58N R84W S36","fm":null,"eur":null,"perft":null,"sound":false,"fit":"none","geur":null,"gfit":"refused"}},{"type":"Feature","geometry":{"type":"Point","coordinates":[-106.93866,44.95837]},"properties":{"api":"4903323723","name":"DELAPP 11D3-36 58-84","op":"STORM CAT ENERGY USA OPERATING CORP","co":"Sheridan","st":"WY","trs":"T58N R84W S36","fm":null,"eur":null,"perft":null,"sound":false,"fit":"none","geur":null,"gfit":"refused"}},{"type":"Feature","geometry":{"type":"Point","coordinates":[-106.94281,44.9544]},"properties":{"api":"4903323724","name":"DELAPP 13D3-36 58-84","op":"STORM CAT ENERGY USA OPERATING CORP","co":"Sheridan","st":"WY","trs":"T58N R84W S36","fm":null,"eur":null,"perft":null,"sound":false,"fit":"none","geur":null,"gfit":"refused"}},{"type":"Feature","geometry":{"type":"Point","coordinates":[-106.94273,44.96165]},"properties":{"api":"4903323740","name":"DELAPP 5K-36 58-84","op":"STORM CAT ENERGY USA OPERATING CORP","co":"Sheridan","st":"WY","trs":"T58N R84W S36","fm":null,"eur":null,"perft":null,"sound":false,"fit":"none","geur":null,"gfit":"refused"}},{"type":"Feature","geometry":{"type":"Point","coordinates":[-106.94294,44.96164]},"properties":{"api":"4903323741","name":"DELAPP 5D3-36 58-84","op":"STORM CAT ENERGY USA OPERATING CORP","co":"Sheridan","st":"WY","trs":"T58N R84W S36","fm":null,"eur":null,"perft":null,"sound":false,"fit":"none","geur":null,"gfit":"refused"}},{"type":"Feature","geometry":{"type":"Point","coordinates":[-106.94869,44.95839]},"properties":{"api":"4903323938","name":"WILLSON 9D3-35 58-84","op":"STORM CAT ENERGY USA OPERATING CORP","co":"Sheridan","st":"WY","trs":"T58N R84W S35","fm":null,"eur":null,"perft":null,"sound":false,"fit":"none","geur":null,"gfit":"refused"}},{"type":"Feature","geometry":{"type":"Point","coordinates":[-106.96962,44.97282]},"properties":{"api":"4903320933","name":"SHELL 43KG/RB-2784","op":"FIDELITY EXPLORATION & PRODUCTION CO","co":"Sheridan","st":"WY","trs":"T58N R84W S27","fm":null,"eur":null,"perft":null,"sound":false,"fit":"none","geur":null,"gfit":"refused"}},{"type":"Feature","geometry":{"type":"Point","coordinates":[-106.96871,44.9729]},"properties":{"api":"4903320934","name":"SHELL 43D2/3-2784","op":"FIDELITY EXPLORATION & PRODUCTION CO","co":"Sheridan","st":"WY","trs":"T58N R84W S27","fm":null,"eur":null,"perft":null,"sound":false,"fit":"none","geur":null,"gfit":"none"}},{"type":"Feature","geometry":{"type":"Point","coordinates":[-106.96861,44.97275]},"properties":{"api":"4903320935","name":"SHELL 43M-2784","op":"FIDELITY EXPLORATION & PRODUCTION CO","co":"Sheridan","st":"WY","trs":"T58N R84W S27","fm":null,"eur":null,"perft":null,"sound":false,"fit":"none","geur":null,"gfit":"none"}},{"type":"Feature","geometry":{"type":"Point","coordinates":[-106.96811,44.98012]},"properties":{"api":"4903320937","name":"RESERVE 41D2/3-2784","op":"FIDELITY EXPLORATION & PRODUCTION CO","co":"Sheridan","st":"WY","trs":"T58N R84W S27","fm":null,"eur":null,"perft":null,"sound":false,"fit":"none","geur":null,"gfit":"none"}},{"type":"Feature","geometry":{"type":"Point","coordinates":[-106.9679,44.98012]},"properties":{"api":"4903320938","name":"RESERVE 41R-2784","op":"FIDELITY EXPLORATION & PRODUCTION CO","co":"Sheridan","st":"WY","trs":"T58N R84W S27","fm":null,"eur":null,"perft":null,"sound":false,"fit":"none","geur":null,"gfit":"none"}},{"type":"Feature","geometry":{"type":"Point","coordinates":[-106.97447,44.97675]},"properties":{"api":"4903320942","name":"RESERVE 32C-2784","op":"FIDELITY EXPLORATION & PRODUCTION CO","co":"Sheridan","st":"WY","trs":"T58N R84W S27","fm":null,"eur":null,"perft":null,"sound":false,"fit":"none","geur":null,"gfit":"none"}},{"type":"Feature","geometry":{"type":"Point","coordinates":[-106.97444,44.9769]},"properties":{"api":"4903320943","name":"RESERVE 32D2/3-2784","op":"FIDELITY EXPLORATION & PRODUCTION CO","co":"Sheridan","st":"WY","trs":"T58N R84W S27","fm":null,"eur":null,"perft":null,"sound":false,"fit":"none","geur":null,"gfit":"none"}},{"type":"Feature","geometry":{"type":"Point","coordinates":[-106.97421,44.97698]},"properties":{"api":"4903320944","name":"RESERVE 32M-2784","op":"FIDELITY EXPLORATION & PRODUCTION CO","co":"Sheridan","st":"WY","trs":"T58N R84W S27","fm":null,"eur":null,"perft":null,"sound":false,"fit":"none","geur":null,"gfit":"none"}},{"type":"Feature","geometry":{"type":"Point","coordinates":[-106.97918,44.97267]},"properties":{"api":"4903320945","name":"RESERVE 23C-2784","op":"FIDELITY EXPLORATION & PRODUCTION CO","co":"Sheridan","st":"WY","trs":"T58N R84W S27","fm":null,"eur":null,"perft":null,"sound":false,"fit":"none","geur":null,"gfit":"none"}},{"type":"Feature","geometry":{"type":"Point","coordinates":[-106.97897,44.97269]},"properties":{"api":"4903320947","name":"RESERVE 23M-2784","op":"FIDELITY EXPLORATION & PRODUCTION CO","co":"Sheridan","st":"WY","trs":"T58N R84W S27","fm":null,"eur":null,"perft":null,"sound":false,"fit":"none","geur":null,"gfit":"none"}},{"type":"Feature","geometry":{"type":"Point","coordinates":[-106.96452,44.96928]},"properties":{"api":"4903320960","name":"SHELL 14K/R-2684","op":"FIDELITY EXPLORATION & PRODUCTION CO","co":"Sheridan","st":"WY","trs":"T58N R84W S26","fm":null,"eur":null,"perft":null,"sound":false,"fit":"none","geur":null,"gfit":"none"}},{"type":"Feature","geometry":{"type":"Point","coordinates":[-106.96355,44.96926]},"properties":{"api":"4903320961","name":"SHELL 14D2/3-2684","op":"FIDELITY EXPLORATION & PRODUCTION CO","co":"Sheridan","st":"WY","trs":"T58N R84W S26","fm":null,"eur":null,"perft":null,"sound":false,"fit":"none","geur":null,"gfit":"none"}},{"type":"Feature","geometry":{"type":"Point","coordinates":[-106.96364,44.96939]},"properties":{"api":"4903320962","name":"SHELL 14M-2684","op":"FIDELITY EXPLORATION & PRODUCTION CO","co":"Sheridan","st":"WY","trs":"T58N R84W S26","fm":null,"eur":null,"perft":null,"sound":false,"fit":"none","geur":null,"gfit":"none"}},{"type":"Feature","geometry":{"type":"Point","coordinates":[-106.95966,44.99475]},"properties":{"api":"4903321083","name":"RESERVE 21C-2384","op":"FIDELITY EXPLORATION & PRODUCTION CO","co":"Sheridan","st":"WY","trs":"T58N R84W S23","fm":null,"eur":null,"perft":null,"sound":false,"fit":"none","geur":null,"gfit":"none"}},{"type":"Feature","geometry":{"type":"Point","coordinates":[-106.9642,44.97688]},"properties":{"api":"4903321088","name":"RESERVE 12M-2684","op":"FIDELITY EXPLORATION & PRODUCTION CO","co":"Sheridan","st":"WY","trs":"T58N R84W S26","fm":null,"eur":null,"perft":null,"sound":false,"fit":"none","geur":null,"gfit":"none"}},{"type":"Feature","geometry":{"type":"Point","coordinates":[-106.96447,44.99039]},"properties":{"api":"4903321139","name":"RESERVE 12M-2384","op":"FIDELITY EXPLORATION & PRODUCTION CO","co":"Sheridan","st":"WY","trs":"T58N R84W S23","fm":null,"eur":null,"perft":null,"sound":false,"fit":"none","geur":null,"gfit":"none"}},{"type":"Feature","geometry":{"type":"Point","coordinates":[-106.96427,44.99038]},"properties":{"api":"4903321140","name":"RESERVE 12D 2/3-2384","op":"FIDELITY EXPLORATION & PRODUCTION CO","co":"Sheridan","st":"WY","trs":"T58N R84W S23","fm":null,"eur":null,"perft":null,"sound":false,"fit":"none","geur":null,"gfit":"none"}},{"type":"Feature","geometry":{"type":"Point","coordinates":[-106.95965,44.99461]},"properties":{"api":"4903321141","name":"RESERVE 21D 2/3--2384","op":"FIDELITY EXPLORATION & PRODUCTION CO","co":"Sheridan","st":"WY","trs":"T58N R84W S23","fm":null,"eur":null,"perft":null,"sound":false,"fit":"none","geur":null,"gfit":"none"}},{"type":"Feature","geometry":{"type":"Point","coordinates":[-106.95948,44.99468]},"properties":{"api":"4903321142","name":"RESERVE 21M-2384","op":"FIDELITY EXPLORATION & PRODUCTION CO","co":"Sheridan","st":"WY","trs":"T58N R84W S23","fm":null,"eur":null,"perft":null,"sound":false,"fit":"none","geur":null,"gfit":"none"}},{"type":"Feature","geometry":{"type":"Point","coordinates":[-106.96395,44.99047]},"properties":{"api":"4903321143","name":"RESERVE 12C-2384","op":"FIDELITY EXPLORATION & PRODUCTION CO","co":"Sheridan","st":"WY","trs":"T58N R84W S23","fm":null,"eur":null,"perft":null,"sound":false,"fit":"none","geur":null,"gfit":"none"}},{"type":"Feature","geometry":{"type":"Point","coordinates":[-106.96404,44.98411]},"properties":{"api":"4903321192","name":"RESERVE 14D2/3-2384","op":"FIDELITY EXPLORATION & PRODUCTION CO","co":"Sheridan","st":"WY","trs":"T58N R84W S23","fm":null,"eur":null,"perft":null,"sound":false,"fit":"none","geur":null,"gfit":"none"}},{"type":"Feature","geometry":{"type":"Point","coordinates":[-106.93297,44.97598]},"properties":{"api":"4903321225","name":"RESERVE 32D1-2584","op":"FIDELITY EXPLORATION & PRODUCTION CO","co":"Sheridan","st":"WY","trs":"T58N R84W S25","fm":null,"eur":null,"perft":null,"sound":false,"fit":"none","geur":null,"gfit":"none"}},{"type":"Feature","geometry":{"type":"Point","coordinates":[-106.9745,44.98374]},"properties":{"api":"4903321281","name":"RESERVE 34M-2284","op":"FIDELITY EXPLORATION & PRODUCTION CO","co":"Sheridan","st":"WY","trs":"T58N R84W S22","fm":null,"eur":null,"perft":null,"sound":false,"fit":"none","geur":null,"gfit":"none"}},{"type":"Feature","geometry":{"type":"Point","coordinates":[-106.97451,44.98359]},"properties":{"api":"4903321282","name":"RESERVE 34C-2284","op":"FIDELITY EXPLORATION & PRODUCTION CO","co":"Sheridan","st":"WY","trs":"T58N R84W S22","fm":null,"eur":null,"perft":null,"sound":false,"fit":"none","geur":null,"gfit":"none"}},{"type":"Feature","geometry":{"type":"Point","coordinates":[-106.96945,44.98745]},"properties":{"api":"4903321314","name":"RESERVE 43M-2284","op":"FIDELITY EXPLORATION & PRODUCTION CO","co":"Sheridan","st":"WY","trs":"T58N R84W S22","fm":null,"eur":null,"perft":null,"sound":false,"fit":"none","geur":null,"gfit":"none"}},{"type":"Feature","geometry":{"type":"Point","coordinates":[-106.96946,44.9873]},"properties":{"api":"4903321315","name":"RESERVE 43C-2284","op":"FIDELITY EXPLORATION & PRODUCTION CO","co":"Sheridan","st":"WY","trs":"T58N R84W S22","fm":null,"eur":null,"perft":null,"sound":false,"fit":"none","geur":null,"gfit":"none"}},{"type":"Feature","geometry":{"type":"Point","coordinates":[-106.99588,44.9698]},"properties":{"api":"4903321760","name":"CHEVRON 34C-2884","op":"FIDELITY EXPLORATION & PRODUCTION CO","co":"Sheridan","st":"WY","trs":"T58N R84W S28","fm":null,"eur":null,"perft":null,"sound":false,"fit":"none","geur":null,"gfit":"none"}},{"type":"Feature","geometry":{"type":"Point","coordinates":[-107.03695,44.95418]},"properties":{"api":"4903305079","name":"J HALLWORTH 2","op":"BEARTOOTH OIL AND GAS CO","co":"Sheridan","st":"WY","trs":"T58N R84W S31","fm":null,"eur":null,"perft":null,"sound":false,"fit":"none","geur":null,"gfit":"none"}},{"type":"Feature","geometry":{"type":"Point","coordinates":[-106.94319,44.99206]},"properties":{"api":"4903321476","name":"RESERVE 12M2-2484","op":"FIDELITY EXPLORATION & PRODUCTION CO","co":"Sheridan","st":"WY","trs":"T58N R84W S24","fm":null,"eur":null,"perft":null,"sound":false,"fit":"none","geur":null,"gfit":"none"}},{"type":"Feature","geometry":{"type":"Point","coordinates":[-106.95397,44.98369]},"properties":{"api":"4903321772","name":"RESERVE 34D1-2384","op":"FIDELITY EXPLORATION & PRODUCTION CO","co":"Sheridan","st":"WY","trs":"T58N R84W S23","fm":null,"eur":null,"perft":null,"sound":false,"fit":"none","geur":null,"gfit":"none"}},{"type":"Feature","geometry":{"type":"Point","coordinates":[-107.03051,44.99099]},"properties":{"api":"4903305135","name":"ASH CREEK UNIT 1","op":"DNR OIL & GAS INC","co":"Sheridan","st":"WY","trs":"T58N R84W S19","fm":null,"eur":153795,"perft":null,"sound":true,"fit":"sound","geur":null,"gfit":"none"}},{"type":"Feature","geometry":{"type":"Point","coordinates":[-107.04306,44.99069]},"properties":{"api":"4903305136","name":"ASH CREEK UNIT 2","op":"DNR OIL & GAS INC","co":"Sheridan","st":"WY","trs":"T58N R84W S19","fm":null,"eur":null,"perft":null,"sound":false,"fit":"refused","geur":null,"gfit":"none"}},{"type":"Feature","geometry":{"type":"Point","coordinates":[-107.04876,44.99437]},"properties":{"api":"4903305149","name":"UNIT TRUSLER 7","op":"DNR OIL & GAS INC","co":"Sheridan","st":"WY","trs":"T58N R84W S19","fm":null,"eur":null,"perft":null,"sound":false,"fit":"refused","geur":null,"gfit":"none"}},{"type":"Feature","geometry":{"type":"Point","coordinates":[-107.02145,44.9652]},"properties":{"api":"4903305088","name":"J V STATE B 2  0","op":"SWEPI LP","co":"Sheridan","st":"WY","trs":"T58N R84W S32","fm":null,"eur":null,"perft":null,"sound":false,"fit":"none","geur":null,"gfit":"none"}}]}