{"type":"FeatureCollection","features":[{"type":"Feature","geometry":{"type":"Point","coordinates":[-105.45354,46.16246]},"properties":{"api":"2501705045","name":"NPRR 'N' 1","op":"Stanolind Oil & Gas Co.","co":"Custer","st":"MT","trs":"T5N R50E S27","fm":null,"eur":null,"perft":null,"sound":false,"fit":"none","geur":null,"gfit":"none"}},{"type":"Feature","geometry":{"type":"Point","coordinates":[-105.50939,46.19847]},"properties":{"api":"2501721034","name":"NPRR 1-7","op":"Andrau, W. E.","co":"Custer","st":"MT","trs":"T5N R50E S7","fm":null,"eur":null,"perft":null,"sound":false,"fit":"none","geur":null,"gfit":"none"}},{"type":"Feature","geometry":{"type":"Point","coordinates":[-105.50478,46.1659]},"properties":{"api":"2501721088","name":"NPRR 1-28","op":"Beer O. N. & John R.","co":"Custer","st":"MT","trs":"T5N R50E S29","fm":null,"eur":null,"perft":null,"sound":false,"fit":"none","geur":null,"gfit":"none"}},{"type":"Feature","geometry":{"type":"Point","coordinates":[-105.4387,46.19856]},"properties":{"api":"2501721119","name":"BN 'E' 1","op":"Ladd Petroleum Corporation","co":"Custer","st":"MT","trs":"T5N R50E S11","fm":null,"eur":null,"perft":null,"sound":false,"fit":"none","geur":null,"gfit":"none"}}]}