{"type":"FeatureCollection","features":[{"type":"Feature","geometry":{"type":"Point","coordinates":[-108.63074,45.39091]},"properties":{"api":"2500305119","name":"Crow Tribal  1","op":"Record Petroleum Company","co":"Big Horn","st":"MT","trs":"T5S R25E S21","fm":null,"eur":null,"perft":null,"sound":false,"fit":"none","geur":null,"gfit":"none"}},{"type":"Feature","geometry":{"type":"Point","coordinates":[-108.66754,45.40882]},"properties":{"api":"2500322867","name":"Tribal  13-8","op":"Longshot Oil, LLC","co":"Big Horn","st":"MT","trs":"T5S R25E S8","fm":null,"eur":null,"perft":null,"sound":false,"fit":"none","geur":null,"gfit":"none"}},{"type":"Feature","geometry":{"type":"Point","coordinates":[-108.62301,45.38329]},"properties":{"api":"2500322868","name":"Tribal  11-22","op":"Longshot Oil, LLC","co":"Big Horn","st":"MT","trs":"T5S R25E S22","fm":null,"eur":null,"perft":null,"sound":false,"fit":"none","geur":null,"gfit":"none"}},{"type":"Feature","geometry":{"type":"Point","coordinates":[-108.63125,45.39059]},"properties":{"api":"2500322897","name":"Tribal  10121","op":"Summit West Oil, LLC","co":"Big Horn","st":"MT","trs":"T5S R25E S21","fm":null,"eur":null,"perft":null,"sound":false,"fit":"none","geur":null,"gfit":"none"}},{"type":"Feature","geometry":{"type":"Point","coordinates":[-108.62205,45.38324]},"properties":{"api":"2500322898","name":"Tribal  11122","op":"Summit West Oil, LLC","co":"Big Horn","st":"MT","trs":"T5S R25E S22","fm":null,"eur":null,"perft":null,"sound":false,"fit":"none","geur":null,"gfit":"none"}},{"type":"Feature","geometry":{"type":"Point","coordinates":[-108.62281,45.38353]},"properties":{"api":"2500322899","name":"Tribal  21122","op":"Summit West Oil, LLC","co":"Big Horn","st":"MT","trs":"T5S R25E S22","fm":null,"eur":null,"perft":null,"sound":false,"fit":"none","geur":null,"gfit":"none"}},{"type":"Feature","geometry":{"type":"Point","coordinates":[-108.62412,45.3813]},"properties":{"api":"2500322900","name":"Tribal  31122","op":"Summit West Oil, LLC","co":"Big Horn","st":"MT","trs":"T5S R25E S22","fm":null,"eur":null,"perft":null,"sound":false,"fit":"none","geur":null,"gfit":"none"}},{"type":"Feature","geometry":{"type":"Point","coordinates":[-108.62088,45.3818]},"properties":{"api":"2500322901","name":"Tribal  41122","op":"Summit West Oil, LLC","co":"Big Horn","st":"MT","trs":"T5S R25E S22","fm":null,"eur":null,"perft":null,"sound":false,"fit":"none","geur":null,"gfit":"none"}},{"type":"Feature","geometry":{"type":"Point","coordinates":[-108.62245,45.38268]},"properties":{"api":"2500322902","name":"Tribal  51122","op":"Summit West Oil, LLC","co":"Big Horn","st":"MT","trs":"T5S R25E S22","fm":null,"eur":null,"perft":null,"sound":false,"fit":"none","geur":null,"gfit":"none"}},{"type":"Feature","geometry":{"type":"Point","coordinates":[-108.61698,45.35678]},"properties":{"api":"2500360060","name":"Crow A  1","op":"Phillips Petroleum Company","co":"Big Horn","st":"MT","trs":"T5S R25E S34","fm":null,"eur":null,"perft":null,"sound":false,"fit":"none","geur":null,"gfit":"none"}},{"type":"Feature","geometry":{"type":"Point","coordinates":[-108.57083,45.42236]},"properties":{"api":"2500360071","name":"Bearbelow  1-16","op":"Quadra Oil & Gas, Inc.","co":"Big Horn","st":"MT","trs":"T5S R25E S1","fm":null,"eur":null,"perft":null,"sound":false,"fit":"none","geur":null,"gfit":"none"}}]}