{"type":"FeatureCollection","features":[{"type":"Feature","geometry":{"type":"Point","coordinates":[-105.79701,45.37537]},"properties":{"api":"2507505058","name":"Ratliff  1","op":"Davis Oil Company","co":"Powder River","st":"MT","trs":"T5S R48E S28","fm":null,"eur":null,"perft":null,"sound":false,"fit":"none","geur":null,"gfit":"none"}},{"type":"Feature","geometry":{"type":"Point","coordinates":[-105.8509,45.405]},"properties":{"api":"2507522244","name":"Castle Rock  1P","op":"Rocky Mountain Gas, Inc.","co":"Powder River","st":"MT","trs":"T5S R48E S18","fm":null,"eur":null,"perft":null,"sound":false,"fit":"none","geur":null,"gfit":"none"}},{"type":"Feature","geometry":{"type":"Point","coordinates":[-105.85312,45.39395]},"properties":{"api":"2507522245","name":"Castle Rock  2P","op":"Rocky Mountain Gas, Inc.","co":"Powder River","st":"MT","trs":"T5S R48E S18","fm":null,"eur":null,"perft":null,"sound":false,"fit":"none","geur":null,"gfit":"none"}},{"type":"Feature","geometry":{"type":"Point","coordinates":[-105.84028,45.39612]},"properties":{"api":"2507522246","name":"Castle Rock  3P","op":"Rocky Mountain Gas, Inc.","co":"Powder River","st":"MT","trs":"T5S R48E S18","fm":null,"eur":null,"perft":null,"sound":false,"fit":"none","geur":null,"gfit":"none"}},{"type":"Feature","geometry":{"type":"Point","coordinates":[-105.8411,45.40347]},"properties":{"api":"2507522247","name":"Castle Rock  4P","op":"Rocky Mountain Gas, Inc.","co":"Powder River","st":"MT","trs":"T5S R48E S18","fm":null,"eur":null,"perft":null,"sound":false,"fit":"none","geur":null,"gfit":"none"}},{"type":"Feature","geometry":{"type":"Point","coordinates":[-105.84537,45.39605]},"properties":{"api":"2507522248","name":"Castle Rock  5AP","op":"Rocky Mountain Gas, Inc.","co":"Powder River","st":"MT","trs":"T5S R48E S18","fm":null,"eur":null,"perft":null,"sound":false,"fit":"none","geur":null,"gfit":"none"}},{"type":"Feature","geometry":{"type":"Point","coordinates":[-105.84318,45.35348]},"properties":{"api":"2507522250","name":"Castle Rock  3A","op":"Suncor Energy (Natural Gas) America Inc.","co":"Powder River","st":"MT","trs":"T5S R48E S31","fm":null,"eur":null,"perft":null,"sound":false,"fit":"none","geur":null,"gfit":"none"}},{"type":"Feature","geometry":{"type":"Point","coordinates":[-105.77908,45.4167]},"properties":{"api":"2507522252","name":"Castle Rock  9A","op":"Suncor Energy (Natural Gas) America Inc.","co":"Powder River","st":"MT","trs":"T5S R48E S10","fm":null,"eur":null,"perft":null,"sound":false,"fit":"none","geur":null,"gfit":"none"}},{"type":"Feature","geometry":{"type":"Point","coordinates":[-105.80225,45.37546]},"properties":{"api":"2507522278","name":"F B Ranch  2-28X","op":"Powder River Gas, LLC","co":"Powder River","st":"MT","trs":"T5S R48E S28","fm":null,"eur":null,"perft":null,"sound":false,"fit":"none","geur":null,"gfit":"none"}}]}