{"type":"FeatureCollection","features":[{"type":"Feature","geometry":{"type":"Point","coordinates":[-105.36225,45.37577]},"properties":{"api":"2507505057","name":"Phillippi  1","op":"Greer, George J","co":"Powder River","st":"MT","trs":"T5S R51E S25","fm":null,"eur":null,"perft":null,"sound":false,"fit":"none","geur":null,"gfit":"none"}},{"type":"Feature","geometry":{"type":"Point","coordinates":[-105.44421,45.41919]},"properties":{"api":"2507521688","name":"Randall  1","op":"Cardinal Petroleum","co":"Powder River","st":"MT","trs":"T5S R51E S8","fm":null,"eur":null,"perft":null,"sound":false,"fit":"none","geur":null,"gfit":"none"}},{"type":"Feature","geometry":{"type":"Point","coordinates":[-105.36222,45.3794]},"properties":{"api":"2507521765","name":"White Federal  44-24","op":"True Oil LLC","co":"Powder River","st":"MT","trs":"T5S R51E S24","fm":null,"eur":null,"perft":null,"sound":false,"fit":"none","geur":null,"gfit":"none"}},{"type":"Feature","geometry":{"type":"Point","coordinates":[-105.38453,45.42347]},"properties":{"api":"2507522027","name":"Federal  16-2","op":"Marmik Oil Company","co":"Powder River","st":"MT","trs":"T5S R51E S2","fm":null,"eur":null,"perft":null,"sound":false,"fit":"none","geur":null,"gfit":"none"}}]}