{"type":"FeatureCollection","features":[{"type":"Feature","geometry":{"type":"Point","coordinates":[-105.58043,46.27653]},"properties":{"api":"2501705048","name":"NPRR K  1","op":"Stanolind Oil & Gas Co.","co":"Custer","st":"MT","trs":"T6N R49E S15","fm":null,"eur":null,"perft":null,"sound":false,"fit":"none","geur":null,"gfit":"none"}},{"type":"Feature","geometry":{"type":"Point","coordinates":[-105.58969,46.24422]},"properties":{"api":"2501705125","name":"NPRR-B  1","op":"Tenneco Oil Company","co":"Custer","st":"MT","trs":"T6N R49E S27","fm":null,"eur":null,"perft":null,"sound":false,"fit":"none","geur":null,"gfit":"none"}}]}