{"type":"FeatureCollection","features":[{"type":"Feature","geometry":{"type":"Point","coordinates":[-106.91388,45.26394]},"properties":{"api":"2500305056","name":"Government M-064246  1","op":"States Oil","co":"Big Horn","st":"MT","trs":"T7S R39E S2","fm":null,"eur":null,"perft":null,"sound":false,"fit":"none","geur":null,"gfit":"none"}},{"type":"Feature","geometry":{"type":"Point","coordinates":[-106.96559,45.24906]},"properties":{"api":"2500321027","name":"Vessels  Helvey  1","op":"Hallwood Petroleum, Inc.","co":"Big Horn","st":"MT","trs":"T7S R39E S9","fm":null,"eur":null,"perft":null,"sound":false,"fit":"none","geur":null,"gfit":"none"}},{"type":"Feature","geometry":{"type":"Point","coordinates":[-106.91381,45.19515]},"properties":{"api":"2500321052","name":"Federal M-4523-Shell  1","op":"Vessels & Bass","co":"Big Horn","st":"MT","trs":"T7S R39E S35","fm":null,"eur":null,"perft":null,"sound":false,"fit":"none","geur":null,"gfit":"none"}},{"type":"Feature","geometry":{"type":"Point","coordinates":[-106.91416,45.21329]},"properties":{"api":"2500321127","name":"Adsit  16-23","op":"Impel Energy Corporation","co":"Big Horn","st":"MT","trs":"T7S R39E S23","fm":null,"eur":null,"perft":null,"sound":false,"fit":"none","geur":null,"gfit":"none"}},{"type":"Feature","geometry":{"type":"Point","coordinates":[-106.96559,45.26429]},"properties":{"api":"2500321205","name":"Federal Hallwood-Betop  4-6","op":"Hallwood Petroleum, Inc.","co":"Big Horn","st":"MT","trs":"T7S R39E S4","fm":null,"eur":null,"perft":null,"sound":false,"fit":"none","geur":null,"gfit":"none"}},{"type":"Feature","geometry":{"type":"Point","coordinates":[-106.96532,45.25916]},"properties":{"api":"2500321206","name":"Helvey  4-11","op":"Hallwood Petroleum, Inc.","co":"Big Horn","st":"MT","trs":"T7S R39E S4","fm":null,"eur":null,"perft":null,"sound":false,"fit":"none","geur":null,"gfit":"none"}},{"type":"Feature","geometry":{"type":"Point","coordinates":[-106.95597,45.21741]},"properties":{"api":"2500321587","name":"KD  0739-9-21","op":"Petroleum Development Corp. of New Mexico","co":"Big Horn","st":"MT","trs":"T7S R39E S21","fm":null,"eur":null,"perft":null,"sound":false,"fit":"none","geur":null,"gfit":"none"}},{"type":"Feature","geometry":{"type":"Point","coordinates":[-106.95991,45.19092]},"properties":{"api":"2500321643","name":"M. Young 3379  32KG","op":"Fidelity Exploration & Production Co.","co":"Big Horn","st":"MT","trs":"T7S R39E S33","fm":null,"eur":null,"perft":null,"sound":false,"fit":"none","geur":null,"gfit":"none"}},{"type":"Feature","geometry":{"type":"Point","coordinates":[-106.96584,45.24652]},"properties":{"api":"2500321872","name":"Helvie  11-9","op":"Powder River Gas, LLC","co":"Big Horn","st":"MT","trs":"T7S R39E S9","fm":null,"eur":null,"perft":null,"sound":false,"fit":"none","geur":null,"gfit":"none"}}]}