{"type":"FeatureCollection","features":[{"type":"Feature","geometry":{"type":"Point","coordinates":[-106.77183,45.21413]},"properties":{"api":"2500321028","name":"Apache  3","op":"Vessels & Bass","co":"Big Horn","st":"MT","trs":"T7S R40E S24","fm":null,"eur":null,"perft":null,"sound":false,"fit":"none","geur":null,"gfit":"none"}},{"type":"Feature","geometry":{"type":"Point","coordinates":[-106.83227,45.23585]},"properties":{"api":"2500321039","name":"State  1-16","op":"Austral Oil","co":"Big Horn","st":"MT","trs":"T7S R40E S16","fm":null,"eur":null,"perft":null,"sound":false,"fit":"none","geur":null,"gfit":"none"}},{"type":"Feature","geometry":{"type":"Point","coordinates":[-106.88326,45.2435]},"properties":{"api":"2500321598","name":"KD  0740-11-7","op":"Petroleum Development Corp. of New Mexico","co":"Big Horn","st":"MT","trs":"T7S R40E S7","fm":null,"eur":null,"perft":null,"sound":false,"fit":"none","geur":null,"gfit":"none"}},{"type":"Feature","geometry":{"type":"Point","coordinates":[-106.86667,45.2623]},"properties":{"api":"2500322568","name":"Wildcat  5-5 7-40","op":"Summit Gas Resources, Inc.","co":"Big Horn","st":"MT","trs":"T7S R40E S5","fm":null,"eur":null,"perft":null,"sound":false,"fit":"none","geur":null,"gfit":"none"}},{"type":"Feature","geometry":{"type":"Point","coordinates":[-106.87577,45.19711]},"properties":{"api":"2500322638","name":"Well  15-30-7-40","op":"Summit Gas Resources, Inc.","co":"Big Horn","st":"MT","trs":"T7S R40E S30","fm":null,"eur":null,"perft":null,"sound":false,"fit":"none","geur":null,"gfit":"none"}}]}