{"type":"FeatureCollection","features":[{"type":"Feature","geometry":{"type":"Point","coordinates":[-105.79552,45.20037]},"properties":{"api":"2507505019","name":"Montana 014032  H. Gay #1","op":"Davis Oil Company","co":"Powder River","st":"MT","trs":"T7S R48E S25","fm":null,"eur":null,"perft":null,"sound":false,"fit":"none","geur":null,"gfit":"none"}},{"type":"Feature","geometry":{"type":"Point","coordinates":[-105.83003,45.17467]},"properties":{"api":"2507521815","name":"McAlester Montana Fed  34-14","op":"McAlester Fuel Co","co":"Powder River","st":"MT","trs":"T7S R48E S34","fm":null,"eur":null,"perft":null,"sound":false,"fit":"none","geur":null,"gfit":"none"}},{"type":"Feature","geometry":{"type":"Point","coordinates":[-105.80008,45.21519]},"properties":{"api":"2507522170","name":"Federal  41-23","op":"True Oil LLC","co":"Powder River","st":"MT","trs":"T7S R48E S23","fm":null,"eur":null,"perft":null,"sound":false,"fit":"none","geur":null,"gfit":"none"}},{"type":"Feature","geometry":{"type":"Point","coordinates":[-105.89128,45.21497]},"properties":{"api":"2507522172","name":"Shields Federal  21-19","op":"True Oil LLC","co":"Powder River","st":"MT","trs":"T7S R48E S19","fm":null,"eur":null,"perft":null,"sound":false,"fit":"none","geur":null,"gfit":"none"}}]}