{"type":"FeatureCollection","features":[{"type":"Feature","geometry":{"type":"Point","coordinates":[-107.37033,46.41868]},"properties":{"api":"2510305009","name":"NPRR          1","op":"Tenison Drilling","co":"Treasure","st":"MT","trs":"T8N R35E S29","fm":null,"eur":null,"perft":null,"sound":false,"fit":"none","geur":null,"gfit":"none"}},{"type":"Feature","geometry":{"type":"Point","coordinates":[-107.38642,46.45044]},"properties":{"api":"2510321017","name":"TREASURE<> 1-18","op":"Southport Exploration, Inc.","co":"Treasure","st":"MT","trs":"T8N R35E S18","fm":null,"eur":null,"perft":null,"sound":false,"fit":"none","geur":null,"gfit":"none"}}]}