{"type":"FeatureCollection","features":[{"type":"Feature","geometry":{"type":"Point","coordinates":[-106.39393,45.11418]},"properties":{"api":"2500321025","name":"Federal White  30-3","op":"Gary Drilling Co.","co":"Big Horn","st":"MT","trs":"T8S R44E S30","fm":null,"eur":null,"perft":null,"sound":false,"fit":"none","geur":null,"gfit":"none"}},{"type":"Feature","geometry":{"type":"Point","coordinates":[-106.32239,45.15758]},"properties":{"api":"2500321056","name":"Shamrock  1-10","op":"Kissinger, Clyde G.","co":"Big Horn","st":"MT","trs":"T8S R44E S10","fm":null,"eur":null,"perft":null,"sound":false,"fit":"none","geur":null,"gfit":"none"}},{"type":"Feature","geometry":{"type":"Point","coordinates":[-106.27286,45.09023]},"properties":{"api":"2500322378","name":"NWBC State 08-44  15-36","op":"Summit Gas Resources, Inc.","co":"Big Horn","st":"MT","trs":"T8S R44E S36","fm":null,"eur":null,"perft":null,"sound":false,"fit":"none","geur":null,"gfit":"none"}}]}