{"type":"FeatureCollection","features":[{"type":"Feature","geometry":{"type":"Point","coordinates":[-107.60624,46.54164]},"properties":{"api":"2508705075","name":"Messer  1","op":"John D. Co., The, Inc.","co":"Rosebud","st":"MT","trs":"T9N R33E S8","fm":null,"eur":null,"perft":null,"sound":false,"fit":"none","geur":null,"gfit":"none"}},{"type":"Feature","geometry":{"type":"Point","coordinates":[-107.58013,46.56342]},"properties":{"api":"2508705082","name":"MESSER        1","op":"True Oil LLC","co":"Rosebud","st":"MT","trs":"T9N R33E S4","fm":null,"eur":null,"perft":null,"sound":false,"fit":"none","geur":null,"gfit":"none"}},{"type":"Feature","geometry":{"type":"Point","coordinates":[-107.51185,46.50927]},"properties":{"api":"2508721127","name":"Grierson  1","op":"Southland Royalty Company","co":"Rosebud","st":"MT","trs":"T9N R33E S25","fm":null,"eur":null,"perft":null,"sound":false,"fit":"none","geur":null,"gfit":"none"}},{"type":"Feature","geometry":{"type":"Point","coordinates":[-107.5074,46.52336]},"properties":{"api":"2508721219","name":"HENDRIX    1-24","op":"Equity Oil Company","co":"Rosebud","st":"MT","trs":"T9N R33E S24","fm":null,"eur":null,"perft":null,"sound":false,"fit":"none","geur":null,"gfit":"none"}},{"type":"Feature","geometry":{"type":"Point","coordinates":[-107.60639,46.56671]},"properties":{"api":"2508721235","name":"ALLEN         1","op":"Soape Drilling Co. Inc.","co":"Rosebud","st":"MT","trs":"T9N R33E S5","fm":null,"eur":null,"perft":null,"sound":false,"fit":"none","geur":null,"gfit":"none"}},{"type":"Feature","geometry":{"type":"Point","coordinates":[-107.53795,46.54145]},"properties":{"api":"2508721396","name":"HENDRIX       1","op":"Palmer Oil & Gas Company","co":"Rosebud","st":"MT","trs":"T9N R33E S11","fm":null,"eur":null,"perft":null,"sound":false,"fit":"none","geur":null,"gfit":"none"}},{"type":"Feature","geometry":{"type":"Point","coordinates":[-107.54848,46.50556]},"properties":{"api":"2508721457","name":"GRIERSON  42-27","op":"True Oil LLC","co":"Rosebud","st":"MT","trs":"T9N R33E S27","fm":null,"eur":null,"perft":null,"sound":false,"fit":"none","geur":null,"gfit":"none"}},{"type":"Feature","geometry":{"type":"Point","coordinates":[-107.51187,46.51289]},"properties":{"api":"2508721478","name":"HENDRIX   34-24","op":"Gear Petroleum Company Inc.","co":"Rosebud","st":"MT","trs":"T9N R33E S24","fm":null,"eur":null,"perft":null,"sound":false,"fit":"none","geur":null,"gfit":"none"}},{"type":"Feature","geometry":{"type":"Point","coordinates":[-107.5903,46.49462]},"properties":{"api":"2508721525","name":"GRIERSON  41-32","op":"True Oil LLC","co":"Rosebud","st":"MT","trs":"T9N R33E S32","fm":null,"eur":null,"perft":null,"sound":false,"fit":"none","geur":null,"gfit":"none"}},{"type":"Feature","geometry":{"type":"Point","coordinates":[-107.57884,46.56796]},"properties":{"api":"2508721555","name":"MESSER 2","op":"Eastern American Energy Corp","co":"Rosebud","st":"MT","trs":"T9N R33E S4","fm":null,"eur":null,"perft":null,"sound":false,"fit":"none","geur":null,"gfit":"none"}},{"type":"Feature","geometry":{"type":"Point","coordinates":[-107.54237,46.52794]},"properties":{"api":"2508721580","name":"V HENDRIX 14-14","op":"Wacker Oil Inc.","co":"Rosebud","st":"MT","trs":"T9N R33E S14","fm":null,"eur":null,"perft":null,"sound":false,"fit":"none","geur":null,"gfit":"none"}}]}