{"type":"FeatureCollection","features":[{"type":"Feature","geometry":{"type":"Point","coordinates":[-104.69923,45.01319]},"properties":{"api":"2501105149","name":"Federal  1","op":"Great Western Oil","co":"Carter","st":"MT","trs":"T9S R57E S35","fm":null,"eur":null,"perft":null,"sound":false,"fit":"none","geur":null,"gfit":"none"}},{"type":"Feature","geometry":{"type":"Point","coordinates":[-104.77081,45.04212]},"properties":{"api":"2501106157","name":"STRAT  A-6","op":"Amerada Hess Corporation","co":"Carter","st":"MT","trs":"T9S R57E S20","fm":null,"eur":null,"perft":null,"sound":false,"fit":"none","geur":null,"gfit":"none"}},{"type":"Feature","geometry":{"type":"Point","coordinates":[-104.76573,45.07833]},"properties":{"api":"2501121061","name":"Federal  597-1","op":"Brinkerhoff Company, The","co":"Carter","st":"MT","trs":"T9S R57E S5","fm":null,"eur":null,"perft":null,"sound":false,"fit":"none","geur":null,"gfit":"none"}},{"type":"Feature","geometry":{"type":"Point","coordinates":[-104.76531,45.04936]},"properties":{"api":"2501121062","name":"Federal  1797-1","op":"Brinkerhoff Company, The","co":"Carter","st":"MT","trs":"T9S R57E S17","fm":null,"eur":null,"perft":null,"sound":false,"fit":"none","geur":null,"gfit":"none"}},{"type":"Feature","geometry":{"type":"Point","coordinates":[-104.70948,45.05662]},"properties":{"api":"2501121151","name":"Federal  1","op":"Gulf Oil Corporation","co":"Carter","st":"MT","trs":"T9S R57E S14","fm":null,"eur":null,"perft":null,"sound":false,"fit":"none","geur":null,"gfit":"none"}},{"type":"Feature","geometry":{"type":"Point","coordinates":[-104.72991,45.03514]},"properties":{"api":"2501121157","name":"Federal  2","op":"Gulf Oil Corporation","co":"Carter","st":"MT","trs":"T9S R57E S22","fm":null,"eur":null,"perft":null,"sound":false,"fit":"none","geur":null,"gfit":"none"}},{"type":"Feature","geometry":{"type":"Point","coordinates":[-104.75516,45.01695]},"properties":{"api":"2501121213","name":"Federal  3","op":"Gulf Oil Corporation","co":"Carter","st":"MT","trs":"T9S R57E S32","fm":null,"eur":null,"perft":null,"sound":false,"fit":"none","geur":null,"gfit":"none"}},{"type":"Feature","geometry":{"type":"Point","coordinates":[-104.75846,45.07987]},"properties":{"api":"2501121266","name":"Federal  15-5","op":"Mon-Dak Utilities Co. & Fidelity Gas Co.","co":"Carter","st":"MT","trs":"T9S R57E S5","fm":null,"eur":null,"perft":null,"sound":false,"fit":"none","geur":null,"gfit":"none"}},{"type":"Feature","geometry":{"type":"Point","coordinates":[-104.70822,45.07382]},"properties":{"api":"2501121278","name":"Federal  1-11","op":"Helmerich & Payne Inc","co":"Carter","st":"MT","trs":"T9S R57E S11","fm":null,"eur":null,"perft":null,"sound":false,"fit":"none","geur":null,"gfit":"none"}}]}