{"type":"FeatureCollection","features":[{"type":"Feature","geometry":{"type":"Point","coordinates":[-104.87277,45.03492]},"properties":{"api":"2501105007","name":"Federal  1","op":"Dakota Montana Oil Co.","co":"Carter","st":"MT","trs":"T9S R56E S21","fm":null,"eur":null,"perft":null,"sound":false,"fit":"none","geur":null,"gfit":"none"}},{"type":"Feature","geometry":{"type":"Point","coordinates":[-104.8524,45.06025]},"properties":{"api":"2501105013","name":"Federal  1","op":"Davis Oil Company","co":"Carter","st":"MT","trs":"T9S R56E S15","fm":null,"eur":null,"perft":null,"sound":false,"fit":"none","geur":null,"gfit":"none"}},{"type":"Feature","geometry":{"type":"Point","coordinates":[-104.84728,45.06387]},"properties":{"api":"2501105015","name":"Federal  1","op":"Delhi Oil","co":"Carter","st":"MT","trs":"T9S R56E S10","fm":null,"eur":null,"perft":null,"sound":false,"fit":"none","geur":null,"gfit":"none"}},{"type":"Feature","geometry":{"type":"Point","coordinates":[-104.87752,45.06388]},"properties":{"api":"2501105150","name":"Federal  1","op":"El Paso Natural Gas Company","co":"Carter","st":"MT","trs":"T9S R56E S8","fm":null,"eur":null,"perft":null,"sound":false,"fit":"none","geur":null,"gfit":"none"}},{"type":"Feature","geometry":{"type":"Point","coordinates":[-104.81161,45.02446]},"properties":{"api":"2501121060","name":"Federal  1-2956","op":"Brinkerhoff Company, The","co":"Carter","st":"MT","trs":"T9S R56E S25","fm":null,"eur":null,"perft":null,"sound":false,"fit":"none","geur":null,"gfit":"none"}},{"type":"Feature","geometry":{"type":"Point","coordinates":[-104.86262,45.06388]},"properties":{"api":"2501121211","name":"Federal  1","op":"RME Petroleum Company","co":"Carter","st":"MT","trs":"T9S R56E S9","fm":null,"eur":null,"perft":null,"sound":false,"fit":"none","geur":null,"gfit":"none"}},{"type":"Feature","geometry":{"type":"Point","coordinates":[-104.86184,45.06478]},"properties":{"api":"2501121260","name":"Federal  9-15","op":"Wheless Industries, Inc.","co":"Carter","st":"MT","trs":"T9S R56E S9","fm":null,"eur":null,"perft":null,"sound":false,"fit":"none","geur":null,"gfit":"none"}},{"type":"Feature","geometry":{"type":"Point","coordinates":[-104.84728,45.06478]},"properties":{"api":"2501121265","name":"Federal  10-14","op":"Wheless Industries, Inc.","co":"Carter","st":"MT","trs":"T9S R56E S10","fm":null,"eur":null,"perft":null,"sound":false,"fit":"none","geur":null,"gfit":"none"}},{"type":"Feature","geometry":{"type":"Point","coordinates":[-104.82689,45.07111]},"properties":{"api":"2501121269","name":"Federal  1","op":"Chambers, Jerry, Exploration Co.","co":"Carter","st":"MT","trs":"T9S R56E S11","fm":null,"eur":null,"perft":null,"sound":false,"fit":"none","geur":null,"gfit":"none"}},{"type":"Feature","geometry":{"type":"Point","coordinates":[-104.8218,45.07925]},"properties":{"api":"2501121270","name":"Federal  2-9-56 M116","op":"Chambers, Jerry, Exploration Co.","co":"Carter","st":"MT","trs":"T9S R56E S2","fm":null,"eur":null,"perft":null,"sound":false,"fit":"none","geur":null,"gfit":"none"}},{"type":"Feature","geometry":{"type":"Point","coordinates":[-104.84221,45.05934]},"properties":{"api":"2501121271","name":"Fecderal M119  1","op":"Chambers, Jerry, Exploration Co.","co":"Carter","st":"MT","trs":"T9S R56E S15","fm":null,"eur":null,"perft":null,"sound":false,"fit":"none","geur":null,"gfit":"none"}},{"type":"Feature","geometry":{"type":"Point","coordinates":[-104.89387,45.07113]},"properties":{"api":"2501121276","name":"Nixon  12-8","op":"Duncan, Raymond T.","co":"Carter","st":"MT","trs":"T9S R56E S8","fm":null,"eur":null,"perft":null,"sound":false,"fit":"none","geur":null,"gfit":"none"}},{"type":"Feature","geometry":{"type":"Point","coordinates":[-104.8611,45.06637]},"properties":{"api":"2501121367","name":"Federal  9-10","op":"Beartooth Oil & Gas Company","co":"Carter","st":"MT","trs":"T9S R56E S9","fm":null,"eur":null,"perft":null,"sound":false,"fit":"none","geur":null,"gfit":"none"}},{"type":"Feature","geometry":{"type":"Point","coordinates":[-104.84809,45.0666]},"properties":{"api":"2501121368","name":"Federal  10-11","op":"Beartooth Oil & Gas Company","co":"Carter","st":"MT","trs":"T9S R56E S10","fm":null,"eur":null,"perft":null,"sound":false,"fit":"none","geur":null,"gfit":"none"}},{"type":"Feature","geometry":{"type":"Point","coordinates":[-104.85234,45.01681]},"properties":{"api":"2501160001","name":"Core Hole  A-18","op":"Amerada Hess Corporation","co":"Carter","st":"MT","trs":"T9S R56E S34","fm":null,"eur":null,"perft":null,"sound":false,"fit":"none","geur":null,"gfit":"none"}}]}