{"type":"FeatureCollection","features":[{"type":"Feature","geometry":{"type":"Point","coordinates":[-105.6105,45.06329]},"properties":{"api":"2507505006","name":"Government  1","op":"Pure Oil","co":"Powder River","st":"MT","trs":"T9S R50E S8","fm":null,"eur":null,"perft":null,"sound":false,"fit":"none","geur":null,"gfit":"none"}},{"type":"Feature","geometry":{"type":"Point","coordinates":[-105.62585,45.07415]},"properties":{"api":"2507505010","name":"Portwine  1","op":"Donnell Drlg-Pure","co":"Powder River","st":"MT","trs":"T9S R50E S5","fm":null,"eur":null,"perft":null,"sound":false,"fit":"none","geur":null,"gfit":"none"}},{"type":"Feature","geometry":{"type":"Point","coordinates":[-105.52908,45.03074]},"properties":{"api":"2507521253","name":"Pubco-Govt.  1","op":"Ackman-Schulein & Assoc., Ltd.","co":"Powder River","st":"MT","trs":"T9S R50E S24","fm":null,"eur":null,"perft":null,"sound":false,"fit":"none","geur":null,"gfit":"none"}},{"type":"Feature","geometry":{"type":"Point","coordinates":[-105.57474,45.07054]},"properties":{"api":"2507521505","name":"Govt.-Russell  1","op":"McBride, W.C. Inc.","co":"Powder River","st":"MT","trs":"T9S R50E S10","fm":null,"eur":null,"perft":null,"sound":false,"fit":"none","geur":null,"gfit":"none"}},{"type":"Feature","geometry":{"type":"Point","coordinates":[-105.6257,45.01258]},"properties":{"api":"2507521510","name":"Federal Balta  1","op":"Dekalb Energy Company","co":"Powder River","st":"MT","trs":"T9S R50E S32","fm":null,"eur":null,"perft":null,"sound":false,"fit":"none","geur":null,"gfit":"none"}},{"type":"Feature","geometry":{"type":"Point","coordinates":[-105.56449,45.03072]},"properties":{"api":"2507521517","name":"USA McBride  1-23","op":"Mesa Operating Limited Partnership","co":"Powder River","st":"MT","trs":"T9S R50E S23","fm":null,"eur":null,"perft":null,"sound":false,"fit":"none","geur":null,"gfit":"none"}},{"type":"Feature","geometry":{"type":"Point","coordinates":[-105.52911,45.01235]},"properties":{"api":"2507521728","name":"Montana State  1","op":"Kissinger, Clyde G.","co":"Powder River","st":"MT","trs":"T9S R50E S36","fm":null,"eur":null,"perft":null,"sound":false,"fit":"none","geur":null,"gfit":"none"}},{"type":"Feature","geometry":{"type":"Point","coordinates":[-105.52876,45.05516]},"properties":{"api":"2507521801","name":"McBride-USA  1","op":"Kissinger, Clyde G.","co":"Powder River","st":"MT","trs":"T9S R50E S13","fm":null,"eur":null,"perft":null,"sound":false,"fit":"none","geur":null,"gfit":"none"}},{"type":"Feature","geometry":{"type":"Point","coordinates":[-105.60536,45.04519]},"properties":{"api":"2507521814","name":"Pubco-State  1","op":"Kissinger, Clyde G.","co":"Powder River","st":"MT","trs":"T9S R50E S16","fm":null,"eur":null,"perft":null,"sound":false,"fit":"none","geur":null,"gfit":"none"}},{"type":"Feature","geometry":{"type":"Point","coordinates":[-105.56451,45.06679]},"properties":{"api":"2507522160","name":"Magruder Federal  12-11","op":"True Oil LLC","co":"Powder River","st":"MT","trs":"T9S R50E S11","fm":null,"eur":null,"perft":null,"sound":false,"fit":"none","geur":null,"gfit":"none"}},{"type":"Feature","geometry":{"type":"Point","coordinates":[-105.5744,45.00864]},"properties":{"api":"2507522167","name":"Line Creek  1","op":"Davis Oil Company","co":"Powder River","st":"MT","trs":"T9S R50E S34","fm":null,"eur":null,"perft":null,"sound":false,"fit":"none","geur":null,"gfit":"none"}},{"type":"Feature","geometry":{"type":"Point","coordinates":[-105.58962,45.03185]},"properties":{"api":"2507522173","name":"Darr Federal  44-21","op":"True Oil LLC","co":"Powder River","st":"MT","trs":"T9S R50E S21","fm":null,"eur":null,"perft":null,"sound":false,"fit":"none","geur":null,"gfit":"none"}},{"type":"Feature","geometry":{"type":"Point","coordinates":[-105.53434,45.05157]},"properties":{"api":"2507522203","name":"William L. Geer  1","op":"Oryx Energy Company","co":"Powder River","st":"MT","trs":"T9S R50E S13","fm":null,"eur":null,"perft":null,"sound":false,"fit":"none","geur":null,"gfit":"none"}},{"type":"Feature","geometry":{"type":"Point","coordinates":[-105.63793,45.01302]},"properties":{"api":"2507522204","name":"Three Bar Federal  1","op":"Oryx Energy Company","co":"Powder River","st":"MT","trs":"T9S R50E S31","fm":null,"eur":null,"perft":null,"sound":false,"fit":"none","geur":null,"gfit":"none"}},{"type":"Feature","geometry":{"type":"Point","coordinates":[-105.60448,45.01116]},"properties":{"api":"2507522266","name":"Federal  4-33","op":"Edge Petroleum Operating Company, Inc.","co":"Powder River","st":"MT","trs":"T9S R50E S33","fm":null,"eur":null,"perft":null,"sound":false,"fit":"none","geur":null,"gfit":"none"}},{"type":"Feature","geometry":{"type":"Point","coordinates":[-105.5516,45.04696]},"properties":{"api":"2507522267","name":"Westech Federal  15-14","op":"Westech Energy Corporation","co":"Powder River","st":"MT","trs":"T9S R50E S14","fm":null,"eur":null,"perft":null,"sound":false,"fit":"none","geur":null,"gfit":"none"}}]}