{"type":"FeatureCollection","note":"BLM Public Land Survey System. Provided by the Bureau of Land Management as is. These data are neither legal documents nor land surveys and must not be used as such.","features":[{"type":"Feature","properties":{"sec":"20","frstdivid":"MT200060N0250E0SN200"},"geometry":{"type":"Polygon","coordinates":[[[-108.633342,46.263078],[-108.62811,46.263085],[-108.622863,46.263089],[-108.617636,46.263086],[-108.6124,46.263081],[-108.61241,46.25946],[-108.612419,46.255839],[-108.612428,46.252218],[-108.612437,46.248597],[-108.61765,46.248592],[-108.622862,46.248588],[-108.628075,46.248583],[-108.633287,46.248578],[-108.633303,46.252204],[-108.633318,46.255829],[-108.633333,46.259454],[-108.633342,46.263078]]]}},{"type":"Feature","properties":{"sec":"04","frstdivid":"MT200060N0250E0SN040"},"geometry":{"type":"Polygon","coordinates":[[[-108.612324,46.295682],[-108.612335,46.299301],[-108.612348,46.30292],[-108.612361,46.306539],[-108.612373,46.309896],[-108.611889,46.309896],[-108.607143,46.309906],[-108.606673,46.309907],[-108.601914,46.309916],[-108.601457,46.309917],[-108.59669,46.309918],[-108.596279,46.309918],[-108.591466,46.309919],[-108.591455,46.306511],[-108.591444,46.302893],[-108.591433,46.299275],[-108.591423,46.295657],[-108.591414,46.29204],[-108.596639,46.292046],[-108.601864,46.292052],[-108.607089,46.292057],[-108.612306,46.292062],[-108.612324,46.295682]]]}},{"type":"Feature","properties":{"sec":"01","frstdivid":"MT200060N0250E0SN010"},"geometry":{"type":"Polygon","coordinates":[[[-108.534085,46.309954],[-108.528886,46.309962],[-108.528877,46.308363],[-108.528879,46.306534],[-108.52887,46.302913],[-108.52886,46.299292],[-108.52885,46.295669],[-108.528839,46.292046],[-108.534049,46.292047],[-108.539259,46.292048],[-108.544469,46.292049],[-108.549678,46.29205],[-108.549677,46.295668],[-108.549677,46.299286],[-108.549678,46.302904],[-108.54968,46.306523],[-108.549682,46.309927],[-108.544483,46.309936],[-108.539284,46.309945],[-108.534085,46.309954]]]}},{"type":"Feature","properties":{"sec":"26","frstdivid":"MT200060N0250E0SN260"},"geometry":{"type":"Polygon","coordinates":[[[-108.570578,46.241372],[-108.570576,46.244992],[-108.570573,46.248611],[-108.565349,46.248609],[-108.560126,46.248607],[-108.554902,46.248604],[-108.549678,46.248602],[-108.549676,46.244982],[-108.549673,46.241361],[-108.54967,46.237741],[-108.549667,46.23412],[-108.554896,46.234124],[-108.560125,46.234127],[-108.565354,46.234131],[-108.570583,46.234134],[-108.570581,46.237753],[-108.570578,46.241372]]]}},{"type":"Feature","properties":{"sec":"16","frstdivid":"MT200060N0250E0SN160"},"geometry":{"type":"Polygon","coordinates":[[[-108.612394,46.266704],[-108.612388,46.270326],[-108.612382,46.273949],[-108.612376,46.277571],[-108.60714,46.27757],[-108.601904,46.27757],[-108.596669,46.277569],[-108.591433,46.277568],[-108.591439,46.273951],[-108.591446,46.270333],[-108.591452,46.266715],[-108.591451,46.263096],[-108.596694,46.263093],[-108.601929,46.263089],[-108.607165,46.263085],[-108.6124,46.263081],[-108.612394,46.266704]]]}},{"type":"Feature","properties":{"sec":"13","frstdivid":"MT200060N0250E0SN130"},"geometry":{"type":"Polygon","coordinates":[[[-108.528765,46.263074],[-108.533989,46.263078],[-108.539213,46.263081],[-108.544438,46.263085],[-108.549662,46.263089],[-108.549658,46.26671],[-108.549655,46.270331],[-108.549652,46.273953],[-108.549648,46.277574],[-108.54443,46.277572],[-108.539211,46.27757],[-108.533992,46.277568],[-108.528766,46.277565],[-108.528771,46.273943],[-108.528769,46.27032],[-108.528767,46.266697],[-108.528765,46.263074]]]}},{"type":"Feature","properties":{"sec":"19","frstdivid":"MT200060N0250E0SN190"},"geometry":{"type":"Polygon","coordinates":[[[-108.653667,46.263047],[-108.648865,46.263051],[-108.643677,46.263057],[-108.638513,46.263068],[-108.633342,46.263078],[-108.633333,46.259454],[-108.633318,46.255829],[-108.633303,46.252204],[-108.633287,46.248578],[-108.638489,46.248574],[-108.64369,46.248569],[-108.648898,46.248567],[-108.653675,46.248565],[-108.653673,46.248956],[-108.653662,46.252185],[-108.653661,46.252653],[-108.65365,46.255806],[-108.653647,46.256351],[-108.653656,46.259426],[-108.653658,46.259979],[-108.653667,46.263047]]]}},{"type":"Feature","properties":{"sec":"31","frstdivid":"MT200060N0250E0SN310"},"geometry":{"type":"Polygon","coordinates":[[[-108.653915,46.226868],[-108.653848,46.230445],[-108.653846,46.230555],[-108.65378,46.234061],[-108.6489,46.234064],[-108.64369,46.234069],[-108.638485,46.234077],[-108.633279,46.234086],[-108.633263,46.230469],[-108.633246,46.226852],[-108.633223,46.223234],[-108.633199,46.219471],[-108.638376,46.219435],[-108.643552,46.219399],[-108.648751,46.219505],[-108.64911,46.219512],[-108.653931,46.219611],[-108.653923,46.22322],[-108.653923,46.223239],[-108.653915,46.22683],[-108.653915,46.226868]]]}},{"type":"Feature","properties":{"sec":"07","frstdivid":"MT200060N0250E0SN070"},"geometry":{"type":"Polygon","coordinates":[[[-108.643672,46.291979],[-108.638457,46.291992],[-108.633242,46.292005],[-108.633275,46.288392],[-108.633308,46.284779],[-108.633341,46.281166],[-108.633367,46.277552],[-108.63856,46.277545],[-108.643747,46.277537],[-108.648948,46.277533],[-108.653706,46.27753],[-108.65371,46.278471],[-108.653715,46.28114],[-108.653718,46.282579],[-108.653721,46.284749],[-108.653724,46.286686],[-108.653726,46.288358],[-108.65373,46.290792],[-108.653732,46.291967],[-108.64889,46.291973],[-108.643672,46.291979]]]}},{"type":"Feature","properties":{"sec":"17","frstdivid":"MT200060N0250E0SN170"},"geometry":{"type":"Polygon","coordinates":[[[-108.6124,46.263081],[-108.617636,46.263086],[-108.622863,46.263089],[-108.62811,46.263085],[-108.633342,46.263078],[-108.633355,46.266698],[-108.633362,46.270317],[-108.633368,46.273935],[-108.633367,46.277552],[-108.628125,46.277558],[-108.622875,46.277562],[-108.617625,46.277567],[-108.612376,46.277571],[-108.612382,46.273949],[-108.612388,46.270326],[-108.612394,46.266704],[-108.6124,46.263081]]]}},{"type":"Feature","properties":{"sec":"03","frstdivid":"MT200060N0250E0SN030"},"geometry":{"type":"Polygon","coordinates":[[[-108.591466,46.309919],[-108.591101,46.309919],[-108.58624,46.309917],[-108.58592,46.309917],[-108.581014,46.309915],[-108.58074,46.309915],[-108.575788,46.309913],[-108.575559,46.309912],[-108.570562,46.30991],[-108.570566,46.306568],[-108.570571,46.302946],[-108.570575,46.299325],[-108.570573,46.295702],[-108.570572,46.292078],[-108.575782,46.292069],[-108.580993,46.292059],[-108.586204,46.29205],[-108.591414,46.29204],[-108.591423,46.295657],[-108.591433,46.299275],[-108.591444,46.302893],[-108.591455,46.306511],[-108.591466,46.309919]]]}},{"type":"Feature","properties":{"sec":"23","frstdivid":"MT200060N0250E0SN230"},"geometry":{"type":"Polygon","coordinates":[[[-108.554887,46.263091],[-108.549662,46.263089],[-108.549666,46.259467],[-108.54967,46.255846],[-108.549674,46.252224],[-108.549678,46.248602],[-108.554902,46.248604],[-108.560126,46.248607],[-108.565349,46.248609],[-108.570573,46.248611],[-108.57057,46.252232],[-108.570567,46.255853],[-108.570565,46.259474],[-108.570562,46.263095],[-108.565337,46.263094],[-108.560112,46.263092],[-108.554887,46.263091]]]}},{"type":"Feature","properties":{"sec":"02","frstdivid":"MT200060N0250E0SN020"},"geometry":{"type":"Polygon","coordinates":[[[-108.554856,46.309923],[-108.549682,46.309927],[-108.54968,46.306523],[-108.549678,46.302904],[-108.549677,46.299286],[-108.549677,46.295668],[-108.549678,46.29205],[-108.554902,46.292057],[-108.560125,46.292064],[-108.565348,46.292071],[-108.570572,46.292078],[-108.570573,46.295702],[-108.570575,46.299325],[-108.570571,46.302946],[-108.570566,46.306568],[-108.570562,46.30991],[-108.570379,46.30991],[-108.565342,46.309914],[-108.565205,46.309914],[-108.560122,46.309919],[-108.560031,46.309919],[-108.554902,46.309923],[-108.554856,46.309923]]]}},{"type":"Feature","properties":{"sec":"11","frstdivid":"MT200060N0250E0SN110"},"geometry":{"type":"Polygon","coordinates":[[[-108.565348,46.292071],[-108.560125,46.292064],[-108.554902,46.292057],[-108.549678,46.29205],[-108.549671,46.288431],[-108.549663,46.284812],[-108.549656,46.281193],[-108.549648,46.277574],[-108.554868,46.277578],[-108.560088,46.277581],[-108.565308,46.277585],[-108.570528,46.277589],[-108.570528,46.281211],[-108.570521,46.284832],[-108.57055,46.288456],[-108.570572,46.292078],[-108.565348,46.292071]]]}},{"type":"Feature","properties":{"sec":"24","frstdivid":"MT200060N0250E0SN240"},"geometry":{"type":"Polygon","coordinates":[[[-108.549674,46.252224],[-108.54967,46.255846],[-108.549666,46.259467],[-108.549662,46.263089],[-108.544438,46.263085],[-108.539213,46.263081],[-108.533989,46.263078],[-108.528765,46.263074],[-108.528768,46.259452],[-108.528771,46.25583],[-108.528774,46.252207],[-108.528777,46.248585],[-108.534003,46.24859],[-108.539228,46.248594],[-108.544453,46.248598],[-108.549678,46.248602],[-108.549674,46.252224]]]}},{"type":"Feature","properties":{"sec":"14","frstdivid":"MT200060N0250E0SN140"},"geometry":{"type":"Polygon","coordinates":[[[-108.570554,46.266719],[-108.570545,46.270342],[-108.570537,46.273966],[-108.570528,46.277589],[-108.565308,46.277585],[-108.560088,46.277581],[-108.554868,46.277578],[-108.549648,46.277574],[-108.549652,46.273953],[-108.549655,46.270331],[-108.549658,46.26671],[-108.549662,46.263089],[-108.554887,46.263091],[-108.560112,46.263092],[-108.565337,46.263094],[-108.570562,46.263095],[-108.570554,46.266719]]]}},{"type":"Feature","properties":{"sec":"36","frstdivid":"MT200060N0250E0SN360"},"geometry":{"type":"Polygon","coordinates":[[[-108.549616,46.226882],[-108.549642,46.230501],[-108.549667,46.23412],[-108.54444,46.234114],[-108.539212,46.234108],[-108.533985,46.234102],[-108.528757,46.234097],[-108.528743,46.230469],[-108.528729,46.226842],[-108.528715,46.223214],[-108.528694,46.219585],[-108.533879,46.219373],[-108.539057,46.219159],[-108.544308,46.219189],[-108.549559,46.219218],[-108.549589,46.223263],[-108.549616,46.226882]]]}},{"type":"Feature","properties":{"sec":"35","frstdivid":"MT200060N0250E0SN350"},"geometry":{"type":"Polygon","coordinates":[[[-108.549589,46.223263],[-108.549559,46.219218],[-108.554805,46.219221],[-108.56005,46.219224],[-108.565296,46.219227],[-108.570541,46.219229],[-108.570553,46.223281],[-108.570564,46.226899],[-108.570574,46.230517],[-108.570583,46.234134],[-108.565354,46.234131],[-108.560125,46.234127],[-108.554896,46.234124],[-108.549667,46.23412],[-108.549642,46.230501],[-108.549616,46.226882],[-108.549589,46.223263]]]}},{"type":"Feature","properties":{"sec":"06","frstdivid":"MT200060N0250E0SN060"},"geometry":{"type":"Polygon","coordinates":[[[-108.643665,46.309873],[-108.643291,46.309873],[-108.638485,46.309868],[-108.638111,46.309867],[-108.633304,46.309862],[-108.633291,46.306482],[-108.633277,46.302863],[-108.633264,46.299244],[-108.633253,46.295624],[-108.633242,46.292005],[-108.638457,46.291992],[-108.643672,46.291979],[-108.64889,46.291973],[-108.653732,46.291967],[-108.653735,46.294899],[-108.653735,46.295586],[-108.653735,46.298644],[-108.653736,46.299205],[-108.653736,46.30239],[-108.653736,46.302824],[-108.653737,46.306135],[-108.653737,46.306443],[-108.653737,46.309881],[-108.648867,46.309878],[-108.648494,46.309877],[-108.643665,46.309873]]]}},{"type":"Feature","properties":{"sec":"09","frstdivid":"MT200060N0250E0SN090"},"geometry":{"type":"Polygon","coordinates":[[[-108.596669,46.277569],[-108.601904,46.27757],[-108.60714,46.27757],[-108.612376,46.277571],[-108.61236,46.281194],[-108.612345,46.284817],[-108.612329,46.28844],[-108.612306,46.292062],[-108.607089,46.292057],[-108.601864,46.292052],[-108.596639,46.292046],[-108.591414,46.29204],[-108.591419,46.288422],[-108.591423,46.284804],[-108.591428,46.281186],[-108.591433,46.277568],[-108.596669,46.277569]]]}},{"type":"Feature","properties":{"sec":"18","frstdivid":"MT200060N0250E0SN180"},"geometry":{"type":"Polygon","coordinates":[[[-108.633362,46.270317],[-108.633355,46.266698],[-108.633342,46.263078],[-108.638513,46.263068],[-108.643677,46.263057],[-108.648865,46.263051],[-108.653667,46.263047],[-108.653668,46.263608],[-108.653676,46.266667],[-108.653677,46.267324],[-108.653685,46.270288],[-108.653688,46.27104],[-108.653696,46.273909],[-108.653698,46.274755],[-108.653706,46.27753],[-108.648948,46.277533],[-108.643747,46.277537],[-108.63856,46.277545],[-108.633367,46.277552],[-108.633368,46.273935],[-108.633362,46.270317]]]}},{"type":"Feature","properties":{"sec":"05","frstdivid":"MT200060N0250E0SN050"},"geometry":{"type":"Polygon","coordinates":[[[-108.633242,46.292005],[-108.633253,46.295624],[-108.633264,46.299244],[-108.633277,46.302863],[-108.633291,46.306482],[-108.633304,46.309862],[-108.632931,46.309862],[-108.628014,46.30989],[-108.627614,46.309892],[-108.622717,46.309918],[-108.622296,46.309919],[-108.617549,46.309908],[-108.617093,46.309907],[-108.612373,46.309896],[-108.612361,46.306539],[-108.612348,46.30292],[-108.612335,46.299301],[-108.612324,46.295682],[-108.612306,46.292062],[-108.617545,46.292049],[-108.622778,46.292034],[-108.62801,46.292019],[-108.633242,46.292005]]]}},{"type":"Feature","properties":{"sec":"22","frstdivid":"MT200060N0250E0SN220"},"geometry":{"type":"Polygon","coordinates":[[[-108.586256,46.248614],[-108.591483,46.248616],[-108.591477,46.252236],[-108.591471,46.255856],[-108.591465,46.259477],[-108.591451,46.263096],[-108.586234,46.263097],[-108.58101,46.263096],[-108.575786,46.263096],[-108.570562,46.263095],[-108.570565,46.259474],[-108.570567,46.255853],[-108.57057,46.252232],[-108.570573,46.248611],[-108.5758,46.248612],[-108.581028,46.248613],[-108.586256,46.248614]]]}},{"type":"Feature","properties":{"sec":"08","frstdivid":"MT200060N0250E0SN080"},"geometry":{"type":"Polygon","coordinates":[[[-108.622778,46.292034],[-108.617545,46.292049],[-108.612306,46.292062],[-108.612329,46.28844],[-108.612345,46.284817],[-108.61236,46.281194],[-108.612376,46.277571],[-108.617625,46.277567],[-108.622875,46.277562],[-108.628125,46.277558],[-108.633367,46.277552],[-108.633341,46.281166],[-108.633308,46.284779],[-108.633275,46.288392],[-108.633242,46.292005],[-108.62801,46.292019],[-108.622778,46.292034]]]}},{"type":"Feature","properties":{"sec":"21","frstdivid":"MT200060N0250E0SN210"},"geometry":{"type":"Polygon","coordinates":[[[-108.607199,46.248602],[-108.612437,46.248597],[-108.612428,46.252218],[-108.612419,46.255839],[-108.61241,46.25946],[-108.6124,46.263081],[-108.607165,46.263085],[-108.601929,46.263089],[-108.596694,46.263093],[-108.591451,46.263096],[-108.591465,46.259477],[-108.591471,46.255856],[-108.591477,46.252236],[-108.591483,46.248616],[-108.596722,46.248611],[-108.60196,46.248606],[-108.607199,46.248602]]]}},{"type":"Feature","properties":{"sec":"12","frstdivid":"MT200060N0250E0SN120"},"geometry":{"type":"Polygon","coordinates":[[[-108.549678,46.29205],[-108.544469,46.292049],[-108.539259,46.292048],[-108.534049,46.292047],[-108.528839,46.292046],[-108.528823,46.288426],[-108.528806,46.284806],[-108.52879,46.281186],[-108.528766,46.277565],[-108.533992,46.277568],[-108.539211,46.27757],[-108.54443,46.277572],[-108.549648,46.277574],[-108.549656,46.281193],[-108.549663,46.284812],[-108.549671,46.288431],[-108.549678,46.29205]]]}},{"type":"Feature","properties":{"sec":"15","frstdivid":"MT200060N0250E0SN150"},"geometry":{"type":"Polygon","coordinates":[[[-108.591451,46.263096],[-108.591452,46.266715],[-108.591446,46.270333],[-108.591439,46.273951],[-108.591433,46.277568],[-108.586207,46.277573],[-108.580981,46.277579],[-108.575754,46.277584],[-108.570528,46.277589],[-108.570537,46.273966],[-108.570545,46.270342],[-108.570554,46.266719],[-108.570562,46.263095],[-108.575786,46.263096],[-108.58101,46.263096],[-108.586234,46.263097],[-108.591451,46.263096]]]}},{"type":"Feature","properties":{"sec":"10","frstdivid":"MT200060N0250E0SN100"},"geometry":{"type":"Polygon","coordinates":[[[-108.591419,46.288422],[-108.591414,46.29204],[-108.586204,46.29205],[-108.580993,46.292059],[-108.575782,46.292069],[-108.570572,46.292078],[-108.57055,46.288456],[-108.570521,46.284832],[-108.570528,46.281211],[-108.570528,46.277589],[-108.575754,46.277584],[-108.580981,46.277579],[-108.586207,46.277573],[-108.591433,46.277568],[-108.591428,46.281186],[-108.591423,46.284804],[-108.591419,46.288422]]]}},{"type":"Feature","properties":{"sec":"30","frstdivid":"MT200060N0250E0SN300"},"geometry":{"type":"Polygon","coordinates":[[[-108.653714,46.241313],[-108.653711,46.241577],[-108.653694,46.244939],[-108.653692,46.245266],[-108.653675,46.248565],[-108.648898,46.248567],[-108.64369,46.248569],[-108.638489,46.248574],[-108.633287,46.248578],[-108.633285,46.244955],[-108.633283,46.241332],[-108.633281,46.237709],[-108.633279,46.234086],[-108.638485,46.234077],[-108.64369,46.234069],[-108.6489,46.234064],[-108.65378,46.234061],[-108.653777,46.234242],[-108.653746,46.237687],[-108.653744,46.237909],[-108.653714,46.241313]]]}},{"type":"Feature","properties":{"sec":"28","frstdivid":"MT200060N0250E0SN280"},"geometry":{"type":"Polygon","coordinates":[[[-108.612437,46.248597],[-108.607199,46.248602],[-108.60196,46.248606],[-108.596722,46.248611],[-108.591483,46.248616],[-108.591494,46.244992],[-108.591504,46.241369],[-108.591514,46.237745],[-108.591525,46.234122],[-108.59676,46.234115],[-108.601996,46.234108],[-108.607232,46.234101],[-108.61246,46.234092],[-108.612481,46.237726],[-108.612487,46.241357],[-108.612466,46.244978],[-108.612437,46.248597]]]}},{"type":"Feature","properties":{"sec":"32","frstdivid":"MT200060N0250E0SN320"},"geometry":{"type":"Polygon","coordinates":[[[-108.61246,46.234092],[-108.612519,46.230472],[-108.61257,46.226851],[-108.612588,46.22323],[-108.612605,46.219256],[-108.617593,46.219309],[-108.617759,46.21931],[-108.622795,46.219363],[-108.622906,46.219364],[-108.627997,46.219417],[-108.628052,46.219418],[-108.633199,46.219471],[-108.633223,46.223234],[-108.633246,46.226852],[-108.633263,46.230469],[-108.633279,46.234086],[-108.628076,46.234088],[-108.622873,46.23409],[-108.61767,46.234092],[-108.61246,46.234092]]]}},{"type":"Feature","properties":{"sec":"33","frstdivid":"MT200060N0250E0SN330"},"geometry":{"type":"Polygon","coordinates":[[[-108.596796,46.219253],[-108.601958,46.219253],[-108.602068,46.219254],[-108.607174,46.219254],[-108.60734,46.219254],[-108.61239,46.219254],[-108.612605,46.219256],[-108.612588,46.22323],[-108.61257,46.226851],[-108.612519,46.230472],[-108.61246,46.234092],[-108.607232,46.234101],[-108.601996,46.234108],[-108.59676,46.234115],[-108.591525,46.234122],[-108.591527,46.230501],[-108.59153,46.226881],[-108.591527,46.223262],[-108.591524,46.219253],[-108.596741,46.219253],[-108.596796,46.219253]]]}},{"type":"Feature","properties":{"sec":"29","frstdivid":"MT200060N0250E0SN290"},"geometry":{"type":"Polygon","coordinates":[[[-108.633287,46.248578],[-108.628075,46.248583],[-108.622862,46.248588],[-108.61765,46.248592],[-108.612437,46.248597],[-108.612466,46.244978],[-108.612487,46.241357],[-108.612481,46.237726],[-108.61246,46.234092],[-108.61767,46.234092],[-108.622873,46.23409],[-108.628076,46.234088],[-108.633279,46.234086],[-108.633281,46.237709],[-108.633283,46.241332],[-108.633285,46.244955],[-108.633287,46.248578]]]}},{"type":"Feature","properties":{"sec":"34","frstdivid":"MT200060N0250E0SN340"},"geometry":{"type":"Polygon","coordinates":[[[-108.570574,46.230517],[-108.570564,46.226899],[-108.570553,46.223281],[-108.570541,46.219229],[-108.575787,46.219235],[-108.581032,46.219241],[-108.586278,46.219247],[-108.591524,46.219253],[-108.591527,46.223262],[-108.59153,46.226881],[-108.591527,46.230501],[-108.591525,46.234122],[-108.586289,46.234125],[-108.581054,46.234128],[-108.575819,46.234131],[-108.570583,46.234134],[-108.570574,46.230517]]]}},{"type":"Feature","properties":{"sec":"25","frstdivid":"MT200060N0250E0SN250"},"geometry":{"type":"Polygon","coordinates":[[[-108.528762,46.237719],[-108.528757,46.234097],[-108.533985,46.234102],[-108.539212,46.234108],[-108.54444,46.234114],[-108.549667,46.23412],[-108.54967,46.237741],[-108.549673,46.241361],[-108.549676,46.244982],[-108.549678,46.248602],[-108.544453,46.248598],[-108.539228,46.248594],[-108.534003,46.24859],[-108.528777,46.248585],[-108.528772,46.244963],[-108.528767,46.241341],[-108.528762,46.237719]]]}},{"type":"Feature","properties":{"sec":"27","frstdivid":"MT200060N0250E0SN270"},"geometry":{"type":"Polygon","coordinates":[[[-108.570573,46.248611],[-108.570576,46.244992],[-108.570578,46.241372],[-108.570581,46.237753],[-108.570583,46.234134],[-108.575819,46.234131],[-108.581054,46.234128],[-108.586289,46.234125],[-108.591525,46.234122],[-108.591514,46.237745],[-108.591504,46.241369],[-108.591494,46.244992],[-108.591483,46.248616],[-108.586256,46.248614],[-108.581028,46.248613],[-108.5758,46.248612],[-108.570573,46.248611]]]}}]}