{"type":"FeatureCollection","note":"BLM Public Land Survey System. Provided by the Bureau of Land Management as is. These data are neither legal documents nor land surveys and must not be used as such.","features":[{"type":"Feature","properties":{"sec":"03","frstdivid":"WY060280N0610W0SN030"},"geometry":{"type":"Polygon","coordinates":[[[-104.180735,42.435953],[-104.178625,42.435965],[-104.17582,42.435986],[-104.17371,42.435998],[-104.170904,42.436018],[-104.168796,42.43603],[-104.165988,42.436051],[-104.165994,42.432541],[-104.166002,42.42892],[-104.166016,42.425297],[-104.16603,42.421674],[-104.170935,42.421642],[-104.175839,42.42161],[-104.180743,42.421578],[-104.185647,42.421547],[-104.185648,42.425171],[-104.18565,42.428796],[-104.185651,42.432418],[-104.185651,42.435911],[-104.18354,42.435933],[-104.180735,42.435953]]]}},{"type":"Feature","properties":{"sec":"02","frstdivid":"WY060280N0610W0SN020"},"geometry":{"type":"Polygon","coordinates":[[[-104.146398,42.432825],[-104.14642,42.429201],[-104.146464,42.425576],[-104.146508,42.42195],[-104.151388,42.421881],[-104.156269,42.421812],[-104.16115,42.421743],[-104.16603,42.421674],[-104.166016,42.425297],[-104.166002,42.42892],[-104.165994,42.432541],[-104.165988,42.436051],[-104.163881,42.436073],[-104.161085,42.436094],[-104.158966,42.436107],[-104.156183,42.436128],[-104.15405,42.43614],[-104.151281,42.436161],[-104.149135,42.436174],[-104.146379,42.436194],[-104.146398,42.432825]]]}},{"type":"Feature","properties":{"sec":"06","frstdivid":"WY060280N0610W0SN060"},"geometry":{"type":"Polygon","coordinates":[[[-104.239471,42.422035],[-104.24365,42.422089],[-104.243646,42.423711],[-104.243642,42.425795],[-104.243638,42.427334],[-104.243634,42.429501],[-104.24363,42.430956],[-104.243625,42.433209],[-104.24362,42.434578],[-104.243615,42.436713],[-104.242471,42.436713],[-104.239538,42.43671],[-104.237583,42.436709],[-104.237245,42.436709],[-104.23464,42.436575],[-104.232678,42.436498],[-104.229733,42.436329],[-104.227771,42.436252],[-104.224826,42.436083],[-104.224823,42.432586],[-104.224819,42.428959],[-104.224811,42.425325],[-104.224804,42.421691],[-104.229693,42.421826],[-104.234582,42.421962],[-104.236451,42.42199],[-104.239471,42.422035]]]}},{"type":"Feature","properties":{"sec":"05","frstdivid":"WY060280N0610W0SN050"},"geometry":{"type":"Polygon","coordinates":[[[-104.224823,42.432586],[-104.224826,42.436083],[-104.222862,42.436078],[-104.219944,42.436046],[-104.217947,42.43603],[-104.215063,42.435998],[-104.213031,42.435982],[-104.210181,42.435951],[-104.208115,42.435934],[-104.205299,42.435903],[-104.205294,42.432416],[-104.205288,42.428793],[-104.205277,42.425167],[-104.205265,42.421542],[-104.21015,42.421579],[-104.215035,42.421616],[-104.219919,42.421653],[-104.224804,42.421691],[-104.224811,42.425325],[-104.224819,42.428959],[-104.224823,42.432586]]]}},{"type":"Feature","properties":{"sec":"01","frstdivid":"WY060280N0610W0SN010"},"geometry":{"type":"Polygon","coordinates":[[[-104.14642,42.429201],[-104.146398,42.432825],[-104.146379,42.436194],[-104.14422,42.436238],[-104.141504,42.436289],[-104.13933,42.436322],[-104.136629,42.436373],[-104.13444,42.436406],[-104.131754,42.436456],[-104.12955,42.436491],[-104.126879,42.43654],[-104.12688,42.433199],[-104.126882,42.429572],[-104.126886,42.425941],[-104.126889,42.422309],[-104.131794,42.422219],[-104.136698,42.42213],[-104.141603,42.42204],[-104.146508,42.42195],[-104.146464,42.425576],[-104.14642,42.429201]]]}},{"type":"Feature","properties":{"sec":"04","frstdivid":"WY060280N0610W0SN040"},"geometry":{"type":"Polygon","coordinates":[[[-104.205277,42.425167],[-104.205288,42.428793],[-104.205294,42.432416],[-104.205299,42.435903],[-104.2032,42.435915],[-104.200387,42.435914],[-104.198285,42.435914],[-104.195475,42.435913],[-104.19337,42.435912],[-104.190563,42.435912],[-104.188455,42.435911],[-104.185651,42.435911],[-104.185651,42.432418],[-104.18565,42.428796],[-104.185648,42.425171],[-104.185647,42.421547],[-104.190551,42.421545],[-104.195456,42.421544],[-104.200361,42.421543],[-104.205265,42.421542],[-104.205277,42.425167]]]}}]}