{"type":"FeatureCollection","note":"BLM Public Land Survey System. Provided by the Bureau of Land Management as is. These data are neither legal documents nor land surveys and must not be used as such.","features":[{"type":"Feature","properties":{"sec":"12","frstdivid":"WY060550N0650W0SN120"},"geometry":{"type":"Polygon","coordinates":[[[-104.60482,44.777541],[-104.599762,44.77755],[-104.599776,44.773898],[-104.59979,44.770246],[-104.599803,44.766594],[-104.599817,44.762941],[-104.604948,44.762889],[-104.610079,44.762836],[-104.615081,44.762782],[-104.620082,44.762727],[-104.62006,44.766424],[-104.620037,44.770121],[-104.620015,44.773818],[-104.619993,44.777515],[-104.614935,44.777524],[-104.609877,44.777533],[-104.60482,44.777541]]]}},{"type":"Feature","properties":{"sec":"07","frstdivid":"WY060550N0650W0SN070"},"geometry":{"type":"Polygon","coordinates":[[[-104.720599,44.772521],[-104.720605,44.774382],[-104.715894,44.774394],[-104.710556,44.774408],[-104.705045,44.774453],[-104.699535,44.774497],[-104.699888,44.770843],[-104.700241,44.767189],[-104.700594,44.763536],[-104.700947,44.759882],[-104.705981,44.75986],[-104.711014,44.759838],[-104.716046,44.759811],[-104.720509,44.759787],[-104.720513,44.761662],[-104.720516,44.763435],[-104.720532,44.765282],[-104.720547,44.767084],[-104.720561,44.768901],[-104.720574,44.770733],[-104.720599,44.772521]]]}},{"type":"Feature","properties":{"sec":"24","frstdivid":"WY060550N0650W0SN240"},"geometry":{"type":"Polygon","coordinates":[[[-104.604916,44.733563],[-104.609843,44.733455],[-104.61477,44.733347],[-104.619696,44.733239],[-104.619713,44.736929],[-104.619729,44.740619],[-104.619746,44.74431],[-104.619762,44.748],[-104.614821,44.74806],[-104.60988,44.748119],[-104.60494,44.748179],[-104.599999,44.748239],[-104.600016,44.744603],[-104.600033,44.740968],[-104.600011,44.737319],[-104.599989,44.733671],[-104.604916,44.733563]]]}},{"type":"Feature","properties":{"sec":"27","frstdivid":"WY060550N0650W0SN270"},"geometry":{"type":"Polygon","coordinates":[[[-104.639459,44.73289],[-104.639536,44.729116],[-104.639612,44.725343],[-104.639689,44.72157],[-104.639766,44.717796],[-104.64465,44.717551],[-104.649535,44.717306],[-104.65442,44.717061],[-104.659304,44.716816],[-104.65922,44.72034],[-104.659135,44.723863],[-104.659148,44.727439],[-104.659161,44.731015],[-104.654236,44.731483],[-104.64931,44.731952],[-104.644385,44.732421],[-104.639459,44.73289]]]}},{"type":"Feature","properties":{"sec":"29","frstdivid":"WY060550N0650W0SN290"},"geometry":{"type":"Polygon","coordinates":[[[-104.699843,44.730721],[-104.694763,44.730769],[-104.689683,44.730818],[-104.684602,44.730866],[-104.679522,44.730914],[-104.67948,44.727286],[-104.679438,44.723658],[-104.679455,44.720091],[-104.679472,44.716524],[-104.684554,44.716427],[-104.689635,44.71633],[-104.694716,44.716233],[-104.699798,44.716136],[-104.699809,44.719782],[-104.69982,44.723428],[-104.699832,44.727075],[-104.699843,44.730721]]]}},{"type":"Feature","properties":{"sec":"32","frstdivid":"WY060550N0650W0SN320"},"geometry":{"type":"Polygon","coordinates":[[[-104.679646,44.705825],[-104.679704,44.702259],[-104.684719,44.702231],[-104.689734,44.702202],[-104.694748,44.702174],[-104.699763,44.702146],[-104.699771,44.705644],[-104.69978,44.709141],[-104.699789,44.712638],[-104.699798,44.716136],[-104.694716,44.716233],[-104.689635,44.71633],[-104.684554,44.716427],[-104.679472,44.716524],[-104.67953,44.712958],[-104.679588,44.709392],[-104.679646,44.705825]]]}},{"type":"Feature","properties":{"sec":"28","frstdivid":"WY060550N0650W0SN280"},"geometry":{"type":"Polygon","coordinates":[[[-104.664346,44.716743],[-104.669388,44.71667],[-104.67443,44.716597],[-104.679472,44.716524],[-104.679455,44.720091],[-104.679438,44.723658],[-104.67948,44.727286],[-104.679522,44.730914],[-104.674432,44.730939],[-104.669342,44.730965],[-104.664252,44.73099],[-104.659161,44.731015],[-104.659148,44.727439],[-104.659135,44.723863],[-104.65922,44.72034],[-104.659304,44.716816],[-104.664346,44.716743]]]}},{"type":"Feature","properties":{"sec":"30","frstdivid":"WY060550N0650W0SN300"},"geometry":{"type":"Polygon","coordinates":[[[-104.719971,44.725468],[-104.72,44.727096],[-104.720034,44.729087],[-104.72006,44.73072],[-104.715282,44.730687],[-104.710078,44.730652],[-104.70496,44.730687],[-104.699843,44.730721],[-104.699832,44.727075],[-104.69982,44.723428],[-104.699809,44.719782],[-104.699798,44.716136],[-104.704895,44.716158],[-104.709992,44.716181],[-104.715088,44.716206],[-104.719789,44.716229],[-104.719831,44.71823],[-104.719864,44.719851],[-104.719904,44.721849],[-104.719937,44.723472],[-104.719971,44.725468]]]}},{"type":"Feature","properties":{"sec":"11","frstdivid":"WY060550N0650W0SN110"},"geometry":{"type":"Polygon","coordinates":[[[-104.630346,44.7629],[-104.635477,44.762987],[-104.640609,44.763073],[-104.640535,44.766662],[-104.64046,44.770251],[-104.640386,44.773841],[-104.640311,44.77743],[-104.635232,44.777451],[-104.630152,44.777472],[-104.625072,44.777493],[-104.619993,44.777515],[-104.620015,44.773818],[-104.620037,44.770121],[-104.62006,44.766424],[-104.620082,44.762727],[-104.625214,44.762814],[-104.630346,44.7629]]]}},{"type":"Feature","properties":{"sec":"22","frstdivid":"WY060550N0650W0SN220"},"geometry":{"type":"Polygon","coordinates":[[[-104.659096,44.734744],[-104.659032,44.738473],[-104.658998,44.742114],[-104.658964,44.745755],[-104.654099,44.746311],[-104.649234,44.746868],[-104.644369,44.747425],[-104.639504,44.747982],[-104.639493,44.744209],[-104.639482,44.740436],[-104.639471,44.736663],[-104.639459,44.73289],[-104.644385,44.732421],[-104.64931,44.731952],[-104.654236,44.731483],[-104.659161,44.731015],[-104.659096,44.734744]]]}},{"type":"Feature","properties":{"sec":"31","frstdivid":"WY060550N0650W0SN310"},"geometry":{"type":"Polygon","coordinates":[[[-104.719887,44.712682],[-104.71983,44.714611],[-104.719789,44.716229],[-104.715088,44.716206],[-104.709992,44.716181],[-104.704895,44.716158],[-104.699798,44.716136],[-104.699789,44.712638],[-104.69978,44.709141],[-104.699771,44.705644],[-104.699763,44.702146],[-104.704778,44.702136],[-104.709793,44.702126],[-104.715065,44.702121],[-104.719931,44.702116],[-104.719947,44.703754],[-104.719961,44.705625],[-104.719975,44.707374],[-104.719992,44.709134],[-104.719937,44.710992],[-104.719887,44.712682]]]}},{"type":"Feature","properties":{"sec":"26","frstdivid":"WY060550N0650W0SN260"},"geometry":{"type":"Polygon","coordinates":[[[-104.639689,44.72157],[-104.639612,44.725343],[-104.639536,44.729116],[-104.639459,44.73289],[-104.634519,44.732977],[-104.629578,44.733064],[-104.624637,44.733152],[-104.619696,44.733239],[-104.619699,44.729549],[-104.619702,44.725858],[-104.619704,44.722168],[-104.619707,44.718478],[-104.624722,44.718307],[-104.629736,44.718137],[-104.634751,44.717967],[-104.639766,44.717796],[-104.639689,44.72157]]]}},{"type":"Feature","properties":{"sec":"20","frstdivid":"WY060550N0650W0SN200"},"geometry":{"type":"Polygon","coordinates":[[[-104.699847,44.745265],[-104.694677,44.745305],[-104.689507,44.745345],[-104.684337,44.745385],[-104.679167,44.745425],[-104.679256,44.741797],[-104.679345,44.73817],[-104.679434,44.734542],[-104.679522,44.730914],[-104.684602,44.730866],[-104.689683,44.730818],[-104.694763,44.730769],[-104.699843,44.730721],[-104.699844,44.734357],[-104.699845,44.737993],[-104.699846,44.741629],[-104.699847,44.745265]]]}},{"type":"Feature","properties":{"sec":"19","frstdivid":"WY060550N0650W0SN190"},"geometry":{"type":"Polygon","coordinates":[[[-104.699846,44.741629],[-104.699845,44.737993],[-104.699844,44.734357],[-104.699843,44.730721],[-104.70496,44.730687],[-104.710078,44.730652],[-104.715282,44.730687],[-104.72006,44.73072],[-104.720102,44.732706],[-104.720137,44.734339],[-104.720187,44.736326],[-104.720227,44.737959],[-104.720269,44.739945],[-104.720303,44.741577],[-104.720337,44.743564],[-104.72037,44.745192],[-104.715629,44.745206],[-104.71037,44.745222],[-104.705109,44.745243],[-104.699847,44.745265],[-104.699846,44.741629]]]}},{"type":"Feature","properties":{"sec":"34","frstdivid":"WY060550N0650W0SN340"},"geometry":{"type":"Polygon","coordinates":[[[-104.659471,44.713213],[-104.659304,44.716816],[-104.65442,44.717061],[-104.649535,44.717306],[-104.64465,44.717551],[-104.639766,44.717796],[-104.639697,44.714115],[-104.639628,44.710434],[-104.63956,44.706753],[-104.639491,44.703072],[-104.644529,44.702897],[-104.649567,44.702722],[-104.654605,44.702547],[-104.659643,44.702372],[-104.65964,44.705991],[-104.659638,44.70961],[-104.659471,44.713213]]]}},{"type":"Feature","properties":{"sec":"23","frstdivid":"WY060550N0650W0SN230"},"geometry":{"type":"Polygon","coordinates":[[[-104.639504,44.747982],[-104.634569,44.747986],[-104.629633,44.747991],[-104.624698,44.747995],[-104.619762,44.748],[-104.619746,44.74431],[-104.619729,44.740619],[-104.619713,44.736929],[-104.619696,44.733239],[-104.624637,44.733152],[-104.629578,44.733064],[-104.634519,44.732977],[-104.639459,44.73289],[-104.639471,44.736663],[-104.639482,44.740436],[-104.639493,44.744209],[-104.639504,44.747982]]]}},{"type":"Feature","properties":{"sec":"33","frstdivid":"WY060550N0650W0SN330"},"geometry":{"type":"Polygon","coordinates":[[[-104.679704,44.702259],[-104.679646,44.705825],[-104.679588,44.709392],[-104.67953,44.712958],[-104.679472,44.716524],[-104.67443,44.716597],[-104.669388,44.71667],[-104.664346,44.716743],[-104.659304,44.716816],[-104.659471,44.713213],[-104.659638,44.70961],[-104.65964,44.705991],[-104.659643,44.702372],[-104.664658,44.702343],[-104.669674,44.702315],[-104.674689,44.702287],[-104.679704,44.702259]]]}},{"type":"Feature","properties":{"sec":"25","frstdivid":"WY060550N0650W0SN250"},"geometry":{"type":"Polygon","coordinates":[[[-104.599687,44.722683],[-104.599586,44.71902],[-104.604616,44.718884],[-104.609647,44.718749],[-104.614677,44.718613],[-104.619707,44.718478],[-104.619704,44.722168],[-104.619702,44.725858],[-104.619699,44.729549],[-104.619696,44.733239],[-104.61477,44.733347],[-104.609843,44.733455],[-104.604916,44.733563],[-104.599989,44.733671],[-104.599888,44.730008],[-104.599787,44.726346],[-104.599687,44.722683]]]}},{"type":"Feature","properties":{"sec":"36","frstdivid":"WY060550N0650W0SN360"},"geometry":{"type":"Polygon","coordinates":[[[-104.619615,44.714788],[-104.619707,44.718478],[-104.614677,44.718613],[-104.609647,44.718749],[-104.604616,44.718884],[-104.599586,44.71902],[-104.599491,44.715357],[-104.599396,44.711694],[-104.599301,44.708032],[-104.599206,44.704369],[-104.604239,44.704206],[-104.609272,44.704044],[-104.614306,44.703881],[-104.619339,44.703718],[-104.619431,44.707408],[-104.619523,44.711098],[-104.619615,44.714788]]]}},{"type":"Feature","properties":{"sec":"35","frstdivid":"WY060550N0650W0SN350"},"geometry":{"type":"Polygon","coordinates":[[[-104.624722,44.718307],[-104.619707,44.718478],[-104.619615,44.714788],[-104.619523,44.711098],[-104.619431,44.707408],[-104.619339,44.703718],[-104.624377,44.703557],[-104.629415,44.703395],[-104.634453,44.703234],[-104.639491,44.703072],[-104.63956,44.706753],[-104.639628,44.710434],[-104.639697,44.714115],[-104.639766,44.717796],[-104.634751,44.717967],[-104.629736,44.718137],[-104.624722,44.718307]]]}},{"type":"Feature","properties":{"sec":"21","frstdivid":"WY060550N0650W0SN210"},"geometry":{"type":"Polygon","coordinates":[[[-104.679256,44.741797],[-104.679167,44.745425],[-104.674117,44.745507],[-104.669066,44.74559],[-104.664015,44.745672],[-104.658964,44.745755],[-104.658998,44.742114],[-104.659032,44.738473],[-104.659096,44.734744],[-104.659161,44.731015],[-104.664252,44.73099],[-104.669342,44.730965],[-104.674432,44.730939],[-104.679522,44.730914],[-104.679434,44.734542],[-104.679345,44.73817],[-104.679256,44.741797]]]}},{"type":"Feature","properties":{"sec":"04","frstdivid":"WY060550N0650W0SN040"},"geometry":{"type":"Polygon","coordinates":[[[-104.678995,44.77464],[-104.679147,44.77836],[-104.679299,44.78208],[-104.679455,44.785788],[-104.679612,44.789511],[-104.674505,44.789542],[-104.669397,44.789574],[-104.66429,44.789605],[-104.659183,44.789637],[-104.659295,44.785977],[-104.659407,44.782321],[-104.659518,44.778664],[-104.659628,44.775007],[-104.66447,44.774915],[-104.669312,44.774823],[-104.674153,44.774731],[-104.678995,44.77464]]]}},{"type":"Feature","properties":{"sec":"03","frstdivid":"WY060550N0650W0SN030"},"geometry":{"type":"Polygon","coordinates":[[[-104.64997,44.776218],[-104.654799,44.775612],[-104.659628,44.775007],[-104.659518,44.778664],[-104.659407,44.782321],[-104.659295,44.785977],[-104.659183,44.789637],[-104.654213,44.789928],[-104.649243,44.790218],[-104.644274,44.790509],[-104.639304,44.790799],[-104.639551,44.787463],[-104.639798,44.784118],[-104.640055,44.780774],[-104.640311,44.77743],[-104.645141,44.776824],[-104.64997,44.776218]]]}},{"type":"Feature","properties":{"sec":"16","frstdivid":"WY060550N0650W0SN160"},"geometry":{"type":"Polygon","coordinates":[[[-104.679167,44.745425],[-104.679592,44.749077],[-104.680017,44.752729],[-104.680442,44.756382],[-104.680868,44.760034],[-104.675819,44.760121],[-104.670771,44.760208],[-104.665722,44.760295],[-104.660673,44.760382],[-104.660246,44.756725],[-104.659819,44.753068],[-104.659392,44.749412],[-104.658964,44.745755],[-104.664015,44.745672],[-104.669066,44.74559],[-104.674117,44.745507],[-104.679167,44.745425]]]}},{"type":"Feature","properties":{"sec":"18","frstdivid":"WY060550N0650W0SN180"},"geometry":{"type":"Polygon","coordinates":[[[-104.720416,44.750803],[-104.720435,44.752489],[-104.720459,44.754422],[-104.720481,44.756165],[-104.720501,44.758042],[-104.720509,44.759787],[-104.716046,44.759811],[-104.711014,44.759838],[-104.705981,44.75986],[-104.700947,44.759882],[-104.700672,44.756228],[-104.700397,44.752574],[-104.700122,44.748919],[-104.699847,44.745265],[-104.705109,44.745243],[-104.71037,44.745222],[-104.715629,44.745206],[-104.72037,44.745192],[-104.720383,44.747183],[-104.720394,44.748841],[-104.720416,44.750803]]]}},{"type":"Feature","properties":{"sec":"08","frstdivid":"WY060550N0650W0SN080"},"geometry":{"type":"Polygon","coordinates":[[[-104.689265,44.774568],[-104.68413,44.774604],[-104.678995,44.77464],[-104.679463,44.770988],[-104.679931,44.767337],[-104.680399,44.763685],[-104.680868,44.760034],[-104.685888,44.759996],[-104.690907,44.759958],[-104.695927,44.75992],[-104.700947,44.759882],[-104.700594,44.763536],[-104.700241,44.767189],[-104.699888,44.770843],[-104.699535,44.774497],[-104.6944,44.774532],[-104.689265,44.774568]]]}},{"type":"Feature","properties":{"sec":"10","frstdivid":"WY060550N0650W0SN100"},"geometry":{"type":"Polygon","coordinates":[[[-104.645141,44.776824],[-104.640311,44.77743],[-104.640386,44.773841],[-104.64046,44.770251],[-104.640535,44.766662],[-104.640609,44.763073],[-104.645625,44.762401],[-104.650641,44.761728],[-104.655657,44.761055],[-104.660673,44.760382],[-104.660412,44.764038],[-104.660151,44.767694],[-104.659889,44.77135],[-104.659628,44.775007],[-104.654799,44.775612],[-104.64997,44.776218],[-104.645141,44.776824]]]}},{"type":"Feature","properties":{"sec":"01","frstdivid":"WY060550N0650W0SN010"},"geometry":{"type":"Polygon","coordinates":[[[-104.619421,44.791972],[-104.614599,44.791991],[-104.609778,44.792009],[-104.604956,44.792027],[-104.600134,44.792046],[-104.60004,44.788422],[-104.599945,44.784798],[-104.599854,44.781174],[-104.599762,44.77755],[-104.60482,44.777541],[-104.609877,44.777533],[-104.614935,44.777524],[-104.619993,44.777515],[-104.619845,44.781125],[-104.619696,44.784736],[-104.619559,44.788347],[-104.619421,44.791972]]]}},{"type":"Feature","properties":{"sec":"05","frstdivid":"WY060550N0650W0SN050"},"geometry":{"type":"Polygon","coordinates":[[[-104.679299,44.78208],[-104.679147,44.77836],[-104.678995,44.77464],[-104.68413,44.774604],[-104.689265,44.774568],[-104.6944,44.774532],[-104.699535,44.774497],[-104.699665,44.778188],[-104.699796,44.78188],[-104.699915,44.785569],[-104.700037,44.789307],[-104.69493,44.789358],[-104.689824,44.789409],[-104.684718,44.78946],[-104.679612,44.789511],[-104.679455,44.785788],[-104.679299,44.78208]]]}},{"type":"Feature","properties":{"sec":"13","frstdivid":"WY060550N0650W0SN130"},"geometry":{"type":"Polygon","coordinates":[[[-104.620194,44.759055],[-104.620082,44.762727],[-104.615081,44.762782],[-104.610079,44.762836],[-104.604948,44.762889],[-104.599817,44.762941],[-104.59984,44.759272],[-104.599862,44.755602],[-104.599931,44.75192],[-104.599999,44.748239],[-104.60494,44.748179],[-104.60988,44.748119],[-104.614821,44.74806],[-104.619762,44.748],[-104.620034,44.751691],[-104.620306,44.755382],[-104.620194,44.759055]]]}},{"type":"Feature","properties":{"sec":"14","frstdivid":"WY060550N0650W0SN140"},"geometry":{"type":"Polygon","coordinates":[[[-104.625214,44.762814],[-104.620082,44.762727],[-104.620194,44.759055],[-104.620306,44.755382],[-104.620034,44.751691],[-104.619762,44.748],[-104.624698,44.747995],[-104.629633,44.747991],[-104.634569,44.747986],[-104.639504,44.747982],[-104.639781,44.751754],[-104.640057,44.755527],[-104.640333,44.7593],[-104.640609,44.763073],[-104.635477,44.762987],[-104.630346,44.7629],[-104.625214,44.762814]]]}},{"type":"Feature","properties":{"sec":"15","frstdivid":"WY060550N0650W0SN150"},"geometry":{"type":"Polygon","coordinates":[[[-104.640057,44.755527],[-104.639781,44.751754],[-104.639504,44.747982],[-104.644369,44.747425],[-104.649234,44.746868],[-104.654099,44.746311],[-104.658964,44.745755],[-104.659392,44.749412],[-104.659819,44.753068],[-104.660246,44.756725],[-104.660673,44.760382],[-104.655657,44.761055],[-104.650641,44.761728],[-104.645625,44.762401],[-104.640609,44.763073],[-104.640333,44.7593],[-104.640057,44.755527]]]}},{"type":"Feature","properties":{"sec":"17","frstdivid":"WY060550N0650W0SN170"},"geometry":{"type":"Polygon","coordinates":[[[-104.700947,44.759882],[-104.695927,44.75992],[-104.690907,44.759958],[-104.685888,44.759996],[-104.680868,44.760034],[-104.680442,44.756382],[-104.680017,44.752729],[-104.679592,44.749077],[-104.679167,44.745425],[-104.684337,44.745385],[-104.689507,44.745345],[-104.694677,44.745305],[-104.699847,44.745265],[-104.700122,44.748919],[-104.700397,44.752574],[-104.700672,44.756228],[-104.700947,44.759882]]]}},{"type":"Feature","properties":{"sec":"06","frstdivid":"WY060550N0650W0SN060"},"geometry":{"type":"Polygon","coordinates":[[[-104.720617,44.779761],[-104.720622,44.781773],[-104.720616,44.783381],[-104.720609,44.785442],[-104.720603,44.787001],[-104.72059,44.789111],[-104.715917,44.789155],[-104.710623,44.789205],[-104.70533,44.789256],[-104.700037,44.789307],[-104.699915,44.785569],[-104.699796,44.78188],[-104.699665,44.778188],[-104.699535,44.774497],[-104.705045,44.774453],[-104.710556,44.774408],[-104.715894,44.774394],[-104.720605,44.774382],[-104.720609,44.776141],[-104.720612,44.777907],[-104.720617,44.779761]]]}},{"type":"Feature","properties":{"sec":"09","frstdivid":"WY060550N0650W0SN090"},"geometry":{"type":"Polygon","coordinates":[[[-104.674153,44.774731],[-104.669312,44.774823],[-104.66447,44.774915],[-104.659628,44.775007],[-104.659889,44.77135],[-104.660151,44.767694],[-104.660412,44.764038],[-104.660673,44.760382],[-104.665722,44.760295],[-104.670771,44.760208],[-104.675819,44.760121],[-104.680868,44.760034],[-104.680399,44.763685],[-104.679931,44.767337],[-104.679463,44.770988],[-104.678995,44.77464],[-104.674153,44.774731]]]}},{"type":"Feature","properties":{"sec":"02","frstdivid":"WY060550N0650W0SN020"},"geometry":{"type":"Polygon","coordinates":[[[-104.639798,44.784118],[-104.639551,44.787463],[-104.639304,44.790799],[-104.634333,44.791092],[-104.629362,44.791386],[-104.624392,44.791679],[-104.619421,44.791972],[-104.619559,44.788347],[-104.619696,44.784736],[-104.619845,44.781125],[-104.619993,44.777515],[-104.625072,44.777493],[-104.630152,44.777472],[-104.635232,44.777451],[-104.640311,44.77743],[-104.640055,44.780774],[-104.639798,44.784118]]]}}]}