{"type":"FeatureCollection","note":"BLM Public Land Survey System. Provided by the Bureau of Land Management as is. These data are neither legal documents nor land surveys and must not be used as such.","features":[{"type":"Feature","properties":{"sec":"04","frstdivid":"MT200070N0500E0SN040"},"geometry":{"type":"Polygon","coordinates":[[[-105.486365,46.398175],[-105.481188,46.398149],[-105.47601,46.398124],[-105.470813,46.398167],[-105.465616,46.39821],[-105.466281,46.394893],[-105.466935,46.391633],[-105.466946,46.388023],[-105.466956,46.384414],[-105.472411,46.384278],[-105.477866,46.384143],[-105.482946,46.38418],[-105.488026,46.384217],[-105.488051,46.387841],[-105.488075,46.391466],[-105.487217,46.394834],[-105.486365,46.398175]]]}},{"type":"Feature","properties":{"sec":"29","frstdivid":"MT200070N0500E0SN290"},"geometry":{"type":"Polygon","coordinates":[[[-105.49252,46.340301],[-105.487924,46.340715],[-105.487967,46.337033],[-105.488011,46.333351],[-105.488075,46.329677],[-105.488138,46.326003],[-105.493341,46.325908],[-105.498543,46.325814],[-105.503745,46.325719],[-105.508948,46.325624],[-105.508916,46.328934],[-105.508885,46.332244],[-105.508844,46.336045],[-105.508803,46.339847],[-105.502959,46.339867],[-105.497116,46.339887],[-105.49252,46.340301]]]}},{"type":"Feature","properties":{"sec":"32","frstdivid":"MT200070N0500E0SN320"},"geometry":{"type":"Polygon","coordinates":[[[-105.488288,46.318798],[-105.487898,46.314707],[-105.487509,46.310616],[-105.492877,46.31091],[-105.498246,46.311204],[-105.503589,46.311168],[-105.508931,46.311131],[-105.508926,46.314663],[-105.508921,46.318195],[-105.508934,46.32191],[-105.508948,46.325624],[-105.503745,46.325719],[-105.498543,46.325814],[-105.493341,46.325908],[-105.488138,46.326003],[-105.488213,46.322401],[-105.488288,46.318798]]]}},{"type":"Feature","properties":{"sec":"03","frstdivid":"MT200070N0500E0SN030"},"geometry":{"type":"Polygon","coordinates":[[[-105.446033,46.387963],[-105.446002,46.38432],[-105.45139,46.384111],[-105.456778,46.383902],[-105.461867,46.384158],[-105.466956,46.384414],[-105.466946,46.388023],[-105.466935,46.391633],[-105.466281,46.394893],[-105.465616,46.39821],[-105.460345,46.398259],[-105.455074,46.398308],[-105.449805,46.398309],[-105.444536,46.398311],[-105.445295,46.394979],[-105.446064,46.391605],[-105.446033,46.387963]]]}},{"type":"Feature","properties":{"sec":"06","frstdivid":"MT200070N0500E0SN060"},"geometry":{"type":"Polygon","coordinates":[[[-105.524712,46.383766],[-105.529453,46.383767],[-105.5292,46.387314],[-105.528946,46.390862],[-105.5288,46.394484],[-105.528654,46.398105],[-105.524075,46.39811],[-105.51869,46.398117],[-105.513304,46.398126],[-105.507919,46.398136],[-105.5085,46.394597],[-105.509075,46.391094],[-105.509033,46.387427],[-105.508991,46.383759],[-105.514231,46.383763],[-105.519472,46.383766],[-105.524712,46.383766]]]}},{"type":"Feature","properties":{"sec":"24","frstdivid":"MT200070N0500E0SN240"},"geometry":{"type":"Polygon","coordinates":[[[-105.405063,46.343534],[-105.405063,46.342025],[-105.405064,46.339928],[-105.410211,46.339944],[-105.415359,46.33996],[-105.420506,46.339977],[-105.425653,46.339993],[-105.425632,46.343571],[-105.425611,46.34715],[-105.425664,46.350868],[-105.425717,46.354586],[-105.420557,46.354533],[-105.415398,46.35448],[-105.410238,46.354428],[-105.405078,46.354375],[-105.405074,46.352877],[-105.405069,46.350757],[-105.405066,46.349259],[-105.405064,46.347139],[-105.405064,46.345642],[-105.405063,46.343534]]]}},{"type":"Feature","properties":{"sec":"20","frstdivid":"MT200070N0500E0SN200"},"geometry":{"type":"Polygon","coordinates":[[[-105.50879,46.350782],[-105.508766,46.354402],[-105.503862,46.354413],[-105.498959,46.354423],[-105.49344,46.354892],[-105.487922,46.355361],[-105.487916,46.351719],[-105.487909,46.348078],[-105.487916,46.344396],[-105.487924,46.340715],[-105.49252,46.340301],[-105.497116,46.339887],[-105.502959,46.339867],[-105.508803,46.339847],[-105.508809,46.343505],[-105.508815,46.347163],[-105.50879,46.350782]]]}},{"type":"Feature","properties":{"sec":"25","frstdivid":"MT200070N0500E0SN250"},"geometry":{"type":"Polygon","coordinates":[[[-105.420482,46.325634],[-105.425752,46.325583],[-105.425727,46.329185],[-105.425703,46.332788],[-105.425678,46.33639],[-105.425653,46.339993],[-105.420506,46.339977],[-105.415359,46.33996],[-105.410211,46.339944],[-105.405064,46.339928],[-105.405021,46.338392],[-105.404964,46.33638],[-105.404918,46.334759],[-105.404867,46.332833],[-105.404818,46.331126],[-105.404767,46.32931],[-105.404715,46.327494],[-105.40467,46.325788],[-105.409941,46.325737],[-105.415211,46.325685],[-105.420482,46.325634]]]}},{"type":"Feature","properties":{"sec":"27","frstdivid":"MT200070N0500E0SN270"},"geometry":{"type":"Polygon","coordinates":[[[-105.467081,46.329511],[-105.467107,46.333163],[-105.467083,46.336699],[-105.46706,46.340234],[-105.461875,46.340296],[-105.45669,46.340357],[-105.451505,46.340419],[-105.44632,46.34048],[-105.446584,46.336792],[-105.446848,46.333104],[-105.446628,46.329441],[-105.446408,46.325779],[-105.451469,46.32577],[-105.45653,46.325762],[-105.461793,46.32581],[-105.467056,46.325858],[-105.467081,46.329511]]]}},{"type":"Feature","properties":{"sec":"30","frstdivid":"MT200070N0500E0SN300"},"geometry":{"type":"Polygon","coordinates":[[[-105.529491,46.340069],[-105.524565,46.340016],[-105.519313,46.339959],[-105.514058,46.339903],[-105.508803,46.339847],[-105.508844,46.336045],[-105.508885,46.332244],[-105.508916,46.328934],[-105.508948,46.325624],[-105.514191,46.325635],[-105.519434,46.325645],[-105.524677,46.325662],[-105.529527,46.325678],[-105.529552,46.329279],[-105.529576,46.332879],[-105.529533,46.336474],[-105.529491,46.340069]]]}},{"type":"Feature","properties":{"sec":"28","frstdivid":"MT200070N0500E0SN280"},"geometry":{"type":"Polygon","coordinates":[[[-105.46706,46.340234],[-105.467083,46.336699],[-105.467107,46.333163],[-105.467081,46.329511],[-105.467056,46.325858],[-105.472393,46.325991],[-105.477731,46.326123],[-105.482935,46.326063],[-105.488138,46.326003],[-105.488075,46.329677],[-105.488011,46.333351],[-105.487967,46.337033],[-105.487924,46.340715],[-105.482708,46.340595],[-105.477492,46.340475],[-105.472276,46.340355],[-105.46706,46.340234]]]}},{"type":"Feature","properties":{"sec":"19","frstdivid":"MT200070N0500E0SN190"},"geometry":{"type":"Polygon","coordinates":[[[-105.508766,46.354402],[-105.50879,46.350782],[-105.508815,46.347163],[-105.508809,46.343505],[-105.508803,46.339847],[-105.514058,46.339903],[-105.519313,46.339959],[-105.524565,46.340016],[-105.529491,46.340069],[-105.529502,46.343703],[-105.529513,46.347336],[-105.529525,46.35097],[-105.529536,46.354603],[-105.524639,46.354559],[-105.519347,46.354512],[-105.514056,46.354457],[-105.508766,46.354402]]]}},{"type":"Feature","properties":{"sec":"05","frstdivid":"MT200070N0500E0SN050"},"geometry":{"type":"Polygon","coordinates":[[[-105.50375,46.383874],[-105.508991,46.383759],[-105.509033,46.387427],[-105.509075,46.391094],[-105.5085,46.394597],[-105.507919,46.398136],[-105.50253,46.398146],[-105.497142,46.398155],[-105.491754,46.398165],[-105.486365,46.398175],[-105.487217,46.394834],[-105.488075,46.391466],[-105.488051,46.387841],[-105.488026,46.384217],[-105.493267,46.384102],[-105.498509,46.383988],[-105.50375,46.383874]]]}},{"type":"Feature","properties":{"sec":"02","frstdivid":"MT200070N0500E0SN020"},"geometry":{"type":"Polygon","coordinates":[[[-105.440385,46.384333],[-105.446002,46.38432],[-105.446033,46.387963],[-105.446064,46.391605],[-105.445295,46.394979],[-105.444536,46.398311],[-105.439267,46.398317],[-105.433997,46.398322],[-105.428728,46.398328],[-105.423459,46.398334],[-105.423478,46.39491],[-105.423498,46.391398],[-105.423515,46.387884],[-105.423533,46.384371],[-105.42915,46.384358],[-105.434767,46.384346],[-105.440385,46.384333]]]}},{"type":"Feature","properties":{"sec":"01","frstdivid":"MT200070N0500E0SN010"},"geometry":{"type":"Polygon","coordinates":[[[-105.403761,46.385405],[-105.40392,46.383533],[-105.408823,46.383743],[-105.413726,46.383952],[-105.41863,46.384162],[-105.423533,46.384371],[-105.423515,46.387884],[-105.423498,46.391398],[-105.423478,46.39491],[-105.423459,46.398334],[-105.418253,46.39833],[-105.413046,46.398325],[-105.40784,46.39832],[-105.402634,46.398315],[-105.402812,46.396252],[-105.402954,46.394621],[-105.403127,46.392636],[-105.403275,46.390926],[-105.403442,46.38902],[-105.4036,46.387229],[-105.403761,46.385405]]]}},{"type":"Feature","properties":{"sec":"11","frstdivid":"MT200070N0500E0SN110"},"geometry":{"type":"Polygon","coordinates":[[[-105.434767,46.384346],[-105.42915,46.384358],[-105.423533,46.384371],[-105.42401,46.380647],[-105.424488,46.376923],[-105.424965,46.373199],[-105.425443,46.369474],[-105.430544,46.369555],[-105.435645,46.369636],[-105.440746,46.369717],[-105.445848,46.369797],[-105.445895,46.37344],[-105.445942,46.377083],[-105.445972,46.380702],[-105.446002,46.38432],[-105.440385,46.384333],[-105.434767,46.384346]]]}},{"type":"Feature","properties":{"sec":"31","frstdivid":"MT200070N0500E0SN310"},"geometry":{"type":"Polygon","coordinates":[[[-105.52493,46.311185],[-105.529483,46.311194],[-105.529471,46.314809],[-105.529459,46.318424],[-105.529493,46.322051],[-105.529527,46.325678],[-105.524677,46.325662],[-105.519434,46.325645],[-105.514191,46.325635],[-105.508948,46.325624],[-105.508934,46.32191],[-105.508921,46.318195],[-105.508926,46.314663],[-105.508931,46.311131],[-105.514466,46.311153],[-105.520001,46.311174],[-105.52493,46.311185]]]}},{"type":"Feature","properties":{"sec":"33","frstdivid":"MT200070N0500E0SN330"},"geometry":{"type":"Polygon","coordinates":[[[-105.487509,46.310616],[-105.487898,46.314707],[-105.488288,46.318798],[-105.488213,46.322401],[-105.488138,46.326003],[-105.482935,46.326063],[-105.477731,46.326123],[-105.472393,46.325991],[-105.467056,46.325858],[-105.467067,46.322134],[-105.467079,46.318409],[-105.467015,46.314774],[-105.46695,46.311138],[-105.472123,46.311118],[-105.477296,46.311097],[-105.482402,46.310857],[-105.487509,46.310616]]]}},{"type":"Feature","properties":{"sec":"16","frstdivid":"MT200070N0500E0SN160"},"geometry":{"type":"Polygon","coordinates":[[[-105.487922,46.355361],[-105.487945,46.358982],[-105.487967,46.362603],[-105.48799,46.366224],[-105.488012,46.369845],[-105.482751,46.369829],[-105.47749,46.369812],[-105.472229,46.369796],[-105.466967,46.369779],[-105.466976,46.366162],[-105.466985,46.362545],[-105.466998,46.358903],[-105.467011,46.355261],[-105.472291,46.355265],[-105.477572,46.355268],[-105.482747,46.355315],[-105.487922,46.355361]]]}},{"type":"Feature","properties":{"sec":"14","frstdivid":"MT200070N0500E0SN140"},"geometry":{"type":"Polygon","coordinates":[[[-105.440746,46.369717],[-105.435645,46.369636],[-105.430544,46.369555],[-105.425443,46.369474],[-105.425511,46.365752],[-105.42558,46.36203],[-105.425649,46.358308],[-105.425717,46.354586],[-105.430873,46.354747],[-105.436029,46.354908],[-105.441184,46.35507],[-105.44634,46.355231],[-105.446094,46.358914],[-105.445847,46.362596],[-105.445847,46.366197],[-105.445848,46.369797],[-105.440746,46.369717]]]}},{"type":"Feature","properties":{"sec":"17","frstdivid":"MT200070N0500E0SN170"},"geometry":{"type":"Polygon","coordinates":[[[-105.49344,46.354892],[-105.498959,46.354423],[-105.503862,46.354413],[-105.508766,46.354402],[-105.508794,46.358093],[-105.508822,46.361784],[-105.50885,46.365476],[-105.508878,46.369167],[-105.503661,46.369336],[-105.498445,46.369506],[-105.493229,46.369676],[-105.488012,46.369845],[-105.48799,46.366224],[-105.487967,46.362603],[-105.487945,46.358982],[-105.487922,46.355361],[-105.49344,46.354892]]]}},{"type":"Feature","properties":{"sec":"13","frstdivid":"MT200070N0500E0SN130"},"geometry":{"type":"Polygon","coordinates":[[[-105.405083,46.367344],[-105.40508,46.365175],[-105.405078,46.363727],[-105.40508,46.361575],[-105.405078,46.360111],[-105.405076,46.357975],[-105.405074,46.356494],[-105.405078,46.354375],[-105.410238,46.354428],[-105.415398,46.35448],[-105.420557,46.354533],[-105.425717,46.354586],[-105.425649,46.358308],[-105.42558,46.36203],[-105.425511,46.365752],[-105.425443,46.369474],[-105.420353,46.3693],[-105.415263,46.369125],[-105.410174,46.36895],[-105.405084,46.368775],[-105.405083,46.367344]]]}},{"type":"Feature","properties":{"sec":"10","frstdivid":"MT200070N0500E0SN100"},"geometry":{"type":"Polygon","coordinates":[[[-105.46152,46.369704],[-105.466967,46.369779],[-105.466954,46.3734],[-105.466941,46.37702],[-105.466949,46.380717],[-105.466956,46.384414],[-105.461867,46.384158],[-105.456778,46.383902],[-105.45139,46.384111],[-105.446002,46.38432],[-105.445972,46.380702],[-105.445942,46.377083],[-105.445895,46.37344],[-105.445848,46.369797],[-105.45096,46.369713],[-105.456072,46.36963],[-105.46152,46.369704]]]}},{"type":"Feature","properties":{"sec":"07","frstdivid":"MT200070N0500E0SN070"},"geometry":{"type":"Polygon","coordinates":[[[-105.514231,46.383763],[-105.508991,46.383759],[-105.508941,46.380092],[-105.508891,46.376425],[-105.508884,46.372796],[-105.508878,46.369167],[-105.514139,46.369154],[-105.519401,46.369141],[-105.524671,46.369142],[-105.529492,46.369142],[-105.529476,46.372792],[-105.529459,46.376442],[-105.529456,46.380104],[-105.529453,46.383767],[-105.524712,46.383766],[-105.519472,46.383766],[-105.514231,46.383763]]]}},{"type":"Feature","properties":{"sec":"18","frstdivid":"MT200070N0500E0SN180"},"geometry":{"type":"Polygon","coordinates":[[[-105.524639,46.354559],[-105.529536,46.354603],[-105.529528,46.358236],[-105.52952,46.36187],[-105.529506,46.365506],[-105.529492,46.369142],[-105.524671,46.369142],[-105.519401,46.369141],[-105.514139,46.369154],[-105.508878,46.369167],[-105.50885,46.365476],[-105.508822,46.361784],[-105.508794,46.358093],[-105.508766,46.354402],[-105.514056,46.354457],[-105.519347,46.354512],[-105.524639,46.354559]]]}},{"type":"Feature","properties":{"sec":"36","frstdivid":"MT200070N0500E0SN360"},"geometry":{"type":"Polygon","coordinates":[[[-105.420487,46.311177],[-105.425744,46.311169],[-105.425746,46.314773],[-105.425748,46.318376],[-105.42575,46.321979],[-105.425752,46.325583],[-105.420482,46.325634],[-105.415211,46.325685],[-105.409941,46.325737],[-105.40467,46.325788],[-105.404656,46.323855],[-105.404646,46.32214],[-105.404624,46.318492],[-105.404604,46.314856],[-105.404584,46.311219],[-105.409907,46.311202],[-105.41523,46.311186],[-105.420487,46.311177]]]}},{"type":"Feature","properties":{"sec":"26","frstdivid":"MT200070N0500E0SN260"},"geometry":{"type":"Polygon","coordinates":[[[-105.441153,46.340358],[-105.435987,46.340236],[-105.43082,46.340115],[-105.425653,46.339993],[-105.425678,46.33639],[-105.425703,46.332788],[-105.425727,46.329185],[-105.425752,46.325583],[-105.431047,46.32563],[-105.436341,46.325678],[-105.441374,46.325729],[-105.446408,46.325779],[-105.446628,46.329441],[-105.446848,46.333104],[-105.446584,46.336792],[-105.44632,46.34048],[-105.441153,46.340358]]]}},{"type":"Feature","properties":{"sec":"35","frstdivid":"MT200070N0500E0SN350"},"geometry":{"type":"Polygon","coordinates":[[[-105.425748,46.318376],[-105.425746,46.314773],[-105.425744,46.311169],[-105.430932,46.311163],[-105.43612,46.311156],[-105.441308,46.31115],[-105.446496,46.311143],[-105.446474,46.314802],[-105.446452,46.318461],[-105.44643,46.32212],[-105.446408,46.325779],[-105.441374,46.325729],[-105.436341,46.325678],[-105.431047,46.32563],[-105.425752,46.325583],[-105.42575,46.321979],[-105.425748,46.318376]]]}},{"type":"Feature","properties":{"sec":"15","frstdivid":"MT200070N0500E0SN150"},"geometry":{"type":"Polygon","coordinates":[[[-105.445848,46.369797],[-105.445847,46.366197],[-105.445847,46.362596],[-105.446094,46.358914],[-105.44634,46.355231],[-105.451508,46.355238],[-105.456676,46.355246],[-105.461843,46.355254],[-105.467011,46.355261],[-105.466998,46.358903],[-105.466985,46.362545],[-105.466976,46.366162],[-105.466967,46.369779],[-105.46152,46.369704],[-105.456072,46.36963],[-105.45096,46.369713],[-105.445848,46.369797]]]}},{"type":"Feature","properties":{"sec":"22","frstdivid":"MT200070N0500E0SN220"},"geometry":{"type":"Polygon","coordinates":[[[-105.446325,46.344168],[-105.44632,46.34048],[-105.451505,46.340419],[-105.45669,46.340357],[-105.461875,46.340296],[-105.46706,46.340234],[-105.46705,46.344075],[-105.467039,46.347916],[-105.467025,46.351588],[-105.467011,46.355261],[-105.461843,46.355254],[-105.456676,46.355246],[-105.451508,46.355238],[-105.44634,46.355231],[-105.446335,46.351543],[-105.44633,46.347856],[-105.446325,46.344168]]]}},{"type":"Feature","properties":{"sec":"23","frstdivid":"MT200070N0500E0SN230"},"geometry":{"type":"Polygon","coordinates":[[[-105.425611,46.34715],[-105.425632,46.343571],[-105.425653,46.339993],[-105.43082,46.340115],[-105.435987,46.340236],[-105.441153,46.340358],[-105.44632,46.34048],[-105.446325,46.344168],[-105.44633,46.347856],[-105.446335,46.351543],[-105.44634,46.355231],[-105.441184,46.35507],[-105.436029,46.354908],[-105.430873,46.354747],[-105.425717,46.354586],[-105.425664,46.350868],[-105.425611,46.34715]]]}},{"type":"Feature","properties":{"sec":"08","frstdivid":"MT200070N0500E0SN080"},"geometry":{"type":"Polygon","coordinates":[[[-105.498509,46.383988],[-105.493267,46.384102],[-105.488026,46.384217],[-105.488018,46.380658],[-105.488009,46.377099],[-105.488011,46.373472],[-105.488012,46.369845],[-105.493229,46.369676],[-105.498445,46.369506],[-105.503661,46.369336],[-105.508878,46.369167],[-105.508884,46.372796],[-105.508891,46.376425],[-105.508941,46.380092],[-105.508991,46.383759],[-105.50375,46.383874],[-105.498509,46.383988]]]}},{"type":"Feature","properties":{"sec":"34","frstdivid":"MT200070N0500E0SN340"},"geometry":{"type":"Polygon","coordinates":[[[-105.461915,46.31113],[-105.46695,46.311138],[-105.467015,46.314774],[-105.467079,46.318409],[-105.467067,46.322134],[-105.467056,46.325858],[-105.461793,46.32581],[-105.45653,46.325762],[-105.451469,46.32577],[-105.446408,46.325779],[-105.44643,46.32212],[-105.446452,46.318461],[-105.446474,46.314802],[-105.446496,46.311143],[-105.451688,46.311132],[-105.45688,46.311121],[-105.461915,46.31113]]]}},{"type":"Feature","properties":{"sec":"09","frstdivid":"MT200070N0500E0SN090"},"geometry":{"type":"Polygon","coordinates":[[[-105.488012,46.369845],[-105.488011,46.373472],[-105.488009,46.377099],[-105.488018,46.380658],[-105.488026,46.384217],[-105.482946,46.38418],[-105.477866,46.384143],[-105.472411,46.384278],[-105.466956,46.384414],[-105.466949,46.380717],[-105.466941,46.37702],[-105.466954,46.3734],[-105.466967,46.369779],[-105.472229,46.369796],[-105.47749,46.369812],[-105.482751,46.369829],[-105.488012,46.369845]]]}},{"type":"Feature","properties":{"sec":"12","frstdivid":"MT200070N0500E0SN120"},"geometry":{"type":"Polygon","coordinates":[[[-105.420353,46.3693],[-105.425443,46.369474],[-105.424965,46.373199],[-105.424488,46.376923],[-105.42401,46.380647],[-105.423533,46.384371],[-105.41863,46.384162],[-105.413726,46.383952],[-105.408823,46.383743],[-105.40392,46.383533],[-105.404058,46.381794],[-105.404211,46.379853],[-105.404343,46.378183],[-105.404502,46.376174],[-105.404628,46.374572],[-105.404794,46.372474],[-105.404913,46.370961],[-105.405084,46.368775],[-105.410174,46.36895],[-105.415263,46.369125],[-105.420353,46.3693]]]}},{"type":"Feature","properties":{"sec":"21","frstdivid":"MT200070N0500E0SN210"},"geometry":{"type":"Polygon","coordinates":[[[-105.482708,46.340595],[-105.487924,46.340715],[-105.487916,46.344396],[-105.487909,46.348078],[-105.487916,46.351719],[-105.487922,46.355361],[-105.482747,46.355315],[-105.477572,46.355268],[-105.472291,46.355265],[-105.467011,46.355261],[-105.467025,46.351588],[-105.467039,46.347916],[-105.46705,46.344075],[-105.46706,46.340234],[-105.472276,46.340355],[-105.477492,46.340475],[-105.482708,46.340595]]]}}]}