{"type":"FeatureCollection","note":"BLM Public Land Survey System. Provided by the Bureau of Land Management as is. These data are neither legal documents nor land surveys and must not be used as such.","features":[{"type":"Feature","properties":{"sec":"31","frstdivid":"WY060290N0840W0SN310"},"geometry":{"type":"Polygon","coordinates":[[[-106.955913,42.433187],[-106.955835,42.436774],[-106.955758,42.44036],[-106.95568,42.443947],[-106.955603,42.447533],[-106.947332,42.447536],[-106.942453,42.447538],[-106.937527,42.447528],[-106.932602,42.447519],[-106.932546,42.443908],[-106.93249,42.440296],[-106.932434,42.436684],[-106.932379,42.433073],[-106.936252,42.433083],[-106.937269,42.433087],[-106.940128,42.433095],[-106.942679,42.433112],[-106.945007,42.433125],[-106.947564,42.43314],[-106.949886,42.433153],[-106.954762,42.433181],[-106.955913,42.433187]]]}},{"type":"Feature","properties":{"sec":"13","frstdivid":"WY060290N0840W0SN130"},"geometry":{"type":"Polygon","coordinates":[[[-106.854264,42.490884],[-106.849337,42.490788],[-106.844409,42.490695],[-106.839481,42.4906],[-106.834553,42.490507],[-106.834506,42.486896],[-106.834458,42.483284],[-106.834445,42.479674],[-106.834438,42.476064],[-106.839174,42.475994],[-106.843911,42.475923],[-106.848941,42.475869],[-106.853972,42.475814],[-106.853976,42.47975],[-106.853979,42.483686],[-106.854122,42.487285],[-106.854264,42.490884]]]}},{"type":"Feature","properties":{"sec":"18","frstdivid":"WY060290N0840W0SN180"},"geometry":{"type":"Polygon","coordinates":[[[-106.947809,42.476354],[-106.956081,42.476351],[-106.956072,42.479951],[-106.956063,42.48355],[-106.956055,42.48715],[-106.956046,42.490749],[-106.947704,42.490922],[-106.942765,42.49099],[-106.937868,42.490972],[-106.93297,42.490953],[-106.932971,42.487305],[-106.932971,42.483657],[-106.933007,42.480007],[-106.933043,42.476357],[-106.937971,42.476353],[-106.942899,42.476349],[-106.947809,42.476354]]]}},{"type":"Feature","properties":{"sec":"26","frstdivid":"WY060290N0840W0SN260"},"geometry":{"type":"Polygon","coordinates":[[[-106.873754,42.45079],[-106.873763,42.454387],[-106.873773,42.457983],[-106.873782,42.46158],[-106.868846,42.461597],[-106.86391,42.461614],[-106.858974,42.46163],[-106.854038,42.461647],[-106.854055,42.457999],[-106.854072,42.454351],[-106.854089,42.450704],[-106.854107,42.447056],[-106.859016,42.44709],[-106.863926,42.447125],[-106.868835,42.447159],[-106.873745,42.447194],[-106.873754,42.45079]]]}},{"type":"Feature","properties":{"sec":"12","frstdivid":"WY060290N0840W0SN120"},"geometry":{"type":"Polygon","coordinates":[[[-106.834528,42.501377],[-106.83451,42.497753],[-106.834532,42.49413],[-106.834553,42.490507],[-106.839481,42.4906],[-106.844409,42.490695],[-106.849337,42.490788],[-106.854264,42.490884],[-106.854322,42.494483],[-106.854381,42.498082],[-106.85444,42.501681],[-106.854498,42.50528],[-106.84951,42.50521],[-106.844522,42.50514],[-106.839534,42.50507],[-106.834546,42.505],[-106.834528,42.501377]]]}},{"type":"Feature","properties":{"sec":"25","frstdivid":"WY060290N0840W0SN250"},"geometry":{"type":"Polygon","coordinates":[[[-106.834432,42.461352],[-106.834437,42.457666],[-106.834443,42.453979],[-106.83447,42.450367],[-106.834496,42.446754],[-106.839399,42.446829],[-106.844301,42.446905],[-106.849204,42.44698],[-106.854107,42.447056],[-106.854089,42.450704],[-106.854072,42.454351],[-106.854055,42.457999],[-106.854038,42.461647],[-106.849136,42.461573],[-106.844235,42.461499],[-106.839333,42.461426],[-106.834432,42.461352]]]}},{"type":"Feature","properties":{"sec":"36","frstdivid":"WY060290N0840W0SN360"},"geometry":{"type":"Polygon","coordinates":[[[-106.847662,42.432642],[-106.849243,42.43265],[-106.852643,42.432672],[-106.854133,42.43268],[-106.854126,42.436274],[-106.85412,42.439868],[-106.854113,42.443462],[-106.854107,42.447056],[-106.849204,42.44698],[-106.844301,42.446905],[-106.839399,42.446829],[-106.834496,42.446754],[-106.834505,42.443149],[-106.834513,42.439544],[-106.83451,42.436025],[-106.834507,42.432505],[-106.837863,42.432552],[-106.83943,42.432566],[-106.842682,42.432611],[-106.844354,42.432621],[-106.847662,42.432642]]]}},{"type":"Feature","properties":{"sec":"16","frstdivid":"WY060290N0840W0SN160"},"geometry":{"type":"Polygon","coordinates":[[[-106.898415,42.476122],[-106.90335,42.476185],[-106.908285,42.476247],[-106.91322,42.476309],[-106.913177,42.479994],[-106.913134,42.483679],[-106.913148,42.487282],[-106.913161,42.490886],[-106.908262,42.490803],[-106.903362,42.49072],[-106.898462,42.490636],[-106.893563,42.490553],[-106.893542,42.48693],[-106.893521,42.483307],[-106.893501,42.479683],[-106.89348,42.47606],[-106.898415,42.476122]]]}},{"type":"Feature","properties":{"sec":"15","frstdivid":"WY060290N0840W0SN150"},"geometry":{"type":"Polygon","coordinates":[[[-106.893521,42.483307],[-106.893542,42.48693],[-106.893563,42.490553],[-106.888635,42.490336],[-106.883707,42.490117],[-106.878779,42.4899],[-106.873851,42.489683],[-106.874204,42.486032],[-106.874556,42.482382],[-106.874209,42.479073],[-106.873858,42.475765],[-106.878764,42.475839],[-106.883669,42.475912],[-106.888575,42.475986],[-106.89348,42.47606],[-106.893501,42.479683],[-106.893521,42.483307]]]}},{"type":"Feature","properties":{"sec":"22","frstdivid":"WY060290N0840W0SN220"},"geometry":{"type":"Polygon","coordinates":[[[-106.883591,42.461626],[-106.888496,42.461648],[-106.893401,42.461671],[-106.893421,42.465269],[-106.893441,42.468866],[-106.89346,42.472463],[-106.89348,42.47606],[-106.888575,42.475986],[-106.883669,42.475912],[-106.878764,42.475839],[-106.873858,42.475765],[-106.873839,42.472219],[-106.87382,42.468672],[-106.873801,42.465126],[-106.873782,42.46158],[-106.878686,42.461603],[-106.883591,42.461626]]]}},{"type":"Feature","properties":{"sec":"24","frstdivid":"WY060290N0840W0SN240"},"geometry":{"type":"Polygon","coordinates":[[[-106.854038,42.461647],[-106.854021,42.465189],[-106.854005,42.46873],[-106.853988,42.472272],[-106.853972,42.475814],[-106.848941,42.475869],[-106.843911,42.475923],[-106.839174,42.475994],[-106.834438,42.476064],[-106.834427,42.472388],[-106.834416,42.468711],[-106.834424,42.465032],[-106.834432,42.461352],[-106.839333,42.461426],[-106.844235,42.461499],[-106.849136,42.461573],[-106.854038,42.461647]]]}},{"type":"Feature","properties":{"sec":"09","frstdivid":"WY060290N0840W0SN090"},"geometry":{"type":"Polygon","coordinates":[[[-106.913161,42.490886],[-106.913162,42.494479],[-106.913164,42.498073],[-106.913165,42.501666],[-106.913166,42.50526],[-106.908285,42.505188],[-106.903404,42.505117],[-106.898523,42.505045],[-106.893642,42.504974],[-106.893637,42.501354],[-106.893632,42.497733],[-106.893597,42.494143],[-106.893563,42.490553],[-106.898462,42.490636],[-106.903362,42.49072],[-106.908262,42.490803],[-106.913161,42.490886]]]}},{"type":"Feature","properties":{"sec":"10","frstdivid":"WY060290N0840W0SN100"},"geometry":{"type":"Polygon","coordinates":[[[-106.873851,42.489683],[-106.878779,42.4899],[-106.883707,42.490117],[-106.888635,42.490336],[-106.893563,42.490553],[-106.893597,42.494143],[-106.893632,42.497733],[-106.893637,42.501354],[-106.893642,42.504974],[-106.889011,42.50467],[-106.88438,42.504367],[-106.879461,42.504328],[-106.874542,42.504288],[-106.874369,42.500637],[-106.874196,42.496986],[-106.874024,42.493334],[-106.873851,42.489683]]]}},{"type":"Feature","properties":{"sec":"35","frstdivid":"WY060290N0840W0SN350"},"geometry":{"type":"Polygon","coordinates":[[[-106.873719,42.440001],[-106.873732,42.443598],[-106.873745,42.447194],[-106.868835,42.447159],[-106.863926,42.447125],[-106.859016,42.44709],[-106.854107,42.447056],[-106.854113,42.443462],[-106.85412,42.439868],[-106.854126,42.436274],[-106.854133,42.43268],[-106.857624,42.432703],[-106.859023,42.432711],[-106.862605,42.432735],[-106.863913,42.432742],[-106.867494,42.432769],[-106.868803,42.432776],[-106.872384,42.432802],[-106.873693,42.432809],[-106.873706,42.436405],[-106.873719,42.440001]]]}},{"type":"Feature","properties":{"sec":"19","frstdivid":"WY060290N0840W0SN190"},"geometry":{"type":"Polygon","coordinates":[[[-106.937804,42.461907],[-106.942748,42.461912],[-106.947666,42.461912],[-106.956028,42.461917],[-106.956041,42.465526],[-106.956054,42.469134],[-106.956067,42.472743],[-106.956081,42.476351],[-106.947809,42.476354],[-106.942899,42.476349],[-106.937971,42.476353],[-106.933043,42.476357],[-106.932997,42.472744],[-106.932951,42.46913],[-106.932906,42.465516],[-106.93286,42.461903],[-106.937804,42.461907]]]}},{"type":"Feature","properties":{"sec":"03","frstdivid":"WY060290N0840W0SN030"},"geometry":{"type":"Polygon","coordinates":[[[-106.888804,42.519709],[-106.883883,42.519713],[-106.878961,42.519699],[-106.874038,42.519684],[-106.874111,42.515945],[-106.874185,42.512167],[-106.874363,42.508228],[-106.874542,42.504288],[-106.879461,42.504328],[-106.88438,42.504367],[-106.889011,42.50467],[-106.893642,42.504974],[-106.893693,42.508578],[-106.893746,42.512182],[-106.893735,42.515946],[-106.893724,42.519706],[-106.888804,42.519709]]]}},{"type":"Feature","properties":{"sec":"28","frstdivid":"WY060290N0840W0SN280"},"geometry":{"type":"Polygon","coordinates":[[[-106.893401,42.461671],[-106.89338,42.458075],[-106.893359,42.454478],[-106.893339,42.450881],[-106.893318,42.447284],[-106.898224,42.447311],[-106.903131,42.447339],[-106.908037,42.447366],[-106.912944,42.447394],[-106.912982,42.451002],[-106.91302,42.45461],[-106.913058,42.458218],[-106.913095,42.461826],[-106.908172,42.461788],[-106.903248,42.461749],[-106.898325,42.46171],[-106.893401,42.461671]]]}},{"type":"Feature","properties":{"sec":"14","frstdivid":"WY060290N0840W0SN140"},"geometry":{"type":"Polygon","coordinates":[[[-106.853979,42.483686],[-106.853976,42.47975],[-106.853972,42.475814],[-106.858938,42.475803],[-106.863904,42.475794],[-106.868881,42.47578],[-106.873858,42.475765],[-106.874209,42.479073],[-106.874556,42.482382],[-106.874204,42.486032],[-106.873851,42.489683],[-106.868954,42.489984],[-106.864058,42.490284],[-106.859161,42.490584],[-106.854264,42.490884],[-106.854122,42.487285],[-106.853979,42.483686]]]}},{"type":"Feature","properties":{"sec":"02","frstdivid":"WY060290N0840W0SN020"},"geometry":{"type":"Polygon","coordinates":[[[-106.869068,42.519672],[-106.864098,42.51966],[-106.859195,42.519673],[-106.854292,42.519686],[-106.854343,42.516143],[-106.854394,42.512522],[-106.854446,42.508901],[-106.854498,42.50528],[-106.859509,42.505032],[-106.86452,42.504784],[-106.869531,42.504536],[-106.874542,42.504288],[-106.874363,42.508228],[-106.874185,42.512167],[-106.874111,42.515945],[-106.874038,42.519684],[-106.869068,42.519672]]]}},{"type":"Feature","properties":{"sec":"33","frstdivid":"WY060290N0840W0SN330"},"geometry":{"type":"Polygon","coordinates":[[[-106.893254,42.432935],[-106.896916,42.43296],[-106.898144,42.432966],[-106.901834,42.432991],[-106.903034,42.432995],[-106.90677,42.433003],[-106.907925,42.433007],[-106.911707,42.433016],[-106.912815,42.433019],[-106.912847,42.436613],[-106.91288,42.440207],[-106.912912,42.4438],[-106.912944,42.447394],[-106.908037,42.447366],[-106.903131,42.447339],[-106.898224,42.447311],[-106.893318,42.447284],[-106.893302,42.443697],[-106.893286,42.44011],[-106.89327,42.436522],[-106.893254,42.432935]]]}},{"type":"Feature","properties":{"sec":"11","frstdivid":"WY060290N0840W0SN110"},"geometry":{"type":"Polygon","coordinates":[[[-106.874196,42.496986],[-106.874369,42.500637],[-106.874542,42.504288],[-106.869531,42.504536],[-106.86452,42.504784],[-106.859509,42.505032],[-106.854498,42.50528],[-106.85444,42.501681],[-106.854381,42.498082],[-106.854322,42.494483],[-106.854264,42.490884],[-106.859161,42.490584],[-106.864058,42.490284],[-106.868954,42.489984],[-106.873851,42.489683],[-106.874024,42.493334],[-106.874196,42.496986]]]}},{"type":"Feature","properties":{"sec":"05","frstdivid":"WY060290N0840W0SN050"},"geometry":{"type":"Polygon","coordinates":[[[-106.923095,42.505282],[-106.92806,42.505293],[-106.933025,42.505304],[-106.933054,42.508962],[-106.933082,42.512619],[-106.933105,42.51623],[-106.933127,42.519764],[-106.928198,42.519738],[-106.923269,42.519712],[-106.918339,42.519708],[-106.91341,42.519705],[-106.913271,42.516169],[-106.913132,42.512594],[-106.913149,42.508927],[-106.913166,42.50526],[-106.918131,42.505271],[-106.923095,42.505282]]]}},{"type":"Feature","properties":{"sec":"32","frstdivid":"WY060290N0840W0SN320"},"geometry":{"type":"Polygon","coordinates":[[[-106.932434,42.436684],[-106.93249,42.440296],[-106.932546,42.443908],[-106.932602,42.447519],[-106.927688,42.447488],[-106.922773,42.447456],[-106.917858,42.447425],[-106.912944,42.447394],[-106.912912,42.4438],[-106.91288,42.440207],[-106.912847,42.436613],[-106.912815,42.433019],[-106.916643,42.433029],[-106.917706,42.433033],[-106.921579,42.433043],[-106.922596,42.433046],[-106.926471,42.433056],[-106.927487,42.43306],[-106.931362,42.433069],[-106.932379,42.433073],[-106.932434,42.436684]]]}},{"type":"Feature","properties":{"sec":"30","frstdivid":"WY060290N0840W0SN300"},"geometry":{"type":"Polygon","coordinates":[[[-106.955709,42.451129],[-106.955815,42.454725],[-106.955921,42.458321],[-106.956028,42.461917],[-106.947666,42.461912],[-106.942748,42.461912],[-106.937804,42.461907],[-106.93286,42.461903],[-106.932795,42.458307],[-106.932731,42.454711],[-106.932666,42.451115],[-106.932602,42.447519],[-106.937527,42.447528],[-106.942453,42.447538],[-106.947332,42.447536],[-106.955603,42.447533],[-106.955709,42.451129]]]}},{"type":"Feature","properties":{"sec":"04","frstdivid":"WY060290N0840W0SN040"},"geometry":{"type":"Polygon","coordinates":[[[-106.893693,42.508578],[-106.893642,42.504974],[-106.898523,42.505045],[-106.903404,42.505117],[-106.908285,42.505188],[-106.913166,42.50526],[-106.913149,42.508927],[-106.913132,42.512594],[-106.913271,42.516169],[-106.91341,42.519705],[-106.908488,42.519705],[-106.903567,42.519705],[-106.898645,42.519705],[-106.893724,42.519706],[-106.893735,42.515946],[-106.893746,42.512182],[-106.893693,42.508578]]]}},{"type":"Feature","properties":{"sec":"21","frstdivid":"WY060290N0840W0SN210"},"geometry":{"type":"Polygon","coordinates":[[[-106.91322,42.476309],[-106.908285,42.476247],[-106.90335,42.476185],[-106.898415,42.476122],[-106.89348,42.47606],[-106.89346,42.472463],[-106.893441,42.468866],[-106.893421,42.465269],[-106.893401,42.461671],[-106.898325,42.46171],[-106.903248,42.461749],[-106.908172,42.461788],[-106.913095,42.461826],[-106.913127,42.465447],[-106.913158,42.469068],[-106.913189,42.472689],[-106.91322,42.476309]]]}},{"type":"Feature","properties":{"sec":"20","frstdivid":"WY060290N0840W0SN200"},"geometry":{"type":"Polygon","coordinates":[[[-106.922977,42.461864],[-106.927919,42.461883],[-106.93286,42.461903],[-106.932906,42.465516],[-106.932951,42.46913],[-106.932997,42.472744],[-106.933043,42.476357],[-106.928176,42.47634],[-106.923309,42.476322],[-106.918265,42.476315],[-106.91322,42.476309],[-106.913189,42.472689],[-106.913158,42.469068],[-106.913127,42.465447],[-106.913095,42.461826],[-106.918036,42.461845],[-106.922977,42.461864]]]}},{"type":"Feature","properties":{"sec":"23","frstdivid":"WY060290N0840W0SN230"},"geometry":{"type":"Polygon","coordinates":[[[-106.853988,42.472272],[-106.854005,42.46873],[-106.854021,42.465189],[-106.854038,42.461647],[-106.858974,42.46163],[-106.86391,42.461614],[-106.868846,42.461597],[-106.873782,42.46158],[-106.873801,42.465126],[-106.87382,42.468672],[-106.873839,42.472219],[-106.873858,42.475765],[-106.868881,42.47578],[-106.863904,42.475794],[-106.858938,42.475803],[-106.853972,42.475814],[-106.853988,42.472272]]]}},{"type":"Feature","properties":{"sec":"17","frstdivid":"WY060290N0840W0SN170"},"geometry":{"type":"Polygon","coordinates":[[[-106.923309,42.476322],[-106.928176,42.47634],[-106.933043,42.476357],[-106.933007,42.480007],[-106.932971,42.483657],[-106.932971,42.487305],[-106.93297,42.490953],[-106.927984,42.490938],[-106.922997,42.490923],[-106.918079,42.490905],[-106.913161,42.490886],[-106.913148,42.487282],[-106.913134,42.483679],[-106.913177,42.479994],[-106.91322,42.476309],[-106.918265,42.476315],[-106.923309,42.476322]]]}},{"type":"Feature","properties":{"sec":"01","frstdivid":"WY060290N0840W0SN010"},"geometry":{"type":"Polygon","coordinates":[[[-106.844453,42.519583],[-106.839538,42.519536],[-106.834622,42.519489],[-106.834604,42.515867],[-106.834585,42.512245],[-106.834566,42.508623],[-106.834546,42.505],[-106.839534,42.50507],[-106.844522,42.50514],[-106.84951,42.50521],[-106.854498,42.50528],[-106.854446,42.508901],[-106.854394,42.512522],[-106.854343,42.516143],[-106.854292,42.519686],[-106.849373,42.519634],[-106.844453,42.519583]]]}},{"type":"Feature","properties":{"sec":"34","frstdivid":"WY060290N0840W0SN340"},"geometry":{"type":"Polygon","coordinates":[[[-106.893286,42.44011],[-106.893302,42.443697],[-106.893318,42.447284],[-106.888425,42.447261],[-106.883532,42.447239],[-106.878638,42.447216],[-106.873745,42.447194],[-106.873732,42.443598],[-106.873719,42.440001],[-106.873706,42.436405],[-106.873693,42.432809],[-106.877273,42.432837],[-106.878583,42.432844],[-106.882163,42.432871],[-106.883473,42.432878],[-106.88708,42.4329],[-106.888363,42.432907],[-106.891998,42.432929],[-106.893254,42.432935],[-106.89327,42.436522],[-106.893286,42.44011]]]}},{"type":"Feature","properties":{"sec":"06","frstdivid":"WY060290N0840W0SN060"},"geometry":{"type":"Polygon","coordinates":[[[-106.942868,42.519749],[-106.937998,42.519756],[-106.933127,42.519764],[-106.933105,42.51623],[-106.933082,42.512619],[-106.933054,42.508962],[-106.933025,42.505304],[-106.937923,42.505271],[-106.942822,42.505237],[-106.947715,42.505241],[-106.956015,42.505247],[-106.956032,42.508872],[-106.956049,42.512496],[-106.956058,42.516119],[-106.956066,42.519742],[-106.947763,42.519753],[-106.942868,42.519749]]]}},{"type":"Feature","properties":{"sec":"08","frstdivid":"WY060290N0840W0SN080"},"geometry":{"type":"Polygon","coordinates":[[[-106.918079,42.490905],[-106.922997,42.490923],[-106.927984,42.490938],[-106.93297,42.490953],[-106.932911,42.494573],[-106.932924,42.498191],[-106.932974,42.501748],[-106.933025,42.505304],[-106.92806,42.505293],[-106.923095,42.505282],[-106.918131,42.505271],[-106.913166,42.50526],[-106.913165,42.501666],[-106.913164,42.498073],[-106.913162,42.494479],[-106.913161,42.490886],[-106.918079,42.490905]]]}},{"type":"Feature","properties":{"sec":"07","frstdivid":"WY060290N0840W0SN070"},"geometry":{"type":"Polygon","coordinates":[[[-106.942765,42.49099],[-106.947704,42.490922],[-106.956046,42.490749],[-106.956039,42.494374],[-106.956031,42.497998],[-106.956023,42.501623],[-106.956015,42.505247],[-106.947715,42.505241],[-106.942822,42.505237],[-106.937923,42.505271],[-106.933025,42.505304],[-106.932974,42.501748],[-106.932924,42.498191],[-106.932911,42.494573],[-106.93297,42.490953],[-106.937868,42.490972],[-106.942765,42.49099]]]}},{"type":"Feature","properties":{"sec":"29","frstdivid":"WY060290N0840W0SN290"},"geometry":{"type":"Polygon","coordinates":[[[-106.922773,42.447456],[-106.927688,42.447488],[-106.932602,42.447519],[-106.932666,42.451115],[-106.932731,42.454711],[-106.932795,42.458307],[-106.93286,42.461903],[-106.927919,42.461883],[-106.922977,42.461864],[-106.918036,42.461845],[-106.913095,42.461826],[-106.913058,42.458218],[-106.91302,42.45461],[-106.912982,42.451002],[-106.912944,42.447394],[-106.917858,42.447425],[-106.922773,42.447456]]]}},{"type":"Feature","properties":{"sec":"27","frstdivid":"WY060290N0840W0SN270"},"geometry":{"type":"Polygon","coordinates":[[[-106.873782,42.46158],[-106.873773,42.457983],[-106.873763,42.454387],[-106.873754,42.45079],[-106.873745,42.447194],[-106.878638,42.447216],[-106.883532,42.447239],[-106.888425,42.447261],[-106.893318,42.447284],[-106.893339,42.450881],[-106.893359,42.454478],[-106.89338,42.458075],[-106.893401,42.461671],[-106.888496,42.461648],[-106.883591,42.461626],[-106.878686,42.461603],[-106.873782,42.46158]]]}}]}