{"type":"FeatureCollection","note":"BLM Public Land Survey System. Provided by the Bureau of Land Management as is. These data are neither legal documents nor land surveys and must not be used as such.","features":[{"type":"Feature","properties":{"sec":"32","frstdivid":"WY060480N0740W0SN320"},"geometry":{"type":"Polygon","coordinates":[[[-105.78618,44.086083],[-105.791148,44.08604],[-105.791085,44.089673],[-105.791022,44.093305],[-105.790959,44.096938],[-105.790896,44.10057],[-105.786028,44.100629],[-105.781161,44.100687],[-105.776293,44.100746],[-105.771425,44.100805],[-105.771388,44.097156],[-105.77135,44.093508],[-105.771313,44.089859],[-105.771276,44.086211],[-105.776244,44.086168],[-105.781212,44.086126],[-105.78618,44.086083]]]}},{"type":"Feature","properties":{"sec":"05","frstdivid":"WY060480N0740W0SN050"},"geometry":{"type":"Polygon","coordinates":[[[-105.789892,44.167669],[-105.789794,44.171024],[-105.788758,44.171033],[-105.784738,44.171067],[-105.783726,44.171076],[-105.779683,44.171113],[-105.778676,44.171122],[-105.774627,44.171159],[-105.773625,44.171168],[-105.769572,44.171204],[-105.769704,44.167856],[-105.769841,44.164388],[-105.769979,44.16092],[-105.770116,44.157451],[-105.775137,44.157412],[-105.780157,44.157373],[-105.785177,44.157334],[-105.790198,44.157295],[-105.790096,44.160753],[-105.789993,44.164211],[-105.789892,44.167669]]]}},{"type":"Feature","properties":{"sec":"20","frstdivid":"WY060480N0740W0SN200"},"geometry":{"type":"Polygon","coordinates":[[[-105.790794,44.115101],[-105.790768,44.118734],[-105.790742,44.122366],[-105.790715,44.125999],[-105.790689,44.129632],[-105.785672,44.129646],[-105.780655,44.129661],[-105.775638,44.129683],[-105.770622,44.129705],[-105.770749,44.126104],[-105.770876,44.122504],[-105.771004,44.118904],[-105.771131,44.115303],[-105.776047,44.115253],[-105.780962,44.115202],[-105.785878,44.115152],[-105.790794,44.115101]]]}},{"type":"Feature","properties":{"sec":"29","frstdivid":"WY060480N0740W0SN290"},"geometry":{"type":"Polygon","coordinates":[[[-105.780962,44.115202],[-105.776047,44.115253],[-105.771131,44.115303],[-105.771204,44.111703],[-105.771277,44.108102],[-105.771351,44.104453],[-105.771425,44.100805],[-105.776293,44.100746],[-105.781161,44.100687],[-105.786028,44.100629],[-105.790896,44.10057],[-105.790871,44.104203],[-105.790845,44.107836],[-105.790819,44.111468],[-105.790794,44.115101],[-105.785878,44.115152],[-105.780962,44.115202]]]}},{"type":"Feature","properties":{"sec":"31","frstdivid":"WY060480N0740W0SN310"},"geometry":{"type":"Polygon","coordinates":[[[-105.790959,44.096938],[-105.791022,44.093305],[-105.791085,44.089673],[-105.791148,44.08604],[-105.796116,44.085998],[-105.801083,44.085956],[-105.806051,44.085913],[-105.81005,44.085879],[-105.809929,44.089533],[-105.809808,44.093187],[-105.809687,44.096841],[-105.809566,44.100495],[-105.805582,44.100511],[-105.800687,44.100531],[-105.795792,44.100551],[-105.790896,44.10057],[-105.790959,44.096938]]]}},{"type":"Feature","properties":{"sec":"30","frstdivid":"WY060480N0740W0SN300"},"geometry":{"type":"Polygon","coordinates":[[[-105.805596,44.114992],[-105.800662,44.115028],[-105.795728,44.115065],[-105.790794,44.115101],[-105.790819,44.111468],[-105.790845,44.107836],[-105.790871,44.104203],[-105.790896,44.10057],[-105.795792,44.100551],[-105.800687,44.100531],[-105.805582,44.100511],[-105.809566,44.100495],[-105.809587,44.104112],[-105.809608,44.107729],[-105.809629,44.111346],[-105.80965,44.114963],[-105.805596,44.114992]]]}},{"type":"Feature","properties":{"sec":"07","frstdivid":"WY060480N0740W0SN070"},"geometry":{"type":"Polygon","coordinates":[[[-105.809462,44.150629],[-105.809449,44.154034],[-105.809437,44.157439],[-105.805206,44.157407],[-105.800203,44.157369],[-105.795201,44.157332],[-105.790198,44.157295],[-105.79027,44.153837],[-105.790342,44.150379],[-105.790415,44.146921],[-105.790487,44.143464],[-105.795455,44.143557],[-105.800423,44.14365],[-105.80539,44.143743],[-105.809486,44.143819],[-105.809474,44.147224],[-105.809462,44.150629]]]}},{"type":"Feature","properties":{"sec":"08","frstdivid":"WY060480N0740W0SN080"},"geometry":{"type":"Polygon","coordinates":[[[-105.77561,44.14355],[-105.780569,44.143521],[-105.785528,44.143492],[-105.790487,44.143464],[-105.790415,44.146921],[-105.790342,44.150379],[-105.79027,44.153837],[-105.790198,44.157295],[-105.785177,44.157334],[-105.780157,44.157373],[-105.775137,44.157412],[-105.770116,44.157451],[-105.77025,44.153983],[-105.770383,44.150515],[-105.770517,44.147047],[-105.77065,44.143579],[-105.77561,44.14355]]]}},{"type":"Feature","properties":{"sec":"06","frstdivid":"WY060480N0740W0SN060"},"geometry":{"type":"Polygon","coordinates":[[[-105.808883,44.170862],[-105.804978,44.170896],[-105.803852,44.170905],[-105.799917,44.170939],[-105.79882,44.170948],[-105.794855,44.170982],[-105.793789,44.170991],[-105.789794,44.171024],[-105.789892,44.167669],[-105.789993,44.164211],[-105.790096,44.160753],[-105.790198,44.157295],[-105.795201,44.157332],[-105.800203,44.157369],[-105.805206,44.157407],[-105.809437,44.157439],[-105.809424,44.160842],[-105.809411,44.164246],[-105.809397,44.16765],[-105.809384,44.170858],[-105.808883,44.170862]]]}},{"type":"Feature","properties":{"sec":"19","frstdivid":"WY060480N0740W0SN190"},"geometry":{"type":"Polygon","coordinates":[[[-105.809878,44.129248],[-105.805777,44.129403],[-105.800748,44.129595],[-105.795719,44.129613],[-105.790689,44.129632],[-105.790715,44.125999],[-105.790742,44.122366],[-105.790768,44.118734],[-105.790794,44.115101],[-105.795728,44.115065],[-105.800662,44.115028],[-105.805596,44.114992],[-105.80965,44.114963],[-105.809673,44.11858],[-105.809695,44.122197],[-105.809786,44.125722],[-105.809878,44.129248]]]}},{"type":"Feature","properties":{"sec":"17","frstdivid":"WY060480N0740W0SN170"},"geometry":{"type":"Polygon","coordinates":[[[-105.790689,44.129632],[-105.790639,44.13309],[-105.790588,44.136548],[-105.790538,44.140006],[-105.790487,44.143464],[-105.785528,44.143492],[-105.780569,44.143521],[-105.77561,44.14355],[-105.77065,44.143579],[-105.770643,44.14011],[-105.770636,44.136642],[-105.770629,44.133173],[-105.770622,44.129705],[-105.775638,44.129683],[-105.780655,44.129661],[-105.785672,44.129646],[-105.790689,44.129632]]]}},{"type":"Feature","properties":{"sec":"18","frstdivid":"WY060480N0740W0SN180"},"geometry":{"type":"Polygon","coordinates":[[[-105.809682,44.136533],[-105.809584,44.140176],[-105.809486,44.143819],[-105.80539,44.143743],[-105.800423,44.14365],[-105.795455,44.143557],[-105.790487,44.143464],[-105.790538,44.140006],[-105.790588,44.136548],[-105.790639,44.13309],[-105.790689,44.129632],[-105.795719,44.129613],[-105.800748,44.129595],[-105.805777,44.129403],[-105.809878,44.129248],[-105.80978,44.13289],[-105.809682,44.136533]]]}},{"type":"Feature","properties":{"sec":"34","frstdivid":"WY060480N0740W0SN340"},"geometry":{"type":"Polygon","coordinates":[[[-105.751395,44.089996],[-105.75153,44.09361],[-105.751664,44.097225],[-105.751798,44.100839],[-105.746839,44.100908],[-105.74188,44.100977],[-105.736921,44.101047],[-105.731962,44.101116],[-105.73174,44.097476],[-105.731519,44.093836],[-105.731297,44.090195],[-105.731075,44.086555],[-105.736129,44.086512],[-105.741182,44.086468],[-105.746222,44.086425],[-105.751261,44.086381],[-105.751395,44.089996]]]}},{"type":"Feature","properties":{"sec":"16","frstdivid":"WY060480N0740W0SN160"},"geometry":{"type":"Polygon","coordinates":[[[-105.770629,44.133173],[-105.770636,44.136642],[-105.770643,44.14011],[-105.77065,44.143579],[-105.765708,44.143604],[-105.760766,44.14363],[-105.755823,44.143655],[-105.750881,44.143681],[-105.750812,44.140199],[-105.750744,44.136716],[-105.750675,44.133234],[-105.750606,44.129752],[-105.75561,44.129743],[-105.760614,44.129734],[-105.765618,44.129719],[-105.770622,44.129705],[-105.770629,44.133173]]]}},{"type":"Feature","properties":{"sec":"22","frstdivid":"WY060480N0740W0SN220"},"geometry":{"type":"Polygon","coordinates":[[[-105.740565,44.129703],[-105.735544,44.129679],[-105.730523,44.129654],[-105.730753,44.126213],[-105.730983,44.122771],[-105.731212,44.11933],[-105.731442,44.115888],[-105.736512,44.115932],[-105.741582,44.115975],[-105.74653,44.115635],[-105.751479,44.115296],[-105.751261,44.11891],[-105.751042,44.122524],[-105.750824,44.126138],[-105.750606,44.129752],[-105.745586,44.129728],[-105.740565,44.129703]]]}},{"type":"Feature","properties":{"sec":"33","frstdivid":"WY060480N0740W0SN330"},"geometry":{"type":"Polygon","coordinates":[[[-105.771313,44.089859],[-105.77135,44.093508],[-105.771388,44.097156],[-105.771425,44.100805],[-105.766555,44.100813],[-105.761685,44.100822],[-105.756742,44.10083],[-105.751798,44.100839],[-105.751664,44.097225],[-105.75153,44.09361],[-105.751395,44.089996],[-105.751261,44.086381],[-105.756301,44.086338],[-105.76134,44.086295],[-105.766308,44.086253],[-105.771276,44.086211],[-105.771313,44.089859]]]}},{"type":"Feature","properties":{"sec":"04","frstdivid":"WY060480N0740W0SN040"},"geometry":{"type":"Polygon","coordinates":[[[-105.75942,44.171295],[-105.758474,44.171303],[-105.754344,44.17134],[-105.753424,44.171348],[-105.749267,44.171386],[-105.74945,44.168057],[-105.749642,44.164575],[-105.749833,44.161092],[-105.750025,44.15761],[-105.755048,44.15757],[-105.760071,44.15753],[-105.765093,44.157491],[-105.770116,44.157451],[-105.769979,44.16092],[-105.769841,44.164388],[-105.769704,44.167856],[-105.769572,44.171204],[-105.768575,44.171213],[-105.764496,44.171249],[-105.763525,44.171258],[-105.75942,44.171295]]]}},{"type":"Feature","properties":{"sec":"15","frstdivid":"WY060480N0740W0SN150"},"geometry":{"type":"Polygon","coordinates":[[[-105.750881,44.143681],[-105.745782,44.143616],[-105.740683,44.143551],[-105.735583,44.143486],[-105.730484,44.143422],[-105.730494,44.13998],[-105.730504,44.136538],[-105.730513,44.133096],[-105.730523,44.129654],[-105.735544,44.129679],[-105.740565,44.129703],[-105.745586,44.129728],[-105.750606,44.129752],[-105.750675,44.133234],[-105.750744,44.136716],[-105.750812,44.140199],[-105.750881,44.143681]]]}},{"type":"Feature","properties":{"sec":"03","frstdivid":"WY060480N0740W0SN030"},"geometry":{"type":"Polygon","coordinates":[[[-105.739077,44.171471],[-105.738252,44.171477],[-105.733982,44.171509],[-105.733182,44.171515],[-105.728887,44.17156],[-105.72914,44.168235],[-105.729411,44.164691],[-105.729681,44.161146],[-105.729952,44.157602],[-105.73497,44.157604],[-105.739989,44.157606],[-105.745007,44.157608],[-105.750025,44.15761],[-105.749833,44.161092],[-105.749642,44.164575],[-105.74945,44.168057],[-105.749267,44.171386],[-105.748373,44.171394],[-105.744172,44.171431],[-105.743323,44.171439],[-105.739077,44.171471]]]}},{"type":"Feature","properties":{"sec":"13","frstdivid":"WY060480N0740W0SN130"},"geometry":{"type":"Polygon","coordinates":[[[-105.690021,44.137872],[-105.690077,44.134222],[-105.690134,44.130571],[-105.695173,44.130377],[-105.700211,44.130183],[-105.705249,44.129989],[-105.710287,44.129794],[-105.710255,44.133117],[-105.710223,44.136439],[-105.710139,44.139991],[-105.710054,44.143542],[-105.705026,44.143916],[-105.699998,44.14429],[-105.694972,44.144664],[-105.689947,44.145038],[-105.689984,44.141455],[-105.690021,44.137872]]]}},{"type":"Feature","properties":{"sec":"23","frstdivid":"WY060480N0740W0SN230"},"geometry":{"type":"Polygon","coordinates":[[[-105.711127,44.11591],[-105.716206,44.115898],[-105.721284,44.115886],[-105.726363,44.115887],[-105.731442,44.115888],[-105.731212,44.11933],[-105.730983,44.122771],[-105.730753,44.126213],[-105.730523,44.129654],[-105.725464,44.129689],[-105.720405,44.129724],[-105.715346,44.129759],[-105.710287,44.129794],[-105.710488,44.126472],[-105.710689,44.12315],[-105.710908,44.11953],[-105.711127,44.11591]]]}},{"type":"Feature","properties":{"sec":"28","frstdivid":"WY060480N0740W0SN280"},"geometry":{"type":"Polygon","coordinates":[[[-105.756742,44.10083],[-105.761685,44.100822],[-105.766555,44.100813],[-105.771425,44.100805],[-105.771351,44.104453],[-105.771277,44.108102],[-105.771204,44.111703],[-105.771131,44.115303],[-105.766218,44.115302],[-105.761305,44.1153],[-105.756392,44.115298],[-105.751479,44.115296],[-105.751559,44.111682],[-105.751639,44.108068],[-105.751718,44.104453],[-105.751798,44.100839],[-105.756742,44.10083]]]}},{"type":"Feature","properties":{"sec":"25","frstdivid":"WY060480N0740W0SN250"},"geometry":{"type":"Polygon","coordinates":[[[-105.711114,44.101348],[-105.711072,44.105026],[-105.711029,44.108704],[-105.711078,44.112307],[-105.711127,44.11591],[-105.705925,44.115919],[-105.700723,44.115929],[-105.695521,44.115936],[-105.690319,44.115943],[-105.690361,44.112301],[-105.690403,44.10866],[-105.69045,44.105018],[-105.690498,44.101376],[-105.695652,44.101357],[-105.700806,44.101337],[-105.70596,44.101343],[-105.711114,44.101348]]]}},{"type":"Feature","properties":{"sec":"36","frstdivid":"WY060480N0740W0SN360"},"geometry":{"type":"Polygon","coordinates":[[[-105.71104,44.097693],[-105.711114,44.101348],[-105.70596,44.101343],[-105.700806,44.101337],[-105.695652,44.101357],[-105.690498,44.101376],[-105.690678,44.097718],[-105.690858,44.094059],[-105.690764,44.090428],[-105.69067,44.086797],[-105.695733,44.086785],[-105.700797,44.086774],[-105.705861,44.08675],[-105.710924,44.086727],[-105.710945,44.090383],[-105.710966,44.094038],[-105.71104,44.097693]]]}},{"type":"Feature","properties":{"sec":"35","frstdivid":"WY060480N0740W0SN350"},"geometry":{"type":"Polygon","coordinates":[[[-105.726506,44.101232],[-105.721051,44.101348],[-105.716082,44.101348],[-105.711114,44.101348],[-105.71104,44.097693],[-105.710966,44.094038],[-105.710945,44.090383],[-105.710924,44.086727],[-105.715947,44.086684],[-105.720969,44.086642],[-105.726022,44.086598],[-105.731075,44.086555],[-105.731297,44.090195],[-105.731519,44.093836],[-105.73174,44.097476],[-105.731962,44.101116],[-105.726506,44.101232]]]}},{"type":"Feature","properties":{"sec":"27","frstdivid":"WY060480N0740W0SN270"},"geometry":{"type":"Polygon","coordinates":[[[-105.731442,44.115888],[-105.731572,44.112195],[-105.731702,44.108502],[-105.731832,44.104809],[-105.731962,44.101116],[-105.736921,44.101047],[-105.74188,44.100977],[-105.746839,44.100908],[-105.751798,44.100839],[-105.751718,44.104453],[-105.751639,44.108068],[-105.751559,44.111682],[-105.751479,44.115296],[-105.74653,44.115635],[-105.741582,44.115975],[-105.736512,44.115932],[-105.731442,44.115888]]]}},{"type":"Feature","properties":{"sec":"26","frstdivid":"WY060480N0740W0SN260"},"geometry":{"type":"Polygon","coordinates":[[[-105.726506,44.101232],[-105.731962,44.101116],[-105.731832,44.104809],[-105.731702,44.108502],[-105.731572,44.112195],[-105.731442,44.115888],[-105.726363,44.115887],[-105.721284,44.115886],[-105.716206,44.115898],[-105.711127,44.11591],[-105.711078,44.112307],[-105.711029,44.108704],[-105.711072,44.105026],[-105.711114,44.101348],[-105.716082,44.101348],[-105.721051,44.101348],[-105.726506,44.101232]]]}},{"type":"Feature","properties":{"sec":"10","frstdivid":"WY060480N0740W0SN100"},"geometry":{"type":"Polygon","coordinates":[[[-105.745007,44.157608],[-105.739989,44.157606],[-105.73497,44.157604],[-105.729952,44.157602],[-105.730085,44.154057],[-105.730218,44.150512],[-105.730351,44.146967],[-105.730484,44.143422],[-105.735583,44.143486],[-105.740683,44.143551],[-105.745782,44.143616],[-105.750881,44.143681],[-105.750667,44.147163],[-105.750453,44.150645],[-105.750239,44.154128],[-105.750025,44.15761],[-105.745007,44.157608]]]}},{"type":"Feature","properties":{"sec":"14","frstdivid":"WY060480N0740W0SN140"},"geometry":{"type":"Polygon","coordinates":[[[-105.730513,44.133096],[-105.730504,44.136538],[-105.730494,44.13998],[-105.730484,44.143422],[-105.725317,44.143445],[-105.720151,44.143468],[-105.715103,44.143505],[-105.710054,44.143542],[-105.710139,44.139991],[-105.710223,44.136439],[-105.710255,44.133117],[-105.710287,44.129794],[-105.715346,44.129759],[-105.720405,44.129724],[-105.725464,44.129689],[-105.730523,44.129654],[-105.730513,44.133096]]]}},{"type":"Feature","properties":{"sec":"11","frstdivid":"WY060480N0740W0SN110"},"geometry":{"type":"Polygon","coordinates":[[[-105.730484,44.143422],[-105.730351,44.146967],[-105.730218,44.150512],[-105.730085,44.154057],[-105.729952,44.157602],[-105.724959,44.157636],[-105.719967,44.15767],[-105.714974,44.157703],[-105.709981,44.157737],[-105.709999,44.154188],[-105.710018,44.15064],[-105.710036,44.147091],[-105.710054,44.143542],[-105.715103,44.143505],[-105.720151,44.143468],[-105.725317,44.143445],[-105.730484,44.143422]]]}},{"type":"Feature","properties":{"sec":"12","frstdivid":"WY060480N0740W0SN120"},"geometry":{"type":"Polygon","coordinates":[[[-105.699868,44.158663],[-105.694816,44.159125],[-105.689765,44.159588],[-105.689808,44.155951],[-105.689851,44.152314],[-105.689899,44.148676],[-105.689947,44.145038],[-105.694972,44.144664],[-105.699998,44.14429],[-105.705026,44.143916],[-105.710054,44.143542],[-105.710036,44.147091],[-105.710018,44.15064],[-105.709999,44.154188],[-105.709981,44.157737],[-105.704925,44.1582],[-105.699868,44.158663]]]}},{"type":"Feature","properties":{"sec":"02","frstdivid":"WY060480N0740W0SN020"},"geometry":{"type":"Polygon","coordinates":[[[-105.712917,44.171716],[-105.708718,44.171739],[-105.709022,44.168372],[-105.709342,44.164817],[-105.709662,44.161277],[-105.709981,44.157737],[-105.714974,44.157703],[-105.719967,44.15767],[-105.724959,44.157636],[-105.729952,44.157602],[-105.729681,44.161146],[-105.729411,44.164691],[-105.72914,44.168235],[-105.728887,44.17156],[-105.728104,44.171569],[-105.723845,44.171614],[-105.723026,44.171623],[-105.718803,44.171662],[-105.717971,44.17167],[-105.71376,44.171709],[-105.712917,44.171716]]]}},{"type":"Feature","properties":{"sec":"24","frstdivid":"WY060480N0740W0SN240"},"geometry":{"type":"Polygon","coordinates":[[[-105.705249,44.129989],[-105.700211,44.130183],[-105.695173,44.130377],[-105.690134,44.130571],[-105.690184,44.126889],[-105.690233,44.123206],[-105.690276,44.119575],[-105.690319,44.115943],[-105.695521,44.115936],[-105.700723,44.115929],[-105.705925,44.115919],[-105.711127,44.11591],[-105.710908,44.11953],[-105.710689,44.12315],[-105.710488,44.126472],[-105.710287,44.129794],[-105.705249,44.129989]]]}},{"type":"Feature","properties":{"sec":"01","frstdivid":"WY060480N0740W0SN010"},"geometry":{"type":"Polygon","coordinates":[[[-105.709662,44.161277],[-105.709342,44.164817],[-105.709022,44.168372],[-105.708718,44.171739],[-105.707841,44.171743],[-105.70367,44.171766],[-105.702764,44.171771],[-105.698623,44.171793],[-105.697688,44.171798],[-105.693575,44.171821],[-105.692611,44.171826],[-105.688528,44.17186],[-105.688823,44.16893],[-105.689137,44.165816],[-105.689451,44.162702],[-105.689765,44.159588],[-105.694816,44.159125],[-105.699868,44.158663],[-105.704925,44.1582],[-105.709981,44.157737],[-105.709662,44.161277]]]}},{"type":"Feature","properties":{"sec":"21","frstdivid":"WY060480N0740W0SN210"},"geometry":{"type":"Polygon","coordinates":[[[-105.750606,44.129752],[-105.750824,44.126138],[-105.751042,44.122524],[-105.751261,44.11891],[-105.751479,44.115296],[-105.756392,44.115298],[-105.761305,44.1153],[-105.766218,44.115302],[-105.771131,44.115303],[-105.771004,44.118904],[-105.770876,44.122504],[-105.770749,44.126104],[-105.770622,44.129705],[-105.765618,44.129719],[-105.760614,44.129734],[-105.75561,44.129743],[-105.750606,44.129752]]]}},{"type":"Feature","properties":{"sec":"09","frstdivid":"WY060480N0740W0SN090"},"geometry":{"type":"Polygon","coordinates":[[[-105.760766,44.14363],[-105.765708,44.143604],[-105.77065,44.143579],[-105.770517,44.147047],[-105.770383,44.150515],[-105.77025,44.153983],[-105.770116,44.157451],[-105.765093,44.157491],[-105.760071,44.15753],[-105.755048,44.15757],[-105.750025,44.15761],[-105.750239,44.154128],[-105.750453,44.150645],[-105.750667,44.147163],[-105.750881,44.143681],[-105.755823,44.143655],[-105.760766,44.14363]]]}}]}