{"type":"FeatureCollection","note":"BLM Public Land Survey System. Provided by the Bureau of Land Management as is. These data are neither legal documents nor land surveys and must not be used as such.","features":[{"type":"Feature","properties":{"sec":"32","frstdivid":"WY060480N0700W0SN320"},"geometry":{"type":"Polygon","coordinates":[[[-105.282651,44.088642],[-105.287742,44.088565],[-105.292833,44.088488],[-105.297923,44.088411],[-105.303014,44.088335],[-105.302989,44.092059],[-105.302964,44.095784],[-105.302939,44.099509],[-105.302914,44.103233],[-105.297829,44.103293],[-105.292745,44.103353],[-105.28766,44.103412],[-105.282576,44.103472],[-105.282381,44.099804],[-105.282187,44.096136],[-105.282419,44.092389],[-105.282651,44.088642]]]}},{"type":"Feature","properties":{"sec":"25","frstdivid":"WY060480N0700W0SN250"},"geometry":{"type":"Polygon","coordinates":[[[-105.211521,44.103863],[-105.216663,44.103858],[-105.221805,44.103853],[-105.221808,44.107478],[-105.221812,44.111104],[-105.221816,44.114729],[-105.221819,44.118355],[-105.21668,44.118388],[-105.211541,44.118422],[-105.206402,44.118455],[-105.201263,44.118488],[-105.201257,44.114835],[-105.201251,44.111181],[-105.201244,44.107527],[-105.201238,44.103874],[-105.20638,44.103869],[-105.211521,44.103863]]]}},{"type":"Feature","properties":{"sec":"35","frstdivid":"WY060480N0700W0SN350"},"geometry":{"type":"Polygon","coordinates":[[[-105.22161,44.092977],[-105.221545,44.089352],[-105.226633,44.089374],[-105.231721,44.089396],[-105.236813,44.089339],[-105.241905,44.089282],[-105.241929,44.093121],[-105.241954,44.09696],[-105.241999,44.100554],[-105.242045,44.104148],[-105.237061,44.104205],[-105.232077,44.104263],[-105.226941,44.104058],[-105.221805,44.103853],[-105.22174,44.100228],[-105.221675,44.096603],[-105.22161,44.092977]]]}},{"type":"Feature","properties":{"sec":"30","frstdivid":"WY060480N0700W0SN300"},"geometry":{"type":"Polygon","coordinates":[[[-105.308117,44.117385],[-105.303,44.117563],[-105.302978,44.113981],[-105.302957,44.110398],[-105.302935,44.106816],[-105.302914,44.103233],[-105.308021,44.10301],[-105.313128,44.102787],[-105.318235,44.102564],[-105.322986,44.102357],[-105.323002,44.105984],[-105.323017,44.109611],[-105.32302,44.113237],[-105.323024,44.116864],[-105.318351,44.117027],[-105.313234,44.117207],[-105.308117,44.117385]]]}},{"type":"Feature","properties":{"sec":"28","frstdivid":"WY060480N0700W0SN280"},"geometry":{"type":"Polygon","coordinates":[[[-105.272403,44.103837],[-105.277489,44.103655],[-105.282576,44.103472],[-105.282592,44.10714],[-105.282609,44.110808],[-105.282626,44.114477],[-105.282643,44.118145],[-105.277516,44.118207],[-105.272388,44.11827],[-105.267261,44.118332],[-105.262133,44.118395],[-105.262173,44.114753],[-105.262213,44.111112],[-105.26222,44.107497],[-105.262227,44.103883],[-105.267315,44.10386],[-105.272403,44.103837]]]}},{"type":"Feature","properties":{"sec":"34","frstdivid":"WY060480N0700W0SN340"},"geometry":{"type":"Polygon","coordinates":[[[-105.262184,44.092725],[-105.262088,44.096586],[-105.262158,44.100234],[-105.262227,44.103883],[-105.257182,44.103949],[-105.252136,44.104015],[-105.247091,44.104082],[-105.242045,44.104148],[-105.241999,44.100554],[-105.241954,44.09696],[-105.241929,44.093121],[-105.241905,44.089282],[-105.246999,44.089178],[-105.252092,44.089073],[-105.257186,44.088968],[-105.26228,44.088864],[-105.262184,44.092725]]]}},{"type":"Feature","properties":{"sec":"27","frstdivid":"WY060480N0700W0SN270"},"geometry":{"type":"Polygon","coordinates":[[[-105.242146,44.118628],[-105.242121,44.115008],[-105.242096,44.111388],[-105.242071,44.107768],[-105.242045,44.104148],[-105.247091,44.104082],[-105.252136,44.104015],[-105.257182,44.103949],[-105.262227,44.103883],[-105.26222,44.107497],[-105.262213,44.111112],[-105.262173,44.114753],[-105.262133,44.118395],[-105.257137,44.118453],[-105.25214,44.118511],[-105.247143,44.11857],[-105.242146,44.118628]]]}},{"type":"Feature","properties":{"sec":"29","frstdivid":"WY060480N0700W0SN290"},"geometry":{"type":"Polygon","coordinates":[[[-105.282626,44.114477],[-105.282609,44.110808],[-105.282592,44.10714],[-105.282576,44.103472],[-105.28766,44.103412],[-105.292745,44.103353],[-105.297829,44.103293],[-105.302914,44.103233],[-105.302935,44.106816],[-105.302957,44.110398],[-105.302978,44.113981],[-105.303,44.117563],[-105.29791,44.117709],[-105.292821,44.117854],[-105.287732,44.117999],[-105.282643,44.118145],[-105.282626,44.114477]]]}},{"type":"Feature","properties":{"sec":"33","frstdivid":"WY060480N0700W0SN330"},"geometry":{"type":"Polygon","coordinates":[[[-105.277489,44.103655],[-105.272403,44.103837],[-105.267315,44.10386],[-105.262227,44.103883],[-105.262158,44.100234],[-105.262088,44.096586],[-105.262184,44.092725],[-105.26228,44.088864],[-105.267374,44.08883],[-105.272469,44.088796],[-105.27756,44.088719],[-105.282651,44.088642],[-105.282419,44.092389],[-105.282187,44.096136],[-105.282381,44.099804],[-105.282576,44.103472],[-105.277489,44.103655]]]}},{"type":"Feature","properties":{"sec":"26","frstdivid":"WY060480N0700W0SN260"},"geometry":{"type":"Polygon","coordinates":[[[-105.242045,44.104148],[-105.242071,44.107768],[-105.242096,44.111388],[-105.242121,44.115008],[-105.242146,44.118628],[-105.237065,44.11856],[-105.231983,44.118491],[-105.226901,44.118423],[-105.221819,44.118355],[-105.221816,44.114729],[-105.221812,44.111104],[-105.221808,44.107478],[-105.221805,44.103853],[-105.226941,44.104058],[-105.232077,44.104263],[-105.237061,44.104205],[-105.242045,44.104148]]]}},{"type":"Feature","properties":{"sec":"31","frstdivid":"WY060480N0700W0SN310"},"geometry":{"type":"Polygon","coordinates":[[[-105.322936,44.095137],[-105.322961,44.098747],[-105.322986,44.102357],[-105.318235,44.102564],[-105.313128,44.102787],[-105.308021,44.10301],[-105.302914,44.103233],[-105.302939,44.099509],[-105.302964,44.095784],[-105.302989,44.092059],[-105.303014,44.088335],[-105.308105,44.088217],[-105.313196,44.088099],[-105.318288,44.087981],[-105.322992,44.087873],[-105.322964,44.091505],[-105.322936,44.095137]]]}},{"type":"Feature","properties":{"sec":"36","frstdivid":"WY060480N0700W0SN360"},"geometry":{"type":"Polygon","coordinates":[[[-105.201238,44.103874],[-105.201228,44.10022],[-105.201218,44.096566],[-105.201207,44.092912],[-105.201197,44.089259],[-105.206319,44.089355],[-105.211441,44.089452],[-105.216493,44.089402],[-105.221545,44.089352],[-105.22161,44.092977],[-105.221675,44.096603],[-105.22174,44.100228],[-105.221805,44.103853],[-105.216663,44.103858],[-105.211521,44.103863],[-105.20638,44.103869],[-105.201238,44.103874]]]}},{"type":"Feature","properties":{"sec":"13","frstdivid":"WY060480N0700W0SN130"},"geometry":{"type":"Polygon","coordinates":[[[-105.201138,44.136387],[-105.201178,44.132766],[-105.206285,44.132801],[-105.211391,44.132837],[-105.216441,44.132846],[-105.221491,44.132855],[-105.221509,44.13646],[-105.221527,44.140066],[-105.221545,44.143671],[-105.221563,44.147276],[-105.216495,44.147299],[-105.211428,44.147322],[-105.206298,44.147283],[-105.201168,44.147243],[-105.201132,44.143626],[-105.201097,44.140009],[-105.201138,44.136387]]]}},{"type":"Feature","properties":{"sec":"03","frstdivid":"WY060480N0700W0SN030"},"geometry":{"type":"Polygon","coordinates":[[[-105.262164,44.165428],[-105.262129,44.168756],[-105.262094,44.172083],[-105.262058,44.175433],[-105.260836,44.175443],[-105.257009,44.175477],[-105.255771,44.175488],[-105.251959,44.175508],[-105.250727,44.175514],[-105.246909,44.175534],[-105.245682,44.175541],[-105.241859,44.17556],[-105.241792,44.172153],[-105.241727,44.16884],[-105.241662,44.165527],[-105.241597,44.162214],[-105.246831,44.162158],[-105.252065,44.162101],[-105.257132,44.162101],[-105.2622,44.1621],[-105.262164,44.165428]]]}},{"type":"Feature","properties":{"sec":"10","frstdivid":"WY060480N0700W0SN100"},"geometry":{"type":"Polygon","coordinates":[[[-105.262208,44.154821],[-105.262204,44.15846],[-105.2622,44.1621],[-105.257132,44.162101],[-105.252065,44.162101],[-105.246831,44.162158],[-105.241597,44.162214],[-105.241628,44.158569],[-105.241659,44.154924],[-105.24169,44.151278],[-105.241721,44.147633],[-105.246923,44.147619],[-105.252125,44.147606],[-105.25717,44.147573],[-105.262215,44.147541],[-105.262211,44.151181],[-105.262208,44.154821]]]}},{"type":"Feature","properties":{"sec":"11","frstdivid":"WY060480N0700W0SN110"},"geometry":{"type":"Polygon","coordinates":[[[-105.226625,44.161779],[-105.221521,44.161759],[-105.221555,44.158125],[-105.221589,44.154491],[-105.221576,44.150883],[-105.221563,44.147276],[-105.226553,44.147454],[-105.231543,44.147631],[-105.236632,44.147632],[-105.241721,44.147633],[-105.24169,44.151278],[-105.241659,44.154924],[-105.241628,44.158569],[-105.241597,44.162214],[-105.236663,44.162007],[-105.231729,44.161799],[-105.226625,44.161779]]]}},{"type":"Feature","properties":{"sec":"12","frstdivid":"WY060480N0700W0SN120"},"geometry":{"type":"Polygon","coordinates":[[[-105.216495,44.147299],[-105.221563,44.147276],[-105.221576,44.150883],[-105.221589,44.154491],[-105.221555,44.158125],[-105.221521,44.161759],[-105.216501,44.161709],[-105.211481,44.16166],[-105.20646,44.16161],[-105.20144,44.16156],[-105.20134,44.158019],[-105.20124,44.154477],[-105.201204,44.15086],[-105.201168,44.147243],[-105.206298,44.147283],[-105.211428,44.147322],[-105.216495,44.147299]]]}},{"type":"Feature","properties":{"sec":"21","frstdivid":"WY060480N0700W0SN210"},"geometry":{"type":"Polygon","coordinates":[[[-105.262189,44.132959],[-105.262137,44.129317],[-105.262086,44.125675],[-105.26211,44.122035],[-105.262133,44.118395],[-105.267261,44.118332],[-105.272388,44.11827],[-105.277516,44.118207],[-105.282643,44.118145],[-105.282604,44.121811],[-105.282565,44.125477],[-105.282524,44.129136],[-105.282484,44.132795],[-105.27741,44.132836],[-105.272336,44.132877],[-105.267262,44.132918],[-105.262189,44.132959]]]}},{"type":"Feature","properties":{"sec":"14","frstdivid":"WY060480N0700W0SN140"},"geometry":{"type":"Polygon","coordinates":[[[-105.236632,44.147632],[-105.231543,44.147631],[-105.226553,44.147454],[-105.221563,44.147276],[-105.221545,44.143671],[-105.221527,44.140066],[-105.221509,44.13646],[-105.221491,44.132855],[-105.226624,44.133026],[-105.231756,44.133198],[-105.236847,44.133152],[-105.241939,44.133105],[-105.241884,44.136737],[-105.24183,44.140369],[-105.241775,44.144001],[-105.241721,44.147633],[-105.236632,44.147632]]]}},{"type":"Feature","properties":{"sec":"22","frstdivid":"WY060480N0700W0SN220"},"geometry":{"type":"Polygon","coordinates":[[[-105.252064,44.133032],[-105.247001,44.133069],[-105.241939,44.133105],[-105.241997,44.129482],[-105.242056,44.125859],[-105.242101,44.122243],[-105.242146,44.118628],[-105.247143,44.11857],[-105.25214,44.118511],[-105.257137,44.118453],[-105.262133,44.118395],[-105.26211,44.122035],[-105.262086,44.125675],[-105.262137,44.129317],[-105.262189,44.132959],[-105.257126,44.132996],[-105.252064,44.133032]]]}},{"type":"Feature","properties":{"sec":"19","frstdivid":"WY060480N0700W0SN190"},"geometry":{"type":"Polygon","coordinates":[[[-105.308085,44.131821],[-105.30297,44.131988],[-105.302976,44.128379],[-105.302982,44.124769],[-105.302991,44.121166],[-105.303,44.117563],[-105.308117,44.117385],[-105.313234,44.117207],[-105.318351,44.117027],[-105.323024,44.116864],[-105.323018,44.120487],[-105.323012,44.124111],[-105.323014,44.12772],[-105.323016,44.131329],[-105.318314,44.131484],[-105.3132,44.131653],[-105.308085,44.131821]]]}},{"type":"Feature","properties":{"sec":"16","frstdivid":"WY060480N0700W0SN160"},"geometry":{"type":"Polygon","coordinates":[[[-105.262202,44.14025],[-105.262195,44.136605],[-105.262189,44.132959],[-105.267262,44.132918],[-105.272336,44.132877],[-105.27741,44.132836],[-105.282484,44.132795],[-105.282519,44.136405],[-105.282554,44.140015],[-105.282581,44.143632],[-105.282608,44.147248],[-105.27751,44.147321],[-105.272412,44.147394],[-105.267313,44.147467],[-105.262215,44.147541],[-105.262209,44.143895],[-105.262202,44.14025]]]}},{"type":"Feature","properties":{"sec":"07","frstdivid":"WY060480N0700W0SN070"},"geometry":{"type":"Polygon","coordinates":[[[-105.302969,44.153737],[-105.303003,44.150104],[-105.303036,44.146472],[-105.308136,44.146314],[-105.313237,44.146156],[-105.318337,44.145997],[-105.322973,44.145853],[-105.322962,44.149484],[-105.32295,44.153115],[-105.322939,44.156746],[-105.322927,44.160377],[-105.318286,44.160524],[-105.313159,44.160686],[-105.308031,44.160844],[-105.302903,44.161002],[-105.302936,44.15737],[-105.302969,44.153737]]]}},{"type":"Feature","properties":{"sec":"09","frstdivid":"WY060480N0700W0SN090"},"geometry":{"type":"Polygon","coordinates":[[[-105.282608,44.147248],[-105.282593,44.150859],[-105.282577,44.15447],[-105.282562,44.158082],[-105.282546,44.161693],[-105.277459,44.161795],[-105.272373,44.161897],[-105.267286,44.161999],[-105.2622,44.1621],[-105.262204,44.15846],[-105.262208,44.154821],[-105.262211,44.151181],[-105.262215,44.147541],[-105.267313,44.147467],[-105.272412,44.147394],[-105.27751,44.147321],[-105.282608,44.147248]]]}},{"type":"Feature","properties":{"sec":"08","frstdivid":"WY060480N0700W0SN080"},"geometry":{"type":"Polygon","coordinates":[[[-105.287715,44.147054],[-105.292822,44.14686],[-105.297929,44.146666],[-105.303036,44.146472],[-105.303003,44.150104],[-105.302969,44.153737],[-105.302936,44.15737],[-105.302903,44.161002],[-105.297814,44.161175],[-105.292725,44.161347],[-105.287635,44.16152],[-105.282546,44.161693],[-105.282562,44.158082],[-105.282577,44.15447],[-105.282593,44.150859],[-105.282608,44.147248],[-105.287715,44.147054]]]}},{"type":"Feature","properties":{"sec":"18","frstdivid":"WY060480N0700W0SN180"},"geometry":{"type":"Polygon","coordinates":[[[-105.323005,44.13496],[-105.322995,44.138591],[-105.322984,44.142222],[-105.322973,44.145853],[-105.318337,44.145997],[-105.313237,44.146156],[-105.308136,44.146314],[-105.303036,44.146472],[-105.302981,44.142839],[-105.302927,44.139207],[-105.302949,44.135597],[-105.30297,44.131988],[-105.308085,44.131821],[-105.3132,44.131653],[-105.318314,44.131484],[-105.323016,44.131329],[-105.323005,44.13496]]]}},{"type":"Feature","properties":{"sec":"17","frstdivid":"WY060480N0700W0SN170"},"geometry":{"type":"Polygon","coordinates":[[[-105.287605,44.132593],[-105.292727,44.132392],[-105.297849,44.13219],[-105.30297,44.131988],[-105.302949,44.135597],[-105.302927,44.139207],[-105.302981,44.142839],[-105.303036,44.146472],[-105.297929,44.146666],[-105.292822,44.14686],[-105.287715,44.147054],[-105.282608,44.147248],[-105.282581,44.143632],[-105.282554,44.140015],[-105.282519,44.136405],[-105.282484,44.132795],[-105.287605,44.132593]]]}},{"type":"Feature","properties":{"sec":"20","frstdivid":"WY060480N0700W0SN200"},"geometry":{"type":"Polygon","coordinates":[[[-105.282524,44.129136],[-105.282565,44.125477],[-105.282604,44.121811],[-105.282643,44.118145],[-105.287732,44.117999],[-105.292821,44.117854],[-105.29791,44.117709],[-105.303,44.117563],[-105.302991,44.121166],[-105.302982,44.124769],[-105.302976,44.128379],[-105.30297,44.131988],[-105.297849,44.13219],[-105.292727,44.132392],[-105.287605,44.132593],[-105.282484,44.132795],[-105.282524,44.129136]]]}},{"type":"Feature","properties":{"sec":"15","frstdivid":"WY060480N0700W0SN150"},"geometry":{"type":"Polygon","coordinates":[[[-105.252125,44.147606],[-105.246923,44.147619],[-105.241721,44.147633],[-105.241775,44.144001],[-105.24183,44.140369],[-105.241884,44.136737],[-105.241939,44.133105],[-105.247001,44.133069],[-105.252064,44.133032],[-105.257126,44.132996],[-105.262189,44.132959],[-105.262195,44.136605],[-105.262202,44.14025],[-105.262209,44.143895],[-105.262215,44.147541],[-105.25717,44.147573],[-105.252125,44.147606]]]}},{"type":"Feature","properties":{"sec":"24","frstdivid":"WY060480N0700W0SN240"},"geometry":{"type":"Polygon","coordinates":[[[-105.221737,44.12198],[-105.221655,44.125605],[-105.221573,44.12923],[-105.221491,44.132855],[-105.216441,44.132846],[-105.211391,44.132837],[-105.206285,44.132801],[-105.201178,44.132766],[-105.201172,44.129185],[-105.201166,44.125605],[-105.201215,44.122047],[-105.201263,44.118488],[-105.206402,44.118455],[-105.211541,44.118422],[-105.21668,44.118388],[-105.221819,44.118355],[-105.221737,44.12198]]]}},{"type":"Feature","properties":{"sec":"23","frstdivid":"WY060480N0700W0SN230"},"geometry":{"type":"Polygon","coordinates":[[[-105.226901,44.118423],[-105.231983,44.118491],[-105.237065,44.11856],[-105.242146,44.118628],[-105.242101,44.122243],[-105.242056,44.125859],[-105.241997,44.129482],[-105.241939,44.133105],[-105.236847,44.133152],[-105.231756,44.133198],[-105.226624,44.133026],[-105.221491,44.132855],[-105.221573,44.12923],[-105.221655,44.125605],[-105.221737,44.12198],[-105.221819,44.118355],[-105.226901,44.118423]]]}},{"type":"Feature","properties":{"sec":"06","frstdivid":"WY060480N0700W0SN060"},"geometry":{"type":"Polygon","coordinates":[[[-105.321987,44.174881],[-105.318218,44.17491],[-105.316891,44.17492],[-105.313121,44.174948],[-105.311795,44.174959],[-105.308023,44.174987],[-105.306699,44.174998],[-105.302924,44.175031],[-105.302918,44.171463],[-105.302912,44.167976],[-105.302908,44.164489],[-105.302903,44.161002],[-105.308031,44.160844],[-105.313159,44.160686],[-105.318286,44.160524],[-105.322927,44.160377],[-105.322917,44.164008],[-105.322906,44.167639],[-105.322896,44.17127],[-105.322886,44.174874],[-105.321987,44.174881]]]}},{"type":"Feature","properties":{"sec":"02","frstdivid":"WY060480N0700W0SN020"},"geometry":{"type":"Polygon","coordinates":[[[-105.241859,44.17556],[-105.240637,44.175567],[-105.236764,44.175588],[-105.235592,44.175594],[-105.231668,44.175617],[-105.230513,44.175624],[-105.226573,44.175647],[-105.225434,44.175653],[-105.221478,44.175681],[-105.221489,44.172138],[-105.2215,44.168678],[-105.221511,44.165219],[-105.221521,44.161759],[-105.226625,44.161779],[-105.231729,44.161799],[-105.236663,44.162007],[-105.241597,44.162214],[-105.241662,44.165527],[-105.241727,44.16884],[-105.241792,44.172153],[-105.241859,44.17556]]]}},{"type":"Feature","properties":{"sec":"05","frstdivid":"WY060480N0700W0SN050"},"geometry":{"type":"Polygon","coordinates":[[[-105.302924,44.175031],[-105.301583,44.175043],[-105.297821,44.175076],[-105.296466,44.175088],[-105.292717,44.175121],[-105.29135,44.175133],[-105.287614,44.175165],[-105.286234,44.175177],[-105.28251,44.175225],[-105.282519,44.171809],[-105.282528,44.168437],[-105.282537,44.165065],[-105.282546,44.161693],[-105.287635,44.16152],[-105.292725,44.161347],[-105.297814,44.161175],[-105.302903,44.161002],[-105.302908,44.164489],[-105.302912,44.167976],[-105.302918,44.171463],[-105.302924,44.175031]]]}},{"type":"Feature","properties":{"sec":"01","frstdivid":"WY060480N0700W0SN010"},"geometry":{"type":"Polygon","coordinates":[[[-105.221511,44.165219],[-105.2215,44.168678],[-105.221489,44.172138],[-105.221478,44.175681],[-105.22042,44.175688],[-105.21657,44.175714],[-105.215407,44.175722],[-105.211662,44.175747],[-105.210394,44.175755],[-105.206754,44.17578],[-105.20538,44.175789],[-105.201847,44.175814],[-105.201743,44.172184],[-105.201641,44.168643],[-105.20154,44.165101],[-105.20144,44.16156],[-105.20646,44.16161],[-105.211481,44.16166],[-105.216501,44.161709],[-105.221521,44.161759],[-105.221511,44.165219]]]}},{"type":"Feature","properties":{"sec":"04","frstdivid":"WY060480N0700W0SN040"},"geometry":{"type":"Polygon","coordinates":[[[-105.281132,44.175242],[-105.277398,44.175291],[-105.27603,44.175308],[-105.272285,44.175342],[-105.270966,44.175354],[-105.267172,44.175388],[-105.265901,44.175399],[-105.262058,44.175433],[-105.262094,44.172083],[-105.262129,44.168756],[-105.262164,44.165428],[-105.2622,44.1621],[-105.267286,44.161999],[-105.272373,44.161897],[-105.277459,44.161795],[-105.282546,44.161693],[-105.282537,44.165065],[-105.282528,44.168437],[-105.282519,44.171809],[-105.28251,44.175225],[-105.281132,44.175242]]]}}]}