{"type":"FeatureCollection","note":"BLM Public Land Survey System. Provided by the Bureau of Land Management as is. These data are neither legal documents nor land surveys and must not be used as such.","features":[{"type":"Feature","properties":{"sec":"19","frstdivid":"MT200100N0570E0SN190"},"geometry":{"type":"Polygon","coordinates":[[[-104.585966,46.601735],[-104.585956,46.598112],[-104.591207,46.598108],[-104.596458,46.598105],[-104.601709,46.598102],[-104.606763,46.598099],[-104.606767,46.601718],[-104.606771,46.605336],[-104.606775,46.608955],[-104.606779,46.612574],[-104.601753,46.612581],[-104.596501,46.612588],[-104.591248,46.612596],[-104.585995,46.612604],[-104.585985,46.608981],[-104.585975,46.605358],[-104.585966,46.601735]]]}},{"type":"Feature","properties":{"sec":"02","frstdivid":"MT200100N0570E0SN020"},"geometry":{"type":"Polygon","coordinates":[[[-104.517677,46.641455],[-104.522943,46.641458],[-104.522969,46.645078],[-104.522995,46.648698],[-104.523024,46.652318],[-104.523053,46.656002],[-104.517783,46.655997],[-104.512512,46.655991],[-104.507242,46.655985],[-104.501971,46.65598],[-104.501951,46.652316],[-104.50193,46.648694],[-104.501905,46.645069],[-104.50188,46.641445],[-104.507146,46.641448],[-104.512411,46.641452],[-104.517677,46.641455]]]}},{"type":"Feature","properties":{"sec":"07","frstdivid":"MT200100N0570E0SN070"},"geometry":{"type":"Polygon","coordinates":[[[-104.58604,46.634347],[-104.586032,46.630723],[-104.586024,46.6271],[-104.591277,46.627084],[-104.596531,46.627068],[-104.601784,46.62705],[-104.606801,46.627034],[-104.606806,46.630652],[-104.606812,46.63427],[-104.606818,46.637888],[-104.606823,46.641507],[-104.601819,46.641527],[-104.596565,46.641549],[-104.59131,46.641571],[-104.586056,46.641593],[-104.586048,46.63797],[-104.58604,46.634347]]]}},{"type":"Feature","properties":{"sec":"26","frstdivid":"MT200100N0570E0SN260"},"geometry":{"type":"Polygon","coordinates":[[[-104.50183,46.583471],[-104.507091,46.583483],[-104.512353,46.583494],[-104.517615,46.583506],[-104.522876,46.583518],[-104.52288,46.587138],[-104.522884,46.590759],[-104.522888,46.594379],[-104.522892,46.598],[-104.517629,46.597989],[-104.512367,46.597977],[-104.507105,46.597966],[-104.501843,46.597954],[-104.50184,46.594334],[-104.501837,46.590713],[-104.501833,46.587092],[-104.50183,46.583471]]]}},{"type":"Feature","properties":{"sec":"13","frstdivid":"MT200100N0570E0SN130"},"geometry":{"type":"Polygon","coordinates":[[[-104.480868,46.616059],[-104.480867,46.612435],[-104.486107,46.612436],[-104.491348,46.612436],[-104.496588,46.612437],[-104.501829,46.612437],[-104.501834,46.616061],[-104.50184,46.619686],[-104.501846,46.62331],[-104.501852,46.626934],[-104.496607,46.626933],[-104.491363,46.626932],[-104.486118,46.626931],[-104.480874,46.62693],[-104.480872,46.623306],[-104.48087,46.619683],[-104.480868,46.616059]]]}},{"type":"Feature","properties":{"sec":"36","frstdivid":"MT200100N0570E0SN360"},"geometry":{"type":"Polygon","coordinates":[[[-104.486054,46.568942],[-104.491311,46.568958],[-104.496568,46.568973],[-104.501824,46.568989],[-104.501826,46.572609],[-104.501827,46.57623],[-104.501828,46.579851],[-104.50183,46.583471],[-104.496579,46.583459],[-104.491328,46.583447],[-104.486077,46.583436],[-104.480827,46.583424],[-104.480819,46.579799],[-104.480812,46.576175],[-104.480805,46.572551],[-104.480798,46.568927],[-104.486054,46.568942]]]}},{"type":"Feature","properties":{"sec":"30","frstdivid":"MT200100N0570E0SN300"},"geometry":{"type":"Polygon","coordinates":[[[-104.5859,46.583618],[-104.591149,46.58362],[-104.596398,46.583622],[-104.601647,46.583624],[-104.606749,46.583626],[-104.606752,46.587244],[-104.606756,46.590862],[-104.606759,46.594481],[-104.606763,46.598099],[-104.601709,46.598102],[-104.596458,46.598105],[-104.591207,46.598108],[-104.585956,46.598112],[-104.585942,46.594488],[-104.585928,46.590865],[-104.585914,46.587241],[-104.5859,46.583618]]]}},{"type":"Feature","properties":{"sec":"31","frstdivid":"MT200100N0570E0SN310"},"geometry":{"type":"Polygon","coordinates":[[[-104.5859,46.583618],[-104.585892,46.579998],[-104.585884,46.576378],[-104.585876,46.572757],[-104.585868,46.569137],[-104.591116,46.569141],[-104.596363,46.569144],[-104.601611,46.569148],[-104.606743,46.569152],[-104.606744,46.572771],[-104.606746,46.576389],[-104.606747,46.580007],[-104.606749,46.583626],[-104.601647,46.583624],[-104.596398,46.583622],[-104.591149,46.58362],[-104.5859,46.583618]]]}},{"type":"Feature","properties":{"sec":"24","frstdivid":"MT200100N0570E0SN240"},"geometry":{"type":"Polygon","coordinates":[[[-104.480863,46.601554],[-104.480862,46.597926],[-104.486107,46.597933],[-104.491353,46.59794],[-104.496598,46.597947],[-104.501843,46.597954],[-104.50184,46.601575],[-104.501836,46.605196],[-104.501832,46.608816],[-104.501829,46.612437],[-104.496588,46.612437],[-104.491348,46.612436],[-104.486107,46.612436],[-104.480867,46.612435],[-104.480866,46.608808],[-104.480864,46.605181],[-104.480863,46.601554]]]}},{"type":"Feature","properties":{"sec":"21","frstdivid":"MT200100N0570E0SN210"},"geometry":{"type":"Polygon","coordinates":[[[-104.564958,46.612574],[-104.559713,46.612562],[-104.554468,46.612549],[-104.549223,46.612536],[-104.543977,46.612524],[-104.54397,46.608904],[-104.543963,46.605284],[-104.543956,46.601663],[-104.543949,46.598043],[-104.549193,46.598052],[-104.554438,46.59806],[-104.559682,46.598069],[-104.564927,46.598078],[-104.564935,46.601702],[-104.564942,46.605326],[-104.56495,46.60895],[-104.564958,46.612574]]]}},{"type":"Feature","properties":{"sec":"32","frstdivid":"MT200100N0570E0SN320"},"geometry":{"type":"Polygon","coordinates":[[[-104.564883,46.572734],[-104.564875,46.569113],[-104.570124,46.569119],[-104.575372,46.569125],[-104.58062,46.569131],[-104.585868,46.569137],[-104.585876,46.572757],[-104.585884,46.576378],[-104.585892,46.579998],[-104.5859,46.583618],[-104.580651,46.583613],[-104.575403,46.583607],[-104.570155,46.583602],[-104.564907,46.583597],[-104.564899,46.579976],[-104.564891,46.576355],[-104.564883,46.572734]]]}},{"type":"Feature","properties":{"sec":"29","frstdivid":"MT200100N0570E0SN290"},"geometry":{"type":"Polygon","coordinates":[[[-104.580651,46.583613],[-104.5859,46.583618],[-104.585914,46.587241],[-104.585928,46.590865],[-104.585942,46.594488],[-104.585956,46.598112],[-104.580698,46.598103],[-104.575441,46.598095],[-104.570184,46.598086],[-104.564927,46.598078],[-104.564922,46.594457],[-104.564917,46.590837],[-104.564912,46.587217],[-104.564907,46.583597],[-104.570155,46.583602],[-104.575403,46.583607],[-104.580651,46.583613]]]}},{"type":"Feature","properties":{"sec":"10","frstdivid":"MT200100N0570E0SN100"},"geometry":{"type":"Polygon","coordinates":[[[-104.522929,46.634215],[-104.522922,46.630593],[-104.522915,46.626971],[-104.528188,46.62698],[-104.533462,46.62699],[-104.538735,46.627],[-104.544009,46.62701],[-104.544016,46.630631],[-104.544024,46.634252],[-104.544031,46.637873],[-104.544039,46.641494],[-104.538765,46.641485],[-104.533491,46.641476],[-104.528217,46.641467],[-104.522943,46.641458],[-104.522936,46.637836],[-104.522929,46.634215]]]}},{"type":"Feature","properties":{"sec":"06","frstdivid":"MT200100N0570E0SN060"},"geometry":{"type":"Polygon","coordinates":[[[-104.591425,46.655983],[-104.586169,46.655984],[-104.586143,46.652455],[-104.586116,46.648835],[-104.586086,46.645214],[-104.586056,46.641593],[-104.59131,46.641571],[-104.596565,46.641549],[-104.601819,46.641527],[-104.606823,46.641507],[-104.606829,46.645124],[-104.606835,46.648741],[-104.606841,46.652358],[-104.606846,46.655975],[-104.601937,46.655978],[-104.596681,46.655981],[-104.591425,46.655983]]]}},{"type":"Feature","properties":{"sec":"11","frstdivid":"MT200100N0570E0SN110"},"geometry":{"type":"Polygon","coordinates":[[[-104.512411,46.641452],[-104.507146,46.641448],[-104.50188,46.641445],[-104.501873,46.637817],[-104.501866,46.63419],[-104.501859,46.630562],[-104.501852,46.626934],[-104.507117,46.626943],[-104.512383,46.626952],[-104.517649,46.626962],[-104.522915,46.626971],[-104.522922,46.630593],[-104.522929,46.634215],[-104.522936,46.637836],[-104.522943,46.641458],[-104.517677,46.641455],[-104.512411,46.641452]]]}},{"type":"Feature","properties":{"sec":"20","frstdivid":"MT200100N0570E0SN200"},"geometry":{"type":"Polygon","coordinates":[[[-104.585985,46.608981],[-104.585995,46.612604],[-104.580736,46.612596],[-104.575477,46.612589],[-104.570217,46.612582],[-104.564958,46.612574],[-104.56495,46.60895],[-104.564942,46.605326],[-104.564935,46.601702],[-104.564927,46.598078],[-104.570184,46.598086],[-104.575441,46.598095],[-104.580698,46.598103],[-104.585956,46.598112],[-104.585966,46.601735],[-104.585975,46.605358],[-104.585985,46.608981]]]}},{"type":"Feature","properties":{"sec":"16","frstdivid":"MT200100N0570E0SN160"},"geometry":{"type":"Polygon","coordinates":[[[-104.559713,46.612562],[-104.564958,46.612574],[-104.564967,46.616198],[-104.564976,46.619821],[-104.564984,46.623445],[-104.564993,46.627068],[-104.559747,46.627054],[-104.554501,46.627039],[-104.549255,46.627024],[-104.544009,46.62701],[-104.544001,46.623388],[-104.543993,46.619767],[-104.543985,46.616145],[-104.543977,46.612524],[-104.549223,46.612536],[-104.554468,46.612549],[-104.559713,46.612562]]]}},{"type":"Feature","properties":{"sec":"08","frstdivid":"MT200100N0570E0SN080"},"geometry":{"type":"Polygon","coordinates":[[[-104.565027,46.637929],[-104.565015,46.634309],[-104.565004,46.630689],[-104.564993,46.627068],[-104.570251,46.627076],[-104.575508,46.627084],[-104.580766,46.627092],[-104.586024,46.6271],[-104.586032,46.630723],[-104.58604,46.634347],[-104.586048,46.63797],[-104.586056,46.641593],[-104.580802,46.641582],[-104.575547,46.641571],[-104.570292,46.641561],[-104.565038,46.64155],[-104.565027,46.637929]]]}},{"type":"Feature","properties":{"sec":"33","frstdivid":"MT200100N0570E0SN330"},"geometry":{"type":"Polygon","coordinates":[[[-104.55966,46.583587],[-104.554414,46.583577],[-104.549167,46.583567],[-104.543921,46.583557],[-104.543909,46.579937],[-104.543896,46.576317],[-104.543884,46.572698],[-104.543871,46.569078],[-104.549122,46.569087],[-104.554373,46.569096],[-104.559624,46.569105],[-104.564875,46.569113],[-104.564883,46.572734],[-104.564891,46.576355],[-104.564899,46.579976],[-104.564907,46.583597],[-104.55966,46.583587]]]}},{"type":"Feature","properties":{"sec":"14","frstdivid":"MT200100N0570E0SN140"},"geometry":{"type":"Polygon","coordinates":[[[-104.517639,46.612472],[-104.52291,46.612484],[-104.522911,46.616106],[-104.522912,46.619727],[-104.522914,46.623349],[-104.522915,46.626971],[-104.517649,46.626962],[-104.512383,46.626952],[-104.507117,46.626943],[-104.501852,46.626934],[-104.501846,46.62331],[-104.50184,46.619686],[-104.501834,46.616061],[-104.501829,46.612437],[-104.507099,46.612449],[-104.512369,46.61246],[-104.517639,46.612472]]]}},{"type":"Feature","properties":{"sec":"01","frstdivid":"MT200100N0570E0SN010"},"geometry":{"type":"Polygon","coordinates":[[[-104.480886,46.648686],[-104.480882,46.64506],[-104.480878,46.641434],[-104.486128,46.641437],[-104.491379,46.64144],[-104.49663,46.641442],[-104.50188,46.641445],[-104.501905,46.645069],[-104.50193,46.648694],[-104.501951,46.652316],[-104.501971,46.65598],[-104.496702,46.655969],[-104.491432,46.655958],[-104.486163,46.655948],[-104.480894,46.655937],[-104.48089,46.652312],[-104.480886,46.648686]]]}},{"type":"Feature","properties":{"sec":"34","frstdivid":"MT200100N0570E0SN340"},"geometry":{"type":"Polygon","coordinates":[[[-104.522851,46.569038],[-104.528106,46.569048],[-104.533361,46.569058],[-104.538616,46.569068],[-104.543871,46.569078],[-104.543884,46.572698],[-104.543896,46.576317],[-104.543909,46.579937],[-104.543921,46.583557],[-104.53866,46.583547],[-104.533399,46.583537],[-104.528137,46.583527],[-104.522876,46.583518],[-104.52287,46.579898],[-104.522864,46.576278],[-104.522857,46.572658],[-104.522851,46.569038]]]}},{"type":"Feature","properties":{"sec":"05","frstdivid":"MT200100N0570E0SN050"},"geometry":{"type":"Polygon","coordinates":[[[-104.586143,46.652455],[-104.586169,46.655984],[-104.580914,46.655987],[-104.57566,46.65599],[-104.570405,46.655993],[-104.565151,46.655996],[-104.565122,46.652406],[-104.565094,46.648787],[-104.565066,46.645169],[-104.565038,46.64155],[-104.570292,46.641561],[-104.575547,46.641571],[-104.580802,46.641582],[-104.586056,46.641593],[-104.586086,46.645214],[-104.586116,46.648835],[-104.586143,46.652455]]]}},{"type":"Feature","properties":{"sec":"28","frstdivid":"MT200100N0570E0SN280"},"geometry":{"type":"Polygon","coordinates":[[[-104.564907,46.583597],[-104.564912,46.587217],[-104.564917,46.590837],[-104.564922,46.594457],[-104.564927,46.598078],[-104.559682,46.598069],[-104.554438,46.59806],[-104.549193,46.598052],[-104.543949,46.598043],[-104.543942,46.594422],[-104.543935,46.5908],[-104.543928,46.587178],[-104.543921,46.583557],[-104.549167,46.583567],[-104.554414,46.583577],[-104.55966,46.583587],[-104.564907,46.583597]]]}},{"type":"Feature","properties":{"sec":"17","frstdivid":"MT200100N0570E0SN170"},"geometry":{"type":"Polygon","coordinates":[[[-104.586017,46.623476],[-104.586024,46.6271],[-104.580766,46.627092],[-104.575508,46.627084],[-104.570251,46.627076],[-104.564993,46.627068],[-104.564984,46.623445],[-104.564976,46.619821],[-104.564967,46.616198],[-104.564958,46.612574],[-104.570217,46.612582],[-104.575477,46.612589],[-104.580736,46.612596],[-104.585995,46.612604],[-104.586002,46.616228],[-104.586009,46.619852],[-104.586017,46.623476]]]}},{"type":"Feature","properties":{"sec":"18","frstdivid":"MT200100N0570E0SN180"},"geometry":{"type":"Polygon","coordinates":[[[-104.596501,46.612588],[-104.601753,46.612581],[-104.606779,46.612574],[-104.606785,46.616189],[-104.60679,46.619804],[-104.606795,46.623419],[-104.606801,46.627034],[-104.601784,46.62705],[-104.596531,46.627068],[-104.591277,46.627084],[-104.586024,46.6271],[-104.586017,46.623476],[-104.586009,46.619852],[-104.586002,46.616228],[-104.585995,46.612604],[-104.591248,46.612596],[-104.596501,46.612588]]]}},{"type":"Feature","properties":{"sec":"35","frstdivid":"MT200100N0570E0SN350"},"geometry":{"type":"Polygon","coordinates":[[[-104.522876,46.583518],[-104.517615,46.583506],[-104.512353,46.583494],[-104.507091,46.583483],[-104.50183,46.583471],[-104.501828,46.579851],[-104.501827,46.57623],[-104.501826,46.572609],[-104.501824,46.568989],[-104.507081,46.569001],[-104.512338,46.569013],[-104.517594,46.569025],[-104.522851,46.569038],[-104.522857,46.572658],[-104.522864,46.576278],[-104.52287,46.579898],[-104.522876,46.583518]]]}},{"type":"Feature","properties":{"sec":"23","frstdivid":"MT200100N0570E0SN230"},"geometry":{"type":"Polygon","coordinates":[[[-104.501829,46.612437],[-104.501832,46.608816],[-104.501836,46.605196],[-104.50184,46.601575],[-104.501843,46.597954],[-104.507105,46.597966],[-104.512367,46.597977],[-104.517629,46.597989],[-104.522892,46.598],[-104.522896,46.601621],[-104.522901,46.605242],[-104.522905,46.608863],[-104.52291,46.612484],[-104.517639,46.612472],[-104.512369,46.61246],[-104.507099,46.612449],[-104.501829,46.612437]]]}},{"type":"Feature","properties":{"sec":"15","frstdivid":"MT200100N0570E0SN150"},"geometry":{"type":"Polygon","coordinates":[[[-104.53871,46.612514],[-104.543977,46.612524],[-104.543985,46.616145],[-104.543993,46.619767],[-104.544001,46.623388],[-104.544009,46.62701],[-104.538735,46.627],[-104.533462,46.62699],[-104.528188,46.62698],[-104.522915,46.626971],[-104.522914,46.623349],[-104.522912,46.619727],[-104.522911,46.616106],[-104.52291,46.612484],[-104.528177,46.612494],[-104.533444,46.612504],[-104.53871,46.612514]]]}},{"type":"Feature","properties":{"sec":"27","frstdivid":"MT200100N0570E0SN270"},"geometry":{"type":"Polygon","coordinates":[[[-104.52288,46.587138],[-104.522876,46.583518],[-104.528137,46.583527],[-104.533399,46.583537],[-104.53866,46.583547],[-104.543921,46.583557],[-104.543928,46.587178],[-104.543935,46.5908],[-104.543942,46.594422],[-104.543949,46.598043],[-104.538684,46.598032],[-104.53342,46.598022],[-104.528156,46.598011],[-104.522892,46.598],[-104.522888,46.594379],[-104.522884,46.590759],[-104.52288,46.587138]]]}},{"type":"Feature","properties":{"sec":"09","frstdivid":"MT200100N0570E0SN090"},"geometry":{"type":"Polygon","coordinates":[[[-104.549255,46.627024],[-104.554501,46.627039],[-104.559747,46.627054],[-104.564993,46.627068],[-104.565004,46.630689],[-104.565015,46.634309],[-104.565027,46.637929],[-104.565038,46.64155],[-104.559788,46.641536],[-104.554538,46.641522],[-104.549289,46.641508],[-104.544039,46.641494],[-104.544031,46.637873],[-104.544024,46.634252],[-104.544016,46.630631],[-104.544009,46.62701],[-104.549255,46.627024]]]}},{"type":"Feature","properties":{"sec":"25","frstdivid":"MT200100N0570E0SN250"},"geometry":{"type":"Polygon","coordinates":[[[-104.501843,46.597954],[-104.496598,46.597947],[-104.491353,46.59794],[-104.486107,46.597933],[-104.480862,46.597926],[-104.480853,46.594301],[-104.480844,46.590675],[-104.480835,46.587049],[-104.480827,46.583424],[-104.486077,46.583436],[-104.491328,46.583447],[-104.496579,46.583459],[-104.50183,46.583471],[-104.501833,46.587092],[-104.501837,46.590713],[-104.50184,46.594334],[-104.501843,46.597954]]]}},{"type":"Feature","properties":{"sec":"03","frstdivid":"MT200100N0570E0SN030"},"geometry":{"type":"Polygon","coordinates":[[[-104.544103,46.655996],[-104.53884,46.655997],[-104.533578,46.655999],[-104.528316,46.656001],[-104.523053,46.656002],[-104.523024,46.652318],[-104.522995,46.648698],[-104.522969,46.645078],[-104.522943,46.641458],[-104.528217,46.641467],[-104.533491,46.641476],[-104.538765,46.641485],[-104.544039,46.641494],[-104.544055,46.645114],[-104.544071,46.648735],[-104.544087,46.652354],[-104.544103,46.655996]]]}},{"type":"Feature","properties":{"sec":"04","frstdivid":"MT200100N0570E0SN040"},"geometry":{"type":"Polygon","coordinates":[[[-104.565122,46.652406],[-104.565151,46.655996],[-104.559889,46.655996],[-104.554627,46.655996],[-104.549365,46.655996],[-104.544103,46.655996],[-104.544087,46.652354],[-104.544071,46.648735],[-104.544055,46.645114],[-104.544039,46.641494],[-104.549289,46.641508],[-104.554538,46.641522],[-104.559788,46.641536],[-104.565038,46.64155],[-104.565066,46.645169],[-104.565094,46.648787],[-104.565122,46.652406]]]}},{"type":"Feature","properties":{"sec":"22","frstdivid":"MT200100N0570E0SN220"},"geometry":{"type":"Polygon","coordinates":[[[-104.53871,46.612514],[-104.533444,46.612504],[-104.528177,46.612494],[-104.52291,46.612484],[-104.522905,46.608863],[-104.522901,46.605242],[-104.522896,46.601621],[-104.522892,46.598],[-104.528156,46.598011],[-104.53342,46.598022],[-104.538684,46.598032],[-104.543949,46.598043],[-104.543956,46.601663],[-104.543963,46.605284],[-104.54397,46.608904],[-104.543977,46.612524],[-104.53871,46.612514]]]}},{"type":"Feature","properties":{"sec":"12","frstdivid":"MT200100N0570E0SN120"},"geometry":{"type":"Polygon","coordinates":[[[-104.501852,46.626934],[-104.501859,46.630562],[-104.501866,46.63419],[-104.501873,46.637817],[-104.50188,46.641445],[-104.49663,46.641442],[-104.491379,46.64144],[-104.486128,46.641437],[-104.480878,46.641434],[-104.480877,46.637808],[-104.480876,46.634182],[-104.480875,46.630556],[-104.480874,46.62693],[-104.486118,46.626931],[-104.491363,46.626932],[-104.496607,46.626933],[-104.501852,46.626934]]]}}]}