{"type":"FeatureCollection","note":"BLM Public Land Survey System. Provided by the Bureau of Land Management as is. These data are neither legal documents nor land surveys and must not be used as such.","features":[{"type":"Feature","properties":{"sec":"06","frstdivid":"WY060530N0620W0SN060"},"geometry":{"type":"Polygon","coordinates":[[[-104.356721,44.607425],[-104.356725,44.608333],[-104.356733,44.611044],[-104.356737,44.612005],[-104.356745,44.614663],[-104.35675,44.615677],[-104.356757,44.619349],[-104.351805,44.619342],[-104.346747,44.619334],[-104.341691,44.619329],[-104.336635,44.619324],[-104.336619,44.615722],[-104.336603,44.612117],[-104.33659,44.608511],[-104.336577,44.604906],[-104.341656,44.604842],[-104.346735,44.604779],[-104.351815,44.604719],[-104.356714,44.604661],[-104.356721,44.607425]]]}},{"type":"Feature","properties":{"sec":"33","frstdivid":"WY060530N0620W0SN330"},"geometry":{"type":"Polygon","coordinates":[[[-104.316059,44.543136],[-104.315965,44.546929],[-104.310872,44.54724],[-104.305779,44.547552],[-104.300685,44.547864],[-104.295592,44.548176],[-104.295657,44.544094],[-104.295722,44.540011],[-104.295787,44.535929],[-104.295852,44.531846],[-104.297757,44.531838],[-104.300973,44.531824],[-104.302796,44.531816],[-104.306095,44.531802],[-104.307835,44.531794],[-104.311217,44.53178],[-104.312874,44.531772],[-104.316339,44.531757],[-104.316246,44.53555],[-104.316152,44.539343],[-104.316059,44.543136]]]}},{"type":"Feature","properties":{"sec":"08","frstdivid":"WY060530N0620W0SN080"},"geometry":{"type":"Polygon","coordinates":[[[-104.321362,44.604855],[-104.316291,44.604838],[-104.316408,44.601217],[-104.316525,44.597597],[-104.316642,44.593977],[-104.316759,44.590357],[-104.321764,44.590389],[-104.326768,44.590421],[-104.331773,44.590454],[-104.336777,44.590486],[-104.336727,44.594091],[-104.336677,44.597696],[-104.336627,44.601301],[-104.336577,44.604906],[-104.331505,44.604889],[-104.326434,44.604872],[-104.321362,44.604855]]]}},{"type":"Feature","properties":{"sec":"27","frstdivid":"WY060530N0620W0SN270"},"geometry":{"type":"Polygon","coordinates":[[[-104.275841,44.547176],[-104.280779,44.547426],[-104.285717,44.547676],[-104.290654,44.547926],[-104.295592,44.548176],[-104.295601,44.551722],[-104.295611,44.555268],[-104.295435,44.558883],[-104.295258,44.562498],[-104.290297,44.562316],[-104.285336,44.562135],[-104.280376,44.561954],[-104.275415,44.561773],[-104.275521,44.558124],[-104.275628,44.554474],[-104.275735,44.550825],[-104.275841,44.547176]]]}},{"type":"Feature","properties":{"sec":"35","frstdivid":"WY060530N0620W0SN350"},"geometry":{"type":"Polygon","coordinates":[[[-104.272129,44.531837],[-104.275316,44.531838],[-104.275395,44.535804],[-104.275473,44.539771],[-104.275657,44.543473],[-104.275841,44.547176],[-104.270853,44.547358],[-104.265865,44.54754],[-104.260822,44.547439],[-104.255779,44.547338],[-104.255536,44.543464],[-104.255293,44.53959],[-104.25505,44.535716],[-104.254806,44.531843],[-104.256826,44.531841],[-104.259927,44.531839],[-104.261927,44.531837],[-104.265048,44.531835],[-104.267028,44.531835],[-104.270182,44.531837],[-104.272129,44.531837]]]}},{"type":"Feature","properties":{"sec":"36","frstdivid":"WY060530N0620W0SN360"},"geometry":{"type":"Polygon","coordinates":[[[-104.245373,44.546999],[-104.24017,44.54683],[-104.234967,44.54666],[-104.234859,44.543015],[-104.23475,44.53937],[-104.234641,44.535725],[-104.234533,44.53208],[-104.237043,44.532049],[-104.239601,44.53202],[-104.241988,44.531992],[-104.24467,44.531961],[-104.246934,44.531935],[-104.249738,44.531902],[-104.25188,44.531877],[-104.254806,44.531843],[-104.25505,44.535716],[-104.255293,44.53959],[-104.255536,44.543464],[-104.255779,44.547338],[-104.250576,44.547168],[-104.245373,44.546999]]]}},{"type":"Feature","properties":{"sec":"05","frstdivid":"WY060530N0620W0SN050"},"geometry":{"type":"Polygon","coordinates":[[[-104.316291,44.604838],[-104.321362,44.604855],[-104.326434,44.604872],[-104.331505,44.604889],[-104.336577,44.604906],[-104.33659,44.608511],[-104.336603,44.612117],[-104.336619,44.615722],[-104.336635,44.619324],[-104.331564,44.619324],[-104.326493,44.619325],[-104.321415,44.619312],[-104.316337,44.6193],[-104.316315,44.615701],[-104.316293,44.612077],[-104.316292,44.608457],[-104.316291,44.604838]]]}},{"type":"Feature","properties":{"sec":"29","frstdivid":"WY060530N0620W0SN290"},"geometry":{"type":"Polygon","coordinates":[[[-104.317239,44.561669],[-104.317114,44.558093],[-104.316989,44.554517],[-104.316477,44.550723],[-104.315965,44.546929],[-104.321049,44.546836],[-104.326133,44.546743],[-104.331217,44.54665],[-104.336301,44.546557],[-104.336569,44.55033],[-104.336837,44.554102],[-104.337105,44.557874],[-104.337373,44.561646],[-104.332339,44.561652],[-104.327306,44.561658],[-104.322272,44.561664],[-104.317239,44.561669]]]}},{"type":"Feature","properties":{"sec":"03","frstdivid":"WY060530N0620W0SN030"},"geometry":{"type":"Polygon","coordinates":[[[-104.291009,44.605137],[-104.296016,44.605222],[-104.296032,44.608739],[-104.296048,44.612257],[-104.296063,44.615768],[-104.296079,44.619249],[-104.291023,44.61924],[-104.285968,44.619232],[-104.280913,44.619223],[-104.275858,44.619214],[-104.275888,44.615595],[-104.275918,44.612024],[-104.275954,44.608453],[-104.275989,44.604883],[-104.280996,44.604967],[-104.286002,44.605052],[-104.291009,44.605137]]]}},{"type":"Feature","properties":{"sec":"02","frstdivid":"WY060530N0620W0SN020"},"geometry":{"type":"Polygon","coordinates":[[[-104.270802,44.619217],[-104.265746,44.61922],[-104.26069,44.619223],[-104.255634,44.619226],[-104.255681,44.615563],[-104.255727,44.611979],[-104.255777,44.608395],[-104.255827,44.60481],[-104.260868,44.604829],[-104.265908,44.604847],[-104.270948,44.604865],[-104.275989,44.604883],[-104.275954,44.608453],[-104.275918,44.612024],[-104.275888,44.615595],[-104.275858,44.619214],[-104.270802,44.619217]]]}},{"type":"Feature","properties":{"sec":"30","frstdivid":"WY060530N0620W0SN300"},"geometry":{"type":"Polygon","coordinates":[[[-104.356611,44.560589],[-104.351797,44.561105],[-104.347003,44.561619],[-104.342188,44.561633],[-104.337373,44.561646],[-104.337105,44.557874],[-104.336837,44.554102],[-104.336569,44.55033],[-104.336301,44.546557],[-104.34138,44.546395],[-104.346459,44.546232],[-104.351538,44.546064],[-104.356571,44.545896],[-104.35658,44.549516],[-104.356581,44.54957],[-104.35659,44.553136],[-104.35659,44.553243],[-104.3566,44.556756],[-104.356601,44.556916],[-104.35661,44.560375],[-104.356611,44.560589]]]}},{"type":"Feature","properties":{"sec":"10","frstdivid":"WY060530N0620W0SN100"},"geometry":{"type":"Polygon","coordinates":[[[-104.296438,44.597949],[-104.296227,44.601585],[-104.296016,44.605222],[-104.291009,44.605137],[-104.286002,44.605052],[-104.280996,44.604967],[-104.275989,44.604883],[-104.276147,44.601314],[-104.276305,44.597744],[-104.276463,44.594175],[-104.276621,44.590606],[-104.281681,44.590624],[-104.286741,44.590641],[-104.291801,44.590659],[-104.296861,44.590676],[-104.29665,44.594312],[-104.296438,44.597949]]]}},{"type":"Feature","properties":{"sec":"22","frstdivid":"WY060530N0620W0SN220"},"geometry":{"type":"Polygon","coordinates":[[[-104.276778,44.575861],[-104.276437,44.572339],[-104.276096,44.568817],[-104.275755,44.565295],[-104.275415,44.561773],[-104.280376,44.561954],[-104.285336,44.562135],[-104.290297,44.562316],[-104.295258,44.562498],[-104.295727,44.56584],[-104.296196,44.569182],[-104.296665,44.572524],[-104.297134,44.575866],[-104.292045,44.575865],[-104.286956,44.575864],[-104.281867,44.575862],[-104.276778,44.575861]]]}},{"type":"Feature","properties":{"sec":"17","frstdivid":"WY060530N0620W0SN170"},"geometry":{"type":"Polygon","coordinates":[[[-104.31704,44.583117],[-104.31718,44.579497],[-104.317321,44.575877],[-104.32225,44.575924],[-104.32718,44.575971],[-104.332109,44.576018],[-104.337038,44.576065],[-104.336973,44.57967],[-104.336908,44.583276],[-104.336843,44.586881],[-104.336777,44.590486],[-104.331773,44.590454],[-104.326768,44.590421],[-104.321764,44.590389],[-104.316759,44.590357],[-104.3169,44.586737],[-104.31704,44.583117]]]}},{"type":"Feature","properties":{"sec":"04","frstdivid":"WY060530N0620W0SN040"},"geometry":{"type":"Polygon","coordinates":[[[-104.316315,44.615701],[-104.316337,44.6193],[-104.311273,44.619286],[-104.306209,44.619272],[-104.301144,44.61926],[-104.296079,44.619249],[-104.296063,44.615768],[-104.296048,44.612257],[-104.296032,44.608739],[-104.296016,44.605222],[-104.301089,44.605119],[-104.306162,44.605016],[-104.311227,44.604927],[-104.316291,44.604838],[-104.316292,44.608457],[-104.316293,44.612077],[-104.316315,44.615701]]]}},{"type":"Feature","properties":{"sec":"28","frstdivid":"WY060530N0620W0SN280"},"geometry":{"type":"Polygon","coordinates":[[[-104.316477,44.550723],[-104.316989,44.554517],[-104.317114,44.558093],[-104.317239,44.561669],[-104.311744,44.561876],[-104.306248,44.562083],[-104.300753,44.562291],[-104.295258,44.562498],[-104.295435,44.558883],[-104.295611,44.555268],[-104.295601,44.551722],[-104.295592,44.548176],[-104.300685,44.547864],[-104.305779,44.547552],[-104.310872,44.54724],[-104.315965,44.546929],[-104.316477,44.550723]]]}},{"type":"Feature","properties":{"sec":"16","frstdivid":"WY060530N0620W0SN160"},"geometry":{"type":"Polygon","coordinates":[[[-104.296861,44.590676],[-104.296929,44.586973],[-104.296997,44.583271],[-104.297065,44.579568],[-104.297134,44.575866],[-104.302196,44.575837],[-104.307258,44.575808],[-104.312289,44.575843],[-104.317321,44.575877],[-104.31718,44.579497],[-104.31704,44.583117],[-104.3169,44.586737],[-104.316759,44.590357],[-104.311785,44.590437],[-104.30681,44.590516],[-104.301836,44.590596],[-104.296861,44.590676]]]}},{"type":"Feature","properties":{"sec":"14","frstdivid":"WY060530N0620W0SN140"},"geometry":{"type":"Polygon","coordinates":[[[-104.256364,44.579557],[-104.256447,44.575925],[-104.261548,44.575923],[-104.266649,44.57592],[-104.271713,44.575891],[-104.276778,44.575861],[-104.276795,44.580246],[-104.276813,44.584632],[-104.276717,44.587619],[-104.276621,44.590606],[-104.271502,44.590573],[-104.266382,44.59054],[-104.261263,44.590507],[-104.256143,44.590474],[-104.256213,44.586831],[-104.256282,44.583189],[-104.256364,44.579557]]]}},{"type":"Feature","properties":{"sec":"23","frstdivid":"WY060530N0620W0SN230"},"geometry":{"type":"Polygon","coordinates":[[[-104.270429,44.561714],[-104.275415,44.561773],[-104.275755,44.565295],[-104.276096,44.568817],[-104.276437,44.572339],[-104.276778,44.575861],[-104.271713,44.575891],[-104.266649,44.57592],[-104.261548,44.575923],[-104.256447,44.575925],[-104.256864,44.572356],[-104.257281,44.568788],[-104.256376,44.565162],[-104.255472,44.561537],[-104.260457,44.561596],[-104.265443,44.561655],[-104.270429,44.561714]]]}},{"type":"Feature","properties":{"sec":"25","frstdivid":"WY060530N0620W0SN250"},"geometry":{"type":"Polygon","coordinates":[[[-104.255548,44.557987],[-104.255472,44.561537],[-104.250492,44.561458],[-104.245512,44.561379],[-104.240471,44.56131],[-104.235431,44.56124],[-104.235315,44.557595],[-104.235199,44.55395],[-104.235083,44.550305],[-104.234967,44.54666],[-104.24017,44.54683],[-104.245373,44.546999],[-104.250576,44.547168],[-104.255779,44.547338],[-104.255702,44.550887],[-104.255625,44.554437],[-104.255548,44.557987]]]}},{"type":"Feature","properties":{"sec":"15","frstdivid":"WY060530N0620W0SN150"},"geometry":{"type":"Polygon","coordinates":[[[-104.281681,44.590624],[-104.276621,44.590606],[-104.276717,44.587619],[-104.276813,44.584632],[-104.276795,44.580246],[-104.276778,44.575861],[-104.281867,44.575862],[-104.286956,44.575864],[-104.292045,44.575865],[-104.297134,44.575866],[-104.297065,44.579568],[-104.296997,44.583271],[-104.296929,44.586973],[-104.296861,44.590676],[-104.291801,44.590659],[-104.286741,44.590641],[-104.281681,44.590624]]]}},{"type":"Feature","properties":{"sec":"01","frstdivid":"WY060530N0620W0SN010"},"geometry":{"type":"Polygon","coordinates":[[[-104.235368,44.612078],[-104.235427,44.608464],[-104.235487,44.60485],[-104.240632,44.605055],[-104.245777,44.605259],[-104.250802,44.605035],[-104.255827,44.60481],[-104.255777,44.608395],[-104.255727,44.611979],[-104.255681,44.615563],[-104.255634,44.619226],[-104.250032,44.619267],[-104.244429,44.619307],[-104.238826,44.619348],[-104.233224,44.619388],[-104.234296,44.615733],[-104.235368,44.612078]]]}},{"type":"Feature","properties":{"sec":"19","frstdivid":"WY060530N0620W0SN190"},"geometry":{"type":"Polygon","coordinates":[[[-104.356611,44.560589],[-104.356619,44.563995],[-104.356621,44.564262],[-104.356629,44.567615],[-104.356631,44.567935],[-104.356639,44.571234],[-104.356641,44.571608],[-104.356649,44.574854],[-104.356651,44.575281],[-104.351769,44.575473],[-104.346858,44.575666],[-104.341948,44.575866],[-104.337038,44.576065],[-104.337122,44.57246],[-104.337206,44.568856],[-104.337289,44.565251],[-104.337373,44.561646],[-104.342188,44.561633],[-104.347003,44.561619],[-104.351797,44.561105],[-104.356611,44.560589]]]}},{"type":"Feature","properties":{"sec":"12","frstdivid":"WY060530N0620W0SN120"},"geometry":{"type":"Polygon","coordinates":[[[-104.255827,44.60481],[-104.250802,44.605035],[-104.245777,44.605259],[-104.240632,44.605055],[-104.235487,44.60485],[-104.23556,44.601248],[-104.235634,44.597646],[-104.235707,44.594044],[-104.235781,44.590442],[-104.240872,44.59045],[-104.245962,44.590458],[-104.251053,44.590466],[-104.256143,44.590474],[-104.256064,44.594058],[-104.255985,44.597642],[-104.255906,44.601226],[-104.255827,44.60481]]]}},{"type":"Feature","properties":{"sec":"09","frstdivid":"WY060530N0620W0SN090"},"geometry":{"type":"Polygon","coordinates":[[[-104.316525,44.597597],[-104.316408,44.601217],[-104.316291,44.604838],[-104.311227,44.604927],[-104.306162,44.605016],[-104.301089,44.605119],[-104.296016,44.605222],[-104.296227,44.601585],[-104.296438,44.597949],[-104.29665,44.594312],[-104.296861,44.590676],[-104.301836,44.590596],[-104.30681,44.590516],[-104.311785,44.590437],[-104.316759,44.590357],[-104.316642,44.593977],[-104.316525,44.597597]]]}},{"type":"Feature","properties":{"sec":"26","frstdivid":"WY060530N0620W0SN260"},"geometry":{"type":"Polygon","coordinates":[[[-104.275628,44.554474],[-104.275521,44.558124],[-104.275415,44.561773],[-104.270429,44.561714],[-104.265443,44.561655],[-104.260457,44.561596],[-104.255472,44.561537],[-104.255548,44.557987],[-104.255625,44.554437],[-104.255702,44.550887],[-104.255779,44.547338],[-104.260822,44.547439],[-104.265865,44.54754],[-104.270853,44.547358],[-104.275841,44.547176],[-104.275735,44.550825],[-104.275628,44.554474]]]}},{"type":"Feature","properties":{"sec":"20","frstdivid":"WY060530N0620W0SN200"},"geometry":{"type":"Polygon","coordinates":[[[-104.337373,44.561646],[-104.337289,44.565251],[-104.337206,44.568856],[-104.337122,44.57246],[-104.337038,44.576065],[-104.332109,44.576018],[-104.32718,44.575971],[-104.32225,44.575924],[-104.317321,44.575877],[-104.317291,44.57237],[-104.31726,44.568862],[-104.317249,44.565266],[-104.317239,44.561669],[-104.322272,44.561664],[-104.327306,44.561658],[-104.332339,44.561652],[-104.337373,44.561646]]]}},{"type":"Feature","properties":{"sec":"07","frstdivid":"WY060530N0620W0SN070"},"geometry":{"type":"Polygon","coordinates":[[[-104.356705,44.592949],[-104.356708,44.593643],[-104.356707,44.596568],[-104.35671,44.597316],[-104.356709,44.600187],[-104.356712,44.600988],[-104.356711,44.603806],[-104.356714,44.604661],[-104.351815,44.604719],[-104.346735,44.604779],[-104.341656,44.604842],[-104.336577,44.604906],[-104.336627,44.601301],[-104.336677,44.597696],[-104.336727,44.594091],[-104.336777,44.590486],[-104.341776,44.590355],[-104.346775,44.590225],[-104.351773,44.590097],[-104.356706,44.589971],[-104.356705,44.592949]]]}},{"type":"Feature","properties":{"sec":"11","frstdivid":"WY060530N0620W0SN110"},"geometry":{"type":"Polygon","coordinates":[[[-104.255827,44.60481],[-104.255906,44.601226],[-104.255985,44.597642],[-104.256064,44.594058],[-104.256143,44.590474],[-104.261263,44.590507],[-104.266382,44.59054],[-104.271502,44.590573],[-104.276621,44.590606],[-104.276463,44.594175],[-104.276305,44.597744],[-104.276147,44.601314],[-104.275989,44.604883],[-104.270948,44.604865],[-104.265908,44.604847],[-104.260868,44.604829],[-104.255827,44.60481]]]}},{"type":"Feature","properties":{"sec":"24","frstdivid":"WY060530N0620W0SN240"},"geometry":{"type":"Polygon","coordinates":[[[-104.255472,44.561537],[-104.256376,44.565162],[-104.257281,44.568788],[-104.256864,44.572356],[-104.256447,44.575925],[-104.251387,44.575875],[-104.246327,44.575824],[-104.240889,44.575826],[-104.235451,44.575829],[-104.235419,44.572178],[-104.235386,44.568528],[-104.235408,44.564884],[-104.235431,44.56124],[-104.240471,44.56131],[-104.245512,44.561379],[-104.250492,44.561458],[-104.255472,44.561537]]]}},{"type":"Feature","properties":{"sec":"21","frstdivid":"WY060530N0620W0SN210"},"geometry":{"type":"Polygon","coordinates":[[[-104.296196,44.569182],[-104.295727,44.56584],[-104.295258,44.562498],[-104.300753,44.562291],[-104.306248,44.562083],[-104.311744,44.561876],[-104.317239,44.561669],[-104.317249,44.565266],[-104.31726,44.568862],[-104.317291,44.57237],[-104.317321,44.575877],[-104.312289,44.575843],[-104.307258,44.575808],[-104.302196,44.575837],[-104.297134,44.575866],[-104.296665,44.572524],[-104.296196,44.569182]]]}},{"type":"Feature","properties":{"sec":"18","frstdivid":"WY060530N0620W0SN180"},"geometry":{"type":"Polygon","coordinates":[[[-104.356693,44.586298],[-104.356704,44.58933],[-104.356706,44.589971],[-104.351773,44.590097],[-104.346775,44.590225],[-104.341776,44.590355],[-104.336777,44.590486],[-104.336843,44.586881],[-104.336908,44.583276],[-104.336973,44.57967],[-104.337038,44.576065],[-104.341948,44.575866],[-104.346858,44.575666],[-104.351769,44.575473],[-104.356651,44.575281],[-104.356662,44.578473],[-104.356665,44.578953],[-104.356676,44.582092],[-104.356679,44.582626],[-104.35669,44.585711],[-104.356693,44.586298]]]}},{"type":"Feature","properties":{"sec":"34","frstdivid":"WY060530N0620W0SN340"},"geometry":{"type":"Polygon","coordinates":[[[-104.295722,44.540011],[-104.295657,44.544094],[-104.295592,44.548176],[-104.290654,44.547926],[-104.285717,44.547676],[-104.280779,44.547426],[-104.275841,44.547176],[-104.275657,44.543473],[-104.275473,44.539771],[-104.275395,44.535804],[-104.275316,44.531838],[-104.277229,44.531849],[-104.280462,44.531867],[-104.282361,44.531878],[-104.285608,44.531897],[-104.287493,44.531888],[-104.29073,44.531871],[-104.292625,44.531862],[-104.295852,44.531846],[-104.295787,44.535929],[-104.295722,44.540011]]]}},{"type":"Feature","properties":{"sec":"32","frstdivid":"WY060530N0620W0SN320"},"geometry":{"type":"Polygon","coordinates":[[[-104.322942,44.531662],[-104.326377,44.531612],[-104.327971,44.531589],[-104.331397,44.531539],[-104.333001,44.531516],[-104.336416,44.531466],[-104.336387,44.535239],[-104.336358,44.539012],[-104.336329,44.542785],[-104.336301,44.546557],[-104.331217,44.54665],[-104.326133,44.546743],[-104.321049,44.546836],[-104.315965,44.546929],[-104.316059,44.543136],[-104.316152,44.539343],[-104.316246,44.53555],[-104.316339,44.531757],[-104.317913,44.531735],[-104.321358,44.531684],[-104.322942,44.531662]]]}},{"type":"Feature","properties":{"sec":"13","frstdivid":"WY060530N0620W0SN130"},"geometry":{"type":"Polygon","coordinates":[[[-104.240872,44.59045],[-104.235781,44.590442],[-104.235647,44.586786],[-104.235512,44.583129],[-104.235482,44.579479],[-104.235451,44.575829],[-104.240889,44.575826],[-104.246327,44.575824],[-104.251387,44.575875],[-104.256447,44.575925],[-104.256364,44.579557],[-104.256282,44.583189],[-104.256213,44.586831],[-104.256143,44.590474],[-104.251053,44.590466],[-104.245962,44.590458],[-104.240872,44.59045]]]}},{"type":"Feature","properties":{"sec":"31","frstdivid":"WY060530N0620W0SN310"},"geometry":{"type":"Polygon","coordinates":[[[-104.356552,44.542223],[-104.356552,44.542277],[-104.356571,44.545896],[-104.351538,44.546064],[-104.346459,44.546232],[-104.34138,44.546395],[-104.336301,44.546557],[-104.336329,44.542785],[-104.336358,44.539012],[-104.336387,44.535239],[-104.336416,44.531466],[-104.33803,44.531444],[-104.341435,44.5314],[-104.343047,44.531379],[-104.346455,44.531335],[-104.348064,44.531314],[-104.351474,44.53127],[-104.353081,44.531248],[-104.356493,44.531204],[-104.356513,44.534877],[-104.356514,44.535038],[-104.356532,44.53855],[-104.356533,44.538657],[-104.356552,44.542223]]]}}]}