{"type":"FeatureCollection","note":"BLM Public Land Survey System. Provided by the Bureau of Land Management as is. These data are neither legal documents nor land surveys and must not be used as such.","features":[{"type":"Feature","properties":{"sec":"16","frstdivid":"SD070160N0010E0SN160"},"geometry":{"type":"Polygon","coordinates":[[[-103.996943,45.35039],[-103.996944,45.346772],[-103.996946,45.343153],[-104.002078,45.343152],[-104.00721,45.34315],[-104.012342,45.343149],[-104.017474,45.343147],[-104.017474,45.346764],[-104.017475,45.350382],[-104.017475,45.353999],[-104.017476,45.357616],[-104.012342,45.357619],[-104.007208,45.357622],[-104.002074,45.357625],[-103.99694,45.357628],[-103.996941,45.354009],[-103.996943,45.35039]]]}},{"type":"Feature","properties":{"sec":"06","frstdivid":"SD070160N0010E0SN060"},"geometry":{"type":"Polygon","coordinates":[[[-104.04039,45.382964],[-104.0404,45.386045],[-104.0404,45.386395],[-104.038014,45.386396],[-104.037994,45.386396],[-104.037993,45.382956],[-104.037993,45.379336],[-104.038001,45.375715],[-104.038008,45.372093],[-104.040357,45.372092],[-104.040361,45.374166],[-104.040365,45.375108],[-104.040367,45.375716],[-104.040378,45.378752],[-104.040379,45.37934],[-104.040389,45.382399],[-104.04039,45.382964]]]}},{"type":"Feature","properties":{"sec":"29","frstdivid":"SD070160N0010E0SN290"},"geometry":{"type":"Polygon","coordinates":[[[-104.017457,45.32507],[-104.017459,45.321457],[-104.01746,45.317844],[-104.017461,45.31423],[-104.022591,45.314234],[-104.02772,45.314237],[-104.03285,45.314241],[-104.037979,45.314244],[-104.037985,45.317857],[-104.037992,45.321471],[-104.037998,45.325084],[-104.038004,45.328697],[-104.032867,45.328694],[-104.02773,45.32869],[-104.022593,45.328687],[-104.017456,45.328683],[-104.017457,45.32507]]]}},{"type":"Feature","properties":{"sec":"32","frstdivid":"SD070160N0010E0SN320"},"geometry":{"type":"Polygon","coordinates":[[[-104.022591,45.314234],[-104.017461,45.31423],[-104.017472,45.310616],[-104.017482,45.307001],[-104.017493,45.303386],[-104.017503,45.299771],[-104.022631,45.299775],[-104.027759,45.299779],[-104.032888,45.299783],[-104.038016,45.299787],[-104.038007,45.303401],[-104.037997,45.307016],[-104.037988,45.31063],[-104.037979,45.314244],[-104.03285,45.314241],[-104.02772,45.314237],[-104.022591,45.314234]]]}},{"type":"Feature","properties":{"sec":"17","frstdivid":"SD070160N0010E0SN170"},"geometry":{"type":"Polygon","coordinates":[[[-104.032874,45.343139],[-104.038008,45.343136],[-104.038006,45.346756],[-104.038004,45.350375],[-104.038002,45.353994],[-104.038,45.357613],[-104.032869,45.357614],[-104.027738,45.357615],[-104.022607,45.357616],[-104.017476,45.357616],[-104.017475,45.353999],[-104.017475,45.350382],[-104.017474,45.346764],[-104.017474,45.343147],[-104.022607,45.343144],[-104.027741,45.343142],[-104.032874,45.343139]]]}},{"type":"Feature","properties":{"sec":"18","frstdivid":"SD070160N0010E0SN180"},"geometry":{"type":"Polygon","coordinates":[[[-104.038,45.357613],[-104.038002,45.353994],[-104.038004,45.350375],[-104.038006,45.346756],[-104.038008,45.343136],[-104.040249,45.343134],[-104.040254,45.34519],[-104.040256,45.345698],[-104.040261,45.34675],[-104.040274,45.349591],[-104.040276,45.350365],[-104.04029,45.353237],[-104.040294,45.353989],[-104.040309,45.356884],[-104.040311,45.357612],[-104.038,45.357613]]]}},{"type":"Feature","properties":{"sec":"04","frstdivid":"SD070160N0010E0SN040"},"geometry":{"type":"Polygon","coordinates":[[[-103.996939,45.37211],[-104.002076,45.372104],[-104.007214,45.372098],[-104.012351,45.372093],[-104.017488,45.372087],[-104.017494,45.375705],[-104.017499,45.379324],[-104.017505,45.382943],[-104.01751,45.386388],[-104.012384,45.386385],[-104.012369,45.386385],[-104.007258,45.386383],[-104.007227,45.386383],[-104.002132,45.38638],[-104.002086,45.38638],[-103.997006,45.386377],[-103.996944,45.386377],[-103.996942,45.382966],[-103.99694,45.379347],[-103.996939,45.375728],[-103.996939,45.37211]]]}},{"type":"Feature","properties":{"sec":"34","frstdivid":"SD070160N0010E0SN340"},"geometry":{"type":"Polygon","coordinates":[[[-103.976469,45.306964],[-103.97647,45.303348],[-103.976472,45.299732],[-103.981601,45.299737],[-103.98673,45.299742],[-103.99186,45.299747],[-103.996989,45.299753],[-103.996985,45.30337],[-103.996981,45.306987],[-103.996977,45.310605],[-103.996973,45.314222],[-103.991847,45.314216],[-103.98672,45.314209],[-103.981593,45.314203],[-103.976466,45.314196],[-103.976467,45.31058],[-103.976469,45.306964]]]}},{"type":"Feature","properties":{"sec":"09","frstdivid":"SD070160N0010E0SN090"},"geometry":{"type":"Polygon","coordinates":[[[-103.996939,45.37211],[-103.996939,45.368489],[-103.996939,45.364869],[-103.996939,45.361248],[-103.99694,45.357628],[-104.002074,45.357625],[-104.007208,45.357622],[-104.012342,45.357619],[-104.017476,45.357616],[-104.017478,45.361234],[-104.01748,45.364852],[-104.017484,45.36847],[-104.017488,45.372087],[-104.012351,45.372093],[-104.007214,45.372098],[-104.002076,45.372104],[-103.996939,45.37211]]]}},{"type":"Feature","properties":{"sec":"31","frstdivid":"SD070160N0010E0SN310"},"geometry":{"type":"Polygon","coordinates":[[[-104.037979,45.314244],[-104.037988,45.31063],[-104.037997,45.307016],[-104.038007,45.303401],[-104.038016,45.299787],[-104.040162,45.299785],[-104.040166,45.301848],[-104.040166,45.301981],[-104.040169,45.3034],[-104.040173,45.305614],[-104.040174,45.307014],[-104.040177,45.309299],[-104.04018,45.310629],[-104.040184,45.312923],[-104.040185,45.314243],[-104.037979,45.314244]]]}},{"type":"Feature","properties":{"sec":"28","frstdivid":"SD070160N0010E0SN280"},"geometry":{"type":"Polygon","coordinates":[[[-104.01746,45.317844],[-104.017459,45.321457],[-104.017457,45.32507],[-104.017456,45.328683],[-104.012332,45.328686],[-104.007209,45.328688],[-104.002085,45.32869],[-103.996961,45.328693],[-103.996964,45.325075],[-103.996967,45.321457],[-103.99697,45.31784],[-103.996973,45.314222],[-104.002095,45.314224],[-104.007217,45.314226],[-104.012339,45.314228],[-104.017461,45.31423],[-104.01746,45.317844]]]}},{"type":"Feature","properties":{"sec":"07","frstdivid":"SD070160N0010E0SN070"},"geometry":{"type":"Polygon","coordinates":[[[-104.040317,45.359667],[-104.040321,45.36053],[-104.040323,45.361233],[-104.040333,45.364176],[-104.040335,45.364854],[-104.040344,45.36782],[-104.040346,45.368473],[-104.040356,45.371464],[-104.040357,45.372092],[-104.038008,45.372093],[-104.038006,45.368473],[-104.038004,45.364853],[-104.038002,45.361233],[-104.038,45.357613],[-104.040311,45.357612],[-104.040317,45.359667]]]}},{"type":"Feature","properties":{"sec":"21","frstdivid":"SD070160N0010E0SN210"},"geometry":{"type":"Polygon","coordinates":[[[-104.017456,45.328683],[-104.017461,45.332299],[-104.017465,45.335915],[-104.017469,45.339531],[-104.017474,45.343147],[-104.012342,45.343149],[-104.00721,45.34315],[-104.002078,45.343152],[-103.996946,45.343153],[-103.99695,45.339538],[-103.996953,45.335923],[-103.996957,45.332308],[-103.996961,45.328693],[-104.002085,45.32869],[-104.007209,45.328688],[-104.012332,45.328686],[-104.017456,45.328683]]]}},{"type":"Feature","properties":{"sec":"33","frstdivid":"SD070160N0010E0SN330"},"geometry":{"type":"Polygon","coordinates":[[[-104.012375,45.299767],[-104.017503,45.299771],[-104.017493,45.303386],[-104.017482,45.307001],[-104.017472,45.310616],[-104.017461,45.31423],[-104.012339,45.314228],[-104.007217,45.314226],[-104.002095,45.314224],[-103.996973,45.314222],[-103.996977,45.310605],[-103.996981,45.306987],[-103.996985,45.30337],[-103.996989,45.299753],[-104.002118,45.299757],[-104.007246,45.299762],[-104.012375,45.299767]]]}},{"type":"Feature","properties":{"sec":"03","frstdivid":"SD070160N0010E0SN030"},"geometry":{"type":"Polygon","coordinates":[[[-103.976486,45.386364],[-103.976442,45.386364],[-103.97644,45.382941],[-103.976438,45.379322],[-103.976437,45.375703],[-103.976436,45.372085],[-103.981562,45.372091],[-103.986688,45.372097],[-103.991813,45.372104],[-103.996939,45.37211],[-103.996939,45.375728],[-103.99694,45.379347],[-103.996942,45.382966],[-103.996944,45.386377],[-103.991876,45.386374],[-103.991819,45.386374],[-103.986746,45.386371],[-103.986693,45.386371],[-103.981616,45.386367],[-103.981568,45.386367],[-103.976486,45.386364]]]}},{"type":"Feature","properties":{"sec":"05","frstdivid":"SD070160N0010E0SN050"},"geometry":{"type":"Polygon","coordinates":[[[-104.027752,45.386392],[-104.022636,45.38639],[-104.01751,45.386388],[-104.017505,45.382943],[-104.017499,45.379324],[-104.017494,45.375705],[-104.017488,45.372087],[-104.022618,45.372088],[-104.027748,45.37209],[-104.032878,45.372092],[-104.038008,45.372093],[-104.038001,45.375715],[-104.037993,45.379336],[-104.037993,45.382956],[-104.037994,45.386396],[-104.032878,45.386394],[-104.027762,45.386392],[-104.027752,45.386392]]]}},{"type":"Feature","properties":{"sec":"22","frstdivid":"SD070160N0010E0SN220"},"geometry":{"type":"Polygon","coordinates":[[[-103.981567,45.34314],[-103.97644,45.343135],[-103.976443,45.339518],[-103.976446,45.335901],[-103.976449,45.332284],[-103.976452,45.328667],[-103.981579,45.328673],[-103.986707,45.32868],[-103.991834,45.328686],[-103.996961,45.328693],[-103.996957,45.332308],[-103.996953,45.335923],[-103.99695,45.339538],[-103.996946,45.343153],[-103.99182,45.343149],[-103.986693,45.343144],[-103.981567,45.34314]]]}},{"type":"Feature","properties":{"sec":"15","frstdivid":"SD070160N0010E0SN150"},"geometry":{"type":"Polygon","coordinates":[[[-103.996943,45.35039],[-103.996941,45.354009],[-103.99694,45.357628],[-103.991813,45.357623],[-103.986686,45.357619],[-103.981559,45.357615],[-103.976432,45.35761],[-103.976434,45.353992],[-103.976436,45.350373],[-103.976438,45.346754],[-103.97644,45.343135],[-103.981567,45.34314],[-103.986693,45.343144],[-103.99182,45.343149],[-103.996946,45.343153],[-103.996944,45.346772],[-103.996943,45.35039]]]}},{"type":"Feature","properties":{"sec":"10","frstdivid":"SD070160N0010E0SN100"},"geometry":{"type":"Polygon","coordinates":[[[-103.976434,45.364848],[-103.976433,45.361229],[-103.976432,45.35761],[-103.981559,45.357615],[-103.986686,45.357619],[-103.991813,45.357623],[-103.99694,45.357628],[-103.996939,45.361248],[-103.996939,45.364869],[-103.996939,45.368489],[-103.996939,45.37211],[-103.991813,45.372104],[-103.986688,45.372097],[-103.981562,45.372091],[-103.976436,45.372085],[-103.976435,45.368466],[-103.976434,45.364848]]]}},{"type":"Feature","properties":{"sec":"30","frstdivid":"SD070160N0010E0SN300"},"geometry":{"type":"Polygon","coordinates":[[[-104.040191,45.317856],[-104.040195,45.320192],[-104.040196,45.321468],[-104.040203,45.323838],[-104.040207,45.325082],[-104.040213,45.327485],[-104.040214,45.328696],[-104.038004,45.328697],[-104.037998,45.325084],[-104.037992,45.321471],[-104.037985,45.317857],[-104.037979,45.314244],[-104.040185,45.314243],[-104.040188,45.316271],[-104.040188,45.316558],[-104.040191,45.317856]]]}},{"type":"Feature","properties":{"sec":"19","frstdivid":"SD070160N0010E0SN190"},"geometry":{"type":"Polygon","coordinates":[[[-104.040217,45.330717],[-104.040217,45.331106],[-104.040221,45.332307],[-104.040227,45.33477],[-104.040229,45.335918],[-104.040236,45.338461],[-104.040239,45.339526],[-104.040248,45.342079],[-104.040249,45.343134],[-104.038008,45.343136],[-104.038007,45.339526],[-104.038006,45.335917],[-104.038005,45.332307],[-104.038004,45.328697],[-104.040214,45.328696],[-104.040217,45.330717]]]}},{"type":"Feature","properties":{"sec":"20","frstdivid":"SD070160N0010E0SN200"},"geometry":{"type":"Polygon","coordinates":[[[-104.017465,45.335915],[-104.017461,45.332299],[-104.017456,45.328683],[-104.022593,45.328687],[-104.02773,45.32869],[-104.032867,45.328694],[-104.038004,45.328697],[-104.038005,45.332307],[-104.038006,45.335917],[-104.038007,45.339526],[-104.038008,45.343136],[-104.032874,45.343139],[-104.027741,45.343142],[-104.022607,45.343144],[-104.017474,45.343147],[-104.017469,45.339531],[-104.017465,45.335915]]]}},{"type":"Feature","properties":{"sec":"08","frstdivid":"SD070160N0010E0SN080"},"geometry":{"type":"Polygon","coordinates":[[[-104.017484,45.36847],[-104.01748,45.364852],[-104.017478,45.361234],[-104.017476,45.357616],[-104.022607,45.357616],[-104.027738,45.357615],[-104.032869,45.357614],[-104.038,45.357613],[-104.038002,45.361233],[-104.038004,45.364853],[-104.038006,45.368473],[-104.038008,45.372093],[-104.032878,45.372092],[-104.027748,45.37209],[-104.022618,45.372088],[-104.017488,45.372087],[-104.017484,45.36847]]]}},{"type":"Feature","properties":{"sec":"27","frstdivid":"SD070160N0010E0SN270"},"geometry":{"type":"Polygon","coordinates":[[[-103.98672,45.314209],[-103.991847,45.314216],[-103.996973,45.314222],[-103.99697,45.31784],[-103.996967,45.321457],[-103.996964,45.325075],[-103.996961,45.328693],[-103.991834,45.328686],[-103.986707,45.32868],[-103.981579,45.328673],[-103.976452,45.328667],[-103.976456,45.325049],[-103.976459,45.321432],[-103.976463,45.317814],[-103.976466,45.314196],[-103.981593,45.314203],[-103.98672,45.314209]]]}},{"type":"Feature","properties":{"sec":"35","frstdivid":"SD070160N0010E0SN350"},"geometry":{"type":"Polygon","coordinates":[[[-103.976469,45.306964],[-103.976467,45.31058],[-103.976466,45.314196],[-103.971335,45.314192],[-103.966204,45.314187],[-103.961073,45.314182],[-103.955942,45.314178],[-103.955945,45.310562],[-103.955948,45.306946],[-103.95595,45.30333],[-103.955953,45.299714],[-103.961082,45.299719],[-103.966212,45.299723],[-103.971342,45.299727],[-103.976472,45.299732],[-103.97647,45.303348],[-103.976469,45.306964]]]}},{"type":"Feature","properties":{"sec":"02","frstdivid":"SD070160N0010E0SN020"},"geometry":{"type":"Polygon","coordinates":[[[-103.955957,45.38635],[-103.955906,45.38635],[-103.955904,45.382912],[-103.955902,45.379292],[-103.9559,45.375673],[-103.955898,45.372053],[-103.961032,45.372061],[-103.966167,45.372069],[-103.971302,45.372077],[-103.976436,45.372085],[-103.976437,45.375703],[-103.976438,45.379322],[-103.97644,45.382941],[-103.976442,45.386364],[-103.971354,45.386361],[-103.971308,45.386361],[-103.966222,45.386357],[-103.966174,45.386357],[-103.961089,45.386354],[-103.96104,45.386354],[-103.955957,45.38635]]]}},{"type":"Feature","properties":{"sec":"26","frstdivid":"SD070160N0010E0SN260"},"geometry":{"type":"Polygon","coordinates":[[[-103.976466,45.314196],[-103.976463,45.317814],[-103.976459,45.321432],[-103.976456,45.325049],[-103.976452,45.328667],[-103.971324,45.328662],[-103.966195,45.328657],[-103.961066,45.328653],[-103.955937,45.328648],[-103.955939,45.32503],[-103.95594,45.321413],[-103.955941,45.317795],[-103.955942,45.314178],[-103.961073,45.314182],[-103.966204,45.314187],[-103.971335,45.314192],[-103.976466,45.314196]]]}},{"type":"Feature","properties":{"sec":"11","frstdivid":"SD070160N0010E0SN110"},"geometry":{"type":"Polygon","coordinates":[[[-103.971302,45.372077],[-103.966167,45.372069],[-103.961032,45.372061],[-103.955898,45.372053],[-103.955901,45.368438],[-103.955904,45.364823],[-103.955907,45.361207],[-103.95591,45.357592],[-103.961041,45.357597],[-103.966171,45.357601],[-103.971302,45.357606],[-103.976432,45.35761],[-103.976433,45.361229],[-103.976434,45.364848],[-103.976435,45.368466],[-103.976436,45.372085],[-103.971302,45.372077]]]}},{"type":"Feature","properties":{"sec":"23","frstdivid":"SD070160N0010E0SN230"},"geometry":{"type":"Polygon","coordinates":[[[-103.97644,45.343135],[-103.971311,45.343132],[-103.966182,45.343129],[-103.961053,45.343126],[-103.955923,45.343123],[-103.955927,45.339504],[-103.95593,45.335885],[-103.955934,45.332266],[-103.955937,45.328648],[-103.961066,45.328653],[-103.966195,45.328657],[-103.971324,45.328662],[-103.976452,45.328667],[-103.976449,45.332284],[-103.976446,45.335901],[-103.976443,45.339518],[-103.97644,45.343135]]]}},{"type":"Feature","properties":{"sec":"14","frstdivid":"SD070160N0010E0SN140"},"geometry":{"type":"Polygon","coordinates":[[[-103.971311,45.343132],[-103.97644,45.343135],[-103.976438,45.346754],[-103.976436,45.350373],[-103.976434,45.353992],[-103.976432,45.35761],[-103.971302,45.357606],[-103.966171,45.357601],[-103.961041,45.357597],[-103.95591,45.357592],[-103.955914,45.353975],[-103.955917,45.350357],[-103.95592,45.34674],[-103.955923,45.343123],[-103.961053,45.343126],[-103.966182,45.343129],[-103.971311,45.343132]]]}}]}