{"type":"FeatureCollection","note":"BLM Public Land Survey System. Provided by the Bureau of Land Management as is. These data are neither legal documents nor land surveys and must not be used as such.","features":[{"type":"Feature","properties":{"sec":"32","frstdivid":"WY060330N0700W0SN320"},"geometry":{"type":"Polygon","coordinates":[[[-105.295834,42.789393],[-105.295863,42.793009],[-105.295893,42.796626],[-105.290864,42.796581],[-105.285835,42.796537],[-105.280929,42.796509],[-105.276023,42.79648],[-105.276027,42.792873],[-105.276032,42.789266],[-105.276035,42.785658],[-105.276026,42.78205],[-105.277389,42.78207],[-105.280915,42.782123],[-105.282318,42.782131],[-105.285843,42.782189],[-105.287248,42.782185],[-105.29078,42.782175],[-105.292444,42.782173],[-105.295779,42.782161],[-105.295812,42.785777],[-105.295834,42.789393]]]}},{"type":"Feature","properties":{"sec":"15","frstdivid":"WY060330N0700W0SN150"},"geometry":{"type":"Polygon","coordinates":[[[-105.246112,42.839238],[-105.241158,42.839273],[-105.236204,42.839307],[-105.236194,42.83572],[-105.236184,42.832133],[-105.236175,42.828546],[-105.236165,42.824959],[-105.241148,42.824945],[-105.246131,42.824931],[-105.251115,42.824918],[-105.256098,42.824904],[-105.256079,42.82847],[-105.256059,42.832037],[-105.25604,42.835603],[-105.25602,42.839169],[-105.251066,42.839204],[-105.246112,42.839238]]]}},{"type":"Feature","properties":{"sec":"26","frstdivid":"WY060330N0700W0SN260"},"geometry":{"type":"Polygon","coordinates":[[[-105.236116,42.803404],[-105.2361,42.806999],[-105.236085,42.810594],[-105.23111,42.810594],[-105.226136,42.810594],[-105.221161,42.810594],[-105.216186,42.810594],[-105.216182,42.806986],[-105.216177,42.803377],[-105.216172,42.799768],[-105.216167,42.796159],[-105.221162,42.796172],[-105.226157,42.796186],[-105.231152,42.7962],[-105.236147,42.796213],[-105.236131,42.799808],[-105.236116,42.803404]]]}},{"type":"Feature","properties":{"sec":"01","frstdivid":"WY060330N0700W0SN010"},"geometry":{"type":"Polygon","coordinates":[[[-105.216455,42.857472],[-105.216476,42.861088],[-105.216494,42.864707],[-105.216513,42.868305],[-105.211545,42.868339],[-105.206577,42.868373],[-105.20161,42.868406],[-105.196641,42.868438],[-105.196636,42.864825],[-105.196631,42.861212],[-105.19662,42.857606],[-105.196608,42.854],[-105.201565,42.853964],[-105.206521,42.853928],[-105.211478,42.853892],[-105.216435,42.853856],[-105.216455,42.857472]]]}},{"type":"Feature","properties":{"sec":"36","frstdivid":"WY060330N0700W0SN360"},"geometry":{"type":"Polygon","coordinates":[[[-105.216198,42.792546],[-105.216167,42.796159],[-105.211177,42.796165],[-105.206187,42.796171],[-105.201197,42.796177],[-105.196208,42.796183],[-105.196246,42.792571],[-105.196285,42.788959],[-105.196324,42.785347],[-105.196368,42.781716],[-105.198696,42.781683],[-105.201342,42.781701],[-105.203567,42.78169],[-105.206331,42.781693],[-105.208479,42.781696],[-105.211316,42.781697],[-105.213483,42.781653],[-105.216292,42.781707],[-105.216261,42.785319],[-105.21623,42.788932],[-105.216198,42.792546]]]}},{"type":"Feature","properties":{"sec":"33","frstdivid":"WY060330N0700W0SN330"},"geometry":{"type":"Polygon","coordinates":[[[-105.272471,42.781958],[-105.276026,42.78205],[-105.276035,42.785658],[-105.276032,42.789266],[-105.276027,42.792873],[-105.276023,42.79648],[-105.271046,42.796441],[-105.266068,42.796401],[-105.26109,42.796362],[-105.256113,42.796322],[-105.256088,42.792698],[-105.256064,42.789073],[-105.256036,42.785448],[-105.256005,42.781823],[-105.257877,42.781825],[-105.261006,42.781837],[-105.262692,42.781845],[-105.265963,42.781903],[-105.26753,42.781926],[-105.271026,42.781946],[-105.272471,42.781958]]]}},{"type":"Feature","properties":{"sec":"25","frstdivid":"WY060330N0700W0SN250"},"geometry":{"type":"Polygon","coordinates":[[[-105.206239,42.810624],[-105.201266,42.810639],[-105.196292,42.810654],[-105.19626,42.807036],[-105.196228,42.803419],[-105.196218,42.799801],[-105.196208,42.796183],[-105.201197,42.796177],[-105.206187,42.796171],[-105.211177,42.796165],[-105.216167,42.796159],[-105.216172,42.799768],[-105.216177,42.803377],[-105.216182,42.806986],[-105.216186,42.810594],[-105.211213,42.810609],[-105.206239,42.810624]]]}},{"type":"Feature","properties":{"sec":"13","frstdivid":"WY060330N0700W0SN130"},"geometry":{"type":"Polygon","coordinates":[[[-105.206429,42.839508],[-105.201464,42.839542],[-105.196499,42.839576],[-105.196467,42.835962],[-105.196435,42.832349],[-105.196404,42.828735],[-105.196372,42.825122],[-105.20135,42.825096],[-105.206327,42.82507],[-105.211305,42.825044],[-105.216283,42.825018],[-105.216302,42.828623],[-105.216321,42.832229],[-105.21634,42.835834],[-105.216359,42.839439],[-105.211394,42.839473],[-105.206429,42.839508]]]}},{"type":"Feature","properties":{"sec":"34","frstdivid":"WY060330N0700W0SN340"},"geometry":{"type":"Polygon","coordinates":[[[-105.238343,42.781816],[-105.241063,42.781831],[-105.243284,42.781852],[-105.246042,42.781816],[-105.248217,42.781815],[-105.251021,42.781833],[-105.25304,42.781851],[-105.256005,42.781823],[-105.256036,42.785448],[-105.256064,42.789073],[-105.256088,42.792698],[-105.256113,42.796322],[-105.251121,42.796295],[-105.24613,42.796268],[-105.241138,42.79624],[-105.236147,42.796213],[-105.236131,42.792614],[-105.236115,42.789015],[-105.236097,42.785416],[-105.236079,42.781817],[-105.238343,42.781816]]]}},{"type":"Feature","properties":{"sec":"19","frstdivid":"WY060330N0700W0SN190"},"geometry":{"type":"Polygon","coordinates":[[[-105.295786,42.814241],[-105.295799,42.810697],[-105.300742,42.81063],[-105.305685,42.810564],[-105.310616,42.810528],[-105.315559,42.810492],[-105.315563,42.81405],[-105.315567,42.817609],[-105.315571,42.821167],[-105.315575,42.824725],[-105.310563,42.824751],[-105.305632,42.824777],[-105.300688,42.824825],[-105.295745,42.824874],[-105.295759,42.82133],[-105.295772,42.817785],[-105.295786,42.814241]]]}},{"type":"Feature","properties":{"sec":"02","frstdivid":"WY060330N0700W0SN020"},"geometry":{"type":"Polygon","coordinates":[[[-105.236388,42.868131],[-105.231419,42.868173],[-105.22645,42.868216],[-105.221482,42.868261],[-105.216513,42.868305],[-105.216494,42.864707],[-105.216476,42.861088],[-105.216455,42.857472],[-105.216435,42.853856],[-105.221404,42.853809],[-105.226373,42.853763],[-105.231342,42.853716],[-105.236311,42.853669],[-105.236335,42.857277],[-105.236358,42.860884],[-105.236373,42.864498],[-105.236388,42.868131]]]}},{"type":"Feature","properties":{"sec":"06","frstdivid":"WY060330N0700W0SN060"},"geometry":{"type":"Polygon","coordinates":[[[-105.295711,42.853424],[-105.30063,42.853443],[-105.305549,42.853461],[-105.310469,42.853467],[-105.315534,42.853473],[-105.315595,42.857022],[-105.315657,42.860571],[-105.315693,42.864156],[-105.315729,42.867741],[-105.310632,42.867766],[-105.305712,42.867789],[-105.300794,42.867833],[-105.295876,42.867877],[-105.295846,42.864218],[-105.295818,42.860611],[-105.295765,42.857018],[-105.295711,42.853424]]]}},{"type":"Feature","properties":{"sec":"07","frstdivid":"WY060330N0700W0SN070"},"geometry":{"type":"Polygon","coordinates":[[[-105.295728,42.849853],[-105.295744,42.846283],[-105.29576,42.842712],[-105.295776,42.839141],[-105.300716,42.83913],[-105.305655,42.839119],[-105.310585,42.839107],[-105.315648,42.839094],[-105.315619,42.842689],[-105.315591,42.846284],[-105.315563,42.849879],[-105.315534,42.853473],[-105.310469,42.853467],[-105.305549,42.853461],[-105.30063,42.853443],[-105.295711,42.853424],[-105.295728,42.849853]]]}},{"type":"Feature","properties":{"sec":"18","frstdivid":"WY060330N0700W0SN180"},"geometry":{"type":"Polygon","coordinates":[[[-105.300688,42.824825],[-105.305632,42.824777],[-105.310563,42.824751],[-105.315575,42.824725],[-105.315593,42.828318],[-105.315612,42.83191],[-105.31563,42.835502],[-105.315648,42.839094],[-105.310585,42.839107],[-105.305655,42.839119],[-105.300716,42.83913],[-105.295776,42.839141],[-105.295769,42.835574],[-105.295761,42.832008],[-105.295753,42.828441],[-105.295745,42.824874],[-105.300688,42.824825]]]}},{"type":"Feature","properties":{"sec":"30","frstdivid":"WY060330N0700W0SN300"},"geometry":{"type":"Polygon","coordinates":[[[-105.305685,42.810564],[-105.300742,42.81063],[-105.295799,42.810697],[-105.295823,42.807179],[-105.295846,42.803661],[-105.29587,42.800143],[-105.295893,42.796626],[-105.300821,42.796508],[-105.305749,42.79639],[-105.310672,42.796336],[-105.315635,42.796282],[-105.315616,42.799835],[-105.315597,42.803387],[-105.315578,42.80694],[-105.315559,42.810492],[-105.310616,42.810528],[-105.305685,42.810564]]]}},{"type":"Feature","properties":{"sec":"29","frstdivid":"WY060330N0700W0SN290"},"geometry":{"type":"Polygon","coordinates":[[[-105.29587,42.800143],[-105.295846,42.803661],[-105.295823,42.807179],[-105.295799,42.810697],[-105.290829,42.810689],[-105.285859,42.810682],[-105.280889,42.810674],[-105.275919,42.810666],[-105.275945,42.80712],[-105.275971,42.803573],[-105.275997,42.800027],[-105.276023,42.79648],[-105.280929,42.796509],[-105.285835,42.796537],[-105.290864,42.796581],[-105.295893,42.796626],[-105.29587,42.800143]]]}},{"type":"Feature","properties":{"sec":"05","frstdivid":"WY060330N0700W0SN050"},"geometry":{"type":"Polygon","coordinates":[[[-105.275997,42.853247],[-105.280925,42.853291],[-105.285854,42.853336],[-105.290783,42.85338],[-105.295711,42.853424],[-105.295765,42.857018],[-105.295818,42.860611],[-105.295846,42.864218],[-105.295876,42.867877],[-105.290967,42.867822],[-105.286059,42.867767],[-105.28115,42.867706],[-105.276242,42.867645],[-105.276195,42.863986],[-105.276149,42.86039],[-105.276073,42.856819],[-105.275997,42.853247]]]}},{"type":"Feature","properties":{"sec":"31","frstdivid":"WY060330N0700W0SN310"},"geometry":{"type":"Polygon","coordinates":[[[-105.305749,42.79639],[-105.300821,42.796508],[-105.295893,42.796626],[-105.295863,42.793009],[-105.295834,42.789393],[-105.295812,42.785777],[-105.295779,42.782161],[-105.297641,42.782155],[-105.300748,42.782146],[-105.302838,42.782107],[-105.305716,42.782132],[-105.30732,42.782127],[-105.310653,42.782118],[-105.312406,42.782113],[-105.315653,42.782103],[-105.315583,42.785583],[-105.315512,42.789063],[-105.315573,42.792674],[-105.315635,42.796282],[-105.310672,42.796336],[-105.305749,42.79639]]]}},{"type":"Feature","properties":{"sec":"17","frstdivid":"WY060330N0700W0SN170"},"geometry":{"type":"Polygon","coordinates":[[[-105.280884,42.824877],[-105.285838,42.824876],[-105.290791,42.824875],[-105.295745,42.824874],[-105.295753,42.828441],[-105.295761,42.832008],[-105.295769,42.835574],[-105.295776,42.839141],[-105.290812,42.839127],[-105.285848,42.839113],[-105.280884,42.839099],[-105.27592,42.839085],[-105.275923,42.835533],[-105.275925,42.831981],[-105.275927,42.828429],[-105.27593,42.824878],[-105.280884,42.824877]]]}},{"type":"Feature","properties":{"sec":"20","frstdivid":"WY060330N0700W0SN200"},"geometry":{"type":"Polygon","coordinates":[[[-105.285838,42.824876],[-105.280884,42.824877],[-105.27593,42.824878],[-105.275927,42.821325],[-105.275924,42.817772],[-105.275921,42.814219],[-105.275919,42.810666],[-105.280889,42.810674],[-105.285859,42.810682],[-105.290829,42.810689],[-105.295799,42.810697],[-105.295786,42.814241],[-105.295772,42.817785],[-105.295759,42.82133],[-105.295745,42.824874],[-105.290791,42.824875],[-105.285838,42.824876]]]}},{"type":"Feature","properties":{"sec":"08","frstdivid":"WY060330N0700W0SN080"},"geometry":{"type":"Polygon","coordinates":[[[-105.295744,42.846283],[-105.295728,42.849853],[-105.295711,42.853424],[-105.290783,42.85338],[-105.285854,42.853336],[-105.280925,42.853291],[-105.275997,42.853247],[-105.275978,42.849707],[-105.275959,42.846166],[-105.27594,42.842625],[-105.27592,42.839085],[-105.280884,42.839099],[-105.285848,42.839113],[-105.290812,42.839127],[-105.295776,42.839141],[-105.29576,42.842712],[-105.295744,42.846283]]]}},{"type":"Feature","properties":{"sec":"09","frstdivid":"WY060330N0700W0SN090"},"geometry":{"type":"Polygon","coordinates":[[[-105.256088,42.849862],[-105.256066,42.846298],[-105.256043,42.842733],[-105.25602,42.839169],[-105.260995,42.839148],[-105.26597,42.839127],[-105.270945,42.839106],[-105.27592,42.839085],[-105.27594,42.842625],[-105.275959,42.846166],[-105.275978,42.849707],[-105.275997,42.853247],[-105.271025,42.853292],[-105.266054,42.853337],[-105.261083,42.853381],[-105.256111,42.853426],[-105.256088,42.849862]]]}},{"type":"Feature","properties":{"sec":"10","frstdivid":"WY060330N0700W0SN100"},"geometry":{"type":"Polygon","coordinates":[[[-105.236257,42.846488],[-105.236231,42.842898],[-105.236204,42.839307],[-105.241158,42.839273],[-105.246112,42.839238],[-105.251066,42.839204],[-105.25602,42.839169],[-105.256043,42.842733],[-105.256066,42.846298],[-105.256088,42.849862],[-105.256111,42.853426],[-105.251161,42.853487],[-105.246211,42.853548],[-105.241261,42.853608],[-105.236311,42.853669],[-105.236284,42.850079],[-105.236257,42.846488]]]}},{"type":"Feature","properties":{"sec":"12","frstdivid":"WY060330N0700W0SN120"},"geometry":{"type":"Polygon","coordinates":[[[-105.196526,42.843182],[-105.196499,42.839576],[-105.201464,42.839542],[-105.206429,42.839508],[-105.211394,42.839473],[-105.216359,42.839439],[-105.216378,42.843043],[-105.216397,42.846648],[-105.216416,42.850252],[-105.216435,42.853856],[-105.211478,42.853892],[-105.206521,42.853928],[-105.201565,42.853964],[-105.196608,42.854],[-105.196581,42.850394],[-105.196553,42.846788],[-105.196526,42.843182]]]}},{"type":"Feature","properties":{"sec":"04","frstdivid":"WY060330N0700W0SN040"},"geometry":{"type":"Polygon","coordinates":[[[-105.276073,42.856819],[-105.276149,42.86039],[-105.276195,42.863986],[-105.276242,42.867645],[-105.27125,42.867681],[-105.266257,42.867716],[-105.261264,42.86775],[-105.256272,42.867784],[-105.256242,42.864211],[-105.256212,42.860606],[-105.256162,42.857016],[-105.256111,42.853426],[-105.261083,42.853381],[-105.266054,42.853337],[-105.271025,42.853292],[-105.275997,42.853247],[-105.276073,42.856819]]]}},{"type":"Feature","properties":{"sec":"28","frstdivid":"WY060330N0700W0SN280"},"geometry":{"type":"Polygon","coordinates":[[[-105.276023,42.79648],[-105.275997,42.800027],[-105.275971,42.803573],[-105.275945,42.80712],[-105.275919,42.810666],[-105.270954,42.810655],[-105.265988,42.810643],[-105.261023,42.810631],[-105.256058,42.81062],[-105.256072,42.807045],[-105.256085,42.803471],[-105.256099,42.799897],[-105.256113,42.796322],[-105.26109,42.796362],[-105.266068,42.796401],[-105.271046,42.796441],[-105.276023,42.79648]]]}},{"type":"Feature","properties":{"sec":"21","frstdivid":"WY060330N0700W0SN210"},"geometry":{"type":"Polygon","coordinates":[[[-105.275927,42.821325],[-105.27593,42.824878],[-105.270972,42.824884],[-105.266014,42.824891],[-105.261056,42.824897],[-105.256098,42.824904],[-105.256088,42.821333],[-105.256078,42.817762],[-105.256068,42.814191],[-105.256058,42.81062],[-105.261023,42.810631],[-105.265988,42.810643],[-105.270954,42.810655],[-105.275919,42.810666],[-105.275921,42.814219],[-105.275924,42.817772],[-105.275927,42.821325]]]}},{"type":"Feature","properties":{"sec":"16","frstdivid":"WY060330N0700W0SN160"},"geometry":{"type":"Polygon","coordinates":[[[-105.275923,42.835533],[-105.27592,42.839085],[-105.270945,42.839106],[-105.26597,42.839127],[-105.260995,42.839148],[-105.25602,42.839169],[-105.25604,42.835603],[-105.256059,42.832037],[-105.256079,42.82847],[-105.256098,42.824904],[-105.261056,42.824897],[-105.266014,42.824891],[-105.270972,42.824884],[-105.27593,42.824878],[-105.275927,42.828429],[-105.275925,42.831981],[-105.275923,42.835533]]]}},{"type":"Feature","properties":{"sec":"22","frstdivid":"WY060330N0700W0SN220"},"geometry":{"type":"Polygon","coordinates":[[[-105.256088,42.821333],[-105.256098,42.824904],[-105.251115,42.824918],[-105.246131,42.824931],[-105.241148,42.824945],[-105.236165,42.824959],[-105.236145,42.821368],[-105.236125,42.817777],[-105.236105,42.814185],[-105.236085,42.810594],[-105.241078,42.810601],[-105.246072,42.810607],[-105.251065,42.810613],[-105.256058,42.81062],[-105.256068,42.814191],[-105.256078,42.817762],[-105.256088,42.821333]]]}},{"type":"Feature","properties":{"sec":"11","frstdivid":"WY060330N0700W0SN110"},"geometry":{"type":"Polygon","coordinates":[[[-105.236284,42.850079],[-105.236311,42.853669],[-105.231342,42.853716],[-105.226373,42.853763],[-105.221404,42.853809],[-105.216435,42.853856],[-105.216416,42.850252],[-105.216397,42.846648],[-105.216378,42.843043],[-105.216359,42.839439],[-105.22132,42.839406],[-105.226281,42.839373],[-105.231243,42.83934],[-105.236204,42.839307],[-105.236231,42.842898],[-105.236257,42.846488],[-105.236284,42.850079]]]}},{"type":"Feature","properties":{"sec":"24","frstdivid":"WY060330N0700W0SN240"},"geometry":{"type":"Polygon","coordinates":[[[-105.211305,42.825044],[-105.206327,42.82507],[-105.20135,42.825096],[-105.196372,42.825122],[-105.196359,42.821505],[-105.196345,42.817888],[-105.196319,42.814271],[-105.196292,42.810654],[-105.201266,42.810639],[-105.206239,42.810624],[-105.211213,42.810609],[-105.216186,42.810594],[-105.21621,42.8142],[-105.216234,42.817806],[-105.216259,42.821412],[-105.216283,42.825018],[-105.211305,42.825044]]]}},{"type":"Feature","properties":{"sec":"27","frstdivid":"WY060330N0700W0SN270"},"geometry":{"type":"Polygon","coordinates":[[[-105.251121,42.796295],[-105.256113,42.796322],[-105.256099,42.799897],[-105.256085,42.803471],[-105.256072,42.807045],[-105.256058,42.81062],[-105.251065,42.810613],[-105.246072,42.810607],[-105.241078,42.810601],[-105.236085,42.810594],[-105.2361,42.806999],[-105.236116,42.803404],[-105.236131,42.799808],[-105.236147,42.796213],[-105.241138,42.79624],[-105.24613,42.796268],[-105.251121,42.796295]]]}},{"type":"Feature","properties":{"sec":"03","frstdivid":"WY060330N0700W0SN030"},"geometry":{"type":"Polygon","coordinates":[[[-105.236388,42.868131],[-105.236373,42.864498],[-105.236358,42.860884],[-105.236335,42.857277],[-105.236311,42.853669],[-105.241261,42.853608],[-105.246211,42.853548],[-105.251161,42.853487],[-105.256111,42.853426],[-105.256162,42.857016],[-105.256212,42.860606],[-105.256242,42.864211],[-105.256272,42.867784],[-105.251301,42.867868],[-105.24633,42.867951],[-105.241359,42.868041],[-105.236388,42.868131]]]}},{"type":"Feature","properties":{"sec":"35","frstdivid":"WY060330N0700W0SN350"},"geometry":{"type":"Polygon","coordinates":[[[-105.226157,42.796186],[-105.221162,42.796172],[-105.216167,42.796159],[-105.216198,42.792546],[-105.21623,42.788932],[-105.216261,42.785319],[-105.216292,42.781707],[-105.218474,42.781719],[-105.221233,42.781722],[-105.22346,42.781712],[-105.226186,42.781762],[-105.22847,42.781774],[-105.231128,42.781795],[-105.233398,42.781812],[-105.236079,42.781817],[-105.236097,42.785416],[-105.236115,42.789015],[-105.236131,42.792614],[-105.236147,42.796213],[-105.231152,42.7962],[-105.226157,42.796186]]]}},{"type":"Feature","properties":{"sec":"23","frstdivid":"WY060330N0700W0SN230"},"geometry":{"type":"Polygon","coordinates":[[[-105.236105,42.814185],[-105.236125,42.817777],[-105.236145,42.821368],[-105.236165,42.824959],[-105.231194,42.824974],[-105.226224,42.824988],[-105.221253,42.825003],[-105.216283,42.825018],[-105.216259,42.821412],[-105.216234,42.817806],[-105.21621,42.8142],[-105.216186,42.810594],[-105.221161,42.810594],[-105.226136,42.810594],[-105.23111,42.810594],[-105.236085,42.810594],[-105.236105,42.814185]]]}},{"type":"Feature","properties":{"sec":"14","frstdivid":"WY060330N0700W0SN140"},"geometry":{"type":"Polygon","coordinates":[[[-105.236184,42.832133],[-105.236194,42.83572],[-105.236204,42.839307],[-105.231243,42.83934],[-105.226281,42.839373],[-105.22132,42.839406],[-105.216359,42.839439],[-105.21634,42.835834],[-105.216321,42.832229],[-105.216302,42.828623],[-105.216283,42.825018],[-105.221253,42.825003],[-105.226224,42.824988],[-105.231194,42.824974],[-105.236165,42.824959],[-105.236175,42.828546],[-105.236184,42.832133]]]}}]}