{"type":"FeatureCollection","note":"BLM Public Land Survey System. Provided by the Bureau of Land Management as is. These data are neither legal documents nor land surveys and must not be used as such.","features":[{"type":"Feature","properties":{"sec":"32","frstdivid":"ND051310N1060W0SN320"},"geometry":{"type":"Polygon","coordinates":[[[-103.971667,46.126223],[-103.97166,46.12984],[-103.971653,46.133457],[-103.966447,46.133459],[-103.961241,46.13346],[-103.956036,46.133462],[-103.95083,46.133464],[-103.950833,46.129843],[-103.950837,46.126222],[-103.95084,46.122601],[-103.950844,46.118981],[-103.956059,46.11899],[-103.961275,46.118999],[-103.966483,46.119002],[-103.971691,46.119006],[-103.971679,46.122614],[-103.971667,46.126223]]]}},{"type":"Feature","properties":{"sec":"08","frstdivid":"ND051310N1060W0SN080"},"geometry":{"type":"Polygon","coordinates":[[[-103.971602,46.184168],[-103.971597,46.187788],[-103.971592,46.191408],[-103.966379,46.1914],[-103.961166,46.191392],[-103.955954,46.191385],[-103.950741,46.191377],[-103.950748,46.187758],[-103.950755,46.18414],[-103.950762,46.180521],[-103.950769,46.176903],[-103.95598,46.176909],[-103.96119,46.176915],[-103.966401,46.176921],[-103.971612,46.176927],[-103.971607,46.180548],[-103.971602,46.184168]]]}},{"type":"Feature","properties":{"sec":"07","frstdivid":"ND051310N1060W0SN070"},"geometry":{"type":"Polygon","coordinates":[[[-103.991935,46.184189],[-103.991929,46.187812],[-103.991922,46.191434],[-103.987222,46.191429],[-103.982012,46.191423],[-103.976802,46.191415],[-103.971592,46.191408],[-103.971597,46.187788],[-103.971602,46.184168],[-103.971607,46.180548],[-103.971612,46.176927],[-103.976822,46.176932],[-103.982033,46.176937],[-103.987243,46.176941],[-103.991947,46.176944],[-103.991941,46.180566],[-103.991935,46.184189]]]}},{"type":"Feature","properties":{"sec":"19","frstdivid":"ND051310N1060W0SN190"},"geometry":{"type":"Polygon","coordinates":[[[-103.991991,46.155206],[-103.991991,46.158826],[-103.991991,46.162446],[-103.987276,46.162442],[-103.982066,46.162439],[-103.976855,46.162436],[-103.971644,46.162434],[-103.971645,46.158814],[-103.971646,46.155194],[-103.971647,46.151574],[-103.971648,46.147954],[-103.976857,46.147959],[-103.982066,46.147963],[-103.987273,46.147965],[-103.991992,46.147967],[-103.991991,46.151586],[-103.991991,46.155206]]]}},{"type":"Feature","properties":{"sec":"31","frstdivid":"ND051310N1060W0SN310"},"geometry":{"type":"Polygon","coordinates":[[[-103.992037,46.126266],[-103.99203,46.129889],[-103.992022,46.133511],[-103.987283,46.133499],[-103.982065,46.133486],[-103.976859,46.133472],[-103.971653,46.133457],[-103.97166,46.12984],[-103.971667,46.126223],[-103.971679,46.122614],[-103.971691,46.119006],[-103.976899,46.119004],[-103.982108,46.119001],[-103.987315,46.119012],[-103.992053,46.119021],[-103.992045,46.122644],[-103.992037,46.126266]]]}},{"type":"Feature","properties":{"sec":"29","frstdivid":"ND051310N1060W0SN290"},"geometry":{"type":"Polygon","coordinates":[[[-103.971651,46.140706],[-103.97165,46.14433],[-103.971648,46.147954],[-103.96644,46.147952],[-103.961231,46.147949],[-103.956023,46.147947],[-103.950814,46.147944],[-103.950818,46.144324],[-103.950822,46.140704],[-103.950826,46.137084],[-103.95083,46.133464],[-103.956036,46.133462],[-103.961241,46.13346],[-103.966447,46.133459],[-103.971653,46.133457],[-103.971652,46.137081],[-103.971651,46.140706]]]}},{"type":"Feature","properties":{"sec":"30","frstdivid":"ND051310N1060W0SN300"},"geometry":{"type":"Polygon","coordinates":[[[-103.992007,46.140739],[-103.991999,46.144353],[-103.991992,46.147967],[-103.987273,46.147965],[-103.982066,46.147963],[-103.976857,46.147959],[-103.971648,46.147954],[-103.97165,46.14433],[-103.971651,46.140706],[-103.971652,46.137081],[-103.971653,46.133457],[-103.976859,46.133472],[-103.982065,46.133486],[-103.987283,46.133499],[-103.992022,46.133511],[-103.992014,46.137125],[-103.992007,46.140739]]]}},{"type":"Feature","properties":{"sec":"06","frstdivid":"ND051310N1060W0SN060"},"geometry":{"type":"Polygon","coordinates":[[[-103.991914,46.198673],[-103.991912,46.202292],[-103.99191,46.205912],[-103.98722,46.205906],[-103.98201,46.205899],[-103.9768,46.205893],[-103.971591,46.205886],[-103.971589,46.202264],[-103.971588,46.198645],[-103.97159,46.195027],[-103.971592,46.191408],[-103.976802,46.191415],[-103.982012,46.191423],[-103.987222,46.191429],[-103.991922,46.191434],[-103.991918,46.195054],[-103.991914,46.198673]]]}},{"type":"Feature","properties":{"sec":"05","frstdivid":"ND051310N1060W0SN050"},"geometry":{"type":"Polygon","coordinates":[[[-103.971588,46.198645],[-103.971589,46.202264],[-103.971591,46.205886],[-103.966384,46.205876],[-103.961177,46.205867],[-103.95597,46.205857],[-103.950763,46.205847],[-103.950756,46.202235],[-103.950748,46.198616],[-103.950745,46.194996],[-103.950741,46.191377],[-103.955954,46.191385],[-103.961166,46.191392],[-103.966379,46.1914],[-103.971592,46.191408],[-103.97159,46.195027],[-103.971588,46.198645]]]}},{"type":"Feature","properties":{"sec":"20","frstdivid":"ND051310N1060W0SN200"},"geometry":{"type":"Polygon","coordinates":[[[-103.971646,46.155194],[-103.971645,46.158814],[-103.971644,46.162434],[-103.966429,46.16243],[-103.961215,46.162426],[-103.956001,46.162422],[-103.950786,46.162418],[-103.950793,46.158799],[-103.9508,46.155181],[-103.950807,46.151563],[-103.950814,46.147944],[-103.956023,46.147947],[-103.961231,46.147949],[-103.96644,46.147952],[-103.971648,46.147954],[-103.971647,46.151574],[-103.971646,46.155194]]]}},{"type":"Feature","properties":{"sec":"17","frstdivid":"ND051310N1060W0SN170"},"geometry":{"type":"Polygon","coordinates":[[[-103.971628,46.169681],[-103.97162,46.173304],[-103.971612,46.176927],[-103.966401,46.176921],[-103.96119,46.176915],[-103.95598,46.176909],[-103.950769,46.176903],[-103.950773,46.173281],[-103.950777,46.16966],[-103.950782,46.166039],[-103.950786,46.162418],[-103.956001,46.162422],[-103.961215,46.162426],[-103.966429,46.16243],[-103.971644,46.162434],[-103.971636,46.166057],[-103.971628,46.169681]]]}},{"type":"Feature","properties":{"sec":"18","frstdivid":"ND051310N1060W0SN180"},"geometry":{"type":"Polygon","coordinates":[[[-103.991969,46.169695],[-103.991958,46.173319],[-103.991947,46.176944],[-103.987243,46.176941],[-103.982033,46.176937],[-103.976822,46.176932],[-103.971612,46.176927],[-103.97162,46.173304],[-103.971628,46.169681],[-103.971636,46.166057],[-103.971644,46.162434],[-103.976855,46.162436],[-103.982066,46.162439],[-103.987276,46.162442],[-103.991991,46.162446],[-103.99198,46.16607],[-103.991969,46.169695]]]}}]}