{"type":"FeatureCollection","note":"BLM Public Land Survey System. Provided by the Bureau of Land Management as is. These data are neither legal documents nor land surveys and must not be used as such.","features":[{"type":"Feature","properties":{"sec":"32","frstdivid":"WY060510N0790W0SN320"},"geometry":{"type":"Polygon","coordinates":[[[-106.399045,44.356498],[-106.394007,44.356576],[-106.38897,44.356654],[-106.383932,44.356732],[-106.378894,44.356811],[-106.378912,44.353151],[-106.378931,44.349491],[-106.378943,44.345839],[-106.378955,44.342186],[-106.383957,44.342155],[-106.388959,44.342124],[-106.39398,44.342087],[-106.399,44.34205],[-106.399012,44.345662],[-106.399023,44.349274],[-106.399034,44.352886],[-106.399045,44.356498]]]}},{"type":"Feature","properties":{"sec":"17","frstdivid":"WY060510N0790W0SN170"},"geometry":{"type":"Polygon","coordinates":[[[-106.37882,44.389754],[-106.378762,44.386089],[-106.383783,44.386018],[-106.388804,44.385947],[-106.393825,44.385877],[-106.398847,44.385806],[-106.398872,44.38947],[-106.398898,44.393135],[-106.398923,44.3968],[-106.398949,44.400464],[-106.39396,44.400535],[-106.388971,44.400606],[-106.383982,44.400677],[-106.378993,44.400748],[-106.378935,44.397083],[-106.378878,44.393419],[-106.37882,44.389754]]]}},{"type":"Feature","properties":{"sec":"30","frstdivid":"WY060510N0790W0SN300"},"geometry":{"type":"Polygon","coordinates":[[[-106.418492,44.363739],[-106.418477,44.367378],[-106.418461,44.371016],[-106.413997,44.37108],[-106.409095,44.37115],[-106.404043,44.37115],[-106.398991,44.371149],[-106.399004,44.367486],[-106.399018,44.363824],[-106.399031,44.360161],[-106.399045,44.356498],[-106.40405,44.356486],[-106.409055,44.356474],[-106.414062,44.356462],[-106.41854,44.356452],[-106.418516,44.360095],[-106.418492,44.363739]]]}},{"type":"Feature","properties":{"sec":"31","frstdivid":"WY060510N0790W0SN310"},"geometry":{"type":"Polygon","coordinates":[[[-106.409055,44.356474],[-106.40405,44.356486],[-106.399045,44.356498],[-106.399034,44.352886],[-106.399023,44.349274],[-106.399012,44.345662],[-106.399,44.34205],[-106.404017,44.342012],[-106.409033,44.341973],[-106.414052,44.341935],[-106.4186,44.3419],[-106.418583,44.345538],[-106.418566,44.349176],[-106.418553,44.352814],[-106.41854,44.356452],[-106.414062,44.356462],[-106.409055,44.356474]]]}},{"type":"Feature","properties":{"sec":"12","frstdivid":"WY060510N0790W0SN120"},"geometry":{"type":"Polygon","coordinates":[[[-106.298581,44.408423],[-106.298587,44.404788],[-106.298594,44.401152],[-106.303692,44.401147],[-106.30879,44.401142],[-106.309143,44.401142],[-106.313888,44.401137],[-106.318986,44.401132],[-106.31896,44.404778],[-106.318934,44.408425],[-106.318907,44.412072],[-106.318881,44.415719],[-106.313803,44.415713],[-106.308725,44.415707],[-106.303647,44.4157],[-106.298569,44.415694],[-106.298569,44.415332],[-106.298575,44.412059],[-106.298581,44.408423]]]}},{"type":"Feature","properties":{"sec":"13","frstdivid":"WY060510N0790W0SN130"},"geometry":{"type":"Polygon","coordinates":[[[-106.298614,44.390244],[-106.29862,44.386608],[-106.303649,44.386592],[-106.308678,44.386577],[-106.313707,44.386561],[-106.318736,44.386545],[-106.318798,44.390192],[-106.318861,44.393838],[-106.318924,44.397485],[-106.318986,44.401132],[-106.313888,44.401137],[-106.309143,44.401142],[-106.30879,44.401142],[-106.303692,44.401147],[-106.298594,44.401152],[-106.2986,44.397516],[-106.298607,44.39388],[-106.298614,44.390244]]]}},{"type":"Feature","properties":{"sec":"01","frstdivid":"WY060510N0790W0SN010"},"geometry":{"type":"Polygon","coordinates":[[[-106.313803,44.415713],[-106.318881,44.415719],[-106.318897,44.419368],[-106.318913,44.423016],[-106.318929,44.426665],[-106.318945,44.430326],[-106.318771,44.430326],[-106.313847,44.430306],[-106.313722,44.430306],[-106.308749,44.430286],[-106.308673,44.430286],[-106.303662,44.43026],[-106.303624,44.43026],[-106.298575,44.430233],[-106.298572,44.426604],[-106.298569,44.422974],[-106.298569,44.422748],[-106.298569,44.419334],[-106.298569,44.415694],[-106.303647,44.4157],[-106.308725,44.415707],[-106.313803,44.415713]]]}},{"type":"Feature","properties":{"sec":"16","frstdivid":"WY060510N0790W0SN160"},"geometry":{"type":"Polygon","coordinates":[[[-106.37882,44.389754],[-106.378878,44.393419],[-106.378935,44.397083],[-106.378993,44.400748],[-106.374002,44.400786],[-106.369011,44.400825],[-106.364019,44.400864],[-106.359028,44.400902],[-106.358944,44.397248],[-106.35886,44.393594],[-106.358775,44.38994],[-106.358691,44.386285],[-106.363711,44.386235],[-106.36873,44.386185],[-106.373746,44.386137],[-106.378762,44.386089],[-106.37882,44.389754]]]}},{"type":"Feature","properties":{"sec":"26","frstdivid":"WY060510N0790W0SN260"},"geometry":{"type":"Polygon","coordinates":[[[-106.338846,44.364517],[-106.338845,44.364662],[-106.338808,44.368172],[-106.33877,44.371827],[-106.333763,44.37186],[-106.328756,44.371893],[-106.323749,44.371925],[-106.318741,44.371958],[-106.318766,44.368312],[-106.31879,44.364665],[-106.318814,44.361018],[-106.318838,44.357371],[-106.323859,44.35733],[-106.32888,44.357289],[-106.333902,44.357248],[-106.338923,44.357208],[-106.338885,44.360862],[-106.338846,44.364517]]]}},{"type":"Feature","properties":{"sec":"25","frstdivid":"WY060510N0790W0SN250"},"geometry":{"type":"Polygon","coordinates":[[[-106.318766,44.368312],[-106.318741,44.371958],[-106.313718,44.371985],[-106.308694,44.372011],[-106.30367,44.372038],[-106.298646,44.372065],[-106.298653,44.368429],[-106.298659,44.364793],[-106.298666,44.361157],[-106.298672,44.357522],[-106.303714,44.357484],[-106.308755,44.357446],[-106.313797,44.357409],[-106.318838,44.357371],[-106.318814,44.361018],[-106.31879,44.364665],[-106.318766,44.368312]]]}},{"type":"Feature","properties":{"sec":"19","frstdivid":"WY060510N0790W0SN190"},"geometry":{"type":"Polygon","coordinates":[[[-106.418429,44.38195],[-106.418424,44.385414],[-106.418424,44.385592],[-106.413837,44.38564],[-106.408865,44.385693],[-106.403856,44.385749],[-106.398847,44.385806],[-106.398883,44.382142],[-106.398919,44.378478],[-106.398955,44.374813],[-106.398991,44.371149],[-106.404043,44.37115],[-106.409095,44.37115],[-106.413997,44.37108],[-106.418461,44.371016],[-106.418448,44.374663],[-106.418434,44.378309],[-106.418429,44.381862],[-106.418429,44.38195]]]}},{"type":"Feature","properties":{"sec":"23","frstdivid":"WY060510N0790W0SN230"},"geometry":{"type":"Polygon","coordinates":[[[-106.338671,44.382792],[-106.338638,44.386447],[-106.333663,44.386471],[-106.328687,44.386496],[-106.323711,44.38652],[-106.318736,44.386545],[-106.318737,44.382898],[-106.318739,44.379252],[-106.318739,44.379034],[-106.31874,44.375605],[-106.318741,44.371958],[-106.323749,44.371925],[-106.328756,44.371893],[-106.333763,44.37186],[-106.33877,44.371827],[-106.338737,44.375482],[-106.338704,44.379137],[-106.338671,44.382792]]]}},{"type":"Feature","properties":{"sec":"02","frstdivid":"WY060510N0790W0SN020"},"geometry":{"type":"Polygon","coordinates":[[[-106.338955,44.430199],[-106.334146,44.43023],[-106.333909,44.430232],[-106.329077,44.430264],[-106.328864,44.430265],[-106.324011,44.430295],[-106.323817,44.430296],[-106.318945,44.430326],[-106.318929,44.426665],[-106.318913,44.423016],[-106.318897,44.419368],[-106.318881,44.415719],[-106.323972,44.415703],[-106.329062,44.415687],[-106.334163,44.415669],[-106.339264,44.415651],[-106.339255,44.419299],[-106.339246,44.422947],[-106.339231,44.426579],[-106.339215,44.430197],[-106.338955,44.430199]]]}},{"type":"Feature","properties":{"sec":"33","frstdivid":"WY060510N0790W0SN330"},"geometry":{"type":"Polygon","coordinates":[[[-106.363905,44.342338],[-106.368921,44.342288],[-106.373938,44.342237],[-106.378753,44.342188],[-106.378955,44.342186],[-106.378943,44.345839],[-106.378931,44.349491],[-106.378912,44.353151],[-106.378894,44.356811],[-106.373905,44.356863],[-106.368916,44.356915],[-106.363927,44.356968],[-106.358937,44.35702],[-106.358925,44.353362],[-106.358913,44.349704],[-106.358901,44.346046],[-106.358889,44.342388],[-106.363905,44.342338]]]}},{"type":"Feature","properties":{"sec":"28","frstdivid":"WY060510N0790W0SN280"},"geometry":{"type":"Polygon","coordinates":[[[-106.378829,44.371422],[-106.373836,44.371479],[-106.368842,44.371537],[-106.363849,44.371595],[-106.358856,44.371652],[-106.358857,44.371525],[-106.358876,44.367994],[-106.358897,44.364336],[-106.358917,44.360678],[-106.358937,44.35702],[-106.363927,44.356968],[-106.368916,44.356915],[-106.373905,44.356863],[-106.378894,44.356811],[-106.378876,44.360467],[-106.378859,44.364124],[-106.378844,44.367773],[-106.378829,44.371422]]]}},{"type":"Feature","properties":{"sec":"34","frstdivid":"WY060510N0790W0SN340"},"geometry":{"type":"Polygon","coordinates":[[[-106.34893,44.357114],[-106.343927,44.357161],[-106.338923,44.357208],[-106.338899,44.353553],[-106.338875,44.349898],[-106.33885,44.346243],[-106.338826,44.342588],[-106.343842,44.342538],[-106.348858,44.342488],[-106.353874,44.342438],[-106.358889,44.342388],[-106.358901,44.346046],[-106.358913,44.349704],[-106.358925,44.353362],[-106.358937,44.35702],[-106.353934,44.357067],[-106.34893,44.357114]]]}},{"type":"Feature","properties":{"sec":"29","frstdivid":"WY060510N0790W0SN290"},"geometry":{"type":"Polygon","coordinates":[[[-106.378829,44.371422],[-106.378844,44.367773],[-106.378859,44.364124],[-106.378876,44.360467],[-106.378894,44.356811],[-106.383932,44.356732],[-106.38897,44.356654],[-106.394007,44.356576],[-106.399045,44.356498],[-106.399031,44.360161],[-106.399018,44.363824],[-106.399004,44.367486],[-106.398991,44.371149],[-106.39395,44.371218],[-106.38891,44.371286],[-106.383869,44.371354],[-106.378829,44.371422]]]}},{"type":"Feature","properties":{"sec":"35","frstdivid":"WY060510N0790W0SN350"},"geometry":{"type":"Polygon","coordinates":[[[-106.328794,44.342686],[-106.33381,44.342637],[-106.338826,44.342588],[-106.33885,44.346243],[-106.338875,44.349898],[-106.338899,44.353553],[-106.338923,44.357208],[-106.333902,44.357248],[-106.32888,44.357289],[-106.323859,44.35733],[-106.318838,44.357371],[-106.318819,44.353725],[-106.3188,44.350078],[-106.318781,44.346431],[-106.318762,44.342785],[-106.323778,44.342736],[-106.328794,44.342686]]]}},{"type":"Feature","properties":{"sec":"36","frstdivid":"WY060510N0790W0SN360"},"geometry":{"type":"Polygon","coordinates":[[[-106.318819,44.353725],[-106.318838,44.357371],[-106.313797,44.357409],[-106.308755,44.357446],[-106.303714,44.357484],[-106.298672,44.357522],[-106.298679,44.353886],[-106.298685,44.35025],[-106.298691,44.346614],[-106.298698,44.342978],[-106.303714,44.34293],[-106.30873,44.342882],[-106.313746,44.342833],[-106.318762,44.342785],[-106.318781,44.346431],[-106.3188,44.350078],[-106.318819,44.353725]]]}},{"type":"Feature","properties":{"sec":"27","frstdivid":"WY060510N0790W0SN270"},"geometry":{"type":"Polygon","coordinates":[[[-106.338885,44.360862],[-106.338923,44.357208],[-106.343927,44.357161],[-106.34893,44.357114],[-106.353934,44.357067],[-106.358937,44.35702],[-106.358917,44.360678],[-106.358897,44.364336],[-106.358876,44.367994],[-106.358857,44.371525],[-106.358856,44.371652],[-106.353835,44.371696],[-106.348813,44.37174],[-106.343791,44.371783],[-106.33877,44.371827],[-106.338808,44.368172],[-106.338845,44.364662],[-106.338846,44.364517],[-106.338885,44.360862]]]}},{"type":"Feature","properties":{"sec":"04","frstdivid":"WY060510N0790W0SN040"},"geometry":{"type":"Polygon","coordinates":[[[-106.369605,44.430052],[-106.369289,44.430054],[-106.364541,44.430077],[-106.364238,44.430078],[-106.359478,44.430101],[-106.35944,44.42652],[-106.3594,44.422827],[-106.359328,44.419174],[-106.359255,44.41552],[-106.364268,44.415491],[-106.36928,44.415463],[-106.374293,44.415434],[-106.379305,44.415405],[-106.379415,44.419068],[-106.379524,44.422732],[-106.379629,44.426392],[-106.379732,44.430003],[-106.379391,44.430005],[-106.374669,44.430027],[-106.37434,44.430029],[-106.369605,44.430052]]]}},{"type":"Feature","properties":{"sec":"24","frstdivid":"WY060510N0790W0SN240"},"geometry":{"type":"Polygon","coordinates":[[[-106.298627,44.382972],[-106.298633,44.379336],[-106.29864,44.375701],[-106.298646,44.372065],[-106.30367,44.372038],[-106.308694,44.372011],[-106.313718,44.371985],[-106.318741,44.371958],[-106.31874,44.375605],[-106.318739,44.379034],[-106.318739,44.379252],[-106.318737,44.382898],[-106.318736,44.386545],[-106.313707,44.386561],[-106.308678,44.386577],[-106.303649,44.386592],[-106.29862,44.386608],[-106.298627,44.382972]]]}},{"type":"Feature","properties":{"sec":"07","frstdivid":"WY060510N0790W0SN070"},"geometry":{"type":"Polygon","coordinates":[[[-106.418536,44.4038],[-106.418691,44.407109],[-106.418705,44.407435],[-106.418858,44.41073],[-106.418873,44.411074],[-106.419025,44.414352],[-106.41904,44.414712],[-106.41445,44.414803],[-106.409434,44.414903],[-106.404418,44.415015],[-106.399402,44.415127],[-106.399289,44.411461],[-106.399175,44.407795],[-106.399062,44.40413],[-106.398949,44.400464],[-106.403918,44.400384],[-106.408888,44.400304],[-106.41386,44.400231],[-106.418373,44.400164],[-106.418523,44.403486],[-106.418536,44.4038]]]}},{"type":"Feature","properties":{"sec":"11","frstdivid":"WY060510N0790W0SN110"},"geometry":{"type":"Polygon","coordinates":[[[-106.329137,44.401104],[-106.329364,44.401103],[-106.334213,44.40109],[-106.339288,44.401076],[-106.339288,44.404718],[-106.339288,44.408359],[-106.339276,44.412005],[-106.339264,44.415651],[-106.334163,44.415669],[-106.329062,44.415687],[-106.323972,44.415703],[-106.318881,44.415719],[-106.318907,44.412072],[-106.318934,44.408425],[-106.31896,44.404778],[-106.318986,44.401132],[-106.324062,44.401118],[-106.329137,44.401104]]]}},{"type":"Feature","properties":{"sec":"20","frstdivid":"WY060510N0790W0SN200"},"geometry":{"type":"Polygon","coordinates":[[[-106.398847,44.385806],[-106.393825,44.385877],[-106.388804,44.385947],[-106.383783,44.386018],[-106.378762,44.386089],[-106.378778,44.382423],[-106.378794,44.378757],[-106.378811,44.37509],[-106.378829,44.371422],[-106.383869,44.371354],[-106.38891,44.371286],[-106.39395,44.371218],[-106.398991,44.371149],[-106.398955,44.374813],[-106.398919,44.378478],[-106.398883,44.382142],[-106.398847,44.385806]]]}},{"type":"Feature","properties":{"sec":"05","frstdivid":"WY060510N0790W0SN050"},"geometry":{"type":"Polygon","coordinates":[[[-106.389496,44.429784],[-106.384797,44.42989],[-106.384444,44.429896],[-106.379732,44.430003],[-106.379629,44.426392],[-106.379524,44.422732],[-106.379415,44.419068],[-106.379305,44.415405],[-106.38433,44.415335],[-106.389354,44.415266],[-106.394378,44.415196],[-106.399402,44.415127],[-106.399547,44.418791],[-106.399692,44.422454],[-106.39983,44.426118],[-106.399965,44.429682],[-106.399604,44.429684],[-106.394913,44.42973],[-106.39455,44.429732],[-106.389862,44.429778],[-106.389496,44.429784]]]}},{"type":"Feature","properties":{"sec":"22","frstdivid":"WY060510N0790W0SN220"},"geometry":{"type":"Polygon","coordinates":[[[-106.358691,44.386285],[-106.353678,44.386324],[-106.348665,44.386363],[-106.343652,44.386405],[-106.338638,44.386447],[-106.338671,44.382792],[-106.338704,44.379137],[-106.338737,44.375482],[-106.33877,44.371827],[-106.343791,44.371783],[-106.348813,44.37174],[-106.353835,44.371696],[-106.358856,44.371652],[-106.358815,44.37531],[-106.358774,44.378969],[-106.358733,44.382627],[-106.358691,44.386285]]]}},{"type":"Feature","properties":{"sec":"14","frstdivid":"WY060510N0790W0SN140"},"geometry":{"type":"Polygon","coordinates":[[[-106.318736,44.386545],[-106.323711,44.38652],[-106.328687,44.386496],[-106.333663,44.386471],[-106.338638,44.386447],[-106.338804,44.390104],[-106.338971,44.393761],[-106.339129,44.397418],[-106.339288,44.401076],[-106.334213,44.40109],[-106.329364,44.401103],[-106.329137,44.401104],[-106.324062,44.401118],[-106.318986,44.401132],[-106.318924,44.397485],[-106.318861,44.393838],[-106.318798,44.390192],[-106.318736,44.386545]]]}},{"type":"Feature","properties":{"sec":"03","frstdivid":"WY060510N0790W0SN030"},"geometry":{"type":"Polygon","coordinates":[[[-106.354402,44.430125],[-106.354129,44.430127],[-106.349326,44.430149],[-106.349071,44.430151],[-106.344271,44.430173],[-106.344013,44.430175],[-106.339215,44.430197],[-106.339231,44.426579],[-106.339246,44.422947],[-106.339255,44.419299],[-106.339264,44.415651],[-106.344262,44.415619],[-106.349259,44.415586],[-106.354257,44.415553],[-106.359255,44.41552],[-106.359328,44.419174],[-106.3594,44.422827],[-106.35944,44.42652],[-106.359478,44.430101],[-106.359187,44.430103],[-106.354402,44.430125]]]}},{"type":"Feature","properties":{"sec":"21","frstdivid":"WY060510N0790W0SN210"},"geometry":{"type":"Polygon","coordinates":[[[-106.378829,44.371422],[-106.378811,44.37509],[-106.378794,44.378757],[-106.378778,44.382423],[-106.378762,44.386089],[-106.373746,44.386137],[-106.36873,44.386185],[-106.363711,44.386235],[-106.358691,44.386285],[-106.358733,44.382627],[-106.358774,44.378969],[-106.358815,44.37531],[-106.358856,44.371652],[-106.363849,44.371595],[-106.368842,44.371537],[-106.373836,44.371479],[-106.378829,44.371422]]]}},{"type":"Feature","properties":{"sec":"06","frstdivid":"WY060510N0790W0SN060"},"geometry":{"type":"Polygon","coordinates":[[[-106.419193,44.41797],[-106.41921,44.41835],[-106.419361,44.421588],[-106.41938,44.421988],[-106.41953,44.425206],[-106.419549,44.425626],[-106.41972,44.429264],[-106.415019,44.429367],[-106.414968,44.429368],[-106.409955,44.429479],[-106.409846,44.429481],[-106.40496,44.429581],[-106.404725,44.429585],[-106.399965,44.429682],[-106.39983,44.426118],[-106.399692,44.422454],[-106.399547,44.418791],[-106.399402,44.415127],[-106.404418,44.415015],[-106.409434,44.414903],[-106.41445,44.414803],[-106.41904,44.414712],[-106.419193,44.41797]]]}},{"type":"Feature","properties":{"sec":"09","frstdivid":"WY060510N0790W0SN090"},"geometry":{"type":"Polygon","coordinates":[[[-106.359141,44.408211],[-106.359085,44.404557],[-106.359028,44.400902],[-106.364019,44.400864],[-106.369011,44.400825],[-106.374002,44.400786],[-106.378993,44.400748],[-106.379071,44.404412],[-106.379149,44.408076],[-106.379227,44.411741],[-106.379305,44.415405],[-106.374293,44.415434],[-106.36928,44.415463],[-106.364268,44.415491],[-106.359255,44.41552],[-106.359198,44.411866],[-106.359141,44.408211]]]}},{"type":"Feature","properties":{"sec":"10","frstdivid":"WY060510N0790W0SN100"},"geometry":{"type":"Polygon","coordinates":[[[-106.349259,44.415586],[-106.344262,44.415619],[-106.339264,44.415651],[-106.339276,44.412005],[-106.339288,44.408359],[-106.339288,44.404718],[-106.339288,44.401076],[-106.344223,44.401033],[-106.349158,44.400989],[-106.354093,44.400946],[-106.359028,44.400902],[-106.359085,44.404557],[-106.359141,44.408211],[-106.359198,44.411866],[-106.359255,44.41552],[-106.354257,44.415553],[-106.349259,44.415586]]]}},{"type":"Feature","properties":{"sec":"15","frstdivid":"WY060510N0790W0SN150"},"geometry":{"type":"Polygon","coordinates":[[[-106.358775,44.38994],[-106.35886,44.393594],[-106.358944,44.397248],[-106.359028,44.400902],[-106.354093,44.400946],[-106.349158,44.400989],[-106.344223,44.401033],[-106.339288,44.401076],[-106.339129,44.397418],[-106.338971,44.393761],[-106.338804,44.390104],[-106.338638,44.386447],[-106.343652,44.386405],[-106.348665,44.386363],[-106.353678,44.386324],[-106.358691,44.386285],[-106.358775,44.38994]]]}},{"type":"Feature","properties":{"sec":"08","frstdivid":"WY060510N0790W0SN080"},"geometry":{"type":"Polygon","coordinates":[[[-106.379305,44.415405],[-106.379227,44.411741],[-106.379149,44.408076],[-106.379071,44.404412],[-106.378993,44.400748],[-106.383982,44.400677],[-106.388971,44.400606],[-106.39396,44.400535],[-106.398949,44.400464],[-106.399062,44.40413],[-106.399175,44.407795],[-106.399289,44.411461],[-106.399402,44.415127],[-106.394378,44.415196],[-106.389354,44.415266],[-106.38433,44.415335],[-106.379305,44.415405]]]}},{"type":"Feature","properties":{"sec":"18","frstdivid":"WY060510N0790W0SN180"},"geometry":{"type":"Polygon","coordinates":[[[-106.41386,44.400231],[-106.408888,44.400304],[-106.403918,44.400384],[-106.398949,44.400464],[-106.398923,44.3968],[-106.398898,44.393135],[-106.398872,44.38947],[-106.398847,44.385806],[-106.403856,44.385749],[-106.408865,44.385693],[-106.413837,44.38564],[-106.418424,44.385592],[-106.418404,44.389027],[-106.418404,44.389235],[-106.418384,44.392639],[-106.418384,44.392878],[-106.418379,44.396251],[-106.418378,44.396521],[-106.418373,44.399864],[-106.418373,44.400164],[-106.41386,44.400231]]]}}]}