{"type":"FeatureCollection","note":"BLM Public Land Survey System. Provided by the Bureau of Land Management as is. These data are neither legal documents nor land surveys and must not be used as such.","features":[{"type":"Feature","properties":{"sec":"19","frstdivid":"MT200030S0510E0SN190"},"geometry":{"type":"Polygon","coordinates":[[[-105.468856,45.568788],[-105.468847,45.565167],[-105.468838,45.561546],[-105.468829,45.557926],[-105.46882,45.554305],[-105.473969,45.554306],[-105.479119,45.554307],[-105.484269,45.554307],[-105.488737,45.554308],[-105.488743,45.557929],[-105.48875,45.56155],[-105.488756,45.565171],[-105.488762,45.568793],[-105.484317,45.568791],[-105.479164,45.568789],[-105.47401,45.568788],[-105.468856,45.568788]]]}},{"type":"Feature","properties":{"sec":"31","frstdivid":"MT200030S0510E0SN310"},"geometry":{"type":"Polygon","coordinates":[[[-105.488743,45.52896],[-105.488736,45.532541],[-105.488736,45.532579],[-105.488731,45.536179],[-105.48873,45.536198],[-105.488725,45.539817],[-105.484307,45.53982],[-105.479152,45.539824],[-105.473992,45.539829],[-105.468832,45.539835],[-105.468815,45.536218],[-105.468798,45.532602],[-105.468785,45.528984],[-105.468773,45.525367],[-105.468764,45.522514],[-105.473103,45.522511],[-105.473911,45.522511],[-105.47825,45.522509],[-105.479059,45.522508],[-105.484206,45.522506],[-105.484257,45.522506],[-105.488749,45.522499],[-105.488751,45.525267],[-105.488751,45.525341],[-105.488743,45.528904],[-105.488743,45.52896]]]}},{"type":"Feature","properties":{"sec":"21","frstdivid":"MT200030S0510E0SN210"},"geometry":{"type":"Polygon","coordinates":[[[-105.443004,45.554274],[-105.448171,45.554285],[-105.448178,45.557905],[-105.448184,45.561525],[-105.448191,45.565145],[-105.448198,45.568764],[-105.443034,45.568756],[-105.437871,45.568748],[-105.432708,45.568739],[-105.427545,45.568731],[-105.427534,45.565109],[-105.427524,45.561486],[-105.427513,45.557864],[-105.427502,45.554241],[-105.432669,45.554252],[-105.437837,45.554263],[-105.443004,45.554274]]]}},{"type":"Feature","properties":{"sec":"15","frstdivid":"MT200030S0510E0SN150"},"geometry":{"type":"Polygon","coordinates":[[[-105.427545,45.568731],[-105.427552,45.572354],[-105.427559,45.575976],[-105.427566,45.579598],[-105.427573,45.583221],[-105.422408,45.583212],[-105.417243,45.583202],[-105.412077,45.583193],[-105.406912,45.583184],[-105.406905,45.579562],[-105.406898,45.575939],[-105.406891,45.572317],[-105.406885,45.568695],[-105.41205,45.568704],[-105.417215,45.568713],[-105.42238,45.568722],[-105.427545,45.568731]]]}},{"type":"Feature","properties":{"sec":"08","frstdivid":"MT200030S0510E0SN080"},"geometry":{"type":"Polygon","coordinates":[[[-105.463745,45.583271],[-105.468912,45.583277],[-105.468917,45.586897],[-105.468922,45.590517],[-105.468927,45.594137],[-105.468931,45.597757],[-105.463767,45.597754],[-105.458603,45.597751],[-105.453439,45.597747],[-105.448274,45.597744],[-105.448266,45.594121],[-105.448258,45.590498],[-105.44825,45.586875],[-105.448242,45.583252],[-105.45341,45.583259],[-105.458577,45.583265],[-105.463745,45.583271]]]}},{"type":"Feature","properties":{"sec":"12","frstdivid":"MT200030S0510E0SN120"},"geometry":{"type":"Polygon","coordinates":[[[-105.381096,45.583162],[-105.386258,45.583169],[-105.386263,45.586794],[-105.386267,45.590418],[-105.386272,45.594043],[-105.386276,45.597668],[-105.381109,45.597659],[-105.375942,45.59765],[-105.370775,45.597642],[-105.365607,45.597633],[-105.365608,45.59401],[-105.365608,45.590387],[-105.365609,45.586763],[-105.365609,45.58314],[-105.370772,45.583147],[-105.375934,45.583154],[-105.381096,45.583162]]]}},{"type":"Feature","properties":{"sec":"22","frstdivid":"MT200030S0510E0SN220"},"geometry":{"type":"Polygon","coordinates":[[[-105.40688,45.565072],[-105.406875,45.561449],[-105.40687,45.557826],[-105.406865,45.554204],[-105.412024,45.554213],[-105.417184,45.554223],[-105.422343,45.554232],[-105.427502,45.554241],[-105.427513,45.557864],[-105.427524,45.561486],[-105.427534,45.565109],[-105.427545,45.568731],[-105.42238,45.568722],[-105.417215,45.568713],[-105.41205,45.568704],[-105.406885,45.568695],[-105.40688,45.565072]]]}},{"type":"Feature","properties":{"sec":"09","frstdivid":"MT200030S0510E0SN090"},"geometry":{"type":"Polygon","coordinates":[[[-105.443075,45.583245],[-105.448242,45.583252],[-105.44825,45.586875],[-105.448258,45.590498],[-105.448266,45.594121],[-105.448274,45.597744],[-105.443103,45.597734],[-105.437933,45.597724],[-105.432762,45.597713],[-105.427591,45.597703],[-105.427587,45.594082],[-105.427582,45.590462],[-105.427578,45.586841],[-105.427573,45.583221],[-105.432741,45.583229],[-105.437908,45.583237],[-105.443075,45.583245]]]}},{"type":"Feature","properties":{"sec":"28","frstdivid":"MT200030S0510E0SN280"},"geometry":{"type":"Polygon","coordinates":[[[-105.427502,45.554241],[-105.427495,45.55062],[-105.427488,45.546998],[-105.42748,45.543376],[-105.427473,45.539755],[-105.43265,45.539766],[-105.437827,45.539777],[-105.443003,45.539788],[-105.44818,45.539799],[-105.448178,45.543421],[-105.448176,45.547042],[-105.448173,45.550664],[-105.448171,45.554285],[-105.443004,45.554274],[-105.437837,45.554263],[-105.432669,45.554252],[-105.427502,45.554241]]]}},{"type":"Feature","properties":{"sec":"02","frstdivid":"MT200030S0510E0SN020"},"geometry":{"type":"Polygon","coordinates":[[[-105.40693,45.6013],[-105.406935,45.604924],[-105.40694,45.608549],[-105.406945,45.612173],[-105.401779,45.61217],[-105.396614,45.612168],[-105.391449,45.612165],[-105.386284,45.612162],[-105.386282,45.608538],[-105.38628,45.604915],[-105.386278,45.601291],[-105.386276,45.597668],[-105.391439,45.59767],[-105.396601,45.597672],[-105.401763,45.597674],[-105.406925,45.597676],[-105.40693,45.6013]]]}},{"type":"Feature","properties":{"sec":"24","frstdivid":"MT200030S0510E0SN240"},"geometry":{"type":"Polygon","coordinates":[[[-105.375908,45.568667],[-105.370742,45.568663],[-105.365576,45.568658],[-105.365568,45.56504],[-105.36556,45.561422],[-105.365552,45.557805],[-105.365543,45.554187],[-105.370716,45.554188],[-105.375888,45.554189],[-105.38106,45.55419],[-105.386232,45.554191],[-105.386234,45.557812],[-105.386236,45.561434],[-105.386238,45.565056],[-105.386241,45.568677],[-105.381074,45.568672],[-105.375908,45.568667]]]}},{"type":"Feature","properties":{"sec":"20","frstdivid":"MT200030S0510E0SN200"},"geometry":{"type":"Polygon","coordinates":[[[-105.463658,45.5543],[-105.46882,45.554305],[-105.468829,45.557926],[-105.468838,45.561546],[-105.468847,45.565167],[-105.468856,45.568788],[-105.463691,45.568782],[-105.458527,45.568776],[-105.453362,45.56877],[-105.448198,45.568764],[-105.448191,45.565145],[-105.448184,45.561525],[-105.448178,45.557905],[-105.448171,45.554285],[-105.453333,45.55429],[-105.458495,45.554295],[-105.463658,45.5543]]]}},{"type":"Feature","properties":{"sec":"11","frstdivid":"MT200030S0510E0SN110"},"geometry":{"type":"Polygon","coordinates":[[[-105.386276,45.597668],[-105.386272,45.594043],[-105.386267,45.590418],[-105.386263,45.586794],[-105.386258,45.583169],[-105.391422,45.583173],[-105.396585,45.583177],[-105.401749,45.58318],[-105.406912,45.583184],[-105.406915,45.586807],[-105.406919,45.59043],[-105.406922,45.594053],[-105.406925,45.597676],[-105.401763,45.597674],[-105.396601,45.597672],[-105.391439,45.59767],[-105.386276,45.597668]]]}},{"type":"Feature","properties":{"sec":"36","frstdivid":"MT200030S0510E0SN360"},"geometry":{"type":"Polygon","coordinates":[[[-105.365534,45.532452],[-105.365536,45.528843],[-105.365539,45.525233],[-105.365541,45.522847],[-105.370157,45.522832],[-105.370719,45.52283],[-105.375303,45.522815],[-105.375896,45.522813],[-105.38045,45.522798],[-105.381074,45.522795],[-105.385595,45.522773],[-105.386251,45.52277],[-105.386251,45.525234],[-105.386252,45.528853],[-105.386252,45.532472],[-105.386251,45.536091],[-105.38625,45.539709],[-105.381069,45.539708],[-105.375887,45.539707],[-105.370706,45.539705],[-105.365525,45.539704],[-105.365529,45.536078],[-105.365534,45.532452]]]}},{"type":"Feature","properties":{"sec":"34","frstdivid":"MT200030S0510E0SN340"},"geometry":{"type":"Polygon","coordinates":[[[-105.411996,45.539724],[-105.406837,45.539713],[-105.406834,45.536093],[-105.406831,45.532473],[-105.406828,45.528853],[-105.406825,45.525234],[-105.406823,45.522666],[-105.411327,45.522638],[-105.41198,45.522636],[-105.416474,45.522628],[-105.417136,45.522627],[-105.421621,45.522618],[-105.422293,45.522617],[-105.426768,45.522607],[-105.427451,45.522605],[-105.427454,45.525275],[-105.427459,45.528895],[-105.427463,45.532514],[-105.427468,45.536135],[-105.427473,45.539755],[-105.422314,45.539744],[-105.417155,45.539734],[-105.411996,45.539724]]]}},{"type":"Feature","properties":{"sec":"04","frstdivid":"MT200030S0510E0SN040"},"geometry":{"type":"Polygon","coordinates":[[[-105.448292,45.608597],[-105.448298,45.612215],[-105.443128,45.612209],[-105.437958,45.612204],[-105.432789,45.612199],[-105.427619,45.612194],[-105.427612,45.608571],[-105.427605,45.604948],[-105.427598,45.601326],[-105.427591,45.597703],[-105.432762,45.597713],[-105.437933,45.597724],[-105.443103,45.597734],[-105.448274,45.597744],[-105.44828,45.601362],[-105.448286,45.604979],[-105.448292,45.608597]]]}},{"type":"Feature","properties":{"sec":"30","frstdivid":"MT200030S0510E0SN300"},"geometry":{"type":"Polygon","coordinates":[[[-105.488728,45.54344],[-105.488731,45.547063],[-105.488734,45.550685],[-105.488737,45.554308],[-105.484269,45.554307],[-105.479119,45.554307],[-105.473969,45.554306],[-105.46882,45.554305],[-105.468823,45.550688],[-105.468826,45.54707],[-105.468829,45.543452],[-105.468832,45.539835],[-105.473992,45.539829],[-105.479152,45.539824],[-105.484307,45.53982],[-105.488725,45.539817],[-105.488728,45.54344]]]}},{"type":"Feature","properties":{"sec":"18","frstdivid":"MT200030S0510E0SN180"},"geometry":{"type":"Polygon","coordinates":[[[-105.484394,45.583274],[-105.479235,45.583276],[-105.474074,45.583277],[-105.468912,45.583277],[-105.468898,45.579655],[-105.468884,45.576032],[-105.46887,45.57241],[-105.468856,45.568788],[-105.47401,45.568788],[-105.479164,45.568789],[-105.484317,45.568791],[-105.488762,45.568793],[-105.488768,45.572413],[-105.488775,45.576033],[-105.488781,45.579653],[-105.488788,45.583273],[-105.484394,45.583274]]]}},{"type":"Feature","properties":{"sec":"23","frstdivid":"MT200030S0510E0SN230"},"geometry":{"type":"Polygon","coordinates":[[[-105.406885,45.568695],[-105.401724,45.56869],[-105.396563,45.568686],[-105.391402,45.568682],[-105.386241,45.568677],[-105.386238,45.565056],[-105.386236,45.561434],[-105.386234,45.557812],[-105.386232,45.554191],[-105.39139,45.554194],[-105.396549,45.554197],[-105.401707,45.5542],[-105.406865,45.554204],[-105.40687,45.557826],[-105.406875,45.561449],[-105.40688,45.565072],[-105.406885,45.568695]]]}},{"type":"Feature","properties":{"sec":"26","frstdivid":"MT200030S0510E0SN260"},"geometry":{"type":"Polygon","coordinates":[[[-105.406837,45.539713],[-105.406844,45.543336],[-105.406851,45.546958],[-105.406858,45.550581],[-105.406865,45.554204],[-105.401707,45.5542],[-105.396549,45.554197],[-105.39139,45.554194],[-105.386232,45.554191],[-105.386236,45.55057],[-105.386241,45.54695],[-105.386245,45.543329],[-105.38625,45.539709],[-105.391397,45.53971],[-105.396544,45.539711],[-105.401691,45.539712],[-105.406837,45.539713]]]}},{"type":"Feature","properties":{"sec":"33","frstdivid":"MT200030S0510E0SN330"},"geometry":{"type":"Polygon","coordinates":[[[-105.431916,45.522595],[-105.432627,45.522593],[-105.437063,45.522583],[-105.437803,45.522581],[-105.442211,45.522571],[-105.44298,45.522569],[-105.447359,45.52256],[-105.448157,45.522559],[-105.448161,45.525315],[-105.448166,45.528936],[-105.448171,45.532556],[-105.448176,45.536178],[-105.44818,45.539799],[-105.443003,45.539788],[-105.437827,45.539777],[-105.43265,45.539766],[-105.427473,45.539755],[-105.427468,45.536135],[-105.427463,45.532514],[-105.427459,45.528895],[-105.427454,45.525275],[-105.427451,45.522605],[-105.431916,45.522595]]]}},{"type":"Feature","properties":{"sec":"07","frstdivid":"MT200030S0510E0SN070"},"geometry":{"type":"Polygon","coordinates":[[[-105.479235,45.583276],[-105.484394,45.583274],[-105.488788,45.583273],[-105.48879,45.586894],[-105.488793,45.590516],[-105.488795,45.594138],[-105.488798,45.597759],[-105.484404,45.59776],[-105.479247,45.597761],[-105.474089,45.597759],[-105.468931,45.597757],[-105.468927,45.594137],[-105.468922,45.590517],[-105.468917,45.586897],[-105.468912,45.583277],[-105.474074,45.583277],[-105.479235,45.583276]]]}},{"type":"Feature","properties":{"sec":"01","frstdivid":"MT200030S0510E0SN010"},"geometry":{"type":"Polygon","coordinates":[[[-105.386276,45.597668],[-105.386278,45.601291],[-105.38628,45.604915],[-105.386282,45.608538],[-105.386284,45.612162],[-105.38112,45.612156],[-105.375956,45.61215],[-105.370792,45.612144],[-105.365628,45.612138],[-105.365623,45.608512],[-105.365618,45.604886],[-105.365613,45.601259],[-105.365607,45.597633],[-105.370775,45.597642],[-105.375942,45.59765],[-105.381109,45.597659],[-105.386276,45.597668]]]}},{"type":"Feature","properties":{"sec":"16","frstdivid":"MT200030S0510E0SN160"},"geometry":{"type":"Polygon","coordinates":[[[-105.448198,45.568764],[-105.448209,45.572386],[-105.44822,45.576008],[-105.448231,45.57963],[-105.448242,45.583252],[-105.443075,45.583245],[-105.437908,45.583237],[-105.432741,45.583229],[-105.427573,45.583221],[-105.427566,45.579598],[-105.427559,45.575976],[-105.427552,45.572354],[-105.427545,45.568731],[-105.432708,45.568739],[-105.437871,45.568748],[-105.443034,45.568756],[-105.448198,45.568764]]]}},{"type":"Feature","properties":{"sec":"10","frstdivid":"MT200030S0510E0SN100"},"geometry":{"type":"Polygon","coordinates":[[[-105.406919,45.59043],[-105.406915,45.586807],[-105.406912,45.583184],[-105.412077,45.583193],[-105.417243,45.583202],[-105.422408,45.583212],[-105.427573,45.583221],[-105.427578,45.586841],[-105.427582,45.590462],[-105.427587,45.594082],[-105.427591,45.597703],[-105.422424,45.597696],[-105.417258,45.597689],[-105.412092,45.597683],[-105.406925,45.597676],[-105.406922,45.594053],[-105.406919,45.59043]]]}},{"type":"Feature","properties":{"sec":"29","frstdivid":"MT200030S0510E0SN290"},"geometry":{"type":"Polygon","coordinates":[[[-105.453333,45.55429],[-105.448171,45.554285],[-105.448173,45.550664],[-105.448176,45.547042],[-105.448178,45.543421],[-105.44818,45.539799],[-105.453343,45.539808],[-105.458506,45.539817],[-105.463669,45.539826],[-105.468832,45.539835],[-105.468829,45.543452],[-105.468826,45.54707],[-105.468823,45.550688],[-105.46882,45.554305],[-105.463658,45.5543],[-105.458495,45.554295],[-105.453333,45.55429]]]}},{"type":"Feature","properties":{"sec":"06","frstdivid":"MT200030S0510E0SN060"},"geometry":{"type":"Polygon","coordinates":[[[-105.484404,45.59776],[-105.488798,45.597759],[-105.4888,45.601379],[-105.488802,45.605],[-105.488804,45.60862],[-105.488806,45.612241],[-105.484463,45.612239],[-105.479302,45.612236],[-105.474138,45.612233],[-105.468974,45.61223],[-105.468963,45.608612],[-105.468953,45.604994],[-105.468942,45.601375],[-105.468931,45.597757],[-105.474089,45.597759],[-105.479247,45.597761],[-105.484404,45.59776]]]}},{"type":"Feature","properties":{"sec":"17","frstdivid":"MT200030S0510E0SN170"},"geometry":{"type":"Polygon","coordinates":[[[-105.448242,45.583252],[-105.448231,45.57963],[-105.44822,45.576008],[-105.448209,45.572386],[-105.448198,45.568764],[-105.453362,45.56877],[-105.458527,45.568776],[-105.463691,45.568782],[-105.468856,45.568788],[-105.46887,45.57241],[-105.468884,45.576032],[-105.468898,45.579655],[-105.468912,45.583277],[-105.463745,45.583271],[-105.458577,45.583265],[-105.45341,45.583259],[-105.448242,45.583252]]]}},{"type":"Feature","properties":{"sec":"14","frstdivid":"MT200030S0510E0SN140"},"geometry":{"type":"Polygon","coordinates":[[[-105.401749,45.58318],[-105.396585,45.583177],[-105.391422,45.583173],[-105.386258,45.583169],[-105.386254,45.579546],[-105.386249,45.575923],[-105.386245,45.5723],[-105.386241,45.568677],[-105.391402,45.568682],[-105.396563,45.568686],[-105.401724,45.56869],[-105.406885,45.568695],[-105.406891,45.572317],[-105.406898,45.575939],[-105.406905,45.579562],[-105.406912,45.583184],[-105.401749,45.58318]]]}},{"type":"Feature","properties":{"sec":"27","frstdivid":"MT200030S0510E0SN270"},"geometry":{"type":"Polygon","coordinates":[[[-105.406865,45.554204],[-105.406858,45.550581],[-105.406851,45.546958],[-105.406844,45.543336],[-105.406837,45.539713],[-105.411996,45.539724],[-105.417155,45.539734],[-105.422314,45.539744],[-105.427473,45.539755],[-105.42748,45.543376],[-105.427488,45.546998],[-105.427495,45.55062],[-105.427502,45.554241],[-105.422343,45.554232],[-105.417184,45.554223],[-105.412024,45.554213],[-105.406865,45.554204]]]}},{"type":"Feature","properties":{"sec":"03","frstdivid":"MT200030S0510E0SN030"},"geometry":{"type":"Polygon","coordinates":[[[-105.427612,45.608571],[-105.427619,45.612194],[-105.422451,45.612188],[-105.417282,45.612183],[-105.412113,45.612178],[-105.406945,45.612173],[-105.40694,45.608549],[-105.406935,45.604924],[-105.40693,45.6013],[-105.406925,45.597676],[-105.412092,45.597683],[-105.417258,45.597689],[-105.422424,45.597696],[-105.427591,45.597703],[-105.427598,45.601326],[-105.427605,45.604948],[-105.427612,45.608571]]]}},{"type":"Feature","properties":{"sec":"05","frstdivid":"MT200030S0510E0SN050"},"geometry":{"type":"Polygon","coordinates":[[[-105.468931,45.597757],[-105.468942,45.601375],[-105.468953,45.604994],[-105.468963,45.608612],[-105.468974,45.61223],[-105.463805,45.612226],[-105.458636,45.612223],[-105.453467,45.612219],[-105.448298,45.612215],[-105.448292,45.608597],[-105.448286,45.604979],[-105.44828,45.601362],[-105.448274,45.597744],[-105.453439,45.597747],[-105.458603,45.597751],[-105.463767,45.597754],[-105.468931,45.597757]]]}},{"type":"Feature","properties":{"sec":"32","frstdivid":"MT200030S0510E0SN320"},"geometry":{"type":"Polygon","coordinates":[[[-105.468785,45.528984],[-105.468798,45.532602],[-105.468815,45.536218],[-105.468832,45.539835],[-105.463669,45.539826],[-105.458506,45.539817],[-105.453343,45.539808],[-105.44818,45.539799],[-105.448176,45.536178],[-105.448171,45.532556],[-105.448166,45.528936],[-105.448161,45.525315],[-105.448157,45.522559],[-105.452507,45.522548],[-105.453308,45.522546],[-105.457656,45.522534],[-105.458459,45.522532],[-105.462804,45.522521],[-105.463611,45.52252],[-105.467954,45.522515],[-105.468764,45.522514],[-105.468773,45.525367],[-105.468785,45.528984]]]}},{"type":"Feature","properties":{"sec":"13","frstdivid":"MT200030S0510E0SN130"},"geometry":{"type":"Polygon","coordinates":[[[-105.381096,45.583162],[-105.375934,45.583154],[-105.370772,45.583147],[-105.365609,45.58314],[-105.365601,45.579519],[-105.365593,45.575899],[-105.365585,45.572278],[-105.365576,45.568658],[-105.370742,45.568663],[-105.375908,45.568667],[-105.381074,45.568672],[-105.386241,45.568677],[-105.386245,45.5723],[-105.386249,45.575923],[-105.386254,45.579546],[-105.386258,45.583169],[-105.381096,45.583162]]]}},{"type":"Feature","properties":{"sec":"35","frstdivid":"MT200030S0510E0SN350"},"geometry":{"type":"Polygon","coordinates":[[[-105.406831,45.532473],[-105.406834,45.536093],[-105.406837,45.539713],[-105.401691,45.539712],[-105.396544,45.539711],[-105.391397,45.53971],[-105.38625,45.539709],[-105.386251,45.536091],[-105.386252,45.532472],[-105.386252,45.528853],[-105.386251,45.525234],[-105.386251,45.52277],[-105.390741,45.522749],[-105.391393,45.522746],[-105.395886,45.522725],[-105.396536,45.522722],[-105.401032,45.522701],[-105.401679,45.522697],[-105.40618,45.522669],[-105.406823,45.522666],[-105.406825,45.525234],[-105.406828,45.528853],[-105.406831,45.532473]]]}},{"type":"Feature","properties":{"sec":"25","frstdivid":"MT200030S0510E0SN250"},"geometry":{"type":"Polygon","coordinates":[[[-105.381069,45.539708],[-105.38625,45.539709],[-105.386245,45.543329],[-105.386241,45.54695],[-105.386236,45.55057],[-105.386232,45.554191],[-105.38106,45.55419],[-105.375888,45.554189],[-105.370716,45.554188],[-105.365543,45.554187],[-105.365539,45.550566],[-105.365534,45.546946],[-105.365529,45.543325],[-105.365525,45.539704],[-105.370706,45.539705],[-105.375887,45.539707],[-105.381069,45.539708]]]}}]}