{"type":"FeatureCollection","note":"BLM Public Land Survey System. Provided by the Bureau of Land Management as is. These data are neither legal documents nor land surveys and must not be used as such.","features":[{"type":"Feature","properties":{"sec":"20","frstdivid":"WY060490N0840W0SN200"},"geometry":{"type":"Polygon","coordinates":[[[-106.987325,44.208945],[-106.982279,44.208849],[-106.982245,44.205223],[-106.98221,44.201597],[-106.982176,44.197971],[-106.982142,44.194345],[-106.987165,44.194413],[-106.992188,44.194482],[-106.997212,44.19455],[-107.002235,44.194619],[-107.002292,44.198272],[-107.002349,44.201926],[-107.002407,44.205579],[-107.002464,44.209233],[-106.997418,44.209137],[-106.992372,44.209041],[-106.987325,44.208945]]]}},{"type":"Feature","properties":{"sec":"35","frstdivid":"WY060490N0840W0SN350"},"geometry":{"type":"Polygon","coordinates":[[[-106.930323,44.165075],[-106.932351,44.165058],[-106.935036,44.165128],[-106.93745,44.165191],[-106.939749,44.16525],[-106.942548,44.165323],[-106.942372,44.16894],[-106.942196,44.172557],[-106.94202,44.176174],[-106.941845,44.179791],[-106.936791,44.179753],[-106.931738,44.179714],[-106.926684,44.179676],[-106.92163,44.179637],[-106.921705,44.176012],[-106.92178,44.172387],[-106.921855,44.168762],[-106.921931,44.165138],[-106.925091,44.165114],[-106.927141,44.165099],[-106.930323,44.165075]]]}},{"type":"Feature","properties":{"sec":"29","frstdivid":"WY060490N0840W0SN290"},"geometry":{"type":"Polygon","coordinates":[[[-107.002287,44.190963],[-107.002235,44.194619],[-106.997212,44.19455],[-106.992188,44.194482],[-106.987165,44.194413],[-106.982142,44.194345],[-106.982178,44.190719],[-106.982215,44.187092],[-106.982252,44.183466],[-106.982289,44.179839],[-106.987327,44.179878],[-106.992365,44.179918],[-106.997403,44.179957],[-107.002442,44.179996],[-107.00239,44.183652],[-107.002338,44.187307],[-107.002287,44.190963]]]}},{"type":"Feature","properties":{"sec":"22","frstdivid":"WY060490N0840W0SN220"},"geometry":{"type":"Polygon","coordinates":[[[-106.956882,44.194271],[-106.961904,44.194271],[-106.961957,44.197892],[-106.96201,44.201513],[-106.962063,44.205133],[-106.962116,44.208754],[-106.957087,44.208754],[-106.952059,44.208753],[-106.947031,44.208753],[-106.942002,44.208753],[-106.941955,44.205133],[-106.941909,44.201512],[-106.941862,44.197892],[-106.941815,44.194272],[-106.946837,44.194272],[-106.95186,44.194272],[-106.956882,44.194271]]]}},{"type":"Feature","properties":{"sec":"23","frstdivid":"WY060490N0840W0SN230"},"geometry":{"type":"Polygon","coordinates":[[[-106.92169,44.194132],[-106.926721,44.194167],[-106.931753,44.194202],[-106.936784,44.194237],[-106.941815,44.194272],[-106.941862,44.197892],[-106.941909,44.201512],[-106.941955,44.205133],[-106.942002,44.208753],[-106.936956,44.208721],[-106.93191,44.208689],[-106.926864,44.208656],[-106.921817,44.208624],[-106.921786,44.205001],[-106.921754,44.201378],[-106.921722,44.197755],[-106.92169,44.194132]]]}},{"type":"Feature","properties":{"sec":"31","frstdivid":"WY060490N0840W0SN310"},"geometry":{"type":"Polygon","coordinates":[[[-107.002715,44.176345],[-107.002988,44.172693],[-107.003261,44.169042],[-107.003534,44.16539],[-107.006657,44.165402],[-107.00867,44.165411],[-107.011776,44.165423],[-107.013806,44.165431],[-107.015732,44.165437],[-107.018847,44.165447],[-107.020761,44.165453],[-107.023889,44.165463],[-107.023544,44.169146],[-107.023198,44.17283],[-107.022853,44.176513],[-107.022508,44.180196],[-107.017556,44.180156],[-107.012521,44.180116],[-107.007481,44.180056],[-107.002442,44.179996],[-107.002715,44.176345]]]}},{"type":"Feature","properties":{"sec":"33","frstdivid":"WY060490N0840W0SN330"},"geometry":{"type":"Polygon","coordinates":[[[-106.981075,44.16534],[-106.983091,44.165343],[-106.982891,44.168967],[-106.98269,44.172591],[-106.98249,44.176215],[-106.982289,44.179839],[-106.977214,44.179826],[-106.972138,44.179812],[-106.967063,44.179799],[-106.961988,44.179786],[-106.962194,44.176167],[-106.962399,44.172548],[-106.962605,44.168929],[-106.96281,44.165311],[-106.965467,44.165313],[-106.967863,44.165316],[-106.970896,44.165318],[-106.972915,44.165324],[-106.975985,44.16533],[-106.978003,44.165333],[-106.981075,44.16534]]]}},{"type":"Feature","properties":{"sec":"28","frstdivid":"WY060490N0840W0SN280"},"geometry":{"type":"Polygon","coordinates":[[[-106.982142,44.194345],[-106.977082,44.194327],[-106.972023,44.194308],[-106.966964,44.19429],[-106.961904,44.194271],[-106.961925,44.19065],[-106.961946,44.187029],[-106.961967,44.183407],[-106.961988,44.179786],[-106.967063,44.179799],[-106.972138,44.179812],[-106.977214,44.179826],[-106.982289,44.179839],[-106.982252,44.183466],[-106.982215,44.187092],[-106.982178,44.190719],[-106.982142,44.194345]]]}},{"type":"Feature","properties":{"sec":"27","frstdivid":"WY060490N0840W0SN270"},"geometry":{"type":"Polygon","coordinates":[[[-106.961946,44.187029],[-106.961925,44.19065],[-106.961904,44.194271],[-106.956882,44.194271],[-106.95186,44.194272],[-106.946837,44.194272],[-106.941815,44.194272],[-106.941822,44.190652],[-106.94183,44.187032],[-106.941837,44.183411],[-106.941845,44.179791],[-106.946881,44.17979],[-106.951916,44.179789],[-106.956952,44.179787],[-106.961988,44.179786],[-106.961967,44.183407],[-106.961946,44.187029]]]}},{"type":"Feature","properties":{"sec":"32","frstdivid":"WY060490N0840W0SN320"},"geometry":{"type":"Polygon","coordinates":[[[-107.001522,44.165386],[-107.003534,44.16539],[-107.003261,44.169042],[-107.002988,44.172693],[-107.002715,44.176345],[-107.002442,44.179996],[-106.997403,44.179957],[-106.992365,44.179918],[-106.987327,44.179878],[-106.982289,44.179839],[-106.98249,44.176215],[-106.98269,44.172591],[-106.982891,44.168967],[-106.983091,44.165343],[-106.986164,44.165352],[-106.988168,44.165358],[-106.991253,44.165367],[-106.993245,44.165371],[-106.996388,44.165377],[-106.998389,44.16538],[-107.001522,44.165386]]]}},{"type":"Feature","properties":{"sec":"34","frstdivid":"WY060490N0840W0SN340"},"geometry":{"type":"Polygon","coordinates":[[[-106.962194,44.176167],[-106.961988,44.179786],[-106.956952,44.179787],[-106.951916,44.179789],[-106.946881,44.17979],[-106.941845,44.179791],[-106.94202,44.176174],[-106.942196,44.172557],[-106.942372,44.16894],[-106.942548,44.165323],[-106.944462,44.165319],[-106.947606,44.165313],[-106.949178,44.16531],[-106.952665,44.165303],[-106.954607,44.165304],[-106.957738,44.165306],[-106.960037,44.165308],[-106.96281,44.165311],[-106.962605,44.168929],[-106.962399,44.172548],[-106.962194,44.176167]]]}},{"type":"Feature","properties":{"sec":"25","frstdivid":"WY060490N0840W0SN250"},"geometry":{"type":"Polygon","coordinates":[[[-106.921675,44.190508],[-106.92169,44.194132],[-106.91663,44.194167],[-106.911571,44.194203],[-106.906511,44.194238],[-106.901451,44.194273],[-106.901407,44.190651],[-106.901363,44.18703],[-106.901319,44.183408],[-106.901275,44.179786],[-106.906364,44.179749],[-106.911453,44.179711],[-106.916542,44.179674],[-106.92163,44.179637],[-106.921645,44.183261],[-106.92166,44.186884],[-106.921675,44.190508]]]}},{"type":"Feature","properties":{"sec":"30","frstdivid":"WY060490N0840W0SN300"},"geometry":{"type":"Polygon","coordinates":[[[-107.022508,44.180196],[-107.02247,44.183891],[-107.022431,44.187586],[-107.022393,44.191281],[-107.022355,44.194976],[-107.017339,44.194912],[-107.012305,44.194848],[-107.00727,44.194733],[-107.002235,44.194619],[-107.002287,44.190963],[-107.002338,44.187307],[-107.00239,44.183652],[-107.002442,44.179996],[-107.007481,44.180056],[-107.012521,44.180116],[-107.017556,44.180156],[-107.022508,44.180196]]]}},{"type":"Feature","properties":{"sec":"36","frstdivid":"WY060490N0840W0SN360"},"geometry":{"type":"Polygon","coordinates":[[[-106.914631,44.165267],[-106.916734,44.16523],[-106.919861,44.165174],[-106.921931,44.165138],[-106.921855,44.168762],[-106.92178,44.172387],[-106.921705,44.176012],[-106.92163,44.179637],[-106.916542,44.179674],[-106.911453,44.179711],[-106.906364,44.179749],[-106.901275,44.179786],[-106.901229,44.176166],[-106.901182,44.172546],[-106.901135,44.168926],[-106.901088,44.165306],[-106.904196,44.165312],[-106.906313,44.165315],[-106.9094,44.165321],[-106.911537,44.165322],[-106.914631,44.165267]]]}},{"type":"Feature","properties":{"sec":"19","frstdivid":"WY060490N0840W0SN190"},"geometry":{"type":"Polygon","coordinates":[[[-107.022466,44.202385],[-107.022521,44.206089],[-107.022577,44.209793],[-107.017554,44.209704],[-107.012521,44.209614],[-107.007493,44.209424],[-107.002464,44.209233],[-107.002407,44.205579],[-107.002349,44.201926],[-107.002292,44.198272],[-107.002235,44.194619],[-107.00727,44.194733],[-107.012305,44.194848],[-107.017339,44.194912],[-107.022355,44.194976],[-107.02241,44.19868],[-107.022466,44.202385]]]}},{"type":"Feature","properties":{"sec":"21","frstdivid":"WY060490N0840W0SN210"},"geometry":{"type":"Polygon","coordinates":[[[-106.982176,44.197971],[-106.98221,44.201597],[-106.982245,44.205223],[-106.982279,44.208849],[-106.977238,44.208825],[-106.972197,44.208801],[-106.967157,44.208778],[-106.962116,44.208754],[-106.962063,44.205133],[-106.96201,44.201513],[-106.961957,44.197892],[-106.961904,44.194271],[-106.966964,44.19429],[-106.972023,44.194308],[-106.977082,44.194327],[-106.982142,44.194345],[-106.982176,44.197971]]]}},{"type":"Feature","properties":{"sec":"24","frstdivid":"WY060490N0840W0SN240"},"geometry":{"type":"Polygon","coordinates":[[[-106.921754,44.201378],[-106.921786,44.205001],[-106.921817,44.208624],[-106.916768,44.208659],[-106.911719,44.208693],[-106.90667,44.208727],[-106.901621,44.208761],[-106.901578,44.205139],[-106.901536,44.201517],[-106.901493,44.197895],[-106.901451,44.194273],[-106.906511,44.194238],[-106.911571,44.194203],[-106.91663,44.194167],[-106.92169,44.194132],[-106.921722,44.197755],[-106.921754,44.201378]]]}},{"type":"Feature","properties":{"sec":"26","frstdivid":"WY060490N0840W0SN260"},"geometry":{"type":"Polygon","coordinates":[[[-106.92163,44.179637],[-106.926684,44.179676],[-106.931738,44.179714],[-106.936791,44.179753],[-106.941845,44.179791],[-106.941837,44.183411],[-106.94183,44.187032],[-106.941822,44.190652],[-106.941815,44.194272],[-106.936784,44.194237],[-106.931753,44.194202],[-106.926721,44.194167],[-106.92169,44.194132],[-106.921675,44.190508],[-106.92166,44.186884],[-106.921645,44.183261],[-106.92163,44.179637]]]}},{"type":"Feature","properties":{"sec":"04","frstdivid":"WY060490N0840W0SN040"},"geometry":{"type":"Polygon","coordinates":[[[-106.967472,44.237748],[-106.972493,44.23778],[-106.977513,44.237811],[-106.982534,44.237843],[-106.982581,44.241464],[-106.982629,44.245085],[-106.982651,44.248705],[-106.982673,44.2523],[-106.97762,44.252286],[-106.972568,44.252272],[-106.967515,44.252258],[-106.962462,44.252244],[-106.962468,44.248577],[-106.962473,44.244957],[-106.962462,44.241337],[-106.962452,44.237717],[-106.967472,44.237748]]]}},{"type":"Feature","properties":{"sec":"14","frstdivid":"WY060490N0840W0SN140"},"geometry":{"type":"Polygon","coordinates":[[[-106.936956,44.208721],[-106.942002,44.208753],[-106.942034,44.212373],[-106.942066,44.215994],[-106.942098,44.219614],[-106.94213,44.223235],[-106.937071,44.223205],[-106.932013,44.223175],[-106.926955,44.223144],[-106.921897,44.223114],[-106.921877,44.219492],[-106.921857,44.215869],[-106.921837,44.212247],[-106.921817,44.208624],[-106.926864,44.208656],[-106.93191,44.208689],[-106.936956,44.208721]]]}},{"type":"Feature","properties":{"sec":"17","frstdivid":"WY060490N0840W0SN170"},"geometry":{"type":"Polygon","coordinates":[[[-106.982353,44.216099],[-106.982316,44.212474],[-106.982279,44.208849],[-106.987325,44.208945],[-106.992372,44.209041],[-106.997418,44.209137],[-107.002464,44.209233],[-107.002505,44.212882],[-107.002545,44.216532],[-107.002586,44.220181],[-107.002627,44.223831],[-106.997577,44.22371],[-106.992527,44.22359],[-106.987477,44.223469],[-106.982427,44.223349],[-106.98239,44.219724],[-106.982353,44.216099]]]}},{"type":"Feature","properties":{"sec":"10","frstdivid":"WY060490N0840W0SN100"},"geometry":{"type":"Polygon","coordinates":[[[-106.962313,44.223235],[-106.962348,44.226855],[-106.962383,44.230476],[-106.962417,44.234096],[-106.962452,44.237717],[-106.957391,44.237717],[-106.952331,44.237717],[-106.947271,44.237717],[-106.942211,44.237718],[-106.94219,44.234097],[-106.94217,44.230476],[-106.94215,44.226855],[-106.94213,44.223235],[-106.947175,44.223235],[-106.952221,44.223235],[-106.957267,44.223235],[-106.962313,44.223235]]]}},{"type":"Feature","properties":{"sec":"16","frstdivid":"WY060490N0840W0SN160"},"geometry":{"type":"Polygon","coordinates":[[[-106.982316,44.212474],[-106.982353,44.216099],[-106.98239,44.219724],[-106.982427,44.223349],[-106.977399,44.223321],[-106.97237,44.223292],[-106.967342,44.223264],[-106.962313,44.223235],[-106.962264,44.219615],[-106.962215,44.215994],[-106.962165,44.212374],[-106.962116,44.208754],[-106.967157,44.208778],[-106.972197,44.208801],[-106.977238,44.208825],[-106.982279,44.208849],[-106.982316,44.212474]]]}},{"type":"Feature","properties":{"sec":"15","frstdivid":"WY060490N0840W0SN150"},"geometry":{"type":"Polygon","coordinates":[[[-106.962313,44.223235],[-106.957267,44.223235],[-106.952221,44.223235],[-106.947175,44.223235],[-106.94213,44.223235],[-106.942098,44.219614],[-106.942066,44.215994],[-106.942034,44.212373],[-106.942002,44.208753],[-106.947031,44.208753],[-106.952059,44.208753],[-106.957087,44.208754],[-106.962116,44.208754],[-106.962165,44.212374],[-106.962215,44.215994],[-106.962264,44.219615],[-106.962313,44.223235]]]}},{"type":"Feature","properties":{"sec":"06","frstdivid":"WY060490N0840W0SN060"},"geometry":{"type":"Polygon","coordinates":[[[-107.023224,44.254404],[-107.017964,44.254127],[-107.012929,44.253873],[-107.007918,44.253364],[-107.002907,44.252855],[-107.002881,44.249279],[-107.002853,44.245656],[-107.002794,44.24203],[-107.002734,44.238404],[-107.007739,44.238823],[-107.012744,44.239242],[-107.017772,44.239448],[-107.022936,44.239666],[-107.023027,44.243372],[-107.023118,44.247078],[-107.023171,44.250741],[-107.023224,44.254404]]]}},{"type":"Feature","properties":{"sec":"02","frstdivid":"WY060490N0840W0SN020"},"geometry":{"type":"Polygon","coordinates":[[[-106.942263,44.248578],[-106.942279,44.25214],[-106.937237,44.252134],[-106.932194,44.252128],[-106.927152,44.252122],[-106.922109,44.252116],[-106.922085,44.248461],[-106.92206,44.244841],[-106.922035,44.241221],[-106.922009,44.2376],[-106.92706,44.23763],[-106.93211,44.237659],[-106.93716,44.237688],[-106.942211,44.237718],[-106.942228,44.241338],[-106.942246,44.244958],[-106.942263,44.248578]]]}},{"type":"Feature","properties":{"sec":"12","frstdivid":"WY060490N0840W0SN120"},"geometry":{"type":"Polygon","coordinates":[[[-106.921925,44.226736],[-106.921953,44.230357],[-106.921981,44.233979],[-106.922009,44.2376],[-106.916986,44.237635],[-106.911962,44.23767],[-106.906939,44.237705],[-106.901916,44.237741],[-106.901883,44.234118],[-106.90185,44.230496],[-106.901817,44.226873],[-106.901784,44.223251],[-106.906812,44.223217],[-106.91184,44.223183],[-106.916868,44.223148],[-106.921897,44.223114],[-106.921925,44.226736]]]}},{"type":"Feature","properties":{"sec":"13","frstdivid":"WY060490N0840W0SN130"},"geometry":{"type":"Polygon","coordinates":[[[-106.916768,44.208659],[-106.921817,44.208624],[-106.921837,44.212247],[-106.921857,44.215869],[-106.921877,44.219492],[-106.921897,44.223114],[-106.916868,44.223148],[-106.91184,44.223183],[-106.906812,44.223217],[-106.901784,44.223251],[-106.901743,44.219628],[-106.901702,44.216006],[-106.901662,44.212384],[-106.901621,44.208761],[-106.90667,44.208727],[-106.911719,44.208693],[-106.916768,44.208659]]]}},{"type":"Feature","properties":{"sec":"08","frstdivid":"WY060490N0840W0SN080"},"geometry":{"type":"Polygon","coordinates":[[[-107.002734,44.238404],[-106.997684,44.238263],[-106.992634,44.238123],[-106.987584,44.237983],[-106.982534,44.237843],[-106.982507,44.23422],[-106.98248,44.230596],[-106.982454,44.226973],[-106.982427,44.223349],[-106.987477,44.223469],[-106.992527,44.22359],[-106.997577,44.22371],[-107.002627,44.223831],[-107.002654,44.227474],[-107.00268,44.231117],[-107.002707,44.23476],[-107.002734,44.238404]]]}},{"type":"Feature","properties":{"sec":"01","frstdivid":"WY060490N0840W0SN010"},"geometry":{"type":"Polygon","coordinates":[[[-106.901941,44.244983],[-106.901928,44.241362],[-106.901916,44.237741],[-106.906939,44.237705],[-106.911962,44.23767],[-106.916986,44.237635],[-106.922009,44.2376],[-106.922035,44.241221],[-106.92206,44.244841],[-106.922085,44.248461],[-106.922109,44.252116],[-106.91707,44.252142],[-106.912031,44.252169],[-106.906992,44.252196],[-106.901953,44.252223],[-106.901947,44.248603],[-106.901941,44.244983]]]}},{"type":"Feature","properties":{"sec":"05","frstdivid":"WY060490N0840W0SN050"},"geometry":{"type":"Polygon","coordinates":[[[-107.002794,44.24203],[-107.002853,44.245656],[-107.002881,44.249279],[-107.002907,44.252855],[-106.997849,44.252716],[-106.99279,44.252578],[-106.987732,44.252439],[-106.982673,44.2523],[-106.982651,44.248705],[-106.982629,44.245085],[-106.982581,44.241464],[-106.982534,44.237843],[-106.987584,44.237983],[-106.992634,44.238123],[-106.997684,44.238263],[-107.002734,44.238404],[-107.002794,44.24203]]]}},{"type":"Feature","properties":{"sec":"09","frstdivid":"WY060490N0840W0SN090"},"geometry":{"type":"Polygon","coordinates":[[[-106.98248,44.230596],[-106.982507,44.23422],[-106.982534,44.237843],[-106.977513,44.237811],[-106.972493,44.23778],[-106.967472,44.237748],[-106.962452,44.237717],[-106.962417,44.234096],[-106.962383,44.230476],[-106.962348,44.226855],[-106.962313,44.223235],[-106.967342,44.223264],[-106.97237,44.223292],[-106.977399,44.223321],[-106.982427,44.223349],[-106.982454,44.226973],[-106.98248,44.230596]]]}},{"type":"Feature","properties":{"sec":"07","frstdivid":"WY060490N0840W0SN070"},"geometry":{"type":"Polygon","coordinates":[[[-107.012667,44.224397],[-107.017698,44.224535],[-107.022817,44.224677],[-107.022847,44.228424],[-107.022877,44.232171],[-107.022906,44.235919],[-107.022936,44.239666],[-107.017772,44.239448],[-107.012744,44.239242],[-107.007739,44.238823],[-107.002734,44.238404],[-107.002707,44.23476],[-107.00268,44.231117],[-107.002654,44.227474],[-107.002627,44.223831],[-107.007647,44.224114],[-107.012667,44.224397]]]}},{"type":"Feature","properties":{"sec":"18","frstdivid":"WY060490N0840W0SN180"},"geometry":{"type":"Polygon","coordinates":[[[-107.022817,44.224677],[-107.017698,44.224535],[-107.012667,44.224397],[-107.007647,44.224114],[-107.002627,44.223831],[-107.002586,44.220181],[-107.002545,44.216532],[-107.002505,44.212882],[-107.002464,44.209233],[-107.007493,44.209424],[-107.012521,44.209614],[-107.017554,44.209704],[-107.022577,44.209793],[-107.022637,44.213514],[-107.022697,44.217235],[-107.022757,44.220956],[-107.022817,44.224677]]]}},{"type":"Feature","properties":{"sec":"03","frstdivid":"WY060490N0840W0SN030"},"geometry":{"type":"Polygon","coordinates":[[[-106.947271,44.237717],[-106.952331,44.237717],[-106.957391,44.237717],[-106.962452,44.237717],[-106.962462,44.241337],[-106.962473,44.244957],[-106.962468,44.248577],[-106.962462,44.252244],[-106.957417,44.252218],[-106.952371,44.252192],[-106.947325,44.252166],[-106.942279,44.25214],[-106.942263,44.248578],[-106.942246,44.244958],[-106.942228,44.241338],[-106.942211,44.237718],[-106.947271,44.237717]]]}},{"type":"Feature","properties":{"sec":"11","frstdivid":"WY060490N0840W0SN110"},"geometry":{"type":"Polygon","coordinates":[[[-106.94215,44.226855],[-106.94217,44.230476],[-106.94219,44.234097],[-106.942211,44.237718],[-106.93716,44.237688],[-106.93211,44.237659],[-106.92706,44.23763],[-106.922009,44.2376],[-106.921981,44.233979],[-106.921953,44.230357],[-106.921925,44.226736],[-106.921897,44.223114],[-106.926955,44.223144],[-106.932013,44.223175],[-106.937071,44.223205],[-106.94213,44.223235],[-106.94215,44.226855]]]}}]}