{"type":"FeatureCollection","note":"BLM Public Land Survey System. Provided by the Bureau of Land Management as is. These data are neither legal documents nor land surveys and must not be used as such.","features":[{"type":"Feature","properties":{"sec":"30","frstdivid":"MT200080N0510E0SN300"},"geometry":{"type":"Polygon","coordinates":[[[-105.402712,46.417888],[-105.402726,46.419971],[-105.402732,46.421509],[-105.402746,46.423562],[-105.402756,46.42513],[-105.402769,46.427152],[-105.402777,46.428751],[-105.400134,46.42875],[-105.394694,46.428748],[-105.389474,46.428744],[-105.384255,46.42874],[-105.384267,46.425115],[-105.384279,46.421489],[-105.384291,46.417863],[-105.384303,46.414237],[-105.389577,46.41425],[-105.394851,46.414262],[-105.399048,46.414266],[-105.400098,46.414266],[-105.402689,46.414268],[-105.402702,46.41638],[-105.402712,46.417888]]]}},{"type":"Feature","properties":{"sec":"13","frstdivid":"MT200080N0510E0SN130"},"geometry":{"type":"Polygon","coordinates":[[[-105.299762,46.443234],[-105.299786,46.446859],[-105.299811,46.450483],[-105.299835,46.454108],[-105.299859,46.457733],[-105.294528,46.457671],[-105.289196,46.45761],[-105.283877,46.457531],[-105.278558,46.457452],[-105.278571,46.453849],[-105.278584,46.450247],[-105.278597,46.446639],[-105.27861,46.443031],[-105.283898,46.443082],[-105.289186,46.443133],[-105.294474,46.443183],[-105.299762,46.443234]]]}},{"type":"Feature","properties":{"sec":"01","frstdivid":"MT200080N0510E0SN010"},"geometry":{"type":"Polygon","coordinates":[[[-105.294648,46.483348],[-105.292251,46.483341],[-105.289306,46.483336],[-105.287001,46.483333],[-105.283965,46.483328],[-105.281751,46.483324],[-105.278623,46.483312],[-105.278613,46.479248],[-105.2786,46.475614],[-105.278587,46.47198],[-105.283923,46.472033],[-105.289259,46.472086],[-105.294577,46.472149],[-105.299895,46.472213],[-105.299953,46.475819],[-105.300012,46.479426],[-105.29999,46.483362],[-105.297509,46.483355],[-105.294648,46.483348]]]}},{"type":"Feature","properties":{"sec":"22","frstdivid":"MT200080N0510E0SN220"},"geometry":{"type":"Polygon","coordinates":[[[-105.331477,46.428561],[-105.336831,46.428556],[-105.342186,46.428551],[-105.342188,46.432173],[-105.342189,46.435795],[-105.342191,46.439417],[-105.342192,46.443039],[-105.336884,46.443043],[-105.331576,46.443046],[-105.326216,46.443087],[-105.320856,46.443129],[-105.320937,46.439459],[-105.321017,46.435789],[-105.320892,46.43218],[-105.320768,46.428571],[-105.326122,46.428566],[-105.331477,46.428561]]]}},{"type":"Feature","properties":{"sec":"32","frstdivid":"MT200080N0510E0SN320"},"geometry":{"type":"Polygon","coordinates":[[[-105.363376,46.406784],[-105.363331,46.403223],[-105.363286,46.399663],[-105.368547,46.399707],[-105.373808,46.399752],[-105.37903,46.399709],[-105.384252,46.399667],[-105.384265,46.40331],[-105.384277,46.406952],[-105.38429,46.410595],[-105.384303,46.414237],[-105.379038,46.414236],[-105.373773,46.414235],[-105.368524,46.414234],[-105.363438,46.414234],[-105.363437,46.414067],[-105.363407,46.410509],[-105.363407,46.410425],[-105.363376,46.406784]]]}},{"type":"Feature","properties":{"sec":"26","frstdivid":"MT200080N0510E0SN260"},"geometry":{"type":"Polygon","coordinates":[[[-105.310212,46.42865],[-105.307561,46.42867],[-105.304933,46.42869],[-105.299654,46.42873],[-105.299678,46.425091],[-105.299702,46.421452],[-105.299725,46.417813],[-105.299749,46.414175],[-105.305013,46.414146],[-105.305374,46.414144],[-105.307705,46.414132],[-105.310277,46.414117],[-105.315542,46.41409],[-105.320806,46.414063],[-105.320761,46.417699],[-105.320715,46.421334],[-105.320741,46.424953],[-105.320768,46.428571],[-105.31549,46.428611],[-105.310212,46.42865]]]}},{"type":"Feature","properties":{"sec":"14","frstdivid":"MT200080N0510E0SN140"},"geometry":{"type":"Polygon","coordinates":[[[-105.315734,46.457692],[-105.315312,46.45769],[-105.310413,46.45766],[-105.305136,46.457696],[-105.299859,46.457733],[-105.299835,46.454108],[-105.299811,46.450483],[-105.299786,46.446859],[-105.299762,46.443234],[-105.305061,46.443197],[-105.31036,46.443161],[-105.313161,46.443153],[-105.315608,46.443145],[-105.317009,46.443141],[-105.320856,46.443129],[-105.320873,46.44679],[-105.32089,46.450452],[-105.320973,46.454088],[-105.321056,46.457725],[-105.317491,46.457703],[-105.315734,46.457692]]]}},{"type":"Feature","properties":{"sec":"31","frstdivid":"MT200080N0510E0SN310"},"geometry":{"type":"Polygon","coordinates":[[[-105.402634,46.398315],[-105.402649,46.401934],[-105.402664,46.405552],[-105.402675,46.409171],[-105.40268,46.410624],[-105.402683,46.412789],[-105.402689,46.414268],[-105.400098,46.414266],[-105.399048,46.414266],[-105.394851,46.414262],[-105.389577,46.41425],[-105.384303,46.414237],[-105.38429,46.410595],[-105.384277,46.406952],[-105.384265,46.40331],[-105.384252,46.399667],[-105.389519,46.399622],[-105.394786,46.399576],[-105.398973,46.398904],[-105.400022,46.398735],[-105.402634,46.398315]]]}},{"type":"Feature","properties":{"sec":"27","frstdivid":"MT200080N0510E0SN270"},"geometry":{"type":"Polygon","coordinates":[[[-105.320768,46.428571],[-105.320741,46.424953],[-105.320715,46.421334],[-105.320761,46.417699],[-105.320806,46.414063],[-105.326081,46.414077],[-105.331356,46.414091],[-105.336778,46.414096],[-105.342201,46.414101],[-105.342197,46.417713],[-105.342193,46.421326],[-105.34219,46.424938],[-105.342186,46.428551],[-105.336831,46.428556],[-105.331477,46.428561],[-105.326122,46.428566],[-105.320768,46.428571]]]}},{"type":"Feature","properties":{"sec":"21","frstdivid":"MT200080N0510E0SN210"},"geometry":{"type":"Polygon","coordinates":[[[-105.342192,46.443039],[-105.342191,46.439417],[-105.342189,46.435795],[-105.342188,46.432173],[-105.342186,46.428551],[-105.347584,46.428656],[-105.352982,46.428761],[-105.3583,46.428738],[-105.363617,46.428714],[-105.363554,46.432359],[-105.363491,46.436003],[-105.363431,46.439433],[-105.363428,46.439624],[-105.363371,46.442863],[-105.358064,46.44288],[-105.352757,46.442896],[-105.347475,46.442968],[-105.342192,46.443039]]]}},{"type":"Feature","properties":{"sec":"04","frstdivid":"MT200080N0510E0SN040"},"geometry":{"type":"Polygon","coordinates":[[[-105.363783,46.483536],[-105.3606,46.483539],[-105.358416,46.483542],[-105.355341,46.483545],[-105.353048,46.48353],[-105.350051,46.483513],[-105.347681,46.483499],[-105.344762,46.483482],[-105.342314,46.483473],[-105.342338,46.479434],[-105.342333,46.475775],[-105.342328,46.472116],[-105.347637,46.472098],[-105.352945,46.47208],[-105.358253,46.472061],[-105.363562,46.472043],[-105.363633,46.475684],[-105.363705,46.479326],[-105.363783,46.483536]]]}},{"type":"Feature","properties":{"sec":"12","frstdivid":"MT200080N0510E0SN120"},"geometry":{"type":"Polygon","coordinates":[[[-105.299859,46.457733],[-105.29984,46.46136],[-105.299821,46.464987],[-105.299858,46.4686],[-105.299895,46.472213],[-105.294577,46.472149],[-105.289259,46.472086],[-105.283923,46.472033],[-105.278587,46.47198],[-105.278584,46.468361],[-105.278582,46.464742],[-105.27857,46.461097],[-105.278558,46.457452],[-105.283877,46.457531],[-105.289196,46.45761],[-105.294528,46.457671],[-105.299859,46.457733]]]}},{"type":"Feature","properties":{"sec":"28","frstdivid":"MT200080N0510E0SN280"},"geometry":{"type":"Polygon","coordinates":[[[-105.358122,46.414111],[-105.363437,46.414067],[-105.363438,46.414234],[-105.363438,46.417728],[-105.363438,46.417812],[-105.363438,46.42139],[-105.363528,46.425052],[-105.363617,46.428714],[-105.3583,46.428738],[-105.352982,46.428761],[-105.347584,46.428656],[-105.342186,46.428551],[-105.34219,46.424938],[-105.342193,46.421326],[-105.342197,46.417713],[-105.342201,46.414101],[-105.347503,46.414128],[-105.352806,46.414154],[-105.358122,46.414111]]]}},{"type":"Feature","properties":{"sec":"02","frstdivid":"MT200080N0510E0SN020"},"geometry":{"type":"Polygon","coordinates":[[[-105.315814,46.472233],[-105.321119,46.472241],[-105.321141,46.475867],[-105.321163,46.479493],[-105.321186,46.483413],[-105.318485,46.483407],[-105.315887,46.483401],[-105.314349,46.483398],[-105.314007,46.483397],[-105.313246,46.483394],[-105.312428,46.483392],[-105.310875,46.483388],[-105.310588,46.483387],[-105.308006,46.483381],[-105.305289,46.483374],[-105.302767,46.483369],[-105.29999,46.483362],[-105.300012,46.479426],[-105.299953,46.475819],[-105.299895,46.472213],[-105.305202,46.472219],[-105.3103,46.472225],[-105.310509,46.472226],[-105.315432,46.472233],[-105.315814,46.472233]]]}},{"type":"Feature","properties":{"sec":"25","frstdivid":"MT200080N0510E0SN250"},"geometry":{"type":"Polygon","coordinates":[[[-105.294467,46.414172],[-105.299749,46.414175],[-105.299725,46.417813],[-105.299702,46.421452],[-105.299678,46.425091],[-105.299654,46.42873],[-105.294404,46.428659],[-105.289153,46.428588],[-105.283903,46.428516],[-105.278653,46.428445],[-105.278725,46.424858],[-105.278797,46.42127],[-105.27874,46.417691],[-105.278684,46.414112],[-105.283934,46.414141],[-105.289185,46.414169],[-105.294467,46.414172]]]}},{"type":"Feature","properties":{"sec":"08","frstdivid":"MT200080N0510E0SN080"},"geometry":{"type":"Polygon","coordinates":[[[-105.384544,46.461083],[-105.384642,46.464701],[-105.384652,46.468309],[-105.384662,46.471916],[-105.379387,46.471948],[-105.374112,46.47198],[-105.368837,46.472011],[-105.363562,46.472043],[-105.363602,46.468357],[-105.363643,46.464671],[-105.363545,46.46104],[-105.363446,46.457409],[-105.368677,46.457436],[-105.373908,46.457463],[-105.379177,46.457464],[-105.384446,46.457465],[-105.384544,46.461083]]]}},{"type":"Feature","properties":{"sec":"20","frstdivid":"MT200080N0510E0SN200"},"geometry":{"type":"Polygon","coordinates":[[[-105.363554,46.432359],[-105.363617,46.428714],[-105.368602,46.428724],[-105.373899,46.428734],[-105.379077,46.428737],[-105.384255,46.42874],[-105.384271,46.43236],[-105.384288,46.43598],[-105.384304,46.439599],[-105.384321,46.443219],[-105.379041,46.443228],[-105.373762,46.443237],[-105.368504,46.443241],[-105.363373,46.443245],[-105.363371,46.442863],[-105.363428,46.439624],[-105.363431,46.439433],[-105.363491,46.436003],[-105.363554,46.432359]]]}},{"type":"Feature","properties":{"sec":"10","frstdivid":"MT200080N0510E0SN100"},"geometry":{"type":"Polygon","coordinates":[[[-105.321119,46.472241],[-105.321103,46.468612],[-105.321087,46.464983],[-105.321071,46.461354],[-105.321056,46.457725],[-105.326367,46.457664],[-105.331679,46.457603],[-105.336989,46.457542],[-105.3423,46.457481],[-105.342361,46.461139],[-105.342423,46.464797],[-105.342376,46.468456],[-105.342328,46.472116],[-105.337026,46.472147],[-105.331723,46.472179],[-105.326421,46.47221],[-105.321119,46.472241]]]}},{"type":"Feature","properties":{"sec":"23","frstdivid":"MT200080N0510E0SN230"},"geometry":{"type":"Polygon","coordinates":[[[-105.320856,46.443129],[-105.317009,46.443141],[-105.315608,46.443145],[-105.313161,46.443153],[-105.31036,46.443161],[-105.305061,46.443197],[-105.299762,46.443234],[-105.299743,46.439607],[-105.299723,46.435979],[-105.299689,46.432355],[-105.299654,46.42873],[-105.304933,46.42869],[-105.307561,46.42867],[-105.310212,46.42865],[-105.31549,46.428611],[-105.320768,46.428571],[-105.320892,46.43218],[-105.321017,46.435789],[-105.320937,46.439459],[-105.320856,46.443129]]]}},{"type":"Feature","properties":{"sec":"17","frstdivid":"MT200080N0510E0SN170"},"geometry":{"type":"Polygon","coordinates":[[[-105.379041,46.443228],[-105.384321,46.443219],[-105.384357,46.446826],[-105.384393,46.450434],[-105.384421,46.454047],[-105.384446,46.457465],[-105.379177,46.457464],[-105.373908,46.457463],[-105.368677,46.457436],[-105.363446,46.457409],[-105.363424,46.453763],[-105.363402,46.450117],[-105.363387,46.446544],[-105.363387,46.44649],[-105.363373,46.443245],[-105.368504,46.443241],[-105.373762,46.443237],[-105.379041,46.443228]]]}},{"type":"Feature","properties":{"sec":"15","frstdivid":"MT200080N0510E0SN150"},"geometry":{"type":"Polygon","coordinates":[[[-105.321056,46.457725],[-105.320973,46.454088],[-105.32089,46.450452],[-105.320873,46.44679],[-105.320856,46.443129],[-105.326216,46.443087],[-105.331576,46.443046],[-105.336884,46.443043],[-105.342192,46.443039],[-105.342219,46.44665],[-105.342246,46.45026],[-105.342273,46.453871],[-105.3423,46.457481],[-105.336989,46.457542],[-105.331679,46.457603],[-105.326367,46.457664],[-105.321056,46.457725]]]}},{"type":"Feature","properties":{"sec":"05","frstdivid":"MT200080N0510E0SN050"},"geometry":{"type":"Polygon","coordinates":[[[-105.381643,46.483551],[-105.379481,46.483551],[-105.376394,46.48355],[-105.374249,46.483545],[-105.371126,46.483541],[-105.369016,46.483539],[-105.365859,46.483535],[-105.363783,46.483536],[-105.363705,46.479326],[-105.363633,46.475684],[-105.363562,46.472043],[-105.368837,46.472011],[-105.374112,46.47198],[-105.379387,46.471948],[-105.384662,46.471916],[-105.38468,46.475529],[-105.384697,46.479141],[-105.384714,46.483552],[-105.381643,46.483551]]]}},{"type":"Feature","properties":{"sec":"19","frstdivid":"MT200080N0510E0SN190"},"geometry":{"type":"Polygon","coordinates":[[[-105.384288,46.43598],[-105.384271,46.43236],[-105.384255,46.42874],[-105.389474,46.428744],[-105.394694,46.428748],[-105.400134,46.42875],[-105.402777,46.428751],[-105.402786,46.430747],[-105.402792,46.432372],[-105.4028,46.434341],[-105.402806,46.435994],[-105.402814,46.437935],[-105.402821,46.439616],[-105.402829,46.44153],[-105.402831,46.443238],[-105.402517,46.443238],[-105.400112,46.443237],[-105.39486,46.443233],[-105.38959,46.443226],[-105.384321,46.443219],[-105.384304,46.439599],[-105.384288,46.43598]]]}},{"type":"Feature","properties":{"sec":"07","frstdivid":"MT200080N0510E0SN070"},"geometry":{"type":"Polygon","coordinates":[[[-105.402555,46.457429],[-105.402843,46.457429],[-105.402846,46.458971],[-105.402849,46.461056],[-105.402852,46.462444],[-105.402771,46.464682],[-105.402725,46.465994],[-105.402644,46.468309],[-105.4026,46.469543],[-105.4026,46.471935],[-105.402563,46.471935],[-105.400208,46.471934],[-105.395005,46.471931],[-105.389833,46.471924],[-105.384662,46.471916],[-105.384652,46.468309],[-105.384642,46.464701],[-105.384544,46.461083],[-105.384446,46.457465],[-105.389721,46.457451],[-105.394996,46.457437],[-105.400252,46.457431],[-105.402555,46.457429]]]}},{"type":"Feature","properties":{"sec":"18","frstdivid":"MT200080N0510E0SN180"},"geometry":{"type":"Polygon","coordinates":[[[-105.402839,46.448555],[-105.40284,46.450401],[-105.402841,46.452027],[-105.402842,46.453982],[-105.402843,46.455498],[-105.402843,46.457429],[-105.402555,46.457429],[-105.400252,46.457431],[-105.394996,46.457437],[-105.389721,46.457451],[-105.384446,46.457465],[-105.384421,46.454047],[-105.384393,46.450434],[-105.384357,46.446826],[-105.384321,46.443219],[-105.38959,46.443226],[-105.39486,46.443233],[-105.400112,46.443237],[-105.402517,46.443238],[-105.402831,46.443238],[-105.402833,46.445043],[-105.402836,46.446819],[-105.402839,46.448555]]]}},{"type":"Feature","properties":{"sec":"03","frstdivid":"MT200080N0510E0SN030"},"geometry":{"type":"Polygon","coordinates":[[[-105.337026,46.472147],[-105.342328,46.472116],[-105.342333,46.475775],[-105.342338,46.479434],[-105.342314,46.483473],[-105.339502,46.483463],[-105.337032,46.483455],[-105.334242,46.483446],[-105.33175,46.483439],[-105.328983,46.483432],[-105.326468,46.483427],[-105.323725,46.48342],[-105.321186,46.483413],[-105.321163,46.479493],[-105.321141,46.475867],[-105.321119,46.472241],[-105.326421,46.47221],[-105.331723,46.472179],[-105.337026,46.472147]]]}},{"type":"Feature","properties":{"sec":"09","frstdivid":"MT200080N0510E0SN090"},"geometry":{"type":"Polygon","coordinates":[[[-105.342376,46.468456],[-105.342423,46.464797],[-105.342361,46.461139],[-105.3423,46.457481],[-105.347586,46.457463],[-105.352872,46.457445],[-105.358159,46.457427],[-105.363446,46.457409],[-105.363545,46.46104],[-105.363643,46.464671],[-105.363602,46.468357],[-105.363562,46.472043],[-105.358253,46.472061],[-105.352945,46.47208],[-105.347637,46.472098],[-105.342328,46.472116],[-105.342376,46.468456]]]}},{"type":"Feature","properties":{"sec":"11","frstdivid":"MT200080N0510E0SN110"},"geometry":{"type":"Polygon","coordinates":[[[-105.321071,46.461354],[-105.321087,46.464983],[-105.321103,46.468612],[-105.321119,46.472241],[-105.315814,46.472233],[-105.315432,46.472233],[-105.310509,46.472226],[-105.3103,46.472225],[-105.305202,46.472219],[-105.299895,46.472213],[-105.299858,46.4686],[-105.299821,46.464987],[-105.29984,46.46136],[-105.299859,46.457733],[-105.305136,46.457696],[-105.310413,46.45766],[-105.315312,46.45769],[-105.315734,46.457692],[-105.317491,46.457703],[-105.321056,46.457725],[-105.321071,46.461354]]]}},{"type":"Feature","properties":{"sec":"29","frstdivid":"MT200080N0510E0SN290"},"geometry":{"type":"Polygon","coordinates":[[[-105.368602,46.428724],[-105.363617,46.428714],[-105.363528,46.425052],[-105.363438,46.42139],[-105.363438,46.417812],[-105.363438,46.417728],[-105.363438,46.414234],[-105.368524,46.414234],[-105.373773,46.414235],[-105.379038,46.414236],[-105.384303,46.414237],[-105.384291,46.417863],[-105.384279,46.421489],[-105.384267,46.425115],[-105.384255,46.42874],[-105.379077,46.428737],[-105.373899,46.428734],[-105.368602,46.428724]]]}},{"type":"Feature","properties":{"sec":"35","frstdivid":"MT200080N0510E0SN350"},"geometry":{"type":"Polygon","coordinates":[[[-105.315578,46.399649],[-105.3209,46.399628],[-105.320876,46.403237],[-105.320853,46.406846],[-105.320829,46.410454],[-105.320806,46.414063],[-105.315542,46.41409],[-105.310277,46.414117],[-105.307705,46.414132],[-105.305374,46.414144],[-105.305013,46.414146],[-105.299749,46.414175],[-105.299715,46.410558],[-105.29968,46.406942],[-105.299646,46.403326],[-105.299612,46.399709],[-105.304934,46.399689],[-105.310255,46.399669],[-105.313127,46.399658],[-105.313127,46.399658],[-105.315578,46.399649]]]}},{"type":"Feature","properties":{"sec":"33","frstdivid":"MT200080N0510E0SN330"},"geometry":{"type":"Polygon","coordinates":[[[-105.34219,46.40686],[-105.342177,46.403242],[-105.342165,46.399625],[-105.347412,46.399598],[-105.352658,46.399572],[-105.357972,46.399617],[-105.363286,46.399663],[-105.363331,46.403223],[-105.363376,46.406784],[-105.363407,46.410425],[-105.363407,46.410509],[-105.363437,46.414067],[-105.358122,46.414111],[-105.352806,46.414154],[-105.347503,46.414128],[-105.342201,46.414101],[-105.342195,46.41048],[-105.34219,46.40686]]]}},{"type":"Feature","properties":{"sec":"34","frstdivid":"MT200080N0510E0SN340"},"geometry":{"type":"Polygon","coordinates":[[[-105.320853,46.406846],[-105.320876,46.403237],[-105.3209,46.399628],[-105.326207,46.399643],[-105.331515,46.399657],[-105.33684,46.399641],[-105.342165,46.399625],[-105.342177,46.403242],[-105.34219,46.40686],[-105.342195,46.41048],[-105.342201,46.414101],[-105.336778,46.414096],[-105.331356,46.414091],[-105.326081,46.414077],[-105.320806,46.414063],[-105.320829,46.410454],[-105.320853,46.406846]]]}},{"type":"Feature","properties":{"sec":"24","frstdivid":"MT200080N0510E0SN240"},"geometry":{"type":"Polygon","coordinates":[[[-105.299654,46.42873],[-105.299689,46.432355],[-105.299723,46.435979],[-105.299743,46.439607],[-105.299762,46.443234],[-105.294474,46.443183],[-105.289186,46.443133],[-105.283898,46.443082],[-105.27861,46.443031],[-105.278623,46.439368],[-105.278636,46.435705],[-105.278645,46.432075],[-105.278653,46.428445],[-105.283903,46.428516],[-105.289153,46.428588],[-105.294404,46.428659],[-105.299654,46.42873]]]}},{"type":"Feature","properties":{"sec":"36","frstdivid":"MT200080N0510E0SN360"},"geometry":{"type":"Polygon","coordinates":[[[-105.294362,46.399686],[-105.299612,46.399709],[-105.299646,46.403326],[-105.29968,46.406942],[-105.299715,46.410558],[-105.299749,46.414175],[-105.294467,46.414172],[-105.289185,46.414169],[-105.283934,46.414141],[-105.278684,46.414112],[-105.278657,46.410486],[-105.278631,46.406861],[-105.278617,46.403224],[-105.278602,46.399588],[-105.283857,46.399625],[-105.289112,46.399663],[-105.294362,46.399686]]]}},{"type":"Feature","properties":{"sec":"06","frstdivid":"MT200080N0510E0SN060"},"geometry":{"type":"Polygon","coordinates":[[[-105.402563,46.471935],[-105.4026,46.471935],[-105.402598,46.473138],[-105.402594,46.475571],[-105.402592,46.476733],[-105.402589,46.479208],[-105.402587,46.480325],[-105.402582,46.483564],[-105.400176,46.483561],[-105.397392,46.483558],[-105.395025,46.483555],[-105.392142,46.483555],[-105.38987,46.483555],[-105.386892,46.483555],[-105.384714,46.483552],[-105.384697,46.479141],[-105.38468,46.475529],[-105.384662,46.471916],[-105.389833,46.471924],[-105.395005,46.471931],[-105.400208,46.471934],[-105.402563,46.471935]]]}},{"type":"Feature","properties":{"sec":"16","frstdivid":"MT200080N0510E0SN160"},"geometry":{"type":"Polygon","coordinates":[[[-105.342273,46.453871],[-105.342246,46.45026],[-105.342219,46.44665],[-105.342192,46.443039],[-105.347475,46.442968],[-105.352757,46.442896],[-105.358064,46.44288],[-105.363371,46.442863],[-105.363373,46.443245],[-105.363387,46.44649],[-105.363387,46.446544],[-105.363402,46.450117],[-105.363424,46.453763],[-105.363446,46.457409],[-105.358159,46.457427],[-105.352872,46.457445],[-105.347586,46.457463],[-105.3423,46.457481],[-105.342273,46.453871]]]}}]}