{"type":"FeatureCollection","note":"BLM Public Land Survey System. Provided by the Bureau of Land Management as is. These data are neither legal documents nor land surveys and must not be used as such.","features":[{"type":"Feature","properties":{"sec":"36","frstdivid":"WY060470N0630W0SN360"},"geometry":{"type":"Polygon","coordinates":[[[-104.356707,44.003927],[-104.361701,44.003924],[-104.366694,44.003922],[-104.371708,44.00399],[-104.376722,44.004058],[-104.376788,44.007637],[-104.376853,44.011215],[-104.376918,44.014794],[-104.376983,44.018372],[-104.372046,44.018352],[-104.36711,44.018331],[-104.362174,44.018311],[-104.357238,44.01829],[-104.357105,44.014699],[-104.356972,44.011108],[-104.35684,44.007518],[-104.356707,44.003927]]]}},{"type":"Feature","properties":{"sec":"17","frstdivid":"WY060470N0630W0SN170"},"geometry":{"type":"Polygon","coordinates":[[[-104.457551,44.058011],[-104.4578,44.061622],[-104.452798,44.061583],[-104.447796,44.061543],[-104.442794,44.061503],[-104.437792,44.061463],[-104.437498,44.057843],[-104.437203,44.054223],[-104.436909,44.050603],[-104.436615,44.046983],[-104.441662,44.047032],[-104.44671,44.04708],[-104.451757,44.047129],[-104.456805,44.047177],[-104.457054,44.050788],[-104.457303,44.0544],[-104.457551,44.058011]]]}},{"type":"Feature","properties":{"sec":"02","frstdivid":"WY060470N0630W0SN020"},"geometry":{"type":"Polygon","coordinates":[[[-104.396614,44.082884],[-104.396413,44.086492],[-104.396208,44.090128],[-104.391243,44.090104],[-104.386278,44.090081],[-104.381314,44.090057],[-104.376349,44.090033],[-104.376539,44.086381],[-104.376723,44.082774],[-104.377224,44.079193],[-104.377724,44.075611],[-104.382688,44.075636],[-104.387651,44.075661],[-104.392615,44.075686],[-104.397579,44.075711],[-104.397097,44.079298],[-104.396614,44.082884]]]}},{"type":"Feature","properties":{"sec":"22","frstdivid":"WY060470N0630W0SN220"},"geometry":{"type":"Polygon","coordinates":[[[-104.416406,44.032503],[-104.416402,44.036094],[-104.416398,44.039685],[-104.416395,44.043276],[-104.416391,44.046867],[-104.411499,44.046915],[-104.406608,44.046964],[-104.401716,44.047012],[-104.396825,44.04706],[-104.396748,44.043475],[-104.396671,44.039889],[-104.396594,44.036304],[-104.396518,44.032718],[-104.401468,44.032529],[-104.406419,44.032339],[-104.411412,44.032421],[-104.416406,44.032503]]]}},{"type":"Feature","properties":{"sec":"19","frstdivid":"WY060470N0630W0SN190"},"geometry":{"type":"Polygon","coordinates":[[[-104.456805,44.047177],[-104.456751,44.043565],[-104.456697,44.039953],[-104.456643,44.03634],[-104.45659,44.032728],[-104.461609,44.03264],[-104.466629,44.032553],[-104.471647,44.032467],[-104.47621,44.032389],[-104.47625,44.036043],[-104.47629,44.039696],[-104.47633,44.04335],[-104.47637,44.047004],[-104.471882,44.047025],[-104.466859,44.047052],[-104.461832,44.047115],[-104.456805,44.047177]]]}},{"type":"Feature","properties":{"sec":"21","frstdivid":"WY060470N0630W0SN210"},"geometry":{"type":"Polygon","coordinates":[[[-104.43657,44.043357],[-104.436615,44.046983],[-104.431559,44.046954],[-104.426503,44.046925],[-104.421447,44.046896],[-104.416391,44.046867],[-104.416395,44.043276],[-104.416398,44.039685],[-104.416402,44.036094],[-104.416406,44.032503],[-104.421413,44.032496],[-104.42642,44.03249],[-104.431427,44.032484],[-104.436434,44.032478],[-104.436479,44.036104],[-104.436524,44.03973],[-104.43657,44.043357]]]}},{"type":"Feature","properties":{"sec":"10","frstdivid":"WY060470N0630W0SN100"},"geometry":{"type":"Polygon","coordinates":[[[-104.417521,44.075861],[-104.412524,44.075812],[-104.407542,44.075779],[-104.40256,44.075745],[-104.397579,44.075711],[-104.397697,44.072127],[-104.397815,44.068543],[-104.397933,44.064958],[-104.398051,44.061374],[-104.403013,44.061365],[-104.407974,44.061356],[-104.412936,44.061347],[-104.417897,44.061338],[-104.4178,44.064965],[-104.417702,44.068592],[-104.417619,44.072236],[-104.417521,44.075861]]]}},{"type":"Feature","properties":{"sec":"31","frstdivid":"WY060470N0630W0SN310"},"geometry":{"type":"Polygon","coordinates":[[[-104.466651,44.003356],[-104.471762,44.003353],[-104.474269,44.003351],[-104.476617,44.00335],[-104.476562,44.006978],[-104.476506,44.010607],[-104.476454,44.014233],[-104.476402,44.017858],[-104.471657,44.017915],[-104.466614,44.017975],[-104.461571,44.018034],[-104.456529,44.018092],[-104.456504,44.014409],[-104.456479,44.010726],[-104.456454,44.007043],[-104.456429,44.00336],[-104.46154,44.003358],[-104.466651,44.003356]]]}},{"type":"Feature","properties":{"sec":"05","frstdivid":"WY060470N0630W0SN050"},"geometry":{"type":"Polygon","coordinates":[[[-104.456406,44.090576],[-104.451357,44.090534],[-104.446307,44.090491],[-104.441281,44.090449],[-104.436256,44.09041],[-104.436457,44.086818],[-104.436661,44.083201],[-104.437064,44.07959],[-104.437468,44.07598],[-104.442445,44.076008],[-104.447423,44.076038],[-104.452401,44.076067],[-104.457378,44.076096],[-104.457046,44.079704],[-104.456713,44.083313],[-104.456561,44.086929],[-104.456406,44.090576]]]}},{"type":"Feature","properties":{"sec":"06","frstdivid":"WY060470N0630W0SN060"},"geometry":{"type":"Polygon","coordinates":[[[-104.47167,44.090653],[-104.466582,44.090628],[-104.461494,44.090602],[-104.456406,44.090576],[-104.456561,44.086929],[-104.456713,44.083313],[-104.457046,44.079704],[-104.457378,44.076096],[-104.462389,44.076124],[-104.467399,44.076151],[-104.472414,44.076164],[-104.476627,44.076173],[-104.476411,44.0798],[-104.476195,44.083427],[-104.476085,44.087051],[-104.475977,44.090674],[-104.47167,44.090653]]]}},{"type":"Feature","properties":{"sec":"16","frstdivid":"WY060470N0630W0SN160"},"geometry":{"type":"Polygon","coordinates":[[[-104.427845,44.061401],[-104.422871,44.06137],[-104.417897,44.061338],[-104.417521,44.057721],[-104.417144,44.054103],[-104.416768,44.050485],[-104.416391,44.046867],[-104.421447,44.046896],[-104.426503,44.046925],[-104.431559,44.046954],[-104.436615,44.046983],[-104.436909,44.050603],[-104.437203,44.054223],[-104.437498,44.057843],[-104.437792,44.061463],[-104.432818,44.061432],[-104.427845,44.061401]]]}},{"type":"Feature","properties":{"sec":"18","frstdivid":"WY060470N0630W0SN180"},"geometry":{"type":"Polygon","coordinates":[[[-104.47637,44.047004],[-104.47658,44.05065],[-104.47679,44.054297],[-104.477001,44.057944],[-104.477211,44.06159],[-104.472828,44.061597],[-104.467814,44.061604],[-104.462807,44.061613],[-104.4578,44.061622],[-104.457551,44.058011],[-104.457303,44.0544],[-104.457054,44.050788],[-104.456805,44.047177],[-104.461832,44.047115],[-104.466859,44.047052],[-104.471882,44.047025],[-104.47637,44.047004]]]}},{"type":"Feature","properties":{"sec":"28","frstdivid":"WY060470N0630W0SN280"},"geometry":{"type":"Polygon","coordinates":[[[-104.416427,44.021729],[-104.416434,44.018138],[-104.421452,44.018101],[-104.426469,44.018065],[-104.431487,44.018029],[-104.436504,44.017992],[-104.436486,44.021614],[-104.436469,44.025235],[-104.436451,44.028857],[-104.436434,44.032478],[-104.431427,44.032484],[-104.42642,44.03249],[-104.421413,44.032496],[-104.416406,44.032503],[-104.416413,44.028911],[-104.41642,44.02532],[-104.416427,44.021729]]]}},{"type":"Feature","properties":{"sec":"04","frstdivid":"WY060470N0630W0SN040"},"geometry":{"type":"Polygon","coordinates":[[[-104.437064,44.07959],[-104.436661,44.083201],[-104.436457,44.086818],[-104.436256,44.09041],[-104.431234,44.090386],[-104.426212,44.090362],[-104.42124,44.090332],[-104.416269,44.090302],[-104.416478,44.086699],[-104.416688,44.083081],[-104.417105,44.079471],[-104.417521,44.075861],[-104.422508,44.075891],[-104.427495,44.075921],[-104.432481,44.075951],[-104.437468,44.07598],[-104.437064,44.07959]]]}},{"type":"Feature","properties":{"sec":"27","frstdivid":"WY060470N0630W0SN270"},"geometry":{"type":"Polygon","coordinates":[[[-104.416406,44.032503],[-104.411412,44.032421],[-104.406419,44.032339],[-104.401468,44.032529],[-104.396518,44.032718],[-104.396556,44.029133],[-104.396595,44.025547],[-104.396634,44.021961],[-104.396673,44.018376],[-104.401604,44.018019],[-104.406535,44.017662],[-104.411485,44.0179],[-104.416434,44.018138],[-104.416427,44.021729],[-104.41642,44.02532],[-104.416413,44.028911],[-104.416406,44.032503]]]}},{"type":"Feature","properties":{"sec":"33","frstdivid":"WY060470N0630W0SN330"},"geometry":{"type":"Polygon","coordinates":[[[-104.421452,44.018101],[-104.416434,44.018138],[-104.416469,44.014546],[-104.416503,44.010955],[-104.416538,44.007364],[-104.416572,44.003773],[-104.421512,44.003706],[-104.426451,44.00364],[-104.431393,44.003573],[-104.436335,44.003506],[-104.436377,44.007128],[-104.436419,44.010749],[-104.436462,44.014371],[-104.436504,44.017992],[-104.431487,44.018029],[-104.426469,44.018065],[-104.421452,44.018101]]]}},{"type":"Feature","properties":{"sec":"35","frstdivid":"WY060470N0630W0SN350"},"geometry":{"type":"Polygon","coordinates":[[[-104.376983,44.018372],[-104.376918,44.014794],[-104.376853,44.011215],[-104.376788,44.007637],[-104.376722,44.004058],[-104.381777,44.004112],[-104.386831,44.004166],[-104.391808,44.004106],[-104.396785,44.004046],[-104.396757,44.007629],[-104.396729,44.011211],[-104.396701,44.014793],[-104.396673,44.018376],[-104.39175,44.018375],[-104.386828,44.018374],[-104.381905,44.018373],[-104.376983,44.018372]]]}},{"type":"Feature","properties":{"sec":"34","frstdivid":"WY060470N0630W0SN340"},"geometry":{"type":"Polygon","coordinates":[[[-104.416434,44.018138],[-104.411485,44.0179],[-104.406535,44.017662],[-104.401604,44.018019],[-104.396673,44.018376],[-104.396701,44.014793],[-104.396729,44.011211],[-104.396757,44.007629],[-104.396785,44.004046],[-104.401732,44.003978],[-104.406679,44.003909],[-104.411626,44.003841],[-104.416572,44.003773],[-104.416538,44.007364],[-104.416503,44.010955],[-104.416469,44.014546],[-104.416434,44.018138]]]}},{"type":"Feature","properties":{"sec":"32","frstdivid":"WY060470N0630W0SN320"},"geometry":{"type":"Polygon","coordinates":[[[-104.451523,44.018067],[-104.446517,44.018042],[-104.44151,44.018017],[-104.436504,44.017992],[-104.436462,44.014371],[-104.436419,44.010749],[-104.436377,44.007128],[-104.436335,44.003506],[-104.441273,44.003472],[-104.44621,44.003438],[-104.45132,44.003399],[-104.456429,44.00336],[-104.456454,44.007043],[-104.456479,44.010726],[-104.456504,44.014409],[-104.456529,44.018092],[-104.451523,44.018067]]]}},{"type":"Feature","properties":{"sec":"29","frstdivid":"WY060470N0630W0SN290"},"geometry":{"type":"Polygon","coordinates":[[[-104.451523,44.018067],[-104.456529,44.018092],[-104.456544,44.021772],[-104.45656,44.025452],[-104.456575,44.02909],[-104.45659,44.032728],[-104.451551,44.032665],[-104.446512,44.032603],[-104.441473,44.03254],[-104.436434,44.032478],[-104.436451,44.028857],[-104.436469,44.025235],[-104.436486,44.021614],[-104.436504,44.017992],[-104.44151,44.018017],[-104.446517,44.018042],[-104.451523,44.018067]]]}},{"type":"Feature","properties":{"sec":"11","frstdivid":"WY060470N0630W0SN110"},"geometry":{"type":"Polygon","coordinates":[[[-104.397579,44.075711],[-104.392615,44.075686],[-104.387651,44.075661],[-104.382688,44.075636],[-104.377724,44.075611],[-104.377837,44.072033],[-104.377949,44.068455],[-104.378062,44.064877],[-104.378174,44.061299],[-104.383143,44.061318],[-104.388113,44.061337],[-104.393082,44.061355],[-104.398051,44.061374],[-104.397933,44.064958],[-104.397815,44.068543],[-104.397697,44.072127],[-104.397579,44.075711]]]}},{"type":"Feature","properties":{"sec":"24","frstdivid":"WY060470N0630W0SN240"},"geometry":{"type":"Polygon","coordinates":[[[-104.36739,44.047076],[-104.362497,44.047115],[-104.357603,44.047153],[-104.357506,44.043543],[-104.357408,44.039933],[-104.357311,44.036322],[-104.357213,44.032712],[-104.362131,44.032706],[-104.367049,44.032699],[-104.371967,44.032693],[-104.376885,44.032686],[-104.376958,44.036265],[-104.377031,44.039843],[-104.377104,44.043421],[-104.377177,44.046999],[-104.372284,44.047038],[-104.36739,44.047076]]]}},{"type":"Feature","properties":{"sec":"14","frstdivid":"WY060470N0630W0SN140"},"geometry":{"type":"Polygon","coordinates":[[[-104.378174,44.061299],[-104.377925,44.057724],[-104.377676,44.054149],[-104.377427,44.050574],[-104.377177,44.046999],[-104.382089,44.047014],[-104.387001,44.04703],[-104.391913,44.047045],[-104.396825,44.04706],[-104.397131,44.050639],[-104.397438,44.054217],[-104.397744,44.057796],[-104.398051,44.061374],[-104.393082,44.061355],[-104.388113,44.061337],[-104.383143,44.061318],[-104.378174,44.061299]]]}},{"type":"Feature","properties":{"sec":"15","frstdivid":"WY060470N0630W0SN150"},"geometry":{"type":"Polygon","coordinates":[[[-104.403013,44.061365],[-104.398051,44.061374],[-104.397744,44.057796],[-104.397438,44.054217],[-104.397131,44.050639],[-104.396825,44.04706],[-104.401716,44.047012],[-104.406608,44.046964],[-104.411499,44.046915],[-104.416391,44.046867],[-104.416768,44.050485],[-104.417144,44.054103],[-104.417521,44.057721],[-104.417897,44.061338],[-104.412936,44.061347],[-104.407974,44.061356],[-104.403013,44.061365]]]}},{"type":"Feature","properties":{"sec":"08","frstdivid":"WY060470N0630W0SN080"},"geometry":{"type":"Polygon","coordinates":[[[-104.43755,44.072356],[-104.437626,44.068715],[-104.437709,44.065089],[-104.437792,44.061463],[-104.442794,44.061503],[-104.447796,44.061543],[-104.452798,44.061583],[-104.4578,44.061622],[-104.457695,44.065237],[-104.457589,44.068853],[-104.457483,44.072482],[-104.457378,44.076096],[-104.452401,44.076067],[-104.447423,44.076038],[-104.442445,44.076008],[-104.437468,44.07598],[-104.43755,44.072356]]]}},{"type":"Feature","properties":{"sec":"20","frstdivid":"WY060470N0630W0SN200"},"geometry":{"type":"Polygon","coordinates":[[[-104.451757,44.047129],[-104.44671,44.04708],[-104.441662,44.047032],[-104.436615,44.046983],[-104.43657,44.043357],[-104.436524,44.03973],[-104.436479,44.036104],[-104.436434,44.032478],[-104.441473,44.03254],[-104.446512,44.032603],[-104.451551,44.032665],[-104.45659,44.032728],[-104.456643,44.03634],[-104.456697,44.039953],[-104.456751,44.043565],[-104.456805,44.047177],[-104.451757,44.047129]]]}},{"type":"Feature","properties":{"sec":"25","frstdivid":"WY060470N0630W0SN250"},"geometry":{"type":"Polygon","coordinates":[[[-104.376909,44.029108],[-104.376885,44.032686],[-104.371967,44.032693],[-104.367049,44.032699],[-104.362131,44.032706],[-104.357213,44.032712],[-104.357219,44.029107],[-104.357226,44.025501],[-104.357232,44.021896],[-104.357238,44.01829],[-104.362174,44.018311],[-104.36711,44.018331],[-104.372046,44.018352],[-104.376983,44.018372],[-104.376958,44.021951],[-104.376934,44.025529],[-104.376909,44.029108]]]}},{"type":"Feature","properties":{"sec":"13","frstdivid":"WY060470N0630W0SN130"},"geometry":{"type":"Polygon","coordinates":[[[-104.377427,44.050574],[-104.377676,44.054149],[-104.377925,44.057724],[-104.378174,44.061299],[-104.373194,44.061374],[-104.368215,44.061449],[-104.363235,44.061523],[-104.358255,44.061598],[-104.358092,44.057987],[-104.357929,44.054376],[-104.357766,44.050764],[-104.357603,44.047153],[-104.362497,44.047115],[-104.36739,44.047076],[-104.372284,44.047038],[-104.377177,44.046999],[-104.377427,44.050574]]]}},{"type":"Feature","properties":{"sec":"01","frstdivid":"WY060470N0630W0SN010"},"geometry":{"type":"Polygon","coordinates":[[[-104.376723,44.082774],[-104.376539,44.086381],[-104.376349,44.090033],[-104.371386,44.090131],[-104.366423,44.090228],[-104.36146,44.090331],[-104.356497,44.090433],[-104.356719,44.086821],[-104.356941,44.083209],[-104.357386,44.07961],[-104.357831,44.07601],[-104.362805,44.07591],[-104.367778,44.07581],[-104.372751,44.075711],[-104.377724,44.075611],[-104.377224,44.079193],[-104.376723,44.082774]]]}},{"type":"Feature","properties":{"sec":"03","frstdivid":"WY060470N0630W0SN030"},"geometry":{"type":"Polygon","coordinates":[[[-104.396614,44.082884],[-104.397097,44.079298],[-104.397579,44.075711],[-104.40256,44.075745],[-104.407542,44.075779],[-104.412524,44.075812],[-104.417521,44.075861],[-104.417105,44.079471],[-104.416688,44.083081],[-104.416478,44.086699],[-104.416269,44.090302],[-104.411262,44.090249],[-104.406272,44.090206],[-104.40124,44.090167],[-104.396208,44.090128],[-104.396413,44.086492],[-104.396614,44.082884]]]}},{"type":"Feature","properties":{"sec":"09","frstdivid":"WY060470N0630W0SN090"},"geometry":{"type":"Polygon","coordinates":[[[-104.417702,44.068592],[-104.4178,44.064965],[-104.417897,44.061338],[-104.422871,44.06137],[-104.427845,44.061401],[-104.432818,44.061432],[-104.437792,44.061463],[-104.437709,44.065089],[-104.437626,44.068715],[-104.43755,44.072356],[-104.437468,44.07598],[-104.432481,44.075951],[-104.427495,44.075921],[-104.422508,44.075891],[-104.417521,44.075861],[-104.417619,44.072236],[-104.417702,44.068592]]]}},{"type":"Feature","properties":{"sec":"26","frstdivid":"WY060470N0630W0SN260"},"geometry":{"type":"Polygon","coordinates":[[[-104.396634,44.021961],[-104.396595,44.025547],[-104.396556,44.029133],[-104.396518,44.032718],[-104.391609,44.03271],[-104.386701,44.032702],[-104.381793,44.032694],[-104.376885,44.032686],[-104.376909,44.029108],[-104.376934,44.025529],[-104.376958,44.021951],[-104.376983,44.018372],[-104.381905,44.018373],[-104.386828,44.018374],[-104.39175,44.018375],[-104.396673,44.018376],[-104.396634,44.021961]]]}},{"type":"Feature","properties":{"sec":"23","frstdivid":"WY060470N0630W0SN230"},"geometry":{"type":"Polygon","coordinates":[[[-104.391913,44.047045],[-104.387001,44.04703],[-104.382089,44.047014],[-104.377177,44.046999],[-104.377104,44.043421],[-104.377031,44.039843],[-104.376958,44.036265],[-104.376885,44.032686],[-104.381793,44.032694],[-104.386701,44.032702],[-104.391609,44.03271],[-104.396518,44.032718],[-104.396594,44.036304],[-104.396671,44.039889],[-104.396748,44.043475],[-104.396825,44.04706],[-104.391913,44.047045]]]}},{"type":"Feature","properties":{"sec":"12","frstdivid":"WY060470N0630W0SN120"},"geometry":{"type":"Polygon","coordinates":[[[-104.357831,44.07601],[-104.357937,44.072407],[-104.358043,44.068804],[-104.358149,44.065201],[-104.358255,44.061598],[-104.363235,44.061523],[-104.368215,44.061449],[-104.373194,44.061374],[-104.378174,44.061299],[-104.378062,44.064877],[-104.377949,44.068455],[-104.377837,44.072033],[-104.377724,44.075611],[-104.372751,44.075711],[-104.367778,44.07581],[-104.362805,44.07591],[-104.357831,44.07601]]]}},{"type":"Feature","properties":{"sec":"30","frstdivid":"WY060470N0630W0SN300"},"geometry":{"type":"Polygon","coordinates":[[[-104.47621,44.032389],[-104.471647,44.032467],[-104.466629,44.032553],[-104.461609,44.03264],[-104.45659,44.032728],[-104.456575,44.02909],[-104.45656,44.025452],[-104.456544,44.021772],[-104.456529,44.018092],[-104.461571,44.018034],[-104.466614,44.017975],[-104.471657,44.017915],[-104.476402,44.017858],[-104.47635,44.021492],[-104.476299,44.025125],[-104.476254,44.028757],[-104.47621,44.032389]]]}},{"type":"Feature","properties":{"sec":"07","frstdivid":"WY060470N0630W0SN070"},"geometry":{"type":"Polygon","coordinates":[[[-104.476627,44.076173],[-104.472414,44.076164],[-104.467399,44.076151],[-104.462389,44.076124],[-104.457378,44.076096],[-104.457483,44.072482],[-104.457589,44.068853],[-104.457695,44.065237],[-104.4578,44.061622],[-104.462807,44.061613],[-104.467814,44.061604],[-104.472828,44.061597],[-104.477211,44.06159],[-104.477066,44.065235],[-104.476922,44.068879],[-104.47677,44.07253],[-104.476627,44.076173]]]}}]}