{"type":"FeatureCollection","note":"BLM Public Land Survey System. Provided by the Bureau of Land Management as is. These data are neither legal documents nor land surveys and must not be used as such.","features":[{"type":"Feature","properties":{"sec":"09","frstdivid":"WY060570N0610W0SN090"},"geometry":{"type":"Polygon","coordinates":[[[-104.188066,44.93874],[-104.188173,44.942404],[-104.188279,44.946067],[-104.188386,44.94973],[-104.188492,44.953394],[-104.183341,44.953385],[-104.17819,44.953376],[-104.17304,44.953368],[-104.167889,44.953359],[-104.167782,44.949685],[-104.167676,44.946011],[-104.167569,44.942338],[-104.167463,44.938664],[-104.172614,44.938683],[-104.177764,44.938702],[-104.182915,44.938721],[-104.188066,44.93874]]]}},{"type":"Feature","properties":{"sec":"35","frstdivid":"WY060570N0610W0SN350"},"geometry":{"type":"Polygon","coordinates":[[[-104.144477,44.879919],[-104.144572,44.883607],[-104.144667,44.887294],[-104.144762,44.890982],[-104.144856,44.894669],[-104.139663,44.894634],[-104.13447,44.894599],[-104.129276,44.894564],[-104.124083,44.894529],[-104.123985,44.890846],[-104.123888,44.887162],[-104.12379,44.883479],[-104.123692,44.879795],[-104.12695,44.879815],[-104.128888,44.879826],[-104.132148,44.879846],[-104.134085,44.879858],[-104.137305,44.879877],[-104.139281,44.879888],[-104.142463,44.879908],[-104.144477,44.879919]]]}},{"type":"Feature","properties":{"sec":"18","frstdivid":"WY060570N0610W0SN180"},"geometry":{"type":"Polygon","coordinates":[[[-104.228841,44.931591],[-104.228925,44.935249],[-104.229008,44.938906],[-104.22408,44.938877],[-104.218928,44.938847],[-104.213776,44.938816],[-104.208623,44.938785],[-104.208389,44.93513],[-104.208155,44.931475],[-104.207921,44.927821],[-104.207686,44.924166],[-104.212957,44.924193],[-104.218228,44.924219],[-104.223499,44.924248],[-104.228675,44.924276],[-104.228758,44.927934],[-104.228841,44.931591]]]}},{"type":"Feature","properties":{"sec":"23","frstdivid":"WY060570N0610W0SN230"},"geometry":{"type":"Polygon","coordinates":[[[-104.145075,44.916755],[-104.145216,44.920421],[-104.145358,44.924088],[-104.140281,44.924041],[-104.135204,44.923994],[-104.130127,44.923946],[-104.12505,44.923899],[-104.124881,44.920228],[-104.124713,44.916558],[-104.124545,44.912888],[-104.124376,44.909217],[-104.12948,44.909268],[-104.134584,44.909319],[-104.139687,44.90937],[-104.144791,44.909421],[-104.144933,44.913088],[-104.145075,44.916755]]]}},{"type":"Feature","properties":{"sec":"27","frstdivid":"WY060570N0610W0SN270"},"geometry":{"type":"Polygon","coordinates":[[[-104.165612,44.894835],[-104.165494,44.898216],[-104.165368,44.90185],[-104.165242,44.905484],[-104.165116,44.909118],[-104.160035,44.909194],[-104.154953,44.90927],[-104.149872,44.909346],[-104.144791,44.909421],[-104.144807,44.905733],[-104.144824,44.902045],[-104.14484,44.898357],[-104.144856,44.894669],[-104.150044,44.894647],[-104.155231,44.894625],[-104.160418,44.894603],[-104.165605,44.894581],[-104.165612,44.894835]]]}},{"type":"Feature","properties":{"sec":"32","frstdivid":"WY060570N0610W0SN320"},"geometry":{"type":"Polygon","coordinates":[[[-104.207148,44.891244],[-104.207251,44.894902],[-104.202032,44.894878],[-104.196812,44.894855],[-104.191593,44.89483],[-104.186374,44.894805],[-104.186293,44.891141],[-104.186212,44.887477],[-104.186131,44.883812],[-104.186051,44.880148],[-104.188976,44.880164],[-104.191247,44.880176],[-104.194174,44.880191],[-104.196444,44.880205],[-104.199316,44.880223],[-104.201641,44.880238],[-104.204459,44.880256],[-104.206838,44.880271],[-104.206941,44.883929],[-104.207044,44.887586],[-104.207148,44.891244]]]}},{"type":"Feature","properties":{"sec":"10","frstdivid":"WY060570N0610W0SN100"},"geometry":{"type":"Polygon","coordinates":[[[-104.147371,44.953391],[-104.147232,44.949724],[-104.147092,44.946057],[-104.146953,44.94239],[-104.146813,44.938724],[-104.151975,44.938709],[-104.157138,44.938694],[-104.1623,44.938679],[-104.167463,44.938664],[-104.167569,44.942338],[-104.167676,44.946011],[-104.167782,44.949685],[-104.167889,44.953359],[-104.162759,44.953367],[-104.15763,44.953375],[-104.152501,44.953383],[-104.147371,44.953391]]]}},{"type":"Feature","properties":{"sec":"11","frstdivid":"WY060570N0610W0SN110"},"geometry":{"type":"Polygon","coordinates":[[[-104.147371,44.953391],[-104.142256,44.953355],[-104.13714,44.953319],[-104.132025,44.953283],[-104.126909,44.953247],[-104.126736,44.949577],[-104.126562,44.945906],[-104.126389,44.942236],[-104.126216,44.938565],[-104.131365,44.938605],[-104.136514,44.938644],[-104.141664,44.938684],[-104.146813,44.938724],[-104.146953,44.94239],[-104.147092,44.946057],[-104.147232,44.949724],[-104.147371,44.953391]]]}},{"type":"Feature","properties":{"sec":"08","frstdivid":"WY060570N0610W0SN080"},"geometry":{"type":"Polygon","coordinates":[[[-104.193631,44.953399],[-104.188492,44.953394],[-104.188386,44.94973],[-104.188279,44.946067],[-104.188173,44.942404],[-104.188066,44.93874],[-104.193205,44.938751],[-104.198345,44.938763],[-104.203484,44.938774],[-104.208623,44.938785],[-104.20873,44.942443],[-104.208836,44.9461],[-104.208942,44.949758],[-104.209049,44.953415],[-104.20391,44.95341],[-104.19877,44.953405],[-104.193631,44.953399]]]}},{"type":"Feature","properties":{"sec":"29","frstdivid":"WY060570N0610W0SN290"},"geometry":{"type":"Polygon","coordinates":[[[-104.191556,44.90948],[-104.186276,44.909463],[-104.1863,44.905798],[-104.186325,44.902134],[-104.186349,44.898469],[-104.186374,44.894805],[-104.191593,44.89483],[-104.196812,44.894855],[-104.202032,44.894878],[-104.207251,44.894902],[-104.207286,44.89856],[-104.20732,44.902218],[-104.207359,44.905876],[-104.207398,44.909534],[-104.202117,44.909516],[-104.196837,44.909498],[-104.191556,44.90948]]]}},{"type":"Feature","properties":{"sec":"13","frstdivid":"WY060570N0610W0SN130"},"geometry":{"type":"Polygon","coordinates":[[[-104.115884,44.938529],[-104.110718,44.938511],[-104.105552,44.938493],[-104.105366,44.934824],[-104.10518,44.931155],[-104.104995,44.927487],[-104.104809,44.923818],[-104.109869,44.923838],[-104.114929,44.923858],[-104.119989,44.923879],[-104.12505,44.923899],[-104.125341,44.927565],[-104.125633,44.931232],[-104.125924,44.934899],[-104.126216,44.938565],[-104.12105,44.938547],[-104.115884,44.938529]]]}},{"type":"Feature","properties":{"sec":"28","frstdivid":"WY060570N0610W0SN280"},"geometry":{"type":"Polygon","coordinates":[[[-104.181182,44.894749],[-104.186374,44.894805],[-104.186349,44.898469],[-104.186325,44.902134],[-104.1863,44.905798],[-104.186276,44.909463],[-104.180986,44.909377],[-104.175696,44.909291],[-104.170406,44.909204],[-104.165116,44.909118],[-104.165242,44.905484],[-104.165368,44.90185],[-104.165494,44.898216],[-104.165612,44.894835],[-104.165605,44.894581],[-104.170798,44.894637],[-104.17599,44.894693],[-104.181182,44.894749]]]}},{"type":"Feature","properties":{"sec":"14","frstdivid":"WY060570N0610W0SN140"},"geometry":{"type":"Polygon","coordinates":[[[-104.146086,44.931406],[-104.146449,44.935065],[-104.146813,44.938724],[-104.141664,44.938684],[-104.136514,44.938644],[-104.131365,44.938605],[-104.126216,44.938565],[-104.125924,44.934899],[-104.125633,44.931232],[-104.125341,44.927565],[-104.12505,44.923899],[-104.130127,44.923946],[-104.135204,44.923994],[-104.140281,44.924041],[-104.145358,44.924088],[-104.145722,44.927747],[-104.146086,44.931406]]]}},{"type":"Feature","properties":{"sec":"15","frstdivid":"WY060570N0610W0SN150"},"geometry":{"type":"Polygon","coordinates":[[[-104.166985,44.935005],[-104.167463,44.938664],[-104.1623,44.938679],[-104.157138,44.938694],[-104.151975,44.938709],[-104.146813,44.938724],[-104.146449,44.935065],[-104.146086,44.931406],[-104.145722,44.927747],[-104.145358,44.924088],[-104.150407,44.924073],[-104.155455,44.924058],[-104.160503,44.924043],[-104.165551,44.924028],[-104.166029,44.927687],[-104.166507,44.931346],[-104.166985,44.935005]]]}},{"type":"Feature","properties":{"sec":"17","frstdivid":"WY060570N0610W0SN170"},"geometry":{"type":"Polygon","coordinates":[[[-104.198345,44.938763],[-104.193205,44.938751],[-104.188066,44.93874],[-104.187721,44.935084],[-104.187375,44.931428],[-104.18703,44.927773],[-104.186684,44.924117],[-104.191935,44.924129],[-104.197185,44.924141],[-104.202436,44.924154],[-104.207686,44.924166],[-104.207921,44.927821],[-104.208155,44.931475],[-104.208389,44.93513],[-104.208623,44.938785],[-104.203484,44.938774],[-104.198345,44.938763]]]}},{"type":"Feature","properties":{"sec":"07","frstdivid":"WY060570N0610W0SN070"},"geometry":{"type":"Polygon","coordinates":[[[-104.208836,44.9461],[-104.20873,44.942443],[-104.208623,44.938785],[-104.213776,44.938816],[-104.218928,44.938847],[-104.22408,44.938877],[-104.229008,44.938906],[-104.229091,44.942564],[-104.229175,44.946222],[-104.229259,44.949879],[-104.229342,44.953537],[-104.224454,44.953508],[-104.219319,44.953477],[-104.214184,44.953446],[-104.209049,44.953415],[-104.208942,44.949758],[-104.208836,44.9461]]]}},{"type":"Feature","properties":{"sec":"21","frstdivid":"WY060570N0610W0SN210"},"geometry":{"type":"Polygon","coordinates":[[[-104.186378,44.913126],[-104.18648,44.91679],[-104.186582,44.920453],[-104.186684,44.924117],[-104.181401,44.924094],[-104.176118,44.924072],[-104.170835,44.92405],[-104.165551,44.924028],[-104.165443,44.920301],[-104.165334,44.916573],[-104.165225,44.912846],[-104.165116,44.909118],[-104.170406,44.909204],[-104.175696,44.909291],[-104.180986,44.909377],[-104.186276,44.909463],[-104.186378,44.913126]]]}},{"type":"Feature","properties":{"sec":"16","frstdivid":"WY060570N0610W0SN160"},"geometry":{"type":"Polygon","coordinates":[[[-104.167463,44.938664],[-104.166985,44.935005],[-104.166507,44.931346],[-104.166029,44.927687],[-104.165551,44.924028],[-104.170835,44.92405],[-104.176118,44.924072],[-104.181401,44.924094],[-104.186684,44.924117],[-104.18703,44.927773],[-104.187375,44.931428],[-104.187721,44.935084],[-104.188066,44.93874],[-104.182915,44.938721],[-104.177764,44.938702],[-104.172614,44.938683],[-104.167463,44.938664]]]}},{"type":"Feature","properties":{"sec":"31","frstdivid":"WY060570N0610W0SN310"},"geometry":{"type":"Polygon","coordinates":[[[-104.222428,44.880357],[-104.225161,44.880372],[-104.227625,44.880385],[-104.227717,44.884043],[-104.22781,44.887701],[-104.227902,44.891358],[-104.227994,44.895016],[-104.222846,44.894987],[-104.217647,44.894959],[-104.212449,44.894931],[-104.207251,44.894902],[-104.207148,44.891244],[-104.207044,44.887586],[-104.206941,44.883929],[-104.206838,44.880271],[-104.209602,44.880286],[-104.212035,44.8803],[-104.214745,44.880315],[-104.217232,44.880328],[-104.219953,44.880343],[-104.222428,44.880357]]]}},{"type":"Feature","properties":{"sec":"30","frstdivid":"WY060570N0610W0SN300"},"geometry":{"type":"Polygon","coordinates":[[[-104.207359,44.905876],[-104.20732,44.902218],[-104.207286,44.89856],[-104.207251,44.894902],[-104.212449,44.894931],[-104.217647,44.894959],[-104.222846,44.894987],[-104.227994,44.895016],[-104.228078,44.898673],[-104.228161,44.902331],[-104.228247,44.905988],[-104.228333,44.909645],[-104.223212,44.909618],[-104.217941,44.909589],[-104.212669,44.909561],[-104.207398,44.909534],[-104.207359,44.905876]]]}},{"type":"Feature","properties":{"sec":"12","frstdivid":"WY060570N0610W0SN120"},"geometry":{"type":"Polygon","coordinates":[[[-104.121767,44.953227],[-104.116625,44.953206],[-104.111483,44.953186],[-104.106341,44.953165],[-104.106144,44.949497],[-104.105947,44.945829],[-104.10575,44.942161],[-104.105552,44.938493],[-104.110718,44.938511],[-104.115884,44.938529],[-104.12105,44.938547],[-104.126216,44.938565],[-104.126389,44.942236],[-104.126562,44.945906],[-104.126736,44.949577],[-104.126909,44.953247],[-104.121767,44.953227]]]}},{"type":"Feature","properties":{"sec":"26","frstdivid":"WY060570N0610W0SN260"},"geometry":{"type":"Polygon","coordinates":[[[-104.14484,44.898357],[-104.144824,44.902045],[-104.144807,44.905733],[-104.144791,44.909421],[-104.139687,44.90937],[-104.134584,44.909319],[-104.12948,44.909268],[-104.124376,44.909217],[-104.124303,44.905545],[-104.12423,44.901873],[-104.124156,44.898201],[-104.124083,44.894529],[-104.129276,44.894564],[-104.13447,44.894599],[-104.139663,44.894634],[-104.144856,44.894669],[-104.14484,44.898357]]]}},{"type":"Feature","properties":{"sec":"24","frstdivid":"WY060570N0610W0SN240"},"geometry":{"type":"Polygon","coordinates":[[[-104.104809,44.923818],[-104.104609,44.920148],[-104.10441,44.916478],[-104.10421,44.912809],[-104.104011,44.909139],[-104.109102,44.909158],[-104.114194,44.909178],[-104.119285,44.909198],[-104.124376,44.909217],[-104.124545,44.912888],[-104.124713,44.916558],[-104.124881,44.920228],[-104.12505,44.923899],[-104.119989,44.923879],[-104.114929,44.923858],[-104.109869,44.923838],[-104.104809,44.923818]]]}},{"type":"Feature","properties":{"sec":"33","frstdivid":"WY060570N0610W0SN330"},"geometry":{"type":"Polygon","coordinates":[[[-104.186051,44.880148],[-104.186131,44.883812],[-104.186212,44.887477],[-104.186293,44.891141],[-104.186374,44.894805],[-104.181182,44.894749],[-104.17599,44.894693],[-104.170798,44.894637],[-104.165605,44.894581],[-104.16552,44.890946],[-104.165434,44.887311],[-104.165349,44.883676],[-104.165264,44.88004],[-104.168232,44.880055],[-104.17046,44.880066],[-104.173384,44.88008],[-104.175657,44.880093],[-104.178581,44.880108],[-104.180854,44.88012],[-104.183779,44.880136],[-104.186051,44.880148]]]}},{"type":"Feature","properties":{"sec":"20","frstdivid":"WY060570N0610W0SN200"},"geometry":{"type":"Polygon","coordinates":[[[-104.197185,44.924141],[-104.191935,44.924129],[-104.186684,44.924117],[-104.186582,44.920453],[-104.18648,44.91679],[-104.186378,44.913126],[-104.186276,44.909463],[-104.191556,44.90948],[-104.196837,44.909498],[-104.202117,44.909516],[-104.207398,44.909534],[-104.20747,44.913192],[-104.207542,44.91685],[-104.207614,44.920508],[-104.207686,44.924166],[-104.202436,44.924154],[-104.197185,44.924141]]]}},{"type":"Feature","properties":{"sec":"25","frstdivid":"WY060570N0610W0SN250"},"geometry":{"type":"Polygon","coordinates":[[[-104.124083,44.894529],[-104.124156,44.898201],[-104.12423,44.901873],[-104.124303,44.905545],[-104.124376,44.909217],[-104.119285,44.909198],[-104.114194,44.909178],[-104.109102,44.909158],[-104.104011,44.909139],[-104.103814,44.905468],[-104.103618,44.901797],[-104.103421,44.898127],[-104.103225,44.894456],[-104.108439,44.894474],[-104.113654,44.894492],[-104.118868,44.894511],[-104.124083,44.894529]]]}},{"type":"Feature","properties":{"sec":"22","frstdivid":"WY060570N0610W0SN220"},"geometry":{"type":"Polygon","coordinates":[[[-104.165225,44.912846],[-104.165334,44.916573],[-104.165443,44.920301],[-104.165551,44.924028],[-104.160503,44.924043],[-104.155455,44.924058],[-104.150407,44.924073],[-104.145358,44.924088],[-104.145216,44.920421],[-104.145075,44.916755],[-104.144933,44.913088],[-104.144791,44.909421],[-104.149872,44.909346],[-104.154953,44.90927],[-104.160035,44.909194],[-104.165116,44.909118],[-104.165225,44.912846]]]}},{"type":"Feature","properties":{"sec":"19","frstdivid":"WY060570N0610W0SN190"},"geometry":{"type":"Polygon","coordinates":[[[-104.212957,44.924193],[-104.207686,44.924166],[-104.207614,44.920508],[-104.207542,44.91685],[-104.20747,44.913192],[-104.207398,44.909534],[-104.212669,44.909561],[-104.217941,44.909589],[-104.223212,44.909618],[-104.228333,44.909645],[-104.228419,44.913303],[-104.228504,44.916961],[-104.22859,44.920618],[-104.228675,44.924276],[-104.223499,44.924248],[-104.218228,44.924219],[-104.212957,44.924193]]]}},{"type":"Feature","properties":{"sec":"34","frstdivid":"WY060570N0610W0SN340"},"geometry":{"type":"Polygon","coordinates":[[[-104.144667,44.887294],[-104.144572,44.883607],[-104.144477,44.879919],[-104.14762,44.879938],[-104.149674,44.87995],[-104.152778,44.879969],[-104.15487,44.879981],[-104.157929,44.879999],[-104.160067,44.880011],[-104.163081,44.880028],[-104.165264,44.88004],[-104.165349,44.883676],[-104.165434,44.887311],[-104.16552,44.890946],[-104.165605,44.894581],[-104.160418,44.894603],[-104.155231,44.894625],[-104.150044,44.894647],[-104.144856,44.894669],[-104.144762,44.890982],[-104.144667,44.887294]]]}},{"type":"Feature","properties":{"sec":"36","frstdivid":"WY060570N0610W0SN360"},"geometry":{"type":"Polygon","coordinates":[[[-104.121753,44.879784],[-104.123692,44.879795],[-104.12379,44.883479],[-104.123888,44.887162],[-104.123985,44.890846],[-104.124083,44.894529],[-104.118868,44.894511],[-104.113654,44.894492],[-104.108439,44.894474],[-104.103225,44.894456],[-104.103145,44.890759],[-104.103066,44.887063],[-104.102987,44.883367],[-104.102907,44.879671],[-104.106344,44.879691],[-104.108103,44.879701],[-104.111358,44.879721],[-104.1133,44.879732],[-104.116555,44.879752],[-104.118496,44.879764],[-104.121753,44.879784]]]}},{"type":"Feature","properties":{"sec":"01","frstdivid":"WY060570N0610W0SN010"},"geometry":{"type":"Polygon","coordinates":[[[-104.127583,44.967924],[-104.122463,44.967903],[-104.117343,44.967882],[-104.112223,44.967861],[-104.107104,44.96784],[-104.106912,44.964171],[-104.10672,44.960501],[-104.106531,44.956833],[-104.106341,44.953165],[-104.111483,44.953186],[-104.116625,44.953206],[-104.121767,44.953227],[-104.126909,44.953247],[-104.127076,44.956918],[-104.127244,44.960589],[-104.127413,44.964259],[-104.127583,44.967924]]]}},{"type":"Feature","properties":{"sec":"04","frstdivid":"WY060570N0610W0SN040"},"geometry":{"type":"Polygon","coordinates":[[[-104.188882,44.964384],[-104.189015,44.968078],[-104.183895,44.968062],[-104.178776,44.968046],[-104.173656,44.968031],[-104.168537,44.968015],[-104.168377,44.964373],[-104.168216,44.960702],[-104.168053,44.957031],[-104.167889,44.953359],[-104.17304,44.953368],[-104.17819,44.953376],[-104.183341,44.953385],[-104.188492,44.953394],[-104.188621,44.957057],[-104.18875,44.96072],[-104.188882,44.964384]]]}},{"type":"Feature","properties":{"sec":"05","frstdivid":"WY060570N0610W0SN050"},"geometry":{"type":"Polygon","coordinates":[[[-104.189015,44.968078],[-104.188882,44.964384],[-104.18875,44.96072],[-104.188621,44.957057],[-104.188492,44.953394],[-104.193631,44.953399],[-104.19877,44.953405],[-104.20391,44.95341],[-104.209049,44.953415],[-104.209158,44.957072],[-104.209268,44.960729],[-104.209378,44.964386],[-104.209491,44.968117],[-104.204372,44.968107],[-104.199253,44.968097],[-104.194134,44.968088],[-104.189015,44.968078]]]}},{"type":"Feature","properties":{"sec":"02","frstdivid":"WY060570N0610W0SN020"},"geometry":{"type":"Polygon","coordinates":[[[-104.14789,44.964389],[-104.148061,44.967975],[-104.142941,44.967963],[-104.137822,44.96795],[-104.132702,44.967937],[-104.127583,44.967924],[-104.127413,44.964259],[-104.127244,44.960589],[-104.127076,44.956918],[-104.126909,44.953247],[-104.132025,44.953283],[-104.13714,44.953319],[-104.142256,44.953355],[-104.147371,44.953391],[-104.147544,44.957057],[-104.147716,44.960723],[-104.14789,44.964389]]]}},{"type":"Feature","properties":{"sec":"03","frstdivid":"WY060570N0610W0SN030"},"geometry":{"type":"Polygon","coordinates":[[[-104.168216,44.960702],[-104.168377,44.964373],[-104.168537,44.968015],[-104.163418,44.968005],[-104.158299,44.967995],[-104.15318,44.967985],[-104.148061,44.967975],[-104.14789,44.964389],[-104.147716,44.960723],[-104.147544,44.957057],[-104.147371,44.953391],[-104.152501,44.953383],[-104.15763,44.953375],[-104.162759,44.953367],[-104.167889,44.953359],[-104.168053,44.957031],[-104.168216,44.960702]]]}},{"type":"Feature","properties":{"sec":"06","frstdivid":"WY060570N0610W0SN060"},"geometry":{"type":"Polygon","coordinates":[[[-104.229504,44.960852],[-104.229587,44.964509],[-104.22967,44.968167],[-104.224847,44.968153],[-104.219728,44.968139],[-104.214609,44.968128],[-104.209491,44.968117],[-104.209378,44.964386],[-104.209268,44.960729],[-104.209158,44.957072],[-104.209049,44.953415],[-104.214184,44.953446],[-104.219319,44.953477],[-104.224454,44.953508],[-104.229342,44.953537],[-104.229423,44.957195],[-104.229504,44.960852]]]}}]}