{"type":"FeatureCollection","note":"BLM Public Land Survey System. Provided by the Bureau of Land Management as is. These data are neither legal documents nor land surveys and must not be used as such.","features":[{"type":"Feature","properties":{"sec":"32","frstdivid":"MT200070N0340E0SN320"},"geometry":{"type":"Polygon","coordinates":[[[-107.487268,46.30818],[-107.4925,46.308182],[-107.497733,46.308184],[-107.502966,46.308186],[-107.508199,46.308187],[-107.508202,46.311816],[-107.508205,46.315444],[-107.508208,46.319073],[-107.508211,46.322701],[-107.50298,46.322696],[-107.497749,46.32269],[-107.492518,46.322685],[-107.487287,46.322679],[-107.487282,46.319054],[-107.487277,46.31543],[-107.487273,46.311805],[-107.487268,46.30818]]]}},{"type":"Feature","properties":{"sec":"13","frstdivid":"MT200070N0340E0SN130"},"geometry":{"type":"Polygon","coordinates":[[[-107.403711,46.358832],[-107.403709,46.355205],[-107.403706,46.351579],[-107.408933,46.351585],[-107.414159,46.351591],[-107.419386,46.351596],[-107.424613,46.351602],[-107.424617,46.355228],[-107.42462,46.358854],[-107.424624,46.362479],[-107.424628,46.366105],[-107.4194,46.3661],[-107.414172,46.366095],[-107.408944,46.36609],[-107.403716,46.366086],[-107.403714,46.362459],[-107.403711,46.358832]]]}},{"type":"Feature","properties":{"sec":"01","frstdivid":"MT200070N0340E0SN010"},"geometry":{"type":"Polygon","coordinates":[[[-107.403713,46.380593],[-107.408945,46.380597],[-107.414176,46.3806],[-107.419408,46.380604],[-107.42464,46.380607],[-107.424641,46.384229],[-107.424642,46.387851],[-107.424643,46.391472],[-107.424644,46.395093],[-107.419409,46.395095],[-107.414175,46.395098],[-107.40894,46.395101],[-107.403705,46.395103],[-107.403706,46.391479],[-107.403708,46.387854],[-107.40371,46.384224],[-107.403713,46.380593]]]}},{"type":"Feature","properties":{"sec":"12","frstdivid":"MT200070N0340E0SN120"},"geometry":{"type":"Polygon","coordinates":[[[-107.403716,46.366086],[-107.408944,46.36609],[-107.414172,46.366095],[-107.4194,46.3661],[-107.424628,46.366105],[-107.424631,46.36973],[-107.424634,46.373356],[-107.424637,46.376982],[-107.42464,46.380607],[-107.419408,46.380604],[-107.414176,46.3806],[-107.408945,46.380597],[-107.403713,46.380593],[-107.403714,46.376967],[-107.403715,46.37334],[-107.403715,46.369713],[-107.403716,46.366086]]]}},{"type":"Feature","properties":{"sec":"27","frstdivid":"MT200070N0340E0SN270"},"geometry":{"type":"Polygon","coordinates":[[[-107.445498,46.322633],[-107.450719,46.322639],[-107.455939,46.322645],[-107.46116,46.322651],[-107.466381,46.322657],[-107.466385,46.326281],[-107.466388,46.329905],[-107.466392,46.333529],[-107.466395,46.337153],[-107.461173,46.337147],[-107.455951,46.33714],[-107.450728,46.337134],[-107.445506,46.337127],[-107.445504,46.333504],[-107.445502,46.32988],[-107.4455,46.326257],[-107.445498,46.322633]]]}},{"type":"Feature","properties":{"sec":"03","frstdivid":"MT200070N0340E0SN030"},"geometry":{"type":"Polygon","coordinates":[[[-107.445544,46.380623],[-107.450769,46.380627],[-107.455993,46.380631],[-107.461218,46.380635],[-107.466442,46.38064],[-107.466448,46.384261],[-107.466453,46.387882],[-107.466458,46.391502],[-107.466463,46.395122],[-107.461236,46.395118],[-107.456009,46.395114],[-107.450783,46.39511],[-107.445556,46.395106],[-107.445553,46.391486],[-107.44555,46.387865],[-107.445547,46.384244],[-107.445544,46.380623]]]}},{"type":"Feature","properties":{"sec":"18","frstdivid":"MT200070N0340E0SN180"},"geometry":{"type":"Polygon","coordinates":[[[-107.508258,46.351696],[-107.513485,46.351702],[-107.518711,46.351708],[-107.523938,46.351714],[-107.528754,46.351719],[-107.528755,46.355342],[-107.528756,46.358964],[-107.528757,46.362586],[-107.528758,46.366208],[-107.523964,46.366204],[-107.518736,46.366199],[-107.513507,46.366194],[-107.508279,46.366189],[-107.508274,46.362566],[-107.508268,46.358943],[-107.508263,46.355319],[-107.508258,46.351696]]]}},{"type":"Feature","properties":{"sec":"14","frstdivid":"MT200070N0340E0SN140"},"geometry":{"type":"Polygon","coordinates":[[[-107.424613,46.351602],[-107.429839,46.351608],[-107.435066,46.351613],[-107.440292,46.351619],[-107.445519,46.351624],[-107.445522,46.355248],[-107.445525,46.358873],[-107.445528,46.362497],[-107.445531,46.366122],[-107.440306,46.366117],[-107.43508,46.366113],[-107.429854,46.366109],[-107.424628,46.366105],[-107.424624,46.362479],[-107.42462,46.358854],[-107.424617,46.355228],[-107.424613,46.351602]]]}},{"type":"Feature","properties":{"sec":"25","frstdivid":"MT200070N0340E0SN250"},"geometry":{"type":"Polygon","coordinates":[[[-107.403685,46.322577],[-107.408912,46.322585],[-107.414139,46.322593],[-107.419367,46.3226],[-107.424594,46.322608],[-107.424597,46.326232],[-107.4246,46.329856],[-107.424604,46.333479],[-107.424607,46.337103],[-107.419377,46.337096],[-107.414147,46.33709],[-107.408917,46.337083],[-107.403687,46.337076],[-107.403687,46.333451],[-107.403686,46.329827],[-107.403686,46.326202],[-107.403685,46.322577]]]}},{"type":"Feature","properties":{"sec":"26","frstdivid":"MT200070N0340E0SN260"},"geometry":{"type":"Polygon","coordinates":[[[-107.424594,46.322608],[-107.42982,46.322614],[-107.435046,46.322621],[-107.440272,46.322627],[-107.445498,46.322633],[-107.4455,46.326257],[-107.445502,46.32988],[-107.445504,46.333504],[-107.445506,46.337127],[-107.440281,46.337121],[-107.435056,46.337115],[-107.429832,46.337109],[-107.424607,46.337103],[-107.424604,46.333479],[-107.4246,46.329856],[-107.424597,46.326232],[-107.424594,46.322608]]]}},{"type":"Feature","properties":{"sec":"28","frstdivid":"MT200070N0340E0SN280"},"geometry":{"type":"Polygon","coordinates":[[[-107.466381,46.322657],[-107.471607,46.322663],[-107.476834,46.322668],[-107.482061,46.322674],[-107.487287,46.322679],[-107.487293,46.326304],[-107.487298,46.329929],[-107.487303,46.333554],[-107.487309,46.337178],[-107.48208,46.337172],[-107.476852,46.337166],[-107.471624,46.33716],[-107.466395,46.337153],[-107.466392,46.333529],[-107.466388,46.329905],[-107.466385,46.326281],[-107.466381,46.322657]]]}},{"type":"Feature","properties":{"sec":"29","frstdivid":"MT200070N0340E0SN290"},"geometry":{"type":"Polygon","coordinates":[[[-107.487287,46.322679],[-107.492518,46.322685],[-107.497749,46.32269],[-107.50298,46.322696],[-107.508211,46.322701],[-107.508217,46.326326],[-107.508223,46.329951],[-107.50823,46.333576],[-107.508236,46.337201],[-107.503004,46.337195],[-107.497772,46.33719],[-107.492541,46.337184],[-107.487309,46.337178],[-107.487303,46.333554],[-107.487298,46.329929],[-107.487293,46.326304],[-107.487287,46.322679]]]}},{"type":"Feature","properties":{"sec":"07","frstdivid":"MT200070N0340E0SN070"},"geometry":{"type":"Polygon","coordinates":[[[-107.508279,46.366189],[-107.513507,46.366194],[-107.518736,46.366199],[-107.523964,46.366204],[-107.528758,46.366208],[-107.528762,46.36983],[-107.528765,46.373452],[-107.528769,46.377073],[-107.528772,46.380695],[-107.523983,46.380691],[-107.518754,46.380687],[-107.513525,46.380683],[-107.508297,46.380678],[-107.508292,46.377056],[-107.508288,46.373434],[-107.508283,46.369811],[-107.508279,46.366189]]]}},{"type":"Feature","properties":{"sec":"22","frstdivid":"MT200070N0340E0SN220"},"geometry":{"type":"Polygon","coordinates":[[[-107.445506,46.337127],[-107.450728,46.337134],[-107.455951,46.33714],[-107.461173,46.337147],[-107.466395,46.337153],[-107.466399,46.340777],[-107.466403,46.344401],[-107.466407,46.348025],[-107.466411,46.351649],[-107.461188,46.351643],[-107.455965,46.351636],[-107.450742,46.35163],[-107.445519,46.351624],[-107.445515,46.348],[-107.445512,46.344376],[-107.445509,46.340752],[-107.445506,46.337127]]]}},{"type":"Feature","properties":{"sec":"33","frstdivid":"MT200070N0340E0SN330"},"geometry":{"type":"Polygon","coordinates":[[[-107.466375,46.311788],[-107.466373,46.308164],[-107.471597,46.308168],[-107.476821,46.308172],[-107.482044,46.308176],[-107.487268,46.30818],[-107.487273,46.311805],[-107.487277,46.31543],[-107.487282,46.319054],[-107.487287,46.322679],[-107.482061,46.322674],[-107.476834,46.322668],[-107.471607,46.322663],[-107.466381,46.322657],[-107.466379,46.319034],[-107.466377,46.315411],[-107.466375,46.311788]]]}},{"type":"Feature","properties":{"sec":"31","frstdivid":"MT200070N0340E0SN310"},"geometry":{"type":"Polygon","coordinates":[[[-107.508199,46.308187],[-107.513412,46.3082],[-107.518626,46.308212],[-107.523844,46.308223],[-107.528671,46.308232],[-107.528684,46.311857],[-107.528698,46.315482],[-107.528711,46.319107],[-107.528725,46.322733],[-107.523874,46.322725],[-107.518652,46.322717],[-107.513431,46.322709],[-107.508211,46.322701],[-107.508208,46.319073],[-107.508205,46.315444],[-107.508202,46.311816],[-107.508199,46.308187]]]}},{"type":"Feature","properties":{"sec":"11","frstdivid":"MT200070N0340E0SN110"},"geometry":{"type":"Polygon","coordinates":[[[-107.424628,46.366105],[-107.429854,46.366109],[-107.43508,46.366113],[-107.440306,46.366117],[-107.445531,46.366122],[-107.445535,46.369747],[-107.445538,46.373372],[-107.445541,46.376997],[-107.445544,46.380623],[-107.440318,46.380619],[-107.435092,46.380615],[-107.429866,46.380611],[-107.42464,46.380607],[-107.424637,46.376982],[-107.424634,46.373356],[-107.424631,46.36973],[-107.424628,46.366105]]]}},{"type":"Feature","properties":{"sec":"23","frstdivid":"MT200070N0340E0SN230"},"geometry":{"type":"Polygon","coordinates":[[[-107.424608,46.340728],[-107.424607,46.337103],[-107.429832,46.337109],[-107.435056,46.337115],[-107.440281,46.337121],[-107.445506,46.337127],[-107.445509,46.340752],[-107.445512,46.344376],[-107.445515,46.348],[-107.445519,46.351624],[-107.440292,46.351619],[-107.435066,46.351613],[-107.429839,46.351608],[-107.424613,46.351602],[-107.424611,46.347978],[-107.42461,46.344353],[-107.424608,46.340728]]]}},{"type":"Feature","properties":{"sec":"20","frstdivid":"MT200070N0340E0SN200"},"geometry":{"type":"Polygon","coordinates":[[[-107.487321,46.344425],[-107.487315,46.340802],[-107.487309,46.337178],[-107.492541,46.337184],[-107.497772,46.33719],[-107.503004,46.337195],[-107.508236,46.337201],[-107.508241,46.340825],[-107.508247,46.344449],[-107.508253,46.348072],[-107.508258,46.351696],[-107.503027,46.35169],[-107.497795,46.351684],[-107.492564,46.351678],[-107.487333,46.351672],[-107.487327,46.348049],[-107.487321,46.344425]]]}},{"type":"Feature","properties":{"sec":"30","frstdivid":"MT200070N0340E0SN300"},"geometry":{"type":"Polygon","coordinates":[[[-107.508211,46.322701],[-107.513431,46.322709],[-107.518652,46.322717],[-107.523874,46.322725],[-107.528725,46.322733],[-107.528731,46.326357],[-107.528736,46.32998],[-107.528742,46.333604],[-107.528747,46.337228],[-107.523911,46.337222],[-107.518686,46.337215],[-107.513461,46.337208],[-107.508236,46.337201],[-107.50823,46.333576],[-107.508223,46.329951],[-107.508217,46.326326],[-107.508211,46.322701]]]}},{"type":"Feature","properties":{"sec":"19","frstdivid":"MT200070N0340E0SN190"},"geometry":{"type":"Polygon","coordinates":[[[-107.513461,46.337208],[-107.518686,46.337215],[-107.523911,46.337222],[-107.528747,46.337228],[-107.528749,46.340851],[-107.528751,46.344474],[-107.528752,46.348097],[-107.528754,46.351719],[-107.523938,46.351714],[-107.518711,46.351708],[-107.513485,46.351702],[-107.508258,46.351696],[-107.508253,46.348072],[-107.508247,46.344449],[-107.508241,46.340825],[-107.508236,46.337201],[-107.513461,46.337208]]]}},{"type":"Feature","properties":{"sec":"04","frstdivid":"MT200070N0340E0SN040"},"geometry":{"type":"Polygon","coordinates":[[[-107.482162,46.395135],[-107.476929,46.395131],[-107.471696,46.395126],[-107.466463,46.395122],[-107.466458,46.391502],[-107.466453,46.387882],[-107.466448,46.384261],[-107.466442,46.38064],[-107.471675,46.380644],[-107.476907,46.380648],[-107.482139,46.380653],[-107.487371,46.380657],[-107.487377,46.384278],[-107.487383,46.387899],[-107.487389,46.391519],[-107.487395,46.395139],[-107.482162,46.395135]]]}},{"type":"Feature","properties":{"sec":"06","frstdivid":"MT200070N0340E0SN060"},"geometry":{"type":"Polygon","coordinates":[[[-107.508297,46.380678],[-107.513525,46.380683],[-107.518754,46.380687],[-107.523983,46.380691],[-107.528772,46.380695],[-107.528774,46.384317],[-107.528776,46.387938],[-107.528777,46.391558],[-107.528778,46.395173],[-107.524007,46.39517],[-107.518778,46.395166],[-107.513552,46.395162],[-107.508325,46.395159],[-107.508318,46.391539],[-107.508311,46.387919],[-107.508304,46.384299],[-107.508297,46.380678]]]}},{"type":"Feature","properties":{"sec":"09","frstdivid":"MT200070N0340E0SN090"},"geometry":{"type":"Polygon","coordinates":[[[-107.466425,46.366145],[-107.471656,46.36615],[-107.476888,46.366155],[-107.482119,46.36616],[-107.487351,46.366165],[-107.487356,46.369788],[-107.487361,46.373411],[-107.487366,46.377034],[-107.487371,46.380657],[-107.482139,46.380653],[-107.476907,46.380648],[-107.471675,46.380644],[-107.466442,46.38064],[-107.466438,46.377016],[-107.466434,46.373392],[-107.466429,46.369769],[-107.466425,46.366145]]]}},{"type":"Feature","properties":{"sec":"21","frstdivid":"MT200070N0340E0SN210"},"geometry":{"type":"Polygon","coordinates":[[[-107.466395,46.337153],[-107.471624,46.33716],[-107.476852,46.337166],[-107.48208,46.337172],[-107.487309,46.337178],[-107.487315,46.340802],[-107.487321,46.344425],[-107.487327,46.348049],[-107.487333,46.351672],[-107.482102,46.351667],[-107.476872,46.351661],[-107.471642,46.351655],[-107.466411,46.351649],[-107.466407,46.348025],[-107.466403,46.344401],[-107.466399,46.340777],[-107.466395,46.337153]]]}},{"type":"Feature","properties":{"sec":"02","frstdivid":"MT200070N0340E0SN020"},"geometry":{"type":"Polygon","coordinates":[[[-107.424643,46.391472],[-107.424642,46.387851],[-107.424641,46.384229],[-107.42464,46.380607],[-107.429866,46.380611],[-107.435092,46.380615],[-107.440318,46.380619],[-107.445544,46.380623],[-107.445547,46.384244],[-107.44555,46.387865],[-107.445553,46.391486],[-107.445556,46.395106],[-107.440328,46.395103],[-107.4351,46.395099],[-107.429872,46.395096],[-107.424644,46.395093],[-107.424643,46.391472]]]}},{"type":"Feature","properties":{"sec":"15","frstdivid":"MT200070N0340E0SN150"},"geometry":{"type":"Polygon","coordinates":[[[-107.445525,46.358873],[-107.445522,46.355248],[-107.445519,46.351624],[-107.450742,46.35163],[-107.455965,46.351636],[-107.461188,46.351643],[-107.466411,46.351649],[-107.466414,46.355273],[-107.466418,46.358897],[-107.466421,46.362521],[-107.466425,46.366145],[-107.461201,46.366139],[-107.455978,46.366133],[-107.450755,46.366128],[-107.445531,46.366122],[-107.445528,46.362497],[-107.445525,46.358873]]]}},{"type":"Feature","properties":{"sec":"34","frstdivid":"MT200070N0340E0SN340"},"geometry":{"type":"Polygon","coordinates":[[[-107.445506,46.308141],[-107.450723,46.308147],[-107.45594,46.308153],[-107.461157,46.308158],[-107.466373,46.308164],[-107.466375,46.311788],[-107.466377,46.315411],[-107.466379,46.319034],[-107.466381,46.322657],[-107.46116,46.322651],[-107.455939,46.322645],[-107.450719,46.322639],[-107.445498,46.322633],[-107.4455,46.31901],[-107.445502,46.315387],[-107.445504,46.311764],[-107.445506,46.308141]]]}},{"type":"Feature","properties":{"sec":"08","frstdivid":"MT200070N0340E0SN080"},"geometry":{"type":"Polygon","coordinates":[[[-107.508297,46.380678],[-107.503065,46.380673],[-107.497834,46.380668],[-107.492602,46.380663],[-107.487371,46.380657],[-107.487366,46.377034],[-107.487361,46.373411],[-107.487356,46.369788],[-107.487351,46.366165],[-107.492583,46.366171],[-107.497815,46.366177],[-107.503047,46.366183],[-107.508279,46.366189],[-107.508283,46.369811],[-107.508288,46.373434],[-107.508292,46.377056],[-107.508297,46.380678]]]}},{"type":"Feature","properties":{"sec":"05","frstdivid":"MT200070N0340E0SN050"},"geometry":{"type":"Polygon","coordinates":[[[-107.487377,46.384278],[-107.487371,46.380657],[-107.492602,46.380663],[-107.497834,46.380668],[-107.503065,46.380673],[-107.508297,46.380678],[-107.508304,46.384299],[-107.508311,46.387919],[-107.508318,46.391539],[-107.508325,46.395159],[-107.503093,46.395154],[-107.49786,46.395149],[-107.492628,46.395144],[-107.487395,46.395139],[-107.487389,46.391519],[-107.487383,46.387899],[-107.487377,46.384278]]]}},{"type":"Feature","properties":{"sec":"35","frstdivid":"MT200070N0340E0SN350"},"geometry":{"type":"Polygon","coordinates":[[[-107.424577,46.315365],[-107.424569,46.311744],[-107.424561,46.308122],[-107.429797,46.308127],[-107.435034,46.308132],[-107.44027,46.308136],[-107.445506,46.308141],[-107.445504,46.311764],[-107.445502,46.315387],[-107.4455,46.31901],[-107.445498,46.322633],[-107.440272,46.322627],[-107.435046,46.322621],[-107.42982,46.322614],[-107.424594,46.322608],[-107.424585,46.318987],[-107.424577,46.315365]]]}},{"type":"Feature","properties":{"sec":"17","frstdivid":"MT200070N0340E0SN170"},"geometry":{"type":"Polygon","coordinates":[[[-107.487333,46.351672],[-107.492564,46.351678],[-107.497795,46.351684],[-107.503027,46.35169],[-107.508258,46.351696],[-107.508263,46.355319],[-107.508268,46.358943],[-107.508274,46.362566],[-107.508279,46.366189],[-107.503047,46.366183],[-107.497815,46.366177],[-107.492583,46.366171],[-107.487351,46.366165],[-107.487347,46.362542],[-107.487342,46.358919],[-107.487337,46.355296],[-107.487333,46.351672]]]}},{"type":"Feature","properties":{"sec":"36","frstdivid":"MT200070N0340E0SN360"},"geometry":{"type":"Polygon","coordinates":[[[-107.403679,46.311807],[-107.403677,46.308217],[-107.408898,46.308194],[-107.414119,46.30817],[-107.41934,46.308147],[-107.424561,46.308122],[-107.424569,46.311744],[-107.424577,46.315365],[-107.424585,46.318987],[-107.424594,46.322608],[-107.419367,46.3226],[-107.414139,46.322593],[-107.408912,46.322585],[-107.403685,46.322577],[-107.403683,46.318987],[-107.403681,46.315397],[-107.403679,46.311807]]]}},{"type":"Feature","properties":{"sec":"24","frstdivid":"MT200070N0340E0SN240"},"geometry":{"type":"Polygon","coordinates":[[[-107.403687,46.337076],[-107.408917,46.337083],[-107.414147,46.33709],[-107.419377,46.337096],[-107.424607,46.337103],[-107.424608,46.340728],[-107.42461,46.344353],[-107.424611,46.347978],[-107.424613,46.351602],[-107.419386,46.351596],[-107.414159,46.351591],[-107.408933,46.351585],[-107.403706,46.351579],[-107.403701,46.347953],[-107.403697,46.344327],[-107.403692,46.340702],[-107.403687,46.337076]]]}},{"type":"Feature","properties":{"sec":"10","frstdivid":"MT200070N0340E0SN100"},"geometry":{"type":"Polygon","coordinates":[[[-107.445531,46.366122],[-107.450755,46.366128],[-107.455978,46.366133],[-107.461201,46.366139],[-107.466425,46.366145],[-107.466429,46.369769],[-107.466434,46.373392],[-107.466438,46.377016],[-107.466442,46.38064],[-107.461218,46.380635],[-107.455993,46.380631],[-107.450769,46.380627],[-107.445544,46.380623],[-107.445541,46.376997],[-107.445538,46.373372],[-107.445535,46.369747],[-107.445531,46.366122]]]}},{"type":"Feature","properties":{"sec":"16","frstdivid":"MT200070N0340E0SN160"},"geometry":{"type":"Polygon","coordinates":[[[-107.466418,46.358897],[-107.466414,46.355273],[-107.466411,46.351649],[-107.471642,46.351655],[-107.476872,46.351661],[-107.482102,46.351667],[-107.487333,46.351672],[-107.487337,46.355296],[-107.487342,46.358919],[-107.487347,46.362542],[-107.487351,46.366165],[-107.482119,46.36616],[-107.476888,46.366155],[-107.471656,46.36615],[-107.466425,46.366145],[-107.466421,46.362521],[-107.466418,46.358897]]]}}]}