{"type":"FeatureCollection","note":"BLM Public Land Survey System. Provided by the Bureau of Land Management as is. These data are neither legal documents nor land surveys and must not be used as such.","features":[{"type":"Feature","properties":{"sec":"27","frstdivid":"MT200100N0600E0SN270"},"geometry":{"type":"Polygon","coordinates":[[[-104.144376,46.583646],[-104.149694,46.583634],[-104.154974,46.583624],[-104.160254,46.583613],[-104.165533,46.583602],[-104.165542,46.587228],[-104.16555,46.590854],[-104.165558,46.59448],[-104.165567,46.598106],[-104.160286,46.59811],[-104.155004,46.598114],[-104.149723,46.598118],[-104.144442,46.598122],[-104.144435,46.594503],[-104.144428,46.590884],[-104.144383,46.587265],[-104.144376,46.583646]]]}},{"type":"Feature","properties":{"sec":"34","frstdivid":"MT200100N0600E0SN340"},"geometry":{"type":"Polygon","coordinates":[[[-104.14437,46.569095],[-104.14968,46.569088],[-104.154951,46.569081],[-104.160221,46.569074],[-104.165492,46.569067],[-104.165503,46.572701],[-104.165513,46.576335],[-104.165523,46.579968],[-104.165533,46.583602],[-104.160254,46.583613],[-104.154974,46.583624],[-104.149694,46.583634],[-104.144376,46.583646],[-104.144375,46.580008],[-104.144373,46.576371],[-104.144371,46.572733],[-104.14437,46.569095]]]}},{"type":"Feature","properties":{"sec":"17","frstdivid":"MT200100N0600E0SN170"},"geometry":{"type":"Polygon","coordinates":[[[-104.20776,46.616189],[-104.207767,46.619808],[-104.207775,46.623428],[-104.207783,46.627047],[-104.202508,46.627055],[-104.197232,46.627064],[-104.191956,46.627072],[-104.186681,46.62708],[-104.186672,46.623459],[-104.186664,46.619837],[-104.186655,46.616215],[-104.186646,46.612594],[-104.191923,46.612588],[-104.197199,46.612582],[-104.202475,46.612576],[-104.207752,46.61257],[-104.20776,46.616189]]]}},{"type":"Feature","properties":{"sec":"31","frstdivid":"MT200100N0600E0SN310"},"geometry":{"type":"Polygon","coordinates":[[[-104.207703,46.569081],[-104.212981,46.569084],[-104.218258,46.569087],[-104.223521,46.569089],[-104.22852,46.569091],[-104.228518,46.572716],[-104.228517,46.576341],[-104.228515,46.579965],[-104.228514,46.58359],[-104.223475,46.583592],[-104.218223,46.583594],[-104.212968,46.583593],[-104.207713,46.583592],[-104.207711,46.579964],[-104.207708,46.576336],[-104.207706,46.572708],[-104.207703,46.569081]]]}},{"type":"Feature","properties":{"sec":"15","frstdivid":"MT200100N0600E0SN150"},"geometry":{"type":"Polygon","coordinates":[[[-104.155017,46.612596],[-104.160298,46.612595],[-104.16558,46.612594],[-104.165583,46.616214],[-104.165587,46.619834],[-104.165591,46.623454],[-104.165595,46.627074],[-104.160319,46.627075],[-104.155043,46.627077],[-104.149767,46.627078],[-104.144491,46.627079],[-104.144475,46.623458],[-104.144457,46.619838],[-104.144457,46.616218],[-104.144455,46.612598],[-104.149736,46.612597],[-104.155017,46.612596]]]}},{"type":"Feature","properties":{"sec":"19","frstdivid":"MT200100N0600E0SN190"},"geometry":{"type":"Polygon","coordinates":[[[-104.207715,46.598069],[-104.212973,46.598076],[-104.21823,46.598083],[-104.223484,46.59809],[-104.228511,46.598098],[-104.228515,46.601718],[-104.22852,46.605339],[-104.228524,46.608959],[-104.228528,46.612579],[-104.223518,46.612578],[-104.218264,46.612577],[-104.213008,46.612573],[-104.207752,46.61257],[-104.207743,46.608945],[-104.207734,46.605319],[-104.207725,46.601694],[-104.207715,46.598069]]]}},{"type":"Feature","properties":{"sec":"10","frstdivid":"MT200100N0600E0SN100"},"geometry":{"type":"Polygon","coordinates":[[[-104.144446,46.630707],[-104.144491,46.627079],[-104.149767,46.627078],[-104.155043,46.627077],[-104.160319,46.627075],[-104.165595,46.627074],[-104.165513,46.630715],[-104.165509,46.634345],[-104.165505,46.637975],[-104.165501,46.641605],[-104.160228,46.641622],[-104.154955,46.64164],[-104.149682,46.641657],[-104.144408,46.641674],[-104.144435,46.637991],[-104.144445,46.634341],[-104.144446,46.630707]]]}},{"type":"Feature","properties":{"sec":"28","frstdivid":"MT200100N0600E0SN280"},"geometry":{"type":"Polygon","coordinates":[[[-104.165533,46.583602],[-104.170795,46.583599],[-104.176056,46.583595],[-104.181318,46.583592],[-104.186579,46.583588],[-104.186586,46.587217],[-104.186592,46.590845],[-104.186598,46.594473],[-104.186605,46.598101],[-104.181345,46.598102],[-104.176086,46.598103],[-104.170826,46.598105],[-104.165567,46.598106],[-104.165558,46.59448],[-104.16555,46.590854],[-104.165542,46.587228],[-104.165533,46.583602]]]}},{"type":"Feature","properties":{"sec":"33","frstdivid":"MT200100N0600E0SN330"},"geometry":{"type":"Polygon","coordinates":[[[-104.176056,46.583595],[-104.170795,46.583599],[-104.165533,46.583602],[-104.165523,46.579968],[-104.165513,46.576335],[-104.165503,46.572701],[-104.165492,46.569067],[-104.170761,46.569068],[-104.17603,46.569069],[-104.181299,46.56907],[-104.186568,46.569072],[-104.186571,46.572701],[-104.186573,46.57633],[-104.186576,46.579959],[-104.186579,46.583588],[-104.181318,46.583592],[-104.176056,46.583595]]]}},{"type":"Feature","properties":{"sec":"06","frstdivid":"MT200100N0600E0SN060"},"geometry":{"type":"Polygon","coordinates":[[[-104.207704,46.652467],[-104.207684,46.648844],[-104.207677,46.645218],[-104.20767,46.641593],[-104.212926,46.641605],[-104.218182,46.641617],[-104.223437,46.64163],[-104.228403,46.641642],[-104.228399,46.645272],[-104.228395,46.648901],[-104.228391,46.652531],[-104.228387,46.65616],[-104.223634,46.656154],[-104.21835,46.656146],[-104.213037,46.656128],[-104.207724,46.656109],[-104.207704,46.652467]]]}},{"type":"Feature","properties":{"sec":"07","frstdivid":"MT200100N0600E0SN070"},"geometry":{"type":"Polygon","coordinates":[[[-104.207783,46.627047],[-104.213038,46.627056],[-104.218293,46.627065],[-104.223546,46.627075],[-104.228545,46.627085],[-104.228547,46.63071],[-104.228403,46.634386],[-104.228403,46.638014],[-104.228403,46.641642],[-104.223437,46.64163],[-104.218182,46.641617],[-104.212926,46.641605],[-104.20767,46.641593],[-104.207662,46.637967],[-104.207655,46.63434],[-104.207648,46.630714],[-104.207783,46.627047]]]}},{"type":"Feature","properties":{"sec":"14","frstdivid":"MT200100N0600E0SN140"},"geometry":{"type":"Polygon","coordinates":[[[-104.123298,46.612601],[-104.128578,46.6126],[-104.133858,46.6126],[-104.139138,46.612599],[-104.144455,46.612598],[-104.144457,46.616218],[-104.144457,46.619838],[-104.144475,46.623458],[-104.144491,46.627079],[-104.139141,46.627071],[-104.133871,46.627068],[-104.128604,46.627074],[-104.123339,46.627084],[-104.123334,46.623475],[-104.12332,46.619845],[-104.123308,46.616221],[-104.123298,46.612601]]]}},{"type":"Feature","properties":{"sec":"29","frstdivid":"MT200100N0600E0SN290"},"geometry":{"type":"Polygon","coordinates":[[[-104.186592,46.590845],[-104.186586,46.587217],[-104.186579,46.583588],[-104.191863,46.583589],[-104.197146,46.58359],[-104.20243,46.583591],[-104.207713,46.583592],[-104.207714,46.587211],[-104.207714,46.59083],[-104.207715,46.59445],[-104.207715,46.598069],[-104.202434,46.598079],[-104.197155,46.598093],[-104.191879,46.598095],[-104.186605,46.598101],[-104.186598,46.594473],[-104.186592,46.590845]]]}},{"type":"Feature","properties":{"sec":"09","frstdivid":"MT200100N0600E0SN090"},"geometry":{"type":"Polygon","coordinates":[[[-104.165595,46.627074],[-104.170866,46.627076],[-104.176138,46.627077],[-104.181409,46.627079],[-104.186681,46.62708],[-104.186562,46.630732],[-104.186558,46.634357],[-104.186568,46.637978],[-104.186578,46.641599],[-104.181308,46.6416],[-104.176039,46.641602],[-104.17077,46.641604],[-104.165501,46.641605],[-104.165505,46.637975],[-104.165509,46.634345],[-104.165513,46.630715],[-104.165595,46.627074]]]}},{"type":"Feature","properties":{"sec":"03","frstdivid":"MT200100N0600E0SN030"},"geometry":{"type":"Polygon","coordinates":[[[-104.144422,46.652515],[-104.144419,46.648902],[-104.144414,46.645288],[-104.144408,46.641674],[-104.149682,46.641657],[-104.154955,46.64164],[-104.160228,46.641622],[-104.165501,46.641605],[-104.165522,46.645223],[-104.165544,46.64884],[-104.165562,46.652457],[-104.165579,46.656035],[-104.16029,46.656052],[-104.155002,46.65607],[-104.149713,46.656087],[-104.144424,46.656104],[-104.144422,46.652515]]]}},{"type":"Feature","properties":{"sec":"11","frstdivid":"MT200100N0600E0SN110"},"geometry":{"type":"Polygon","coordinates":[[[-104.123339,46.627084],[-104.128604,46.627074],[-104.133871,46.627068],[-104.139141,46.627071],[-104.144491,46.627079],[-104.144446,46.630707],[-104.144445,46.634341],[-104.144435,46.637991],[-104.144408,46.641674],[-104.139122,46.64167],[-104.133836,46.641665],[-104.12855,46.641661],[-104.123263,46.641656],[-104.123305,46.638005],[-104.123347,46.634355],[-104.123338,46.630722],[-104.123339,46.627084]]]}},{"type":"Feature","properties":{"sec":"32","frstdivid":"MT200100N0600E0SN320"},"geometry":{"type":"Polygon","coordinates":[[[-104.186568,46.569072],[-104.191852,46.569074],[-104.197136,46.569076],[-104.202419,46.569078],[-104.207703,46.569081],[-104.207706,46.572708],[-104.207708,46.576336],[-104.207711,46.579964],[-104.207713,46.583592],[-104.20243,46.583591],[-104.197146,46.58359],[-104.191863,46.583589],[-104.186579,46.583588],[-104.186576,46.579959],[-104.186573,46.57633],[-104.186571,46.572701],[-104.186568,46.569072]]]}},{"type":"Feature","properties":{"sec":"02","frstdivid":"MT200100N0600E0SN020"},"geometry":{"type":"Polygon","coordinates":[[[-104.123263,46.641656],[-104.12855,46.641661],[-104.133836,46.641665],[-104.139122,46.64167],[-104.144408,46.641674],[-104.144414,46.645288],[-104.144419,46.648902],[-104.144422,46.652515],[-104.144424,46.656104],[-104.139143,46.656094],[-104.133861,46.656084],[-104.12858,46.656074],[-104.123299,46.656064],[-104.123293,46.652477],[-104.123287,46.648871],[-104.123275,46.645264],[-104.123263,46.641656]]]}},{"type":"Feature","properties":{"sec":"20","frstdivid":"MT200100N0600E0SN200"},"geometry":{"type":"Polygon","coordinates":[[[-104.202434,46.598079],[-104.207715,46.598069],[-104.207725,46.601694],[-104.207734,46.605319],[-104.207743,46.608945],[-104.207752,46.61257],[-104.202475,46.612576],[-104.197199,46.612582],[-104.191923,46.612588],[-104.186646,46.612594],[-104.186636,46.608971],[-104.186626,46.605347],[-104.186615,46.601724],[-104.186605,46.598101],[-104.191879,46.598095],[-104.197155,46.598093],[-104.202434,46.598079]]]}},{"type":"Feature","properties":{"sec":"30","frstdivid":"MT200100N0600E0SN300"},"geometry":{"type":"Polygon","coordinates":[[[-104.207715,46.59445],[-104.207714,46.59083],[-104.207714,46.587211],[-104.207713,46.583592],[-104.212968,46.583593],[-104.218223,46.583594],[-104.223475,46.583592],[-104.228514,46.58359],[-104.228513,46.587217],[-104.228512,46.590844],[-104.228512,46.594471],[-104.228511,46.598098],[-104.223484,46.59809],[-104.21823,46.598083],[-104.212973,46.598076],[-104.207715,46.598069],[-104.207715,46.59445]]]}},{"type":"Feature","properties":{"sec":"08","frstdivid":"MT200100N0600E0SN080"},"geometry":{"type":"Polygon","coordinates":[[[-104.186558,46.634357],[-104.186562,46.630732],[-104.186681,46.62708],[-104.191956,46.627072],[-104.197232,46.627064],[-104.202508,46.627055],[-104.207783,46.627047],[-104.207648,46.630714],[-104.207655,46.63434],[-104.207662,46.637967],[-104.20767,46.641593],[-104.202397,46.641594],[-104.197124,46.641596],[-104.191851,46.641597],[-104.186578,46.641599],[-104.186568,46.637978],[-104.186558,46.634357]]]}},{"type":"Feature","properties":{"sec":"21","frstdivid":"MT200100N0600E0SN210"},"geometry":{"type":"Polygon","coordinates":[[[-104.165567,46.598106],[-104.170826,46.598105],[-104.176086,46.598103],[-104.181345,46.598102],[-104.186605,46.598101],[-104.186615,46.601724],[-104.186626,46.605347],[-104.186636,46.608971],[-104.186646,46.612594],[-104.18138,46.612594],[-104.176113,46.612594],[-104.170846,46.612594],[-104.16558,46.612594],[-104.165576,46.608972],[-104.165573,46.60535],[-104.16557,46.601728],[-104.165567,46.598106]]]}},{"type":"Feature","properties":{"sec":"22","frstdivid":"MT200100N0600E0SN220"},"geometry":{"type":"Polygon","coordinates":[[[-104.16558,46.612594],[-104.160298,46.612595],[-104.155017,46.612596],[-104.149736,46.612597],[-104.144455,46.612598],[-104.144452,46.608979],[-104.144448,46.60536],[-104.144445,46.601741],[-104.144442,46.598122],[-104.149723,46.598118],[-104.155004,46.598114],[-104.160286,46.59811],[-104.165567,46.598106],[-104.16557,46.601728],[-104.165573,46.60535],[-104.165576,46.608972],[-104.16558,46.612594]]]}},{"type":"Feature","properties":{"sec":"18","frstdivid":"MT200100N0600E0SN180"},"geometry":{"type":"Polygon","coordinates":[[[-104.20776,46.616189],[-104.207752,46.61257],[-104.213008,46.612573],[-104.218264,46.612577],[-104.223518,46.612578],[-104.228528,46.612579],[-104.228532,46.616206],[-104.228537,46.619832],[-104.228541,46.623458],[-104.228545,46.627085],[-104.223546,46.627075],[-104.218293,46.627065],[-104.213038,46.627056],[-104.207783,46.627047],[-104.207775,46.623428],[-104.207767,46.619808],[-104.20776,46.616189]]]}},{"type":"Feature","properties":{"sec":"04","frstdivid":"MT200100N0600E0SN040"},"geometry":{"type":"Polygon","coordinates":[[[-104.165501,46.641605],[-104.17077,46.641604],[-104.176039,46.641602],[-104.181308,46.6416],[-104.186578,46.641599],[-104.186584,46.645223],[-104.18659,46.648848],[-104.186606,46.652469],[-104.186629,46.656074],[-104.181367,46.656064],[-104.176104,46.656054],[-104.170842,46.656045],[-104.165579,46.656035],[-104.165562,46.652457],[-104.165544,46.64884],[-104.165522,46.645223],[-104.165501,46.641605]]]}},{"type":"Feature","properties":{"sec":"16","frstdivid":"MT200100N0600E0SN160"},"geometry":{"type":"Polygon","coordinates":[[[-104.16558,46.612594],[-104.170846,46.612594],[-104.176113,46.612594],[-104.18138,46.612594],[-104.186646,46.612594],[-104.186655,46.616215],[-104.186664,46.619837],[-104.186672,46.623459],[-104.186681,46.62708],[-104.181409,46.627079],[-104.176138,46.627077],[-104.170866,46.627076],[-104.165595,46.627074],[-104.165591,46.623454],[-104.165587,46.619834],[-104.165583,46.616214],[-104.16558,46.612594]]]}},{"type":"Feature","properties":{"sec":"05","frstdivid":"MT200100N0600E0SN050"},"geometry":{"type":"Polygon","coordinates":[[[-104.186584,46.645223],[-104.186578,46.641599],[-104.191851,46.641597],[-104.197124,46.641596],[-104.202397,46.641594],[-104.20767,46.641593],[-104.207677,46.645218],[-104.207684,46.648844],[-104.207704,46.652467],[-104.207724,46.656109],[-104.202443,46.656102],[-104.197169,46.656093],[-104.191899,46.656083],[-104.186629,46.656074],[-104.186606,46.652469],[-104.18659,46.648848],[-104.186584,46.645223]]]}},{"type":"Feature","properties":{"sec":"01","frstdivid":"MT200100N0600E0SN010"},"geometry":{"type":"Polygon","coordinates":[[[-104.10222,46.641587],[-104.107481,46.641604],[-104.112742,46.641622],[-104.118002,46.641639],[-104.123263,46.641656],[-104.123275,46.645264],[-104.123287,46.648871],[-104.123293,46.652477],[-104.123299,46.656064],[-104.118011,46.656081],[-104.112724,46.656097],[-104.107436,46.656113],[-104.102148,46.656129],[-104.102166,46.652494],[-104.102184,46.648858],[-104.102202,46.645222],[-104.10222,46.641587]]]}},{"type":"Feature","properties":{"sec":"35","frstdivid":"MT200100N0600E0SN350"},"geometry":{"type":"Polygon","coordinates":[[[-104.123343,46.569118],[-104.128596,46.569112],[-104.133848,46.569107],[-104.139101,46.569101],[-104.14437,46.569095],[-104.144371,46.572733],[-104.144373,46.576371],[-104.144375,46.580008],[-104.144376,46.583646],[-104.139101,46.583643],[-104.133825,46.583639],[-104.12855,46.583636],[-104.123274,46.583632],[-104.123285,46.580004],[-104.123305,46.576375],[-104.123324,46.572747],[-104.123343,46.569118]]]}},{"type":"Feature","properties":{"sec":"23","frstdivid":"MT200100N0600E0SN230"},"geometry":{"type":"Polygon","coordinates":[[[-104.123295,46.608979],[-104.123292,46.605358],[-104.123289,46.601736],[-104.123286,46.598115],[-104.128565,46.598117],[-104.133845,46.598119],[-104.139125,46.598121],[-104.144442,46.598122],[-104.144445,46.601741],[-104.144448,46.60536],[-104.144452,46.608979],[-104.144455,46.612598],[-104.139138,46.612599],[-104.133858,46.6126],[-104.128578,46.6126],[-104.123298,46.612601],[-104.123295,46.608979]]]}},{"type":"Feature","properties":{"sec":"25","frstdivid":"MT200100N0600E0SN250"},"geometry":{"type":"Polygon","coordinates":[[[-104.102236,46.594503],[-104.102248,46.590882],[-104.10226,46.587261],[-104.102272,46.58364],[-104.10752,46.583638],[-104.112769,46.583636],[-104.118017,46.583634],[-104.123274,46.583632],[-104.123277,46.587253],[-104.12328,46.590873],[-104.123283,46.594494],[-104.123286,46.598115],[-104.118021,46.598117],[-104.112755,46.598119],[-104.10749,46.598122],[-104.102225,46.598124],[-104.102236,46.594503]]]}},{"type":"Feature","properties":{"sec":"26","frstdivid":"MT200100N0600E0SN260"},"geometry":{"type":"Polygon","coordinates":[[[-104.123283,46.594494],[-104.12328,46.590873],[-104.123277,46.587253],[-104.123274,46.583632],[-104.12855,46.583636],[-104.133825,46.583639],[-104.139101,46.583643],[-104.144376,46.583646],[-104.144383,46.587265],[-104.144428,46.590884],[-104.144435,46.594503],[-104.144442,46.598122],[-104.139125,46.598121],[-104.133845,46.598119],[-104.128565,46.598117],[-104.123286,46.598115],[-104.123283,46.594494]]]}},{"type":"Feature","properties":{"sec":"12","frstdivid":"MT200100N0600E0SN120"},"geometry":{"type":"Polygon","coordinates":[[[-104.102324,46.627038],[-104.107577,46.627054],[-104.112829,46.627069],[-104.118082,46.627085],[-104.123339,46.627084],[-104.123338,46.630722],[-104.123347,46.634355],[-104.123305,46.638005],[-104.123263,46.641656],[-104.118002,46.641639],[-104.112742,46.641622],[-104.107481,46.641604],[-104.10222,46.641587],[-104.102246,46.63795],[-104.102272,46.634312],[-104.102298,46.630675],[-104.102324,46.627038]]]}},{"type":"Feature","properties":{"sec":"24","frstdivid":"MT200100N0600E0SN240"},"geometry":{"type":"Polygon","coordinates":[[[-104.102225,46.598124],[-104.10749,46.598122],[-104.112755,46.598119],[-104.118021,46.598117],[-104.123286,46.598115],[-104.123289,46.601736],[-104.123292,46.605358],[-104.123295,46.608979],[-104.123298,46.612601],[-104.118032,46.612601],[-104.11277,46.612612],[-104.10751,46.612625],[-104.102249,46.612638],[-104.102243,46.60901],[-104.102237,46.605381],[-104.102231,46.601753],[-104.102225,46.598124]]]}},{"type":"Feature","properties":{"sec":"13","frstdivid":"MT200100N0600E0SN130"},"geometry":{"type":"Polygon","coordinates":[[[-104.102274,46.619856],[-104.102261,46.616247],[-104.102249,46.612638],[-104.10751,46.612625],[-104.11277,46.612612],[-104.118032,46.612601],[-104.123298,46.612601],[-104.123308,46.616221],[-104.12332,46.619845],[-104.123334,46.623475],[-104.123339,46.627084],[-104.118082,46.627085],[-104.112829,46.627069],[-104.107577,46.627054],[-104.102324,46.627038],[-104.102286,46.623466],[-104.102274,46.619856]]]}},{"type":"Feature","properties":{"sec":"36","frstdivid":"MT200100N0600E0SN360"},"geometry":{"type":"Polygon","coordinates":[[[-104.102267,46.580021],[-104.102262,46.576402],[-104.102258,46.572784],[-104.102253,46.569165],[-104.107525,46.569153],[-104.112798,46.569141],[-104.118071,46.56913],[-104.123343,46.569118],[-104.123324,46.572747],[-104.123305,46.576375],[-104.123285,46.580004],[-104.123274,46.583632],[-104.118017,46.583634],[-104.112769,46.583636],[-104.10752,46.583638],[-104.102272,46.58364],[-104.102267,46.580021]]]}}]}