{"type":"FeatureCollection","note":"BLM Public Land Survey System. Provided by the Bureau of Land Management as is. These data are neither legal documents nor land surveys and must not be used as such.","features":[{"type":"Feature","properties":{"sec":"29","frstdivid":"WY060330N0880W0SN290"},"geometry":{"type":"Polygon","coordinates":[[[-107.417464,42.799096],[-107.417474,42.802718],[-107.417484,42.80633],[-107.417494,42.809942],[-107.412573,42.809961],[-107.407652,42.80998],[-107.402731,42.81],[-107.39781,42.810019],[-107.397809,42.806394],[-107.397807,42.802769],[-107.397806,42.799159],[-107.397805,42.795549],[-107.402708,42.795527],[-107.407612,42.795506],[-107.412533,42.795489],[-107.417454,42.795473],[-107.417464,42.799096]]]}},{"type":"Feature","properties":{"sec":"27","frstdivid":"WY060330N0880W0SN270"},"geometry":{"type":"Polygon","coordinates":[[[-107.368414,42.795538],[-107.37331,42.795537],[-107.378206,42.795536],[-107.378209,42.799152],[-107.378211,42.802768],[-107.378213,42.806384],[-107.378215,42.81],[-107.373317,42.810018],[-107.36842,42.810036],[-107.363522,42.810055],[-107.358625,42.810073],[-107.358617,42.806446],[-107.358609,42.802818],[-107.358615,42.799191],[-107.358621,42.795564],[-107.363518,42.795551],[-107.368414,42.795538]]]}},{"type":"Feature","properties":{"sec":"16","frstdivid":"WY060330N0880W0SN160"},"geometry":{"type":"Polygon","coordinates":[[[-107.378261,42.828131],[-107.378249,42.82451],[-107.383158,42.824496],[-107.388067,42.824482],[-107.392988,42.824469],[-107.397909,42.824456],[-107.398038,42.828117],[-107.398167,42.831778],[-107.398296,42.835439],[-107.398425,42.8391],[-107.393393,42.839084],[-107.388362,42.839067],[-107.38333,42.839051],[-107.378299,42.839034],[-107.378286,42.835394],[-107.378272,42.831753],[-107.378261,42.828131]]]}},{"type":"Feature","properties":{"sec":"31","frstdivid":"WY060330N0880W0SN310"},"geometry":{"type":"Polygon","coordinates":[[[-107.420031,42.78129],[-107.422692,42.781293],[-107.427019,42.781296],[-107.427617,42.781299],[-107.431908,42.781329],[-107.432523,42.781333],[-107.436792,42.781362],[-107.437429,42.781366],[-107.441676,42.781395],[-107.442571,42.781401],[-107.442551,42.784983],[-107.44253,42.788564],[-107.44251,42.792146],[-107.44249,42.795727],[-107.437445,42.795675],[-107.432448,42.795624],[-107.42745,42.795573],[-107.422452,42.795523],[-107.417454,42.795473],[-107.417534,42.791927],[-107.417614,42.78838],[-107.417694,42.784834],[-107.417774,42.781287],[-107.420031,42.78129]]]}},{"type":"Feature","properties":{"sec":"24","frstdivid":"WY060330N0880W0SN240"},"geometry":{"type":"Polygon","coordinates":[[[-107.338838,42.817179],[-107.338839,42.820813],[-107.33884,42.824447],[-107.333958,42.824592],[-107.329076,42.824737],[-107.324194,42.824883],[-107.319312,42.825028],[-107.319362,42.821434],[-107.319412,42.81784],[-107.319357,42.813895],[-107.319302,42.80995],[-107.324186,42.809953],[-107.32907,42.809956],[-107.333954,42.809959],[-107.338839,42.809962],[-107.338838,42.813571],[-107.338838,42.817179]]]}},{"type":"Feature","properties":{"sec":"32","frstdivid":"WY060330N0880W0SN320"},"geometry":{"type":"Polygon","coordinates":[[[-107.412533,42.795489],[-107.407612,42.795506],[-107.402708,42.795527],[-107.397805,42.795549],[-107.397769,42.791961],[-107.397734,42.788374],[-107.397943,42.784806],[-107.398152,42.781238],[-107.400412,42.781241],[-107.403009,42.781246],[-107.40528,42.781249],[-107.407866,42.781253],[-107.410197,42.781261],[-107.41282,42.78127],[-107.415114,42.781278],[-107.417774,42.781287],[-107.417694,42.784834],[-107.417614,42.78838],[-107.417534,42.791927],[-107.417454,42.795473],[-107.412533,42.795489]]]}},{"type":"Feature","properties":{"sec":"18","frstdivid":"WY060330N0880W0SN180"},"geometry":{"type":"Polygon","coordinates":[[[-107.442699,42.824632],[-107.442719,42.828254],[-107.442738,42.831875],[-107.44275,42.835493],[-107.442762,42.839111],[-107.438225,42.839083],[-107.433295,42.839051],[-107.428365,42.83902],[-107.423434,42.838991],[-107.418503,42.838961],[-107.418273,42.835324],[-107.418044,42.831687],[-107.417814,42.82805],[-107.417585,42.824413],[-107.422669,42.824457],[-107.427753,42.8245],[-107.432835,42.824545],[-107.43792,42.82459],[-107.442699,42.824632]]]}},{"type":"Feature","properties":{"sec":"26","frstdivid":"WY060330N0880W0SN260"},"geometry":{"type":"Polygon","coordinates":[[[-107.358625,42.810073],[-107.353741,42.810095],[-107.348857,42.810117],[-107.343848,42.810039],[-107.338839,42.809962],[-107.338837,42.806345],[-107.338836,42.802728],[-107.338834,42.79911],[-107.338833,42.795493],[-107.34378,42.795511],[-107.348727,42.795529],[-107.353674,42.795546],[-107.358621,42.795564],[-107.358615,42.799191],[-107.358609,42.802818],[-107.358617,42.806446],[-107.358625,42.810073]]]}},{"type":"Feature","properties":{"sec":"15","frstdivid":"WY060330N0880W0SN150"},"geometry":{"type":"Polygon","coordinates":[[[-107.358719,42.832143],[-107.358629,42.828465],[-107.358538,42.824786],[-107.363466,42.824717],[-107.368394,42.824648],[-107.373321,42.824579],[-107.378249,42.82451],[-107.378261,42.828131],[-107.378272,42.831753],[-107.378286,42.835394],[-107.378299,42.839034],[-107.373409,42.839118],[-107.368519,42.839202],[-107.363629,42.839285],[-107.358739,42.839369],[-107.358729,42.835756],[-107.358719,42.832143]]]}},{"type":"Feature","properties":{"sec":"23","frstdivid":"WY060330N0880W0SN230"},"geometry":{"type":"Polygon","coordinates":[[[-107.343848,42.810039],[-107.348857,42.810117],[-107.353741,42.810095],[-107.358625,42.810073],[-107.358603,42.813751],[-107.358582,42.817429],[-107.35856,42.821108],[-107.358538,42.824786],[-107.353614,42.824701],[-107.348689,42.824616],[-107.343764,42.824532],[-107.33884,42.824447],[-107.338839,42.820813],[-107.338838,42.817179],[-107.338838,42.813571],[-107.338839,42.809962],[-107.343848,42.810039]]]}},{"type":"Feature","properties":{"sec":"12","frstdivid":"WY060330N0880W0SN120"},"geometry":{"type":"Polygon","coordinates":[[[-107.338935,42.853204],[-107.333998,42.853235],[-107.329062,42.853267],[-107.324218,42.853522],[-107.319373,42.853778],[-107.319367,42.850165],[-107.319362,42.846551],[-107.31935,42.842935],[-107.319338,42.839319],[-107.324303,42.839101],[-107.329268,42.838882],[-107.334149,42.838864],[-107.339031,42.838845],[-107.339007,42.842435],[-107.338983,42.846024],[-107.338959,42.849614],[-107.338935,42.853204]]]}},{"type":"Feature","properties":{"sec":"10","frstdivid":"WY060330N0880W0SN100"},"geometry":{"type":"Polygon","coordinates":[[[-107.368519,42.839202],[-107.373409,42.839118],[-107.378299,42.839034],[-107.378315,42.842668],[-107.378332,42.846303],[-107.378536,42.850014],[-107.378739,42.853725],[-107.37375,42.853713],[-107.368761,42.853701],[-107.363772,42.853689],[-107.358783,42.853678],[-107.358772,42.850101],[-107.358761,42.846523],[-107.35875,42.842946],[-107.358739,42.839369],[-107.363629,42.839285],[-107.368519,42.839202]]]}},{"type":"Feature","properties":{"sec":"08","frstdivid":"WY060330N0880W0SN080"},"geometry":{"type":"Polygon","coordinates":[[[-107.41812,42.850021],[-107.417993,42.853708],[-107.413073,42.853725],[-107.408153,42.853741],[-107.40324,42.853743],[-107.398328,42.853745],[-107.398352,42.850084],[-107.398376,42.846423],[-107.398401,42.842761],[-107.398425,42.8391],[-107.403445,42.839065],[-107.408464,42.83903],[-107.413483,42.838996],[-107.418503,42.838961],[-107.418375,42.842648],[-107.418248,42.846335],[-107.41812,42.850021]]]}},{"type":"Feature","properties":{"sec":"07","frstdivid":"WY060330N0880W0SN070"},"geometry":{"type":"Polygon","coordinates":[[[-107.432852,42.853664],[-107.427836,42.853681],[-107.422915,42.853695],[-107.417993,42.853708],[-107.41812,42.850021],[-107.418248,42.846335],[-107.418375,42.842648],[-107.418503,42.838961],[-107.423434,42.838991],[-107.428365,42.83902],[-107.433295,42.839051],[-107.438225,42.839083],[-107.442762,42.839111],[-107.442686,42.842757],[-107.442609,42.846403],[-107.44248,42.850017],[-107.442351,42.853632],[-107.437867,42.853647],[-107.432852,42.853664]]]}},{"type":"Feature","properties":{"sec":"34","frstdivid":"WY060330N0880W0SN340"},"geometry":{"type":"Polygon","coordinates":[[[-107.37843,42.781208],[-107.378462,42.784822],[-107.378494,42.788437],[-107.37835,42.791987],[-107.378206,42.795536],[-107.37331,42.795537],[-107.368414,42.795538],[-107.363518,42.795551],[-107.358621,42.795564],[-107.35866,42.791965],[-107.358698,42.788366],[-107.358736,42.784767],[-107.358775,42.781169],[-107.36152,42.781176],[-107.363702,42.781181],[-107.366391,42.781188],[-107.368628,42.781194],[-107.371246,42.781198],[-107.373529,42.781201],[-107.376101,42.781205],[-107.37843,42.781208]]]}},{"type":"Feature","properties":{"sec":"30","frstdivid":"WY060330N0880W0SN300"},"geometry":{"type":"Polygon","coordinates":[[[-107.42255,42.80999],[-107.417494,42.809942],[-107.417484,42.80633],[-107.417474,42.802718],[-107.417464,42.799096],[-107.417454,42.795473],[-107.422452,42.795523],[-107.42745,42.795573],[-107.432448,42.795624],[-107.437445,42.795675],[-107.44249,42.795727],[-107.442486,42.799368],[-107.442482,42.803009],[-107.442574,42.806577],[-107.442666,42.810144],[-107.437742,42.810109],[-107.432662,42.810074],[-107.427606,42.810038],[-107.42255,42.80999]]]}},{"type":"Feature","properties":{"sec":"22","frstdivid":"WY060330N0880W0SN220"},"geometry":{"type":"Polygon","coordinates":[[[-107.378215,42.81],[-107.378221,42.813625],[-107.378228,42.81725],[-107.378238,42.82088],[-107.378249,42.82451],[-107.373321,42.824579],[-107.368394,42.824648],[-107.363466,42.824717],[-107.358538,42.824786],[-107.35856,42.821108],[-107.358582,42.817429],[-107.358603,42.813751],[-107.358625,42.810073],[-107.363522,42.810055],[-107.36842,42.810036],[-107.373317,42.810018],[-107.378215,42.81]]]}},{"type":"Feature","properties":{"sec":"17","frstdivid":"WY060330N0880W0SN170"},"geometry":{"type":"Polygon","coordinates":[[[-107.398167,42.831778],[-107.398038,42.828117],[-107.397909,42.824456],[-107.402833,42.824445],[-107.407758,42.824434],[-107.412671,42.824424],[-107.417585,42.824413],[-107.417814,42.82805],[-107.418044,42.831687],[-107.418273,42.835324],[-107.418503,42.838961],[-107.413483,42.838996],[-107.408464,42.83903],[-107.403445,42.839065],[-107.398425,42.8391],[-107.398296,42.835439],[-107.398167,42.831778]]]}},{"type":"Feature","properties":{"sec":"36","frstdivid":"WY060330N0880W0SN360"},"geometry":{"type":"Polygon","coordinates":[[[-107.338818,42.791881],[-107.338833,42.795493],[-107.33398,42.795495],[-107.329126,42.795497],[-107.324216,42.795511],[-107.319305,42.795526],[-107.319292,42.791926],[-107.319279,42.788326],[-107.319266,42.784733],[-107.319253,42.78114],[-107.322227,42.781142],[-107.324191,42.781143],[-107.327138,42.781146],[-107.329129,42.781147],[-107.332079,42.781153],[-107.334095,42.781157],[-107.337022,42.781164],[-107.339061,42.781168],[-107.338932,42.784718],[-107.338804,42.788268],[-107.338818,42.791881]]]}},{"type":"Feature","properties":{"sec":"19","frstdivid":"WY060330N0880W0SN190"},"geometry":{"type":"Polygon","coordinates":[[[-107.442682,42.817388],[-107.442691,42.82101],[-107.442699,42.824632],[-107.43792,42.82459],[-107.432835,42.824545],[-107.427753,42.8245],[-107.422669,42.824457],[-107.417585,42.824413],[-107.417563,42.820788],[-107.417542,42.817162],[-107.417518,42.813552],[-107.417494,42.809942],[-107.42255,42.80999],[-107.427606,42.810038],[-107.432662,42.810074],[-107.437742,42.810109],[-107.442666,42.810144],[-107.442674,42.813766],[-107.442682,42.817388]]]}},{"type":"Feature","properties":{"sec":"20","frstdivid":"WY060330N0880W0SN200"},"geometry":{"type":"Polygon","coordinates":[[[-107.417494,42.809942],[-107.417518,42.813552],[-107.417542,42.817162],[-107.417563,42.820788],[-107.417585,42.824413],[-107.412671,42.824424],[-107.407758,42.824434],[-107.402833,42.824445],[-107.397909,42.824456],[-107.397844,42.820861],[-107.397779,42.817267],[-107.397794,42.813643],[-107.39781,42.810019],[-107.402731,42.81],[-107.407652,42.80998],[-107.412573,42.809961],[-107.417494,42.809942]]]}},{"type":"Feature","properties":{"sec":"33","frstdivid":"WY060330N0880W0SN330"},"geometry":{"type":"Polygon","coordinates":[[[-107.38334,42.78121],[-107.385811,42.781211],[-107.388249,42.781211],[-107.390678,42.781218],[-107.393201,42.781225],[-107.395545,42.781231],[-107.398152,42.781238],[-107.397943,42.784806],[-107.397734,42.788374],[-107.397769,42.791961],[-107.397805,42.795549],[-107.392905,42.795545],[-107.388006,42.795542],[-107.383106,42.795539],[-107.378206,42.795536],[-107.37835,42.791987],[-107.378494,42.788437],[-107.378462,42.784822],[-107.37843,42.781208],[-107.380956,42.781209],[-107.38334,42.78121]]]}},{"type":"Feature","properties":{"sec":"35","frstdivid":"WY060330N0880W0SN350"},"geometry":{"type":"Polygon","coordinates":[[[-107.348934,42.781187],[-107.351777,42.781182],[-107.353854,42.781178],[-107.356648,42.781173],[-107.358775,42.781169],[-107.358736,42.784767],[-107.358698,42.788366],[-107.35866,42.791965],[-107.358621,42.795564],[-107.353674,42.795546],[-107.348727,42.795529],[-107.34378,42.795511],[-107.338833,42.795493],[-107.338818,42.791881],[-107.338804,42.788268],[-107.338932,42.784718],[-107.339061,42.781168],[-107.341964,42.781173],[-107.343997,42.781177],[-107.346906,42.781183],[-107.348934,42.781187]]]}},{"type":"Feature","properties":{"sec":"14","frstdivid":"WY060330N0880W0SN140"},"geometry":{"type":"Polygon","coordinates":[[[-107.343964,42.839028],[-107.339031,42.838845],[-107.338983,42.835246],[-107.338935,42.831646],[-107.338887,42.828046],[-107.33884,42.824447],[-107.343764,42.824532],[-107.348689,42.824616],[-107.353614,42.824701],[-107.358538,42.824786],[-107.358629,42.828465],[-107.358719,42.832143],[-107.358729,42.835756],[-107.358739,42.839369],[-107.353818,42.83929],[-107.348897,42.839211],[-107.343964,42.839028]]]}},{"type":"Feature","properties":{"sec":"13","frstdivid":"WY060330N0880W0SN130"},"geometry":{"type":"Polygon","coordinates":[[[-107.329268,42.838882],[-107.324303,42.839101],[-107.319338,42.839319],[-107.319326,42.83574],[-107.319314,42.83216],[-107.319313,42.828594],[-107.319312,42.825028],[-107.324194,42.824883],[-107.329076,42.824737],[-107.333958,42.824592],[-107.33884,42.824447],[-107.338887,42.828046],[-107.338935,42.831646],[-107.338983,42.835246],[-107.339031,42.838845],[-107.334149,42.838864],[-107.329268,42.838882]]]}},{"type":"Feature","properties":{"sec":"09","frstdivid":"WY060330N0880W0SN090"},"geometry":{"type":"Polygon","coordinates":[[[-107.398376,42.846423],[-107.398352,42.850084],[-107.398328,42.853745],[-107.393428,42.853741],[-107.388527,42.853737],[-107.383633,42.853731],[-107.378739,42.853725],[-107.378536,42.850014],[-107.378332,42.846303],[-107.378315,42.842668],[-107.378299,42.839034],[-107.38333,42.839051],[-107.388362,42.839067],[-107.393393,42.839084],[-107.398425,42.8391],[-107.398401,42.842761],[-107.398376,42.846423]]]}},{"type":"Feature","properties":{"sec":"28","frstdivid":"WY060330N0880W0SN280"},"geometry":{"type":"Polygon","coordinates":[[[-107.378206,42.795536],[-107.383106,42.795539],[-107.388006,42.795542],[-107.392905,42.795545],[-107.397805,42.795549],[-107.397806,42.799159],[-107.397807,42.802769],[-107.397809,42.806394],[-107.39781,42.810019],[-107.392911,42.810014],[-107.388013,42.810009],[-107.383114,42.810004],[-107.378215,42.81],[-107.378213,42.806384],[-107.378211,42.802768],[-107.378209,42.799152],[-107.378206,42.795536]]]}},{"type":"Feature","properties":{"sec":"11","frstdivid":"WY060330N0880W0SN110"},"geometry":{"type":"Polygon","coordinates":[[[-107.343964,42.839028],[-107.348897,42.839211],[-107.353818,42.83929],[-107.358739,42.839369],[-107.35875,42.842946],[-107.358761,42.846523],[-107.358772,42.850101],[-107.358783,42.853678],[-107.353821,42.853559],[-107.348859,42.853441],[-107.343897,42.853322],[-107.338935,42.853204],[-107.338959,42.849614],[-107.338983,42.846024],[-107.339007,42.842435],[-107.339031,42.838845],[-107.343964,42.839028]]]}},{"type":"Feature","properties":{"sec":"25","frstdivid":"WY060330N0880W0SN250"},"geometry":{"type":"Polygon","coordinates":[[[-107.338836,42.802728],[-107.338837,42.806345],[-107.338839,42.809962],[-107.333954,42.809959],[-107.32907,42.809956],[-107.324186,42.809953],[-107.319302,42.80995],[-107.31931,42.806326],[-107.319317,42.802703],[-107.319311,42.799114],[-107.319305,42.795526],[-107.324216,42.795511],[-107.329126,42.795497],[-107.33398,42.795495],[-107.338833,42.795493],[-107.338834,42.79911],[-107.338836,42.802728]]]}},{"type":"Feature","properties":{"sec":"21","frstdivid":"WY060330N0880W0SN210"},"geometry":{"type":"Polygon","coordinates":[[[-107.397794,42.813643],[-107.397779,42.817267],[-107.397844,42.820861],[-107.397909,42.824456],[-107.392988,42.824469],[-107.388067,42.824482],[-107.383158,42.824496],[-107.378249,42.82451],[-107.378238,42.82088],[-107.378228,42.81725],[-107.378221,42.813625],[-107.378215,42.81],[-107.383114,42.810004],[-107.388013,42.810009],[-107.392911,42.810014],[-107.39781,42.810019],[-107.397794,42.813643]]]}},{"type":"Feature","properties":{"sec":"04","frstdivid":"WY060330N0880W0SN040"},"geometry":{"type":"Polygon","coordinates":[[[-107.388353,42.868136],[-107.383447,42.868131],[-107.378541,42.868125],[-107.37859,42.864528],[-107.37864,42.860927],[-107.37869,42.857326],[-107.378739,42.853725],[-107.383633,42.853731],[-107.388527,42.853737],[-107.393428,42.853741],[-107.398328,42.853745],[-107.398317,42.857348],[-107.398306,42.86095],[-107.398296,42.864553],[-107.398285,42.868122],[-107.393319,42.868129],[-107.388353,42.868136]]]}},{"type":"Feature","properties":{"sec":"03","frstdivid":"WY060330N0880W0SN030"},"geometry":{"type":"Polygon","coordinates":[[[-107.37869,42.857326],[-107.37864,42.860927],[-107.37859,42.864528],[-107.378541,42.868125],[-107.37363,42.868142],[-107.368719,42.868158],[-107.363787,42.86817],[-107.358856,42.868182],[-107.358807,42.864474],[-107.358759,42.860832],[-107.358771,42.857255],[-107.358783,42.853678],[-107.363772,42.853689],[-107.368761,42.853701],[-107.37375,42.853713],[-107.378739,42.853725],[-107.37869,42.857326]]]}},{"type":"Feature","properties":{"sec":"02","frstdivid":"WY060330N0880W0SN020"},"geometry":{"type":"Polygon","coordinates":[[[-107.338935,42.853204],[-107.343897,42.853322],[-107.348859,42.853441],[-107.353821,42.853559],[-107.358783,42.853678],[-107.358771,42.857255],[-107.358759,42.860832],[-107.358807,42.864474],[-107.358856,42.868182],[-107.353908,42.868193],[-107.34896,42.868205],[-107.344034,42.8682],[-107.339107,42.868195],[-107.339049,42.864332],[-107.338991,42.860505],[-107.338963,42.856855],[-107.338935,42.853204]]]}},{"type":"Feature","properties":{"sec":"06","frstdivid":"WY060330N0880W0SN060"},"geometry":{"type":"Polygon","coordinates":[[[-107.432852,42.853664],[-107.437867,42.853647],[-107.442351,42.853632],[-107.442315,42.857228],[-107.442279,42.860824],[-107.442323,42.864408],[-107.442367,42.867992],[-107.437908,42.868022],[-107.432759,42.868056],[-107.42761,42.86809],[-107.422784,42.868087],[-107.417958,42.868084],[-107.417964,42.864469],[-107.417969,42.860882],[-107.417981,42.857295],[-107.417993,42.853708],[-107.422915,42.853695],[-107.427836,42.853681],[-107.432852,42.853664]]]}},{"type":"Feature","properties":{"sec":"05","frstdivid":"WY060330N0880W0SN050"},"geometry":{"type":"Polygon","coordinates":[[[-107.398296,42.864553],[-107.398306,42.86095],[-107.398317,42.857348],[-107.398328,42.853745],[-107.40324,42.853743],[-107.408153,42.853741],[-107.413073,42.853725],[-107.417993,42.853708],[-107.417981,42.857295],[-107.417969,42.860882],[-107.417964,42.864469],[-107.417958,42.868084],[-107.41307,42.868102],[-107.408182,42.86812],[-107.403234,42.868121],[-107.398285,42.868122],[-107.398296,42.864553]]]}},{"type":"Feature","properties":{"sec":"01","frstdivid":"WY060330N0880W0SN010"},"geometry":{"type":"Polygon","coordinates":[[[-107.324218,42.853522],[-107.329062,42.853267],[-107.333998,42.853235],[-107.338935,42.853204],[-107.338963,42.856855],[-107.338991,42.860505],[-107.339049,42.864332],[-107.339107,42.868195],[-107.334191,42.868208],[-107.329276,42.868221],[-107.324369,42.868234],[-107.319462,42.868246],[-107.319444,42.864625],[-107.319426,42.861003],[-107.3194,42.85739],[-107.319373,42.853778],[-107.324218,42.853522]]]}}]}