{"type":"FeatureCollection","note":"BLM Public Land Survey System. Provided by the Bureau of Land Management as is. These data are neither legal documents nor land surveys and must not be used as such.","features":[{"type":"Feature","properties":{"sec":"03","frstdivid":"MT200130N0460E0SN030"},"geometry":{"type":"Polygon","coordinates":[[[-105.89109,46.918555],[-105.885797,46.918564],[-105.880498,46.91857],[-105.8752,46.918576],[-105.875188,46.914984],[-105.875176,46.91136],[-105.875166,46.907759],[-105.875157,46.904158],[-105.880446,46.904156],[-105.885735,46.904154],[-105.891023,46.904152],[-105.896312,46.90415],[-105.896331,46.907734],[-105.89635,46.911319],[-105.896366,46.91495],[-105.896383,46.918546],[-105.89109,46.918555]]]}},{"type":"Feature","properties":{"sec":"19","frstdivid":"MT200130N0460E0SN190"},"geometry":{"type":"Polygon","coordinates":[[[-105.954296,46.860676],[-105.959571,46.86067],[-105.959582,46.864279],[-105.959594,46.867888],[-105.959608,46.87149],[-105.959623,46.875093],[-105.954416,46.875104],[-105.949134,46.875115],[-105.943855,46.875119],[-105.938575,46.875123],[-105.938561,46.871515],[-105.938546,46.867906],[-105.938522,46.8643],[-105.938498,46.860694],[-105.943732,46.860688],[-105.948965,46.860682],[-105.954296,46.860676]]]}},{"type":"Feature","properties":{"sec":"35","frstdivid":"MT200130N0460E0SN350"},"geometry":{"type":"Polygon","coordinates":[[[-105.853835,46.839164],[-105.853832,46.835552],[-105.853828,46.83194],[-105.854749,46.831939],[-105.859125,46.831934],[-105.860045,46.831933],[-105.864422,46.83193],[-105.865335,46.831929],[-105.869709,46.831926],[-105.869991,46.831926],[-105.874995,46.831915],[-105.875001,46.835529],[-105.875008,46.839142],[-105.875014,46.842756],[-105.87502,46.84637],[-105.869726,46.846374],[-105.864432,46.846379],[-105.859137,46.846384],[-105.853843,46.846389],[-105.853839,46.842776],[-105.853835,46.839164]]]}},{"type":"Feature","properties":{"sec":"27","frstdivid":"MT200130N0460E0SN270"},"geometry":{"type":"Polygon","coordinates":[[[-105.875023,46.849988],[-105.87502,46.84637],[-105.880297,46.846356],[-105.885573,46.846343],[-105.890849,46.846329],[-105.896126,46.846316],[-105.896129,46.849931],[-105.896133,46.853545],[-105.896137,46.85716],[-105.896141,46.860775],[-105.89086,46.860792],[-105.88558,46.86081],[-105.880307,46.860826],[-105.875033,46.860842],[-105.87503,46.857224],[-105.875027,46.853606],[-105.875023,46.849988]]]}},{"type":"Feature","properties":{"sec":"04","frstdivid":"MT200130N0460E0SN040"},"geometry":{"type":"Polygon","coordinates":[[[-105.912191,46.904111],[-105.917484,46.904098],[-105.917501,46.907713],[-105.917517,46.911328],[-105.917532,46.914925],[-105.917547,46.918511],[-105.912257,46.918518],[-105.906966,46.918526],[-105.901674,46.918536],[-105.896383,46.918546],[-105.896366,46.91495],[-105.89635,46.911319],[-105.896331,46.907734],[-105.896312,46.90415],[-105.901605,46.904137],[-105.906898,46.904124],[-105.912191,46.904111]]]}},{"type":"Feature","properties":{"sec":"14","frstdivid":"MT200130N0460E0SN140"},"geometry":{"type":"Polygon","coordinates":[[[-105.86978,46.875266],[-105.875055,46.875282],[-105.875079,46.878869],[-105.875102,46.882455],[-105.875114,46.886086],[-105.875126,46.889717],[-105.869829,46.8897],[-105.864532,46.889684],[-105.859236,46.889691],[-105.85394,46.889699],[-105.853927,46.886081],[-105.853913,46.882463],[-105.8539,46.878845],[-105.853887,46.875228],[-105.859196,46.875238],[-105.864505,46.875249],[-105.86978,46.875266]]]}},{"type":"Feature","properties":{"sec":"32","frstdivid":"MT200130N0460E0SN320"},"geometry":{"type":"Polygon","coordinates":[[[-105.938348,46.831779],[-105.938372,46.83539],[-105.938397,46.839002],[-105.938416,46.842618],[-105.938435,46.846235],[-105.933145,46.846239],[-105.927856,46.846243],[-105.922582,46.846256],[-105.917309,46.846269],[-105.917288,46.842655],[-105.917268,46.83904],[-105.91725,46.835431],[-105.917233,46.831822],[-105.917618,46.831821],[-105.922512,46.831811],[-105.922923,46.83181],[-105.927791,46.831801],[-105.928228,46.8318],[-105.933069,46.83179],[-105.933532,46.831789],[-105.938348,46.831779]]]}},{"type":"Feature","properties":{"sec":"17","frstdivid":"MT200130N0460E0SN170"},"geometry":{"type":"Polygon","coordinates":[[[-105.933271,46.875135],[-105.938575,46.875123],[-105.938592,46.878738],[-105.938609,46.882353],[-105.938603,46.885968],[-105.938597,46.889582],[-105.933305,46.889605],[-105.928012,46.889628],[-105.92272,46.889651],[-105.917427,46.889674],[-105.917417,46.886054],[-105.917406,46.882434],[-105.917396,46.878814],[-105.917385,46.875194],[-105.922676,46.87517],[-105.927967,46.875146],[-105.933271,46.875135]]]}},{"type":"Feature","properties":{"sec":"30","frstdivid":"MT200130N0460E0SN300"},"geometry":{"type":"Polygon","coordinates":[[[-105.959514,46.846197],[-105.95953,46.849822],[-105.959545,46.853446],[-105.959558,46.857058],[-105.959571,46.86067],[-105.954296,46.860676],[-105.948965,46.860682],[-105.943732,46.860688],[-105.938498,46.860694],[-105.938489,46.85708],[-105.93848,46.853465],[-105.938457,46.84985],[-105.938435,46.846235],[-105.943713,46.846225],[-105.948991,46.846216],[-105.954268,46.846207],[-105.959514,46.846197]]]}},{"type":"Feature","properties":{"sec":"20","frstdivid":"MT200130N0460E0SN200"},"geometry":{"type":"Polygon","coordinates":[[[-105.93321,46.860706],[-105.938498,46.860694],[-105.938522,46.8643],[-105.938546,46.867906],[-105.938561,46.871515],[-105.938575,46.875123],[-105.933271,46.875135],[-105.927967,46.875146],[-105.922676,46.87517],[-105.917385,46.875194],[-105.917376,46.871577],[-105.917366,46.86796],[-105.917356,46.864349],[-105.917346,46.860739],[-105.922634,46.860728],[-105.927922,46.860717],[-105.93321,46.860706]]]}},{"type":"Feature","properties":{"sec":"15","frstdivid":"MT200130N0460E0SN150"},"geometry":{"type":"Polygon","coordinates":[[[-105.875079,46.878869],[-105.875055,46.875282],[-105.880341,46.875269],[-105.885627,46.875255],[-105.890914,46.875242],[-105.8962,46.875229],[-105.896214,46.878834],[-105.896228,46.88244],[-105.896245,46.886052],[-105.896263,46.889664],[-105.890984,46.889673],[-105.885706,46.889682],[-105.880416,46.8897],[-105.875126,46.889717],[-105.875114,46.886086],[-105.875102,46.882455],[-105.875079,46.878869]]]}},{"type":"Feature","properties":{"sec":"25","frstdivid":"MT200130N0460E0SN250"},"geometry":{"type":"Polygon","coordinates":[[[-105.832667,46.853623],[-105.832668,46.850012],[-105.832669,46.846402],[-105.837963,46.846399],[-105.843256,46.846395],[-105.848549,46.846392],[-105.853843,46.846389],[-105.853844,46.849995],[-105.853846,46.853602],[-105.853847,46.857208],[-105.853848,46.860815],[-105.848556,46.860817],[-105.843263,46.86082],[-105.837975,46.860823],[-105.832686,46.860827],[-105.832676,46.857225],[-105.832667,46.853623]]]}},{"type":"Feature","properties":{"sec":"09","frstdivid":"MT200130N0460E0SN090"},"geometry":{"type":"Polygon","coordinates":[[[-105.906845,46.889669],[-105.912136,46.889671],[-105.917427,46.889674],[-105.917445,46.893283],[-105.917462,46.896892],[-105.917473,46.900495],[-105.917484,46.904098],[-105.912191,46.904111],[-105.906898,46.904124],[-105.901605,46.904137],[-105.896312,46.90415],[-105.8963,46.900528],[-105.896287,46.896907],[-105.896275,46.893286],[-105.896263,46.889664],[-105.901554,46.889667],[-105.906845,46.889669]]]}},{"type":"Feature","properties":{"sec":"16","frstdivid":"MT200130N0460E0SN160"},"geometry":{"type":"Polygon","coordinates":[[[-105.901554,46.889667],[-105.896263,46.889664],[-105.896245,46.886052],[-105.896228,46.88244],[-105.896214,46.878834],[-105.8962,46.875229],[-105.901496,46.87522],[-105.906793,46.875211],[-105.912089,46.875203],[-105.917385,46.875194],[-105.917396,46.878814],[-105.917406,46.882434],[-105.917417,46.886054],[-105.917427,46.889674],[-105.912136,46.889671],[-105.906845,46.889669],[-105.901554,46.889667]]]}},{"type":"Feature","properties":{"sec":"13","frstdivid":"MT200130N0460E0SN130"},"geometry":{"type":"Polygon","coordinates":[[[-105.853927,46.886081],[-105.85394,46.889699],[-105.848643,46.889705],[-105.843346,46.889712],[-105.838055,46.889723],[-105.832763,46.889734],[-105.832742,46.886118],[-105.832721,46.882503],[-105.832723,46.878891],[-105.832725,46.875278],[-105.838019,46.875265],[-105.843314,46.875251],[-105.8486,46.875239],[-105.853887,46.875228],[-105.8539,46.878845],[-105.853913,46.882463],[-105.853927,46.886081]]]}},{"type":"Feature","properties":{"sec":"24","frstdivid":"MT200130N0460E0SN240"},"geometry":{"type":"Polygon","coordinates":[[[-105.853848,46.860815],[-105.853858,46.864417],[-105.853868,46.868019],[-105.853877,46.871624],[-105.853887,46.875228],[-105.8486,46.875239],[-105.843314,46.875251],[-105.838019,46.875265],[-105.832725,46.875278],[-105.832713,46.871659],[-105.832702,46.86804],[-105.832694,46.864434],[-105.832686,46.860827],[-105.837975,46.860823],[-105.843263,46.86082],[-105.848556,46.860817],[-105.853848,46.860815]]]}},{"type":"Feature","properties":{"sec":"07","frstdivid":"MT200130N0460E0SN070"},"geometry":{"type":"Polygon","coordinates":[[[-105.938656,46.900429],[-105.938644,46.896813],[-105.938621,46.893198],[-105.938597,46.889582],[-105.943875,46.889578],[-105.949153,46.889573],[-105.95445,46.889562],[-105.959715,46.88955],[-105.959732,46.893163],[-105.959748,46.896776],[-105.959768,46.900384],[-105.959789,46.903993],[-105.954513,46.904006],[-105.94923,46.90402],[-105.943948,46.904033],[-105.938667,46.904046],[-105.938656,46.900429]]]}},{"type":"Feature","properties":{"sec":"06","frstdivid":"MT200130N0460E0SN060"},"geometry":{"type":"Polygon","coordinates":[[[-105.959804,46.9076],[-105.959819,46.911207],[-105.959827,46.914819],[-105.959834,46.918432],[-105.954493,46.918436],[-105.949205,46.918439],[-105.94391,46.918439],[-105.938615,46.918439],[-105.938629,46.914846],[-105.938642,46.911246],[-105.938655,46.907646],[-105.938667,46.904046],[-105.943948,46.904033],[-105.94923,46.90402],[-105.954513,46.904006],[-105.959789,46.903993],[-105.959804,46.9076]]]}},{"type":"Feature","properties":{"sec":"12","frstdivid":"MT200130N0460E0SN120"},"geometry":{"type":"Polygon","coordinates":[[[-105.832763,46.889734],[-105.838055,46.889723],[-105.843346,46.889712],[-105.848643,46.889705],[-105.85394,46.889699],[-105.853955,46.893322],[-105.853971,46.896945],[-105.853986,46.900567],[-105.854002,46.90419],[-105.848705,46.9042],[-105.843409,46.904209],[-105.838113,46.904218],[-105.832816,46.904227],[-105.832806,46.9006],[-105.832796,46.896973],[-105.83278,46.893354],[-105.832763,46.889734]]]}},{"type":"Feature","properties":{"sec":"28","frstdivid":"MT200130N0460E0SN280"},"geometry":{"type":"Polygon","coordinates":[[[-105.896133,46.853545],[-105.896129,46.849931],[-105.896126,46.846316],[-105.901421,46.846304],[-105.906717,46.846293],[-105.912013,46.846281],[-105.917309,46.846269],[-105.917318,46.849886],[-105.917327,46.853502],[-105.917337,46.85712],[-105.917346,46.860739],[-105.912045,46.860748],[-105.906743,46.860757],[-105.901442,46.860766],[-105.896141,46.860775],[-105.896137,46.85716],[-105.896133,46.853545]]]}},{"type":"Feature","properties":{"sec":"23","frstdivid":"MT200130N0460E0SN230"},"geometry":{"type":"Polygon","coordinates":[[[-105.853848,46.860815],[-105.859145,46.860822],[-105.864441,46.860828],[-105.869737,46.860835],[-105.875033,46.860842],[-105.875038,46.86446],[-105.875044,46.868078],[-105.875049,46.87168],[-105.875055,46.875282],[-105.86978,46.875266],[-105.864505,46.875249],[-105.859196,46.875238],[-105.853887,46.875228],[-105.853877,46.871624],[-105.853868,46.868019],[-105.853858,46.864417],[-105.853848,46.860815]]]}},{"type":"Feature","properties":{"sec":"36","frstdivid":"MT200130N0460E0SN360"},"geometry":{"type":"Polygon","coordinates":[[[-105.832669,46.846402],[-105.832663,46.842793],[-105.832656,46.839185],[-105.832649,46.835576],[-105.832642,46.831967],[-105.83347,46.831966],[-105.837939,46.831959],[-105.838792,46.831958],[-105.843236,46.831953],[-105.844122,46.831952],[-105.848532,46.831945],[-105.849452,46.831944],[-105.853828,46.83194],[-105.853832,46.835552],[-105.853835,46.839164],[-105.853839,46.842776],[-105.853843,46.846389],[-105.848549,46.846392],[-105.843256,46.846395],[-105.837963,46.846399],[-105.832669,46.846402]]]}},{"type":"Feature","properties":{"sec":"11","frstdivid":"MT200130N0460E0SN110"},"geometry":{"type":"Polygon","coordinates":[[[-105.875157,46.904158],[-105.869868,46.904166],[-105.86458,46.904174],[-105.859291,46.904182],[-105.854002,46.90419],[-105.853986,46.900567],[-105.853971,46.896945],[-105.853955,46.893322],[-105.85394,46.889699],[-105.859236,46.889691],[-105.864532,46.889684],[-105.869829,46.8897],[-105.875126,46.889717],[-105.875134,46.893327],[-105.875142,46.896937],[-105.875149,46.900548],[-105.875157,46.904158]]]}},{"type":"Feature","properties":{"sec":"18","frstdivid":"MT200130N0460E0SN180"},"geometry":{"type":"Polygon","coordinates":[[[-105.938592,46.878738],[-105.938575,46.875123],[-105.943855,46.875119],[-105.949134,46.875115],[-105.954416,46.875104],[-105.959623,46.875093],[-105.959652,46.878707],[-105.95968,46.882322],[-105.959698,46.885936],[-105.959715,46.88955],[-105.95445,46.889562],[-105.949153,46.889573],[-105.943875,46.889578],[-105.938597,46.889582],[-105.938603,46.885968],[-105.938609,46.882353],[-105.938592,46.878738]]]}},{"type":"Feature","properties":{"sec":"22","frstdivid":"MT200130N0460E0SN220"},"geometry":{"type":"Polygon","coordinates":[[[-105.875055,46.875282],[-105.875049,46.87168],[-105.875044,46.868078],[-105.875038,46.86446],[-105.875033,46.860842],[-105.880307,46.860826],[-105.88558,46.86081],[-105.89086,46.860792],[-105.896141,46.860775],[-105.896158,46.864394],[-105.896175,46.868013],[-105.896187,46.871621],[-105.8962,46.875229],[-105.890914,46.875242],[-105.885627,46.875255],[-105.880341,46.875269],[-105.875055,46.875282]]]}},{"type":"Feature","properties":{"sec":"08","frstdivid":"MT200130N0460E0SN080"},"geometry":{"type":"Polygon","coordinates":[[[-105.92272,46.889651],[-105.928012,46.889628],[-105.933305,46.889605],[-105.938597,46.889582],[-105.938621,46.893198],[-105.938644,46.896813],[-105.938656,46.900429],[-105.938667,46.904046],[-105.933371,46.904059],[-105.928076,46.904072],[-105.92278,46.904085],[-105.917484,46.904098],[-105.917473,46.900495],[-105.917462,46.896892],[-105.917445,46.893283],[-105.917427,46.889674],[-105.92272,46.889651]]]}},{"type":"Feature","properties":{"sec":"31","frstdivid":"MT200130N0460E0SN310"},"geometry":{"type":"Polygon","coordinates":[[[-105.959506,46.842582],[-105.959514,46.846197],[-105.954268,46.846207],[-105.948991,46.846216],[-105.943713,46.846225],[-105.938435,46.846235],[-105.938416,46.842618],[-105.938397,46.839002],[-105.938372,46.83539],[-105.938348,46.831779],[-105.938815,46.831778],[-105.943636,46.831768],[-105.944098,46.831767],[-105.948925,46.831757],[-105.949381,46.831756],[-105.954205,46.831745],[-105.954663,46.831744],[-105.959483,46.831735],[-105.959491,46.83535],[-105.959499,46.838966],[-105.959506,46.842582]]]}},{"type":"Feature","properties":{"sec":"21","frstdivid":"MT200130N0460E0SN210"},"geometry":{"type":"Polygon","coordinates":[[[-105.901496,46.87522],[-105.8962,46.875229],[-105.896187,46.871621],[-105.896175,46.868013],[-105.896158,46.864394],[-105.896141,46.860775],[-105.901442,46.860766],[-105.906743,46.860757],[-105.912045,46.860748],[-105.917346,46.860739],[-105.917356,46.864349],[-105.917366,46.86796],[-105.917376,46.871577],[-105.917385,46.875194],[-105.912089,46.875203],[-105.906793,46.875211],[-105.901496,46.87522]]]}},{"type":"Feature","properties":{"sec":"10","frstdivid":"MT200130N0460E0SN100"},"geometry":{"type":"Polygon","coordinates":[[[-105.890984,46.889673],[-105.896263,46.889664],[-105.896275,46.893286],[-105.896287,46.896907],[-105.8963,46.900528],[-105.896312,46.90415],[-105.891023,46.904152],[-105.885735,46.904154],[-105.880446,46.904156],[-105.875157,46.904158],[-105.875149,46.900548],[-105.875142,46.896937],[-105.875134,46.893327],[-105.875126,46.889717],[-105.880416,46.8897],[-105.885706,46.889682],[-105.890984,46.889673]]]}},{"type":"Feature","properties":{"sec":"33","frstdivid":"MT200130N0460E0SN330"},"geometry":{"type":"Polygon","coordinates":[[[-105.917288,46.842655],[-105.917309,46.846269],[-105.912013,46.846281],[-105.906717,46.846293],[-105.901421,46.846304],[-105.896126,46.846316],[-105.896124,46.842704],[-105.896123,46.839093],[-105.896122,46.835481],[-105.896121,46.83187],[-105.896412,46.831869],[-105.901399,46.831858],[-105.901711,46.831857],[-105.906678,46.831847],[-105.907012,46.831846],[-105.911956,46.831834],[-105.912313,46.831834],[-105.917233,46.831822],[-105.91725,46.835431],[-105.917268,46.83904],[-105.917288,46.842655]]]}},{"type":"Feature","properties":{"sec":"34","frstdivid":"MT200130N0460E0SN340"},"geometry":{"type":"Polygon","coordinates":[[[-105.874995,46.831915],[-105.875271,46.831914],[-105.880279,46.831904],[-105.880551,46.831903],[-105.885562,46.831893],[-105.885832,46.831893],[-105.890841,46.831882],[-105.891113,46.831882],[-105.896121,46.83187],[-105.896122,46.835481],[-105.896123,46.839093],[-105.896124,46.842704],[-105.896126,46.846316],[-105.890849,46.846329],[-105.885573,46.846343],[-105.880297,46.846356],[-105.87502,46.84637],[-105.875014,46.842756],[-105.875008,46.839142],[-105.875001,46.835529],[-105.874995,46.831915]]]}},{"type":"Feature","properties":{"sec":"29","frstdivid":"MT200130N0460E0SN290"},"geometry":{"type":"Polygon","coordinates":[[[-105.917309,46.846269],[-105.922582,46.846256],[-105.927856,46.846243],[-105.933145,46.846239],[-105.938435,46.846235],[-105.938457,46.84985],[-105.93848,46.853465],[-105.938489,46.85708],[-105.938498,46.860694],[-105.93321,46.860706],[-105.927922,46.860717],[-105.922634,46.860728],[-105.917346,46.860739],[-105.917337,46.85712],[-105.917327,46.853502],[-105.917318,46.849886],[-105.917309,46.846269]]]}},{"type":"Feature","properties":{"sec":"05","frstdivid":"MT200130N0460E0SN050"},"geometry":{"type":"Polygon","coordinates":[[[-105.917532,46.914925],[-105.917517,46.911328],[-105.917501,46.907713],[-105.917484,46.904098],[-105.92278,46.904085],[-105.928076,46.904072],[-105.933371,46.904059],[-105.938667,46.904046],[-105.938655,46.907646],[-105.938642,46.911246],[-105.938629,46.914846],[-105.938615,46.918439],[-105.933348,46.918457],[-105.928081,46.918475],[-105.922814,46.918493],[-105.917547,46.918511],[-105.917532,46.914925]]]}},{"type":"Feature","properties":{"sec":"26","frstdivid":"MT200130N0460E0SN260"},"geometry":{"type":"Polygon","coordinates":[[[-105.87503,46.857224],[-105.875033,46.860842],[-105.869737,46.860835],[-105.864441,46.860828],[-105.859145,46.860822],[-105.853848,46.860815],[-105.853847,46.857208],[-105.853846,46.853602],[-105.853844,46.849995],[-105.853843,46.846389],[-105.859137,46.846384],[-105.864432,46.846379],[-105.869726,46.846374],[-105.87502,46.84637],[-105.875023,46.849988],[-105.875027,46.853606],[-105.87503,46.857224]]]}},{"type":"Feature","properties":{"sec":"02","frstdivid":"MT200130N0460E0SN020"},"geometry":{"type":"Polygon","coordinates":[[[-105.86458,46.904174],[-105.869868,46.904166],[-105.875157,46.904158],[-105.875166,46.907759],[-105.875176,46.91136],[-105.875188,46.914984],[-105.8752,46.918576],[-105.869912,46.91859],[-105.864625,46.918603],[-105.859334,46.918621],[-105.854044,46.918639],[-105.854022,46.914996],[-105.854001,46.911339],[-105.854001,46.907765],[-105.854002,46.90419],[-105.859291,46.904182],[-105.86458,46.904174]]]}},{"type":"Feature","properties":{"sec":"01","frstdivid":"MT200130N0460E0SN010"},"geometry":{"type":"Polygon","coordinates":[[[-105.832816,46.904227],[-105.838113,46.904218],[-105.843409,46.904209],[-105.848705,46.9042],[-105.854002,46.90419],[-105.854001,46.907765],[-105.854001,46.911339],[-105.854022,46.914996],[-105.854044,46.918639],[-105.848755,46.918641],[-105.843465,46.918643],[-105.838176,46.918645],[-105.832886,46.918647],[-105.83286,46.915053],[-105.832835,46.91146],[-105.832826,46.907843],[-105.832816,46.904227]]]}}]}