{"type":"FeatureCollection","note":"BLM Public Land Survey System. Provided by the Bureau of Land Management as is. These data are neither legal documents nor land surveys and must not be used as such.","features":[{"type":"Feature","properties":{"sec":"31","frstdivid":"WY060470N0700W0SN310"},"geometry":{"type":"Polygon","coordinates":[[[-105.30247,44.004782],[-105.302491,44.00116],[-105.30762,44.001101],[-105.312749,44.001043],[-105.317876,44.000984],[-105.322685,44.000929],[-105.322643,44.004572],[-105.322601,44.008214],[-105.322559,44.011857],[-105.322517,44.0155],[-105.317764,44.015538],[-105.312648,44.01558],[-105.307531,44.015621],[-105.302415,44.015662],[-105.302432,44.012033],[-105.302449,44.008404],[-105.30247,44.004782]]]}},{"type":"Feature","properties":{"sec":"32","frstdivid":"WY060470N0700W0SN320"},"geometry":{"type":"Polygon","coordinates":[[[-105.30247,44.004782],[-105.302449,44.008404],[-105.302432,44.012033],[-105.302415,44.015662],[-105.297174,44.015802],[-105.291933,44.015942],[-105.286896,44.016051],[-105.28186,44.016161],[-105.281988,44.012467],[-105.282117,44.008773],[-105.282246,44.00508],[-105.282375,44.001386],[-105.287381,44.001331],[-105.292387,44.001276],[-105.297439,44.001218],[-105.302491,44.00116],[-105.30247,44.004782]]]}},{"type":"Feature","properties":{"sec":"04","frstdivid":"WY060470N0700W0SN040"},"geometry":{"type":"Polygon","coordinates":[[[-105.267374,44.08883],[-105.26228,44.088864],[-105.262233,44.085162],[-105.262185,44.081349],[-105.262136,44.077538],[-105.262087,44.073728],[-105.267103,44.07374],[-105.272119,44.073752],[-105.277133,44.073662],[-105.282146,44.073572],[-105.282274,44.077375],[-105.282401,44.081178],[-105.282528,44.08498],[-105.282651,44.088642],[-105.27756,44.088719],[-105.272469,44.088796],[-105.267374,44.08883]]]}},{"type":"Feature","properties":{"sec":"33","frstdivid":"WY060470N0700W0SN330"},"geometry":{"type":"Polygon","coordinates":[[[-105.262211,44.005243],[-105.262352,44.001606],[-105.267358,44.001551],[-105.272364,44.001496],[-105.27737,44.001441],[-105.282375,44.001386],[-105.282246,44.00508],[-105.282117,44.008773],[-105.281988,44.012467],[-105.28186,44.016161],[-105.276851,44.01614],[-105.271842,44.01612],[-105.266814,44.016136],[-105.261787,44.016152],[-105.261928,44.012516],[-105.262069,44.008879],[-105.262211,44.005243]]]}},{"type":"Feature","properties":{"sec":"17","frstdivid":"WY060470N0700W0SN170"},"geometry":{"type":"Polygon","coordinates":[[[-105.282171,44.055705],[-105.282039,44.052131],[-105.281908,44.048558],[-105.281776,44.044984],[-105.286926,44.044883],[-105.292076,44.044783],[-105.297225,44.044683],[-105.302375,44.044582],[-105.302324,44.048202],[-105.302272,44.051822],[-105.302248,44.055379],[-105.302223,44.058936],[-105.29733,44.059033],[-105.292436,44.05913],[-105.287369,44.059204],[-105.282303,44.059279],[-105.282171,44.055705]]]}},{"type":"Feature","properties":{"sec":"19","frstdivid":"WY060470N0700W0SN190"},"geometry":{"type":"Polygon","coordinates":[[[-105.322431,44.040993],[-105.322416,44.044629],[-105.317674,44.044618],[-105.312575,44.044607],[-105.307475,44.044594],[-105.302375,44.044582],[-105.302366,44.040982],[-105.302357,44.037381],[-105.302348,44.033781],[-105.302339,44.03018],[-105.307475,44.030156],[-105.312611,44.030132],[-105.317746,44.030108],[-105.322475,44.030087],[-105.32246,44.033722],[-105.322446,44.037358],[-105.322431,44.040993]]]}},{"type":"Feature","properties":{"sec":"09","frstdivid":"WY060470N0700W0SN090"},"geometry":{"type":"Polygon","coordinates":[[[-105.262054,44.070131],[-105.262021,44.066535],[-105.261987,44.062939],[-105.261954,44.059342],[-105.267071,44.059275],[-105.272188,44.059207],[-105.277245,44.059243],[-105.282303,44.059279],[-105.282264,44.062852],[-105.282224,44.066426],[-105.282185,44.069999],[-105.282146,44.073572],[-105.277133,44.073662],[-105.272119,44.073752],[-105.267103,44.07374],[-105.262087,44.073728],[-105.262054,44.070131]]]}},{"type":"Feature","properties":{"sec":"06","frstdivid":"WY060470N0700W0SN060"},"geometry":{"type":"Polygon","coordinates":[[[-105.322927,44.080861],[-105.322959,44.084367],[-105.322992,44.087873],[-105.318288,44.087981],[-105.313196,44.088099],[-105.308105,44.088217],[-105.303014,44.088335],[-105.302809,44.084746],[-105.302599,44.081086],[-105.302389,44.077426],[-105.302179,44.073766],[-105.307161,44.073608],[-105.312142,44.07345],[-105.317687,44.073543],[-105.322764,44.073629],[-105.322845,44.077245],[-105.322927,44.080861]]]}},{"type":"Feature","properties":{"sec":"28","frstdivid":"WY060470N0700W0SN280"},"geometry":{"type":"Polygon","coordinates":[[[-105.276851,44.01614],[-105.28186,44.016161],[-105.281884,44.019739],[-105.281909,44.023318],[-105.281909,44.026847],[-105.281909,44.030376],[-105.276886,44.03045],[-105.271863,44.030524],[-105.266832,44.030553],[-105.261802,44.030581],[-105.261825,44.02696],[-105.261847,44.023338],[-105.261817,44.019745],[-105.261787,44.016152],[-105.266814,44.016136],[-105.271842,44.01612],[-105.276851,44.01614]]]}},{"type":"Feature","properties":{"sec":"34","frstdivid":"WY060470N0700W0SN340"},"geometry":{"type":"Polygon","coordinates":[[[-105.256801,44.016173],[-105.251814,44.016194],[-105.246828,44.016214],[-105.241842,44.016235],[-105.241879,44.012596],[-105.241916,44.008957],[-105.241954,44.005318],[-105.241991,44.001679],[-105.247081,44.001661],[-105.252171,44.001642],[-105.257262,44.001624],[-105.262352,44.001606],[-105.262211,44.005243],[-105.262069,44.008879],[-105.261928,44.012516],[-105.261787,44.016152],[-105.256801,44.016173]]]}},{"type":"Feature","properties":{"sec":"35","frstdivid":"WY060470N0700W0SN350"},"geometry":{"type":"Polygon","coordinates":[[[-105.236996,44.001653],[-105.241991,44.001679],[-105.241954,44.005318],[-105.241916,44.008957],[-105.241879,44.012596],[-105.241842,44.016235],[-105.236851,44.016234],[-105.231859,44.016233],[-105.226868,44.016232],[-105.221877,44.016231],[-105.221893,44.012569],[-105.221909,44.008908],[-105.221925,44.005246],[-105.22194,44.001585],[-105.226971,44.001606],[-105.232001,44.001627],[-105.236996,44.001653]]]}},{"type":"Feature","properties":{"sec":"36","frstdivid":"WY060470N0700W0SN360"},"geometry":{"type":"Polygon","coordinates":[[[-105.221909,44.008908],[-105.221893,44.012569],[-105.221877,44.016231],[-105.216853,44.016259],[-105.211829,44.016287],[-105.206805,44.016314],[-105.201782,44.016342],[-105.201821,44.01269],[-105.201861,44.009037],[-105.201855,44.005386],[-105.201849,44.001735],[-105.206872,44.001698],[-105.211895,44.00166],[-105.216918,44.001622],[-105.22194,44.001585],[-105.221925,44.005246],[-105.221909,44.008908]]]}},{"type":"Feature","properties":{"sec":"15","frstdivid":"WY060470N0700W0SN150"},"geometry":{"type":"Polygon","coordinates":[[[-105.261617,44.044955],[-105.261701,44.048552],[-105.261785,44.052149],[-105.26187,44.055746],[-105.261954,44.059342],[-105.256936,44.059405],[-105.251918,44.059469],[-105.2469,44.059532],[-105.241883,44.059595],[-105.241819,44.056015],[-105.241755,44.052435],[-105.241691,44.048855],[-105.241627,44.045275],[-105.246625,44.045195],[-105.251622,44.045115],[-105.256619,44.045035],[-105.261617,44.044955]]]}},{"type":"Feature","properties":{"sec":"25","frstdivid":"WY060470N0700W0SN250"},"geometry":{"type":"Polygon","coordinates":[[[-105.216715,44.030864],[-105.211713,44.030886],[-105.206711,44.030909],[-105.201708,44.030931],[-105.201727,44.027284],[-105.201745,44.023637],[-105.201763,44.019989],[-105.201782,44.016342],[-105.206805,44.016314],[-105.211829,44.016287],[-105.216853,44.016259],[-105.221877,44.016231],[-105.221905,44.019893],[-105.221933,44.023554],[-105.221825,44.027198],[-105.221718,44.030841],[-105.216715,44.030864]]]}},{"type":"Feature","properties":{"sec":"12","frstdivid":"WY060470N0700W0SN120"},"geometry":{"type":"Polygon","coordinates":[[[-105.201625,44.059919],[-105.206636,44.059937],[-105.211648,44.059955],[-105.216659,44.059972],[-105.22167,44.05999],[-105.221642,44.063634],[-105.221615,44.067277],[-105.221587,44.070921],[-105.221559,44.074564],[-105.216513,44.074559],[-105.211467,44.074554],[-105.20642,44.074549],[-105.201374,44.074544],[-105.201437,44.070887],[-105.2015,44.067231],[-105.201563,44.063575],[-105.201625,44.059919]]]}},{"type":"Feature","properties":{"sec":"05","frstdivid":"WY060470N0700W0SN050"},"geometry":{"type":"Polygon","coordinates":[[[-105.303014,44.088335],[-105.297923,44.088411],[-105.292833,44.088488],[-105.287742,44.088565],[-105.282651,44.088642],[-105.282528,44.08498],[-105.282401,44.081178],[-105.282274,44.077375],[-105.282146,44.073572],[-105.287155,44.07362],[-105.292163,44.073669],[-105.297171,44.073718],[-105.302179,44.073766],[-105.302389,44.077426],[-105.302599,44.081086],[-105.302809,44.084746],[-105.303014,44.088335]]]}},{"type":"Feature","properties":{"sec":"30","frstdivid":"WY060470N0700W0SN300"},"geometry":{"type":"Polygon","coordinates":[[[-105.307531,44.015621],[-105.312648,44.01558],[-105.317764,44.015538],[-105.322517,44.0155],[-105.32246,44.019148],[-105.322403,44.022796],[-105.322439,44.026441],[-105.322475,44.030087],[-105.317746,44.030108],[-105.312611,44.030132],[-105.307475,44.030156],[-105.302339,44.03018],[-105.302358,44.026551],[-105.302377,44.022921],[-105.302396,44.019292],[-105.302415,44.015662],[-105.307531,44.015621]]]}},{"type":"Feature","properties":{"sec":"01","frstdivid":"WY060470N0700W0SN010"},"geometry":{"type":"Polygon","coordinates":[[[-105.211467,44.074554],[-105.216513,44.074559],[-105.221559,44.074564],[-105.221555,44.078275],[-105.221551,44.081986],[-105.221548,44.085696],[-105.221545,44.089352],[-105.216493,44.089402],[-105.211441,44.089452],[-105.206319,44.089355],[-105.201197,44.089259],[-105.201241,44.08558],[-105.201286,44.081901],[-105.20133,44.078222],[-105.201374,44.074544],[-105.20642,44.074549],[-105.211467,44.074554]]]}},{"type":"Feature","properties":{"sec":"08","frstdivid":"WY060470N0700W0SN080"},"geometry":{"type":"Polygon","coordinates":[[[-105.302208,44.062584],[-105.302193,44.066233],[-105.302186,44.069999],[-105.302179,44.073766],[-105.297171,44.073718],[-105.292163,44.073669],[-105.287155,44.07362],[-105.282146,44.073572],[-105.282185,44.069999],[-105.282224,44.066426],[-105.282264,44.062852],[-105.282303,44.059279],[-105.287369,44.059204],[-105.292436,44.05913],[-105.29733,44.059033],[-105.302223,44.058936],[-105.302208,44.062584]]]}},{"type":"Feature","properties":{"sec":"24","frstdivid":"WY060470N0700W0SN240"},"geometry":{"type":"Polygon","coordinates":[[[-105.221718,44.030841],[-105.221723,44.034485],[-105.221729,44.038129],[-105.221734,44.041772],[-105.221739,44.045416],[-105.216714,44.04541],[-105.21169,44.045405],[-105.206659,44.045443],[-105.201628,44.045482],[-105.201652,44.041854],[-105.201677,44.038226],[-105.201692,44.034578],[-105.201708,44.030931],[-105.206711,44.030909],[-105.211713,44.030886],[-105.216715,44.030864],[-105.221718,44.030841]]]}},{"type":"Feature","properties":{"sec":"22","frstdivid":"WY060470N0700W0SN220"},"geometry":{"type":"Polygon","coordinates":[[[-105.241755,44.034369],[-105.241798,44.030733],[-105.246799,44.030695],[-105.2518,44.030657],[-105.256801,44.030619],[-105.261802,44.030581],[-105.261765,44.034172],[-105.261728,44.037763],[-105.261673,44.041359],[-105.261617,44.044955],[-105.256619,44.045035],[-105.251622,44.045115],[-105.246625,44.045195],[-105.241627,44.045275],[-105.24167,44.041639],[-105.241712,44.038004],[-105.241755,44.034369]]]}},{"type":"Feature","properties":{"sec":"21","frstdivid":"WY060470N0700W0SN210"},"geometry":{"type":"Polygon","coordinates":[[[-105.266832,44.030553],[-105.271863,44.030524],[-105.276886,44.03045],[-105.281909,44.030376],[-105.281875,44.034028],[-105.281842,44.03768],[-105.281809,44.041332],[-105.281776,44.044984],[-105.276736,44.044977],[-105.271696,44.04497],[-105.266657,44.044963],[-105.261617,44.044955],[-105.261673,44.041359],[-105.261728,44.037763],[-105.261765,44.034172],[-105.261802,44.030581],[-105.266832,44.030553]]]}},{"type":"Feature","properties":{"sec":"29","frstdivid":"WY060470N0700W0SN290"},"geometry":{"type":"Polygon","coordinates":[[[-105.286896,44.016051],[-105.291933,44.015942],[-105.297174,44.015802],[-105.302415,44.015662],[-105.302396,44.019292],[-105.302377,44.022921],[-105.302358,44.026551],[-105.302339,44.03018],[-105.297232,44.030229],[-105.292124,44.030278],[-105.287016,44.030327],[-105.281909,44.030376],[-105.281909,44.026847],[-105.281909,44.023318],[-105.281884,44.019739],[-105.28186,44.016161],[-105.286896,44.016051]]]}},{"type":"Feature","properties":{"sec":"27","frstdivid":"WY060470N0700W0SN270"},"geometry":{"type":"Polygon","coordinates":[[[-105.261817,44.019745],[-105.261847,44.023338],[-105.261825,44.02696],[-105.261802,44.030581],[-105.256801,44.030619],[-105.2518,44.030657],[-105.246799,44.030695],[-105.241798,44.030733],[-105.241804,44.027106],[-105.24181,44.023479],[-105.241826,44.019857],[-105.241842,44.016235],[-105.246828,44.016214],[-105.251814,44.016194],[-105.256801,44.016173],[-105.261787,44.016152],[-105.261817,44.019745]]]}},{"type":"Feature","properties":{"sec":"13","frstdivid":"WY060470N0700W0SN130"},"geometry":{"type":"Polygon","coordinates":[[[-105.206636,44.059937],[-105.201625,44.059919],[-105.2016,44.056329],[-105.201574,44.052739],[-105.201601,44.04911],[-105.201628,44.045482],[-105.206659,44.045443],[-105.21169,44.045405],[-105.216714,44.04541],[-105.221739,44.045416],[-105.221722,44.049059],[-105.221705,44.052703],[-105.221687,44.056346],[-105.22167,44.05999],[-105.216659,44.059972],[-105.211648,44.059955],[-105.206636,44.059937]]]}},{"type":"Feature","properties":{"sec":"23","frstdivid":"WY060470N0700W0SN230"},"geometry":{"type":"Polygon","coordinates":[[[-105.231683,44.045345],[-105.226711,44.04538],[-105.221739,44.045416],[-105.221734,44.041772],[-105.221729,44.038129],[-105.221723,44.034485],[-105.221718,44.030841],[-105.226738,44.030814],[-105.231758,44.030787],[-105.236778,44.03076],[-105.241798,44.030733],[-105.241755,44.034369],[-105.241712,44.038004],[-105.24167,44.041639],[-105.241627,44.045275],[-105.236655,44.04531],[-105.231683,44.045345]]]}},{"type":"Feature","properties":{"sec":"18","frstdivid":"WY060470N0700W0SN180"},"geometry":{"type":"Polygon","coordinates":[[[-105.322439,44.059161],[-105.317533,44.059033],[-105.312248,44.058896],[-105.307236,44.058916],[-105.302223,44.058936],[-105.302248,44.055379],[-105.302272,44.051822],[-105.302324,44.048202],[-105.302375,44.044582],[-105.307475,44.044594],[-105.312575,44.044607],[-105.317674,44.044618],[-105.322416,44.044629],[-105.322396,44.048256],[-105.322376,44.051884],[-105.322408,44.055522],[-105.322439,44.059161]]]}},{"type":"Feature","properties":{"sec":"16","frstdivid":"WY060470N0700W0SN160"},"geometry":{"type":"Polygon","coordinates":[[[-105.281776,44.044984],[-105.281908,44.048558],[-105.282039,44.052131],[-105.282171,44.055705],[-105.282303,44.059279],[-105.277245,44.059243],[-105.272188,44.059207],[-105.267071,44.059275],[-105.261954,44.059342],[-105.26187,44.055746],[-105.261785,44.052149],[-105.261701,44.048552],[-105.261617,44.044955],[-105.266657,44.044963],[-105.271696,44.04497],[-105.276736,44.044977],[-105.281776,44.044984]]]}},{"type":"Feature","properties":{"sec":"20","frstdivid":"WY060470N0700W0SN200"},"geometry":{"type":"Polygon","coordinates":[[[-105.287016,44.030327],[-105.292124,44.030278],[-105.297232,44.030229],[-105.302339,44.03018],[-105.302348,44.033781],[-105.302357,44.037381],[-105.302366,44.040982],[-105.302375,44.044582],[-105.297225,44.044683],[-105.292076,44.044783],[-105.286926,44.044883],[-105.281776,44.044984],[-105.281809,44.041332],[-105.281842,44.03768],[-105.281875,44.034028],[-105.281909,44.030376],[-105.287016,44.030327]]]}},{"type":"Feature","properties":{"sec":"26","frstdivid":"WY060470N0700W0SN260"},"geometry":{"type":"Polygon","coordinates":[[[-105.221933,44.023554],[-105.221905,44.019893],[-105.221877,44.016231],[-105.226868,44.016232],[-105.231859,44.016233],[-105.236851,44.016234],[-105.241842,44.016235],[-105.241826,44.019857],[-105.24181,44.023479],[-105.241804,44.027106],[-105.241798,44.030733],[-105.236778,44.03076],[-105.231758,44.030787],[-105.226738,44.030814],[-105.221718,44.030841],[-105.221825,44.027198],[-105.221933,44.023554]]]}},{"type":"Feature","properties":{"sec":"14","frstdivid":"WY060470N0700W0SN140"},"geometry":{"type":"Polygon","coordinates":[[[-105.241755,44.052435],[-105.241819,44.056015],[-105.241883,44.059595],[-105.236829,44.059693],[-105.231776,44.059792],[-105.226723,44.059891],[-105.22167,44.05999],[-105.221687,44.056346],[-105.221705,44.052703],[-105.221722,44.049059],[-105.221739,44.045416],[-105.226711,44.04538],[-105.231683,44.045345],[-105.236655,44.04531],[-105.241627,44.045275],[-105.241691,44.048855],[-105.241755,44.052435]]]}},{"type":"Feature","properties":{"sec":"11","frstdivid":"WY060470N0700W0SN110"},"geometry":{"type":"Polygon","coordinates":[[[-105.221587,44.070921],[-105.221615,44.067277],[-105.221642,44.063634],[-105.22167,44.05999],[-105.226723,44.059891],[-105.231776,44.059792],[-105.236829,44.059693],[-105.241883,44.059595],[-105.241905,44.063249],[-105.241928,44.066903],[-105.24195,44.070558],[-105.241973,44.074212],[-105.23689,44.07441],[-105.231807,44.074607],[-105.226683,44.074586],[-105.221559,44.074564],[-105.221587,44.070921]]]}},{"type":"Feature","properties":{"sec":"07","frstdivid":"WY060470N0700W0SN070"},"geometry":{"type":"Polygon","coordinates":[[[-105.312142,44.07345],[-105.307161,44.073608],[-105.302179,44.073766],[-105.302186,44.069999],[-105.302193,44.066233],[-105.302208,44.062584],[-105.302223,44.058936],[-105.307236,44.058916],[-105.312248,44.058896],[-105.317533,44.059033],[-105.322439,44.059161],[-105.32252,44.062778],[-105.322602,44.066395],[-105.322683,44.070012],[-105.322764,44.073629],[-105.317687,44.073543],[-105.312142,44.07345]]]}},{"type":"Feature","properties":{"sec":"10","frstdivid":"WY060470N0700W0SN100"},"geometry":{"type":"Polygon","coordinates":[[[-105.256936,44.059405],[-105.261954,44.059342],[-105.261987,44.062939],[-105.262021,44.066535],[-105.262054,44.070131],[-105.262087,44.073728],[-105.257059,44.073849],[-105.25203,44.07397],[-105.247002,44.074091],[-105.241973,44.074212],[-105.24195,44.070558],[-105.241928,44.066903],[-105.241905,44.063249],[-105.241883,44.059595],[-105.2469,44.059532],[-105.251918,44.059469],[-105.256936,44.059405]]]}},{"type":"Feature","properties":{"sec":"03","frstdivid":"WY060470N0700W0SN030"},"geometry":{"type":"Polygon","coordinates":[[[-105.262233,44.085162],[-105.26228,44.088864],[-105.257186,44.088968],[-105.252092,44.089073],[-105.246999,44.089178],[-105.241905,44.089282],[-105.241922,44.085512],[-105.241939,44.081708],[-105.241956,44.07796],[-105.241973,44.074212],[-105.247002,44.074091],[-105.25203,44.07397],[-105.257059,44.073849],[-105.262087,44.073728],[-105.262136,44.077538],[-105.262185,44.081349],[-105.262233,44.085162]]]}},{"type":"Feature","properties":{"sec":"02","frstdivid":"WY060470N0700W0SN020"},"geometry":{"type":"Polygon","coordinates":[[[-105.236813,44.089339],[-105.231721,44.089396],[-105.226633,44.089374],[-105.221545,44.089352],[-105.221548,44.085696],[-105.221551,44.081986],[-105.221555,44.078275],[-105.221559,44.074564],[-105.226683,44.074586],[-105.231807,44.074607],[-105.23689,44.07441],[-105.241973,44.074212],[-105.241956,44.07796],[-105.241939,44.081708],[-105.241922,44.085512],[-105.241905,44.089282],[-105.236813,44.089339]]]}}]}