{"type":"FeatureCollection","note":"BLM Public Land Survey System. Provided by the Bureau of Land Management as is. These data are neither legal documents nor land surveys and must not be used as such.","features":[{"type":"Feature","properties":{"sec":"20","frstdivid":"MT200010N0400E0SN200"},"geometry":{"type":"Polygon","coordinates":[[[-106.78918,45.817108],[-106.79435,45.817109],[-106.794346,45.820724],[-106.794344,45.824339],[-106.794347,45.827965],[-106.79435,45.831593],[-106.789175,45.831584],[-106.783999,45.831576],[-106.778829,45.831585],[-106.773659,45.831594],[-106.773661,45.827971],[-106.773664,45.824347],[-106.773665,45.820724],[-106.773667,45.817102],[-106.778839,45.817105],[-106.784011,45.817107],[-106.78918,45.817108]]]}},{"type":"Feature","properties":{"sec":"31","frstdivid":"MT200010N0400E0SN310"},"geometry":{"type":"Polygon","coordinates":[[[-106.810417,45.788187],[-106.815067,45.788194],[-106.815066,45.791817],[-106.815065,45.79544],[-106.815064,45.799063],[-106.815063,45.802686],[-106.809893,45.802678],[-106.804724,45.80267],[-106.799547,45.802661],[-106.794371,45.802652],[-106.794377,45.799034],[-106.794383,45.795417],[-106.794398,45.791792],[-106.794414,45.788145],[-106.795005,45.788147],[-106.799576,45.78816],[-106.800143,45.788161],[-106.804738,45.788172],[-106.80528,45.788173],[-106.809903,45.788186],[-106.810417,45.788187]]]}},{"type":"Feature","properties":{"sec":"30","frstdivid":"MT200010N0400E0SN300"},"geometry":{"type":"Polygon","coordinates":[[[-106.809893,45.802678],[-106.815063,45.802686],[-106.815058,45.806304],[-106.815052,45.809922],[-106.815043,45.813539],[-106.815033,45.817157],[-106.809862,45.817173],[-106.804688,45.817126],[-106.799519,45.817117],[-106.79435,45.817109],[-106.794354,45.813493],[-106.79436,45.809909],[-106.794366,45.806313],[-106.794371,45.802652],[-106.799547,45.802661],[-106.804724,45.80267],[-106.809893,45.802678]]]}},{"type":"Feature","properties":{"sec":"08","frstdivid":"MT200010N0400E0SN080"},"geometry":{"type":"Polygon","coordinates":[[[-106.778765,45.846083],[-106.783923,45.846077],[-106.789122,45.846073],[-106.794321,45.846069],[-106.794312,45.849697],[-106.794302,45.853326],[-106.794292,45.856953],[-106.794282,45.86058],[-106.789093,45.860584],[-106.783904,45.860588],[-106.778716,45.860592],[-106.773527,45.860596],[-106.773552,45.856969],[-106.773578,45.853342],[-106.773592,45.849715],[-106.773607,45.846089],[-106.778765,45.846083]]]}},{"type":"Feature","properties":{"sec":"12","frstdivid":"MT200010N0400E0SN120"},"geometry":{"type":"Polygon","coordinates":[[[-106.70617,45.846061],[-106.711358,45.846058],[-106.711342,45.849689],[-106.711326,45.85332],[-106.71131,45.856951],[-106.711334,45.860555],[-106.706158,45.860551],[-106.700982,45.860546],[-106.695807,45.860542],[-106.691195,45.860539],[-106.691209,45.857452],[-106.691211,45.856911],[-106.691225,45.853824],[-106.691227,45.853283],[-106.691241,45.850197],[-106.691243,45.849656],[-106.691257,45.846569],[-106.691258,45.846028],[-106.69579,45.846062],[-106.700983,45.846063],[-106.70617,45.846061]]]}},{"type":"Feature","properties":{"sec":"36","frstdivid":"MT200010N0400E0SN360"},"geometry":{"type":"Polygon","coordinates":[[[-106.708846,45.78844],[-106.711519,45.788418],[-106.711508,45.791706],[-106.711496,45.795325],[-106.711484,45.798943],[-106.711472,45.802561],[-106.706293,45.80255],[-106.701114,45.802539],[-106.695937,45.802528],[-106.691362,45.802519],[-106.691362,45.799486],[-106.691362,45.798923],[-106.691361,45.795889],[-106.691362,45.795327],[-106.69137,45.792262],[-106.691371,45.791699],[-106.691379,45.788634],[-106.694054,45.788611],[-106.696037,45.788594],[-106.698978,45.788569],[-106.701203,45.78855],[-106.703909,45.788511],[-106.706365,45.788476],[-106.708846,45.78844]]]}},{"type":"Feature","properties":{"sec":"26","frstdivid":"MT200010N0400E0SN260"},"geometry":{"type":"Polygon","coordinates":[[[-106.727015,45.80259],[-106.732193,45.802601],[-106.732189,45.806228],[-106.732184,45.809855],[-106.732175,45.813473],[-106.732165,45.81709],[-106.726978,45.817057],[-106.721792,45.817024],[-106.716619,45.817021],[-106.711446,45.817019],[-106.711449,45.813405],[-106.711451,45.809798],[-106.711461,45.806179],[-106.711472,45.802561],[-106.716654,45.80257],[-106.721836,45.802579],[-106.727015,45.80259]]]}},{"type":"Feature","properties":{"sec":"17","frstdivid":"MT200010N0400E0SN170"},"geometry":{"type":"Polygon","coordinates":[[[-106.789175,45.831584],[-106.79435,45.831593],[-106.794339,45.835211],[-106.794328,45.838829],[-106.794325,45.842449],[-106.794321,45.846069],[-106.789122,45.846073],[-106.783923,45.846077],[-106.778765,45.846083],[-106.773607,45.846089],[-106.77362,45.842465],[-106.773633,45.838842],[-106.773646,45.835218],[-106.773659,45.831594],[-106.778829,45.831585],[-106.783999,45.831576],[-106.789175,45.831584]]]}},{"type":"Feature","properties":{"sec":"22","frstdivid":"MT200010N0400E0SN220"},"geometry":{"type":"Polygon","coordinates":[[[-106.747721,45.817098],[-106.752906,45.817104],[-106.7529,45.820726],[-106.752893,45.824348],[-106.752882,45.827972],[-106.752871,45.831597],[-106.747694,45.831593],[-106.742516,45.83159],[-106.737315,45.831586],[-106.732119,45.831581],[-106.732135,45.827956],[-106.732151,45.824331],[-106.732158,45.82071],[-106.732165,45.81709],[-106.737351,45.817091],[-106.742536,45.817093],[-106.747721,45.817098]]]}},{"type":"Feature","properties":{"sec":"01","frstdivid":"MT200010N0400E0SN010"},"geometry":{"type":"Polygon","coordinates":[[[-106.706158,45.860551],[-106.711334,45.860555],[-106.711323,45.864185],[-106.711312,45.867814],[-106.711297,45.871437],[-106.71128,45.875733],[-106.706963,45.875715],[-106.706098,45.875711],[-106.7018,45.875692],[-106.700917,45.875689],[-106.696451,45.875673],[-106.695736,45.87567],[-106.691102,45.875654],[-106.691119,45.871998],[-106.691122,45.871468],[-106.691138,45.868341],[-106.691142,45.867825],[-106.691165,45.864711],[-106.691169,45.864182],[-106.691192,45.86108],[-106.691195,45.860539],[-106.695807,45.860542],[-106.700982,45.860546],[-106.706158,45.860551]]]}},{"type":"Feature","properties":{"sec":"09","frstdivid":"MT200010N0400E0SN090"},"geometry":{"type":"Polygon","coordinates":[[[-106.768416,45.846093],[-106.773607,45.846089],[-106.773592,45.849715],[-106.773578,45.853342],[-106.773552,45.856969],[-106.773527,45.860596],[-106.768347,45.860607],[-106.763167,45.860618],[-106.757982,45.860626],[-106.752814,45.860622],[-106.752796,45.856999],[-106.752796,45.853363],[-106.752815,45.849736],[-106.752835,45.846109],[-106.758029,45.846103],[-106.763223,45.846098],[-106.768416,45.846093]]]}},{"type":"Feature","properties":{"sec":"33","frstdivid":"MT200010N0400E0SN330"},"geometry":{"type":"Polygon","coordinates":[[[-106.769256,45.788172],[-106.773707,45.788175],[-106.773698,45.791777],[-106.77369,45.795388],[-106.773687,45.799011],[-106.773684,45.802633],[-106.768492,45.802628],[-106.763301,45.802623],[-106.758117,45.80262],[-106.752932,45.802618],[-106.752931,45.798998],[-106.75293,45.795378],[-106.752931,45.791759],[-106.752932,45.788198],[-106.753716,45.788195],[-106.75813,45.788183],[-106.758897,45.788181],[-106.763329,45.788169],[-106.764081,45.788169],[-106.768518,45.788172],[-106.769256,45.788172]]]}},{"type":"Feature","properties":{"sec":"03","frstdivid":"MT200010N0400E0SN030"},"geometry":{"type":"Polygon","coordinates":[[[-106.747626,45.860622],[-106.752814,45.860622],[-106.752799,45.864248],[-106.752785,45.867875],[-106.752778,45.871503],[-106.752769,45.875894],[-106.748181,45.875875],[-106.747584,45.875873],[-106.743,45.875854],[-106.7424,45.87585],[-106.737859,45.875823],[-106.737215,45.875819],[-106.732717,45.875792],[-106.732031,45.875791],[-106.732035,45.871469],[-106.732039,45.867845],[-106.732053,45.86422],[-106.732068,45.860595],[-106.737257,45.860609],[-106.742445,45.860621],[-106.747626,45.860622]]]}},{"type":"Feature","properties":{"sec":"35","frstdivid":"MT200010N0400E0SN350"},"geometry":{"type":"Polygon","coordinates":[[[-106.729964,45.788186],[-106.732223,45.788184],[-106.73222,45.791743],[-106.732217,45.795362],[-106.732205,45.798982],[-106.732193,45.802601],[-106.727015,45.80259],[-106.721836,45.802579],[-106.716654,45.80257],[-106.711472,45.802561],[-106.711484,45.798943],[-106.711496,45.795325],[-106.711508,45.791706],[-106.711519,45.788418],[-106.714265,45.788392],[-106.716687,45.78837],[-106.719688,45.788343],[-106.721854,45.788323],[-106.725132,45.788267],[-106.727063,45.788235],[-106.729964,45.788186]]]}},{"type":"Feature","properties":{"sec":"32","frstdivid":"MT200010N0400E0SN320"},"geometry":{"type":"Polygon","coordinates":[[[-106.789866,45.78816],[-106.794414,45.788145],[-106.794398,45.791792],[-106.794383,45.795417],[-106.794377,45.799034],[-106.794371,45.802652],[-106.789197,45.802696],[-106.784024,45.802706],[-106.778854,45.80267],[-106.773684,45.802633],[-106.773687,45.799011],[-106.77369,45.795388],[-106.773698,45.791777],[-106.773707,45.788175],[-106.774414,45.788175],[-106.778898,45.788176],[-106.779569,45.788176],[-106.784088,45.788177],[-106.784718,45.788175],[-106.789251,45.788162],[-106.789866,45.78816]]]}},{"type":"Feature","properties":{"sec":"16","frstdivid":"MT200010N0400E0SN160"},"geometry":{"type":"Polygon","coordinates":[[[-106.768462,45.831595],[-106.773659,45.831594],[-106.773646,45.835218],[-106.773633,45.838842],[-106.77362,45.842465],[-106.773607,45.846089],[-106.768416,45.846093],[-106.763223,45.846098],[-106.758029,45.846103],[-106.752835,45.846109],[-106.752844,45.842481],[-106.752853,45.838853],[-106.752862,45.835225],[-106.752871,45.831597],[-106.758068,45.831596],[-106.763265,45.831596],[-106.768462,45.831595]]]}},{"type":"Feature","properties":{"sec":"24","frstdivid":"MT200010N0400E0SN240"},"geometry":{"type":"Polygon","coordinates":[[[-106.706269,45.817016],[-106.711446,45.817019],[-106.711437,45.820647],[-106.711427,45.824275],[-106.711417,45.827904],[-106.711406,45.831532],[-106.706229,45.831536],[-106.701052,45.83154],[-106.695874,45.831543],[-106.691317,45.831519],[-106.691286,45.82847],[-106.691289,45.827914],[-106.691301,45.82485],[-106.691303,45.824283],[-106.691311,45.821225],[-106.691313,45.820646],[-106.691321,45.817599],[-106.691322,45.817008],[-106.695916,45.81701],[-106.701093,45.817013],[-106.706269,45.817016]]]}},{"type":"Feature","properties":{"sec":"18","frstdivid":"MT200010N0400E0SN180"},"geometry":{"type":"Polygon","coordinates":[[[-106.809862,45.83162],[-106.815029,45.831628],[-106.815025,45.835249],[-106.815021,45.838869],[-106.815021,45.842493],[-106.815021,45.846116],[-106.809846,45.846104],[-106.804671,45.846093],[-106.799496,45.846081],[-106.794321,45.846069],[-106.794325,45.842449],[-106.794328,45.838829],[-106.794339,45.835211],[-106.79435,45.831593],[-106.799522,45.831602],[-106.804695,45.831612],[-106.809862,45.83162]]]}},{"type":"Feature","properties":{"sec":"21","frstdivid":"MT200010N0400E0SN210"},"geometry":{"type":"Polygon","coordinates":[[[-106.768459,45.817102],[-106.773667,45.817102],[-106.773665,45.820724],[-106.773664,45.824347],[-106.773661,45.827971],[-106.773659,45.831594],[-106.768462,45.831595],[-106.763265,45.831596],[-106.758068,45.831596],[-106.752871,45.831597],[-106.752882,45.827972],[-106.752893,45.824348],[-106.7529,45.820726],[-106.752906,45.817104],[-106.758078,45.817103],[-106.763251,45.817102],[-106.768459,45.817102]]]}},{"type":"Feature","properties":{"sec":"14","frstdivid":"MT200010N0400E0SN140"},"geometry":{"type":"Polygon","coordinates":[[[-106.726941,45.831569],[-106.732119,45.831581],[-106.732111,45.835207],[-106.732102,45.838833],[-106.732098,45.842458],[-106.732094,45.846082],[-106.726906,45.846075],[-106.721714,45.846069],[-106.716536,45.846064],[-106.711358,45.846058],[-106.711368,45.842426],[-106.711379,45.838795],[-106.711393,45.835163],[-106.711406,45.831532],[-106.716585,45.831545],[-106.721763,45.831557],[-106.726941,45.831569]]]}},{"type":"Feature","properties":{"sec":"13","frstdivid":"MT200010N0400E0SN130"},"geometry":{"type":"Polygon","coordinates":[[[-106.706229,45.831536],[-106.711406,45.831532],[-106.711393,45.835163],[-106.711379,45.838795],[-106.711368,45.842426],[-106.711358,45.846058],[-106.70617,45.846061],[-106.700983,45.846063],[-106.69579,45.846062],[-106.691258,45.846028],[-106.691267,45.842937],[-106.691269,45.842401],[-106.691278,45.839306],[-106.691281,45.838774],[-106.691296,45.835685],[-106.691299,45.835147],[-106.691315,45.832064],[-106.691317,45.831519],[-106.695874,45.831543],[-106.701052,45.83154],[-106.706229,45.831536]]]}},{"type":"Feature","properties":{"sec":"19","frstdivid":"MT200010N0400E0SN190"},"geometry":{"type":"Polygon","coordinates":[[[-106.809862,45.817173],[-106.815033,45.817157],[-106.81503,45.820792],[-106.815027,45.824395],[-106.815027,45.828011],[-106.815029,45.831628],[-106.809862,45.83162],[-106.804695,45.831612],[-106.799522,45.831602],[-106.79435,45.831593],[-106.794347,45.827965],[-106.794344,45.824339],[-106.794346,45.820724],[-106.79435,45.817109],[-106.799519,45.817117],[-106.804688,45.817126],[-106.809862,45.817173]]]}},{"type":"Feature","properties":{"sec":"29","frstdivid":"MT200010N0400E0SN290"},"geometry":{"type":"Polygon","coordinates":[[[-106.789197,45.802696],[-106.794371,45.802652],[-106.794366,45.806313],[-106.79436,45.809909],[-106.794354,45.813493],[-106.79435,45.817109],[-106.78918,45.817108],[-106.784011,45.817107],[-106.778839,45.817105],[-106.773667,45.817102],[-106.773669,45.813486],[-106.77367,45.80987],[-106.773677,45.806252],[-106.773684,45.802633],[-106.778854,45.80267],[-106.784024,45.802706],[-106.789197,45.802696]]]}},{"type":"Feature","properties":{"sec":"15","frstdivid":"MT200010N0400E0SN150"},"geometry":{"type":"Polygon","coordinates":[[[-106.747694,45.831593],[-106.752871,45.831597],[-106.752862,45.835225],[-106.752853,45.838853],[-106.752844,45.842481],[-106.752835,45.846109],[-106.747648,45.846102],[-106.742462,45.846095],[-106.737277,45.846089],[-106.732094,45.846082],[-106.732098,45.842458],[-106.732102,45.838833],[-106.732111,45.835207],[-106.732119,45.831581],[-106.737315,45.831586],[-106.742516,45.83159],[-106.747694,45.831593]]]}},{"type":"Feature","properties":{"sec":"05","frstdivid":"MT200010N0400E0SN050"},"geometry":{"type":"Polygon","coordinates":[[[-106.789093,45.860584],[-106.794282,45.86058],[-106.794274,45.864205],[-106.794266,45.86783],[-106.794257,45.871452],[-106.794247,45.875996],[-106.789654,45.875989],[-106.78906,45.875988],[-106.784456,45.875981],[-106.783872,45.875977],[-106.77927,45.875949],[-106.778685,45.875946],[-106.774083,45.875918],[-106.773497,45.875916],[-106.773506,45.871472],[-106.773513,45.867847],[-106.77352,45.864221],[-106.773527,45.860596],[-106.778716,45.860592],[-106.783904,45.860588],[-106.789093,45.860584]]]}},{"type":"Feature","properties":{"sec":"25","frstdivid":"MT200010N0400E0SN250"},"geometry":{"type":"Polygon","coordinates":[[[-106.711446,45.817019],[-106.706269,45.817016],[-106.701093,45.817013],[-106.695916,45.81701],[-106.691322,45.817008],[-106.69134,45.813963],[-106.691344,45.813384],[-106.691354,45.810336],[-106.691354,45.809766],[-106.691356,45.806715],[-106.691357,45.806149],[-106.691359,45.803095],[-106.691362,45.802519],[-106.695937,45.802528],[-106.701114,45.802539],[-106.706293,45.80255],[-106.711472,45.802561],[-106.711461,45.806179],[-106.711451,45.809798],[-106.711449,45.813405],[-106.711446,45.817019]]]}},{"type":"Feature","properties":{"sec":"06","frstdivid":"MT200010N0400E0SN060"},"geometry":{"type":"Polygon","coordinates":[[[-106.809836,45.860593],[-106.815015,45.860606],[-106.815011,45.864229],[-106.815006,45.867852],[-106.815,45.871476],[-106.814994,45.876037],[-106.8102,45.876027],[-106.809807,45.876026],[-106.805218,45.876017],[-106.804621,45.876016],[-106.800034,45.876007],[-106.799434,45.876006],[-106.794851,45.875997],[-106.794247,45.875996],[-106.794257,45.871452],[-106.794266,45.86783],[-106.794274,45.864205],[-106.794282,45.86058],[-106.799468,45.860581],[-106.804655,45.860582],[-106.809836,45.860593]]]}},{"type":"Feature","properties":{"sec":"02","frstdivid":"MT200010N0400E0SN020"},"geometry":{"type":"Polygon","coordinates":[[[-106.726843,45.875779],[-106.722447,45.875768],[-106.721655,45.875766],[-106.717287,45.875753],[-106.716467,45.87575],[-106.712126,45.875737],[-106.71128,45.875733],[-106.711297,45.871437],[-106.711312,45.867814],[-106.711323,45.864185],[-106.711334,45.860555],[-106.716511,45.860567],[-106.721688,45.860579],[-106.726878,45.860587],[-106.732068,45.860595],[-106.732053,45.86422],[-106.732039,45.867845],[-106.732035,45.871469],[-106.732031,45.875791],[-106.727582,45.87578],[-106.726843,45.875779]]]}},{"type":"Feature","properties":{"sec":"10","frstdivid":"MT200010N0400E0SN100"},"geometry":{"type":"Polygon","coordinates":[[[-106.747648,45.846102],[-106.752835,45.846109],[-106.752815,45.849736],[-106.752796,45.853363],[-106.752796,45.856999],[-106.752814,45.860622],[-106.747626,45.860622],[-106.742445,45.860621],[-106.737257,45.860609],[-106.732068,45.860595],[-106.732059,45.856978],[-106.732072,45.853346],[-106.732083,45.849714],[-106.732094,45.846082],[-106.737277,45.846089],[-106.742462,45.846095],[-106.747648,45.846102]]]}},{"type":"Feature","properties":{"sec":"34","frstdivid":"MT200010N0400E0SN340"},"geometry":{"type":"Polygon","coordinates":[[[-106.748551,45.788165],[-106.752932,45.788198],[-106.752931,45.791759],[-106.75293,45.795378],[-106.752931,45.798998],[-106.752932,45.802618],[-106.747751,45.802614],[-106.74257,45.802611],[-106.737382,45.802606],[-106.732193,45.802601],[-106.732205,45.798982],[-106.732217,45.795362],[-106.73222,45.791743],[-106.732223,45.788184],[-106.732969,45.788183],[-106.737399,45.78818],[-106.73821,45.788179],[-106.742574,45.788176],[-106.74343,45.788174],[-106.747725,45.788167],[-106.748551,45.788165]]]}},{"type":"Feature","properties":{"sec":"27","frstdivid":"MT200010N0400E0SN270"},"geometry":{"type":"Polygon","coordinates":[[[-106.747751,45.802614],[-106.752932,45.802618],[-106.752928,45.806239],[-106.752923,45.809861],[-106.752915,45.813482],[-106.752906,45.817104],[-106.747721,45.817098],[-106.742536,45.817093],[-106.737351,45.817091],[-106.732165,45.81709],[-106.732175,45.813473],[-106.732184,45.809855],[-106.732189,45.806228],[-106.732193,45.802601],[-106.737382,45.802606],[-106.74257,45.802611],[-106.747751,45.802614]]]}},{"type":"Feature","properties":{"sec":"04","frstdivid":"MT200010N0400E0SN040"},"geometry":{"type":"Polygon","coordinates":[[[-106.768347,45.860607],[-106.773527,45.860596],[-106.77352,45.864221],[-106.773513,45.867847],[-106.773506,45.871472],[-106.773497,45.875916],[-106.768903,45.875902],[-106.768315,45.8759],[-106.763723,45.875885],[-106.763133,45.875886],[-106.758543,45.875891],[-106.757951,45.875891],[-106.753362,45.875896],[-106.752769,45.875894],[-106.752778,45.871503],[-106.752785,45.867875],[-106.752799,45.864248],[-106.752814,45.860622],[-106.757982,45.860626],[-106.763167,45.860618],[-106.768347,45.860607]]]}},{"type":"Feature","properties":{"sec":"07","frstdivid":"MT200010N0400E0SN070"},"geometry":{"type":"Polygon","coordinates":[[[-106.809846,45.846104],[-106.815021,45.846116],[-106.81502,45.84974],[-106.815018,45.853363],[-106.815017,45.856984],[-106.815015,45.860606],[-106.809836,45.860593],[-106.804655,45.860582],[-106.799468,45.860581],[-106.794282,45.86058],[-106.794292,45.856953],[-106.794302,45.853326],[-106.794312,45.849697],[-106.794321,45.846069],[-106.799496,45.846081],[-106.804671,45.846093],[-106.809846,45.846104]]]}},{"type":"Feature","properties":{"sec":"23","frstdivid":"MT200010N0400E0SN230"},"geometry":{"type":"Polygon","coordinates":[[[-106.726978,45.817057],[-106.732165,45.81709],[-106.732158,45.82071],[-106.732151,45.824331],[-106.732135,45.827956],[-106.732119,45.831581],[-106.726941,45.831569],[-106.721763,45.831557],[-106.716585,45.831545],[-106.711406,45.831532],[-106.711417,45.827904],[-106.711427,45.824275],[-106.711437,45.820647],[-106.711446,45.817019],[-106.716619,45.817021],[-106.721792,45.817024],[-106.726978,45.817057]]]}},{"type":"Feature","properties":{"sec":"28","frstdivid":"MT200010N0400E0SN280"},"geometry":{"type":"Polygon","coordinates":[[[-106.768492,45.802628],[-106.773684,45.802633],[-106.773677,45.806252],[-106.77367,45.80987],[-106.773669,45.813486],[-106.773667,45.817102],[-106.768459,45.817102],[-106.763251,45.817102],[-106.758078,45.817103],[-106.752906,45.817104],[-106.752915,45.813482],[-106.752923,45.809861],[-106.752928,45.806239],[-106.752932,45.802618],[-106.758117,45.80262],[-106.763301,45.802623],[-106.768492,45.802628]]]}},{"type":"Feature","properties":{"sec":"11","frstdivid":"MT200010N0400E0SN110"},"geometry":{"type":"Polygon","coordinates":[[[-106.726906,45.846075],[-106.732094,45.846082],[-106.732083,45.849714],[-106.732072,45.853346],[-106.732059,45.856978],[-106.732068,45.860595],[-106.726878,45.860587],[-106.721688,45.860579],[-106.716511,45.860567],[-106.711334,45.860555],[-106.71131,45.856951],[-106.711326,45.85332],[-106.711342,45.849689],[-106.711358,45.846058],[-106.716536,45.846064],[-106.721714,45.846069],[-106.726906,45.846075]]]}}]}