{"type":"FeatureCollection","note":"BLM Public Land Survey System. Provided by the Bureau of Land Management as is. These data are neither legal documents nor land surveys and must not be used as such.","features":[{"type":"Feature","properties":{"sec":"29","frstdivid":"MT200110N0250E0SN290"},"geometry":{"type":"Polygon","coordinates":[[[-108.589694,46.691447],[-108.589708,46.687826],[-108.589723,46.684204],[-108.589737,46.680582],[-108.589752,46.67696],[-108.595017,46.676973],[-108.600283,46.676986],[-108.605549,46.676999],[-108.610814,46.677011],[-108.610801,46.680628],[-108.610788,46.684246],[-108.610774,46.687863],[-108.610761,46.69148],[-108.605494,46.691472],[-108.600227,46.691464],[-108.594961,46.691456],[-108.589694,46.691447]]]}},{"type":"Feature","properties":{"sec":"08","frstdivid":"MT200110N0250E0SN080"},"geometry":{"type":"Polygon","coordinates":[[[-108.61057,46.720443],[-108.610552,46.72406],[-108.610534,46.727677],[-108.610516,46.731293],[-108.610499,46.73491],[-108.60521,46.734891],[-108.599921,46.734871],[-108.594633,46.734852],[-108.589344,46.734832],[-108.58938,46.73122],[-108.589415,46.727607],[-108.589451,46.723994],[-108.589486,46.720381],[-108.594757,46.720396],[-108.600028,46.720412],[-108.605299,46.720428],[-108.61057,46.720443]]]}},{"type":"Feature","properties":{"sec":"03","frstdivid":"MT200110N0250E0SN030"},"geometry":{"type":"Polygon","coordinates":[[[-108.547287,46.749238],[-108.547278,46.745655],[-108.547268,46.742035],[-108.547266,46.738415],[-108.547263,46.734795],[-108.552527,46.734798],[-108.557791,46.734802],[-108.563055,46.734805],[-108.568319,46.734809],[-108.56832,46.738427],[-108.568322,46.742045],[-108.56833,46.745664],[-108.568339,46.749228],[-108.563076,46.74923],[-108.557813,46.749233],[-108.55255,46.749236],[-108.547287,46.749238]]]}},{"type":"Feature","properties":{"sec":"24","frstdivid":"MT200110N0250E0SN240"},"geometry":{"type":"Polygon","coordinates":[[[-108.510579,46.705801],[-108.505307,46.705798],[-108.505331,46.702161],[-108.505355,46.698525],[-108.505382,46.694901],[-108.505409,46.691277],[-108.510677,46.691288],[-108.515944,46.691298],[-108.521212,46.691308],[-108.526479,46.691319],[-108.526458,46.694942],[-108.526438,46.698564],[-108.526417,46.702187],[-108.526397,46.70581],[-108.521124,46.705807],[-108.515852,46.705804],[-108.510579,46.705801]]]}},{"type":"Feature","properties":{"sec":"25","frstdivid":"MT200110N0250E0SN250"},"geometry":{"type":"Polygon","coordinates":[[[-108.516037,46.67682],[-108.521298,46.676836],[-108.526558,46.676852],[-108.526538,46.680469],[-108.526519,46.684085],[-108.526499,46.687702],[-108.526479,46.691319],[-108.521212,46.691308],[-108.515944,46.691298],[-108.510677,46.691288],[-108.505409,46.691277],[-108.505436,46.687655],[-108.505462,46.684032],[-108.505489,46.68041],[-108.505516,46.676788],[-108.510776,46.676804],[-108.516037,46.67682]]]}},{"type":"Feature","properties":{"sec":"07","frstdivid":"MT200110N0250E0SN070"},"geometry":{"type":"Polygon","coordinates":[[[-108.621108,46.720434],[-108.626374,46.720427],[-108.631349,46.72042],[-108.631358,46.724041],[-108.631366,46.727663],[-108.631374,46.731284],[-108.631383,46.734906],[-108.626334,46.73491],[-108.621062,46.734915],[-108.61578,46.734912],[-108.610499,46.73491],[-108.610516,46.731293],[-108.610534,46.727677],[-108.610552,46.72406],[-108.61057,46.720443],[-108.615839,46.720439],[-108.621108,46.720434]]]}},{"type":"Feature","properties":{"sec":"23","frstdivid":"MT200110N0250E0SN230"},"geometry":{"type":"Polygon","coordinates":[[[-108.547518,46.694983],[-108.547497,46.698603],[-108.547476,46.702223],[-108.547455,46.705843],[-108.542191,46.705835],[-108.536926,46.705827],[-108.531661,46.705818],[-108.526397,46.70581],[-108.526417,46.702187],[-108.526438,46.698564],[-108.526458,46.694942],[-108.526479,46.691319],[-108.531744,46.69133],[-108.537009,46.691341],[-108.542274,46.691352],[-108.547539,46.691362],[-108.547518,46.694983]]]}},{"type":"Feature","properties":{"sec":"31","frstdivid":"MT200110N0250E0SN310"},"geometry":{"type":"Polygon","coordinates":[[[-108.621429,46.662541],[-108.62669,46.662543],[-108.631549,46.662545],[-108.631537,46.66616],[-108.631525,46.669775],[-108.631512,46.673391],[-108.6315,46.677006],[-108.626585,46.677009],[-108.621328,46.677012],[-108.616071,46.677012],[-108.610814,46.677011],[-108.610835,46.673392],[-108.610855,46.669772],[-108.610875,46.666152],[-108.610896,46.662533],[-108.616162,46.662537],[-108.621429,46.662541]]]}},{"type":"Feature","properties":{"sec":"20","frstdivid":"MT200110N0250E0SN200"},"geometry":{"type":"Polygon","coordinates":[[[-108.60539,46.705955],[-108.600128,46.705942],[-108.594865,46.705929],[-108.589603,46.705915],[-108.589626,46.702298],[-108.589648,46.698681],[-108.589671,46.695064],[-108.589694,46.691447],[-108.594961,46.691456],[-108.600227,46.691464],[-108.605494,46.691472],[-108.610761,46.69148],[-108.610734,46.695102],[-108.610706,46.698724],[-108.610679,46.702346],[-108.610652,46.705968],[-108.60539,46.705955]]]}},{"type":"Feature","properties":{"sec":"30","frstdivid":"MT200110N0250E0SN300"},"geometry":{"type":"Polygon","coordinates":[[[-108.63145,46.687851],[-108.631434,46.691466],[-108.626564,46.691471],[-108.6213,46.691475],[-108.61603,46.691478],[-108.610761,46.69148],[-108.610774,46.687863],[-108.610788,46.684246],[-108.610801,46.680628],[-108.610814,46.677011],[-108.616071,46.677012],[-108.621328,46.677012],[-108.626585,46.677009],[-108.6315,46.677006],[-108.631484,46.680621],[-108.631467,46.684236],[-108.63145,46.687851]]]}},{"type":"Feature","properties":{"sec":"09","frstdivid":"MT200110N0250E0SN090"},"geometry":{"type":"Polygon","coordinates":[[[-108.578831,46.734821],[-108.573575,46.734815],[-108.568319,46.734809],[-108.568348,46.731191],[-108.568378,46.727574],[-108.568407,46.723956],[-108.568437,46.720338],[-108.573699,46.720349],[-108.578961,46.72036],[-108.584224,46.72037],[-108.589486,46.720381],[-108.589451,46.723994],[-108.589415,46.727607],[-108.58938,46.73122],[-108.589344,46.734832],[-108.584088,46.734827],[-108.578831,46.734821]]]}},{"type":"Feature","properties":{"sec":"10","frstdivid":"MT200110N0250E0SN100"},"geometry":{"type":"Polygon","coordinates":[[[-108.552527,46.734798],[-108.547263,46.734795],[-108.54729,46.731174],[-108.547318,46.727553],[-108.547345,46.723932],[-108.547373,46.720311],[-108.552639,46.720318],[-108.557905,46.720325],[-108.563171,46.720332],[-108.568437,46.720338],[-108.568407,46.723956],[-108.568378,46.727574],[-108.568348,46.731191],[-108.568319,46.734809],[-108.563055,46.734805],[-108.557791,46.734802],[-108.552527,46.734798]]]}},{"type":"Feature","properties":{"sec":"21","frstdivid":"MT200110N0250E0SN210"},"geometry":{"type":"Polygon","coordinates":[[[-108.568539,46.705866],[-108.568556,46.702249],[-108.568572,46.698633],[-108.568588,46.695016],[-108.568604,46.691399],[-108.573877,46.691411],[-108.579149,46.691424],[-108.584422,46.691435],[-108.589694,46.691447],[-108.589671,46.695064],[-108.589648,46.698681],[-108.589626,46.702298],[-108.589603,46.705915],[-108.584337,46.705903],[-108.579071,46.705891],[-108.573805,46.705878],[-108.568539,46.705866]]]}},{"type":"Feature","properties":{"sec":"33","frstdivid":"MT200110N0250E0SN330"},"geometry":{"type":"Polygon","coordinates":[[[-108.589752,46.67696],[-108.584486,46.676952],[-108.579219,46.676943],[-108.573953,46.676934],[-108.568687,46.676925],[-108.568702,46.673306],[-108.568717,46.669687],[-108.568732,46.666068],[-108.568746,46.662449],[-108.574013,46.662459],[-108.57928,46.662469],[-108.584547,46.662479],[-108.589814,46.662488],[-108.589798,46.666106],[-108.589783,46.669724],[-108.589767,46.673342],[-108.589752,46.67696]]]}},{"type":"Feature","properties":{"sec":"06","frstdivid":"MT200110N0250E0SN060"},"geometry":{"type":"Polygon","coordinates":[[[-108.61578,46.734912],[-108.621062,46.734915],[-108.626334,46.73491],[-108.631383,46.734906],[-108.631413,46.73853],[-108.631444,46.742155],[-108.631459,46.745777],[-108.631474,46.749399],[-108.626334,46.749387],[-108.62101,46.749375],[-108.615686,46.749364],[-108.610363,46.749353],[-108.61039,46.745754],[-108.610417,46.742138],[-108.610458,46.738524],[-108.610499,46.73491],[-108.61578,46.734912]]]}},{"type":"Feature","properties":{"sec":"15","frstdivid":"MT200110N0250E0SN150"},"geometry":{"type":"Polygon","coordinates":[[[-108.547414,46.713077],[-108.547435,46.70946],[-108.547455,46.705843],[-108.552726,46.705849],[-108.557997,46.705855],[-108.563268,46.70586],[-108.568539,46.705866],[-108.568514,46.709484],[-108.568488,46.713102],[-108.568462,46.71672],[-108.568437,46.720338],[-108.563171,46.720332],[-108.557905,46.720325],[-108.552639,46.720318],[-108.547373,46.720311],[-108.547394,46.716694],[-108.547414,46.713077]]]}},{"type":"Feature","properties":{"sec":"19","frstdivid":"MT200110N0250E0SN190"},"geometry":{"type":"Polygon","coordinates":[[[-108.626448,46.705951],[-108.621185,46.705959],[-108.615919,46.705964],[-108.610652,46.705968],[-108.610679,46.702346],[-108.610706,46.698724],[-108.610734,46.695102],[-108.610761,46.69148],[-108.61603,46.691478],[-108.6213,46.691475],[-108.626564,46.691471],[-108.631434,46.691466],[-108.631424,46.695085],[-108.631415,46.698705],[-108.631405,46.702324],[-108.631396,46.705943],[-108.626448,46.705951]]]}},{"type":"Feature","properties":{"sec":"36","frstdivid":"MT200110N0250E0SN360"},"geometry":{"type":"Polygon","coordinates":[[[-108.516137,46.662325],[-108.521391,46.662343],[-108.526645,46.662362],[-108.526624,46.665984],[-108.526602,46.669607],[-108.52658,46.673229],[-108.526558,46.676852],[-108.521298,46.676836],[-108.516037,46.67682],[-108.510776,46.676804],[-108.505516,46.676788],[-108.505544,46.673163],[-108.505572,46.669538],[-108.5056,46.665913],[-108.505628,46.662287],[-108.510882,46.662306],[-108.516137,46.662325]]]}},{"type":"Feature","properties":{"sec":"35","frstdivid":"MT200110N0250E0SN350"},"geometry":{"type":"Polygon","coordinates":[[[-108.537092,46.676869],[-108.531825,46.67686],[-108.526558,46.676852],[-108.52658,46.673229],[-108.526602,46.669607],[-108.526624,46.665984],[-108.526645,46.662362],[-108.531906,46.662374],[-108.537167,46.662385],[-108.542428,46.662397],[-108.547689,46.662409],[-108.547673,46.666028],[-108.547657,46.669648],[-108.547642,46.673267],[-108.547626,46.676887],[-108.542359,46.676878],[-108.537092,46.676869]]]}},{"type":"Feature","properties":{"sec":"13","frstdivid":"MT200110N0250E0SN130"},"geometry":{"type":"Polygon","coordinates":[[[-108.520988,46.720289],[-108.515716,46.720285],[-108.510444,46.720281],[-108.505172,46.720276],[-108.505214,46.716674],[-108.505256,46.713071],[-108.505282,46.709435],[-108.505307,46.705798],[-108.510579,46.705801],[-108.515852,46.705804],[-108.521124,46.705807],[-108.526397,46.70581],[-108.526362,46.709431],[-108.526328,46.713052],[-108.526294,46.716673],[-108.526259,46.720294],[-108.520988,46.720289]]]}},{"type":"Feature","properties":{"sec":"11","frstdivid":"MT200110N0250E0SN110"},"geometry":{"type":"Polygon","coordinates":[[[-108.54729,46.731174],[-108.547263,46.734795],[-108.541994,46.734793],[-108.536725,46.73479],[-108.531456,46.734788],[-108.526186,46.734786],[-108.526205,46.731163],[-108.526223,46.72754],[-108.526241,46.723917],[-108.526259,46.720294],[-108.531538,46.720298],[-108.536816,46.720302],[-108.542095,46.720307],[-108.547373,46.720311],[-108.547345,46.723932],[-108.547318,46.727553],[-108.54729,46.731174]]]}},{"type":"Feature","properties":{"sec":"18","frstdivid":"MT200110N0250E0SN180"},"geometry":{"type":"Polygon","coordinates":[[[-108.615839,46.720439],[-108.61057,46.720443],[-108.610591,46.716824],[-108.610611,46.713206],[-108.610632,46.709587],[-108.610652,46.705968],[-108.615919,46.705964],[-108.621185,46.705959],[-108.626448,46.705951],[-108.631396,46.705943],[-108.631384,46.709562],[-108.631373,46.713181],[-108.631361,46.716801],[-108.631349,46.72042],[-108.626374,46.720427],[-108.621108,46.720434],[-108.615839,46.720439]]]}},{"type":"Feature","properties":{"sec":"32","frstdivid":"MT200110N0250E0SN320"},"geometry":{"type":"Polygon","coordinates":[[[-108.589814,46.662488],[-108.595084,46.662499],[-108.600355,46.66251],[-108.605625,46.662522],[-108.610896,46.662533],[-108.610875,46.666152],[-108.610855,46.669772],[-108.610835,46.673392],[-108.610814,46.677011],[-108.605549,46.676999],[-108.600283,46.676986],[-108.595017,46.676973],[-108.589752,46.67696],[-108.589767,46.673342],[-108.589783,46.669724],[-108.589798,46.666106],[-108.589814,46.662488]]]}},{"type":"Feature","properties":{"sec":"16","frstdivid":"MT200110N0250E0SN160"},"geometry":{"type":"Polygon","coordinates":[[[-108.589516,46.716764],[-108.589486,46.720381],[-108.584224,46.72037],[-108.578961,46.72036],[-108.573699,46.720349],[-108.568437,46.720338],[-108.568462,46.71672],[-108.568488,46.713102],[-108.568514,46.709484],[-108.568539,46.705866],[-108.573805,46.705878],[-108.579071,46.705891],[-108.584337,46.705903],[-108.589603,46.705915],[-108.589574,46.709532],[-108.589545,46.713148],[-108.589516,46.716764]]]}},{"type":"Feature","properties":{"sec":"12","frstdivid":"MT200110N0250E0SN120"},"geometry":{"type":"Polygon","coordinates":[[[-108.505172,46.720276],[-108.510444,46.720281],[-108.515716,46.720285],[-108.520988,46.720289],[-108.526259,46.720294],[-108.526241,46.723917],[-108.526223,46.72754],[-108.526205,46.731163],[-108.526186,46.734786],[-108.520915,46.734789],[-108.515643,46.734791],[-108.510372,46.734794],[-108.505101,46.734796],[-108.505119,46.731166],[-108.505137,46.727536],[-108.505154,46.723906],[-108.505172,46.720276]]]}},{"type":"Feature","properties":{"sec":"02","frstdivid":"MT200110N0250E0SN020"},"geometry":{"type":"Polygon","coordinates":[[[-108.547278,46.745655],[-108.547287,46.749238],[-108.542013,46.749241],[-108.53674,46.749243],[-108.531467,46.749245],[-108.526194,46.749247],[-108.526185,46.745643],[-108.526177,46.742024],[-108.526182,46.738405],[-108.526186,46.734786],[-108.531456,46.734788],[-108.536725,46.73479],[-108.541994,46.734793],[-108.547263,46.734795],[-108.547266,46.738415],[-108.547268,46.742035],[-108.547278,46.745655]]]}},{"type":"Feature","properties":{"sec":"34","frstdivid":"MT200110N0250E0SN340"},"geometry":{"type":"Polygon","coordinates":[[[-108.552891,46.676896],[-108.547626,46.676887],[-108.547642,46.673267],[-108.547657,46.669648],[-108.547673,46.666028],[-108.547689,46.662409],[-108.552953,46.662419],[-108.558218,46.662429],[-108.563482,46.662439],[-108.568746,46.662449],[-108.568732,46.666068],[-108.568717,46.669687],[-108.568702,46.673306],[-108.568687,46.676925],[-108.563422,46.676916],[-108.558156,46.676906],[-108.552891,46.676896]]]}},{"type":"Feature","properties":{"sec":"26","frstdivid":"MT200110N0250E0SN260"},"geometry":{"type":"Polygon","coordinates":[[[-108.542274,46.691352],[-108.537009,46.691341],[-108.531744,46.69133],[-108.526479,46.691319],[-108.526499,46.687702],[-108.526519,46.684085],[-108.526538,46.680469],[-108.526558,46.676852],[-108.531825,46.67686],[-108.537092,46.676869],[-108.542359,46.676878],[-108.547626,46.676887],[-108.547604,46.680506],[-108.547583,46.684125],[-108.547561,46.687743],[-108.547539,46.691362],[-108.542274,46.691352]]]}},{"type":"Feature","properties":{"sec":"17","frstdivid":"MT200110N0250E0SN170"},"geometry":{"type":"Polygon","coordinates":[[[-108.589574,46.709532],[-108.589603,46.705915],[-108.594865,46.705929],[-108.600128,46.705942],[-108.60539,46.705955],[-108.610652,46.705968],[-108.610632,46.709587],[-108.610611,46.713206],[-108.610591,46.716824],[-108.61057,46.720443],[-108.605299,46.720428],[-108.600028,46.720412],[-108.594757,46.720396],[-108.589486,46.720381],[-108.589516,46.716764],[-108.589545,46.713148],[-108.589574,46.709532]]]}},{"type":"Feature","properties":{"sec":"14","frstdivid":"MT200110N0250E0SN140"},"geometry":{"type":"Polygon","coordinates":[[[-108.547373,46.720311],[-108.542095,46.720307],[-108.536816,46.720302],[-108.531538,46.720298],[-108.526259,46.720294],[-108.526294,46.716673],[-108.526328,46.713052],[-108.526362,46.709431],[-108.526397,46.70581],[-108.531661,46.705818],[-108.536926,46.705827],[-108.542191,46.705835],[-108.547455,46.705843],[-108.547435,46.70946],[-108.547414,46.713077],[-108.547394,46.716694],[-108.547373,46.720311]]]}},{"type":"Feature","properties":{"sec":"22","frstdivid":"MT200110N0250E0SN220"},"geometry":{"type":"Polygon","coordinates":[[[-108.563338,46.69139],[-108.568604,46.691399],[-108.568588,46.695016],[-108.568572,46.698633],[-108.568556,46.702249],[-108.568539,46.705866],[-108.563268,46.70586],[-108.557997,46.705855],[-108.552726,46.705849],[-108.547455,46.705843],[-108.547476,46.702223],[-108.547497,46.698603],[-108.547518,46.694983],[-108.547539,46.691362],[-108.552806,46.691372],[-108.558072,46.691381],[-108.563338,46.69139]]]}},{"type":"Feature","properties":{"sec":"05","frstdivid":"MT200110N0250E0SN050"},"geometry":{"type":"Polygon","coordinates":[[[-108.594587,46.749264],[-108.589329,46.749234],[-108.589326,46.74567],[-108.589324,46.742055],[-108.589334,46.738444],[-108.589344,46.734832],[-108.594633,46.734852],[-108.599921,46.734871],[-108.60521,46.734891],[-108.610499,46.73491],[-108.610458,46.738524],[-108.610417,46.742138],[-108.61039,46.745754],[-108.610363,46.749353],[-108.605104,46.749323],[-108.599846,46.749293],[-108.594587,46.749264]]]}},{"type":"Feature","properties":{"sec":"01","frstdivid":"MT200110N0250E0SN010"},"geometry":{"type":"Polygon","coordinates":[[[-108.520915,46.734789],[-108.526186,46.734786],[-108.526182,46.738405],[-108.526177,46.742024],[-108.526185,46.745643],[-108.526194,46.749247],[-108.520894,46.74925],[-108.515595,46.749253],[-108.510296,46.749256],[-108.504997,46.749259],[-108.505023,46.745643],[-108.505049,46.742027],[-108.505075,46.738412],[-108.505101,46.734796],[-108.510372,46.734794],[-108.515643,46.734791],[-108.520915,46.734789]]]}},{"type":"Feature","properties":{"sec":"27","frstdivid":"MT200110N0250E0SN270"},"geometry":{"type":"Polygon","coordinates":[[[-108.568604,46.691399],[-108.563338,46.69139],[-108.558072,46.691381],[-108.552806,46.691372],[-108.547539,46.691362],[-108.547561,46.687743],[-108.547583,46.684125],[-108.547604,46.680506],[-108.547626,46.676887],[-108.552891,46.676896],[-108.558156,46.676906],[-108.563422,46.676916],[-108.568687,46.676925],[-108.568666,46.680544],[-108.568646,46.684162],[-108.568625,46.687781],[-108.568604,46.691399]]]}},{"type":"Feature","properties":{"sec":"04","frstdivid":"MT200110N0250E0SN040"},"geometry":{"type":"Polygon","coordinates":[[[-108.568339,46.749228],[-108.56833,46.745664],[-108.568322,46.742045],[-108.56832,46.738427],[-108.568319,46.734809],[-108.573575,46.734815],[-108.578831,46.734821],[-108.584088,46.734827],[-108.589344,46.734832],[-108.589334,46.738444],[-108.589324,46.742055],[-108.589326,46.74567],[-108.589329,46.749234],[-108.584081,46.749232],[-108.578834,46.749231],[-108.573586,46.749229],[-108.568339,46.749228]]]}},{"type":"Feature","properties":{"sec":"28","frstdivid":"MT200110N0250E0SN280"},"geometry":{"type":"Polygon","coordinates":[[[-108.573877,46.691411],[-108.568604,46.691399],[-108.568625,46.687781],[-108.568646,46.684162],[-108.568666,46.680544],[-108.568687,46.676925],[-108.573953,46.676934],[-108.579219,46.676943],[-108.584486,46.676952],[-108.589752,46.67696],[-108.589737,46.680582],[-108.589723,46.684204],[-108.589708,46.687826],[-108.589694,46.691447],[-108.584422,46.691435],[-108.579149,46.691424],[-108.573877,46.691411]]]}}]}