{"type":"FeatureCollection","note":"BLM Public Land Survey System. Provided by the Bureau of Land Management as is. These data are neither legal documents nor land surveys and must not be used as such.","features":[{"type":"Feature","properties":{"sec":"31","frstdivid":"MT200010S0330E0SN310"},"geometry":{"type":"Polygon","coordinates":[[[-107.682894,45.694196],[-107.683338,45.694193],[-107.683589,45.694191],[-107.688062,45.694171],[-107.68855,45.694169],[-107.693229,45.694148],[-107.693761,45.694145],[-107.693903,45.694143],[-107.69836,45.69454],[-107.698935,45.694591],[-107.70349,45.694995],[-107.70349,45.696265],[-107.703489,45.698619],[-107.703489,45.69991],[-107.703489,45.702243],[-107.703489,45.703515],[-107.70349,45.705869],[-107.703491,45.707121],[-107.703493,45.709495],[-107.698329,45.709485],[-107.693165,45.709474],[-107.688001,45.709463],[-107.682837,45.709453],[-107.682856,45.705827],[-107.682876,45.702202],[-107.682884,45.698573],[-107.682894,45.694196]]]}},{"type":"Feature","properties":{"sec":"34","frstdivid":"MT200010S0330E0SN340"},"geometry":{"type":"Polygon","coordinates":[[[-107.621944,45.701991],[-107.6219,45.698325],[-107.621851,45.694656],[-107.626989,45.694621],[-107.632122,45.694578],[-107.638113,45.694524],[-107.641524,45.694492],[-107.641516,45.698563],[-107.641508,45.702191],[-107.641464,45.705815],[-107.641421,45.70944],[-107.638091,45.709446],[-107.638091,45.709272],[-107.632316,45.709266],[-107.627164,45.709303],[-107.622007,45.709337],[-107.621978,45.705666],[-107.621944,45.701991]]]}},{"type":"Feature","properties":{"sec":"32","frstdivid":"MT200010S0330E0SN320"},"geometry":{"type":"Polygon","coordinates":[[[-107.662225,45.69432],[-107.663034,45.694314],[-107.66739,45.694283],[-107.6678,45.69428],[-107.672554,45.694246],[-107.67298,45.694243],[-107.673303,45.69424],[-107.677724,45.69422],[-107.678159,45.694218],[-107.682894,45.694196],[-107.682884,45.698573],[-107.682876,45.702202],[-107.682856,45.705827],[-107.682837,45.709453],[-107.677672,45.709454],[-107.672506,45.709454],[-107.66733,45.709453],[-107.662153,45.709451],[-107.662178,45.705827],[-107.662203,45.702202],[-107.662213,45.698564],[-107.662225,45.69432]]]}},{"type":"Feature","properties":{"sec":"33","frstdivid":"MT200010S0330E0SN330"},"geometry":{"type":"Polygon","coordinates":[[[-107.641464,45.705815],[-107.641508,45.702191],[-107.641516,45.698563],[-107.641524,45.694492],[-107.642425,45.694484],[-107.646696,45.69445],[-107.647586,45.694443],[-107.651868,45.69441],[-107.652746,45.694402],[-107.657047,45.694364],[-107.65789,45.694357],[-107.662225,45.69432],[-107.662213,45.698564],[-107.662203,45.702202],[-107.662178,45.705827],[-107.662153,45.709451],[-107.656982,45.709428],[-107.651811,45.709406],[-107.646616,45.709423],[-107.641421,45.70944],[-107.641464,45.705815]]]}},{"type":"Feature","properties":{"sec":"36","frstdivid":"MT200010S0330E0SN360"},"geometry":{"type":"Polygon","coordinates":[[[-107.577938,45.708867],[-107.577902,45.705245],[-107.577866,45.701623],[-107.577828,45.697993],[-107.577791,45.694362],[-107.582958,45.694326],[-107.586717,45.694304],[-107.588422,45.694776],[-107.589205,45.694993],[-107.589269,45.694993],[-107.590919,45.694987],[-107.595802,45.694933],[-107.596076,45.694931],[-107.601224,45.694878],[-107.601276,45.698534],[-107.60133,45.702187],[-107.601382,45.705839],[-107.601437,45.709489],[-107.596263,45.709492],[-107.595733,45.709492],[-107.593161,45.709496],[-107.591895,45.709498],[-107.59165,45.709499],[-107.591094,45.7095],[-107.585461,45.708857],[-107.583105,45.708858],[-107.577938,45.708867]]]}},{"type":"Feature","properties":{"sec":"35","frstdivid":"MT200010S0330E0SN350"},"geometry":{"type":"Polygon","coordinates":[[[-107.601276,45.698534],[-107.601224,45.694878],[-107.606368,45.694826],[-107.611563,45.69477],[-107.616704,45.694719],[-107.621851,45.694656],[-107.6219,45.698325],[-107.621944,45.701991],[-107.621978,45.705666],[-107.622007,45.709337],[-107.61687,45.709375],[-107.61173,45.70941],[-107.606583,45.70945],[-107.601437,45.709489],[-107.601382,45.705839],[-107.60133,45.702187],[-107.601276,45.698534]]]}},{"type":"Feature","properties":{"sec":"30","frstdivid":"MT200010S0330E0SN300"},"geometry":{"type":"Polygon","coordinates":[[[-107.682845,45.716702],[-107.682841,45.713077],[-107.682837,45.709453],[-107.688001,45.709463],[-107.693165,45.709474],[-107.698329,45.709485],[-107.703493,45.709495],[-107.703498,45.710747],[-107.703507,45.713121],[-107.703512,45.714373],[-107.70352,45.716746],[-107.703521,45.718],[-107.703521,45.720369],[-107.703521,45.721627],[-107.703521,45.723991],[-107.698357,45.72398],[-107.693193,45.723969],[-107.688019,45.72396],[-107.682845,45.723952],[-107.682845,45.720327],[-107.682845,45.716702]]]}},{"type":"Feature","properties":{"sec":"03","frstdivid":"MT200010S0330E0SN030"},"geometry":{"type":"Polygon","coordinates":[[[-107.620723,45.768247],[-107.622755,45.768249],[-107.62275,45.767814],[-107.627919,45.767815],[-107.633087,45.767815],[-107.63812,45.76782],[-107.63812,45.767424],[-107.641388,45.767451],[-107.641375,45.77108],[-107.641362,45.774708],[-107.64135,45.778335],[-107.641334,45.782991],[-107.637703,45.782998],[-107.636169,45.783001],[-107.632534,45.783009],[-107.631003,45.783013],[-107.627366,45.783016],[-107.625838,45.783017],[-107.622199,45.78302],[-107.620669,45.783019],[-107.6207,45.778242],[-107.62072,45.774624],[-107.620722,45.771004],[-107.620723,45.768247]]]}},{"type":"Feature","properties":{"sec":"17","frstdivid":"MT200010S0330E0SN170"},"geometry":{"type":"Polygon","coordinates":[[[-107.662132,45.738437],[-107.667319,45.738429],[-107.672505,45.738422],[-107.677685,45.738416],[-107.682859,45.738406],[-107.682862,45.742044],[-107.682861,45.745679],[-107.682859,45.749316],[-107.682858,45.752954],[-107.677679,45.752954],[-107.672501,45.752954],[-107.667311,45.752951],[-107.66212,45.752949],[-107.662124,45.749316],[-107.662124,45.745679],[-107.66213,45.742059],[-107.662132,45.738437]]]}},{"type":"Feature","properties":{"sec":"15","frstdivid":"MT200010S0330E0SN150"},"geometry":{"type":"Polygon","coordinates":[[[-107.622417,45.738657],[-107.627583,45.738646],[-107.632745,45.738631],[-107.638075,45.738644],[-107.638079,45.738439],[-107.641421,45.738447],[-107.641415,45.742071],[-107.641408,45.745695],[-107.641402,45.749319],[-107.641395,45.752943],[-107.638097,45.752933],[-107.638098,45.753058],[-107.632852,45.753053],[-107.627705,45.753071],[-107.622557,45.75309],[-107.622526,45.749483],[-107.622494,45.745877],[-107.622458,45.742269],[-107.622417,45.738657]]]}},{"type":"Feature","properties":{"sec":"16","frstdivid":"MT200010S0330E0SN160"},"geometry":{"type":"Polygon","coordinates":[[[-107.641421,45.738447],[-107.646599,45.738445],[-107.651777,45.738442],[-107.656954,45.738439],[-107.662132,45.738437],[-107.66213,45.742059],[-107.662124,45.745679],[-107.662124,45.749316],[-107.66212,45.752949],[-107.656939,45.752948],[-107.651758,45.752946],[-107.646576,45.752945],[-107.641395,45.752943],[-107.641402,45.749319],[-107.641408,45.745695],[-107.641415,45.742071],[-107.641421,45.738447]]]}},{"type":"Feature","properties":{"sec":"09","frstdivid":"MT200010S0330E0SN090"},"geometry":{"type":"Polygon","coordinates":[[[-107.641384,45.763824],[-107.641381,45.760196],[-107.641388,45.75657],[-107.641395,45.752943],[-107.646576,45.752945],[-107.651758,45.752946],[-107.656939,45.752948],[-107.66212,45.752949],[-107.662116,45.756583],[-107.662112,45.760217],[-107.662107,45.763848],[-107.662103,45.767478],[-107.656921,45.767475],[-107.651739,45.767472],[-107.646563,45.767461],[-107.641388,45.767451],[-107.641384,45.763824]]]}},{"type":"Feature","properties":{"sec":"22","frstdivid":"MT200010S0330E0SN220"},"geometry":{"type":"Polygon","coordinates":[[[-107.622213,45.723936],[-107.627366,45.723891],[-107.63252,45.723846],[-107.638075,45.723857],[-107.638075,45.723935],[-107.641434,45.72394],[-107.641434,45.727563],[-107.641435,45.731186],[-107.641428,45.734817],[-107.641421,45.738447],[-107.638079,45.738439],[-107.638075,45.738644],[-107.632745,45.738631],[-107.627583,45.738646],[-107.622417,45.738657],[-107.622368,45.734978],[-107.622314,45.731296],[-107.622264,45.727616],[-107.622213,45.723936]]]}},{"type":"Feature","properties":{"sec":"06","frstdivid":"MT200010S0330E0SN060"},"geometry":{"type":"Polygon","coordinates":[[[-107.682841,45.767495],[-107.68802,45.767493],[-107.693199,45.767491],[-107.698378,45.76749],[-107.703557,45.767488],[-107.703557,45.768802],[-107.703557,45.771109],[-107.703557,45.772443],[-107.703558,45.77473],[-107.703561,45.776055],[-107.703565,45.778357],[-107.703567,45.779667],[-107.703572,45.782954],[-107.700372,45.782956],[-107.698384,45.782957],[-107.695191,45.782959],[-107.693197,45.78296],[-107.690011,45.782961],[-107.688009,45.782961],[-107.68483,45.782962],[-107.682821,45.782963],[-107.682826,45.778394],[-107.68283,45.774771],[-107.682836,45.771133],[-107.682841,45.767495]]]}},{"type":"Feature","properties":{"sec":"07","frstdivid":"MT200010S0330E0SN070"},"geometry":{"type":"Polygon","coordinates":[[[-107.682858,45.752954],[-107.688039,45.752967],[-107.69322,45.75298],[-107.69838,45.752984],[-107.703541,45.752987],[-107.703542,45.754279],[-107.703545,45.756611],[-107.703547,45.757906],[-107.70355,45.760236],[-107.703551,45.761533],[-107.703554,45.763862],[-107.703556,45.76516],[-107.703557,45.767488],[-107.698378,45.76749],[-107.693199,45.767491],[-107.68802,45.767493],[-107.682841,45.767495],[-107.682846,45.763859],[-107.68285,45.760224],[-107.682854,45.756589],[-107.682858,45.752954]]]}},{"type":"Feature","properties":{"sec":"21","frstdivid":"MT200010S0330E0SN210"},"geometry":{"type":"Polygon","coordinates":[[[-107.641428,45.734817],[-107.641435,45.731186],[-107.641434,45.727563],[-107.641434,45.72394],[-107.646611,45.72394],[-107.651789,45.72394],[-107.656964,45.723941],[-107.662139,45.723942],[-107.662139,45.727567],[-107.662138,45.731192],[-107.662135,45.734815],[-107.662132,45.738437],[-107.656954,45.738439],[-107.651777,45.738442],[-107.646599,45.738445],[-107.641421,45.738447],[-107.641428,45.734817]]]}},{"type":"Feature","properties":{"sec":"27","frstdivid":"MT200010S0330E0SN270"},"geometry":{"type":"Polygon","coordinates":[[[-107.622007,45.709337],[-107.627164,45.709303],[-107.632316,45.709266],[-107.638091,45.709272],[-107.638091,45.709446],[-107.641421,45.70944],[-107.641424,45.713065],[-107.641427,45.71669],[-107.64143,45.720315],[-107.641434,45.72394],[-107.638075,45.723935],[-107.638075,45.723857],[-107.63252,45.723846],[-107.627366,45.723891],[-107.622213,45.723936],[-107.622165,45.720284],[-107.622117,45.716631],[-107.622064,45.712986],[-107.622007,45.709337]]]}},{"type":"Feature","properties":{"sec":"05","frstdivid":"MT200010S0330E0SN050"},"geometry":{"type":"Polygon","coordinates":[[[-107.662098,45.771116],[-107.662103,45.767478],[-107.667288,45.767482],[-107.672472,45.767486],[-107.677657,45.767491],[-107.682841,45.767495],[-107.682836,45.771133],[-107.68283,45.774771],[-107.682826,45.778394],[-107.682821,45.782963],[-107.679645,45.782963],[-107.677638,45.782963],[-107.674459,45.782963],[-107.672456,45.782967],[-107.668735,45.78297],[-107.667268,45.78297],[-107.663544,45.78297],[-107.662081,45.782973],[-107.662087,45.77838],[-107.662092,45.774755],[-107.662098,45.771116]]]}},{"type":"Feature","properties":{"sec":"18","frstdivid":"MT200010S0330E0SN180"},"geometry":{"type":"Polygon","coordinates":[[[-107.682859,45.738406],[-107.68803,45.738431],[-107.693196,45.738452],[-107.698366,45.738472],[-107.703536,45.738493],[-107.703537,45.739764],[-107.703537,45.742117],[-107.703538,45.743392],[-107.703539,45.745741],[-107.703539,45.747022],[-107.70354,45.749364],[-107.70354,45.750652],[-107.703541,45.752987],[-107.69838,45.752984],[-107.69322,45.75298],[-107.688039,45.752967],[-107.682858,45.752954],[-107.682859,45.749316],[-107.682861,45.745679],[-107.682862,45.742044],[-107.682859,45.738406]]]}},{"type":"Feature","properties":{"sec":"10","frstdivid":"MT200010S0330E0SN100"},"geometry":{"type":"Polygon","coordinates":[[[-107.622557,45.75309],[-107.627705,45.753071],[-107.632852,45.753053],[-107.638098,45.753058],[-107.638097,45.752933],[-107.641395,45.752943],[-107.641388,45.75657],[-107.641381,45.760196],[-107.641384,45.763824],[-107.641388,45.767451],[-107.63812,45.767424],[-107.63812,45.76782],[-107.633087,45.767815],[-107.627919,45.767815],[-107.62275,45.767814],[-107.622703,45.764136],[-107.622655,45.760458],[-107.622606,45.756774],[-107.622557,45.75309]]]}},{"type":"Feature","properties":{"sec":"08","frstdivid":"MT200010S0330E0SN080"},"geometry":{"type":"Polygon","coordinates":[[[-107.66212,45.752949],[-107.667311,45.752951],[-107.672501,45.752954],[-107.677679,45.752954],[-107.682858,45.752954],[-107.682854,45.756589],[-107.68285,45.760224],[-107.682846,45.763859],[-107.682841,45.767495],[-107.677657,45.767491],[-107.672472,45.767486],[-107.667288,45.767482],[-107.662103,45.767478],[-107.662107,45.763848],[-107.662112,45.760217],[-107.662116,45.756583],[-107.66212,45.752949]]]}},{"type":"Feature","properties":{"sec":"20","frstdivid":"MT200010S0330E0SN200"},"geometry":{"type":"Polygon","coordinates":[[[-107.662139,45.723942],[-107.667315,45.723945],[-107.672492,45.723947],[-107.677668,45.72395],[-107.682845,45.723952],[-107.682849,45.727567],[-107.682854,45.731183],[-107.682859,45.734796],[-107.682859,45.738406],[-107.677685,45.738416],[-107.672505,45.738422],[-107.667319,45.738429],[-107.662132,45.738437],[-107.662135,45.734815],[-107.662138,45.731192],[-107.662139,45.727567],[-107.662139,45.723942]]]}},{"type":"Feature","properties":{"sec":"04","frstdivid":"MT200010S0330E0SN040"},"geometry":{"type":"Polygon","coordinates":[[[-107.641388,45.767451],[-107.646563,45.767461],[-107.651739,45.767472],[-107.656921,45.767475],[-107.662103,45.767478],[-107.662098,45.771116],[-107.662092,45.774755],[-107.662087,45.77838],[-107.662081,45.782973],[-107.658376,45.782976],[-107.656894,45.782977],[-107.653208,45.782979],[-107.651708,45.782984],[-107.648041,45.782985],[-107.646521,45.782985],[-107.642873,45.782987],[-107.641334,45.782991],[-107.64135,45.778335],[-107.641362,45.774708],[-107.641375,45.77108],[-107.641388,45.767451]]]}},{"type":"Feature","properties":{"sec":"28","frstdivid":"MT200010S0330E0SN280"},"geometry":{"type":"Polygon","coordinates":[[[-107.662147,45.716704],[-107.662143,45.720323],[-107.662139,45.723942],[-107.656964,45.723941],[-107.651789,45.72394],[-107.646611,45.72394],[-107.641434,45.72394],[-107.64143,45.720315],[-107.641427,45.71669],[-107.641424,45.713065],[-107.641421,45.70944],[-107.646616,45.709423],[-107.651811,45.709406],[-107.656982,45.709428],[-107.662153,45.709451],[-107.66215,45.713078],[-107.662147,45.716704]]]}},{"type":"Feature","properties":{"sec":"29","frstdivid":"MT200010S0330E0SN290"},"geometry":{"type":"Polygon","coordinates":[[[-107.662147,45.716704],[-107.66215,45.713078],[-107.662153,45.709451],[-107.66733,45.709453],[-107.672506,45.709454],[-107.677672,45.709454],[-107.682837,45.709453],[-107.682841,45.713077],[-107.682845,45.716702],[-107.682845,45.720327],[-107.682845,45.723952],[-107.677668,45.72395],[-107.672492,45.723947],[-107.667315,45.723945],[-107.662139,45.723942],[-107.662143,45.720323],[-107.662147,45.716704]]]}},{"type":"Feature","properties":{"sec":"19","frstdivid":"MT200010S0330E0SN190"},"geometry":{"type":"Polygon","coordinates":[[[-107.682845,45.723952],[-107.688019,45.72396],[-107.693193,45.723969],[-107.698357,45.72398],[-107.703521,45.723991],[-107.703523,45.725254],[-107.703527,45.72762],[-107.703529,45.72888],[-107.703533,45.731249],[-107.703534,45.732508],[-107.703535,45.734871],[-107.703535,45.736136],[-107.703536,45.738493],[-107.698366,45.738472],[-107.693196,45.738452],[-107.68803,45.738431],[-107.682859,45.738406],[-107.682859,45.734796],[-107.682854,45.731183],[-107.682849,45.727567],[-107.682845,45.723952]]]}},{"type":"Feature","properties":{"sec":"11","frstdivid":"MT200010S0330E0SN110"},"geometry":{"type":"Polygon","coordinates":[[[-107.602035,45.760543],[-107.602002,45.756885],[-107.601965,45.753224],[-107.607115,45.753193],[-107.612261,45.753159],[-107.617409,45.753125],[-107.622557,45.75309],[-107.622606,45.756774],[-107.622655,45.760458],[-107.622703,45.764136],[-107.62275,45.767814],[-107.61759,45.767832],[-107.612431,45.76785],[-107.607265,45.767864],[-107.602098,45.767879],[-107.602067,45.764211],[-107.602035,45.760543]]]}},{"type":"Feature","properties":{"sec":"25","frstdivid":"MT200010S0330E0SN250"},"geometry":{"type":"Polygon","coordinates":[[[-107.601562,45.720461],[-107.601607,45.724117],[-107.596449,45.724159],[-107.591291,45.724203],[-107.58706,45.724205],[-107.586119,45.724205],[-107.585954,45.724205],[-107.582616,45.724206],[-107.581236,45.724206],[-107.579222,45.723378],[-107.578085,45.723378],[-107.578047,45.719738],[-107.57801,45.716099],[-107.577974,45.712483],[-107.577938,45.708867],[-107.583105,45.708858],[-107.585461,45.708857],[-107.591094,45.7095],[-107.59165,45.709499],[-107.591895,45.709498],[-107.593161,45.709496],[-107.595733,45.709492],[-107.596263,45.709492],[-107.601437,45.709489],[-107.601498,45.713147],[-107.60151,45.714975],[-107.601523,45.716804],[-107.601562,45.720461]]]}},{"type":"Feature","properties":{"sec":"24","frstdivid":"MT200010S0330E0SN240"},"geometry":{"type":"Polygon","coordinates":[[[-107.578116,45.727013],[-107.578085,45.723378],[-107.579222,45.723378],[-107.581236,45.724206],[-107.582616,45.724206],[-107.585954,45.724205],[-107.586119,45.724205],[-107.58706,45.724205],[-107.591291,45.724203],[-107.596449,45.724159],[-107.601607,45.724117],[-107.60165,45.727774],[-107.601694,45.731431],[-107.601708,45.732514],[-107.601718,45.733324],[-107.60172,45.733492],[-107.60173,45.734291],[-107.601733,45.734468],[-107.60174,45.735081],[-107.601743,45.735248],[-107.601745,45.735465],[-107.601756,45.736277],[-107.601782,45.738727],[-107.596646,45.738748],[-107.591505,45.738765],[-107.586361,45.738796],[-107.581216,45.738826],[-107.581216,45.737807],[-107.579739,45.73512],[-107.579005,45.733784],[-107.578148,45.732225],[-107.578148,45.730648],[-107.578116,45.727013]]]}},{"type":"Feature","properties":{"sec":"12","frstdivid":"MT200010S0330E0SN120"},"geometry":{"type":"Polygon","coordinates":[[[-107.57847,45.76711],[-107.57847,45.763752],[-107.57847,45.762341],[-107.581065,45.761496],[-107.581065,45.760682],[-107.581069,45.757061],[-107.581073,45.753441],[-107.586306,45.7534],[-107.591538,45.753359],[-107.596754,45.753293],[-107.601965,45.753224],[-107.602002,45.756885],[-107.602035,45.760543],[-107.602067,45.764211],[-107.602098,45.767879],[-107.599984,45.767879],[-107.596926,45.767879],[-107.59512,45.767879],[-107.594999,45.768254],[-107.594167,45.768255],[-107.591366,45.768271],[-107.59156,45.767117],[-107.588818,45.767116],[-107.583644,45.767113],[-107.57847,45.76711]]]}},{"type":"Feature","properties":{"sec":"14","frstdivid":"MT200010S0330E0SN140"},"geometry":{"type":"Polygon","coordinates":[[[-107.617267,45.738677],[-107.622417,45.738657],[-107.622458,45.742269],[-107.622494,45.745877],[-107.622526,45.749483],[-107.622557,45.75309],[-107.617409,45.753125],[-107.612261,45.753159],[-107.607115,45.753193],[-107.601965,45.753224],[-107.601914,45.749604],[-107.601858,45.745981],[-107.601823,45.742356],[-107.601782,45.738727],[-107.606949,45.738713],[-107.607733,45.73871],[-107.608229,45.738708],[-107.608364,45.738708],[-107.608864,45.738706],[-107.612112,45.738695],[-107.617267,45.738677]]]}},{"type":"Feature","properties":{"sec":"13","frstdivid":"MT200010S0330E0SN130"},"geometry":{"type":"Polygon","coordinates":[[[-107.581216,45.738826],[-107.586361,45.738796],[-107.591505,45.738765],[-107.596646,45.738748],[-107.601782,45.738727],[-107.601823,45.742356],[-107.601858,45.745981],[-107.601914,45.749604],[-107.601965,45.753224],[-107.596754,45.753293],[-107.591538,45.753359],[-107.586306,45.7534],[-107.581073,45.753441],[-107.581108,45.749782],[-107.581143,45.746124],[-107.58118,45.742475],[-107.581216,45.738826]]]}},{"type":"Feature","properties":{"sec":"26","frstdivid":"MT200010S0330E0SN260"},"geometry":{"type":"Polygon","coordinates":[[[-107.601562,45.720461],[-107.601523,45.716804],[-107.60151,45.714975],[-107.601498,45.713147],[-107.601437,45.709489],[-107.606583,45.70945],[-107.61173,45.70941],[-107.61687,45.709375],[-107.622007,45.709337],[-107.622064,45.712986],[-107.622117,45.716631],[-107.622165,45.720284],[-107.622213,45.723936],[-107.617059,45.723977],[-107.611905,45.724017],[-107.606756,45.724067],[-107.601607,45.724117],[-107.601562,45.720461]]]}},{"type":"Feature","properties":{"sec":"02","frstdivid":"MT200010S0330E0SN020"},"geometry":{"type":"Polygon","coordinates":[[[-107.61759,45.767832],[-107.62275,45.767814],[-107.622755,45.768249],[-107.620723,45.768247],[-107.620722,45.771004],[-107.62072,45.774624],[-107.6207,45.778242],[-107.620669,45.783019],[-107.617014,45.783034],[-107.615505,45.783039],[-107.611829,45.78305],[-107.610337,45.783052],[-107.606622,45.783056],[-107.605165,45.783058],[-107.601415,45.783062],[-107.60015,45.783064],[-107.600148,45.783064],[-107.599992,45.783064],[-107.599992,45.783061],[-107.599986,45.778308],[-107.599985,45.774679],[-107.599983,45.771049],[-107.599979,45.768242],[-107.602097,45.768245],[-107.602098,45.767879],[-107.607265,45.767864],[-107.612431,45.76785],[-107.61759,45.767832]]]}},{"type":"Feature","properties":{"sec":"01","frstdivid":"MT200010S0330E0SN010"},"geometry":{"type":"Polygon","coordinates":[[[-107.57847,45.767372],[-107.57847,45.76711],[-107.583644,45.767113],[-107.588818,45.767116],[-107.59156,45.767117],[-107.591366,45.768271],[-107.594167,45.768255],[-107.594999,45.768254],[-107.59512,45.767879],[-107.596926,45.767879],[-107.599984,45.767879],[-107.602098,45.767879],[-107.602097,45.768245],[-107.599979,45.768242],[-107.599983,45.771049],[-107.599985,45.774679],[-107.599986,45.778308],[-107.599992,45.783061],[-107.599992,45.783064],[-107.596252,45.783077],[-107.594806,45.783082],[-107.592875,45.783089],[-107.591348,45.783092],[-107.59109,45.783092],[-107.588778,45.783094],[-107.585904,45.783102],[-107.583592,45.783108],[-107.580719,45.783116],[-107.578407,45.783117],[-107.578428,45.778234],[-107.578428,45.777971],[-107.578438,45.774614],[-107.578438,45.774351],[-107.578456,45.770993],[-107.578458,45.770731],[-107.578471,45.768326],[-107.57847,45.767372]]]}},{"type":"Feature","properties":{"sec":"23","frstdivid":"MT200010S0330E0SN230"},"geometry":{"type":"Polygon","coordinates":[[[-107.617059,45.723977],[-107.622213,45.723936],[-107.622264,45.727616],[-107.622314,45.731296],[-107.622368,45.734978],[-107.622417,45.738657],[-107.617267,45.738677],[-107.612112,45.738695],[-107.608864,45.738706],[-107.608364,45.738708],[-107.608229,45.738708],[-107.607733,45.73871],[-107.606949,45.738713],[-107.601782,45.738727],[-107.601756,45.736277],[-107.601745,45.735465],[-107.601743,45.735248],[-107.60174,45.735081],[-107.601733,45.734468],[-107.60173,45.734291],[-107.60172,45.733492],[-107.601718,45.733324],[-107.601708,45.732514],[-107.601694,45.731431],[-107.60165,45.727774],[-107.601607,45.724117],[-107.606756,45.724067],[-107.611905,45.724017],[-107.617059,45.723977]]]}}]}