{"type":"FeatureCollection","note":"BLM Public Land Survey System. Provided by the Bureau of Land Management as is. These data are neither legal documents nor land surveys and must not be used as such.","features":[{"type":"Feature","properties":{"sec":"31","frstdivid":"WY060570N0780W0SN310"},"geometry":{"type":"Polygon","coordinates":[[[-106.31818,44.879365],[-106.313255,44.879492],[-106.308186,44.879623],[-106.303118,44.879752],[-106.29805,44.879881],[-106.298131,44.876293],[-106.298212,44.872705],[-106.298292,44.869117],[-106.298373,44.865529],[-106.301596,44.865429],[-106.303367,44.865376],[-106.30544,44.865313],[-106.30836,44.865234],[-106.31217,44.865132],[-106.313355,44.865099],[-106.317253,44.864995],[-106.318346,44.864964],[-106.318305,44.868564],[-106.318263,44.872164],[-106.318222,44.875765],[-106.31818,44.879365]]]}},{"type":"Feature","properties":{"sec":"21","frstdivid":"WY060570N0780W0SN210"},"geometry":{"type":"Polygon","coordinates":[[[-106.2625,44.8952],[-106.267553,44.895084],[-106.272605,44.894969],[-106.277658,44.894853],[-106.277456,44.898446],[-106.277253,44.902038],[-106.27705,44.905631],[-106.276848,44.909224],[-106.271743,44.909355],[-106.266639,44.909487],[-106.261534,44.909618],[-106.25643,44.909749],[-106.256684,44.906141],[-106.256939,44.902533],[-106.257193,44.898924],[-106.257447,44.895316],[-106.2625,44.8952]]]}},{"type":"Feature","properties":{"sec":"25","frstdivid":"WY060570N0780W0SN250"},"geometry":{"type":"Polygon","coordinates":[[[-106.216871,44.885314],[-106.216869,44.888942],[-106.216867,44.89257],[-106.216865,44.896198],[-106.211789,44.896314],[-106.206714,44.896431],[-106.201639,44.896547],[-106.196563,44.896664],[-106.196545,44.893863],[-106.19654,44.893023],[-106.196522,44.890244],[-106.196517,44.889381],[-106.196499,44.886625],[-106.196495,44.88574],[-106.196477,44.883006],[-106.196471,44.882099],[-106.201572,44.881996],[-106.206672,44.881893],[-106.211773,44.88179],[-106.216874,44.881687],[-106.216871,44.885314]]]}},{"type":"Feature","properties":{"sec":"10","frstdivid":"WY060570N0780W0SN100"},"geometry":{"type":"Polygon","coordinates":[[[-106.252388,44.938554],[-106.247326,44.938495],[-106.242265,44.938436],[-106.237203,44.938376],[-106.236767,44.934557],[-106.23633,44.930738],[-106.235893,44.926919],[-106.235457,44.9231],[-106.240627,44.92337],[-106.245798,44.923641],[-106.250969,44.923911],[-106.256139,44.924181],[-106.256467,44.927789],[-106.256794,44.931397],[-106.257122,44.935005],[-106.257449,44.938613],[-106.252388,44.938554]]]}},{"type":"Feature","properties":{"sec":"09","frstdivid":"WY060570N0780W0SN090"},"geometry":{"type":"Polygon","coordinates":[[[-106.257449,44.938613],[-106.257122,44.935005],[-106.256794,44.931397],[-106.256467,44.927789],[-106.256139,44.924181],[-106.261278,44.924035],[-106.266417,44.923889],[-106.271556,44.923743],[-106.276695,44.923597],[-106.276909,44.927191],[-106.277122,44.930785],[-106.277336,44.934379],[-106.277549,44.937973],[-106.272524,44.938133],[-106.267499,44.938293],[-106.262474,44.938453],[-106.257449,44.938613]]]}},{"type":"Feature","properties":{"sec":"14","frstdivid":"WY060570N0780W0SN140"},"geometry":{"type":"Polygon","coordinates":[[[-106.225968,44.909569],[-106.230851,44.909],[-106.235734,44.908431],[-106.235665,44.912099],[-106.235595,44.915766],[-106.235526,44.919433],[-106.235457,44.9231],[-106.230634,44.92363],[-106.225812,44.924159],[-106.22099,44.924688],[-106.216167,44.925218],[-106.216176,44.92159],[-106.216184,44.917963],[-106.216193,44.914335],[-106.216202,44.910707],[-106.221085,44.910138],[-106.225968,44.909569]]]}},{"type":"Feature","properties":{"sec":"04","frstdivid":"WY060570N0780W0SN040"},"geometry":{"type":"Polygon","coordinates":[[[-106.262647,44.952785],[-106.257598,44.952948],[-106.257561,44.949435],[-106.257523,44.945828],[-106.257486,44.94222],[-106.257449,44.938613],[-106.262474,44.938453],[-106.267499,44.938293],[-106.272524,44.938133],[-106.277549,44.937973],[-106.277613,44.941566],[-106.277677,44.945159],[-106.277737,44.948752],[-106.277797,44.952296],[-106.272747,44.952459],[-106.267697,44.952622],[-106.262647,44.952785]]]}},{"type":"Feature","properties":{"sec":"11","frstdivid":"WY060570N0780W0SN110"},"geometry":{"type":"Polygon","coordinates":[[[-106.225812,44.924159],[-106.230634,44.92363],[-106.235457,44.9231],[-106.235893,44.926919],[-106.23633,44.930738],[-106.236767,44.934557],[-106.237203,44.938376],[-106.232165,44.938715],[-106.227127,44.939053],[-106.222089,44.939391],[-106.21705,44.939729],[-106.216829,44.936101],[-106.216609,44.932473],[-106.216388,44.928846],[-106.216167,44.925218],[-106.22099,44.924688],[-106.225812,44.924159]]]}},{"type":"Feature","properties":{"sec":"28","frstdivid":"WY060570N0780W0SN280"},"geometry":{"type":"Polygon","coordinates":[[[-106.257377,44.880886],[-106.262455,44.880785],[-106.267532,44.880683],[-106.27261,44.880582],[-106.277688,44.880481],[-106.27768,44.884074],[-106.277673,44.887667],[-106.277666,44.89126],[-106.277658,44.894853],[-106.272605,44.894969],[-106.267553,44.895084],[-106.2625,44.8952],[-106.257447,44.895316],[-106.25743,44.891709],[-106.257412,44.888101],[-106.257395,44.884493],[-106.257377,44.880886]]]}},{"type":"Feature","properties":{"sec":"34","frstdivid":"WY060570N0780W0SN340"},"geometry":{"type":"Polygon","coordinates":[[[-106.252311,44.880837],[-106.247246,44.880787],[-106.24218,44.880738],[-106.237115,44.880689],[-106.23719,44.87722],[-106.237246,44.874616],[-106.237264,44.873752],[-106.237312,44.870994],[-106.237325,44.870283],[-106.237385,44.866814],[-106.240541,44.866757],[-106.241615,44.866739],[-106.242512,44.866723],[-106.245619,44.866666],[-106.247639,44.866631],[-106.250701,44.866578],[-106.252765,44.866542],[-106.255419,44.866496],[-106.255783,44.86649],[-106.257892,44.866455],[-106.257763,44.870062],[-106.257634,44.87367],[-106.257506,44.877278],[-106.257377,44.880886],[-106.252311,44.880837]]]}},{"type":"Feature","properties":{"sec":"26","frstdivid":"WY060570N0780W0SN260"},"geometry":{"type":"Polygon","coordinates":[[[-106.216865,44.896198],[-106.216867,44.89257],[-106.216869,44.888942],[-106.216871,44.885314],[-106.216874,44.881687],[-106.221934,44.881437],[-106.226994,44.881188],[-106.232054,44.880938],[-106.237115,44.880689],[-106.237124,44.884157],[-106.237133,44.887625],[-106.237142,44.891094],[-106.237152,44.894562],[-106.23208,44.894971],[-106.227008,44.89538],[-106.221937,44.895789],[-106.216865,44.896198]]]}},{"type":"Feature","properties":{"sec":"23","frstdivid":"WY060570N0780W0SN230"},"geometry":{"type":"Polygon","coordinates":[[[-106.216202,44.910707],[-106.216367,44.90708],[-106.216533,44.903452],[-106.216699,44.899825],[-106.216865,44.896198],[-106.221937,44.895789],[-106.227008,44.89538],[-106.23208,44.894971],[-106.237152,44.894562],[-106.236797,44.898029],[-106.236443,44.901497],[-106.236088,44.904964],[-106.235734,44.908431],[-106.230851,44.909],[-106.225968,44.909569],[-106.221085,44.910138],[-106.216202,44.910707]]]}},{"type":"Feature","properties":{"sec":"17","frstdivid":"WY060570N0780W0SN170"},"geometry":{"type":"Polygon","coordinates":[[[-106.297333,44.922932],[-106.292173,44.923099],[-106.287014,44.923265],[-106.281855,44.923431],[-106.276695,44.923597],[-106.276733,44.920004],[-106.276772,44.916411],[-106.27681,44.912817],[-106.276848,44.909224],[-106.281993,44.909064],[-106.287138,44.908903],[-106.292283,44.908743],[-106.297428,44.908582],[-106.297404,44.91217],[-106.29738,44.915757],[-106.297356,44.919345],[-106.297333,44.922932]]]}},{"type":"Feature","properties":{"sec":"22","frstdivid":"WY060570N0780W0SN220"},"geometry":{"type":"Polygon","coordinates":[[[-106.236797,44.898029],[-106.237152,44.894562],[-106.242226,44.894751],[-106.2473,44.894939],[-106.252374,44.895128],[-106.257447,44.895316],[-106.257193,44.898924],[-106.256939,44.902533],[-106.256684,44.906141],[-106.25643,44.909749],[-106.251256,44.90942],[-106.246082,44.90909],[-106.240908,44.908761],[-106.235734,44.908431],[-106.236088,44.904964],[-106.236443,44.901497],[-106.236797,44.898029]]]}},{"type":"Feature","properties":{"sec":"20","frstdivid":"WY060570N0780W0SN200"},"geometry":{"type":"Polygon","coordinates":[[[-106.277456,44.898446],[-106.277658,44.894853],[-106.282719,44.894697],[-106.287781,44.894542],[-106.292842,44.894386],[-106.297903,44.894231],[-106.297785,44.897819],[-106.297666,44.901406],[-106.297547,44.904994],[-106.297428,44.908582],[-106.292283,44.908743],[-106.287138,44.908903],[-106.281993,44.909064],[-106.276848,44.909224],[-106.27705,44.905631],[-106.277253,44.902038],[-106.277456,44.898446]]]}},{"type":"Feature","properties":{"sec":"19","frstdivid":"WY060570N0780W0SN190"},"geometry":{"type":"Polygon","coordinates":[[[-106.313109,44.893881],[-106.31805,44.893766],[-106.318008,44.897367],[-106.317966,44.900967],[-106.317924,44.904568],[-106.317882,44.908168],[-106.312843,44.908269],[-106.307704,44.908372],[-106.302566,44.908477],[-106.297428,44.908582],[-106.297547,44.904994],[-106.297666,44.901406],[-106.297785,44.897819],[-106.297903,44.894231],[-106.302972,44.894114],[-106.30804,44.893998],[-106.313109,44.893881]]]}},{"type":"Feature","properties":{"sec":"30","frstdivid":"WY060570N0780W0SN300"},"geometry":{"type":"Polygon","coordinates":[[[-106.313255,44.879492],[-106.31818,44.879365],[-106.318148,44.882965],[-106.318115,44.886566],[-106.318083,44.890166],[-106.31805,44.893766],[-106.313109,44.893881],[-106.30804,44.893998],[-106.302972,44.894114],[-106.297903,44.894231],[-106.29794,44.890643],[-106.297977,44.887056],[-106.298014,44.883469],[-106.29805,44.879881],[-106.303118,44.879752],[-106.308186,44.879623],[-106.313255,44.879492]]]}},{"type":"Feature","properties":{"sec":"29","frstdivid":"WY060570N0780W0SN290"},"geometry":{"type":"Polygon","coordinates":[[[-106.29794,44.890643],[-106.297903,44.894231],[-106.292842,44.894386],[-106.287781,44.894542],[-106.282719,44.894697],[-106.277658,44.894853],[-106.277666,44.89126],[-106.277673,44.887667],[-106.27768,44.884074],[-106.277688,44.880481],[-106.282778,44.880331],[-106.287869,44.880181],[-106.29296,44.880031],[-106.29805,44.879881],[-106.298014,44.883469],[-106.297977,44.887056],[-106.29794,44.890643]]]}},{"type":"Feature","properties":{"sec":"32","frstdivid":"WY060570N0780W0SN320"},"geometry":{"type":"Polygon","coordinates":[[[-106.286345,44.865893],[-106.288386,44.865832],[-106.291428,44.865739],[-106.293379,44.86568],[-106.296512,44.865585],[-106.298373,44.865529],[-106.298292,44.869117],[-106.298212,44.872705],[-106.298131,44.876293],[-106.29805,44.879881],[-106.29296,44.880031],[-106.287869,44.880181],[-106.282778,44.880331],[-106.277688,44.880481],[-106.277865,44.876889],[-106.278043,44.873296],[-106.27822,44.869703],[-106.278397,44.866111],[-106.281247,44.866033],[-106.283392,44.865973],[-106.286345,44.865893]]]}},{"type":"Feature","properties":{"sec":"27","frstdivid":"WY060570N0780W0SN270"},"geometry":{"type":"Polygon","coordinates":[[[-106.237115,44.880689],[-106.24218,44.880738],[-106.247246,44.880787],[-106.252311,44.880837],[-106.257377,44.880886],[-106.257395,44.884493],[-106.257412,44.888101],[-106.25743,44.891709],[-106.257447,44.895316],[-106.252374,44.895128],[-106.2473,44.894939],[-106.242226,44.894751],[-106.237152,44.894562],[-106.237142,44.891094],[-106.237133,44.887625],[-106.237124,44.884157],[-106.237115,44.880689]]]}},{"type":"Feature","properties":{"sec":"33","frstdivid":"WY060570N0780W0SN330"},"geometry":{"type":"Polygon","coordinates":[[[-106.27822,44.869703],[-106.278043,44.873296],[-106.277865,44.876889],[-106.277688,44.880481],[-106.27261,44.880582],[-106.267532,44.880683],[-106.262455,44.880785],[-106.257377,44.880886],[-106.257506,44.877278],[-106.257634,44.87367],[-106.257763,44.870062],[-106.257892,44.866455],[-106.260865,44.866403],[-106.263018,44.866366],[-106.264535,44.86634],[-106.265947,44.866317],[-106.268145,44.866281],[-106.271047,44.866233],[-106.273271,44.866196],[-106.276148,44.866148],[-106.278397,44.866111],[-106.27822,44.869703]]]}},{"type":"Feature","properties":{"sec":"12","frstdivid":"WY060570N0780W0SN120"},"geometry":{"type":"Polygon","coordinates":[[[-106.21705,44.939729],[-106.212005,44.939886],[-106.20696,44.940043],[-106.201915,44.9402],[-106.19687,44.940357],[-106.196839,44.937283],[-106.196835,44.936716],[-106.196826,44.935344],[-106.196814,44.933666],[-106.196811,44.933075],[-106.196802,44.931703],[-106.196784,44.930049],[-106.19678,44.929434],[-106.196748,44.926432],[-106.196744,44.925793],[-106.2016,44.925649],[-106.206456,44.925505],[-106.211311,44.925362],[-106.216167,44.925218],[-106.216388,44.928846],[-106.216609,44.932473],[-106.216829,44.936101],[-106.21705,44.939729]]]}},{"type":"Feature","properties":{"sec":"35","frstdivid":"WY060570N0780W0SN350"},"geometry":{"type":"Polygon","coordinates":[[[-106.237312,44.870994],[-106.237264,44.873752],[-106.237246,44.874616],[-106.23719,44.87722],[-106.237115,44.880689],[-106.232054,44.880938],[-106.226994,44.881188],[-106.221934,44.881437],[-106.216874,44.881687],[-106.216874,44.878059],[-106.216875,44.874431],[-106.216876,44.870803],[-106.216877,44.867176],[-106.22021,44.867115],[-106.222004,44.867084],[-106.225304,44.867024],[-106.226405,44.867004],[-106.22713,44.866992],[-106.230383,44.866935],[-106.232258,44.866903],[-106.235462,44.866847],[-106.236525,44.866828],[-106.237385,44.866814],[-106.237325,44.870283],[-106.237312,44.870994]]]}},{"type":"Feature","properties":{"sec":"24","frstdivid":"WY060570N0780W0SN240"},"geometry":{"type":"Polygon","coordinates":[[[-106.216533,44.903452],[-106.216367,44.90708],[-106.216202,44.910707],[-106.21132,44.910838],[-106.206438,44.910968],[-106.201556,44.911098],[-106.196675,44.911228],[-106.196651,44.908307],[-106.196647,44.907587],[-106.196624,44.904699],[-106.19662,44.903946],[-106.196597,44.90109],[-106.196592,44.900305],[-106.19657,44.897482],[-106.196563,44.896664],[-106.201639,44.896547],[-106.206714,44.896431],[-106.211789,44.896314],[-106.216865,44.896198],[-106.216699,44.899825],[-106.216533,44.903452]]]}},{"type":"Feature","properties":{"sec":"36","frstdivid":"WY060570N0780W0SN360"},"geometry":{"type":"Polygon","coordinates":[[[-106.216875,44.874431],[-106.216874,44.878059],[-106.216874,44.881687],[-106.211773,44.88179],[-106.206672,44.881893],[-106.201572,44.881996],[-106.196471,44.882099],[-106.196452,44.879385],[-106.196447,44.878459],[-106.196427,44.875765],[-106.196422,44.874818],[-106.196403,44.872144],[-106.196397,44.871178],[-106.196369,44.867537],[-106.199843,44.867476],[-106.201496,44.867447],[-106.204926,44.867387],[-106.206623,44.867358],[-106.210021,44.867297],[-106.21175,44.867267],[-106.215115,44.867206],[-106.216877,44.867176],[-106.216876,44.870803],[-106.216875,44.874431]]]}},{"type":"Feature","properties":{"sec":"06","frstdivid":"WY060570N0780W0SN060"},"geometry":{"type":"Polygon","coordinates":[[[-106.297962,44.948046],[-106.297927,44.944459],[-106.297887,44.940872],[-106.297846,44.937285],[-106.302893,44.937155],[-106.307939,44.937024],[-106.312986,44.936896],[-106.317778,44.936775],[-106.317808,44.940325],[-106.317838,44.943875],[-106.317866,44.947424],[-106.317894,44.950974],[-106.313139,44.951128],[-106.308092,44.951292],[-106.303044,44.951455],[-106.297996,44.951618],[-106.297962,44.948046]]]}},{"type":"Feature","properties":{"sec":"18","frstdivid":"WY060570N0780W0SN180"},"geometry":{"type":"Polygon","coordinates":[[[-106.317841,44.911768],[-106.317799,44.915368],[-106.317758,44.918968],[-106.317716,44.922568],[-106.312779,44.922654],[-106.30763,44.922745],[-106.302481,44.922838],[-106.297333,44.922932],[-106.297356,44.919345],[-106.29738,44.915757],[-106.297404,44.91217],[-106.297428,44.908582],[-106.302566,44.908477],[-106.307704,44.908372],[-106.312843,44.908269],[-106.317882,44.908168],[-106.317841,44.911768]]]}},{"type":"Feature","properties":{"sec":"02","frstdivid":"WY060570N0780W0SN020"},"geometry":{"type":"Polygon","coordinates":[[[-106.217156,44.95061],[-106.21712,44.946983],[-106.217085,44.943356],[-106.21705,44.939729],[-106.222089,44.939391],[-106.227127,44.939053],[-106.232165,44.938715],[-106.237203,44.938376],[-106.237249,44.942195],[-106.237295,44.946013],[-106.237346,44.949832],[-106.237396,44.953588],[-106.232345,44.953755],[-106.227295,44.953923],[-106.222244,44.954091],[-106.217193,44.954259],[-106.217156,44.95061]]]}},{"type":"Feature","properties":{"sec":"15","frstdivid":"WY060570N0780W0SN150"},"geometry":{"type":"Polygon","coordinates":[[[-106.235665,44.912099],[-106.235734,44.908431],[-106.240908,44.908761],[-106.246082,44.90909],[-106.251256,44.90942],[-106.25643,44.909749],[-106.256357,44.913357],[-106.256285,44.916965],[-106.256212,44.920573],[-106.256139,44.924181],[-106.250969,44.923911],[-106.245798,44.923641],[-106.240627,44.92337],[-106.235457,44.9231],[-106.235526,44.919433],[-106.235595,44.915766],[-106.235665,44.912099]]]}},{"type":"Feature","properties":{"sec":"05","frstdivid":"WY060570N0780W0SN050"},"geometry":{"type":"Polygon","coordinates":[[[-106.282847,44.952126],[-106.277797,44.952296],[-106.277737,44.948752],[-106.277677,44.945159],[-106.277613,44.941566],[-106.277549,44.937973],[-106.282623,44.937801],[-106.287698,44.937629],[-106.292772,44.937457],[-106.297846,44.937285],[-106.297887,44.940872],[-106.297927,44.944459],[-106.297962,44.948046],[-106.297996,44.951618],[-106.292946,44.951787],[-106.287896,44.951957],[-106.282847,44.952126]]]}},{"type":"Feature","properties":{"sec":"03","frstdivid":"WY060570N0780W0SN030"},"geometry":{"type":"Polygon","coordinates":[[[-106.247326,44.938495],[-106.252388,44.938554],[-106.257449,44.938613],[-106.257486,44.94222],[-106.257523,44.945828],[-106.257561,44.949435],[-106.257598,44.952948],[-106.252547,44.953108],[-106.247497,44.953268],[-106.242446,44.953428],[-106.237396,44.953588],[-106.237346,44.949832],[-106.237295,44.946013],[-106.237249,44.942195],[-106.237203,44.938376],[-106.242265,44.938436],[-106.247326,44.938495]]]}},{"type":"Feature","properties":{"sec":"07","frstdivid":"WY060570N0780W0SN070"},"geometry":{"type":"Polygon","coordinates":[[[-106.317732,44.92612],[-106.317747,44.929671],[-106.317763,44.933223],[-106.317778,44.936775],[-106.312986,44.936896],[-106.307939,44.937024],[-106.302893,44.937155],[-106.297846,44.937285],[-106.297718,44.933697],[-106.297589,44.930109],[-106.297461,44.926521],[-106.297333,44.922932],[-106.302481,44.922838],[-106.30763,44.922745],[-106.312779,44.922654],[-106.317716,44.922568],[-106.317732,44.92612]]]}},{"type":"Feature","properties":{"sec":"16","frstdivid":"WY060570N0780W0SN160"},"geometry":{"type":"Polygon","coordinates":[[[-106.266417,44.923889],[-106.261278,44.924035],[-106.256139,44.924181],[-106.256212,44.920573],[-106.256285,44.916965],[-106.256357,44.913357],[-106.25643,44.909749],[-106.261534,44.909618],[-106.266639,44.909487],[-106.271743,44.909355],[-106.276848,44.909224],[-106.27681,44.912817],[-106.276772,44.916411],[-106.276733,44.920004],[-106.276695,44.923597],[-106.271556,44.923743],[-106.266417,44.923889]]]}},{"type":"Feature","properties":{"sec":"08","frstdivid":"WY060570N0780W0SN080"},"geometry":{"type":"Polygon","coordinates":[[[-106.297718,44.933697],[-106.297846,44.937285],[-106.292772,44.937457],[-106.287698,44.937629],[-106.282623,44.937801],[-106.277549,44.937973],[-106.277336,44.934379],[-106.277122,44.930785],[-106.276909,44.927191],[-106.276695,44.923597],[-106.281855,44.923431],[-106.287014,44.923265],[-106.292173,44.923099],[-106.297333,44.922932],[-106.297461,44.926521],[-106.297589,44.930109],[-106.297718,44.933697]]]}},{"type":"Feature","properties":{"sec":"13","frstdivid":"WY060570N0780W0SN130"},"geometry":{"type":"Polygon","coordinates":[[[-106.216202,44.910707],[-106.216193,44.914335],[-106.216184,44.917963],[-106.216176,44.92159],[-106.216167,44.925218],[-106.211311,44.925362],[-106.206456,44.925505],[-106.2016,44.925649],[-106.196744,44.925793],[-106.19673,44.922803],[-106.196727,44.922152],[-106.196713,44.919174],[-106.19671,44.918511],[-106.196697,44.915545],[-106.196693,44.914869],[-106.19668,44.911916],[-106.196675,44.911228],[-106.201556,44.911098],[-106.206438,44.910968],[-106.21132,44.910838],[-106.216202,44.910707]]]}},{"type":"Feature","properties":{"sec":"01","frstdivid":"WY060570N0780W0SN010"},"geometry":{"type":"Polygon","coordinates":[[[-106.217085,44.943356],[-106.21712,44.946983],[-106.217156,44.95061],[-106.217193,44.954259],[-106.212142,44.954424],[-106.207091,44.95459],[-106.202039,44.954755],[-106.196988,44.954921],[-106.196968,44.951763],[-106.196965,44.95128],[-106.196936,44.948142],[-106.196933,44.947639],[-106.196905,44.944521],[-106.196902,44.943998],[-106.196872,44.9409],[-106.19687,44.940357],[-106.201915,44.9402],[-106.20696,44.940043],[-106.212005,44.939886],[-106.21705,44.939729],[-106.217085,44.943356]]]}},{"type":"Feature","properties":{"sec":"10","frstdivid":"WY060570N0780W0SN100"},"geometry":{"type":"Polygon","coordinates":[[[-106.252388,44.938554],[-106.247326,44.938495],[-106.242265,44.938436],[-106.237203,44.938376],[-106.236767,44.934557],[-106.23633,44.930738],[-106.235893,44.926919],[-106.235457,44.9231],[-106.240627,44.92337],[-106.245798,44.923641],[-106.250969,44.923911],[-106.256139,44.924181],[-106.256467,44.927789],[-106.256794,44.931397],[-106.257122,44.935005],[-106.257449,44.938613],[-106.252388,44.938554]]]}},{"type":"Feature","properties":{"sec":"09","frstdivid":"WY060570N0780W0SN090"},"geometry":{"type":"Polygon","coordinates":[[[-106.257449,44.938613],[-106.257122,44.935005],[-106.256794,44.931397],[-106.256467,44.927789],[-106.256139,44.924181],[-106.261278,44.924035],[-106.266417,44.923889],[-106.271556,44.923743],[-106.276695,44.923597],[-106.276909,44.927191],[-106.277122,44.930785],[-106.277336,44.934379],[-106.277549,44.937973],[-106.272524,44.938133],[-106.267499,44.938293],[-106.262474,44.938453],[-106.257449,44.938613]]]}},{"type":"Feature","properties":{"sec":"14","frstdivid":"WY060570N0780W0SN140"},"geometry":{"type":"Polygon","coordinates":[[[-106.225968,44.909569],[-106.230851,44.909],[-106.235734,44.908431],[-106.235665,44.912099],[-106.235595,44.915766],[-106.235526,44.919433],[-106.235457,44.9231],[-106.230634,44.92363],[-106.225812,44.924159],[-106.22099,44.924688],[-106.216167,44.925218],[-106.216176,44.92159],[-106.216184,44.917963],[-106.216193,44.914335],[-106.216202,44.910707],[-106.221085,44.910138],[-106.225968,44.909569]]]}},{"type":"Feature","properties":{"sec":"04","frstdivid":"WY060570N0780W0SN040"},"geometry":{"type":"Polygon","coordinates":[[[-106.262647,44.952785],[-106.257598,44.952948],[-106.257561,44.949435],[-106.257523,44.945828],[-106.257486,44.94222],[-106.257449,44.938613],[-106.262474,44.938453],[-106.267499,44.938293],[-106.272524,44.938133],[-106.277549,44.937973],[-106.277613,44.941566],[-106.277677,44.945159],[-106.277737,44.948752],[-106.277797,44.952296],[-106.272747,44.952459],[-106.267697,44.952622],[-106.262647,44.952785]]]}},{"type":"Feature","properties":{"sec":"11","frstdivid":"WY060570N0780W0SN110"},"geometry":{"type":"Polygon","coordinates":[[[-106.225812,44.924159],[-106.230634,44.92363],[-106.235457,44.9231],[-106.235893,44.926919],[-106.23633,44.930738],[-106.236767,44.934557],[-106.237203,44.938376],[-106.232165,44.938715],[-106.227127,44.939053],[-106.222089,44.939391],[-106.21705,44.939729],[-106.216829,44.936101],[-106.216609,44.932473],[-106.216388,44.928846],[-106.216167,44.925218],[-106.22099,44.924688],[-106.225812,44.924159]]]}},{"type":"Feature","properties":{"sec":"17","frstdivid":"WY060570N0780W0SN170"},"geometry":{"type":"Polygon","coordinates":[[[-106.297333,44.922932],[-106.292173,44.923099],[-106.287014,44.923265],[-106.281855,44.923431],[-106.276695,44.923597],[-106.276733,44.920004],[-106.276772,44.916411],[-106.27681,44.912817],[-106.276848,44.909224],[-106.281993,44.909064],[-106.287138,44.908903],[-106.292283,44.908743],[-106.297428,44.908582],[-106.297404,44.91217],[-106.29738,44.915757],[-106.297356,44.919345],[-106.297333,44.922932]]]}},{"type":"Feature","properties":{"sec":"12","frstdivid":"WY060570N0780W0SN120"},"geometry":{"type":"Polygon","coordinates":[[[-106.21705,44.939729],[-106.212005,44.939886],[-106.20696,44.940043],[-106.201915,44.9402],[-106.19687,44.940357],[-106.196839,44.937283],[-106.196835,44.936716],[-106.196826,44.935344],[-106.196814,44.933666],[-106.196811,44.933075],[-106.196802,44.931703],[-106.196784,44.930049],[-106.19678,44.929434],[-106.196748,44.926432],[-106.196744,44.925793],[-106.2016,44.925649],[-106.206456,44.925505],[-106.211311,44.925362],[-106.216167,44.925218],[-106.216388,44.928846],[-106.216609,44.932473],[-106.216829,44.936101],[-106.21705,44.939729]]]}},{"type":"Feature","properties":{"sec":"06","frstdivid":"WY060570N0780W0SN060"},"geometry":{"type":"Polygon","coordinates":[[[-106.297962,44.948046],[-106.297927,44.944459],[-106.297887,44.940872],[-106.297846,44.937285],[-106.302893,44.937155],[-106.307939,44.937024],[-106.312986,44.936896],[-106.317778,44.936775],[-106.317808,44.940325],[-106.317838,44.943875],[-106.317866,44.947424],[-106.317894,44.950974],[-106.313139,44.951128],[-106.308092,44.951292],[-106.303044,44.951455],[-106.297996,44.951618],[-106.297962,44.948046]]]}},{"type":"Feature","properties":{"sec":"18","frstdivid":"WY060570N0780W0SN180"},"geometry":{"type":"Polygon","coordinates":[[[-106.317841,44.911768],[-106.317799,44.915368],[-106.317758,44.918968],[-106.317716,44.922568],[-106.312779,44.922654],[-106.30763,44.922745],[-106.302481,44.922838],[-106.297333,44.922932],[-106.297356,44.919345],[-106.29738,44.915757],[-106.297404,44.91217],[-106.297428,44.908582],[-106.302566,44.908477],[-106.307704,44.908372],[-106.312843,44.908269],[-106.317882,44.908168],[-106.317841,44.911768]]]}},{"type":"Feature","properties":{"sec":"02","frstdivid":"WY060570N0780W0SN020"},"geometry":{"type":"Polygon","coordinates":[[[-106.217156,44.95061],[-106.21712,44.946983],[-106.217085,44.943356],[-106.21705,44.939729],[-106.222089,44.939391],[-106.227127,44.939053],[-106.232165,44.938715],[-106.237203,44.938376],[-106.237249,44.942195],[-106.237295,44.946013],[-106.237346,44.949832],[-106.237396,44.953588],[-106.232345,44.953755],[-106.227295,44.953923],[-106.222244,44.954091],[-106.217193,44.954259],[-106.217156,44.95061]]]}},{"type":"Feature","properties":{"sec":"15","frstdivid":"WY060570N0780W0SN150"},"geometry":{"type":"Polygon","coordinates":[[[-106.235665,44.912099],[-106.235734,44.908431],[-106.240908,44.908761],[-106.246082,44.90909],[-106.251256,44.90942],[-106.25643,44.909749],[-106.256357,44.913357],[-106.256285,44.916965],[-106.256212,44.920573],[-106.256139,44.924181],[-106.250969,44.923911],[-106.245798,44.923641],[-106.240627,44.92337],[-106.235457,44.9231],[-106.235526,44.919433],[-106.235595,44.915766],[-106.235665,44.912099]]]}},{"type":"Feature","properties":{"sec":"05","frstdivid":"WY060570N0780W0SN050"},"geometry":{"type":"Polygon","coordinates":[[[-106.282847,44.952126],[-106.277797,44.952296],[-106.277737,44.948752],[-106.277677,44.945159],[-106.277613,44.941566],[-106.277549,44.937973],[-106.282623,44.937801],[-106.287698,44.937629],[-106.292772,44.937457],[-106.297846,44.937285],[-106.297887,44.940872],[-106.297927,44.944459],[-106.297962,44.948046],[-106.297996,44.951618],[-106.292946,44.951787],[-106.287896,44.951957],[-106.282847,44.952126]]]}},{"type":"Feature","properties":{"sec":"03","frstdivid":"WY060570N0780W0SN030"},"geometry":{"type":"Polygon","coordinates":[[[-106.247326,44.938495],[-106.252388,44.938554],[-106.257449,44.938613],[-106.257486,44.94222],[-106.257523,44.945828],[-106.257561,44.949435],[-106.257598,44.952948],[-106.252547,44.953108],[-106.247497,44.953268],[-106.242446,44.953428],[-106.237396,44.953588],[-106.237346,44.949832],[-106.237295,44.946013],[-106.237249,44.942195],[-106.237203,44.938376],[-106.242265,44.938436],[-106.247326,44.938495]]]}},{"type":"Feature","properties":{"sec":"07","frstdivid":"WY060570N0780W0SN070"},"geometry":{"type":"Polygon","coordinates":[[[-106.317732,44.92612],[-106.317747,44.929671],[-106.317763,44.933223],[-106.317778,44.936775],[-106.312986,44.936896],[-106.307939,44.937024],[-106.302893,44.937155],[-106.297846,44.937285],[-106.297718,44.933697],[-106.297589,44.930109],[-106.297461,44.926521],[-106.297333,44.922932],[-106.302481,44.922838],[-106.30763,44.922745],[-106.312779,44.922654],[-106.317716,44.922568],[-106.317732,44.92612]]]}},{"type":"Feature","properties":{"sec":"16","frstdivid":"WY060570N0780W0SN160"},"geometry":{"type":"Polygon","coordinates":[[[-106.266417,44.923889],[-106.261278,44.924035],[-106.256139,44.924181],[-106.256212,44.920573],[-106.256285,44.916965],[-106.256357,44.913357],[-106.25643,44.909749],[-106.261534,44.909618],[-106.266639,44.909487],[-106.271743,44.909355],[-106.276848,44.909224],[-106.27681,44.912817],[-106.276772,44.916411],[-106.276733,44.920004],[-106.276695,44.923597],[-106.271556,44.923743],[-106.266417,44.923889]]]}},{"type":"Feature","properties":{"sec":"08","frstdivid":"WY060570N0780W0SN080"},"geometry":{"type":"Polygon","coordinates":[[[-106.297718,44.933697],[-106.297846,44.937285],[-106.292772,44.937457],[-106.287698,44.937629],[-106.282623,44.937801],[-106.277549,44.937973],[-106.277336,44.934379],[-106.277122,44.930785],[-106.276909,44.927191],[-106.276695,44.923597],[-106.281855,44.923431],[-106.287014,44.923265],[-106.292173,44.923099],[-106.297333,44.922932],[-106.297461,44.926521],[-106.297589,44.930109],[-106.297718,44.933697]]]}},{"type":"Feature","properties":{"sec":"13","frstdivid":"WY060570N0780W0SN130"},"geometry":{"type":"Polygon","coordinates":[[[-106.216202,44.910707],[-106.216193,44.914335],[-106.216184,44.917963],[-106.216176,44.92159],[-106.216167,44.925218],[-106.211311,44.925362],[-106.206456,44.925505],[-106.2016,44.925649],[-106.196744,44.925793],[-106.19673,44.922803],[-106.196727,44.922152],[-106.196713,44.919174],[-106.19671,44.918511],[-106.196697,44.915545],[-106.196693,44.914869],[-106.19668,44.911916],[-106.196675,44.911228],[-106.201556,44.911098],[-106.206438,44.910968],[-106.21132,44.910838],[-106.216202,44.910707]]]}},{"type":"Feature","properties":{"sec":"01","frstdivid":"WY060570N0780W0SN010"},"geometry":{"type":"Polygon","coordinates":[[[-106.217085,44.943356],[-106.21712,44.946983],[-106.217156,44.95061],[-106.217193,44.954259],[-106.212142,44.954424],[-106.207091,44.95459],[-106.202039,44.954755],[-106.196988,44.954921],[-106.196968,44.951763],[-106.196965,44.95128],[-106.196936,44.948142],[-106.196933,44.947639],[-106.196905,44.944521],[-106.196902,44.943998],[-106.196872,44.9409],[-106.19687,44.940357],[-106.201915,44.9402],[-106.20696,44.940043],[-106.212005,44.939886],[-106.21705,44.939729],[-106.217085,44.943356]]]}}]}