{"type":"FeatureCollection","note":"BLM Public Land Survey System. Provided by the Bureau of Land Management as is. These data are neither legal documents nor land surveys and must not be used as such.","features":[{"type":"Feature","properties":{"sec":"27","frstdivid":"WY060340N0890W0SN270"},"geometry":{"type":"Polygon","coordinates":[[[-107.50172,42.886456],[-107.501726,42.890072],[-107.501732,42.893688],[-107.501738,42.897304],[-107.496816,42.897294],[-107.491895,42.897285],[-107.486973,42.897276],[-107.482051,42.897266],[-107.482044,42.893639],[-107.482036,42.890012],[-107.482028,42.886386],[-107.482021,42.882759],[-107.486936,42.882823],[-107.491851,42.882887],[-107.496782,42.882863],[-107.501713,42.88284],[-107.50172,42.886456]]]}},{"type":"Feature","properties":{"sec":"18","frstdivid":"WY060340N0890W0SN180"},"geometry":{"type":"Polygon","coordinates":[[[-107.541467,42.912017],[-107.546305,42.912042],[-107.551143,42.912068],[-107.556024,42.912104],[-107.560857,42.912141],[-107.560869,42.915777],[-107.560881,42.919413],[-107.560892,42.923049],[-107.560904,42.926685],[-107.555975,42.926643],[-107.551065,42.926602],[-107.546171,42.926571],[-107.541277,42.926541],[-107.541325,42.92291],[-107.541372,42.919279],[-107.54142,42.915648],[-107.541467,42.912017]]]}},{"type":"Feature","properties":{"sec":"36","frstdivid":"WY060340N0890W0SN360"},"geometry":{"type":"Polygon","coordinates":[[[-107.442431,42.875167],[-107.442399,42.87158],[-107.442367,42.867992],[-107.447419,42.86798],[-107.452472,42.867968],[-107.457389,42.868033],[-107.462306,42.868098],[-107.462318,42.871746],[-107.462331,42.875395],[-107.462343,42.879043],[-107.462356,42.882691],[-107.457391,42.882604],[-107.452426,42.882517],[-107.44746,42.882429],[-107.442495,42.882342],[-107.442463,42.878755],[-107.442431,42.875167]]]}},{"type":"Feature","properties":{"sec":"22","frstdivid":"WY060340N0890W0SN220"},"geometry":{"type":"Polygon","coordinates":[[[-107.501738,42.897304],[-107.501667,42.900963],[-107.501596,42.904622],[-107.501666,42.908228],[-107.501736,42.911833],[-107.496796,42.911798],[-107.491856,42.911763],[-107.486917,42.911728],[-107.481977,42.911693],[-107.481996,42.908087],[-107.482014,42.90448],[-107.482033,42.900873],[-107.482051,42.897266],[-107.486973,42.897276],[-107.491895,42.897285],[-107.496816,42.897294],[-107.501738,42.897304]]]}},{"type":"Feature","properties":{"sec":"16","frstdivid":"WY060340N0890W0SN160"},"geometry":{"type":"Polygon","coordinates":[[[-107.521508,42.911912],[-107.521515,42.915552],[-107.521522,42.919192],[-107.521529,42.922831],[-107.521536,42.926471],[-107.516639,42.926428],[-107.511742,42.926385],[-107.506802,42.926291],[-107.501862,42.926198],[-107.50183,42.922607],[-107.501799,42.919015],[-107.501767,42.915424],[-107.501736,42.911833],[-107.506679,42.911853],[-107.511622,42.911872],[-107.516565,42.911892],[-107.521508,42.911912]]]}},{"type":"Feature","properties":{"sec":"26","frstdivid":"WY060340N0890W0SN260"},"geometry":{"type":"Polygon","coordinates":[[[-107.467272,42.882708],[-107.472188,42.882725],[-107.477105,42.882742],[-107.482021,42.882759],[-107.482028,42.886386],[-107.482036,42.890012],[-107.482044,42.893639],[-107.482051,42.897266],[-107.477105,42.897232],[-107.472159,42.897198],[-107.467214,42.897164],[-107.462268,42.89713],[-107.46229,42.89352],[-107.462312,42.889911],[-107.462334,42.886301],[-107.462356,42.882691],[-107.467272,42.882708]]]}},{"type":"Feature","properties":{"sec":"35","frstdivid":"WY060340N0890W0SN350"},"geometry":{"type":"Polygon","coordinates":[[[-107.47707,42.86818],[-107.48199,42.86821],[-107.481998,42.871847],[-107.482005,42.875484],[-107.482013,42.879121],[-107.482021,42.882759],[-107.477105,42.882742],[-107.472188,42.882725],[-107.467272,42.882708],[-107.462356,42.882691],[-107.462343,42.879043],[-107.462331,42.875395],[-107.462318,42.871746],[-107.462306,42.868098],[-107.467228,42.868124],[-107.47215,42.86815],[-107.47707,42.86818]]]}},{"type":"Feature","properties":{"sec":"09","frstdivid":"WY060340N0890W0SN090"},"geometry":{"type":"Polygon","coordinates":[[[-107.521516,42.940992],[-107.516586,42.940986],[-107.511656,42.940979],[-107.506726,42.940972],[-107.501795,42.940965],[-107.501812,42.937273],[-107.501829,42.933582],[-107.501845,42.92989],[-107.501862,42.926198],[-107.506802,42.926291],[-107.511742,42.926385],[-107.516639,42.926428],[-107.521536,42.926471],[-107.521531,42.930101],[-107.521526,42.933732],[-107.521521,42.937362],[-107.521516,42.940992]]]}},{"type":"Feature","properties":{"sec":"17","frstdivid":"WY060340N0890W0SN170"},"geometry":{"type":"Polygon","coordinates":[[[-107.541277,42.926541],[-107.536342,42.926524],[-107.531406,42.926506],[-107.526471,42.926489],[-107.521536,42.926471],[-107.521529,42.922831],[-107.521522,42.919192],[-107.521515,42.915552],[-107.521508,42.911912],[-107.526498,42.911938],[-107.531488,42.911964],[-107.536477,42.91199],[-107.541467,42.912017],[-107.54142,42.915648],[-107.541372,42.919279],[-107.541325,42.92291],[-107.541277,42.926541]]]}},{"type":"Feature","properties":{"sec":"03","frstdivid":"WY060340N0890W0SN030"},"geometry":{"type":"Polygon","coordinates":[[[-107.501795,42.940965],[-107.50178,42.944623],[-107.501764,42.948281],[-107.501767,42.95192],[-107.501769,42.955551],[-107.496831,42.955542],[-107.491892,42.955533],[-107.486957,42.955461],[-107.482021,42.95539],[-107.482019,42.951807],[-107.482016,42.94817],[-107.482048,42.944517],[-107.482079,42.940864],[-107.487008,42.940889],[-107.491937,42.940915],[-107.496866,42.94094],[-107.501795,42.940965]]]}},{"type":"Feature","properties":{"sec":"32","frstdivid":"WY060340N0890W0SN320"},"geometry":{"type":"Polygon","coordinates":[[[-107.541164,42.883046],[-107.536216,42.883015],[-107.531268,42.882985],[-107.52632,42.882955],[-107.521372,42.882924],[-107.521383,42.879296],[-107.521394,42.875668],[-107.521405,42.87204],[-107.521416,42.868412],[-107.52634,42.868468],[-107.531265,42.868524],[-107.536191,42.868511],[-107.541118,42.868498],[-107.541129,42.872135],[-107.541141,42.875772],[-107.541153,42.879409],[-107.541164,42.883046]]]}},{"type":"Feature","properties":{"sec":"13","frstdivid":"WY060340N0890W0SN130"},"geometry":{"type":"Polygon","coordinates":[[[-107.462167,42.918877],[-107.462146,42.922499],[-107.462124,42.926121],[-107.457139,42.926027],[-107.452153,42.925933],[-107.447167,42.925839],[-107.442182,42.925746],[-107.44217,42.922082],[-107.442159,42.918418],[-107.442148,42.914754],[-107.442136,42.91109],[-107.447155,42.911226],[-107.452173,42.911362],[-107.457192,42.911497],[-107.46221,42.911633],[-107.462189,42.915255],[-107.462167,42.918877]]]}},{"type":"Feature","properties":{"sec":"02","frstdivid":"WY060340N0890W0SN020"},"geometry":{"type":"Polygon","coordinates":[[[-107.477075,42.955379],[-107.472129,42.955368],[-107.467182,42.955357],[-107.462236,42.955346],[-107.462263,42.951913],[-107.462295,42.948239],[-107.462368,42.944512],[-107.462441,42.940785],[-107.467351,42.940804],[-107.47226,42.940824],[-107.47717,42.940844],[-107.482079,42.940864],[-107.482048,42.944517],[-107.482016,42.94817],[-107.482019,42.951807],[-107.482021,42.95539],[-107.477075,42.955379]]]}},{"type":"Feature","properties":{"sec":"25","frstdivid":"WY060340N0890W0SN250"},"geometry":{"type":"Polygon","coordinates":[[[-107.462356,42.882691],[-107.462334,42.886301],[-107.462312,42.889911],[-107.46229,42.89352],[-107.462268,42.89713],[-107.457295,42.897029],[-107.452322,42.896927],[-107.44735,42.896826],[-107.442377,42.896725],[-107.442429,42.893134],[-107.442481,42.889544],[-107.442488,42.885943],[-107.442495,42.882342],[-107.44746,42.882429],[-107.452426,42.882517],[-107.457391,42.882604],[-107.462356,42.882691]]]}},{"type":"Feature","properties":{"sec":"19","frstdivid":"WY060340N0890W0SN190"},"geometry":{"type":"Polygon","coordinates":[[[-107.541296,42.897532],[-107.546184,42.897546],[-107.551073,42.89756],[-107.555979,42.897588],[-107.560776,42.897616],[-107.560796,42.901247],[-107.560816,42.904878],[-107.560837,42.908509],[-107.560857,42.912141],[-107.556024,42.912104],[-107.551143,42.912068],[-107.546305,42.912042],[-107.541467,42.912017],[-107.541424,42.908395],[-107.541381,42.904774],[-107.541338,42.901153],[-107.541296,42.897532]]]}},{"type":"Feature","properties":{"sec":"11","frstdivid":"WY060340N0890W0SN110"},"geometry":{"type":"Polygon","coordinates":[[[-107.462124,42.926121],[-107.467144,42.926117],[-107.472163,42.926113],[-107.477183,42.926108],[-107.482202,42.926104],[-107.482172,42.929794],[-107.482141,42.933484],[-107.48211,42.937174],[-107.482079,42.940864],[-107.47717,42.940844],[-107.47226,42.940824],[-107.467351,42.940804],[-107.462441,42.940785],[-107.462362,42.937119],[-107.462283,42.933453],[-107.462204,42.929787],[-107.462124,42.926121]]]}},{"type":"Feature","properties":{"sec":"28","frstdivid":"WY060340N0890W0SN280"},"geometry":{"type":"Polygon","coordinates":[[[-107.506628,42.882861],[-107.511543,42.882882],[-107.516458,42.882903],[-107.521372,42.882924],[-107.521388,42.886565],[-107.521404,42.890205],[-107.52142,42.893846],[-107.521436,42.897486],[-107.516512,42.897441],[-107.511587,42.897395],[-107.506663,42.89735],[-107.501738,42.897304],[-107.501732,42.893688],[-107.501726,42.890072],[-107.50172,42.886456],[-107.501713,42.88284],[-107.506628,42.882861]]]}},{"type":"Feature","properties":{"sec":"34","frstdivid":"WY060340N0890W0SN340"},"geometry":{"type":"Polygon","coordinates":[[[-107.501713,42.88284],[-107.496782,42.882863],[-107.491851,42.882887],[-107.486936,42.882823],[-107.482021,42.882759],[-107.482013,42.879121],[-107.482005,42.875484],[-107.481998,42.871847],[-107.48199,42.86821],[-107.486933,42.868253],[-107.491876,42.868297],[-107.496795,42.868317],[-107.501714,42.868336],[-107.501805,42.871958],[-107.501895,42.87558],[-107.501804,42.87921],[-107.501713,42.88284]]]}},{"type":"Feature","properties":{"sec":"15","frstdivid":"WY060340N0890W0SN150"},"geometry":{"type":"Polygon","coordinates":[[[-107.481977,42.911693],[-107.486917,42.911728],[-107.491856,42.911763],[-107.496796,42.911798],[-107.501736,42.911833],[-107.501767,42.915424],[-107.501799,42.919015],[-107.50183,42.922607],[-107.501862,42.926198],[-107.496947,42.926174],[-107.492032,42.926151],[-107.487117,42.926127],[-107.482202,42.926104],[-107.482146,42.922501],[-107.48209,42.918899],[-107.482033,42.915296],[-107.481977,42.911693]]]}},{"type":"Feature","properties":{"sec":"20","frstdivid":"WY060340N0890W0SN200"},"geometry":{"type":"Polygon","coordinates":[[[-107.536331,42.897521],[-107.541296,42.897532],[-107.541338,42.901153],[-107.541381,42.904774],[-107.541424,42.908395],[-107.541467,42.912017],[-107.536477,42.91199],[-107.531488,42.911964],[-107.526498,42.911938],[-107.521508,42.911912],[-107.52149,42.908306],[-107.521472,42.904699],[-107.521454,42.901093],[-107.521436,42.897486],[-107.526401,42.897498],[-107.531366,42.897509],[-107.536331,42.897521]]]}},{"type":"Feature","properties":{"sec":"21","frstdivid":"WY060340N0890W0SN210"},"geometry":{"type":"Polygon","coordinates":[[[-107.501667,42.900963],[-107.501738,42.897304],[-107.506663,42.89735],[-107.511587,42.897395],[-107.516512,42.897441],[-107.521436,42.897486],[-107.521454,42.901093],[-107.521472,42.904699],[-107.52149,42.908306],[-107.521508,42.911912],[-107.516565,42.911892],[-107.511622,42.911872],[-107.506679,42.911853],[-107.501736,42.911833],[-107.501666,42.908228],[-107.501596,42.904622],[-107.501667,42.900963]]]}},{"type":"Feature","properties":{"sec":"31","frstdivid":"WY060340N0890W0SN310"},"geometry":{"type":"Polygon","coordinates":[[[-107.560634,42.875829],[-107.560649,42.879454],[-107.560664,42.883078],[-107.555916,42.883062],[-107.550996,42.883046],[-107.54608,42.883046],[-107.541164,42.883046],[-107.541153,42.879409],[-107.541141,42.875772],[-107.541129,42.872135],[-107.541118,42.868498],[-107.546039,42.868519],[-107.550961,42.868539],[-107.555903,42.868541],[-107.560605,42.868543],[-107.56062,42.872205],[-107.560634,42.875829]]]}},{"type":"Feature","properties":{"sec":"24","frstdivid":"WY060340N0890W0SN240"},"geometry":{"type":"Polygon","coordinates":[[[-107.462225,42.908007],[-107.46221,42.911633],[-107.457192,42.911497],[-107.452173,42.911362],[-107.447155,42.911226],[-107.442136,42.91109],[-107.442196,42.907499],[-107.442257,42.903908],[-107.442317,42.900316],[-107.442377,42.896725],[-107.44735,42.896826],[-107.452322,42.896927],[-107.457295,42.897029],[-107.462268,42.89713],[-107.462253,42.900756],[-107.462239,42.904381],[-107.462225,42.908007]]]}},{"type":"Feature","properties":{"sec":"23","frstdivid":"WY060340N0890W0SN230"},"geometry":{"type":"Polygon","coordinates":[[[-107.482014,42.90448],[-107.481996,42.908087],[-107.481977,42.911693],[-107.477035,42.911678],[-107.472094,42.911663],[-107.467152,42.911648],[-107.46221,42.911633],[-107.462225,42.908007],[-107.462239,42.904381],[-107.462253,42.900756],[-107.462268,42.89713],[-107.467214,42.897164],[-107.472159,42.897198],[-107.477105,42.897232],[-107.482051,42.897266],[-107.482033,42.900873],[-107.482014,42.90448]]]}},{"type":"Feature","properties":{"sec":"14","frstdivid":"WY060340N0890W0SN140"},"geometry":{"type":"Polygon","coordinates":[[[-107.472094,42.911663],[-107.477035,42.911678],[-107.481977,42.911693],[-107.482033,42.915296],[-107.48209,42.918899],[-107.482146,42.922501],[-107.482202,42.926104],[-107.477183,42.926108],[-107.472163,42.926113],[-107.467144,42.926117],[-107.462124,42.926121],[-107.462146,42.922499],[-107.462167,42.918877],[-107.462189,42.915255],[-107.46221,42.911633],[-107.467152,42.911648],[-107.472094,42.911663]]]}},{"type":"Feature","properties":{"sec":"29","frstdivid":"WY060340N0890W0SN290"},"geometry":{"type":"Polygon","coordinates":[[[-107.52632,42.882955],[-107.531268,42.882985],[-107.536216,42.883015],[-107.541164,42.883046],[-107.541197,42.886667],[-107.54123,42.890289],[-107.541263,42.893911],[-107.541296,42.897532],[-107.536331,42.897521],[-107.531366,42.897509],[-107.526401,42.897498],[-107.521436,42.897486],[-107.52142,42.893846],[-107.521404,42.890205],[-107.521388,42.886565],[-107.521372,42.882924],[-107.52632,42.882955]]]}},{"type":"Feature","properties":{"sec":"33","frstdivid":"WY060340N0890W0SN330"},"geometry":{"type":"Polygon","coordinates":[[[-107.501895,42.87558],[-107.501805,42.871958],[-107.501714,42.868336],[-107.506639,42.868355],[-107.511565,42.868374],[-107.51649,42.868393],[-107.521416,42.868412],[-107.521405,42.87204],[-107.521394,42.875668],[-107.521383,42.879296],[-107.521372,42.882924],[-107.516458,42.882903],[-107.511543,42.882882],[-107.506628,42.882861],[-107.501713,42.88284],[-107.501804,42.87921],[-107.501895,42.87558]]]}},{"type":"Feature","properties":{"sec":"30","frstdivid":"WY060340N0890W0SN300"},"geometry":{"type":"Polygon","coordinates":[[[-107.541197,42.886667],[-107.541164,42.883046],[-107.54608,42.883046],[-107.550996,42.883046],[-107.555916,42.883062],[-107.560664,42.883078],[-107.560692,42.886713],[-107.56072,42.890347],[-107.560748,42.893981],[-107.560776,42.897616],[-107.555979,42.897588],[-107.551073,42.89756],[-107.546184,42.897546],[-107.541296,42.897532],[-107.541263,42.893911],[-107.54123,42.890289],[-107.541197,42.886667]]]}},{"type":"Feature","properties":{"sec":"10","frstdivid":"WY060340N0890W0SN100"},"geometry":{"type":"Polygon","coordinates":[[[-107.487008,42.940889],[-107.482079,42.940864],[-107.48211,42.937174],[-107.482141,42.933484],[-107.482172,42.929794],[-107.482202,42.926104],[-107.487117,42.926127],[-107.492032,42.926151],[-107.496947,42.926174],[-107.501862,42.926198],[-107.501845,42.92989],[-107.501829,42.933582],[-107.501812,42.937273],[-107.501795,42.940965],[-107.496866,42.94094],[-107.491937,42.940915],[-107.487008,42.940889]]]}},{"type":"Feature","properties":{"sec":"04","frstdivid":"WY060340N0890W0SN040"},"geometry":{"type":"Polygon","coordinates":[[[-107.521458,42.95552],[-107.516536,42.955528],[-107.511614,42.955535],[-107.506691,42.955543],[-107.501769,42.955551],[-107.501767,42.95192],[-107.501764,42.948281],[-107.50178,42.944623],[-107.501795,42.940965],[-107.506726,42.940972],[-107.511656,42.940979],[-107.516586,42.940986],[-107.521516,42.940992],[-107.521489,42.944688],[-107.521463,42.948383],[-107.52146,42.952041],[-107.521458,42.95552]]]}},{"type":"Feature","properties":{"sec":"06","frstdivid":"WY060340N0890W0SN060"},"geometry":{"type":"Polygon","coordinates":[[[-107.560989,42.944896],[-107.560977,42.948536],[-107.56097,42.952166],[-107.560963,42.955796],[-107.555867,42.955762],[-107.550948,42.955729],[-107.546038,42.955689],[-107.541129,42.955649],[-107.541186,42.952],[-107.541242,42.94837],[-107.541347,42.944729],[-107.541452,42.941088],[-107.546294,42.941126],[-107.551135,42.941165],[-107.55602,42.94121],[-107.561001,42.941257],[-107.560989,42.944896]]]}},{"type":"Feature","properties":{"sec":"01","frstdivid":"WY060340N0890W0SN010"},"geometry":{"type":"Polygon","coordinates":[[[-107.457289,42.955326],[-107.452341,42.955307],[-107.447394,42.955287],[-107.442446,42.955267],[-107.442404,42.951542],[-107.442362,42.947816],[-107.442307,42.944136],[-107.442252,42.940456],[-107.4473,42.940538],[-107.452347,42.94062],[-107.457394,42.940702],[-107.462441,42.940785],[-107.462368,42.944512],[-107.462295,42.948239],[-107.462263,42.951913],[-107.462236,42.955346],[-107.457289,42.955326]]]}},{"type":"Feature","properties":{"sec":"05","frstdivid":"WY060340N0890W0SN050"},"geometry":{"type":"Polygon","coordinates":[[[-107.541186,42.952],[-107.541129,42.955649],[-107.536211,42.955617],[-107.531293,42.955585],[-107.526376,42.955552],[-107.521458,42.95552],[-107.52146,42.952041],[-107.521463,42.948383],[-107.521489,42.944688],[-107.521516,42.940992],[-107.5265,42.941016],[-107.531484,42.94104],[-107.536468,42.941064],[-107.541452,42.941088],[-107.541347,42.944729],[-107.541242,42.94837],[-107.541186,42.952]]]}},{"type":"Feature","properties":{"sec":"12","frstdivid":"WY060340N0890W0SN120"},"geometry":{"type":"Polygon","coordinates":[[[-107.442252,42.940456],[-107.44223,42.936741],[-107.442208,42.933027],[-107.442195,42.929386],[-107.442182,42.925746],[-107.447167,42.925839],[-107.452153,42.925933],[-107.457139,42.926027],[-107.462124,42.926121],[-107.462204,42.929787],[-107.462283,42.933453],[-107.462362,42.937119],[-107.462441,42.940785],[-107.457394,42.940702],[-107.452347,42.94062],[-107.4473,42.940538],[-107.442252,42.940456]]]}},{"type":"Feature","properties":{"sec":"08","frstdivid":"WY060340N0890W0SN080"},"geometry":{"type":"Polygon","coordinates":[[[-107.541525,42.937442],[-107.541452,42.941088],[-107.536468,42.941064],[-107.531484,42.94104],[-107.5265,42.941016],[-107.521516,42.940992],[-107.521521,42.937362],[-107.521526,42.933732],[-107.521531,42.930101],[-107.521536,42.926471],[-107.526471,42.926489],[-107.531406,42.926506],[-107.536342,42.926524],[-107.541277,42.926541],[-107.541437,42.930169],[-107.541598,42.933797],[-107.541525,42.937442]]]}},{"type":"Feature","properties":{"sec":"07","frstdivid":"WY060340N0890W0SN070"},"geometry":{"type":"Polygon","coordinates":[[[-107.546171,42.926571],[-107.551065,42.926602],[-107.555975,42.926643],[-107.560904,42.926685],[-107.560928,42.930328],[-107.560953,42.933971],[-107.560977,42.937614],[-107.561001,42.941257],[-107.55602,42.94121],[-107.551135,42.941165],[-107.546294,42.941126],[-107.541452,42.941088],[-107.541525,42.937442],[-107.541598,42.933797],[-107.541437,42.930169],[-107.541277,42.926541],[-107.546171,42.926571]]]}}]}