{"type":"FeatureCollection","note":"BLM Public Land Survey System. Provided by the Bureau of Land Management as is. These data are neither legal documents nor land surveys and must not be used as such.","features":[{"type":"Feature","properties":{"sec":"10","frstdivid":"MT200090S0600E0SN100"},"geometry":{"type":"Polygon","coordinates":[[[-104.33676,45.067734],[-104.336774,45.06375],[-104.336788,45.059767],[-104.336802,45.055784],[-104.341894,45.055789],[-104.346987,45.055795],[-104.352116,45.055732],[-104.357246,45.055668],[-104.357271,45.059446],[-104.357297,45.063224],[-104.357323,45.067003],[-104.357349,45.070782],[-104.352149,45.071017],[-104.346949,45.071252],[-104.341848,45.071484],[-104.336747,45.071717],[-104.33676,45.067734]]]}},{"type":"Feature","properties":{"sec":"21","frstdivid":"MT200090S0600E0SN210"},"geometry":{"type":"Polygon","coordinates":[[[-104.355402,45.041896],[-104.355309,45.038456],[-104.355216,45.035015],[-104.355122,45.031575],[-104.355029,45.028135],[-104.360049,45.028054],[-104.36507,45.027974],[-104.37009,45.027893],[-104.37511,45.027812],[-104.375306,45.031546],[-104.375502,45.03528],[-104.375697,45.039014],[-104.375893,45.042748],[-104.37077,45.042535],[-104.365648,45.042322],[-104.360525,45.042109],[-104.355402,45.041896]]]}},{"type":"Feature","properties":{"sec":"05","frstdivid":"MT200090S0600E0SN050"},"geometry":{"type":"Polygon","coordinates":[[[-104.378412,45.078109],[-104.378243,45.074461],[-104.378074,45.070814],[-104.383252,45.070724],[-104.38843,45.070635],[-104.39352,45.07054],[-104.398611,45.070445],[-104.398692,45.074098],[-104.398772,45.077752],[-104.398854,45.081407],[-104.398936,45.08507],[-104.393847,45.085176],[-104.388758,45.085282],[-104.38367,45.085388],[-104.378581,45.085495],[-104.378496,45.081795],[-104.378412,45.078109]]]}},{"type":"Feature","properties":{"sec":"22","frstdivid":"MT200090S0600E0SN220"},"geometry":{"type":"Polygon","coordinates":[[[-104.344702,45.028201],[-104.349865,45.028168],[-104.355029,45.028135],[-104.355122,45.031575],[-104.355216,45.035015],[-104.355309,45.038456],[-104.355402,45.041896],[-104.350279,45.042105],[-104.345157,45.042314],[-104.340033,45.042524],[-104.334908,45.042733],[-104.334775,45.039117],[-104.334641,45.0355],[-104.334508,45.031884],[-104.334374,45.028268],[-104.339538,45.028234],[-104.344702,45.028201]]]}},{"type":"Feature","properties":{"sec":"06","frstdivid":"MT200090S0600E0SN060"},"geometry":{"type":"Polygon","coordinates":[[[-104.398611,45.070445],[-104.40374,45.070415],[-104.408869,45.070384],[-104.413991,45.07042],[-104.418868,45.070454],[-104.418938,45.074156],[-104.419007,45.077857],[-104.419094,45.081476],[-104.41918,45.085095],[-104.4144,45.085089],[-104.409241,45.085082],[-104.404089,45.085076],[-104.398936,45.08507],[-104.398854,45.081407],[-104.398772,45.077752],[-104.398692,45.074098],[-104.398611,45.070445]]]}},{"type":"Feature","properties":{"sec":"14","frstdivid":"MT200090S0600E0SN140"},"geometry":{"type":"Polygon","coordinates":[[[-104.326565,45.055868],[-104.321447,45.055909],[-104.316329,45.055951],[-104.316372,45.052685],[-104.316415,45.049418],[-104.316458,45.046151],[-104.316501,45.042884],[-104.321103,45.042846],[-104.325705,45.042809],[-104.330307,45.042771],[-104.334908,45.042733],[-104.335382,45.045996],[-104.335855,45.049258],[-104.336328,45.052521],[-104.336802,45.055784],[-104.331683,45.055826],[-104.326565,45.055868]]]}},{"type":"Feature","properties":{"sec":"04","frstdivid":"MT200090S0600E0SN040"},"geometry":{"type":"Polygon","coordinates":[[[-104.368376,45.085711],[-104.363274,45.085819],[-104.358172,45.085927],[-104.357965,45.082124],[-104.35776,45.078344],[-104.357554,45.074563],[-104.357349,45.070782],[-104.36253,45.07079],[-104.36771,45.070798],[-104.372892,45.070806],[-104.378074,45.070814],[-104.378243,45.074461],[-104.378412,45.078109],[-104.378496,45.081795],[-104.378581,45.085495],[-104.373479,45.085603],[-104.368376,45.085711]]]}},{"type":"Feature","properties":{"sec":"17","frstdivid":"MT200090S0600E0SN170"},"geometry":{"type":"Polygon","coordinates":[[[-104.377685,45.055586],[-104.377237,45.052376],[-104.376789,45.049167],[-104.376341,45.045958],[-104.375893,45.042748],[-104.381123,45.04252],[-104.386353,45.042291],[-104.391582,45.042063],[-104.396812,45.041835],[-104.396996,45.045409],[-104.39718,45.048984],[-104.397364,45.052558],[-104.397548,45.056132],[-104.392582,45.055996],[-104.387617,45.055859],[-104.382651,45.055722],[-104.377685,45.055586]]]}},{"type":"Feature","properties":{"sec":"01","frstdivid":"MT200090S0600E0SN010"},"geometry":{"type":"Polygon","coordinates":[[[-104.299211,45.081507],[-104.299058,45.079596],[-104.298928,45.07795],[-104.298771,45.075972],[-104.298639,45.074324],[-104.298481,45.072349],[-104.298351,45.070697],[-104.303155,45.070907],[-104.30796,45.071117],[-104.312763,45.071327],[-104.317567,45.071537],[-104.317429,45.075435],[-104.317291,45.079334],[-104.317155,45.083231],[-104.317019,45.087142],[-104.312638,45.086623],[-104.308257,45.086103],[-104.303876,45.085584],[-104.299495,45.085065],[-104.299348,45.08322],[-104.299211,45.081507]]]}},{"type":"Feature","properties":{"sec":"23","frstdivid":"MT200090S0600E0SN230"},"geometry":{"type":"Polygon","coordinates":[[[-104.329488,45.028274],[-104.334374,45.028268],[-104.334508,45.031884],[-104.334641,45.0355],[-104.334775,45.039117],[-104.334908,45.042733],[-104.330307,45.042771],[-104.325705,45.042809],[-104.321103,45.042846],[-104.316501,45.042884],[-104.316083,45.039236],[-104.315665,45.035587],[-104.315247,45.03194],[-104.31483,45.028292],[-104.319715,45.028286],[-104.324601,45.02828],[-104.329488,45.028274]]]}},{"type":"Feature","properties":{"sec":"20","frstdivid":"MT200090S0600E0SN200"},"geometry":{"type":"Polygon","coordinates":[[[-104.37511,45.027812],[-104.380427,45.027745],[-104.385744,45.027677],[-104.391062,45.02761],[-104.39638,45.027543],[-104.396488,45.031116],[-104.396596,45.034688],[-104.396704,45.038261],[-104.396812,45.041835],[-104.391582,45.042063],[-104.386353,45.042291],[-104.381123,45.04252],[-104.375893,45.042748],[-104.375697,45.039014],[-104.375502,45.03528],[-104.375306,45.031546],[-104.37511,45.027812]]]}},{"type":"Feature","properties":{"sec":"07","frstdivid":"MT200090S0600E0SN070"},"geometry":{"type":"Polygon","coordinates":[[[-104.412407,45.05607],[-104.417162,45.056051],[-104.417588,45.059651],[-104.418015,45.063251],[-104.418442,45.066853],[-104.418868,45.070454],[-104.413991,45.07042],[-104.408869,45.070384],[-104.40374,45.070415],[-104.398611,45.070445],[-104.398345,45.066867],[-104.39808,45.063289],[-104.397814,45.05971],[-104.397548,45.056132],[-104.402502,45.056112],[-104.407456,45.056091],[-104.412407,45.05607]]]}},{"type":"Feature","properties":{"sec":"03","frstdivid":"MT200090S0600E0SN030"},"geometry":{"type":"Polygon","coordinates":[[[-104.336747,45.071717],[-104.341848,45.071484],[-104.346949,45.071252],[-104.352149,45.071017],[-104.357349,45.070782],[-104.357554,45.074563],[-104.35776,45.078344],[-104.357965,45.082124],[-104.358172,45.085927],[-104.353017,45.086071],[-104.347862,45.086215],[-104.342707,45.086359],[-104.337553,45.086503],[-104.337351,45.082811],[-104.33715,45.079113],[-104.336948,45.075415],[-104.336747,45.071717]]]}},{"type":"Feature","properties":{"sec":"19","frstdivid":"MT200090S0600E0SN190"},"geometry":{"type":"Polygon","coordinates":[[[-104.402042,45.041742],[-104.396812,45.041835],[-104.396704,45.038261],[-104.396596,45.034688],[-104.396488,45.031116],[-104.39638,45.027543],[-104.401508,45.027505],[-104.406636,45.027468],[-104.40686,45.027466],[-104.411764,45.027429],[-104.416935,45.027389],[-104.417071,45.030157],[-104.417108,45.030908],[-104.417281,45.034427],[-104.417456,45.037945],[-104.417631,45.041463],[-104.412505,45.041555],[-104.407272,45.041649],[-104.402042,45.041742]]]}},{"type":"Feature","properties":{"sec":"09","frstdivid":"MT200090S0600E0SN090"},"geometry":{"type":"Polygon","coordinates":[[[-104.357297,45.063224],[-104.357271,45.059446],[-104.357246,45.055668],[-104.362356,45.055648],[-104.367466,45.055627],[-104.372576,45.055606],[-104.377685,45.055586],[-104.37777,45.059237],[-104.377856,45.062889],[-104.377965,45.066851],[-104.378074,45.070814],[-104.372892,45.070806],[-104.36771,45.070798],[-104.36253,45.07079],[-104.357349,45.070782],[-104.357323,45.067003],[-104.357297,45.063224]]]}},{"type":"Feature","properties":{"sec":"15","frstdivid":"MT200090S0600E0SN150"},"geometry":{"type":"Polygon","coordinates":[[[-104.334908,45.042733],[-104.340033,45.042524],[-104.345157,45.042314],[-104.350279,45.042105],[-104.355402,45.041896],[-104.355863,45.045339],[-104.356324,45.048782],[-104.356785,45.052225],[-104.357246,45.055668],[-104.352116,45.055732],[-104.346987,45.055795],[-104.341894,45.055789],[-104.336802,45.055784],[-104.336328,45.052521],[-104.335855,45.049258],[-104.335382,45.045996],[-104.334908,45.042733]]]}},{"type":"Feature","properties":{"sec":"13","frstdivid":"MT200090S0600E0SN130"},"geometry":{"type":"Polygon","coordinates":[[[-104.297039,45.052782],[-104.296882,45.050614],[-104.296781,45.049202],[-104.296621,45.046993],[-104.296522,45.045623],[-104.296359,45.043372],[-104.296264,45.042043],[-104.301323,45.042253],[-104.306382,45.042463],[-104.311441,45.042674],[-104.316501,45.042884],[-104.316458,45.046151],[-104.316415,45.049418],[-104.316372,45.052685],[-104.316329,45.055951],[-104.311571,45.056054],[-104.306813,45.056157],[-104.302055,45.056259],[-104.297298,45.056362],[-104.297144,45.054236],[-104.297039,45.052782]]]}},{"type":"Feature","properties":{"sec":"18","frstdivid":"MT200090S0600E0SN180"},"geometry":{"type":"Polygon","coordinates":[[[-104.397364,45.052558],[-104.39718,45.048984],[-104.396996,45.045409],[-104.396812,45.041835],[-104.402042,45.041742],[-104.407272,45.041649],[-104.412505,45.041555],[-104.417631,45.041463],[-104.417465,45.045144],[-104.4173,45.048826],[-104.417231,45.052438],[-104.417162,45.056051],[-104.412407,45.05607],[-104.407456,45.056091],[-104.402502,45.056112],[-104.397548,45.056132],[-104.397364,45.052558]]]}},{"type":"Feature","properties":{"sec":"02","frstdivid":"MT200090S0600E0SN020"},"geometry":{"type":"Polygon","coordinates":[[[-104.337553,45.086503],[-104.332433,45.086664],[-104.327313,45.086825],[-104.322166,45.086983],[-104.317019,45.087142],[-104.317155,45.083231],[-104.317291,45.079334],[-104.317429,45.075435],[-104.317567,45.071537],[-104.322361,45.071582],[-104.327155,45.071627],[-104.331951,45.071672],[-104.336747,45.071717],[-104.336948,45.075415],[-104.33715,45.079113],[-104.337351,45.082811],[-104.337553,45.086503]]]}},{"type":"Feature","properties":{"sec":"08","frstdivid":"MT200090S0600E0SN080"},"geometry":{"type":"Polygon","coordinates":[[[-104.397548,45.056132],[-104.397814,45.05971],[-104.39808,45.063289],[-104.398345,45.066867],[-104.398611,45.070445],[-104.39352,45.07054],[-104.38843,45.070635],[-104.383252,45.070724],[-104.378074,45.070814],[-104.377965,45.066851],[-104.377856,45.062889],[-104.37777,45.059237],[-104.377685,45.055586],[-104.382651,45.055722],[-104.387617,45.055859],[-104.392582,45.055996],[-104.397548,45.056132]]]}},{"type":"Feature","properties":{"sec":"16","frstdivid":"MT200090S0600E0SN160"},"geometry":{"type":"Polygon","coordinates":[[[-104.377237,45.052376],[-104.377685,45.055586],[-104.372576,45.055606],[-104.367466,45.055627],[-104.362356,45.055648],[-104.357246,45.055668],[-104.356785,45.052225],[-104.356324,45.048782],[-104.355863,45.045339],[-104.355402,45.041896],[-104.360525,45.042109],[-104.365648,45.042322],[-104.37077,45.042535],[-104.375893,45.042748],[-104.376341,45.045958],[-104.376789,45.049167],[-104.377237,45.052376]]]}},{"type":"Feature","properties":{"sec":"30","frstdivid":"MT200090S0600E0SN300"},"geometry":{"type":"Polygon","coordinates":[[[-104.406636,45.027468],[-104.401508,45.027505],[-104.39638,45.027543],[-104.396334,45.023918],[-104.396289,45.020294],[-104.396243,45.016669],[-104.396198,45.013044],[-104.401319,45.013025],[-104.406441,45.013006],[-104.411566,45.012989],[-104.416726,45.012972],[-104.416778,45.016576],[-104.41683,45.020124],[-104.416831,45.020181],[-104.416883,45.023785],[-104.416935,45.027389],[-104.411764,45.027429],[-104.40686,45.027466],[-104.406636,45.027468]]]}},{"type":"Feature","properties":{"sec":"12","frstdivid":"MT200090S0600E0SN120"},"geometry":{"type":"Polygon","coordinates":[[[-104.297405,45.057857],[-104.297298,45.056362],[-104.302055,45.056259],[-104.306813,45.056157],[-104.311571,45.056054],[-104.316329,45.055951],[-104.316638,45.059848],[-104.316948,45.063745],[-104.317257,45.067641],[-104.317567,45.071537],[-104.312763,45.071327],[-104.30796,45.071117],[-104.303155,45.070907],[-104.298351,45.070697],[-104.298205,45.068726],[-104.298086,45.067114],[-104.297938,45.065102],[-104.297824,45.06353],[-104.297673,45.06148],[-104.29756,45.059946],[-104.297405,45.057857]]]}},{"type":"Feature","properties":{"sec":"24","frstdivid":"MT200090S0600E0SN240"},"geometry":{"type":"Polygon","coordinates":[[[-104.295525,45.031311],[-104.295361,45.028904],[-104.295282,45.027734],[-104.300169,45.027874],[-104.305056,45.028013],[-104.309943,45.028153],[-104.31483,45.028292],[-104.315247,45.03194],[-104.315665,45.035587],[-104.316083,45.039236],[-104.316501,45.042884],[-104.311441,45.042674],[-104.306382,45.042463],[-104.301323,45.042253],[-104.296264,45.042043],[-104.296105,45.039755],[-104.296016,45.038466],[-104.295855,45.036138],[-104.295769,45.034889],[-104.295607,45.032521],[-104.295525,45.031311]]]}},{"type":"Feature","properties":{"sec":"11","frstdivid":"MT200090S0600E0SN110"},"geometry":{"type":"Polygon","coordinates":[[[-104.322361,45.071582],[-104.317567,45.071537],[-104.317257,45.067641],[-104.316948,45.063745],[-104.316638,45.059848],[-104.316329,45.055951],[-104.321447,45.055909],[-104.326565,45.055868],[-104.331683,45.055826],[-104.336802,45.055784],[-104.336788,45.059767],[-104.336774,45.06375],[-104.33676,45.067734],[-104.336747,45.071717],[-104.331951,45.071672],[-104.327155,45.071627],[-104.322361,45.071582]]]}},{"type":"Feature","properties":{"sec":"32","frstdivid":"MT200090S0600E0SN320"},"geometry":{"type":"Polygon","coordinates":[[[-104.375283,44.99833],[-104.376022,44.998331],[-104.380434,44.998335],[-104.383318,44.998338],[-104.385598,44.998341],[-104.390763,44.998346],[-104.393587,44.998349],[-104.395697,44.998351],[-104.395841,45.00257],[-104.39596,45.006061],[-104.396079,45.009553],[-104.396198,45.013044],[-104.391075,45.013207],[-104.38595,45.013284],[-104.380825,45.01336],[-104.375682,45.013437],[-104.375587,45.009817],[-104.375491,45.006197],[-104.375395,45.002577],[-104.375283,44.99833]]]}},{"type":"Feature","properties":{"sec":"28","frstdivid":"MT200090S0600E0SN280"},"geometry":{"type":"Polygon","coordinates":[[[-104.355331,45.013445],[-104.360423,45.013443],[-104.365515,45.013441],[-104.370608,45.013439],[-104.375682,45.013437],[-104.375558,45.017224],[-104.375408,45.020753],[-104.375259,45.024282],[-104.37511,45.027812],[-104.37009,45.027893],[-104.36507,45.027974],[-104.360049,45.028054],[-104.355029,45.028135],[-104.355106,45.024519],[-104.355183,45.020902],[-104.35526,45.017286],[-104.355331,45.013445]]]}},{"type":"Feature","properties":{"sec":"35","frstdivid":"MT200090S0600E0SN350"},"geometry":{"type":"Polygon","coordinates":[[[-104.334927,45.013498],[-104.329926,45.013505],[-104.324842,45.013512],[-104.319758,45.013518],[-104.314558,45.013525],[-104.31445,45.009905],[-104.314341,45.006286],[-104.314233,45.002666],[-104.3141,44.9982],[-104.314837,44.998201],[-104.319203,44.998208],[-104.321982,44.998212],[-104.324305,44.998216],[-104.329409,44.998225],[-104.332238,44.998229],[-104.334511,44.998229],[-104.334662,45.00264],[-104.33476,45.006259],[-104.334859,45.009879],[-104.334927,45.013498]]]}},{"type":"Feature","properties":{"sec":"31","frstdivid":"MT200090S0600E0SN310"},"geometry":{"type":"Polygon","coordinates":[[[-104.396079,45.009553],[-104.39596,45.006061],[-104.395841,45.00257],[-104.395697,44.998351],[-104.396426,44.998352],[-104.400824,44.99836],[-104.404074,44.998365],[-104.405957,44.998369],[-104.41109,44.998378],[-104.414862,44.998384],[-104.416277,44.998386],[-104.416415,45.002556],[-104.416516,45.006027],[-104.416621,45.0095],[-104.416726,45.012972],[-104.411566,45.012989],[-104.406441,45.013006],[-104.401319,45.013025],[-104.396198,45.013044],[-104.396079,45.009553]]]}},{"type":"Feature","properties":{"sec":"26","frstdivid":"MT200090S0600E0SN260"},"geometry":{"type":"Polygon","coordinates":[[[-104.319758,45.013518],[-104.324842,45.013512],[-104.329926,45.013505],[-104.334927,45.013498],[-104.334856,45.017344],[-104.334695,45.020984],[-104.334535,45.024626],[-104.334374,45.028268],[-104.329488,45.028274],[-104.324601,45.02828],[-104.319715,45.028286],[-104.31483,45.028292],[-104.314793,45.024642],[-104.314755,45.020992],[-104.314718,45.017342],[-104.314558,45.013525],[-104.319758,45.013518]]]}},{"type":"Feature","properties":{"sec":"34","frstdivid":"MT200090S0600E0SN340"},"geometry":{"type":"Polygon","coordinates":[[[-104.334511,44.998229],[-104.3352,44.99823],[-104.339601,44.998246],[-104.342559,44.998256],[-104.34469,44.998264],[-104.34978,44.998282],[-104.352618,44.998293],[-104.354892,44.998303],[-104.355016,45.002585],[-104.355109,45.006205],[-104.355209,45.009825],[-104.355331,45.013445],[-104.35025,45.013458],[-104.34517,45.013472],[-104.34009,45.013485],[-104.334927,45.013498],[-104.334859,45.009879],[-104.33476,45.006259],[-104.334662,45.00264],[-104.334511,44.998229]]]}},{"type":"Feature","properties":{"sec":"36","frstdivid":"MT200090S0600E0SN360"},"geometry":{"type":"Polygon","coordinates":[[[-104.31445,45.009905],[-104.314558,45.013525],[-104.309582,45.013505],[-104.304489,45.013485],[-104.299396,45.013465],[-104.294303,45.013445],[-104.294208,45.010796],[-104.294173,45.009827],[-104.294077,45.00718],[-104.29408,45.006176],[-104.29402,45.003522],[-104.293969,45.002582],[-104.293842,44.99993],[-104.293749,44.998158],[-104.294437,44.998158],[-104.298837,44.998167],[-104.301436,44.998172],[-104.303924,44.998178],[-104.309012,44.998188],[-104.311726,44.998194],[-104.3141,44.9982],[-104.314233,45.002666],[-104.314341,45.006286],[-104.31445,45.009905]]]}},{"type":"Feature","properties":{"sec":"25","frstdivid":"MT200090S0600E0SN250"},"geometry":{"type":"Polygon","coordinates":[[[-104.314755,45.020992],[-104.314793,45.024642],[-104.31483,45.028292],[-104.309943,45.028153],[-104.305056,45.028013],[-104.300169,45.027874],[-104.295282,45.027734],[-104.295114,45.025281],[-104.295037,45.024161],[-104.294865,45.021658],[-104.294792,45.020588],[-104.294617,45.018035],[-104.294547,45.017016],[-104.294369,45.014412],[-104.294303,45.013445],[-104.299396,45.013465],[-104.304489,45.013485],[-104.309582,45.013505],[-104.314558,45.013525],[-104.314718,45.017342],[-104.314755,45.020992]]]}},{"type":"Feature","properties":{"sec":"33","frstdivid":"MT200090S0600E0SN330"},"geometry":{"type":"Polygon","coordinates":[[[-104.370608,45.013439],[-104.365515,45.013441],[-104.360423,45.013443],[-104.355331,45.013445],[-104.355209,45.009825],[-104.355109,45.006205],[-104.355016,45.002585],[-104.354892,44.998303],[-104.355634,44.998306],[-104.360005,44.998311],[-104.362888,44.998315],[-104.365113,44.998317],[-104.370222,44.998324],[-104.37313,44.998327],[-104.375283,44.99833],[-104.375395,45.002577],[-104.375491,45.006197],[-104.375587,45.009817],[-104.375682,45.013437],[-104.370608,45.013439]]]}},{"type":"Feature","properties":{"sec":"27","frstdivid":"MT200090S0600E0SN270"},"geometry":{"type":"Polygon","coordinates":[[[-104.35025,45.013458],[-104.355331,45.013445],[-104.35526,45.017286],[-104.355183,45.020902],[-104.355106,45.024519],[-104.355029,45.028135],[-104.349865,45.028168],[-104.344702,45.028201],[-104.339538,45.028234],[-104.334374,45.028268],[-104.334535,45.024626],[-104.334695,45.020984],[-104.334856,45.017344],[-104.334927,45.013498],[-104.34009,45.013485],[-104.34517,45.013472],[-104.35025,45.013458]]]}},{"type":"Feature","properties":{"sec":"29","frstdivid":"MT200090S0600E0SN290"},"geometry":{"type":"Polygon","coordinates":[[[-104.396198,45.013044],[-104.396243,45.016669],[-104.396289,45.020294],[-104.396334,45.023918],[-104.39638,45.027543],[-104.391062,45.02761],[-104.385744,45.027677],[-104.380427,45.027745],[-104.37511,45.027812],[-104.375259,45.024282],[-104.375408,45.020753],[-104.375558,45.017224],[-104.375682,45.013437],[-104.380825,45.01336],[-104.38595,45.013284],[-104.391075,45.013207],[-104.396198,45.013044]]]}}]}