{"type":"FeatureCollection","note":"BLM Public Land Survey System. Provided by the Bureau of Land Management as is. These data are neither legal documents nor land surveys and must not be used as such.","features":[{"type":"Feature","properties":{"sec":"03","frstdivid":"WY060540N0730W0SN030"},"geometry":{"type":"Polygon","coordinates":[[[-105.615493,44.694695],[-105.615556,44.691134],[-105.61562,44.687574],[-105.615683,44.684013],[-105.620777,44.683949],[-105.62587,44.683885],[-105.63097,44.683795],[-105.636071,44.683704],[-105.635968,44.68728],[-105.635865,44.690855],[-105.635763,44.694431],[-105.635661,44.697999],[-105.631238,44.698031],[-105.630603,44.698036],[-105.626163,44.698068],[-105.625545,44.698073],[-105.621089,44.698123],[-105.620488,44.698129],[-105.616014,44.69818],[-105.61543,44.698186],[-105.615493,44.694695]]]}},{"type":"Feature","properties":{"sec":"22","frstdivid":"WY060540N0730W0SN220"},"geometry":{"type":"Polygon","coordinates":[[[-105.636049,44.651124],[-105.636105,44.654744],[-105.630951,44.654877],[-105.625797,44.65501],[-105.620727,44.655055],[-105.615658,44.655099],[-105.615582,44.651467],[-105.615507,44.647834],[-105.615431,44.644185],[-105.615355,44.640536],[-105.620487,44.640468],[-105.625619,44.6404],[-105.63075,44.640332],[-105.635882,44.640265],[-105.635937,44.643885],[-105.635993,44.647504],[-105.636049,44.651124]]]}},{"type":"Feature","properties":{"sec":"18","frstdivid":"WY060540N0730W0SN180"},"geometry":{"type":"Polygon","coordinates":[[[-105.681797,44.669178],[-105.676717,44.669117],[-105.676692,44.665559],[-105.676667,44.662002],[-105.676642,44.658445],[-105.676617,44.654887],[-105.681698,44.654823],[-105.68678,44.654758],[-105.691919,44.654692],[-105.697034,44.654626],[-105.697043,44.658346],[-105.697053,44.662065],[-105.697074,44.665713],[-105.697094,44.66936],[-105.691957,44.669299],[-105.686878,44.669239],[-105.681797,44.669178]]]}},{"type":"Feature","properties":{"sec":"01","frstdivid":"WY060540N0730W0SN010"},"geometry":{"type":"Polygon","coordinates":[[[-105.59513,44.694793],[-105.595063,44.698231],[-105.590493,44.698282],[-105.590022,44.698287],[-105.585289,44.69834],[-105.584981,44.698343],[-105.580084,44.698323],[-105.57993,44.698323],[-105.574879,44.698302],[-105.574869,44.694666],[-105.574858,44.69103],[-105.574851,44.687394],[-105.574843,44.683758],[-105.579956,44.683876],[-105.585069,44.683994],[-105.590204,44.684112],[-105.595339,44.68423],[-105.595268,44.687792],[-105.595197,44.691354],[-105.59513,44.694793]]]}},{"type":"Feature","properties":{"sec":"26","frstdivid":"WY060540N0730W0SN260"},"geometry":{"type":"Polygon","coordinates":[[[-105.615428,44.625974],[-105.61541,44.629614],[-105.615392,44.633255],[-105.615374,44.636895],[-105.615355,44.640536],[-105.610293,44.64055],[-105.605231,44.640564],[-105.600169,44.640578],[-105.595107,44.640592],[-105.595075,44.636939],[-105.595044,44.633286],[-105.595013,44.629633],[-105.594981,44.62598],[-105.600093,44.625979],[-105.605205,44.625977],[-105.610317,44.625976],[-105.615428,44.625974]]]}},{"type":"Feature","properties":{"sec":"11","frstdivid":"WY060540N0730W0SN110"},"geometry":{"type":"Polygon","coordinates":[[[-105.595202,44.669755],[-105.60026,44.669798],[-105.605318,44.66984],[-105.610506,44.669804],[-105.615693,44.669768],[-105.615691,44.673329],[-105.615688,44.676891],[-105.615686,44.680452],[-105.615683,44.684013],[-105.610583,44.68407],[-105.605483,44.684127],[-105.600411,44.684178],[-105.595339,44.68423],[-105.595327,44.680616],[-105.595315,44.677003],[-105.595258,44.673379],[-105.595202,44.669755]]]}},{"type":"Feature","properties":{"sec":"12","frstdivid":"WY060540N0730W0SN120"},"geometry":{"type":"Polygon","coordinates":[[[-105.574826,44.676482],[-105.574818,44.672843],[-105.574809,44.669205],[-105.579907,44.669343],[-105.585005,44.66948],[-105.590104,44.669618],[-105.595202,44.669755],[-105.595258,44.673379],[-105.595315,44.677003],[-105.595327,44.680616],[-105.595339,44.68423],[-105.590204,44.684112],[-105.585069,44.683994],[-105.579956,44.683876],[-105.574843,44.683758],[-105.574835,44.68012],[-105.574826,44.676482]]]}},{"type":"Feature","properties":{"sec":"25","frstdivid":"WY060540N0730W0SN250"},"geometry":{"type":"Polygon","coordinates":[[[-105.574702,44.625894],[-105.579772,44.625915],[-105.584842,44.625937],[-105.589912,44.625959],[-105.594981,44.62598],[-105.595013,44.629633],[-105.595044,44.633286],[-105.595075,44.636939],[-105.595107,44.640592],[-105.590078,44.640528],[-105.58505,44.640465],[-105.579895,44.640453],[-105.57474,44.64044],[-105.574731,44.636804],[-105.574721,44.633167],[-105.574712,44.62953],[-105.574702,44.625894]]]}},{"type":"Feature","properties":{"sec":"07","frstdivid":"WY060540N0730W0SN070"},"geometry":{"type":"Polygon","coordinates":[[[-105.691957,44.669299],[-105.697094,44.66936],[-105.697014,44.672969],[-105.696933,44.676578],[-105.696852,44.680186],[-105.696771,44.683795],[-105.691637,44.683682],[-105.686528,44.68357],[-105.681418,44.683458],[-105.676309,44.683346],[-105.676411,44.679789],[-105.676513,44.676232],[-105.676615,44.672674],[-105.676717,44.669117],[-105.681797,44.669178],[-105.686878,44.669239],[-105.691957,44.669299]]]}},{"type":"Feature","properties":{"sec":"02","frstdivid":"WY060540N0730W0SN020"},"geometry":{"type":"Polygon","coordinates":[[[-105.610935,44.698202],[-105.61033,44.698205],[-105.605856,44.69822],[-105.605229,44.698222],[-105.600776,44.698226],[-105.600146,44.698227],[-105.595697,44.69823],[-105.595063,44.698231],[-105.59513,44.694793],[-105.595197,44.691354],[-105.595268,44.687792],[-105.595339,44.68423],[-105.600411,44.684178],[-105.605483,44.684127],[-105.610583,44.68407],[-105.615683,44.684013],[-105.61562,44.687574],[-105.615556,44.691134],[-105.615493,44.694695],[-105.61543,44.698186],[-105.610935,44.698202]]]}},{"type":"Feature","properties":{"sec":"30","frstdivid":"WY060540N0730W0SN300"},"geometry":{"type":"Polygon","coordinates":[[[-105.69698,44.632692],[-105.696991,44.636334],[-105.697002,44.639977],[-105.691967,44.640068],[-105.686779,44.640163],[-105.68167,44.640255],[-105.676561,44.640348],[-105.676592,44.636606],[-105.676623,44.632865],[-105.67662,44.629173],[-105.676617,44.625481],[-105.68173,44.625459],[-105.686843,44.625437],[-105.691957,44.625415],[-105.696957,44.625393],[-105.696968,44.629043],[-105.69698,44.632692]]]}},{"type":"Feature","properties":{"sec":"29","frstdivid":"WY060540N0730W0SN290"},"geometry":{"type":"Polygon","coordinates":[[[-105.676617,44.625481],[-105.67662,44.629173],[-105.676623,44.632865],[-105.676592,44.636606],[-105.676561,44.640348],[-105.671395,44.640294],[-105.66623,44.640241],[-105.661201,44.640166],[-105.656173,44.64009],[-105.656285,44.636476],[-105.656398,44.632862],[-105.656403,44.629233],[-105.656409,44.625605],[-105.661461,44.625574],[-105.666513,44.625543],[-105.671565,44.625512],[-105.676617,44.625481]]]}},{"type":"Feature","properties":{"sec":"31","frstdivid":"WY060540N0730W0SN310"},"geometry":{"type":"Polygon","coordinates":[[[-105.676662,44.618142],[-105.67668,44.614515],[-105.676698,44.610887],[-105.681786,44.61087],[-105.686874,44.610854],[-105.691964,44.610838],[-105.696873,44.610822],[-105.696895,44.614408],[-105.696916,44.617994],[-105.696937,44.621694],[-105.696957,44.625393],[-105.691957,44.625415],[-105.686843,44.625437],[-105.68173,44.625459],[-105.676617,44.625481],[-105.67664,44.621812],[-105.676662,44.618142]]]}},{"type":"Feature","properties":{"sec":"33","frstdivid":"WY060540N0730W0SN330"},"geometry":{"type":"Polygon","coordinates":[[[-105.651441,44.611074],[-105.656511,44.611047],[-105.65649,44.614681],[-105.656468,44.618315],[-105.656438,44.62196],[-105.656409,44.625605],[-105.651308,44.625649],[-105.646207,44.625694],[-105.641106,44.625739],[-105.636006,44.625784],[-105.636034,44.622133],[-105.636061,44.618483],[-105.636146,44.614816],[-105.636231,44.611149],[-105.6413,44.611125],[-105.64637,44.611102],[-105.651441,44.611074]]]}},{"type":"Feature","properties":{"sec":"36","frstdivid":"WY060540N0730W0SN360"},"geometry":{"type":"Polygon","coordinates":[[[-105.590452,44.611308],[-105.595757,44.611285],[-105.595563,44.614959],[-105.595369,44.618633],[-105.595175,44.622307],[-105.594981,44.62598],[-105.589912,44.625959],[-105.584842,44.625937],[-105.579772,44.625915],[-105.574702,44.625894],[-105.574647,44.622265],[-105.574591,44.618637],[-105.574564,44.615006],[-105.574536,44.611376],[-105.579841,44.611353],[-105.585146,44.611331],[-105.590452,44.611308]]]}},{"type":"Feature","properties":{"sec":"32","frstdivid":"WY060540N0730W0SN320"},"geometry":{"type":"Polygon","coordinates":[[[-105.671565,44.625512],[-105.666513,44.625543],[-105.661461,44.625574],[-105.656409,44.625605],[-105.656438,44.62196],[-105.656468,44.618315],[-105.65649,44.614681],[-105.656511,44.611047],[-105.661558,44.611007],[-105.666605,44.610967],[-105.671651,44.610927],[-105.676698,44.610887],[-105.67668,44.614515],[-105.676662,44.618142],[-105.67664,44.621812],[-105.676617,44.625481],[-105.671565,44.625512]]]}},{"type":"Feature","properties":{"sec":"35","frstdivid":"WY060540N0730W0SN350"},"geometry":{"type":"Polygon","coordinates":[[[-105.615559,44.622284],[-105.615428,44.625974],[-105.610317,44.625976],[-105.605205,44.625977],[-105.600093,44.625979],[-105.594981,44.62598],[-105.595175,44.622307],[-105.595369,44.618633],[-105.595563,44.614959],[-105.595757,44.611285],[-105.600805,44.611267],[-105.605854,44.611249],[-105.610903,44.611232],[-105.615952,44.611214],[-105.615821,44.614904],[-105.61569,44.618594],[-105.615559,44.622284]]]}},{"type":"Feature","properties":{"sec":"28","frstdivid":"WY060540N0730W0SN280"},"geometry":{"type":"Polygon","coordinates":[[[-105.65116,44.640138],[-105.646148,44.640185],[-105.641015,44.640225],[-105.635882,44.640265],[-105.635913,44.636644],[-105.635944,44.633024],[-105.635975,44.629404],[-105.636006,44.625784],[-105.641106,44.625739],[-105.646207,44.625694],[-105.651308,44.625649],[-105.656409,44.625605],[-105.656403,44.629233],[-105.656398,44.632862],[-105.656285,44.636476],[-105.656173,44.64009],[-105.65116,44.640138]]]}},{"type":"Feature","properties":{"sec":"34","frstdivid":"WY060540N0730W0SN340"},"geometry":{"type":"Polygon","coordinates":[[[-105.625717,44.625879],[-105.620573,44.625926],[-105.615428,44.625974],[-105.615559,44.622284],[-105.61569,44.618594],[-105.615821,44.614904],[-105.615952,44.611214],[-105.621021,44.611198],[-105.626091,44.611181],[-105.631161,44.611165],[-105.636231,44.611149],[-105.636146,44.614816],[-105.636061,44.618483],[-105.636034,44.622133],[-105.636006,44.625784],[-105.630861,44.625831],[-105.625717,44.625879]]]}},{"type":"Feature","properties":{"sec":"27","frstdivid":"WY060540N0730W0SN270"},"geometry":{"type":"Polygon","coordinates":[[[-105.635944,44.633024],[-105.635913,44.636644],[-105.635882,44.640265],[-105.63075,44.640332],[-105.625619,44.6404],[-105.620487,44.640468],[-105.615355,44.640536],[-105.615374,44.636895],[-105.615392,44.633255],[-105.61541,44.629614],[-105.615428,44.625974],[-105.620573,44.625926],[-105.625717,44.625879],[-105.630861,44.625831],[-105.636006,44.625784],[-105.635975,44.629404],[-105.635944,44.633024]]]}},{"type":"Feature","properties":{"sec":"21","frstdivid":"WY060540N0730W0SN210"},"geometry":{"type":"Polygon","coordinates":[[[-105.651506,44.654596],[-105.646373,44.654645],[-105.641239,44.654695],[-105.636105,44.654744],[-105.636049,44.651124],[-105.635993,44.647504],[-105.635937,44.643885],[-105.635882,44.640265],[-105.641015,44.640225],[-105.646148,44.640185],[-105.65116,44.640138],[-105.656173,44.64009],[-105.65629,44.643704],[-105.656407,44.647318],[-105.656524,44.650932],[-105.65664,44.654546],[-105.651506,44.654596]]]}},{"type":"Feature","properties":{"sec":"13","frstdivid":"WY060540N0730W0SN130"},"geometry":{"type":"Polygon","coordinates":[[[-105.595466,44.662507],[-105.595334,44.666131],[-105.595202,44.669755],[-105.590104,44.669618],[-105.585005,44.66948],[-105.579907,44.669343],[-105.574809,44.669205],[-105.574801,44.665652],[-105.574793,44.662099],[-105.574785,44.658546],[-105.574777,44.654993],[-105.579945,44.655045],[-105.585114,44.655098],[-105.590282,44.65515],[-105.59545,44.655203],[-105.595458,44.658855],[-105.595466,44.662507]]]}},{"type":"Feature","properties":{"sec":"05","frstdivid":"WY060540N0730W0SN050"},"geometry":{"type":"Polygon","coordinates":[[[-105.676304,44.690584],[-105.676301,44.694202],[-105.676299,44.697899],[-105.671844,44.697893],[-105.671184,44.697892],[-105.666765,44.697886],[-105.66607,44.697884],[-105.661686,44.697878],[-105.660955,44.697877],[-105.656607,44.697872],[-105.655841,44.697871],[-105.655917,44.694235],[-105.655993,44.690627],[-105.656069,44.687019],[-105.656144,44.68341],[-105.661186,44.683394],[-105.666227,44.683378],[-105.671268,44.683362],[-105.676309,44.683346],[-105.676307,44.686965],[-105.676304,44.690584]]]}},{"type":"Feature","properties":{"sec":"09","frstdivid":"WY060540N0730W0SN090"},"geometry":{"type":"Polygon","coordinates":[[[-105.651126,44.683484],[-105.646107,44.683557],[-105.641089,44.683631],[-105.636071,44.683704],[-105.636051,44.680084],[-105.636031,44.676464],[-105.636012,44.672844],[-105.635992,44.669224],[-105.641091,44.669163],[-105.64619,44.669101],[-105.651289,44.66904],[-105.656387,44.668978],[-105.656327,44.672586],[-105.656266,44.676194],[-105.656205,44.679802],[-105.656144,44.68341],[-105.651126,44.683484]]]}},{"type":"Feature","properties":{"sec":"08","frstdivid":"WY060540N0730W0SN080"},"geometry":{"type":"Polygon","coordinates":[[[-105.666552,44.669048],[-105.671634,44.669082],[-105.676717,44.669117],[-105.676615,44.672674],[-105.676513,44.676232],[-105.676411,44.679789],[-105.676309,44.683346],[-105.671268,44.683362],[-105.666227,44.683378],[-105.661186,44.683394],[-105.656144,44.68341],[-105.656205,44.679802],[-105.656266,44.676194],[-105.656327,44.672586],[-105.656387,44.668978],[-105.66147,44.669013],[-105.666552,44.669048]]]}},{"type":"Feature","properties":{"sec":"19","frstdivid":"WY060540N0730W0SN190"},"geometry":{"type":"Polygon","coordinates":[[[-105.676561,44.640348],[-105.68167,44.640255],[-105.686779,44.640163],[-105.691967,44.640068],[-105.697002,44.639977],[-105.69701,44.643639],[-105.697018,44.647302],[-105.697026,44.650964],[-105.697034,44.654626],[-105.691919,44.654692],[-105.68678,44.654758],[-105.681698,44.654823],[-105.676617,44.654887],[-105.676603,44.651253],[-105.676589,44.647618],[-105.676575,44.643983],[-105.676561,44.640348]]]}},{"type":"Feature","properties":{"sec":"15","frstdivid":"WY060540N0730W0SN150"},"geometry":{"type":"Polygon","coordinates":[[[-105.620768,44.669632],[-105.615693,44.669768],[-105.615684,44.666101],[-105.615675,44.662434],[-105.615667,44.658767],[-105.615658,44.655099],[-105.620727,44.655055],[-105.625797,44.65501],[-105.630951,44.654877],[-105.636105,44.654744],[-105.636076,44.658364],[-105.636048,44.661984],[-105.63602,44.665604],[-105.635992,44.669224],[-105.630917,44.66936],[-105.625842,44.669496],[-105.620768,44.669632]]]}},{"type":"Feature","properties":{"sec":"23","frstdivid":"WY060540N0730W0SN230"},"geometry":{"type":"Polygon","coordinates":[[[-105.610293,44.64055],[-105.615355,44.640536],[-105.615431,44.644185],[-105.615507,44.647834],[-105.615582,44.651467],[-105.615658,44.655099],[-105.610712,44.655121],[-105.605767,44.655143],[-105.600608,44.655173],[-105.59545,44.655203],[-105.595364,44.65155],[-105.595278,44.647897],[-105.595193,44.644245],[-105.595107,44.640592],[-105.600169,44.640578],[-105.605231,44.640564],[-105.610293,44.64055]]]}},{"type":"Feature","properties":{"sec":"10","frstdivid":"WY060540N0730W0SN100"},"geometry":{"type":"Polygon","coordinates":[[[-105.62587,44.683885],[-105.620777,44.683949],[-105.615683,44.684013],[-105.615686,44.680452],[-105.615688,44.676891],[-105.615691,44.673329],[-105.615693,44.669768],[-105.620768,44.669632],[-105.625842,44.669496],[-105.630917,44.66936],[-105.635992,44.669224],[-105.636012,44.672844],[-105.636031,44.676464],[-105.636051,44.680084],[-105.636071,44.683704],[-105.63097,44.683795],[-105.62587,44.683885]]]}},{"type":"Feature","properties":{"sec":"24","frstdivid":"WY060540N0730W0SN240"},"geometry":{"type":"Polygon","coordinates":[[[-105.595278,44.647897],[-105.595364,44.65155],[-105.59545,44.655203],[-105.590282,44.65515],[-105.585114,44.655098],[-105.579945,44.655045],[-105.574777,44.654993],[-105.574763,44.651353],[-105.57475,44.647714],[-105.574745,44.644077],[-105.57474,44.64044],[-105.579895,44.640453],[-105.58505,44.640465],[-105.590078,44.640528],[-105.595107,44.640592],[-105.595193,44.644245],[-105.595278,44.647897]]]}},{"type":"Feature","properties":{"sec":"16","frstdivid":"WY060540N0730W0SN160"},"geometry":{"type":"Polygon","coordinates":[[[-105.64619,44.669101],[-105.641091,44.669163],[-105.635992,44.669224],[-105.63602,44.665604],[-105.636048,44.661984],[-105.636076,44.658364],[-105.636105,44.654744],[-105.641239,44.654695],[-105.646373,44.654645],[-105.651506,44.654596],[-105.65664,44.654546],[-105.656577,44.658154],[-105.656514,44.661762],[-105.656451,44.66537],[-105.656387,44.668978],[-105.651289,44.66904],[-105.64619,44.669101]]]}},{"type":"Feature","properties":{"sec":"14","frstdivid":"WY060540N0730W0SN140"},"geometry":{"type":"Polygon","coordinates":[[[-105.595466,44.662507],[-105.595458,44.658855],[-105.59545,44.655203],[-105.600608,44.655173],[-105.605767,44.655143],[-105.610712,44.655121],[-105.615658,44.655099],[-105.615667,44.658767],[-105.615675,44.662434],[-105.615684,44.666101],[-105.615693,44.669768],[-105.610506,44.669804],[-105.605318,44.66984],[-105.60026,44.669798],[-105.595202,44.669755],[-105.595334,44.666131],[-105.595466,44.662507]]]}},{"type":"Feature","properties":{"sec":"17","frstdivid":"WY060540N0730W0SN170"},"geometry":{"type":"Polygon","coordinates":[[[-105.676692,44.665559],[-105.676717,44.669117],[-105.671634,44.669082],[-105.666552,44.669048],[-105.66147,44.669013],[-105.656387,44.668978],[-105.656451,44.66537],[-105.656514,44.661762],[-105.656577,44.658154],[-105.65664,44.654546],[-105.66169,44.654635],[-105.666739,44.654724],[-105.671678,44.654806],[-105.676617,44.654887],[-105.676642,44.658445],[-105.676667,44.662002],[-105.676692,44.665559]]]}},{"type":"Feature","properties":{"sec":"04","frstdivid":"WY060540N0730W0SN040"},"geometry":{"type":"Polygon","coordinates":[[[-105.645825,44.697896],[-105.641386,44.697941],[-105.640743,44.697947],[-105.636313,44.697993],[-105.635661,44.697999],[-105.635763,44.694431],[-105.635865,44.690855],[-105.635968,44.68728],[-105.636071,44.683704],[-105.641089,44.683631],[-105.646107,44.683557],[-105.651126,44.683484],[-105.656144,44.68341],[-105.656069,44.687019],[-105.655993,44.690627],[-105.655917,44.694235],[-105.655841,44.697871],[-105.651533,44.697882],[-105.650833,44.697883],[-105.64646,44.697894],[-105.645825,44.697896]]]}},{"type":"Feature","properties":{"sec":"20","frstdivid":"WY060540N0730W0SN200"},"geometry":{"type":"Polygon","coordinates":[[[-105.666739,44.654724],[-105.66169,44.654635],[-105.65664,44.654546],[-105.656524,44.650932],[-105.656407,44.647318],[-105.65629,44.643704],[-105.656173,44.64009],[-105.661201,44.640166],[-105.66623,44.640241],[-105.671395,44.640294],[-105.676561,44.640348],[-105.676575,44.643983],[-105.676589,44.647618],[-105.676603,44.651253],[-105.676617,44.654887],[-105.671678,44.654806],[-105.666739,44.654724]]]}},{"type":"Feature","properties":{"sec":"06","frstdivid":"WY060540N0730W0SN060"},"geometry":{"type":"Polygon","coordinates":[[[-105.686529,44.697922],[-105.681414,44.69791],[-105.676923,44.6979],[-105.676299,44.697899],[-105.676301,44.694202],[-105.676304,44.690584],[-105.676307,44.686965],[-105.676309,44.683346],[-105.681418,44.683458],[-105.686528,44.68357],[-105.691637,44.683682],[-105.696771,44.683795],[-105.696893,44.687482],[-105.697015,44.691168],[-105.697137,44.694855],[-105.697259,44.698541],[-105.691894,44.698233],[-105.69183,44.698229],[-105.686529,44.697922]]]}}]}