{"type":"FeatureCollection","note":"BLM Public Land Survey System. Provided by the Bureau of Land Management as is. These data are neither legal documents nor land surveys and must not be used as such.","features":[{"type":"Feature","properties":{"sec":"29","frstdivid":"MT200050S0500E0SN290"},"geometry":{"type":"Polygon","coordinates":[[[-105.566521,45.376908],[-105.566518,45.373286],[-105.566516,45.369665],[-105.566513,45.366043],[-105.56651,45.362421],[-105.566795,45.362421],[-105.566794,45.36232],[-105.571778,45.362357],[-105.571867,45.362358],[-105.576763,45.362395],[-105.57694,45.362396],[-105.581889,45.362408],[-105.582179,45.362409],[-105.587016,45.362421],[-105.587021,45.366035],[-105.587027,45.369648],[-105.587032,45.373262],[-105.587038,45.376876],[-105.581909,45.376884],[-105.576779,45.376892],[-105.57165,45.3769],[-105.566521,45.376908]]]}},{"type":"Feature","properties":{"sec":"17","frstdivid":"MT200050S0500E0SN170"},"geometry":{"type":"Polygon","coordinates":[[[-105.566541,45.398638],[-105.566535,45.395016],[-105.566529,45.391395],[-105.571661,45.391387],[-105.576793,45.39138],[-105.581925,45.391373],[-105.587057,45.391366],[-105.587062,45.394989],[-105.587067,45.398611],[-105.587072,45.402234],[-105.587077,45.405857],[-105.581946,45.405863],[-105.576815,45.405869],[-105.571684,45.405875],[-105.566553,45.405881],[-105.566547,45.402259],[-105.566541,45.398638]]]}},{"type":"Feature","properties":{"sec":"02","frstdivid":"MT200050S0500E0SN020"},"geometry":{"type":"Polygon","coordinates":[[[-105.514278,45.435612],[-105.510142,45.435612],[-105.509145,45.435611],[-105.505009,45.435611],[-105.504986,45.431429],[-105.504966,45.427808],[-105.504944,45.424184],[-105.504923,45.420561],[-105.510077,45.420558],[-105.515231,45.420555],[-105.520386,45.420552],[-105.52554,45.420549],[-105.52554,45.424016],[-105.52554,45.42417],[-105.52554,45.427637],[-105.52554,45.427791],[-105.52554,45.431258],[-105.52554,45.431412],[-105.52554,45.435614],[-105.524543,45.435613],[-105.520407,45.435613],[-105.51941,45.435613],[-105.515275,45.435612],[-105.514278,45.435612]]]}},{"type":"Feature","properties":{"sec":"36","frstdivid":"MT200050S0500E0SN360"},"geometry":{"type":"Polygon","coordinates":[[[-105.504729,45.351671],[-105.504723,45.355306],[-105.504717,45.358941],[-105.504711,45.362576],[-105.499554,45.362601],[-105.494397,45.362626],[-105.489221,45.362646],[-105.484046,45.362665],[-105.484056,45.359022],[-105.484066,45.355379],[-105.484063,45.351733],[-105.484061,45.348087],[-105.486525,45.348086],[-105.48923,45.348084],[-105.491655,45.348083],[-105.494398,45.348081],[-105.496785,45.348077],[-105.499566,45.348063],[-105.501913,45.348051],[-105.504735,45.348036],[-105.504729,45.351671]]]}},{"type":"Feature","properties":{"sec":"13","frstdivid":"MT200050S0500E0SN130"},"geometry":{"type":"Polygon","coordinates":[[[-105.494627,45.406118],[-105.494306,45.406119],[-105.489504,45.406143],[-105.489178,45.406145],[-105.484003,45.406171],[-105.484006,45.402767],[-105.484006,45.402553],[-105.484009,45.399126],[-105.484009,45.398935],[-105.484012,45.395473],[-105.484012,45.395316],[-105.484015,45.391819],[-105.484015,45.391698],[-105.489251,45.391676],[-105.494386,45.391655],[-105.49952,45.391633],[-105.504655,45.391611],[-105.504635,45.395228],[-105.504616,45.398844],[-105.504603,45.402465],[-105.504591,45.406086],[-105.499774,45.406101],[-105.499449,45.406103],[-105.494627,45.406118]]]}},{"type":"Feature","properties":{"sec":"20","frstdivid":"MT200050S0500E0SN200"},"geometry":{"type":"Polygon","coordinates":[[[-105.576779,45.376892],[-105.581909,45.376884],[-105.587038,45.376876],[-105.587043,45.380499],[-105.587047,45.384121],[-105.587052,45.387744],[-105.587057,45.391366],[-105.581925,45.391373],[-105.576793,45.39138],[-105.571661,45.391387],[-105.566529,45.391395],[-105.566527,45.387773],[-105.566525,45.384151],[-105.566523,45.38053],[-105.566521,45.376908],[-105.57165,45.3769],[-105.576779,45.376892]]]}},{"type":"Feature","properties":{"sec":"10","frstdivid":"MT200050S0500E0SN100"},"geometry":{"type":"Polygon","coordinates":[[[-105.530669,45.420394],[-105.52554,45.420395],[-105.525529,45.416928],[-105.525529,45.416774],[-105.525518,45.413307],[-105.525518,45.413154],[-105.525507,45.409687],[-105.525506,45.409533],[-105.525495,45.406066],[-105.525495,45.405912],[-105.530624,45.405911],[-105.535754,45.40591],[-105.540883,45.405909],[-105.546012,45.405908],[-105.546023,45.409528],[-105.546034,45.413148],[-105.546045,45.416769],[-105.546056,45.420389],[-105.540927,45.420391],[-105.535798,45.420392],[-105.530669,45.420394]]]}},{"type":"Feature","properties":{"sec":"04","frstdivid":"MT200050S0500E0SN040"},"geometry":{"type":"Polygon","coordinates":[[[-105.550201,45.43562],[-105.546064,45.435619],[-105.546063,45.431255],[-105.546063,45.427634],[-105.54606,45.424012],[-105.546056,45.420389],[-105.551192,45.420384],[-105.556327,45.420379],[-105.561462,45.420375],[-105.566597,45.42037],[-105.566598,45.423989],[-105.5666,45.427609],[-105.566599,45.431229],[-105.566599,45.435631],[-105.565602,45.43563],[-105.561465,45.435627],[-105.560468,45.435627],[-105.556332,45.435625],[-105.555335,45.435624],[-105.551198,45.435621],[-105.550201,45.43562]]]}},{"type":"Feature","properties":{"sec":"28","frstdivid":"MT200050S0500E0SN280"},"geometry":{"type":"Polygon","coordinates":[[[-105.551115,45.376938],[-105.54598,45.376948],[-105.545971,45.373329],[-105.545963,45.36971],[-105.545954,45.366092],[-105.545945,45.362473],[-105.551178,45.362454],[-105.55641,45.362436],[-105.561462,45.362428],[-105.56651,45.362421],[-105.566513,45.366043],[-105.566516,45.369665],[-105.566518,45.373286],[-105.566521,45.376908],[-105.561386,45.376918],[-105.556251,45.376928],[-105.551115,45.376938]]]}},{"type":"Feature","properties":{"sec":"21","frstdivid":"MT200050S0500E0SN210"},"geometry":{"type":"Polygon","coordinates":[[[-105.551115,45.376938],[-105.556251,45.376928],[-105.561386,45.376918],[-105.566521,45.376908],[-105.566523,45.38053],[-105.566525,45.384151],[-105.566527,45.387773],[-105.566529,45.391395],[-105.561395,45.391403],[-105.556262,45.391411],[-105.551128,45.391419],[-105.545995,45.391427],[-105.545991,45.387807],[-105.545988,45.384187],[-105.545984,45.380568],[-105.54598,45.376948],[-105.551115,45.376938]]]}},{"type":"Feature","properties":{"sec":"14","frstdivid":"MT200050S0500E0SN140"},"geometry":{"type":"Polygon","coordinates":[[[-105.520335,45.391608],[-105.525471,45.391606],[-105.525477,45.395067],[-105.525477,45.395221],[-105.525483,45.398682],[-105.525483,45.398836],[-105.525489,45.402297],[-105.525489,45.402451],[-105.525495,45.405912],[-105.525495,45.406066],[-105.52035,45.406069],[-105.515206,45.406073],[-105.510064,45.406079],[-105.504923,45.406085],[-105.504591,45.406086],[-105.504603,45.402465],[-105.504616,45.398844],[-105.504635,45.395228],[-105.504655,45.391611],[-105.510063,45.39161],[-105.5152,45.391609],[-105.520335,45.391608]]]}},{"type":"Feature","properties":{"sec":"23","frstdivid":"MT200050S0500E0SN230"},"geometry":{"type":"Polygon","coordinates":[[[-105.504693,45.38435],[-105.504715,45.380728],[-105.504736,45.377107],[-105.509894,45.377069],[-105.509943,45.377069],[-105.515052,45.377032],[-105.520249,45.377006],[-105.525447,45.376981],[-105.525451,45.380599],[-105.525452,45.380753],[-105.525455,45.384217],[-105.525455,45.384371],[-105.525463,45.387835],[-105.525463,45.387988],[-105.525471,45.391452],[-105.525471,45.391606],[-105.520335,45.391608],[-105.5152,45.391609],[-105.510063,45.39161],[-105.504655,45.391611],[-105.504674,45.387981],[-105.504693,45.38435]]]}},{"type":"Feature","properties":{"sec":"34","frstdivid":"MT200050S0500E0SN340"},"geometry":{"type":"Polygon","coordinates":[[[-105.530512,45.362495],[-105.525368,45.362497],[-105.52537,45.358865],[-105.525372,45.355233],[-105.525394,45.351632],[-105.525394,45.351617],[-105.525412,45.348714],[-105.525416,45.348001],[-105.527509,45.347998],[-105.530491,45.347994],[-105.530812,45.347993],[-105.531582,45.347995],[-105.535565,45.348],[-105.536717,45.347998],[-105.540756,45.34799],[-105.541852,45.347988],[-105.545946,45.347982],[-105.545943,45.351582],[-105.54594,45.355183],[-105.545942,45.358828],[-105.545945,45.362473],[-105.540801,45.362483],[-105.535656,45.362493],[-105.530512,45.362495]]]}},{"type":"Feature","properties":{"sec":"16","frstdivid":"MT200050S0500E0SN160"},"geometry":{"type":"Polygon","coordinates":[[[-105.566547,45.402259],[-105.566553,45.405881],[-105.561418,45.405887],[-105.556282,45.405894],[-105.551147,45.405901],[-105.546012,45.405908],[-105.546008,45.402287],[-105.546004,45.398667],[-105.545999,45.395047],[-105.545995,45.391427],[-105.551128,45.391419],[-105.556262,45.391411],[-105.561395,45.391403],[-105.566529,45.391395],[-105.566535,45.395016],[-105.566541,45.398638],[-105.566547,45.402259]]]}},{"type":"Feature","properties":{"sec":"12","frstdivid":"MT200050S0500E0SN120"},"geometry":{"type":"Polygon","coordinates":[[[-105.483982,45.413333],[-105.483992,45.410064],[-105.483993,45.409699],[-105.484003,45.406408],[-105.484003,45.406171],[-105.489178,45.406145],[-105.489504,45.406143],[-105.494306,45.406119],[-105.494627,45.406118],[-105.499449,45.406103],[-105.499774,45.406101],[-105.504591,45.406086],[-105.504923,45.406085],[-105.504923,45.409704],[-105.504923,45.413323],[-105.504923,45.416942],[-105.504923,45.420561],[-105.499787,45.420557],[-105.494652,45.420552],[-105.489515,45.42055],[-105.48398,45.420548],[-105.48398,45.417355],[-105.483981,45.416941],[-105.483981,45.413719],[-105.483982,45.413333]]]}},{"type":"Feature","properties":{"sec":"06","frstdivid":"MT200050S0500E0SN060"},"geometry":{"type":"Polygon","coordinates":[[[-105.611836,45.434783],[-105.611836,45.435661],[-105.606704,45.435657],[-105.602563,45.435654],[-105.601564,45.435654],[-105.597423,45.435652],[-105.596423,45.435651],[-105.592283,45.435647],[-105.591283,45.435646],[-105.587143,45.435644],[-105.587134,45.431197],[-105.587127,45.427577],[-105.587118,45.423957],[-105.587109,45.420337],[-105.592249,45.42033],[-105.59739,45.420323],[-105.60253,45.420316],[-105.608019,45.420309],[-105.608017,45.42393],[-105.608015,45.427551],[-105.608013,45.431172],[-105.608012,45.434792],[-105.611836,45.434783]]]}},{"type":"Feature","properties":{"sec":"07","frstdivid":"MT200050S0500E0SN070"},"geometry":{"type":"Polygon","coordinates":[[[-105.592209,45.405846],[-105.597342,45.405834],[-105.602478,45.405822],[-105.608044,45.405809],[-105.608038,45.409434],[-105.608032,45.413059],[-105.608026,45.416684],[-105.608019,45.420309],[-105.60253,45.420316],[-105.59739,45.420323],[-105.592249,45.42033],[-105.587109,45.420337],[-105.587101,45.416717],[-105.587093,45.413097],[-105.587085,45.409477],[-105.587077,45.405857],[-105.592209,45.405846]]]}},{"type":"Feature","properties":{"sec":"24","frstdivid":"MT200050S0500E0SN240"},"geometry":{"type":"Polygon","coordinates":[[[-105.499555,45.377138],[-105.504736,45.377107],[-105.504715,45.380728],[-105.504693,45.38435],[-105.504674,45.387981],[-105.504655,45.391611],[-105.49952,45.391633],[-105.494386,45.391655],[-105.489251,45.391676],[-105.484015,45.391698],[-105.484011,45.388166],[-105.484011,45.388075],[-105.484007,45.384513],[-105.484007,45.384453],[-105.484003,45.38086],[-105.484003,45.38083],[-105.483999,45.377207],[-105.489186,45.377188],[-105.494373,45.377169],[-105.499555,45.377138]]]}},{"type":"Feature","properties":{"sec":"31","frstdivid":"MT200050S0500E0SN310"},"geometry":{"type":"Polygon","coordinates":[[[-105.608002,45.362374],[-105.602813,45.362379],[-105.60243,45.362379],[-105.597674,45.362383],[-105.597292,45.362385],[-105.592547,45.362403],[-105.592154,45.362404],[-105.587419,45.362422],[-105.587394,45.358797],[-105.587369,45.355173],[-105.587344,45.351548],[-105.587319,45.347923],[-105.588237,45.347922],[-105.592489,45.347915],[-105.593404,45.347914],[-105.597659,45.347907],[-105.598568,45.347906],[-105.602829,45.347899],[-105.603732,45.347898],[-105.608,45.347892],[-105.608001,45.351512],[-105.608001,45.355133],[-105.608002,45.358753],[-105.608002,45.362374]]]}},{"type":"Feature","properties":{"sec":"15","frstdivid":"MT200050S0500E0SN150"},"geometry":{"type":"Polygon","coordinates":[[[-105.546008,45.402287],[-105.546012,45.405908],[-105.540883,45.405909],[-105.535754,45.40591],[-105.530624,45.405911],[-105.525495,45.405912],[-105.525489,45.402451],[-105.525489,45.402297],[-105.525483,45.398836],[-105.525483,45.398682],[-105.525477,45.395221],[-105.525477,45.395067],[-105.525471,45.391606],[-105.525471,45.391452],[-105.530602,45.391446],[-105.535733,45.39144],[-105.540864,45.391433],[-105.545995,45.391427],[-105.545999,45.395047],[-105.546004,45.398667],[-105.546008,45.402287]]]}},{"type":"Feature","properties":{"sec":"03","frstdivid":"MT200050S0500E0SN030"},"geometry":{"type":"Polygon","coordinates":[[[-105.529675,45.435614],[-105.52554,45.435614],[-105.52554,45.431412],[-105.52554,45.431258],[-105.52554,45.427791],[-105.52554,45.427637],[-105.52554,45.42417],[-105.52554,45.424016],[-105.52554,45.420549],[-105.52554,45.420395],[-105.530669,45.420394],[-105.535798,45.420392],[-105.540927,45.420391],[-105.546056,45.420389],[-105.54606,45.424012],[-105.546063,45.427634],[-105.546063,45.431255],[-105.546064,45.435619],[-105.545069,45.435619],[-105.540933,45.435617],[-105.539937,45.435617],[-105.535803,45.435616],[-105.534806,45.435616],[-105.530671,45.435615],[-105.529675,45.435614]]]}},{"type":"Feature","properties":{"sec":"32","frstdivid":"MT200050S0500E0SN320"},"geometry":{"type":"Polygon","coordinates":[[[-105.566762,45.358758],[-105.56673,45.35522],[-105.56673,45.355197],[-105.56671,45.351596],[-105.56671,45.351572],[-105.566691,45.347947],[-105.567582,45.347947],[-105.571831,45.347942],[-105.572735,45.347941],[-105.57697,45.347938],[-105.577903,45.347936],[-105.582145,45.34793],[-105.583071,45.347929],[-105.587319,45.347923],[-105.587344,45.351548],[-105.587369,45.355173],[-105.587394,45.358797],[-105.587419,45.362422],[-105.587016,45.362421],[-105.582179,45.362409],[-105.581889,45.362408],[-105.57694,45.362396],[-105.576763,45.362395],[-105.571867,45.362358],[-105.571778,45.362357],[-105.566794,45.36232],[-105.566763,45.358821],[-105.566762,45.358758]]]}},{"type":"Feature","properties":{"sec":"30","frstdivid":"MT200050S0500E0SN300"},"geometry":{"type":"Polygon","coordinates":[[[-105.587016,45.362421],[-105.587419,45.362422],[-105.592154,45.362404],[-105.592547,45.362403],[-105.597292,45.362385],[-105.597674,45.362383],[-105.60243,45.362379],[-105.602813,45.362379],[-105.608002,45.362374],[-105.608007,45.365991],[-105.608011,45.369609],[-105.608014,45.373227],[-105.608018,45.376845],[-105.602435,45.376854],[-105.597302,45.376862],[-105.59217,45.376869],[-105.587038,45.376876],[-105.587032,45.373262],[-105.587027,45.369648],[-105.587021,45.366035],[-105.587016,45.362421]]]}},{"type":"Feature","properties":{"sec":"27","frstdivid":"MT200050S0500E0SN270"},"geometry":{"type":"Polygon","coordinates":[[[-105.545945,45.362473],[-105.545954,45.366092],[-105.545963,45.36971],[-105.545971,45.373329],[-105.54598,45.376948],[-105.540847,45.376956],[-105.535714,45.376964],[-105.53058,45.376972],[-105.525447,45.376981],[-105.525435,45.37334],[-105.525422,45.369698],[-105.525395,45.366098],[-105.525368,45.362497],[-105.530512,45.362495],[-105.535656,45.362493],[-105.540801,45.362483],[-105.545945,45.362473]]]}},{"type":"Feature","properties":{"sec":"33","frstdivid":"MT200050S0500E0SN330"},"geometry":{"type":"Polygon","coordinates":[[[-105.545946,45.347982],[-105.546988,45.347979],[-105.551084,45.347968],[-105.552124,45.347966],[-105.556222,45.347956],[-105.557277,45.347955],[-105.561356,45.347951],[-105.562429,45.347951],[-105.566691,45.347947],[-105.56671,45.351572],[-105.56671,45.351596],[-105.56673,45.355197],[-105.56673,45.35522],[-105.566762,45.358758],[-105.566763,45.358821],[-105.566794,45.36232],[-105.566795,45.362421],[-105.56651,45.362421],[-105.561462,45.362428],[-105.55641,45.362436],[-105.551178,45.362454],[-105.545945,45.362473],[-105.545942,45.358828],[-105.54594,45.355183],[-105.545943,45.351582],[-105.545946,45.347982]]]}},{"type":"Feature","properties":{"sec":"18","frstdivid":"MT200050S0500E0SN180"},"geometry":{"type":"Polygon","coordinates":[[[-105.597324,45.391347],[-105.60246,45.391337],[-105.608031,45.391326],[-105.608035,45.394946],[-105.608038,45.398567],[-105.608041,45.402188],[-105.608044,45.405809],[-105.602478,45.405822],[-105.597342,45.405834],[-105.592209,45.405846],[-105.587077,45.405857],[-105.587072,45.402234],[-105.587067,45.398611],[-105.587062,45.394989],[-105.587057,45.391366],[-105.59219,45.391356],[-105.597324,45.391347]]]}},{"type":"Feature","properties":{"sec":"22","frstdivid":"MT200050S0500E0SN220"},"geometry":{"type":"Polygon","coordinates":[[[-105.530602,45.391446],[-105.525471,45.391452],[-105.525463,45.387988],[-105.525463,45.387835],[-105.525455,45.384371],[-105.525455,45.384217],[-105.525452,45.380753],[-105.525451,45.380599],[-105.525447,45.376981],[-105.53058,45.376972],[-105.535714,45.376964],[-105.540847,45.376956],[-105.54598,45.376948],[-105.545984,45.380568],[-105.545988,45.384187],[-105.545991,45.387807],[-105.545995,45.391427],[-105.540864,45.391433],[-105.535733,45.39144],[-105.530602,45.391446]]]}},{"type":"Feature","properties":{"sec":"26","frstdivid":"MT200050S0500E0SN260"},"geometry":{"type":"Polygon","coordinates":[[[-105.520194,45.362498],[-105.525368,45.362497],[-105.525395,45.366098],[-105.525422,45.369698],[-105.525435,45.37334],[-105.525447,45.376981],[-105.520249,45.377006],[-105.515052,45.377032],[-105.509943,45.377069],[-105.509894,45.377069],[-105.504736,45.377107],[-105.504744,45.37347],[-105.504752,45.369834],[-105.504732,45.366205],[-105.504711,45.362576],[-105.509866,45.362537],[-105.51502,45.362499],[-105.520194,45.362498]]]}},{"type":"Feature","properties":{"sec":"08","frstdivid":"MT200050S0500E0SN080"},"geometry":{"type":"Polygon","coordinates":[[[-105.566564,45.409503],[-105.566553,45.405881],[-105.571684,45.405875],[-105.576815,45.405869],[-105.581946,45.405863],[-105.587077,45.405857],[-105.587085,45.409477],[-105.587093,45.413097],[-105.587101,45.416717],[-105.587109,45.420337],[-105.581981,45.420345],[-105.576853,45.420353],[-105.571725,45.420361],[-105.566597,45.42037],[-105.566586,45.416747],[-105.566575,45.413125],[-105.566564,45.409503]]]}},{"type":"Feature","properties":{"sec":"35","frstdivid":"MT200050S0500E0SN350"},"geometry":{"type":"Polygon","coordinates":[[[-105.522392,45.348006],[-105.525416,45.348001],[-105.525412,45.348714],[-105.525394,45.351617],[-105.525394,45.351632],[-105.525372,45.355233],[-105.52537,45.358865],[-105.525368,45.362497],[-105.520194,45.362498],[-105.51502,45.362499],[-105.509866,45.362537],[-105.504711,45.362576],[-105.504717,45.358941],[-105.504723,45.355306],[-105.504729,45.351671],[-105.504735,45.348036],[-105.507042,45.348033],[-105.509905,45.348028],[-105.512158,45.348024],[-105.512576,45.348023],[-105.514832,45.348019],[-105.515075,45.348019],[-105.517275,45.348015],[-105.520246,45.34801],[-105.522378,45.348006],[-105.522378,45.348006],[-105.522392,45.348006]]]}},{"type":"Feature","properties":{"sec":"01","frstdivid":"MT200050S0500E0SN010"},"geometry":{"type":"Polygon","coordinates":[[[-105.505009,45.435611],[-105.504012,45.435611],[-105.499877,45.435611],[-105.498878,45.435611],[-105.494743,45.435611],[-105.493744,45.435611],[-105.489609,45.435612],[-105.48861,45.435612],[-105.483965,45.435612],[-105.483958,45.431934],[-105.483957,45.43143],[-105.483952,45.428258],[-105.483953,45.427815],[-105.483966,45.424625],[-105.483968,45.424181],[-105.48398,45.420991],[-105.48398,45.420548],[-105.489515,45.42055],[-105.494652,45.420552],[-105.499787,45.420557],[-105.504923,45.420561],[-105.504944,45.424184],[-105.504966,45.427808],[-105.504986,45.431429],[-105.505009,45.435611]]]}},{"type":"Feature","properties":{"sec":"25","frstdivid":"MT200050S0500E0SN250"},"geometry":{"type":"Polygon","coordinates":[[[-105.499554,45.362601],[-105.504711,45.362576],[-105.504732,45.366205],[-105.504752,45.369834],[-105.504744,45.37347],[-105.504736,45.377107],[-105.499555,45.377138],[-105.494373,45.377169],[-105.489186,45.377188],[-105.483999,45.377207],[-105.484011,45.373572],[-105.484022,45.369938],[-105.484034,45.366302],[-105.484046,45.362665],[-105.489221,45.362646],[-105.494397,45.362626],[-105.499554,45.362601]]]}},{"type":"Feature","properties":{"sec":"11","frstdivid":"MT200050S0500E0SN110"},"geometry":{"type":"Polygon","coordinates":[[[-105.525518,45.413154],[-105.525518,45.413307],[-105.525529,45.416774],[-105.525529,45.416928],[-105.52554,45.420395],[-105.52554,45.420549],[-105.520386,45.420552],[-105.515231,45.420555],[-105.510077,45.420558],[-105.504923,45.420561],[-105.504923,45.416942],[-105.504923,45.413323],[-105.504923,45.409704],[-105.504923,45.406085],[-105.510064,45.406079],[-105.515206,45.406073],[-105.52035,45.406069],[-105.525495,45.406066],[-105.525506,45.409533],[-105.525507,45.409687],[-105.525518,45.413154]]]}},{"type":"Feature","properties":{"sec":"19","frstdivid":"MT200050S0500E0SN190"},"geometry":{"type":"Polygon","coordinates":[[[-105.59217,45.376869],[-105.597302,45.376862],[-105.602435,45.376854],[-105.608018,45.376845],[-105.608021,45.380465],[-105.608025,45.384085],[-105.608028,45.387706],[-105.608031,45.391326],[-105.60246,45.391337],[-105.597324,45.391347],[-105.59219,45.391356],[-105.587057,45.391366],[-105.587052,45.387744],[-105.587047,45.384121],[-105.587043,45.380499],[-105.587038,45.376876],[-105.59217,45.376869]]]}},{"type":"Feature","properties":{"sec":"09","frstdivid":"MT200050S0500E0SN090"},"geometry":{"type":"Polygon","coordinates":[[[-105.546034,45.413148],[-105.546023,45.409528],[-105.546012,45.405908],[-105.551147,45.405901],[-105.556282,45.405894],[-105.561418,45.405887],[-105.566553,45.405881],[-105.566564,45.409503],[-105.566575,45.413125],[-105.566586,45.416747],[-105.566597,45.42037],[-105.561462,45.420375],[-105.556327,45.420379],[-105.551192,45.420384],[-105.546056,45.420389],[-105.546045,45.416769],[-105.546034,45.413148]]]}},{"type":"Feature","properties":{"sec":"05","frstdivid":"MT200050S0500E0SN050"},"geometry":{"type":"Polygon","coordinates":[[[-105.566597,45.42037],[-105.571725,45.420361],[-105.576853,45.420353],[-105.581981,45.420345],[-105.587109,45.420337],[-105.587118,45.423957],[-105.587127,45.427577],[-105.587134,45.431197],[-105.587143,45.435644],[-105.586146,45.435643],[-105.582007,45.43564],[-105.581009,45.43564],[-105.576871,45.435637],[-105.575873,45.435637],[-105.571735,45.435634],[-105.570737,45.435633],[-105.566599,45.435631],[-105.566599,45.431229],[-105.5666,45.427609],[-105.566598,45.423989],[-105.566597,45.42037]]]}}]}