{"type":"FeatureCollection","note":"BLM Public Land Survey System. Provided by the Bureau of Land Management as is. These data are neither legal documents nor land surveys and must not be used as such.","features":[{"type":"Feature","properties":{"sec":"33","frstdivid":"WY060550N0820W0SN330"},"geometry":{"type":"Polygon","coordinates":[[[-106.749733,44.689159],[-106.749703,44.692896],[-106.749672,44.696633],[-106.749641,44.700371],[-106.74961,44.704108],[-106.744509,44.704014],[-106.739408,44.703921],[-106.734307,44.703827],[-106.729206,44.703733],[-106.729288,44.699976],[-106.729371,44.696218],[-106.729453,44.692461],[-106.729535,44.688704],[-106.734585,44.688817],[-106.739634,44.688931],[-106.744684,44.689045],[-106.749733,44.689159]]]}},{"type":"Feature","properties":{"sec":"30","frstdivid":"WY060550N0820W0SN300"},"geometry":{"type":"Polygon","coordinates":[[[-106.775022,44.704768],[-106.780117,44.704815],[-106.785202,44.704834],[-106.790366,44.704853],[-106.790352,44.708472],[-106.790337,44.712092],[-106.790323,44.715711],[-106.790309,44.71933],[-106.785177,44.719321],[-106.780091,44.719311],[-106.774995,44.71928],[-106.7699,44.719248],[-106.769907,44.715616],[-106.769913,44.711985],[-106.76992,44.708353],[-106.769927,44.704721],[-106.775022,44.704768]]]}},{"type":"Feature","properties":{"sec":"17","frstdivid":"WY060550N0820W0SN170"},"geometry":{"type":"Polygon","coordinates":[[[-106.749428,44.733588],[-106.75454,44.733641],[-106.759651,44.733694],[-106.764762,44.733747],[-106.769874,44.7338],[-106.769879,44.737449],[-106.769884,44.741098],[-106.769889,44.744747],[-106.769894,44.748396],[-106.764763,44.748365],[-106.759631,44.748334],[-106.754499,44.748303],[-106.749367,44.748272],[-106.749382,44.744601],[-106.749398,44.74093],[-106.749413,44.737259],[-106.749428,44.733588]]]}},{"type":"Feature","properties":{"sec":"26","frstdivid":"WY060550N0820W0SN260"},"geometry":{"type":"Polygon","coordinates":[[[-106.708593,44.71102],[-106.70851,44.714756],[-106.708427,44.718492],[-106.70325,44.718539],[-106.698073,44.718586],[-106.692896,44.718633],[-106.687719,44.71868],[-106.68782,44.714935],[-106.687921,44.71119],[-106.688023,44.707445],[-106.688124,44.7037],[-106.693283,44.703662],[-106.698442,44.703624],[-106.703601,44.703587],[-106.70876,44.703549],[-106.708677,44.707285],[-106.708593,44.71102]]]}},{"type":"Feature","properties":{"sec":"19","frstdivid":"WY060550N0820W0SN190"},"geometry":{"type":"Polygon","coordinates":[[[-106.769874,44.7338],[-106.76988,44.730162],[-106.769887,44.726524],[-106.769893,44.722886],[-106.7699,44.719248],[-106.774995,44.71928],[-106.780091,44.719311],[-106.785177,44.719321],[-106.790309,44.71933],[-106.790306,44.722966],[-106.790304,44.726602],[-106.790301,44.730238],[-106.790298,44.733874],[-106.785161,44.733859],[-106.780073,44.733845],[-106.774973,44.733822],[-106.769874,44.7338]]]}},{"type":"Feature","properties":{"sec":"22","frstdivid":"WY060550N0820W0SN220"},"geometry":{"type":"Polygon","coordinates":[[[-106.708427,44.718492],[-106.713558,44.718521],[-106.718688,44.718551],[-106.723819,44.718581],[-106.72895,44.71861],[-106.728927,44.722297],[-106.728904,44.725983],[-106.728881,44.72967],[-106.728857,44.733356],[-106.723708,44.733325],[-106.718558,44.733293],[-106.713408,44.733262],[-106.708259,44.733231],[-106.708301,44.729546],[-106.708343,44.725861],[-106.708385,44.722176],[-106.708427,44.718492]]]}},{"type":"Feature","properties":{"sec":"27","frstdivid":"WY060550N0820W0SN270"},"geometry":{"type":"Polygon","coordinates":[[[-106.713872,44.703595],[-106.718983,44.703641],[-106.724095,44.703687],[-106.729206,44.703733],[-106.729142,44.707453],[-106.729078,44.711172],[-106.729014,44.714891],[-106.72895,44.71861],[-106.723819,44.718581],[-106.718688,44.718551],[-106.713558,44.718521],[-106.708427,44.718492],[-106.70851,44.714756],[-106.708593,44.71102],[-106.708677,44.707285],[-106.70876,44.703549],[-106.713872,44.703595]]]}},{"type":"Feature","properties":{"sec":"18","frstdivid":"WY060550N0820W0SN180"},"geometry":{"type":"Polygon","coordinates":[[[-106.785222,44.748433],[-106.780125,44.748421],[-106.77501,44.748408],[-106.769894,44.748396],[-106.769889,44.744747],[-106.769884,44.741098],[-106.769879,44.737449],[-106.769874,44.7338],[-106.774973,44.733822],[-106.780073,44.733845],[-106.785161,44.733859],[-106.790298,44.733874],[-106.790312,44.737517],[-106.790326,44.74116],[-106.790339,44.744803],[-106.790353,44.748446],[-106.785222,44.748433]]]}},{"type":"Feature","properties":{"sec":"34","frstdivid":"WY060550N0820W0SN340"},"geometry":{"type":"Polygon","coordinates":[[[-106.729535,44.688704],[-106.729453,44.692461],[-106.729371,44.696218],[-106.729288,44.699976],[-106.729206,44.703733],[-106.724095,44.703687],[-106.718983,44.703641],[-106.713872,44.703595],[-106.70876,44.703549],[-106.708898,44.699754],[-106.709035,44.695959],[-106.709172,44.692163],[-106.709309,44.688368],[-106.714366,44.688452],[-106.719422,44.688536],[-106.724479,44.68862],[-106.729535,44.688704]]]}},{"type":"Feature","properties":{"sec":"09","frstdivid":"WY060550N0820W0SN090"},"geometry":{"type":"Polygon","coordinates":[[[-106.749316,44.763012],[-106.744205,44.762963],[-106.739094,44.762914],[-106.733984,44.762865],[-106.728873,44.762816],[-106.728865,44.759128],[-106.728856,44.755439],[-106.728848,44.75175],[-106.728839,44.748062],[-106.733971,44.748114],[-106.739103,44.748167],[-106.744235,44.748219],[-106.749367,44.748272],[-106.749354,44.751957],[-106.749341,44.755642],[-106.749328,44.759327],[-106.749316,44.763012]]]}},{"type":"Feature","properties":{"sec":"31","frstdivid":"WY060550N0820W0SN310"},"geometry":{"type":"Polygon","coordinates":[[[-106.769927,44.704721],[-106.769909,44.701123],[-106.769891,44.697526],[-106.769873,44.693929],[-106.769855,44.690331],[-106.774884,44.690377],[-106.779913,44.690422],[-106.784964,44.69044],[-106.790154,44.69046],[-106.790207,44.694058],[-106.79026,44.697656],[-106.790313,44.701255],[-106.790366,44.704853],[-106.785202,44.704834],[-106.780117,44.704815],[-106.775022,44.704768],[-106.769927,44.704721]]]}},{"type":"Feature","properties":{"sec":"35","frstdivid":"WY060550N0820W0SN350"},"geometry":{"type":"Polygon","coordinates":[[[-106.709035,44.695959],[-106.708898,44.699754],[-106.70876,44.703549],[-106.703601,44.703587],[-106.698442,44.703624],[-106.693283,44.703662],[-106.688124,44.7037],[-106.688382,44.699776],[-106.688641,44.695853],[-106.688899,44.691929],[-106.689157,44.688005],[-106.694195,44.688096],[-106.699233,44.688187],[-106.704271,44.688278],[-106.709309,44.688368],[-106.709172,44.692163],[-106.709035,44.695959]]]}},{"type":"Feature","properties":{"sec":"32","frstdivid":"WY060550N0820W0SN320"},"geometry":{"type":"Polygon","coordinates":[[[-106.769855,44.690331],[-106.769873,44.693929],[-106.769891,44.697526],[-106.769909,44.701123],[-106.769927,44.704721],[-106.764848,44.704568],[-106.759769,44.704414],[-106.75469,44.704261],[-106.74961,44.704108],[-106.749641,44.700371],[-106.749672,44.696633],[-106.749703,44.692896],[-106.749733,44.689159],[-106.754764,44.689452],[-106.759794,44.689745],[-106.764825,44.690038],[-106.769855,44.690331]]]}},{"type":"Feature","properties":{"sec":"20","frstdivid":"WY060550N0820W0SN200"},"geometry":{"type":"Polygon","coordinates":[[[-106.749428,44.733588],[-106.749438,44.72991],[-106.749449,44.726233],[-106.749459,44.722556],[-106.749469,44.718879],[-106.754576,44.718971],[-106.759684,44.719064],[-106.764792,44.719156],[-106.7699,44.719248],[-106.769893,44.722886],[-106.769887,44.726524],[-106.76988,44.730162],[-106.769874,44.7338],[-106.764762,44.733747],[-106.759651,44.733694],[-106.75454,44.733641],[-106.749428,44.733588]]]}},{"type":"Feature","properties":{"sec":"06","frstdivid":"WY060550N0820W0SN060"},"geometry":{"type":"Polygon","coordinates":[[[-106.790235,44.763017],[-106.790166,44.766649],[-106.790098,44.77028],[-106.790064,44.773906],[-106.79003,44.777532],[-106.785118,44.777544],[-106.780019,44.777558],[-106.774904,44.7776],[-106.769789,44.777642],[-106.769806,44.773992],[-106.769822,44.770358],[-106.769842,44.76671],[-106.769862,44.763063],[-106.774977,44.763053],[-106.780092,44.763043],[-106.78519,44.76303],[-106.790235,44.763017]]]}},{"type":"Feature","properties":{"sec":"36","frstdivid":"WY060550N0820W0SN360"},"geometry":{"type":"Polygon","coordinates":[[[-106.674349,44.687364],[-106.679285,44.687578],[-106.684221,44.687792],[-106.689157,44.688005],[-106.688899,44.691929],[-106.688641,44.695853],[-106.688382,44.699776],[-106.688124,44.7037],[-106.682868,44.704031],[-106.677611,44.704363],[-106.672354,44.704695],[-106.667098,44.705026],[-106.667676,44.700557],[-106.668255,44.696088],[-106.668834,44.691619],[-106.669412,44.68715],[-106.674349,44.687364]]]}},{"type":"Feature","properties":{"sec":"21","frstdivid":"WY060550N0820W0SN210"},"geometry":{"type":"Polygon","coordinates":[[[-106.739209,44.718745],[-106.744339,44.718812],[-106.749469,44.718879],[-106.749459,44.722556],[-106.749449,44.726233],[-106.749438,44.72991],[-106.749428,44.733588],[-106.744286,44.73353],[-106.739143,44.733472],[-106.734,44.733414],[-106.728857,44.733356],[-106.728881,44.72967],[-106.728904,44.725983],[-106.728927,44.722297],[-106.72895,44.71861],[-106.73408,44.718678],[-106.739209,44.718745]]]}},{"type":"Feature","properties":{"sec":"28","frstdivid":"WY060550N0820W0SN280"},"geometry":{"type":"Polygon","coordinates":[[[-106.74954,44.711494],[-106.749504,44.715186],[-106.749469,44.718879],[-106.744339,44.718812],[-106.739209,44.718745],[-106.73408,44.718678],[-106.72895,44.71861],[-106.729014,44.714891],[-106.729078,44.711172],[-106.729142,44.707453],[-106.729206,44.703733],[-106.734307,44.703827],[-106.739408,44.703921],[-106.744509,44.704014],[-106.74961,44.704108],[-106.749575,44.707801],[-106.74954,44.711494]]]}},{"type":"Feature","properties":{"sec":"29","frstdivid":"WY060550N0820W0SN290"},"geometry":{"type":"Polygon","coordinates":[[[-106.764792,44.719156],[-106.759684,44.719064],[-106.754576,44.718971],[-106.749469,44.718879],[-106.749504,44.715186],[-106.74954,44.711494],[-106.749575,44.707801],[-106.74961,44.704108],[-106.75469,44.704261],[-106.759769,44.704414],[-106.764848,44.704568],[-106.769927,44.704721],[-106.76992,44.708353],[-106.769913,44.711985],[-106.769907,44.715616],[-106.7699,44.719248],[-106.764792,44.719156]]]}},{"type":"Feature","properties":{"sec":"08","frstdivid":"WY060550N0820W0SN080"},"geometry":{"type":"Polygon","coordinates":[[[-106.754499,44.748303],[-106.759631,44.748334],[-106.764763,44.748365],[-106.769894,44.748396],[-106.769886,44.752063],[-106.769878,44.755729],[-106.76987,44.759396],[-106.769862,44.763063],[-106.764725,44.76305],[-106.759589,44.763037],[-106.754452,44.763025],[-106.749316,44.763012],[-106.749328,44.759327],[-106.749341,44.755642],[-106.749354,44.751957],[-106.749367,44.748272],[-106.754499,44.748303]]]}},{"type":"Feature","properties":{"sec":"05","frstdivid":"WY060550N0820W0SN050"},"geometry":{"type":"Polygon","coordinates":[[[-106.769862,44.763063],[-106.769842,44.76671],[-106.769822,44.770358],[-106.769806,44.773992],[-106.769789,44.777642],[-106.76466,44.777628],[-106.75953,44.777614],[-106.754401,44.7776],[-106.749272,44.777587],[-106.749275,44.773969],[-106.749278,44.77033],[-106.749297,44.766671],[-106.749316,44.763012],[-106.754452,44.763025],[-106.759589,44.763037],[-106.764725,44.76305],[-106.769862,44.763063]]]}},{"type":"Feature","properties":{"sec":"04","frstdivid":"WY060550N0820W0SN040"},"geometry":{"type":"Polygon","coordinates":[[[-106.744205,44.762963],[-106.749316,44.763012],[-106.749297,44.766671],[-106.749278,44.77033],[-106.749275,44.773969],[-106.749272,44.777587],[-106.744146,44.777557],[-106.73902,44.777527],[-106.733894,44.777497],[-106.728768,44.777467],[-106.728792,44.773849],[-106.728816,44.770195],[-106.728844,44.766506],[-106.728873,44.762816],[-106.733984,44.762865],[-106.739094,44.762914],[-106.744205,44.762963]]]}},{"type":"Feature","properties":{"sec":"15","frstdivid":"WY060550N0820W0SN150"},"geometry":{"type":"Polygon","coordinates":[[[-106.708259,44.733231],[-106.713408,44.733262],[-106.718558,44.733293],[-106.723708,44.733325],[-106.728857,44.733356],[-106.728853,44.737033],[-106.728848,44.740709],[-106.728844,44.744385],[-106.728839,44.748062],[-106.723713,44.748006],[-106.718586,44.74795],[-106.71346,44.747894],[-106.708333,44.747839],[-106.708315,44.744187],[-106.708296,44.740535],[-106.708277,44.736883],[-106.708259,44.733231]]]}},{"type":"Feature","properties":{"sec":"07","frstdivid":"WY060550N0820W0SN070"},"geometry":{"type":"Polygon","coordinates":[[[-106.769862,44.763063],[-106.76987,44.759396],[-106.769878,44.755729],[-106.769886,44.752063],[-106.769894,44.748396],[-106.77501,44.748408],[-106.780125,44.748421],[-106.785222,44.748433],[-106.790353,44.748446],[-106.790323,44.752088],[-106.790294,44.755731],[-106.790264,44.759374],[-106.790235,44.763017],[-106.78519,44.76303],[-106.780092,44.763043],[-106.774977,44.763053],[-106.769862,44.763063]]]}},{"type":"Feature","properties":{"sec":"16","frstdivid":"WY060550N0820W0SN160"},"geometry":{"type":"Polygon","coordinates":[[[-106.749413,44.737259],[-106.749398,44.74093],[-106.749382,44.744601],[-106.749367,44.748272],[-106.744235,44.748219],[-106.739103,44.748167],[-106.733971,44.748114],[-106.728839,44.748062],[-106.728844,44.744385],[-106.728848,44.740709],[-106.728853,44.737033],[-106.728857,44.733356],[-106.734,44.733414],[-106.739143,44.733472],[-106.744286,44.73353],[-106.749428,44.733588],[-106.749413,44.737259]]]}},{"type":"Feature","properties":{"sec":"03","frstdivid":"WY060550N0820W0SN030"},"geometry":{"type":"Polygon","coordinates":[[[-106.728816,44.770195],[-106.728792,44.773849],[-106.728768,44.777467],[-106.72365,44.777423],[-106.718531,44.77738],[-106.713412,44.777336],[-106.708294,44.777292],[-106.708335,44.773554],[-106.708375,44.769829],[-106.708453,44.766],[-106.708531,44.76217],[-106.713616,44.762332],[-106.718702,44.762493],[-106.723787,44.762655],[-106.728873,44.762816],[-106.728844,44.766506],[-106.728816,44.770195]]]}},{"type":"Feature","properties":{"sec":"10","frstdivid":"WY060550N0820W0SN100"},"geometry":{"type":"Polygon","coordinates":[[[-106.723787,44.762655],[-106.718702,44.762493],[-106.713616,44.762332],[-106.708531,44.76217],[-106.708481,44.758587],[-106.708432,44.755004],[-106.708383,44.751421],[-106.708333,44.747839],[-106.71346,44.747894],[-106.718586,44.74795],[-106.723713,44.748006],[-106.728839,44.748062],[-106.728848,44.75175],[-106.728856,44.755439],[-106.728865,44.759128],[-106.728873,44.762816],[-106.723787,44.762655]]]}},{"type":"Feature","properties":{"sec":"24","frstdivid":"WY060550N0820W0SN240"},"geometry":{"type":"Polygon","coordinates":[[[-106.687655,44.726028],[-106.687623,44.729702],[-106.687591,44.733375],[-106.682388,44.733432],[-106.677184,44.733488],[-106.67198,44.733544],[-106.666776,44.7336],[-106.666798,44.729994],[-106.66682,44.726388],[-106.666832,44.722885],[-106.666844,44.719381],[-106.672063,44.719206],[-106.677281,44.719031],[-106.6825,44.718855],[-106.687719,44.71868],[-106.687687,44.722354],[-106.687655,44.726028]]]}},{"type":"Feature","properties":{"sec":"23","frstdivid":"WY060550N0820W0SN230"},"geometry":{"type":"Polygon","coordinates":[[[-106.70325,44.718539],[-106.708427,44.718492],[-106.708385,44.722176],[-106.708343,44.725861],[-106.708301,44.729546],[-106.708259,44.733231],[-106.703092,44.733267],[-106.697925,44.733303],[-106.692758,44.733339],[-106.687591,44.733375],[-106.687623,44.729702],[-106.687655,44.726028],[-106.687687,44.722354],[-106.687719,44.71868],[-106.692896,44.718633],[-106.698073,44.718586],[-106.70325,44.718539]]]}},{"type":"Feature","properties":{"sec":"25","frstdivid":"WY060550N0820W0SN250"},"geometry":{"type":"Polygon","coordinates":[[[-106.6825,44.718855],[-106.677281,44.719031],[-106.672063,44.719206],[-106.666844,44.719381],[-106.666841,44.715737],[-106.666838,44.712093],[-106.666968,44.70856],[-106.667098,44.705026],[-106.672354,44.704695],[-106.677611,44.704363],[-106.682868,44.704031],[-106.688124,44.7037],[-106.688023,44.707445],[-106.687921,44.71119],[-106.68782,44.714935],[-106.687719,44.71868],[-106.6825,44.718855]]]}},{"type":"Feature","properties":{"sec":"02","frstdivid":"WY060550N0820W0SN020"},"geometry":{"type":"Polygon","coordinates":[[[-106.708453,44.766],[-106.708375,44.769829],[-106.708335,44.773554],[-106.708294,44.777292],[-106.70315,44.7773],[-106.698005,44.777307],[-106.692861,44.777314],[-106.687717,44.777321],[-106.687717,44.773642],[-106.687717,44.769998],[-106.687716,44.76633],[-106.687714,44.762661],[-106.692918,44.762538],[-106.698122,44.762416],[-106.703327,44.762293],[-106.708531,44.76217],[-106.708453,44.766]]]}},{"type":"Feature","properties":{"sec":"13","frstdivid":"WY060550N0820W0SN130"},"geometry":{"type":"Polygon","coordinates":[[[-106.687591,44.744357],[-106.68759,44.748018],[-106.682422,44.748056],[-106.677254,44.748094],[-106.672086,44.748133],[-106.666918,44.748171],[-106.666883,44.744529],[-106.666847,44.740886],[-106.666812,44.737243],[-106.666776,44.7336],[-106.67198,44.733544],[-106.677184,44.733488],[-106.682388,44.733432],[-106.687591,44.733375],[-106.687591,44.737036],[-106.687591,44.740697],[-106.687591,44.744357]]]}},{"type":"Feature","properties":{"sec":"11","frstdivid":"WY060550N0820W0SN110"},"geometry":{"type":"Polygon","coordinates":[[[-106.698122,44.762416],[-106.692918,44.762538],[-106.687714,44.762661],[-106.687683,44.759],[-106.687652,44.755339],[-106.687621,44.751679],[-106.68759,44.748018],[-106.692776,44.747973],[-106.697962,44.747928],[-106.703147,44.747883],[-106.708333,44.747839],[-106.708383,44.751421],[-106.708432,44.755004],[-106.708481,44.758587],[-106.708531,44.76217],[-106.703327,44.762293],[-106.698122,44.762416]]]}},{"type":"Feature","properties":{"sec":"12","frstdivid":"WY060550N0820W0SN120"},"geometry":{"type":"Polygon","coordinates":[[[-106.677371,44.7627],[-106.672199,44.762719],[-106.667028,44.762739],[-106.667,44.759097],[-106.666973,44.755455],[-106.666945,44.751813],[-106.666918,44.748171],[-106.672086,44.748133],[-106.677254,44.748094],[-106.682422,44.748056],[-106.68759,44.748018],[-106.687621,44.751679],[-106.687652,44.755339],[-106.687683,44.759],[-106.687714,44.762661],[-106.682543,44.762681],[-106.677371,44.7627]]]}},{"type":"Feature","properties":{"sec":"14","frstdivid":"WY060550N0820W0SN140"},"geometry":{"type":"Polygon","coordinates":[[[-106.697925,44.733303],[-106.703092,44.733267],[-106.708259,44.733231],[-106.708277,44.736883],[-106.708296,44.740535],[-106.708315,44.744187],[-106.708333,44.747839],[-106.703147,44.747883],[-106.697962,44.747928],[-106.692776,44.747973],[-106.68759,44.748018],[-106.687591,44.744357],[-106.687591,44.740697],[-106.687591,44.737036],[-106.687591,44.733375],[-106.692758,44.733339],[-106.697925,44.733303]]]}},{"type":"Feature","properties":{"sec":"01","frstdivid":"WY060550N0820W0SN010"},"geometry":{"type":"Polygon","coordinates":[[[-106.687717,44.769998],[-106.687717,44.773642],[-106.687717,44.777321],[-106.682575,44.777312],[-106.677433,44.777302],[-106.672291,44.777292],[-106.667149,44.777283],[-106.667119,44.773653],[-106.667089,44.770023],[-106.667058,44.766381],[-106.667028,44.762739],[-106.672199,44.762719],[-106.677371,44.7627],[-106.682543,44.762681],[-106.687714,44.762661],[-106.687716,44.76633],[-106.687717,44.769998]]]}}]}