{"type":"FeatureCollection","note":"BLM Public Land Survey System. Provided by the Bureau of Land Management as is. These data are neither legal documents nor land surveys and must not be used as such.","features":[{"type":"Feature","properties":{"sec":"22","frstdivid":"MT200070S0380E0SN220"},"geometry":{"type":"Polygon","coordinates":[[[-107.050846,45.210869],[-107.055969,45.210866],[-107.061093,45.210863],[-107.066217,45.210858],[-107.071341,45.210853],[-107.071343,45.214473],[-107.071346,45.218092],[-107.071348,45.221712],[-107.071351,45.225332],[-107.066235,45.225336],[-107.061119,45.225341],[-107.056004,45.225345],[-107.050888,45.225348],[-107.050877,45.221728],[-107.050866,45.218108],[-107.050856,45.214489],[-107.050846,45.210869]]]}},{"type":"Feature","properties":{"sec":"23","frstdivid":"MT200070S0380E0SN230"},"geometry":{"type":"Polygon","coordinates":[[[-107.030388,45.225135],[-107.030376,45.221745],[-107.030375,45.22154],[-107.030363,45.218121],[-107.030363,45.217946],[-107.03035,45.214497],[-107.03035,45.214352],[-107.030336,45.210873],[-107.035463,45.210874],[-107.038027,45.210873],[-107.039309,45.210872],[-107.040591,45.210871],[-107.045718,45.210871],[-107.048281,45.21087],[-107.049563,45.21087],[-107.050846,45.210869],[-107.050856,45.214489],[-107.050866,45.218108],[-107.050877,45.221728],[-107.050888,45.225348],[-107.045763,45.225354],[-107.040638,45.225358],[-107.035513,45.225363],[-107.030388,45.225368],[-107.030388,45.225135]]]}},{"type":"Feature","properties":{"sec":"24","frstdivid":"MT200070S0380E0SN240"},"geometry":{"type":"Polygon","coordinates":[[[-107.014108,45.210779],[-107.019283,45.210758],[-107.020281,45.210758],[-107.025198,45.210756],[-107.030337,45.210757],[-107.030336,45.210873],[-107.03035,45.214352],[-107.03035,45.214497],[-107.030363,45.217946],[-107.030363,45.218121],[-107.030375,45.22154],[-107.030376,45.221745],[-107.030388,45.225135],[-107.025277,45.225136],[-107.020099,45.22514],[-107.01916,45.225142],[-107.013933,45.225178],[-107.013976,45.221578],[-107.01402,45.217979],[-107.014064,45.214379],[-107.014108,45.210779]]]}},{"type":"Feature","properties":{"sec":"26","frstdivid":"MT200070S0380E0SN260"},"geometry":{"type":"Polygon","coordinates":[[[-107.030337,45.210757],[-107.030352,45.207247],[-107.030352,45.20716],[-107.030367,45.203621],[-107.030367,45.203562],[-107.030382,45.199994],[-107.030383,45.199965],[-107.030398,45.196368],[-107.035512,45.196371],[-107.03807,45.196371],[-107.039349,45.196371],[-107.040629,45.196371],[-107.045743,45.196372],[-107.0483,45.196372],[-107.049579,45.196372],[-107.050858,45.196371],[-107.050857,45.197277],[-107.050855,45.198183],[-107.050855,45.199089],[-107.050854,45.199995],[-107.050853,45.200901],[-107.050852,45.201807],[-107.050851,45.202714],[-107.050851,45.20362],[-107.05085,45.204526],[-107.050849,45.205432],[-107.050849,45.206338],[-107.050848,45.207244],[-107.050847,45.20815],[-107.050847,45.209056],[-107.050846,45.209963],[-107.050846,45.210869],[-107.049563,45.21087],[-107.048281,45.21087],[-107.045718,45.210871],[-107.040591,45.210871],[-107.039309,45.210872],[-107.038027,45.210873],[-107.035463,45.210874],[-107.030336,45.210873],[-107.030337,45.210757]]]}},{"type":"Feature","properties":{"sec":"08","frstdivid":"MT200070S0380E0SN080"},"geometry":{"type":"Polygon","coordinates":[[[-107.091802,45.253405],[-107.091803,45.252501],[-107.091804,45.251597],[-107.091805,45.250692],[-107.091805,45.249788],[-107.091806,45.248884],[-107.091807,45.24798],[-107.091808,45.247075],[-107.091809,45.246171],[-107.091809,45.245267],[-107.09181,45.244363],[-107.091811,45.243458],[-107.091811,45.242554],[-107.091812,45.24165],[-107.091813,45.240746],[-107.091814,45.239842],[-107.096931,45.239836],[-107.102048,45.239829],[-107.107165,45.239822],[-107.112282,45.239817],[-107.112282,45.242553],[-107.112281,45.243438],[-107.112282,45.246174],[-107.112281,45.247059],[-107.11228,45.249795],[-107.112279,45.250681],[-107.112278,45.253417],[-107.112277,45.254302],[-107.107158,45.254303],[-107.102039,45.254305],[-107.09692,45.254307],[-107.091801,45.254309],[-107.091802,45.253405]]]}},{"type":"Feature","properties":{"sec":"20","frstdivid":"MT200070S0380E0SN200"},"geometry":{"type":"Polygon","coordinates":[[[-107.091824,45.214459],[-107.091831,45.210828],[-107.096948,45.21083],[-107.102065,45.210832],[-107.107183,45.210833],[-107.1123,45.210835],[-107.1123,45.213573],[-107.112299,45.214459],[-107.112299,45.217197],[-107.112298,45.218082],[-107.112297,45.220821],[-107.112296,45.221706],[-107.112295,45.224444],[-107.112294,45.22533],[-107.107172,45.225334],[-107.10205,45.22534],[-107.096927,45.225346],[-107.091805,45.225351],[-107.091811,45.22172],[-107.091818,45.21809],[-107.091824,45.214459]]]}},{"type":"Feature","properties":{"sec":"33","frstdivid":"MT200070S0380E0SN330"},"geometry":{"type":"Polygon","coordinates":[[[-107.07144,45.181788],[-107.071859,45.181788],[-107.076564,45.181788],[-107.076984,45.181787],[-107.081689,45.181787],[-107.082109,45.181787],[-107.086815,45.181788],[-107.087235,45.181788],[-107.091941,45.18179],[-107.091918,45.185459],[-107.091895,45.189085],[-107.091878,45.192711],[-107.091864,45.196336],[-107.086735,45.196343],[-107.081607,45.196349],[-107.076478,45.196355],[-107.073913,45.196357],[-107.071349,45.196359],[-107.071369,45.192733],[-107.071392,45.189108],[-107.071418,45.185482],[-107.07144,45.181788]]]}},{"type":"Feature","properties":{"sec":"21","frstdivid":"MT200070S0380E0SN210"},"geometry":{"type":"Polygon","coordinates":[[[-107.071341,45.210853],[-107.076463,45.210848],[-107.081586,45.210842],[-107.086708,45.210835],[-107.091831,45.210828],[-107.091824,45.214459],[-107.091818,45.21809],[-107.091811,45.22172],[-107.091805,45.225351],[-107.086692,45.225347],[-107.081578,45.225343],[-107.076465,45.225337],[-107.071351,45.225332],[-107.071348,45.221712],[-107.071346,45.218092],[-107.071343,45.214473],[-107.071341,45.210853]]]}},{"type":"Feature","properties":{"sec":"14","frstdivid":"MT200070S0380E0SN140"},"geometry":{"type":"Polygon","coordinates":[[[-107.030402,45.239506],[-107.030398,45.23622],[-107.030398,45.235914],[-107.030395,45.232603],[-107.030395,45.232321],[-107.030392,45.228986],[-107.030391,45.228728],[-107.030388,45.225368],[-107.035513,45.225363],[-107.040638,45.225358],[-107.045763,45.225354],[-107.050888,45.225348],[-107.050886,45.228973],[-107.050885,45.232599],[-107.050884,45.236225],[-107.050882,45.239851],[-107.045762,45.239848],[-107.040642,45.239844],[-107.035522,45.23984],[-107.030401,45.239837],[-107.030402,45.239506]]]}},{"type":"Feature","properties":{"sec":"34","frstdivid":"MT200070S0380E0SN340"},"geometry":{"type":"Polygon","coordinates":[[[-107.050901,45.181808],[-107.05132,45.181808],[-107.056035,45.181802],[-107.056454,45.181802],[-107.06117,45.181797],[-107.061589,45.181797],[-107.066305,45.181793],[-107.066724,45.181792],[-107.07144,45.181788],[-107.071418,45.185482],[-107.071392,45.189108],[-107.071369,45.192733],[-107.071349,45.196359],[-107.066226,45.196364],[-107.061104,45.196367],[-107.055981,45.19637],[-107.050858,45.196371],[-107.050865,45.192746],[-107.050875,45.189121],[-107.050889,45.185496],[-107.050901,45.181808]]]}},{"type":"Feature","properties":{"sec":"32","frstdivid":"MT200070S0380E0SN320"},"geometry":{"type":"Polygon","coordinates":[[[-107.091941,45.18179],[-107.092361,45.18179],[-107.097063,45.181793],[-107.097484,45.181793],[-107.102186,45.181796],[-107.102607,45.181796],[-107.107313,45.181799],[-107.107735,45.181798],[-107.112441,45.181793],[-107.112397,45.184537],[-107.112391,45.185424],[-107.112369,45.188169],[-107.112364,45.189055],[-107.112348,45.191799],[-107.112345,45.192686],[-107.112333,45.19543],[-107.112329,45.196316],[-107.107213,45.196322],[-107.102097,45.196328],[-107.09698,45.196333],[-107.091864,45.196336],[-107.091878,45.192711],[-107.091895,45.189085],[-107.091918,45.185459],[-107.091941,45.18179]]]}},{"type":"Feature","properties":{"sec":"11","frstdivid":"MT200070S0380E0SN110"},"geometry":{"type":"Polygon","coordinates":[[[-107.030407,45.253922],[-107.030406,45.250706],[-107.030406,45.250318],[-107.030405,45.247083],[-107.030405,45.246715],[-107.030403,45.24346],[-107.030403,45.24311],[-107.030401,45.239837],[-107.035522,45.23984],[-107.040642,45.239844],[-107.045762,45.239848],[-107.050882,45.239851],[-107.05088,45.243471],[-107.050877,45.247091],[-107.050874,45.250712],[-107.050871,45.254333],[-107.045754,45.254333],[-107.040638,45.254333],[-107.035521,45.254331],[-107.030405,45.254329],[-107.030407,45.253922]]]}},{"type":"Feature","properties":{"sec":"13","frstdivid":"MT200070S0380E0SN130"},"geometry":{"type":"Polygon","coordinates":[[[-107.013933,45.225178],[-107.01916,45.225142],[-107.020099,45.22514],[-107.025277,45.225136],[-107.030388,45.225135],[-107.030388,45.225368],[-107.030391,45.228728],[-107.030392,45.228986],[-107.030395,45.232321],[-107.030395,45.232603],[-107.030398,45.235914],[-107.030398,45.23622],[-107.030402,45.239506],[-107.025282,45.239508],[-107.019844,45.239512],[-107.018829,45.239516],[-107.013511,45.239637],[-107.013616,45.236022],[-107.013722,45.232408],[-107.013827,45.228793],[-107.013933,45.225178]]]}},{"type":"Feature","properties":{"sec":"17","frstdivid":"MT200070S0380E0SN170"},"geometry":{"type":"Polygon","coordinates":[[[-107.091805,45.225351],[-107.096927,45.225346],[-107.10205,45.22534],[-107.107172,45.225334],[-107.112294,45.22533],[-107.112293,45.228066],[-107.112291,45.228952],[-107.11229,45.231688],[-107.112289,45.232573],[-107.112286,45.23531],[-107.112285,45.236195],[-107.112282,45.238932],[-107.112282,45.239817],[-107.107165,45.239822],[-107.102048,45.239829],[-107.096931,45.239836],[-107.091814,45.239842],[-107.091811,45.236219],[-107.091809,45.232596],[-107.091807,45.228974],[-107.091805,45.225351]]]}},{"type":"Feature","properties":{"sec":"28","frstdivid":"MT200070S0380E0SN280"},"geometry":{"type":"Polygon","coordinates":[[[-107.071349,45.196359],[-107.073913,45.196357],[-107.076478,45.196355],[-107.081607,45.196349],[-107.086735,45.196343],[-107.091864,45.196336],[-107.091855,45.199959],[-107.091847,45.203582],[-107.091838,45.207205],[-107.091831,45.210828],[-107.086708,45.210835],[-107.081586,45.210842],[-107.076463,45.210848],[-107.071341,45.210853],[-107.071342,45.20723],[-107.071344,45.203606],[-107.071346,45.201795],[-107.071346,45.199983],[-107.071348,45.198171],[-107.071349,45.196359]]]}},{"type":"Feature","properties":{"sec":"15","frstdivid":"MT200070S0380E0SN150"},"geometry":{"type":"Polygon","coordinates":[[[-107.050888,45.225348],[-107.056004,45.225345],[-107.061119,45.225341],[-107.066235,45.225336],[-107.071351,45.225332],[-107.071348,45.228955],[-107.071345,45.232578],[-107.071343,45.236202],[-107.07134,45.239825],[-107.066226,45.239832],[-107.064947,45.239834],[-107.063668,45.239836],[-107.061111,45.23984],[-107.055997,45.239845],[-107.050882,45.239851],[-107.050884,45.236225],[-107.050885,45.232599],[-107.050886,45.228973],[-107.050888,45.225348]]]}},{"type":"Feature","properties":{"sec":"09","frstdivid":"MT200070S0380E0SN090"},"geometry":{"type":"Polygon","coordinates":[[[-107.07134,45.239825],[-107.076459,45.23983],[-107.081577,45.239834],[-107.086695,45.239838],[-107.089254,45.23984],[-107.090534,45.239841],[-107.091814,45.239842],[-107.091813,45.240746],[-107.091812,45.24165],[-107.091811,45.242554],[-107.091811,45.243458],[-107.09181,45.244363],[-107.091809,45.245267],[-107.091809,45.246171],[-107.091808,45.247075],[-107.091807,45.24798],[-107.091806,45.248884],[-107.091805,45.249788],[-107.091805,45.250692],[-107.091804,45.251597],[-107.091803,45.252501],[-107.091802,45.253405],[-107.091801,45.254309],[-107.090521,45.254309],[-107.089241,45.254309],[-107.086682,45.254308],[-107.081564,45.254307],[-107.076446,45.254305],[-107.071328,45.254303],[-107.071331,45.250684],[-107.071334,45.247064],[-107.071337,45.243444],[-107.07134,45.239825]]]}},{"type":"Feature","properties":{"sec":"29","frstdivid":"MT200070S0380E0SN290"},"geometry":{"type":"Polygon","coordinates":[[[-107.091864,45.196336],[-107.09698,45.196333],[-107.102097,45.196328],[-107.107213,45.196322],[-107.112329,45.196316],[-107.112324,45.19906],[-107.112321,45.199946],[-107.112317,45.20269],[-107.112315,45.203576],[-107.112309,45.206319],[-107.112307,45.207205],[-107.112301,45.209949],[-107.1123,45.210835],[-107.107183,45.210833],[-107.102065,45.210832],[-107.096948,45.21083],[-107.091831,45.210828],[-107.091838,45.207205],[-107.091847,45.203582],[-107.091855,45.199959],[-107.091864,45.196336]]]}},{"type":"Feature","properties":{"sec":"27","frstdivid":"MT200070S0380E0SN270"},"geometry":{"type":"Polygon","coordinates":[[[-107.050846,45.209963],[-107.050847,45.209056],[-107.050847,45.20815],[-107.050848,45.207244],[-107.050849,45.206338],[-107.050849,45.205432],[-107.05085,45.204526],[-107.050851,45.20362],[-107.050851,45.202714],[-107.050852,45.201807],[-107.050853,45.200901],[-107.050854,45.199995],[-107.050855,45.199089],[-107.050855,45.198183],[-107.050857,45.197277],[-107.050858,45.196371],[-107.055981,45.19637],[-107.061104,45.196367],[-107.066226,45.196364],[-107.071349,45.196359],[-107.071348,45.198171],[-107.071346,45.199983],[-107.071346,45.201795],[-107.071344,45.203606],[-107.071342,45.20723],[-107.071341,45.210853],[-107.066217,45.210858],[-107.061093,45.210863],[-107.055969,45.210866],[-107.050846,45.210869],[-107.050846,45.209963]]]}},{"type":"Feature","properties":{"sec":"35","frstdivid":"MT200070S0380E0SN350"},"geometry":{"type":"Polygon","coordinates":[[[-107.030391,45.181826],[-107.030809,45.181825],[-107.035518,45.181821],[-107.035937,45.181821],[-107.040646,45.181816],[-107.041064,45.181816],[-107.045773,45.181812],[-107.046192,45.181811],[-107.050901,45.181808],[-107.050889,45.185496],[-107.050875,45.189121],[-107.050865,45.192746],[-107.050858,45.196371],[-107.049579,45.196372],[-107.0483,45.196372],[-107.045743,45.196372],[-107.040629,45.196371],[-107.039349,45.196371],[-107.03807,45.196371],[-107.035512,45.196371],[-107.030398,45.196368],[-107.030391,45.192741],[-107.030385,45.189115],[-107.030383,45.185489],[-107.030391,45.181826]]]}},{"type":"Feature","properties":{"sec":"10","frstdivid":"MT200070S0380E0SN100"},"geometry":{"type":"Polygon","coordinates":[[[-107.050882,45.239851],[-107.055997,45.239845],[-107.061111,45.23984],[-107.063668,45.239836],[-107.064947,45.239834],[-107.066226,45.239832],[-107.07134,45.239825],[-107.071337,45.243444],[-107.071334,45.247064],[-107.071331,45.250684],[-107.071328,45.254303],[-107.066214,45.254311],[-107.064935,45.254313],[-107.063656,45.254315],[-107.061099,45.25432],[-107.055985,45.254327],[-107.050871,45.254333],[-107.050874,45.250712],[-107.050877,45.247091],[-107.05088,45.243471],[-107.050882,45.239851]]]}},{"type":"Feature","properties":{"sec":"16","frstdivid":"MT200070S0380E0SN160"},"geometry":{"type":"Polygon","coordinates":[[[-107.071351,45.225332],[-107.076465,45.225337],[-107.081578,45.225343],[-107.086692,45.225347],[-107.091805,45.225351],[-107.091807,45.228974],[-107.091809,45.232596],[-107.091811,45.236219],[-107.091814,45.239842],[-107.090534,45.239841],[-107.089254,45.23984],[-107.086695,45.239838],[-107.081577,45.239834],[-107.076459,45.23983],[-107.07134,45.239825],[-107.071343,45.236202],[-107.071345,45.232578],[-107.071348,45.228955],[-107.071351,45.225332]]]}},{"type":"Feature","properties":{"sec":"12","frstdivid":"MT200070S0380E0SN120"},"geometry":{"type":"Polygon","coordinates":[[[-107.013511,45.239637],[-107.018829,45.239516],[-107.019844,45.239512],[-107.025282,45.239508],[-107.030402,45.239506],[-107.030401,45.239837],[-107.030403,45.24311],[-107.030403,45.24346],[-107.030405,45.246715],[-107.030405,45.247083],[-107.030406,45.250318],[-107.030406,45.250706],[-107.030407,45.253922],[-107.025296,45.253934],[-107.019623,45.253948],[-107.018546,45.253966],[-107.013244,45.254372],[-107.013311,45.250688],[-107.013378,45.247005],[-107.013444,45.243321],[-107.013511,45.239637]]]}},{"type":"Feature","properties":{"sec":"04","frstdivid":"MT200070S0380E0SN040"},"geometry":{"type":"Polygon","coordinates":[[[-107.071328,45.254303],[-107.076446,45.254305],[-107.081564,45.254307],[-107.086682,45.254308],[-107.089241,45.254309],[-107.090521,45.254309],[-107.091801,45.254309],[-107.091793,45.257924],[-107.091784,45.261539],[-107.091768,45.265156],[-107.091754,45.268312],[-107.090473,45.268312],[-107.089192,45.268312],[-107.08663,45.268312],[-107.081507,45.268313],[-107.076384,45.268313],[-107.071262,45.268313],[-107.07128,45.265156],[-107.071299,45.261538],[-107.071314,45.257921],[-107.071328,45.254303]]]}},{"type":"Feature","properties":{"sec":"03","frstdivid":"MT200070S0380E0SN030"},"geometry":{"type":"Polygon","coordinates":[[[-107.050871,45.254333],[-107.055985,45.254327],[-107.061099,45.25432],[-107.063656,45.254315],[-107.064935,45.254313],[-107.066214,45.254311],[-107.071328,45.254303],[-107.071314,45.257921],[-107.071299,45.261538],[-107.07128,45.265156],[-107.071262,45.268313],[-107.06614,45.268314],[-107.061019,45.268314],[-107.055898,45.268314],[-107.050777,45.268312],[-107.050799,45.265191],[-107.050823,45.261571],[-107.050847,45.257952],[-107.050871,45.254333]]]}},{"type":"Feature","properties":{"sec":"05","frstdivid":"MT200070S0380E0SN050"},"geometry":{"type":"Polygon","coordinates":[[[-107.091801,45.254309],[-107.09692,45.254307],[-107.102039,45.254305],[-107.107158,45.254303],[-107.112277,45.254302],[-107.112276,45.257036],[-107.112274,45.257921],[-107.112356,45.260674],[-107.112357,45.261559],[-107.112356,45.264293],[-107.112355,45.265178],[-107.112356,45.267911],[-107.112357,45.268313],[-107.107123,45.2683],[-107.102,45.268304],[-107.096877,45.268308],[-107.091754,45.268312],[-107.091768,45.265156],[-107.091784,45.261539],[-107.091793,45.257924],[-107.091801,45.254309]]]}},{"type":"Feature","properties":{"sec":"01","frstdivid":"MT200070S0380E0SN010"},"geometry":{"type":"Polygon","coordinates":[[[-107.013227,45.257879],[-107.013244,45.254372],[-107.018546,45.253966],[-107.019623,45.253948],[-107.025296,45.253934],[-107.030407,45.253922],[-107.030405,45.254329],[-107.030379,45.257539],[-107.030376,45.257946],[-107.03035,45.261156],[-107.030347,45.261562],[-107.030324,45.264772],[-107.030322,45.265178],[-107.030299,45.268331],[-107.025173,45.268356],[-107.019463,45.268381],[-107.018314,45.268382],[-107.013178,45.268398],[-107.013194,45.264891],[-107.013211,45.261385],[-107.013227,45.257879]]]}},{"type":"Feature","properties":{"sec":"02","frstdivid":"MT200070S0380E0SN020"},"geometry":{"type":"Polygon","coordinates":[[[-107.030405,45.254329],[-107.035521,45.254331],[-107.040638,45.254333],[-107.045754,45.254333],[-107.050871,45.254333],[-107.050847,45.257952],[-107.050823,45.261571],[-107.050799,45.265191],[-107.050777,45.268312],[-107.045657,45.26832],[-107.043097,45.268324],[-107.040537,45.268327],[-107.035418,45.268331],[-107.030299,45.268331],[-107.030322,45.265178],[-107.030324,45.264772],[-107.030347,45.261562],[-107.03035,45.261156],[-107.030376,45.257946],[-107.030379,45.257539],[-107.030405,45.254329]]]}},{"type":"Feature","properties":{"sec":"25","frstdivid":"MT200070S0380E0SN250"},"geometry":{"type":"Polygon","coordinates":[[[-107.014186,45.196347],[-107.019422,45.196317],[-107.020227,45.196317],[-107.025285,45.196342],[-107.030398,45.196368],[-107.030383,45.199965],[-107.030382,45.199994],[-107.030367,45.203562],[-107.030367,45.203621],[-107.030352,45.20716],[-107.030352,45.207247],[-107.030337,45.210757],[-107.025198,45.210756],[-107.020281,45.210758],[-107.019283,45.210758],[-107.014108,45.210779],[-107.014127,45.207171],[-107.014147,45.203563],[-107.014166,45.199955],[-107.014186,45.196347]]]}},{"type":"Feature","properties":{"sec":"36","frstdivid":"MT200070S0380E0SN360"},"geometry":{"type":"Polygon","coordinates":[[[-107.025676,45.181838],[-107.030391,45.181826],[-107.030383,45.185489],[-107.030385,45.189115],[-107.030391,45.192741],[-107.030398,45.196368],[-107.025285,45.196342],[-107.020227,45.196317],[-107.019422,45.196317],[-107.014186,45.196347],[-107.014015,45.192753],[-107.013843,45.189158],[-107.013672,45.185564],[-107.0135,45.18197],[-107.015405,45.181936],[-107.019418,45.181861],[-107.020287,45.181848],[-107.020544,45.181847],[-107.025271,45.18184],[-107.025676,45.181838]]]}}]}