{"type":"FeatureCollection","note":"BLM Public Land Survey System. Provided by the Bureau of Land Management as is. These data are neither legal documents nor land surveys and must not be used as such.","features":[{"type":"Feature","properties":{"sec":"24","frstdivid":"MT200090S0370E0SN240"},"geometry":{"type":"Polygon","coordinates":[[[-107.112416,45.036723],[-107.112417,45.035835],[-107.112421,45.033096],[-107.112423,45.032208],[-107.112427,45.02947],[-107.112427,45.028582],[-107.117533,45.028585],[-107.122638,45.028589],[-107.127744,45.02859],[-107.132849,45.028587],[-107.132851,45.032206],[-107.132851,45.035825],[-107.132852,45.039445],[-107.132853,45.043064],[-107.127744,45.043072],[-107.122635,45.043079],[-107.120081,45.043082],[-107.117526,45.043084],[-107.112417,45.04309],[-107.112416,45.04035],[-107.112417,45.039462],[-107.112416,45.036723]]]}},{"type":"Feature","properties":{"sec":"05","frstdivid":"MT200090S0370E0SN050"},"geometry":{"type":"Polygon","coordinates":[[[-107.19418,45.072113],[-107.199288,45.072118],[-107.204396,45.072124],[-107.205673,45.072125],[-107.20695,45.072126],[-107.209504,45.072128],[-107.214612,45.072135],[-107.214612,45.075761],[-107.214612,45.079388],[-107.214615,45.083014],[-107.21462,45.086641],[-107.209508,45.086636],[-107.204396,45.086632],[-107.199283,45.086628],[-107.19417,45.086624],[-107.194169,45.082996],[-107.194172,45.079369],[-107.194175,45.075741],[-107.19418,45.072113]]]}},{"type":"Feature","properties":{"sec":"09","frstdivid":"MT200090S0370E0SN090"},"geometry":{"type":"Polygon","coordinates":[[[-107.173702,45.057596],[-107.178818,45.057596],[-107.183935,45.057597],[-107.189051,45.057599],[-107.194168,45.057601],[-107.194171,45.061229],[-107.194174,45.064857],[-107.194177,45.068485],[-107.19418,45.072113],[-107.189056,45.072109],[-107.183931,45.072105],[-107.178807,45.072101],[-107.173683,45.072098],[-107.173688,45.068472],[-107.173692,45.064847],[-107.173697,45.061221],[-107.173702,45.057596]]]}},{"type":"Feature","properties":{"sec":"27","frstdivid":"MT200090S0370E0SN270"},"geometry":{"type":"Polygon","coordinates":[[[-107.15332,45.024942],[-107.153328,45.021315],[-107.153338,45.017688],[-107.15335,45.014061],[-107.158457,45.014064],[-107.163564,45.014068],[-107.16867,45.014073],[-107.173777,45.014077],[-107.17376,45.017706],[-107.173744,45.021336],[-107.173729,45.024966],[-107.173723,45.026781],[-107.173714,45.028596],[-107.171164,45.028593],[-107.168613,45.028589],[-107.163513,45.028583],[-107.158413,45.028576],[-107.153313,45.02857],[-107.15332,45.024942]]]}},{"type":"Feature","properties":{"sec":"16","frstdivid":"MT200090S0370E0SN160"},"geometry":{"type":"Polygon","coordinates":[[[-107.173706,45.043108],[-107.178818,45.043101],[-107.18393,45.043095],[-107.189041,45.043088],[-107.194153,45.043082],[-107.194157,45.046712],[-107.194161,45.050341],[-107.194165,45.053971],[-107.194167,45.055786],[-107.194168,45.057601],[-107.189051,45.057599],[-107.183935,45.057597],[-107.178818,45.057596],[-107.173702,45.057596],[-107.173703,45.053974],[-107.173704,45.050352],[-107.173705,45.04673],[-107.173706,45.043108]]]}},{"type":"Feature","properties":{"sec":"17","frstdivid":"MT200090S0370E0SN170"},"geometry":{"type":"Polygon","coordinates":[[[-107.194153,45.043082],[-107.199268,45.043086],[-107.204383,45.043091],[-107.209497,45.043095],[-107.212055,45.043098],[-107.214612,45.043099],[-107.214612,45.044914],[-107.214612,45.046729],[-107.214612,45.048544],[-107.214613,45.050359],[-107.214613,45.052174],[-107.214613,45.053989],[-107.214613,45.055804],[-107.214613,45.05762],[-107.212057,45.057616],[-107.209501,45.057615],[-107.20439,45.05761],[-107.201835,45.057607],[-107.199279,45.057605],[-107.196723,45.057603],[-107.194168,45.057601],[-107.194167,45.055786],[-107.194165,45.053971],[-107.194161,45.050341],[-107.194157,45.046712],[-107.194153,45.043082]]]}},{"type":"Feature","properties":{"sec":"03","frstdivid":"MT200090S0370E0SN030"},"geometry":{"type":"Polygon","coordinates":[[[-107.153273,45.072073],[-107.155824,45.072076],[-107.158375,45.072079],[-107.160927,45.072082],[-107.163478,45.072085],[-107.16858,45.072091],[-107.173683,45.072098],[-107.173686,45.075725],[-107.173691,45.079353],[-107.173694,45.081167],[-107.173696,45.082981],[-107.173704,45.086608],[-107.172425,45.086606],[-107.171146,45.086605],[-107.16859,45.086602],[-107.163477,45.086598],[-107.158365,45.086596],[-107.153252,45.086592],[-107.153257,45.082962],[-107.153262,45.079333],[-107.153264,45.077518],[-107.153267,45.075703],[-107.15327,45.073888],[-107.153273,45.072073]]]}},{"type":"Feature","properties":{"sec":"15","frstdivid":"MT200090S0370E0SN150"},"geometry":{"type":"Polygon","coordinates":[[[-107.153302,45.043077],[-107.158403,45.043085],[-107.163504,45.043092],[-107.168605,45.0431],[-107.173706,45.043108],[-107.173705,45.04673],[-107.173704,45.050352],[-107.173703,45.053974],[-107.173702,45.057596],[-107.168595,45.05759],[-107.163488,45.057584],[-107.160934,45.057582],[-107.15838,45.057579],[-107.155826,45.057577],[-107.153273,45.057574],[-107.15328,45.05395],[-107.153287,45.050326],[-107.153295,45.046702],[-107.153302,45.043077]]]}},{"type":"Feature","properties":{"sec":"12","frstdivid":"MT200090S0370E0SN120"},"geometry":{"type":"Polygon","coordinates":[[[-107.11239,45.065745],[-107.112391,45.064857],[-107.112396,45.062117],[-107.112398,45.061229],[-107.112403,45.058489],[-107.112404,45.057601],[-107.117514,45.057588],[-107.120069,45.057583],[-107.122624,45.05758],[-107.127735,45.05757],[-107.132845,45.057561],[-107.13284,45.06119],[-107.132836,45.064818],[-107.132832,45.068446],[-107.132827,45.072075],[-107.127717,45.072079],[-107.122607,45.072087],[-107.117498,45.072099],[-107.112388,45.072116],[-107.112389,45.069375],[-107.11239,45.068486],[-107.11239,45.065745]]]}},{"type":"Feature","properties":{"sec":"11","frstdivid":"MT200090S0370E0SN110"},"geometry":{"type":"Polygon","coordinates":[[[-107.132845,45.057561],[-107.137952,45.057563],[-107.140505,45.057565],[-107.143059,45.057567],[-107.148166,45.05757],[-107.153273,45.057574],[-107.153274,45.059387],[-107.153273,45.061199],[-107.153273,45.064824],[-107.153273,45.068448],[-107.153273,45.072073],[-107.148161,45.072072],[-107.14305,45.072072],[-107.137938,45.072073],[-107.132827,45.072075],[-107.132832,45.068446],[-107.132836,45.064818],[-107.13284,45.06119],[-107.132845,45.057561]]]}},{"type":"Feature","properties":{"sec":"26","frstdivid":"MT200090S0370E0SN260"},"geometry":{"type":"Polygon","coordinates":[[[-107.132822,45.0177],[-107.132821,45.015885],[-107.13282,45.014978],[-107.13282,45.01407],[-107.137952,45.014067],[-107.143085,45.014065],[-107.148217,45.014063],[-107.15335,45.014061],[-107.153338,45.017688],[-107.153328,45.021315],[-107.15332,45.024942],[-107.153313,45.02857],[-107.148197,45.028573],[-107.143081,45.028577],[-107.137965,45.028582],[-107.132849,45.028587],[-107.132839,45.024958],[-107.132828,45.021329],[-107.132824,45.019514],[-107.132822,45.0177]]]}},{"type":"Feature","properties":{"sec":"20","frstdivid":"MT200090S0370E0SN200"},"geometry":{"type":"Polygon","coordinates":[[[-107.194175,45.032208],[-107.194182,45.028584],[-107.199289,45.028588],[-107.204396,45.028594],[-107.209503,45.028599],[-107.21461,45.028604],[-107.21461,45.032227],[-107.214611,45.035851],[-107.214612,45.039475],[-107.214612,45.043099],[-107.212055,45.043098],[-107.209497,45.043095],[-107.204383,45.043091],[-107.199268,45.043086],[-107.194153,45.043082],[-107.194161,45.039457],[-107.194168,45.035833],[-107.194175,45.032208]]]}},{"type":"Feature","properties":{"sec":"06","frstdivid":"MT200090S0370E0SN060"},"geometry":{"type":"Polygon","coordinates":[[[-107.214612,45.075761],[-107.214612,45.072135],[-107.219721,45.072137],[-107.22483,45.072136],[-107.231126,45.072115],[-107.231127,45.072763],[-107.23115,45.075742],[-107.231155,45.076396],[-107.231179,45.079369],[-107.231179,45.080028],[-107.231202,45.082995],[-107.231208,45.083661],[-107.231231,45.086622],[-107.224849,45.086656],[-107.219735,45.086649],[-107.21462,45.086641],[-107.214615,45.083014],[-107.214612,45.079388],[-107.214612,45.075761]]]}},{"type":"Feature","properties":{"sec":"19","frstdivid":"MT200090S0370E0SN190"},"geometry":{"type":"Polygon","coordinates":[[[-107.21461,45.028604],[-107.219711,45.028605],[-107.224813,45.028605],[-107.230988,45.028602],[-107.230993,45.029286],[-107.231018,45.032224],[-107.231024,45.032895],[-107.23105,45.035846],[-107.23105,45.036504],[-107.231076,45.039467],[-107.231082,45.040113],[-107.231108,45.043089],[-107.224823,45.043097],[-107.22227,45.043099],[-107.219717,45.043098],[-107.214612,45.043099],[-107.214612,45.039475],[-107.214611,45.035851],[-107.21461,45.032227],[-107.21461,45.028604]]]}},{"type":"Feature","properties":{"sec":"23","frstdivid":"MT200090S0370E0SN230"},"geometry":{"type":"Polygon","coordinates":[[[-107.132852,45.039445],[-107.132851,45.035825],[-107.132851,45.032206],[-107.132849,45.028587],[-107.137965,45.028582],[-107.143081,45.028577],[-107.148197,45.028573],[-107.153313,45.02857],[-107.15331,45.032197],[-107.153308,45.035824],[-107.153305,45.039451],[-107.153302,45.043077],[-107.14819,45.043074],[-107.143078,45.04307],[-107.137966,45.043067],[-107.132853,45.043064],[-107.132852,45.039445]]]}},{"type":"Feature","properties":{"sec":"08","frstdivid":"MT200090S0370E0SN080"},"geometry":{"type":"Polygon","coordinates":[[[-107.194168,45.057601],[-107.196723,45.057603],[-107.199279,45.057605],[-107.201835,45.057607],[-107.20439,45.05761],[-107.209501,45.057615],[-107.212057,45.057616],[-107.214613,45.05762],[-107.214613,45.061248],[-107.214612,45.064877],[-107.214612,45.068506],[-107.214612,45.072135],[-107.209504,45.072128],[-107.20695,45.072126],[-107.205673,45.072125],[-107.204396,45.072124],[-107.199288,45.072118],[-107.19418,45.072113],[-107.194177,45.068485],[-107.194174,45.064857],[-107.194171,45.061229],[-107.194168,45.057601]]]}},{"type":"Feature","properties":{"sec":"14","frstdivid":"MT200090S0370E0SN140"},"geometry":{"type":"Polygon","coordinates":[[[-107.132853,45.043064],[-107.137966,45.043067],[-107.143078,45.04307],[-107.14819,45.043074],[-107.153302,45.043077],[-107.153295,45.046702],[-107.153287,45.050326],[-107.15328,45.05395],[-107.153273,45.057574],[-107.148166,45.05757],[-107.143059,45.057567],[-107.140505,45.057565],[-107.137952,45.057563],[-107.132845,45.057561],[-107.132846,45.053937],[-107.132848,45.050313],[-107.132851,45.046689],[-107.132853,45.043064]]]}},{"type":"Feature","properties":{"sec":"02","frstdivid":"MT200090S0370E0SN020"},"geometry":{"type":"Polygon","coordinates":[[[-107.132827,45.072075],[-107.137938,45.072073],[-107.14305,45.072072],[-107.148161,45.072072],[-107.153273,45.072073],[-107.15327,45.073888],[-107.153267,45.075703],[-107.153264,45.077518],[-107.153262,45.079333],[-107.153257,45.082962],[-107.153252,45.086592],[-107.148142,45.086587],[-107.143032,45.086584],[-107.137923,45.086582],[-107.132813,45.086582],[-107.132816,45.082955],[-107.13282,45.079329],[-107.132822,45.077515],[-107.132822,45.075701],[-107.132827,45.072075]]]}},{"type":"Feature","properties":{"sec":"18","frstdivid":"MT200090S0370E0SN180"},"geometry":{"type":"Polygon","coordinates":[[[-107.214612,45.043099],[-107.219717,45.043098],[-107.22227,45.043099],[-107.224823,45.043097],[-107.231108,45.043089],[-107.231108,45.043722],[-107.231112,45.04672],[-107.231113,45.047337],[-107.231117,45.05035],[-107.231117,45.050953],[-107.231121,45.053981],[-107.231122,45.054569],[-107.231126,45.057611],[-107.224832,45.057622],[-107.222277,45.057621],[-107.219722,45.057622],[-107.214613,45.05762],[-107.214613,45.055804],[-107.214613,45.053989],[-107.214613,45.052174],[-107.214613,45.050359],[-107.214612,45.048544],[-107.214612,45.046729],[-107.214612,45.044914],[-107.214612,45.043099]]]}},{"type":"Feature","properties":{"sec":"22","frstdivid":"MT200090S0370E0SN220"},"geometry":{"type":"Polygon","coordinates":[[[-107.153313,45.02857],[-107.158413,45.028576],[-107.163513,45.028583],[-107.168613,45.028589],[-107.171164,45.028593],[-107.173714,45.028596],[-107.173713,45.03041],[-107.173712,45.032224],[-107.173711,45.034038],[-107.17371,45.035852],[-107.173708,45.03948],[-107.173706,45.043108],[-107.168605,45.0431],[-107.163504,45.043092],[-107.158403,45.043085],[-107.153302,45.043077],[-107.153305,45.039451],[-107.153308,45.035824],[-107.15331,45.032197],[-107.153313,45.02857]]]}},{"type":"Feature","properties":{"sec":"10","frstdivid":"MT200090S0370E0SN100"},"geometry":{"type":"Polygon","coordinates":[[[-107.153273,45.057574],[-107.155826,45.057577],[-107.15838,45.057579],[-107.160934,45.057582],[-107.163488,45.057584],[-107.168595,45.05759],[-107.173702,45.057596],[-107.173697,45.061221],[-107.173692,45.064847],[-107.173688,45.068472],[-107.173683,45.072098],[-107.16858,45.072091],[-107.163478,45.072085],[-107.160927,45.072082],[-107.158375,45.072079],[-107.155824,45.072076],[-107.153273,45.072073],[-107.153273,45.068448],[-107.153273,45.064824],[-107.153273,45.061199],[-107.153274,45.059387],[-107.153273,45.057574]]]}},{"type":"Feature","properties":{"sec":"25","frstdivid":"MT200090S0370E0SN250"},"geometry":{"type":"Polygon","coordinates":[[[-107.112417,45.022225],[-107.112417,45.021337],[-107.112417,45.019526],[-107.112417,45.018601],[-107.112416,45.017712],[-107.112418,45.015902],[-107.112419,45.014995],[-107.112419,45.014972],[-107.112422,45.014083],[-107.113699,45.01409],[-107.114975,45.014094],[-107.11625,45.014097],[-107.117525,45.0141],[-107.1188,45.0141],[-107.120074,45.0141],[-107.121349,45.0141],[-107.122623,45.014099],[-107.123898,45.014096],[-107.125172,45.014093],[-107.126447,45.01409],[-107.127721,45.014087],[-107.128996,45.014083],[-107.13027,45.014079],[-107.131545,45.014075],[-107.13282,45.01407],[-107.13282,45.014978],[-107.132821,45.015885],[-107.132822,45.0177],[-107.132824,45.019514],[-107.132828,45.021329],[-107.132839,45.024958],[-107.132849,45.028587],[-107.127744,45.02859],[-107.122638,45.028589],[-107.117533,45.028585],[-107.112427,45.028582],[-107.112423,45.025848],[-107.112422,45.024959],[-107.112417,45.022225]]]}},{"type":"Feature","properties":{"sec":"01","frstdivid":"MT200090S0370E0SN010"},"geometry":{"type":"Polygon","coordinates":[[[-107.112372,45.080272],[-107.112373,45.079382],[-107.112379,45.076639],[-107.112381,45.075749],[-107.112387,45.073006],[-107.112388,45.072116],[-107.117498,45.072099],[-107.122607,45.072087],[-107.127717,45.072079],[-107.132827,45.072075],[-107.132822,45.075701],[-107.132822,45.077515],[-107.13282,45.079329],[-107.132816,45.082955],[-107.132813,45.086582],[-107.127705,45.086584],[-107.122596,45.08659],[-107.117488,45.086605],[-107.112381,45.086648],[-107.112376,45.083905],[-107.112376,45.083014],[-107.112372,45.080272]]]}},{"type":"Feature","properties":{"sec":"13","frstdivid":"MT200090S0370E0SN130"},"geometry":{"type":"Polygon","coordinates":[[[-107.112405,45.05397],[-107.112405,45.051228],[-107.112406,45.05034],[-107.11241,45.047603],[-107.112412,45.046715],[-107.112416,45.043978],[-107.112417,45.04309],[-107.117526,45.043084],[-107.120081,45.043082],[-107.122635,45.043079],[-107.127744,45.043072],[-107.132853,45.043064],[-107.132851,45.046689],[-107.132848,45.050313],[-107.132846,45.053937],[-107.132845,45.057561],[-107.127735,45.05757],[-107.122624,45.05758],[-107.120069,45.057583],[-107.117514,45.057588],[-107.112404,45.057601],[-107.112404,45.054858],[-107.112405,45.05397]]]}},{"type":"Feature","properties":{"sec":"04","frstdivid":"MT200090S0370E0SN040"},"geometry":{"type":"Polygon","coordinates":[[[-107.173683,45.072098],[-107.178807,45.072101],[-107.183931,45.072105],[-107.189056,45.072109],[-107.19418,45.072113],[-107.194175,45.075741],[-107.194172,45.079369],[-107.194169,45.082996],[-107.19417,45.086624],[-107.189054,45.086619],[-107.183937,45.086615],[-107.178821,45.086611],[-107.176262,45.086609],[-107.173704,45.086608],[-107.173696,45.082981],[-107.173694,45.081167],[-107.173691,45.079353],[-107.173686,45.075725],[-107.173683,45.072098]]]}},{"type":"Feature","properties":{"sec":"29","frstdivid":"MT200090S0370E0SN290"},"geometry":{"type":"Polygon","coordinates":[[[-107.194211,45.014086],[-107.196765,45.014089],[-107.199318,45.014092],[-107.201871,45.014095],[-107.204424,45.014097],[-107.206978,45.014101],[-107.209531,45.014103],[-107.212084,45.014106],[-107.214637,45.014108],[-107.214633,45.01592],[-107.214632,45.016826],[-107.21463,45.017733],[-107.214623,45.021356],[-107.214616,45.02498],[-107.21461,45.028604],[-107.209503,45.028599],[-107.204396,45.028594],[-107.199289,45.028588],[-107.194182,45.028584],[-107.194185,45.026771],[-107.194189,45.024959],[-107.194196,45.021335],[-107.194204,45.017711],[-107.194206,45.016804],[-107.194208,45.015898],[-107.194211,45.014086]]]}},{"type":"Feature","properties":{"sec":"28","frstdivid":"MT200090S0370E0SN280"},"geometry":{"type":"Polygon","coordinates":[[[-107.173777,45.014077],[-107.178886,45.014079],[-107.183994,45.014081],[-107.189103,45.014084],[-107.194211,45.014086],[-107.194208,45.015898],[-107.194206,45.016804],[-107.194204,45.017711],[-107.194196,45.021335],[-107.194189,45.024959],[-107.194185,45.026771],[-107.194182,45.028584],[-107.191624,45.028585],[-107.189065,45.028586],[-107.186507,45.028588],[-107.183948,45.02859],[-107.18139,45.028591],[-107.178831,45.028593],[-107.176273,45.028594],[-107.173714,45.028596],[-107.173723,45.026781],[-107.173729,45.024966],[-107.173744,45.021336],[-107.17376,45.017706],[-107.173777,45.014077]]]}},{"type":"Feature","properties":{"sec":"07","frstdivid":"MT200090S0370E0SN070"},"geometry":{"type":"Polygon","coordinates":[[[-107.214613,45.05762],[-107.219722,45.057622],[-107.222277,45.057621],[-107.224832,45.057622],[-107.231126,45.057611],[-107.231128,45.058185],[-107.231127,45.061238],[-107.231127,45.06183],[-107.231127,45.064864],[-107.231127,45.065474],[-107.231127,45.06849],[-107.231127,45.069119],[-107.231126,45.072115],[-107.22483,45.072136],[-107.219721,45.072137],[-107.214612,45.072135],[-107.214612,45.068506],[-107.214612,45.064877],[-107.214613,45.061248],[-107.214613,45.05762]]]}},{"type":"Feature","properties":{"sec":"30","frstdivid":"MT200090S0370E0SN300"},"geometry":{"type":"Polygon","coordinates":[[[-107.214637,45.014108],[-107.219746,45.014107],[-107.224856,45.014106],[-107.230858,45.014103],[-107.230867,45.014768],[-107.230893,45.017728],[-107.230899,45.018397],[-107.230925,45.021353],[-107.23093,45.022027],[-107.230956,45.024977],[-107.230962,45.025657],[-107.230988,45.028602],[-107.224813,45.028605],[-107.219711,45.028605],[-107.21461,45.028604],[-107.214616,45.02498],[-107.214623,45.021356],[-107.21463,45.017733],[-107.214632,45.016826],[-107.214633,45.01592],[-107.214637,45.014108]]]}},{"type":"Feature","properties":{"sec":"21","frstdivid":"MT200090S0370E0SN210"},"geometry":{"type":"Polygon","coordinates":[[[-107.173714,45.028596],[-107.176273,45.028594],[-107.178831,45.028593],[-107.18139,45.028591],[-107.183948,45.02859],[-107.186507,45.028588],[-107.189065,45.028586],[-107.191624,45.028585],[-107.194182,45.028584],[-107.194175,45.032208],[-107.194168,45.035833],[-107.194161,45.039457],[-107.194153,45.043082],[-107.189041,45.043088],[-107.18393,45.043095],[-107.178818,45.043101],[-107.173706,45.043108],[-107.173708,45.03948],[-107.17371,45.035852],[-107.173711,45.034038],[-107.173712,45.032224],[-107.173713,45.03041],[-107.173714,45.028596]]]}},{"type":"Feature","properties":{"sec":"32","frstdivid":"MT200090S0370E0SN320"},"geometry":{"type":"Polygon","coordinates":[[[-107.209593,45.000573],[-107.214696,45.000604],[-107.214665,45.003307],[-107.214628,45.006873],[-107.21463,45.008682],[-107.214631,45.009586],[-107.214633,45.010491],[-107.214637,45.014108],[-107.212084,45.014106],[-107.209531,45.014103],[-107.206978,45.014101],[-107.204424,45.014097],[-107.201871,45.014095],[-107.199318,45.014092],[-107.196765,45.014089],[-107.194211,45.014086],[-107.194214,45.010463],[-107.194214,45.009556],[-107.194215,45.00865],[-107.194215,45.006838],[-107.19425,45.003223],[-107.194285,45.000452],[-107.195458,45.000474],[-107.196592,45.000495],[-107.199388,45.000511],[-107.204491,45.000542],[-107.205698,45.000546],[-107.206605,45.000552],[-107.209593,45.000573]]]}},{"type":"Feature","properties":{"sec":"35","frstdivid":"MT200090S0370E0SN350"},"geometry":{"type":"Polygon","coordinates":[[[-107.132801,45.003194],[-107.132815,45.000009],[-107.13298,45.000013],[-107.132981,45.000013],[-107.137959,45.000146],[-107.138083,45.000149],[-107.143104,45.000095],[-107.143304,45.000092],[-107.148248,45.000038],[-107.153393,44.999982],[-107.153368,45.003188],[-107.153367,45.003368],[-107.153351,45.006808],[-107.15335,45.010434],[-107.15335,45.014061],[-107.148217,45.014063],[-107.143085,45.014065],[-107.137952,45.014067],[-107.13282,45.01407],[-107.13281,45.010442],[-107.132807,45.008628],[-107.132806,45.00772],[-107.132804,45.006813],[-107.132801,45.003194]]]}},{"type":"Feature","properties":{"sec":"34","frstdivid":"MT200090S0370E0SN340"},"geometry":{"type":"Polygon","coordinates":[[[-107.169015,45.000162],[-107.173875,45.000178],[-107.173838,45.003206],[-107.173837,45.003364],[-107.173806,45.006826],[-107.173792,45.010451],[-107.173777,45.014077],[-107.16867,45.014073],[-107.163564,45.014068],[-107.158457,45.014064],[-107.15335,45.014061],[-107.15335,45.010434],[-107.153351,45.006808],[-107.153367,45.003368],[-107.153368,45.003188],[-107.153393,44.999982],[-107.153627,44.999979],[-107.156331,44.999949],[-107.156331,44.999949],[-107.158513,44.999993],[-107.163633,45.000097],[-107.163886,45.000102],[-107.166412,45.000153],[-107.168753,45.000161],[-107.169015,45.000162]]]}},{"type":"Feature","properties":{"sec":"31","frstdivid":"MT200090S0370E0SN310"},"geometry":{"type":"Polygon","coordinates":[[[-107.226672,45.00067],[-107.230751,45.000699],[-107.230754,45.003331],[-107.230755,45.003664],[-107.23076,45.006866],[-107.230766,45.007315],[-107.230809,45.010485],[-107.230817,45.011041],[-107.230858,45.014103],[-107.224856,45.014106],[-107.219746,45.014107],[-107.214637,45.014108],[-107.214633,45.010491],[-107.214631,45.009586],[-107.21463,45.008682],[-107.214628,45.006873],[-107.214665,45.003307],[-107.214696,45.000604],[-107.215938,45.000608],[-107.219795,45.000634],[-107.224894,45.000664],[-107.226199,45.000669],[-107.226672,45.00067]]]}},{"type":"Feature","properties":{"sec":"36","frstdivid":"MT200090S0370E0SN360"},"geometry":{"type":"Polygon","coordinates":[[[-107.112379,45.000712],[-107.11238,44.998945],[-107.112444,44.998949],[-107.117485,44.999252],[-107.12259,44.99956],[-107.122705,44.999567],[-107.127695,44.999867],[-107.127835,44.999875],[-107.12787,44.999877],[-107.132815,45.000009],[-107.132801,45.003194],[-107.132804,45.006813],[-107.132806,45.00772],[-107.132807,45.008628],[-107.13281,45.010442],[-107.13282,45.01407],[-107.131545,45.014075],[-107.13027,45.014079],[-107.128996,45.014083],[-107.127721,45.014087],[-107.126447,45.01409],[-107.125172,45.014093],[-107.123898,45.014096],[-107.122623,45.014099],[-107.121349,45.0141],[-107.120074,45.0141],[-107.1188,45.0141],[-107.117525,45.0141],[-107.11625,45.014097],[-107.114975,45.014094],[-107.113699,45.01409],[-107.112422,45.014083],[-107.112415,45.011355],[-107.112414,45.010466],[-107.112419,45.008657],[-107.112424,45.007749],[-107.112424,45.00772],[-107.112426,45.006859],[-107.112393,45.00421],[-107.112392,45.003365],[-107.112379,45.000712]]]}},{"type":"Feature","properties":{"sec":"33","frstdivid":"MT200090S0370E0SN330"},"geometry":{"type":"Polygon","coordinates":[[[-107.184703,45.000262],[-107.186523,45.000279],[-107.189187,45.000336],[-107.194285,45.000452],[-107.19425,45.003223],[-107.194215,45.006838],[-107.194215,45.00865],[-107.194214,45.009556],[-107.194214,45.010463],[-107.194211,45.014086],[-107.189103,45.014084],[-107.183994,45.014081],[-107.178886,45.014079],[-107.173777,45.014077],[-107.173792,45.010451],[-107.173806,45.006826],[-107.173837,45.003364],[-107.173838,45.003206],[-107.173875,45.000178],[-107.173939,45.000178],[-107.17663,45.000188],[-107.17898,45.000209],[-107.184084,45.000256],[-107.184703,45.000262]]]}}]}