{"type":"FeatureCollection","note":"BLM Public Land Survey System. Provided by the Bureau of Land Management as is. These data are neither legal documents nor land surveys and must not be used as such.","features":[{"type":"Feature","properties":{"sec":"02","frstdivid":"WY060510N0750W0SN020"},"geometry":{"type":"Polygon","coordinates":[[[-105.832794,44.429467],[-105.832966,44.425848],[-105.833137,44.422228],[-105.833308,44.418609],[-105.838328,44.41856],[-105.843347,44.418512],[-105.848366,44.418464],[-105.853385,44.418416],[-105.853277,44.422035],[-105.85317,44.425654],[-105.853061,44.429273],[-105.852951,44.432923],[-105.847869,44.432961],[-105.842787,44.432999],[-105.837705,44.433037],[-105.832623,44.433076],[-105.832794,44.429467]]]}},{"type":"Feature","properties":{"sec":"18","frstdivid":"WY060510N0750W0SN180"},"geometry":{"type":"Polygon","coordinates":[[[-105.933406,44.398663],[-105.933193,44.402185],[-105.928589,44.402428],[-105.923564,44.402692],[-105.91854,44.402957],[-105.913516,44.403221],[-105.913673,44.399564],[-105.913831,44.395906],[-105.913988,44.392249],[-105.914146,44.388592],[-105.919213,44.388466],[-105.924281,44.38834],[-105.929349,44.388215],[-105.934046,44.388098],[-105.933833,44.39162],[-105.933619,44.395142],[-105.933406,44.398663]]]}},{"type":"Feature","properties":{"sec":"26","frstdivid":"WY060510N0750W0SN260"},"geometry":{"type":"Polygon","coordinates":[[[-105.853632,44.360089],[-105.853477,44.363813],[-105.853323,44.367536],[-105.853168,44.37126],[-105.853014,44.374984],[-105.847997,44.374982],[-105.84298,44.374981],[-105.837963,44.37498],[-105.832946,44.374979],[-105.833041,44.371306],[-105.833135,44.367633],[-105.83323,44.36396],[-105.833325,44.360288],[-105.838401,44.360238],[-105.843478,44.360188],[-105.848555,44.360139],[-105.853632,44.360089]]]}},{"type":"Feature","properties":{"sec":"30","frstdivid":"WY060510N0750W0SN300"},"geometry":{"type":"Polygon","coordinates":[[[-105.930066,44.359174],[-105.934833,44.359125],[-105.934849,44.362846],[-105.934865,44.366568],[-105.934881,44.370289],[-105.934897,44.374011],[-105.93007,44.373999],[-105.924935,44.373986],[-105.9198,44.373974],[-105.914665,44.373962],[-105.914699,44.370304],[-105.914733,44.366646],[-105.914768,44.362989],[-105.914802,44.359331],[-105.91989,44.359279],[-105.924978,44.359226],[-105.930066,44.359174]]]}},{"type":"Feature","properties":{"sec":"29","frstdivid":"WY060510N0750W0SN290"},"geometry":{"type":"Polygon","coordinates":[[[-105.914665,44.373962],[-105.909539,44.374011],[-105.904413,44.374061],[-105.899287,44.374111],[-105.894161,44.374161],[-105.894234,44.370504],[-105.894306,44.366847],[-105.894379,44.36319],[-105.894452,44.359533],[-105.89954,44.359483],[-105.904627,44.359432],[-105.909715,44.359382],[-105.914802,44.359331],[-105.914768,44.362989],[-105.914733,44.366646],[-105.914699,44.370304],[-105.914665,44.373962]]]}},{"type":"Feature","properties":{"sec":"11","frstdivid":"WY060510N0750W0SN110"},"geometry":{"type":"Polygon","coordinates":[[[-105.853359,44.411177],[-105.853372,44.414797],[-105.853385,44.418416],[-105.848366,44.418464],[-105.843347,44.418512],[-105.838328,44.41856],[-105.833308,44.418609],[-105.833278,44.414989],[-105.833247,44.411369],[-105.833216,44.407749],[-105.833185,44.404129],[-105.838222,44.404081],[-105.843259,44.404034],[-105.848295,44.403986],[-105.853332,44.403939],[-105.853346,44.407558],[-105.853359,44.411177]]]}},{"type":"Feature","properties":{"sec":"24","frstdivid":"WY060510N0750W0SN240"},"geometry":{"type":"Polygon","coordinates":[[[-105.832953,44.382324],[-105.832957,44.385997],[-105.83296,44.38967],[-105.827914,44.389678],[-105.822869,44.389685],[-105.817833,44.389691],[-105.812797,44.389697],[-105.812852,44.386078],[-105.812908,44.382459],[-105.812925,44.378835],[-105.812942,44.375212],[-105.817943,44.375154],[-105.822944,44.375095],[-105.827945,44.375037],[-105.832946,44.374979],[-105.83295,44.378652],[-105.832953,44.382324]]]}},{"type":"Feature","properties":{"sec":"06","frstdivid":"WY060510N0750W0SN060"},"geometry":{"type":"Polygon","coordinates":[[[-105.933857,44.432291],[-105.929182,44.432329],[-105.929181,44.432329],[-105.924099,44.432369],[-105.919017,44.432409],[-105.913935,44.432449],[-105.913907,44.428824],[-105.913878,44.425166],[-105.91385,44.421509],[-105.913821,44.417851],[-105.918858,44.417695],[-105.923895,44.417538],[-105.928932,44.417382],[-105.933523,44.417239],[-105.933611,44.421001],[-105.933693,44.424765],[-105.933775,44.428528],[-105.933857,44.432291]]]}},{"type":"Feature","properties":{"sec":"13","frstdivid":"WY060510N0750W0SN130"},"geometry":{"type":"Polygon","coordinates":[[[-105.812797,44.389697],[-105.817833,44.389691],[-105.822869,44.389685],[-105.827914,44.389678],[-105.83296,44.38967],[-105.833016,44.393286],[-105.833071,44.396902],[-105.833128,44.400515],[-105.833185,44.404129],[-105.828128,44.404142],[-105.823071,44.404156],[-105.818008,44.404167],[-105.812945,44.404179],[-105.812908,44.400558],[-105.812871,44.396937],[-105.812834,44.393317],[-105.812797,44.389697]]]}},{"type":"Feature","properties":{"sec":"28","frstdivid":"WY060510N0750W0SN280"},"geometry":{"type":"Polygon","coordinates":[[[-105.879123,44.359636],[-105.884233,44.359602],[-105.889342,44.359568],[-105.894452,44.359533],[-105.894379,44.36319],[-105.894306,44.366847],[-105.894234,44.370504],[-105.894161,44.374161],[-105.889033,44.374191],[-105.883904,44.374222],[-105.878776,44.374252],[-105.873648,44.374283],[-105.873739,44.37063],[-105.87383,44.366977],[-105.873922,44.363324],[-105.874013,44.359671],[-105.879123,44.359636]]]}},{"type":"Feature","properties":{"sec":"33","frstdivid":"WY060510N0750W0SN330"},"geometry":{"type":"Polygon","coordinates":[[[-105.894452,44.359533],[-105.889342,44.359568],[-105.884233,44.359602],[-105.879123,44.359636],[-105.874013,44.359671],[-105.873921,44.356018],[-105.873829,44.352365],[-105.873738,44.348712],[-105.873646,44.345059],[-105.87879,44.34502],[-105.883935,44.344982],[-105.889079,44.344944],[-105.894224,44.344906],[-105.894281,44.348563],[-105.894338,44.35222],[-105.894395,44.355877],[-105.894452,44.359533]]]}},{"type":"Feature","properties":{"sec":"35","frstdivid":"WY060510N0750W0SN350"},"geometry":{"type":"Polygon","coordinates":[[[-105.853576,44.352643],[-105.853604,44.356366],[-105.853632,44.360089],[-105.848555,44.360139],[-105.843478,44.360188],[-105.838401,44.360238],[-105.833325,44.360288],[-105.833357,44.356615],[-105.833389,44.352943],[-105.833421,44.34927],[-105.833453,44.345598],[-105.838542,44.3455],[-105.843632,44.345403],[-105.848576,44.3453],[-105.85352,44.345196],[-105.853548,44.348919],[-105.853576,44.352643]]]}},{"type":"Feature","properties":{"sec":"09","frstdivid":"WY060510N0750W0SN090"},"geometry":{"type":"Polygon","coordinates":[[[-105.888657,44.418059],[-105.883602,44.418077],[-105.878548,44.418095],[-105.873493,44.418113],[-105.873456,44.414461],[-105.873419,44.410808],[-105.873382,44.407156],[-105.873344,44.403503],[-105.878376,44.403481],[-105.883408,44.403458],[-105.888439,44.403436],[-105.893471,44.403413],[-105.893531,44.40707],[-105.893591,44.410727],[-105.893651,44.414384],[-105.893711,44.41804],[-105.888657,44.418059]]]}},{"type":"Feature","properties":{"sec":"14","frstdivid":"WY060510N0750W0SN140"},"geometry":{"type":"Polygon","coordinates":[[[-105.833016,44.393286],[-105.83296,44.38967],[-105.838025,44.389618],[-105.843089,44.389566],[-105.848154,44.389514],[-105.853218,44.389462],[-105.853247,44.393081],[-105.853275,44.3967],[-105.853304,44.400319],[-105.853332,44.403939],[-105.848295,44.403986],[-105.843259,44.404034],[-105.838222,44.404081],[-105.833185,44.404129],[-105.833128,44.400515],[-105.833071,44.396902],[-105.833016,44.393286]]]}},{"type":"Feature","properties":{"sec":"15","frstdivid":"WY060510N0750W0SN150"},"geometry":{"type":"Polygon","coordinates":[[[-105.873413,44.396198],[-105.873379,44.399851],[-105.873344,44.403503],[-105.868341,44.403612],[-105.863338,44.403721],[-105.858335,44.40383],[-105.853332,44.403939],[-105.853304,44.400319],[-105.853275,44.3967],[-105.853247,44.393081],[-105.853218,44.389462],[-105.858284,44.389319],[-105.86335,44.389177],[-105.868416,44.389035],[-105.873482,44.388893],[-105.873447,44.392545],[-105.873413,44.396198]]]}},{"type":"Feature","properties":{"sec":"32","frstdivid":"WY060510N0750W0SN320"},"geometry":{"type":"Polygon","coordinates":[[[-105.904627,44.359432],[-105.89954,44.359483],[-105.894452,44.359533],[-105.894395,44.355877],[-105.894338,44.35222],[-105.894281,44.348563],[-105.894224,44.344906],[-105.899278,44.344854],[-105.904333,44.344802],[-105.909387,44.344751],[-105.914442,44.344699],[-105.914532,44.348357],[-105.914622,44.352015],[-105.914712,44.355673],[-105.914802,44.359331],[-105.909715,44.359382],[-105.904627,44.359432]]]}},{"type":"Feature","properties":{"sec":"25","frstdivid":"WY060510N0750W0SN250"},"geometry":{"type":"Polygon","coordinates":[[[-105.822944,44.375095],[-105.817943,44.375154],[-105.812942,44.375212],[-105.812959,44.371588],[-105.812976,44.367964],[-105.812992,44.36434],[-105.813009,44.360716],[-105.818088,44.360609],[-105.823167,44.360502],[-105.828246,44.360395],[-105.833325,44.360288],[-105.83323,44.36396],[-105.833135,44.367633],[-105.833041,44.371306],[-105.832946,44.374979],[-105.827945,44.375037],[-105.822944,44.375095]]]}},{"type":"Feature","properties":{"sec":"36","frstdivid":"WY060510N0750W0SN360"},"geometry":{"type":"Polygon","coordinates":[[[-105.833357,44.356615],[-105.833325,44.360288],[-105.828246,44.360395],[-105.823167,44.360502],[-105.818088,44.360609],[-105.813009,44.360716],[-105.81303,44.357033],[-105.81305,44.35335],[-105.813071,44.349668],[-105.813092,44.345985],[-105.818182,44.345888],[-105.823272,44.345791],[-105.828362,44.345694],[-105.833453,44.345598],[-105.833421,44.34927],[-105.833389,44.352943],[-105.833357,44.356615]]]}},{"type":"Feature","properties":{"sec":"34","frstdivid":"WY060510N0750W0SN340"},"geometry":{"type":"Polygon","coordinates":[[[-105.873829,44.352365],[-105.873921,44.356018],[-105.874013,44.359671],[-105.868918,44.359775],[-105.863822,44.35988],[-105.858727,44.359985],[-105.853632,44.360089],[-105.853604,44.356366],[-105.853576,44.352643],[-105.853548,44.348919],[-105.85352,44.345196],[-105.858555,44.345092],[-105.86359,44.344989],[-105.868618,44.345024],[-105.873646,44.345059],[-105.873738,44.348712],[-105.873829,44.352365]]]}},{"type":"Feature","properties":{"sec":"31","frstdivid":"WY060510N0750W0SN310"},"geometry":{"type":"Polygon","coordinates":[[[-105.914532,44.348357],[-105.914442,44.344699],[-105.919634,44.344582],[-105.924826,44.344464],[-105.930018,44.344346],[-105.934771,44.344238],[-105.934787,44.34796],[-105.934802,44.351682],[-105.934818,44.355403],[-105.934833,44.359125],[-105.930066,44.359174],[-105.924978,44.359226],[-105.91989,44.359279],[-105.914802,44.359331],[-105.914712,44.355673],[-105.914622,44.352015],[-105.914532,44.348357]]]}},{"type":"Feature","properties":{"sec":"27","frstdivid":"WY060510N0750W0SN270"},"geometry":{"type":"Polygon","coordinates":[[[-105.853014,44.374984],[-105.853168,44.37126],[-105.853323,44.367536],[-105.853477,44.363813],[-105.853632,44.360089],[-105.858727,44.359985],[-105.863822,44.35988],[-105.868918,44.359775],[-105.874013,44.359671],[-105.873922,44.363324],[-105.87383,44.366977],[-105.873739,44.37063],[-105.873648,44.374283],[-105.868489,44.374458],[-105.863331,44.374633],[-105.858172,44.374808],[-105.853014,44.374984]]]}},{"type":"Feature","properties":{"sec":"10","frstdivid":"WY060510N0750W0SN100"},"geometry":{"type":"Polygon","coordinates":[[[-105.858412,44.41834],[-105.853385,44.418416],[-105.853372,44.414797],[-105.853359,44.411177],[-105.853346,44.407558],[-105.853332,44.403939],[-105.858335,44.40383],[-105.863338,44.403721],[-105.868341,44.403612],[-105.873344,44.403503],[-105.873382,44.407156],[-105.873419,44.410808],[-105.873456,44.414461],[-105.873493,44.418113],[-105.868466,44.418189],[-105.863439,44.418265],[-105.858412,44.41834]]]}},{"type":"Feature","properties":{"sec":"05","frstdivid":"WY060510N0750W0SN050"},"geometry":{"type":"Polygon","coordinates":[[[-105.898689,44.43257],[-105.893607,44.43261],[-105.893633,44.42901],[-105.893659,44.425354],[-105.893685,44.421697],[-105.893711,44.41804],[-105.898739,44.417993],[-105.903766,44.417946],[-105.908794,44.417898],[-105.913821,44.417851],[-105.91385,44.421509],[-105.913878,44.425166],[-105.913907,44.428824],[-105.913935,44.432449],[-105.908853,44.432489],[-105.903771,44.43253],[-105.898689,44.43257]]]}},{"type":"Feature","properties":{"sec":"17","frstdivid":"WY060510N0750W0SN170"},"geometry":{"type":"Polygon","coordinates":[[[-105.913988,44.392249],[-105.913831,44.395906],[-105.913673,44.399564],[-105.913516,44.403221],[-105.908504,44.403269],[-105.903493,44.403317],[-105.898482,44.403365],[-105.893471,44.403413],[-105.893563,44.399757],[-105.893655,44.3961],[-105.893747,44.392444],[-105.893838,44.388787],[-105.898915,44.388738],[-105.903992,44.388689],[-105.909069,44.388641],[-105.914146,44.388592],[-105.913988,44.392249]]]}},{"type":"Feature","properties":{"sec":"19","frstdivid":"WY060510N0750W0SN190"},"geometry":{"type":"Polygon","coordinates":[[[-105.934472,44.381054],[-105.934259,44.384576],[-105.934046,44.388098],[-105.929349,44.388215],[-105.924281,44.38834],[-105.919213,44.388466],[-105.914146,44.388592],[-105.914275,44.384934],[-105.914405,44.381277],[-105.914535,44.377619],[-105.914665,44.373962],[-105.9198,44.373974],[-105.924935,44.373986],[-105.93007,44.373999],[-105.934897,44.374011],[-105.934684,44.377533],[-105.934472,44.381054]]]}},{"type":"Feature","properties":{"sec":"01","frstdivid":"WY060510N0750W0SN010"},"geometry":{"type":"Polygon","coordinates":[[[-105.832966,44.425848],[-105.832794,44.429467],[-105.832623,44.433076],[-105.827775,44.43308],[-105.822928,44.433083],[-105.818081,44.433088],[-105.813233,44.433092],[-105.813188,44.429542],[-105.813142,44.425992],[-105.813097,44.422442],[-105.813052,44.418891],[-105.818116,44.418821],[-105.82318,44.41875],[-105.828244,44.418679],[-105.833308,44.418609],[-105.833137,44.422228],[-105.832966,44.425848]]]}},{"type":"Feature","properties":{"sec":"07","frstdivid":"WY060510N0750W0SN070"},"geometry":{"type":"Polygon","coordinates":[[[-105.933523,44.417239],[-105.928932,44.417382],[-105.923895,44.417538],[-105.918858,44.417695],[-105.913821,44.417851],[-105.913745,44.414193],[-105.913668,44.410536],[-105.913592,44.406879],[-105.913516,44.403221],[-105.91854,44.402957],[-105.923564,44.402692],[-105.928589,44.402428],[-105.933193,44.402185],[-105.933275,44.405949],[-105.933358,44.409712],[-105.93344,44.413476],[-105.933523,44.417239]]]}},{"type":"Feature","properties":{"sec":"03","frstdivid":"WY060510N0750W0SN030"},"geometry":{"type":"Polygon","coordinates":[[[-105.858033,44.432884],[-105.852951,44.432923],[-105.853061,44.429273],[-105.85317,44.425654],[-105.853277,44.422035],[-105.853385,44.418416],[-105.858412,44.41834],[-105.863439,44.418265],[-105.868466,44.418189],[-105.873493,44.418113],[-105.873441,44.421766],[-105.873388,44.425418],[-105.873334,44.42907],[-105.873279,44.432768],[-105.868197,44.432806],[-105.863115,44.432845],[-105.858033,44.432884]]]}},{"type":"Feature","properties":{"sec":"21","frstdivid":"WY060510N0750W0SN210"},"geometry":{"type":"Polygon","coordinates":[[[-105.873648,44.374283],[-105.878776,44.374252],[-105.883904,44.374222],[-105.889033,44.374191],[-105.894161,44.374161],[-105.89408,44.377817],[-105.894,44.381474],[-105.893919,44.385131],[-105.893838,44.388787],[-105.888749,44.388814],[-105.88366,44.38884],[-105.878571,44.388867],[-105.873482,44.388893],[-105.873523,44.38524],[-105.873565,44.381588],[-105.873606,44.377935],[-105.873648,44.374283]]]}},{"type":"Feature","properties":{"sec":"04","frstdivid":"WY060510N0750W0SN040"},"geometry":{"type":"Polygon","coordinates":[[[-105.893633,44.42901],[-105.893607,44.43261],[-105.888525,44.432649],[-105.883443,44.432689],[-105.878361,44.432728],[-105.873279,44.432768],[-105.873334,44.42907],[-105.873388,44.425418],[-105.873441,44.421766],[-105.873493,44.418113],[-105.878548,44.418095],[-105.883602,44.418077],[-105.888657,44.418059],[-105.893711,44.41804],[-105.893685,44.421697],[-105.893659,44.425354],[-105.893633,44.42901]]]}},{"type":"Feature","properties":{"sec":"20","frstdivid":"WY060510N0750W0SN200"},"geometry":{"type":"Polygon","coordinates":[[[-105.89408,44.377817],[-105.894161,44.374161],[-105.899287,44.374111],[-105.904413,44.374061],[-105.909539,44.374011],[-105.914665,44.373962],[-105.914535,44.377619],[-105.914405,44.381277],[-105.914275,44.384934],[-105.914146,44.388592],[-105.909069,44.388641],[-105.903992,44.388689],[-105.898915,44.388738],[-105.893838,44.388787],[-105.893919,44.385131],[-105.894,44.381474],[-105.89408,44.377817]]]}},{"type":"Feature","properties":{"sec":"22","frstdivid":"WY060510N0750W0SN220"},"geometry":{"type":"Polygon","coordinates":[[[-105.853014,44.374984],[-105.858172,44.374808],[-105.863331,44.374633],[-105.868489,44.374458],[-105.873648,44.374283],[-105.873606,44.377935],[-105.873565,44.381588],[-105.873523,44.38524],[-105.873482,44.388893],[-105.868416,44.389035],[-105.86335,44.389177],[-105.858284,44.389319],[-105.853218,44.389462],[-105.853167,44.385842],[-105.853116,44.382223],[-105.853065,44.378603],[-105.853014,44.374984]]]}},{"type":"Feature","properties":{"sec":"12","frstdivid":"WY060510N0750W0SN120"},"geometry":{"type":"Polygon","coordinates":[[[-105.833247,44.411369],[-105.833278,44.414989],[-105.833308,44.418609],[-105.828244,44.418679],[-105.82318,44.41875],[-105.818116,44.418821],[-105.813052,44.418891],[-105.813007,44.415341],[-105.812963,44.411791],[-105.812954,44.407985],[-105.812945,44.404179],[-105.818008,44.404167],[-105.823071,44.404156],[-105.828128,44.404142],[-105.833185,44.404129],[-105.833216,44.407749],[-105.833247,44.411369]]]}},{"type":"Feature","properties":{"sec":"08","frstdivid":"WY060510N0750W0SN080"},"geometry":{"type":"Polygon","coordinates":[[[-105.913516,44.403221],[-105.913592,44.406879],[-105.913668,44.410536],[-105.913745,44.414193],[-105.913821,44.417851],[-105.908794,44.417898],[-105.903766,44.417946],[-105.898739,44.417993],[-105.893711,44.41804],[-105.893651,44.414384],[-105.893591,44.410727],[-105.893531,44.40707],[-105.893471,44.403413],[-105.898482,44.403365],[-105.903493,44.403317],[-105.908504,44.403269],[-105.913516,44.403221]]]}},{"type":"Feature","properties":{"sec":"16","frstdivid":"WY060510N0750W0SN160"},"geometry":{"type":"Polygon","coordinates":[[[-105.883408,44.403458],[-105.878376,44.403481],[-105.873344,44.403503],[-105.873379,44.399851],[-105.873413,44.396198],[-105.873447,44.392545],[-105.873482,44.388893],[-105.878571,44.388867],[-105.88366,44.38884],[-105.888749,44.388814],[-105.893838,44.388787],[-105.893747,44.392444],[-105.893655,44.3961],[-105.893563,44.399757],[-105.893471,44.403413],[-105.888439,44.403436],[-105.883408,44.403458]]]}},{"type":"Feature","properties":{"sec":"23","frstdivid":"WY060510N0750W0SN230"},"geometry":{"type":"Polygon","coordinates":[[[-105.832946,44.374979],[-105.837963,44.37498],[-105.84298,44.374981],[-105.847997,44.374982],[-105.853014,44.374984],[-105.853065,44.378603],[-105.853116,44.382223],[-105.853167,44.385842],[-105.853218,44.389462],[-105.848154,44.389514],[-105.843089,44.389566],[-105.838025,44.389618],[-105.83296,44.38967],[-105.832957,44.385997],[-105.832953,44.382324],[-105.83295,44.378652],[-105.832946,44.374979]]]}}]}