{"type":"FeatureCollection","note":"BLM Public Land Survey System. Provided by the Bureau of Land Management as is. These data are neither legal documents nor land surveys and must not be used as such.","features":[{"type":"Feature","properties":{"sec":"32","frstdivid":"WY060420N0600W0SN320"},"geometry":{"type":"Polygon","coordinates":[[[-104.087633,43.56829],[-104.092622,43.568343],[-104.09761,43.568396],[-104.102599,43.568449],[-104.102577,43.572051],[-104.102554,43.575653],[-104.102532,43.579256],[-104.10251,43.582858],[-104.09754,43.582828],[-104.09257,43.582798],[-104.0876,43.582769],[-104.082631,43.582739],[-104.082634,43.579113],[-104.082638,43.575488],[-104.082641,43.571862],[-104.082645,43.568237],[-104.087633,43.56829]]]}},{"type":"Feature","properties":{"sec":"16","frstdivid":"WY060420N0600W0SN160"},"geometry":{"type":"Polygon","coordinates":[[[-104.082491,43.618948],[-104.08247,43.622567],[-104.08245,43.626185],[-104.07748,43.626205],[-104.072509,43.626224],[-104.067539,43.626243],[-104.062569,43.626262],[-104.062579,43.622644],[-104.06259,43.619025],[-104.0626,43.615407],[-104.062611,43.611789],[-104.067591,43.611769],[-104.072571,43.61175],[-104.077551,43.61173],[-104.082531,43.611711],[-104.082511,43.615329],[-104.082491,43.618948]]]}},{"type":"Feature","properties":{"sec":"31","frstdivid":"WY060420N0600W0SN310"},"geometry":{"type":"Polygon","coordinates":[[[-104.122435,43.56837],[-104.122421,43.571981],[-104.122406,43.575592],[-104.122392,43.579203],[-104.122377,43.582814],[-104.117449,43.582819],[-104.112469,43.582824],[-104.10749,43.582841],[-104.10251,43.582858],[-104.102532,43.579256],[-104.102554,43.575653],[-104.102577,43.572051],[-104.102599,43.568449],[-104.107568,43.568423],[-104.112537,43.568396],[-104.117511,43.568383],[-104.122435,43.56837]]]}},{"type":"Feature","properties":{"sec":"33","frstdivid":"WY060420N0600W0SN330"},"geometry":{"type":"Polygon","coordinates":[[[-104.082645,43.568237],[-104.082641,43.571862],[-104.082638,43.575488],[-104.082634,43.579113],[-104.082631,43.582739],[-104.077642,43.582771],[-104.072653,43.582802],[-104.067664,43.582834],[-104.062676,43.582866],[-104.062677,43.579256],[-104.062679,43.575646],[-104.06268,43.572036],[-104.062682,43.568426],[-104.067673,43.568378],[-104.072664,43.568331],[-104.077654,43.568284],[-104.082645,43.568237]]]}},{"type":"Feature","properties":{"sec":"20","frstdivid":"WY060420N0600W0SN200"},"geometry":{"type":"Polygon","coordinates":[[[-104.092483,43.611713],[-104.087507,43.611712],[-104.082531,43.611711],[-104.082545,43.60809],[-104.082558,43.60447],[-104.082572,43.600849],[-104.082585,43.597229],[-104.087561,43.597243],[-104.092536,43.597256],[-104.097511,43.59727],[-104.102487,43.597284],[-104.102474,43.600892],[-104.102461,43.6045],[-104.102448,43.608108],[-104.102435,43.611716],[-104.097459,43.611714],[-104.092483,43.611713]]]}},{"type":"Feature","properties":{"sec":"06","frstdivid":"WY060420N0600W0SN060"},"geometry":{"type":"Polygon","coordinates":[[[-104.102251,43.655159],[-104.102279,43.65151],[-104.102307,43.647891],[-104.102355,43.644272],[-104.102403,43.640654],[-104.107388,43.640653],[-104.112372,43.640653],[-104.117356,43.64065],[-104.122316,43.640646],[-104.122308,43.644268],[-104.122299,43.64789],[-104.122295,43.651511],[-104.122291,43.655132],[-104.117281,43.655139],[-104.11227,43.655146],[-104.10726,43.655152],[-104.102251,43.655159]]]}},{"type":"Feature","properties":{"sec":"03","frstdivid":"WY060420N0600W0SN030"},"geometry":{"type":"Polygon","coordinates":[[[-104.054872,43.651518],[-104.054874,43.648136],[-104.054874,43.647929],[-104.054877,43.644515],[-104.054876,43.644298],[-104.054879,43.640894],[-104.054878,43.640666],[-104.062589,43.640776],[-104.0626,43.644406],[-104.06261,43.648036],[-104.062623,43.651661],[-104.062636,43.655252],[-104.054874,43.655278],[-104.054874,43.655132],[-104.054872,43.65156],[-104.054872,43.651518]]]}},{"type":"Feature","properties":{"sec":"34","frstdivid":"WY060420N0600W0SN340"},"geometry":{"type":"Polygon","coordinates":[[[-104.06268,43.572036],[-104.062679,43.575646],[-104.062677,43.579256],[-104.062676,43.582866],[-104.055009,43.582824],[-104.055015,43.579293],[-104.055015,43.579261],[-104.055021,43.5757],[-104.055021,43.575672],[-104.055026,43.572138],[-104.055026,43.572052],[-104.055032,43.568576],[-104.062682,43.568426],[-104.06268,43.572036]]]}},{"type":"Feature","properties":{"sec":"10","frstdivid":"WY060420N0600W0SN100"},"geometry":{"type":"Polygon","coordinates":[[[-104.062574,43.629891],[-104.062579,43.633519],[-104.062584,43.637148],[-104.062589,43.640776],[-104.054878,43.640666],[-104.054882,43.637273],[-104.054881,43.637042],[-104.054881,43.637031],[-104.054891,43.633644],[-104.054891,43.633417],[-104.054901,43.630014],[-104.054901,43.629793],[-104.054911,43.626385],[-104.054911,43.626168],[-104.062569,43.626262],[-104.062574,43.629891]]]}},{"type":"Feature","properties":{"sec":"04","frstdivid":"WY060420N0600W0SN040"},"geometry":{"type":"Polygon","coordinates":[[[-104.0626,43.644406],[-104.062589,43.640776],[-104.067574,43.640746],[-104.072558,43.640716],[-104.077542,43.640686],[-104.082527,43.640656],[-104.082522,43.644274],[-104.082517,43.647893],[-104.082524,43.651512],[-104.08253,43.65517],[-104.077557,43.65519],[-104.072583,43.655211],[-104.06761,43.655231],[-104.062636,43.655252],[-104.062623,43.651661],[-104.06261,43.648036],[-104.0626,43.644406]]]}},{"type":"Feature","properties":{"sec":"19","frstdivid":"WY060420N0600W0SN190"},"geometry":{"type":"Polygon","coordinates":[[[-104.122386,43.604479],[-104.122366,43.60809],[-104.122346,43.611701],[-104.117381,43.611707],[-104.112399,43.611714],[-104.107417,43.611715],[-104.102435,43.611716],[-104.102448,43.608108],[-104.102461,43.6045],[-104.102474,43.600892],[-104.102487,43.597284],[-104.107461,43.597273],[-104.112435,43.597263],[-104.117413,43.59726],[-104.122426,43.597257],[-104.122406,43.600868],[-104.122386,43.604479]]]}},{"type":"Feature","properties":{"sec":"27","frstdivid":"WY060420N0600W0SN270"},"geometry":{"type":"Polygon","coordinates":[[[-104.054992,43.593756],[-104.054992,43.593685],[-104.054997,43.59014],[-104.054998,43.590064],[-104.055003,43.586525],[-104.055003,43.586444],[-104.055009,43.582909],[-104.055009,43.582824],[-104.062676,43.582866],[-104.06267,43.586481],[-104.062665,43.590096],[-104.06266,43.593711],[-104.062655,43.597326],[-104.054983,43.597305],[-104.054992,43.593756]]]}},{"type":"Feature","properties":{"sec":"22","frstdivid":"WY060420N0600W0SN220"},"geometry":{"type":"Polygon","coordinates":[[[-104.062633,43.604557],[-104.062622,43.608173],[-104.062611,43.611789],[-104.054947,43.611799],[-104.054957,43.608223],[-104.054957,43.608176],[-104.054965,43.604607],[-104.054966,43.604552],[-104.054974,43.60099],[-104.054974,43.600929],[-104.054983,43.597373],[-104.054983,43.597305],[-104.062655,43.597326],[-104.062644,43.600942],[-104.062633,43.604557]]]}},{"type":"Feature","properties":{"sec":"30","frstdivid":"WY060420N0600W0SN300"},"geometry":{"type":"Polygon","coordinates":[[[-104.117413,43.59726],[-104.112435,43.597263],[-104.107461,43.597273],[-104.102487,43.597284],[-104.102493,43.593677],[-104.102498,43.590071],[-104.102504,43.586464],[-104.10251,43.582858],[-104.10749,43.582841],[-104.112469,43.582824],[-104.117449,43.582819],[-104.122377,43.582814],[-104.122389,43.586425],[-104.122401,43.590035],[-104.122413,43.593646],[-104.122426,43.597257],[-104.117413,43.59726]]]}},{"type":"Feature","properties":{"sec":"09","frstdivid":"WY060420N0600W0SN090"},"geometry":{"type":"Polygon","coordinates":[[[-104.077542,43.640686],[-104.072558,43.640716],[-104.067574,43.640746],[-104.062589,43.640776],[-104.062584,43.637148],[-104.062579,43.633519],[-104.062574,43.629891],[-104.062569,43.626262],[-104.067539,43.626243],[-104.072509,43.626224],[-104.07748,43.626205],[-104.08245,43.626185],[-104.082469,43.629803],[-104.082488,43.633421],[-104.082507,43.637038],[-104.082527,43.640656],[-104.077542,43.640686]]]}},{"type":"Feature","properties":{"sec":"29","frstdivid":"WY060420N0600W0SN290"},"geometry":{"type":"Polygon","coordinates":[[[-104.082631,43.582739],[-104.0876,43.582769],[-104.09257,43.582798],[-104.09754,43.582828],[-104.10251,43.582858],[-104.102504,43.586464],[-104.102498,43.590071],[-104.102493,43.593677],[-104.102487,43.597284],[-104.097511,43.59727],[-104.092536,43.597256],[-104.087561,43.597243],[-104.082585,43.597229],[-104.082597,43.593606],[-104.082608,43.589984],[-104.082619,43.586361],[-104.082631,43.582739]]]}},{"type":"Feature","properties":{"sec":"08","frstdivid":"WY060420N0600W0SN080"},"geometry":{"type":"Polygon","coordinates":[[[-104.102403,43.640654],[-104.097434,43.640654],[-104.092465,43.640655],[-104.087496,43.640655],[-104.082527,43.640656],[-104.082507,43.637038],[-104.082488,43.633421],[-104.082469,43.629803],[-104.08245,43.626185],[-104.087409,43.626184],[-104.092367,43.626183],[-104.097326,43.626182],[-104.102284,43.626181],[-104.102314,43.629799],[-104.102344,43.633417],[-104.102374,43.637036],[-104.102403,43.640654]]]}},{"type":"Feature","properties":{"sec":"07","frstdivid":"WY060420N0600W0SN070"},"geometry":{"type":"Polygon","coordinates":[[[-104.122289,43.633402],[-104.122303,43.637024],[-104.122316,43.640646],[-104.117356,43.64065],[-104.112372,43.640653],[-104.107388,43.640653],[-104.102403,43.640654],[-104.102374,43.637036],[-104.102344,43.633417],[-104.102314,43.629799],[-104.102284,43.626181],[-104.107261,43.626168],[-104.112239,43.626156],[-104.117219,43.626157],[-104.122262,43.626158],[-104.122275,43.62978],[-104.122289,43.633402]]]}},{"type":"Feature","properties":{"sec":"18","frstdivid":"WY060420N0600W0SN180"},"geometry":{"type":"Polygon","coordinates":[[[-104.112239,43.626156],[-104.107261,43.626168],[-104.102284,43.626181],[-104.102322,43.622564],[-104.10236,43.618948],[-104.102397,43.615332],[-104.102435,43.611716],[-104.107417,43.611715],[-104.112399,43.611714],[-104.117381,43.611707],[-104.122346,43.611701],[-104.122325,43.615315],[-104.122304,43.618929],[-104.122283,43.622543],[-104.122262,43.626158],[-104.117219,43.626157],[-104.112239,43.626156]]]}},{"type":"Feature","properties":{"sec":"28","frstdivid":"WY060420N0600W0SN280"},"geometry":{"type":"Polygon","coordinates":[[[-104.082608,43.589984],[-104.082597,43.593606],[-104.082585,43.597229],[-104.077603,43.597253],[-104.07262,43.597277],[-104.067638,43.597302],[-104.062655,43.597326],[-104.06266,43.593711],[-104.062665,43.590096],[-104.06267,43.586481],[-104.062676,43.582866],[-104.067664,43.582834],[-104.072653,43.582802],[-104.077642,43.582771],[-104.082631,43.582739],[-104.082619,43.586361],[-104.082608,43.589984]]]}},{"type":"Feature","properties":{"sec":"17","frstdivid":"WY060420N0600W0SN170"},"geometry":{"type":"Polygon","coordinates":[[[-104.08247,43.622567],[-104.082491,43.618948],[-104.082511,43.615329],[-104.082531,43.611711],[-104.087507,43.611712],[-104.092483,43.611713],[-104.097459,43.611714],[-104.102435,43.611716],[-104.102397,43.615332],[-104.10236,43.618948],[-104.102322,43.622564],[-104.102284,43.626181],[-104.097326,43.626182],[-104.092367,43.626183],[-104.087409,43.626184],[-104.08245,43.626185],[-104.08247,43.622567]]]}},{"type":"Feature","properties":{"sec":"05","frstdivid":"WY060420N0600W0SN050"},"geometry":{"type":"Polygon","coordinates":[[[-104.092231,43.655171],[-104.087381,43.65517],[-104.08253,43.65517],[-104.082524,43.651512],[-104.082517,43.647893],[-104.082522,43.644274],[-104.082527,43.640656],[-104.087496,43.640655],[-104.092465,43.640655],[-104.097434,43.640654],[-104.102403,43.640654],[-104.102355,43.644272],[-104.102307,43.647891],[-104.102279,43.65151],[-104.102251,43.655159],[-104.097241,43.655165],[-104.092231,43.655171]]]}},{"type":"Feature","properties":{"sec":"15","frstdivid":"WY060420N0600W0SN150"},"geometry":{"type":"Polygon","coordinates":[[[-104.054939,43.615391],[-104.054947,43.611856],[-104.054947,43.611799],[-104.062611,43.611789],[-104.0626,43.615407],[-104.06259,43.619025],[-104.062579,43.622644],[-104.062569,43.626262],[-104.054911,43.626168],[-104.054922,43.622755],[-104.054922,43.622583],[-104.054922,43.622576],[-104.05493,43.619122],[-104.05493,43.618984],[-104.054938,43.615489],[-104.054939,43.615391]]]}},{"type":"Feature","properties":{"sec":"21","frstdivid":"WY060420N0600W0SN210"},"geometry":{"type":"Polygon","coordinates":[[[-104.072571,43.61175],[-104.067591,43.611769],[-104.062611,43.611789],[-104.062622,43.608173],[-104.062633,43.604557],[-104.062644,43.600942],[-104.062655,43.597326],[-104.067638,43.597302],[-104.07262,43.597277],[-104.077603,43.597253],[-104.082585,43.597229],[-104.082572,43.600849],[-104.082558,43.60447],[-104.082545,43.60809],[-104.082531,43.611711],[-104.077551,43.61173],[-104.072571,43.61175]]]}}]}