{"type":"FeatureCollection","note":"BLM Public Land Survey System. Provided by the Bureau of Land Management as is. These data are neither legal documents nor land surveys and must not be used as such.","features":[{"type":"Feature","properties":{"sec":"34","frstdivid":"WY060350N0880W0SN340"},"geometry":{"type":"Polygon","coordinates":[[[-107.374116,42.954665],[-107.37902,42.954639],[-107.379168,42.958248],[-107.379317,42.961858],[-107.379465,42.965467],[-107.379614,42.969076],[-107.374525,42.969094],[-107.369436,42.969112],[-107.364536,42.969137],[-107.359636,42.969163],[-107.359583,42.965542],[-107.35953,42.961922],[-107.359478,42.958302],[-107.359425,42.954681],[-107.364319,42.954686],[-107.369213,42.954691],[-107.374116,42.954665]]]}},{"type":"Feature","properties":{"sec":"31","frstdivid":"WY060350N0880W0SN310"},"geometry":{"type":"Polygon","coordinates":[[[-107.44248,42.95888],[-107.442514,42.962469],[-107.442514,42.962492],[-107.442548,42.966069],[-107.442548,42.966099],[-107.442582,42.96967],[-107.439322,42.969414],[-107.434569,42.969041],[-107.429816,42.968668],[-107.425063,42.968296],[-107.420311,42.967924],[-107.419858,42.96459],[-107.419406,42.961256],[-107.418953,42.957922],[-107.418501,42.954588],[-107.423607,42.954735],[-107.428713,42.954883],[-107.433821,42.955026],[-107.438928,42.955169],[-107.442446,42.955267],[-107.44248,42.958868],[-107.44248,42.95888]]]}},{"type":"Feature","properties":{"sec":"07","frstdivid":"WY060350N0880W0SN070"},"geometry":{"type":"Polygon","coordinates":[[[-107.420411,43.011596],[-107.425194,43.011866],[-107.429976,43.012136],[-107.434758,43.012406],[-107.439539,43.012676],[-107.44286,43.012864],[-107.442862,43.013262],[-107.442884,43.016461],[-107.442887,43.0169],[-107.442907,43.020057],[-107.442911,43.020538],[-107.442933,43.023655],[-107.442937,43.024174],[-107.442958,43.027251],[-107.439626,43.027103],[-107.434826,43.026888],[-107.430025,43.026674],[-107.425225,43.026459],[-107.420425,43.026245],[-107.420422,43.022583],[-107.420418,43.01892],[-107.420415,43.015258],[-107.420411,43.011596]]]}},{"type":"Feature","properties":{"sec":"04","frstdivid":"WY060350N0880W0SN040"},"geometry":{"type":"Polygon","coordinates":[[[-107.395601,43.041664],[-107.390708,43.041668],[-107.385816,43.041673],[-107.380923,43.041677],[-107.380656,43.03806],[-107.380385,43.03439],[-107.380117,43.03072],[-107.379849,43.027049],[-107.384907,43.02701],[-107.389965,43.02697],[-107.395024,43.026931],[-107.400082,43.026891],[-107.400184,43.030589],[-107.400287,43.034286],[-107.400391,43.037982],[-107.400493,43.04166],[-107.395601,43.041664]]]}},{"type":"Feature","properties":{"sec":"35","frstdivid":"WY060350N0880W0SN350"},"geometry":{"type":"Polygon","coordinates":[[[-107.359425,42.954681],[-107.359478,42.958302],[-107.35953,42.961922],[-107.359583,42.965542],[-107.359636,42.969163],[-107.354692,42.969176],[-107.349748,42.969188],[-107.344804,42.969201],[-107.339859,42.969214],[-107.339836,42.965583],[-107.339814,42.961951],[-107.339785,42.958339],[-107.339756,42.954726],[-107.34474,42.954754],[-107.349723,42.954782],[-107.354574,42.954732],[-107.359425,42.954681]]]}},{"type":"Feature","properties":{"sec":"01","frstdivid":"WY060350N0880W0SN010"},"geometry":{"type":"Polygon","coordinates":[[[-107.321161,43.034491],[-107.321112,43.030851],[-107.321063,43.027211],[-107.325987,43.027202],[-107.330911,43.027193],[-107.335834,43.027184],[-107.340758,43.027175],[-107.340852,43.030804],[-107.340947,43.034433],[-107.341041,43.038062],[-107.341136,43.041745],[-107.336168,43.041752],[-107.331199,43.041758],[-107.326231,43.041765],[-107.321262,43.041772],[-107.321212,43.038132],[-107.321161,43.034491]]]}},{"type":"Feature","properties":{"sec":"36","frstdivid":"WY060350N0880W0SN360"},"geometry":{"type":"Polygon","coordinates":[[[-107.32998,42.954682],[-107.334868,42.954704],[-107.339756,42.954726],[-107.339785,42.958339],[-107.339814,42.961951],[-107.339836,42.965583],[-107.339859,42.969214],[-107.334959,42.969217],[-107.330059,42.96922],[-107.325159,42.969223],[-107.320259,42.969226],[-107.320233,42.96559],[-107.320207,42.961954],[-107.32017,42.958321],[-107.320132,42.954688],[-107.325056,42.954685],[-107.32998,42.954682]]]}},{"type":"Feature","properties":{"sec":"25","frstdivid":"WY060350N0880W0SN250"},"geometry":{"type":"Polygon","coordinates":[[[-107.320614,42.976458],[-107.320437,42.972842],[-107.320259,42.969226],[-107.325159,42.969223],[-107.330059,42.96922],[-107.334959,42.969217],[-107.339859,42.969214],[-107.339887,42.97279],[-107.339915,42.976366],[-107.340191,42.979996],[-107.340467,42.983625],[-107.335593,42.983641],[-107.330718,42.983657],[-107.325844,42.983673],[-107.32097,42.98369],[-107.320792,42.980074],[-107.320614,42.976458]]]}},{"type":"Feature","properties":{"sec":"16","frstdivid":"WY060350N0880W0SN160"},"geometry":{"type":"Polygon","coordinates":[[[-107.380107,43.008892],[-107.379627,43.00526],[-107.380084,43.001637],[-107.380541,42.998014],[-107.385534,42.997838],[-107.390528,42.997663],[-107.395522,42.997487],[-107.400515,42.997311],[-107.400508,43.001008],[-107.4005,43.004706],[-107.400492,43.008403],[-107.400484,43.012101],[-107.39551,43.012206],[-107.390536,43.012312],[-107.385561,43.012418],[-107.380587,43.012524],[-107.380107,43.008892]]]}},{"type":"Feature","properties":{"sec":"08","frstdivid":"WY060350N0880W0SN080"},"geometry":{"type":"Polygon","coordinates":[[[-107.400484,43.012101],[-107.405466,43.011974],[-107.410448,43.011848],[-107.41543,43.011722],[-107.420411,43.011596],[-107.420415,43.015258],[-107.420418,43.01892],[-107.420422,43.022583],[-107.420425,43.026245],[-107.415339,43.026406],[-107.410253,43.026568],[-107.405168,43.02673],[-107.400082,43.026891],[-107.400182,43.023194],[-107.400283,43.019496],[-107.400384,43.015798],[-107.400484,43.012101]]]}},{"type":"Feature","properties":{"sec":"28","frstdivid":"WY060350N0880W0SN280"},"geometry":{"type":"Polygon","coordinates":[[[-107.389898,42.983022],[-107.384669,42.983272],[-107.37944,42.983522],[-107.379425,42.979908],[-107.379409,42.976294],[-107.379512,42.972685],[-107.379614,42.969076],[-107.384698,42.968953],[-107.389783,42.968831],[-107.394867,42.968709],[-107.399951,42.968586],[-107.400053,42.97207],[-107.400154,42.975554],[-107.400255,42.979038],[-107.400356,42.982522],[-107.395127,42.982772],[-107.389898,42.983022]]]}},{"type":"Feature","properties":{"sec":"22","frstdivid":"WY060350N0880W0SN220"},"geometry":{"type":"Polygon","coordinates":[[[-107.375564,42.998054],[-107.370588,42.998095],[-107.365612,42.998135],[-107.360636,42.998176],[-107.360482,42.994549],[-107.360329,42.990922],[-107.360176,42.987295],[-107.360023,42.983668],[-107.364877,42.983631],[-107.369732,42.983595],[-107.374586,42.983559],[-107.37944,42.983522],[-107.379715,42.987145],[-107.37999,42.990768],[-107.380266,42.994391],[-107.380541,42.998014],[-107.375564,42.998054]]]}},{"type":"Feature","properties":{"sec":"13","frstdivid":"WY060350N0880W0SN130"},"geometry":{"type":"Polygon","coordinates":[[[-107.34075,43.005399],[-107.34075,43.009029],[-107.340751,43.012658],[-107.335781,43.012657],[-107.330811,43.012657],[-107.325841,43.012656],[-107.320872,43.012656],[-107.320847,43.009038],[-107.320823,43.005419],[-107.320798,43.001801],[-107.320774,42.998183],[-107.325768,42.998173],[-107.330761,42.998162],[-107.335755,42.998152],[-107.340749,42.998141],[-107.340749,43.00177],[-107.34075,43.005399]]]}},{"type":"Feature","properties":{"sec":"17","frstdivid":"WY060350N0880W0SN170"},"geometry":{"type":"Polygon","coordinates":[[[-107.420403,43.004441],[-107.420407,43.008018],[-107.420411,43.011596],[-107.41543,43.011722],[-107.410448,43.011848],[-107.405466,43.011974],[-107.400484,43.012101],[-107.400492,43.008403],[-107.4005,43.004706],[-107.400508,43.001008],[-107.400515,42.997311],[-107.405485,42.997305],[-107.410455,42.997299],[-107.415425,42.997293],[-107.420395,42.997287],[-107.420399,43.000864],[-107.420403,43.004441]]]}},{"type":"Feature","properties":{"sec":"05","frstdivid":"WY060350N0880W0SN050"},"geometry":{"type":"Polygon","coordinates":[[[-107.420425,43.026245],[-107.420335,43.030108],[-107.420246,43.033971],[-107.420154,43.037834],[-107.420064,43.041639],[-107.415171,43.041644],[-107.410279,43.04165],[-107.405386,43.041655],[-107.400493,43.04166],[-107.400391,43.037982],[-107.400287,43.034286],[-107.400184,43.030589],[-107.400082,43.026891],[-107.405168,43.02673],[-107.410253,43.026568],[-107.415339,43.026406],[-107.420425,43.026245]]]}},{"type":"Feature","properties":{"sec":"27","frstdivid":"WY060350N0880W0SN270"},"geometry":{"type":"Polygon","coordinates":[[[-107.374586,42.983559],[-107.369732,42.983595],[-107.364877,42.983631],[-107.360023,42.983668],[-107.359926,42.980041],[-107.35983,42.976415],[-107.359733,42.972789],[-107.359636,42.969163],[-107.364536,42.969137],[-107.369436,42.969112],[-107.374525,42.969094],[-107.379614,42.969076],[-107.379512,42.972685],[-107.379409,42.976294],[-107.379425,42.979908],[-107.37944,42.983522],[-107.374586,42.983559]]]}},{"type":"Feature","properties":{"sec":"18","frstdivid":"WY060350N0880W0SN180"},"geometry":{"type":"Polygon","coordinates":[[[-107.420395,42.997287],[-107.425154,42.997535],[-107.429913,42.997784],[-107.43467,42.998035],[-107.439428,42.998286],[-107.442749,42.998462],[-107.442751,42.99871],[-107.442776,43.002062],[-107.442778,43.002348],[-107.442803,43.005663],[-107.442805,43.005986],[-107.442831,43.009263],[-107.442834,43.009624],[-107.44286,43.012864],[-107.439539,43.012676],[-107.434758,43.012406],[-107.429976,43.012136],[-107.425194,43.011866],[-107.420411,43.011596],[-107.420407,43.008018],[-107.420403,43.004441],[-107.420399,43.000864],[-107.420395,42.997287]]]}},{"type":"Feature","properties":{"sec":"33","frstdivid":"WY060350N0880W0SN330"},"geometry":{"type":"Polygon","coordinates":[[[-107.379614,42.969076],[-107.379465,42.965467],[-107.379317,42.961858],[-107.379168,42.958248],[-107.37902,42.954639],[-107.38394,42.95466],[-107.38886,42.95468],[-107.393811,42.954667],[-107.398762,42.954654],[-107.399059,42.958137],[-107.399356,42.96162],[-107.399654,42.965103],[-107.399951,42.968586],[-107.394867,42.968709],[-107.389783,42.968831],[-107.384698,42.968953],[-107.379614,42.969076]]]}},{"type":"Feature","properties":{"sec":"29","frstdivid":"WY060350N0880W0SN290"},"geometry":{"type":"Polygon","coordinates":[[[-107.419849,42.979136],[-107.420037,42.982771],[-107.415117,42.982709],[-107.410197,42.982646],[-107.405277,42.982584],[-107.400356,42.982522],[-107.400255,42.979038],[-107.400154,42.975554],[-107.400053,42.97207],[-107.399951,42.968586],[-107.405041,42.968421],[-107.410131,42.968255],[-107.415221,42.968089],[-107.420311,42.967924],[-107.419986,42.971713],[-107.41966,42.975502],[-107.419849,42.979136]]]}},{"type":"Feature","properties":{"sec":"14","frstdivid":"WY060350N0880W0SN140"},"geometry":{"type":"Polygon","coordinates":[[[-107.340751,43.012658],[-107.34075,43.009029],[-107.34075,43.005399],[-107.340749,43.00177],[-107.340749,42.998141],[-107.345721,42.99815],[-107.350692,42.998158],[-107.355664,42.998167],[-107.360636,42.998176],[-107.360639,43.001802],[-107.360643,43.005428],[-107.360646,43.009054],[-107.36065,43.01268],[-107.355675,43.012674],[-107.3507,43.012669],[-107.345725,43.012663],[-107.340751,43.012658]]]}},{"type":"Feature","properties":{"sec":"19","frstdivid":"WY060350N0880W0SN190"},"geometry":{"type":"Polygon","coordinates":[[[-107.420305,42.993658],[-107.420216,42.990029],[-107.420127,42.9864],[-107.420037,42.982771],[-107.424864,42.983047],[-107.42969,42.983323],[-107.434516,42.983599],[-107.439341,42.983875],[-107.442694,42.984067],[-107.442695,42.984174],[-107.442701,42.987666],[-107.442701,42.987802],[-107.442706,42.991265],[-107.442707,42.991429],[-107.442727,42.994863],[-107.442729,42.995069],[-107.442749,42.998462],[-107.439428,42.998286],[-107.43467,42.998035],[-107.429913,42.997784],[-107.425154,42.997535],[-107.420395,42.997287],[-107.420305,42.993658]]]}},{"type":"Feature","properties":{"sec":"30","frstdivid":"WY060350N0880W0SN300"},"geometry":{"type":"Polygon","coordinates":[[[-107.439322,42.969414],[-107.442582,42.96967],[-107.442582,42.969706],[-107.442602,42.973269],[-107.442602,42.973325],[-107.442623,42.976869],[-107.442623,42.976945],[-107.442658,42.980468],[-107.442659,42.980559],[-107.442694,42.984067],[-107.439341,42.983875],[-107.434516,42.983599],[-107.42969,42.983323],[-107.424864,42.983047],[-107.420037,42.982771],[-107.419849,42.979136],[-107.41966,42.975502],[-107.419986,42.971713],[-107.420311,42.967924],[-107.425063,42.968296],[-107.429816,42.968668],[-107.434569,42.969041],[-107.439322,42.969414]]]}},{"type":"Feature","properties":{"sec":"15","frstdivid":"WY060350N0880W0SN150"},"geometry":{"type":"Polygon","coordinates":[[[-107.36065,43.01268],[-107.360646,43.009054],[-107.360643,43.005428],[-107.360639,43.001802],[-107.360636,42.998176],[-107.365612,42.998135],[-107.370588,42.998095],[-107.375564,42.998054],[-107.380541,42.998014],[-107.380084,43.001637],[-107.379627,43.00526],[-107.380107,43.008892],[-107.380587,43.012524],[-107.375603,43.012563],[-107.370618,43.012602],[-107.365634,43.012641],[-107.36065,43.01268]]]}},{"type":"Feature","properties":{"sec":"32","frstdivid":"WY060350N0880W0SN320"},"geometry":{"type":"Polygon","coordinates":[[[-107.419406,42.961256],[-107.419858,42.96459],[-107.420311,42.967924],[-107.415221,42.968089],[-107.410131,42.968255],[-107.405041,42.968421],[-107.399951,42.968586],[-107.399654,42.965103],[-107.399356,42.96162],[-107.399059,42.958137],[-107.398762,42.954654],[-107.403696,42.954637],[-107.408631,42.954621],[-107.413566,42.954605],[-107.418501,42.954588],[-107.418953,42.957922],[-107.419406,42.961256]]]}},{"type":"Feature","properties":{"sec":"20","frstdivid":"WY060350N0880W0SN200"},"geometry":{"type":"Polygon","coordinates":[[[-107.420395,42.997287],[-107.415425,42.997293],[-107.410455,42.997299],[-107.405485,42.997305],[-107.400515,42.997311],[-107.400476,42.993614],[-107.400436,42.989916],[-107.400396,42.986219],[-107.400356,42.982522],[-107.405277,42.982584],[-107.410197,42.982646],[-107.415117,42.982709],[-107.420037,42.982771],[-107.420127,42.9864],[-107.420216,42.990029],[-107.420305,42.993658],[-107.420395,42.997287]]]}},{"type":"Feature","properties":{"sec":"21","frstdivid":"WY060350N0880W0SN210"},"geometry":{"type":"Polygon","coordinates":[[[-107.37944,42.983522],[-107.384669,42.983272],[-107.389898,42.983022],[-107.395127,42.982772],[-107.400356,42.982522],[-107.400396,42.986219],[-107.400436,42.989916],[-107.400476,42.993614],[-107.400515,42.997311],[-107.395522,42.997487],[-107.390528,42.997663],[-107.385534,42.997838],[-107.380541,42.998014],[-107.380266,42.994391],[-107.37999,42.990768],[-107.379715,42.987145],[-107.37944,42.983522]]]}},{"type":"Feature","properties":{"sec":"26","frstdivid":"WY060350N0880W0SN260"},"geometry":{"type":"Polygon","coordinates":[[[-107.359926,42.980041],[-107.360023,42.983668],[-107.355134,42.983657],[-107.350245,42.983646],[-107.345356,42.983636],[-107.340467,42.983625],[-107.340191,42.979996],[-107.339915,42.976366],[-107.339887,42.97279],[-107.339859,42.969214],[-107.344804,42.969201],[-107.349748,42.969188],[-107.354692,42.969176],[-107.359636,42.969163],[-107.359733,42.972789],[-107.35983,42.976415],[-107.359926,42.980041]]]}},{"type":"Feature","properties":{"sec":"24","frstdivid":"WY060350N0880W0SN240"},"geometry":{"type":"Polygon","coordinates":[[[-107.335593,42.983641],[-107.340467,42.983625],[-107.340538,42.987254],[-107.340608,42.990883],[-107.340679,42.994512],[-107.340749,42.998141],[-107.335755,42.998152],[-107.330761,42.998162],[-107.325768,42.998173],[-107.320774,42.998183],[-107.320823,42.99456],[-107.320872,42.990936],[-107.320921,42.987313],[-107.32097,42.98369],[-107.325844,42.983673],[-107.330718,42.983657],[-107.335593,42.983641]]]}},{"type":"Feature","properties":{"sec":"23","frstdivid":"WY060350N0880W0SN230"},"geometry":{"type":"Polygon","coordinates":[[[-107.340467,42.983625],[-107.345356,42.983636],[-107.350245,42.983646],[-107.355134,42.983657],[-107.360023,42.983668],[-107.360176,42.987295],[-107.360329,42.990922],[-107.360482,42.994549],[-107.360636,42.998176],[-107.355664,42.998167],[-107.350692,42.998158],[-107.345721,42.99815],[-107.340749,42.998141],[-107.340679,42.994512],[-107.340608,42.990883],[-107.340538,42.987254],[-107.340467,42.983625]]]}},{"type":"Feature","properties":{"sec":"09","frstdivid":"WY060350N0880W0SN090"},"geometry":{"type":"Polygon","coordinates":[[[-107.400283,43.019496],[-107.400182,43.023194],[-107.400082,43.026891],[-107.395024,43.026931],[-107.389965,43.02697],[-107.384907,43.02701],[-107.379849,43.027049],[-107.380034,43.023418],[-107.380218,43.019786],[-107.380402,43.016155],[-107.380587,43.012524],[-107.385561,43.012418],[-107.390536,43.012312],[-107.39551,43.012206],[-107.400484,43.012101],[-107.400384,43.015798],[-107.400283,43.019496]]]}},{"type":"Feature","properties":{"sec":"11","frstdivid":"WY060350N0880W0SN110"},"geometry":{"type":"Polygon","coordinates":[[[-107.360376,43.023559],[-107.360285,43.027185],[-107.355403,43.027182],[-107.350521,43.02718],[-107.34564,43.027178],[-107.340758,43.027175],[-107.340756,43.023546],[-107.340755,43.02046],[-107.340754,43.019917],[-107.340752,43.016287],[-107.340751,43.012658],[-107.345725,43.012663],[-107.3507,43.012669],[-107.355675,43.012674],[-107.36065,43.01268],[-107.360559,43.016306],[-107.360467,43.019932],[-107.360376,43.023559]]]}},{"type":"Feature","properties":{"sec":"10","frstdivid":"WY060350N0880W0SN100"},"geometry":{"type":"Polygon","coordinates":[[[-107.360376,43.023559],[-107.360467,43.019932],[-107.360559,43.016306],[-107.36065,43.01268],[-107.365634,43.012641],[-107.370618,43.012602],[-107.375603,43.012563],[-107.380587,43.012524],[-107.380402,43.016155],[-107.380218,43.019786],[-107.380034,43.023418],[-107.379849,43.027049],[-107.374958,43.027083],[-107.370067,43.027117],[-107.365176,43.027151],[-107.360285,43.027185],[-107.360376,43.023559]]]}},{"type":"Feature","properties":{"sec":"12","frstdivid":"WY060350N0880W0SN120"},"geometry":{"type":"Polygon","coordinates":[[[-107.325841,43.012656],[-107.330811,43.012657],[-107.335781,43.012657],[-107.340751,43.012658],[-107.340752,43.016287],[-107.340754,43.019917],[-107.340755,43.02046],[-107.340756,43.023546],[-107.340758,43.027175],[-107.335834,43.027184],[-107.330911,43.027193],[-107.325987,43.027202],[-107.321063,43.027211],[-107.321015,43.023572],[-107.320967,43.019933],[-107.320919,43.016295],[-107.320872,43.012656],[-107.325841,43.012656]]]}},{"type":"Feature","properties":{"sec":"03","frstdivid":"WY060350N0880W0SN030"},"geometry":{"type":"Polygon","coordinates":[[[-107.361011,43.04172],[-107.360829,43.038062],[-107.360649,43.034437],[-107.360467,43.030811],[-107.360285,43.027185],[-107.365176,43.027151],[-107.370067,43.027117],[-107.374958,43.027083],[-107.379849,43.027049],[-107.380117,43.03072],[-107.380385,43.03439],[-107.380656,43.03806],[-107.380923,43.041677],[-107.375945,43.041688],[-107.370967,43.041699],[-107.365989,43.041709],[-107.361011,43.04172]]]}},{"type":"Feature","properties":{"sec":"02","frstdivid":"WY060350N0880W0SN020"},"geometry":{"type":"Polygon","coordinates":[[[-107.360829,43.038062],[-107.361011,43.04172],[-107.356042,43.041726],[-107.351074,43.041733],[-107.346105,43.041739],[-107.341136,43.041745],[-107.341041,43.038062],[-107.340947,43.034433],[-107.340852,43.030804],[-107.340758,43.027175],[-107.34564,43.027178],[-107.350521,43.02718],[-107.355403,43.027182],[-107.360285,43.027185],[-107.360467,43.030811],[-107.360649,43.034437],[-107.360829,43.038062]]]}},{"type":"Feature","properties":{"sec":"06","frstdivid":"WY060350N0880W0SN060"},"geometry":{"type":"Polygon","coordinates":[[[-107.420064,43.041639],[-107.420154,43.037834],[-107.420246,43.033971],[-107.420335,43.030108],[-107.420425,43.026245],[-107.425225,43.026459],[-107.430025,43.026674],[-107.434826,43.026888],[-107.439626,43.027103],[-107.442958,43.027251],[-107.442962,43.027811],[-107.442981,43.030842],[-107.442985,43.031452],[-107.443003,43.03443],[-107.443007,43.035093],[-107.443025,43.038019],[-107.443029,43.03873],[-107.443047,43.041609],[-107.439634,43.041613],[-107.434742,43.04162],[-107.42985,43.041626],[-107.424957,43.041633],[-107.420064,43.041639]]]}}]}