{"type":"FeatureCollection","note":"BLM Public Land Survey System. Provided by the Bureau of Land Management as is. These data are neither legal documents nor land surveys and must not be used as such.","features":[{"type":"Feature","properties":{"sec":"02","frstdivid":"MT200030N0520E0SN020"},"geometry":{"type":"Polygon","coordinates":[[[-105.227843,46.034906],[-105.227832,46.038525],[-105.227822,46.042145],[-105.227812,46.045765],[-105.222607,46.045764],[-105.217403,46.045764],[-105.212198,46.045764],[-105.206994,46.045763],[-105.207007,46.042144],[-105.20702,46.038524],[-105.207033,46.034905],[-105.207046,46.031286],[-105.212248,46.031286],[-105.217449,46.031286],[-105.222651,46.031286],[-105.227853,46.031286],[-105.227843,46.034906]]]}},{"type":"Feature","properties":{"sec":"30","frstdivid":"MT200030N0520E0SN300"},"geometry":{"type":"Polygon","coordinates":[[[-105.311165,45.973372],[-105.31508,45.97337],[-105.31499,45.976305],[-105.314972,45.977016],[-105.314899,45.979865],[-105.314879,45.980662],[-105.314808,45.983424],[-105.314802,45.984308],[-105.314784,45.987001],[-105.314777,45.987955],[-105.310984,45.987951],[-105.305801,45.987943],[-105.300618,45.987935],[-105.295442,45.987919],[-105.290267,45.987903],[-105.290284,45.984275],[-105.290302,45.980648],[-105.290319,45.97702],[-105.290336,45.973393],[-105.295549,45.973386],[-105.300761,45.973379],[-105.305963,45.973375],[-105.311165,45.973372]]]}},{"type":"Feature","properties":{"sec":"33","frstdivid":"MT200030N0520E0SN330"},"geometry":{"type":"Polygon","coordinates":[[[-105.267108,45.961435],[-105.269547,45.961476],[-105.269542,45.966103],[-105.26954,45.969725],[-105.269539,45.973347],[-105.264354,45.97335],[-105.259169,45.973352],[-105.253985,45.973355],[-105.2488,45.973358],[-105.248807,45.969739],[-105.248815,45.96612],[-105.248825,45.961433],[-105.250974,45.961441],[-105.254006,45.961414],[-105.25637,45.961393],[-105.259187,45.961367],[-105.261766,45.961345],[-105.264367,45.961389],[-105.267108,45.961435]]]}},{"type":"Feature","properties":{"sec":"04","frstdivid":"MT200030N0520E0SN040"},"geometry":{"type":"Polygon","coordinates":[[[-105.253868,46.031289],[-105.259072,46.03129],[-105.264275,46.031292],[-105.269478,46.031293],[-105.269468,46.034913],[-105.269458,46.038534],[-105.269447,46.042154],[-105.269437,46.045774],[-105.264234,46.045773],[-105.259032,46.045771],[-105.253829,46.045769],[-105.248627,46.045768],[-105.248636,46.042148],[-105.248646,46.038527],[-105.248655,46.034907],[-105.248664,46.031287],[-105.253868,46.031289]]]}},{"type":"Feature","properties":{"sec":"31","frstdivid":"MT200030N0520E0SN310"},"geometry":{"type":"Polygon","coordinates":[[[-105.315405,45.961983],[-105.315311,45.965545],[-105.315289,45.966345],[-105.315217,45.969106],[-105.315193,45.969858],[-105.315101,45.972706],[-105.31508,45.97337],[-105.311165,45.973372],[-105.305963,45.973375],[-105.300761,45.973379],[-105.295549,45.973386],[-105.290336,45.973393],[-105.290331,45.969774],[-105.290325,45.966155],[-105.290323,45.961591],[-105.29397,45.961605],[-105.295604,45.961613],[-105.29932,45.961631],[-105.300886,45.961639],[-105.304669,45.961658],[-105.306167,45.961704],[-105.310268,45.961828],[-105.311444,45.961863],[-105.315405,45.961983]]]}},{"type":"Feature","properties":{"sec":"10","frstdivid":"MT200030N0520E0SN100"},"geometry":{"type":"Polygon","coordinates":[[[-105.238259,46.031286],[-105.233056,46.031286],[-105.227853,46.031286],[-105.227864,46.027667],[-105.227874,46.024048],[-105.227885,46.020429],[-105.227895,46.016811],[-105.233096,46.01681],[-105.238297,46.01681],[-105.243498,46.01681],[-105.248699,46.01681],[-105.248691,46.020429],[-105.248682,46.024049],[-105.248673,46.027668],[-105.248664,46.031287],[-105.243462,46.031287],[-105.238259,46.031286]]]}},{"type":"Feature","properties":{"sec":"19","frstdivid":"MT200030N0520E0SN190"},"geometry":{"type":"Polygon","coordinates":[[[-105.310984,45.987951],[-105.314777,45.987955],[-105.314757,45.990578],[-105.31475,45.991538],[-105.314729,45.99429],[-105.314722,45.995121],[-105.314702,45.998003],[-105.314691,45.998704],[-105.314647,46.001573],[-105.314636,46.002288],[-105.311085,46.00229],[-105.305889,46.002294],[-105.300694,46.002299],[-105.295496,46.002308],[-105.290298,46.002317],[-105.29029,45.998714],[-105.290282,45.99511],[-105.290274,45.991506],[-105.290267,45.987903],[-105.295442,45.987919],[-105.300618,45.987935],[-105.305801,45.987943],[-105.310984,45.987951]]]}},{"type":"Feature","properties":{"sec":"25","frstdivid":"MT200030N0520E0SN250"},"geometry":{"type":"Polygon","coordinates":[[[-105.20203,45.973334],[-105.207218,45.973344],[-105.207209,45.976967],[-105.2072,45.98059],[-105.20719,45.984213],[-105.207181,45.987837],[-105.201988,45.987829],[-105.196796,45.987822],[-105.191604,45.987814],[-105.186412,45.987807],[-105.186414,45.987171],[-105.186424,45.984181],[-105.186426,45.983545],[-105.186437,45.980555],[-105.186439,45.979919],[-105.186449,45.97693],[-105.186451,45.976293],[-105.186463,45.973305],[-105.191652,45.973314],[-105.196841,45.973324],[-105.20203,45.973334]]]}},{"type":"Feature","properties":{"sec":"27","frstdivid":"MT200030N0520E0SN270"},"geometry":{"type":"Polygon","coordinates":[[[-105.233173,45.987835],[-105.227975,45.987834],[-105.227986,45.984209],[-105.227997,45.980584],[-105.228008,45.976959],[-105.228019,45.973335],[-105.233214,45.97334],[-105.238409,45.973346],[-105.243605,45.973352],[-105.2488,45.973358],[-105.248791,45.976978],[-105.248783,45.980598],[-105.248774,45.984218],[-105.248766,45.987838],[-105.243568,45.987837],[-105.238371,45.987836],[-105.233173,45.987835]]]}},{"type":"Feature","properties":{"sec":"36","frstdivid":"MT200030N0520E0SN360"},"geometry":{"type":"Polygon","coordinates":[[[-105.186512,45.961159],[-105.191696,45.961185],[-105.191857,45.961186],[-105.196879,45.961211],[-105.197202,45.961213],[-105.202063,45.961238],[-105.202593,45.961241],[-105.207247,45.961265],[-105.207235,45.9661],[-105.207227,45.969722],[-105.207218,45.973344],[-105.20203,45.973334],[-105.196841,45.973324],[-105.191652,45.973314],[-105.186463,45.973305],[-105.186466,45.972668],[-105.186478,45.969679],[-105.186481,45.969044],[-105.186492,45.966053],[-105.186495,45.965418],[-105.18651,45.961792],[-105.186512,45.961159]]]}},{"type":"Feature","properties":{"sec":"13","frstdivid":"MT200030N0520E0SN130"},"geometry":{"type":"Polygon","coordinates":[[[-105.186294,46.016794],[-105.186297,46.016159],[-105.186309,46.013172],[-105.186312,46.012537],[-105.186324,46.009549],[-105.186327,46.008915],[-105.186339,46.005927],[-105.186342,46.005293],[-105.186354,46.002304],[-105.191551,46.002309],[-105.196749,46.002314],[-105.201946,46.00232],[-105.207143,46.002325],[-105.207131,46.005944],[-105.20712,46.009563],[-105.207108,46.013182],[-105.207096,46.016801],[-105.201895,46.016799],[-105.196695,46.016798],[-105.191495,46.016796],[-105.186294,46.016794]]]}},{"type":"Feature","properties":{"sec":"26","frstdivid":"MT200030N0520E0SN260"},"geometry":{"type":"Polygon","coordinates":[[[-105.228008,45.976959],[-105.227997,45.980584],[-105.227986,45.984209],[-105.227975,45.987834],[-105.222777,45.987835],[-105.217578,45.987835],[-105.212379,45.987836],[-105.207181,45.987837],[-105.20719,45.984213],[-105.2072,45.98059],[-105.207209,45.976967],[-105.207218,45.973344],[-105.212418,45.973341],[-105.217619,45.973339],[-105.222819,45.973337],[-105.228019,45.973335],[-105.228008,45.976959]]]}},{"type":"Feature","properties":{"sec":"15","frstdivid":"MT200030N0520E0SN150"},"geometry":{"type":"Polygon","coordinates":[[[-105.243534,46.002323],[-105.248735,46.002322],[-105.248726,46.005944],[-105.248717,46.009566],[-105.248708,46.013188],[-105.248699,46.01681],[-105.243498,46.01681],[-105.238297,46.01681],[-105.233096,46.01681],[-105.227895,46.016811],[-105.227904,46.01319],[-105.227913,46.009569],[-105.227922,46.005948],[-105.227931,46.002327],[-105.233132,46.002326],[-105.238333,46.002325],[-105.243534,46.002323]]]}},{"type":"Feature","properties":{"sec":"09","frstdivid":"MT200030N0520E0SN090"},"geometry":{"type":"Polygon","coordinates":[[[-105.248664,46.031287],[-105.248673,46.027668],[-105.248682,46.024049],[-105.248691,46.020429],[-105.248699,46.01681],[-105.253899,46.016807],[-105.259099,46.016804],[-105.264298,46.016802],[-105.269498,46.016799],[-105.269493,46.020422],[-105.269488,46.024046],[-105.269483,46.02767],[-105.269478,46.031293],[-105.264275,46.031292],[-105.259072,46.03129],[-105.253868,46.031289],[-105.248664,46.031287]]]}},{"type":"Feature","properties":{"sec":"08","frstdivid":"MT200030N0520E0SN080"},"geometry":{"type":"Polygon","coordinates":[[[-105.274682,46.031297],[-105.269478,46.031293],[-105.269483,46.02767],[-105.269488,46.024046],[-105.269493,46.020422],[-105.269498,46.016799],[-105.274698,46.016802],[-105.279898,46.016804],[-105.285098,46.016807],[-105.290297,46.01681],[-105.290296,46.020434],[-105.290295,46.024059],[-105.290293,46.027684],[-105.290292,46.031308],[-105.285089,46.031304],[-105.279885,46.031301],[-105.274682,46.031297]]]}},{"type":"Feature","properties":{"sec":"29","frstdivid":"MT200030N0520E0SN290"},"geometry":{"type":"Polygon","coordinates":[[[-105.290336,45.973393],[-105.290319,45.97702],[-105.290302,45.980648],[-105.290284,45.984275],[-105.290267,45.987903],[-105.285079,45.987886],[-105.279891,45.98787],[-105.274703,45.987853],[-105.269515,45.987837],[-105.269521,45.984214],[-105.269527,45.980592],[-105.269533,45.976969],[-105.269539,45.973347],[-105.274738,45.973358],[-105.279937,45.97337],[-105.285137,45.973381],[-105.290336,45.973393]]]}},{"type":"Feature","properties":{"sec":"18","frstdivid":"MT200030N0520E0SN180"},"geometry":{"type":"Polygon","coordinates":[[[-105.311085,46.00229],[-105.314636,46.002288],[-105.314594,46.005144],[-105.314586,46.005919],[-105.314558,46.008771],[-105.31455,46.00955],[-105.314522,46.012398],[-105.314514,46.013181],[-105.314483,46.016027],[-105.314475,46.016812],[-105.311082,46.016812],[-105.305886,46.016812],[-105.300691,46.016811],[-105.295494,46.016811],[-105.290297,46.01681],[-105.290298,46.013187],[-105.290298,46.009564],[-105.290298,46.00594],[-105.290298,46.002317],[-105.295496,46.002308],[-105.300694,46.002299],[-105.305889,46.002294],[-105.311085,46.00229]]]}},{"type":"Feature","properties":{"sec":"12","frstdivid":"MT200030N0520E0SN120"},"geometry":{"type":"Polygon","coordinates":[[[-105.186263,46.024037],[-105.186266,46.023403],[-105.186279,46.020416],[-105.186282,46.019781],[-105.186294,46.016794],[-105.191495,46.016796],[-105.196695,46.016798],[-105.201895,46.016799],[-105.207096,46.016801],[-105.207083,46.020422],[-105.207071,46.024043],[-105.207058,46.027664],[-105.207046,46.031286],[-105.201842,46.031284],[-105.196638,46.031283],[-105.191435,46.031282],[-105.186231,46.031281],[-105.186234,46.030646],[-105.186247,46.027659],[-105.18625,46.027025],[-105.186263,46.024037]]]}},{"type":"Feature","properties":{"sec":"32","frstdivid":"MT200030N0520E0SN320"},"geometry":{"type":"Polygon","coordinates":[[[-105.288575,45.961585],[-105.290323,45.961591],[-105.290325,45.966155],[-105.290331,45.969774],[-105.290336,45.973393],[-105.285137,45.973381],[-105.279937,45.97337],[-105.274738,45.973358],[-105.269539,45.973347],[-105.26954,45.969725],[-105.269542,45.966103],[-105.269547,45.961476],[-105.27245,45.961525],[-105.274741,45.961534],[-105.277815,45.961545],[-105.279935,45.961552],[-105.28318,45.961565],[-105.285129,45.961572],[-105.288575,45.961585]]]}},{"type":"Feature","properties":{"sec":"14","frstdivid":"MT200030N0520E0SN140"},"geometry":{"type":"Polygon","coordinates":[[[-105.222734,46.002327],[-105.227931,46.002327],[-105.227922,46.005948],[-105.227913,46.009569],[-105.227904,46.01319],[-105.227895,46.016811],[-105.222695,46.016808],[-105.217495,46.016806],[-105.212295,46.016803],[-105.207096,46.016801],[-105.207108,46.013182],[-105.20712,46.009563],[-105.207131,46.005944],[-105.207143,46.002325],[-105.21234,46.002325],[-105.217537,46.002326],[-105.222734,46.002327]]]}},{"type":"Feature","properties":{"sec":"16","frstdivid":"MT200030N0520E0SN160"},"geometry":{"type":"Polygon","coordinates":[[[-105.264313,46.002311],[-105.269506,46.002308],[-105.269504,46.005931],[-105.269502,46.009553],[-105.2695,46.013176],[-105.269498,46.016799],[-105.264298,46.016802],[-105.259099,46.016804],[-105.253899,46.016807],[-105.248699,46.01681],[-105.248708,46.013188],[-105.248717,46.009566],[-105.248726,46.005944],[-105.248735,46.002322],[-105.253928,46.002318],[-105.25912,46.002315],[-105.264313,46.002311]]]}},{"type":"Feature","properties":{"sec":"20","frstdivid":"MT200030N0520E0SN200"},"geometry":{"type":"Polygon","coordinates":[[[-105.2851,46.002315],[-105.279902,46.002313],[-105.274704,46.00231],[-105.269506,46.002308],[-105.269508,45.99869],[-105.269511,45.995072],[-105.269513,45.991454],[-105.269515,45.987837],[-105.274703,45.987853],[-105.279891,45.98787],[-105.285079,45.987886],[-105.290267,45.987903],[-105.290274,45.991506],[-105.290282,45.99511],[-105.29029,45.998714],[-105.290298,46.002317],[-105.2851,46.002315]]]}},{"type":"Feature","properties":{"sec":"34","frstdivid":"MT200030N0520E0SN340"},"geometry":{"type":"Polygon","coordinates":[[[-105.228058,45.961351],[-105.229496,45.961358],[-105.233249,45.961374],[-105.234857,45.961381],[-105.238441,45.961397],[-105.240219,45.961405],[-105.243633,45.961416],[-105.245596,45.961423],[-105.248825,45.961433],[-105.248815,45.96612],[-105.248807,45.969739],[-105.2488,45.973358],[-105.243605,45.973352],[-105.238409,45.973346],[-105.233214,45.97334],[-105.228019,45.973335],[-105.228031,45.96972],[-105.228043,45.966106],[-105.228058,45.961351]]]}},{"type":"Feature","properties":{"sec":"28","frstdivid":"MT200030N0520E0SN280"},"geometry":{"type":"Polygon","coordinates":[[[-105.269539,45.973347],[-105.269533,45.976969],[-105.269527,45.980592],[-105.269521,45.984214],[-105.269515,45.987837],[-105.264328,45.987837],[-105.259141,45.987837],[-105.253953,45.987838],[-105.248766,45.987838],[-105.248774,45.984218],[-105.248783,45.980598],[-105.248791,45.976978],[-105.2488,45.973358],[-105.253985,45.973355],[-105.259169,45.973352],[-105.264354,45.97335],[-105.269539,45.973347]]]}},{"type":"Feature","properties":{"sec":"35","frstdivid":"MT200030N0520E0SN350"},"geometry":{"type":"Polygon","coordinates":[[[-105.222819,45.973337],[-105.217619,45.973339],[-105.212418,45.973341],[-105.207218,45.973344],[-105.207227,45.969722],[-105.207235,45.9661],[-105.207247,45.961265],[-105.207984,45.961269],[-105.21245,45.961286],[-105.213356,45.96129],[-105.217652,45.961306],[-105.218728,45.96131],[-105.222855,45.961328],[-105.224112,45.961334],[-105.228058,45.961351],[-105.228043,45.966106],[-105.228031,45.96972],[-105.228019,45.973335],[-105.222819,45.973337]]]}},{"type":"Feature","properties":{"sec":"07","frstdivid":"MT200030N0520E0SN070"},"geometry":{"type":"Polygon","coordinates":[[[-105.290295,46.024059],[-105.290296,46.020434],[-105.290297,46.01681],[-105.295494,46.016811],[-105.300691,46.016811],[-105.305886,46.016812],[-105.311082,46.016812],[-105.314475,46.016812],[-105.314445,46.019655],[-105.314438,46.020441],[-105.314413,46.023285],[-105.314406,46.024069],[-105.314381,46.026915],[-105.314374,46.027698],[-105.314349,46.030519],[-105.314342,46.031326],[-105.311108,46.031325],[-105.305907,46.031322],[-105.300705,46.031319],[-105.295499,46.031314],[-105.290292,46.031308],[-105.290293,46.027684],[-105.290295,46.024059]]]}},{"type":"Feature","properties":{"sec":"06","frstdivid":"MT200030N0520E0SN060"},"geometry":{"type":"Polygon","coordinates":[[[-105.290264,46.038546],[-105.290278,46.034927],[-105.290292,46.031308],[-105.295499,46.031314],[-105.300705,46.031319],[-105.305907,46.031322],[-105.311108,46.031325],[-105.314342,46.031326],[-105.31432,46.034122],[-105.314312,46.034941],[-105.314285,46.037734],[-105.314277,46.038557],[-105.314249,46.041346],[-105.314242,46.042172],[-105.314218,46.044951],[-105.31421,46.045787],[-105.311022,46.045787],[-105.305825,46.045786],[-105.300629,46.045786],[-105.295433,46.045785],[-105.290237,46.045784],[-105.290251,46.042165],[-105.290264,46.038546]]]}},{"type":"Feature","properties":{"sec":"24","frstdivid":"MT200030N0520E0SN240"},"geometry":{"type":"Polygon","coordinates":[[[-105.186357,46.001669],[-105.186369,45.99868],[-105.186372,45.998045],[-105.186384,45.995055],[-105.186386,45.99442],[-105.186399,45.991431],[-105.186401,45.990796],[-105.186412,45.987807],[-105.191604,45.987814],[-105.196796,45.987822],[-105.201988,45.987829],[-105.207181,45.987837],[-105.207171,45.991459],[-105.207162,45.995081],[-105.207153,45.998703],[-105.207143,46.002325],[-105.201946,46.00232],[-105.196749,46.002314],[-105.191551,46.002309],[-105.186354,46.002304],[-105.186357,46.001669]]]}},{"type":"Feature","properties":{"sec":"11","frstdivid":"MT200030N0520E0SN110"},"geometry":{"type":"Polygon","coordinates":[[[-105.207096,46.016801],[-105.212295,46.016803],[-105.217495,46.016806],[-105.222695,46.016808],[-105.227895,46.016811],[-105.227885,46.020429],[-105.227874,46.024048],[-105.227864,46.027667],[-105.227853,46.031286],[-105.222651,46.031286],[-105.217449,46.031286],[-105.212248,46.031286],[-105.207046,46.031286],[-105.207058,46.027664],[-105.207071,46.024043],[-105.207083,46.020422],[-105.207096,46.016801]]]}},{"type":"Feature","properties":{"sec":"05","frstdivid":"MT200030N0520E0SN050"},"geometry":{"type":"Polygon","coordinates":[[[-105.290237,46.045784],[-105.285037,46.045781],[-105.279837,46.045779],[-105.274637,46.045776],[-105.269437,46.045774],[-105.269447,46.042154],[-105.269458,46.038534],[-105.269468,46.034913],[-105.269478,46.031293],[-105.274682,46.031297],[-105.279885,46.031301],[-105.285089,46.031304],[-105.290292,46.031308],[-105.290278,46.034927],[-105.290264,46.038546],[-105.290251,46.042165],[-105.290237,46.045784]]]}},{"type":"Feature","properties":{"sec":"22","frstdivid":"MT200030N0520E0SN220"},"geometry":{"type":"Polygon","coordinates":[[[-105.238333,46.002325],[-105.233132,46.002326],[-105.227931,46.002327],[-105.227942,45.998704],[-105.227953,45.995081],[-105.227964,45.991457],[-105.227975,45.987834],[-105.233173,45.987835],[-105.238371,45.987836],[-105.243568,45.987837],[-105.248766,45.987838],[-105.248758,45.991459],[-105.24875,45.99508],[-105.248742,45.998701],[-105.248735,46.002322],[-105.243534,46.002323],[-105.238333,46.002325]]]}},{"type":"Feature","properties":{"sec":"03","frstdivid":"MT200030N0520E0SN030"},"geometry":{"type":"Polygon","coordinates":[[[-105.248655,46.034907],[-105.248646,46.038527],[-105.248636,46.042148],[-105.248627,46.045768],[-105.243423,46.045767],[-105.238219,46.045766],[-105.233015,46.045765],[-105.227812,46.045765],[-105.227822,46.042145],[-105.227832,46.038525],[-105.227843,46.034906],[-105.227853,46.031286],[-105.233056,46.031286],[-105.238259,46.031286],[-105.243462,46.031287],[-105.248664,46.031287],[-105.248655,46.034907]]]}},{"type":"Feature","properties":{"sec":"21","frstdivid":"MT200030N0520E0SN210"},"geometry":{"type":"Polygon","coordinates":[[[-105.253953,45.987838],[-105.259141,45.987837],[-105.264328,45.987837],[-105.269515,45.987837],[-105.269513,45.991454],[-105.269511,45.995072],[-105.269508,45.99869],[-105.269506,46.002308],[-105.264313,46.002311],[-105.25912,46.002315],[-105.253928,46.002318],[-105.248735,46.002322],[-105.248742,45.998701],[-105.24875,45.99508],[-105.248758,45.991459],[-105.248766,45.987838],[-105.253953,45.987838]]]}},{"type":"Feature","properties":{"sec":"23","frstdivid":"MT200030N0520E0SN230"},"geometry":{"type":"Polygon","coordinates":[[[-105.222777,45.987835],[-105.227975,45.987834],[-105.227964,45.991457],[-105.227953,45.995081],[-105.227942,45.998704],[-105.227931,46.002327],[-105.222734,46.002327],[-105.217537,46.002326],[-105.21234,46.002325],[-105.207143,46.002325],[-105.207153,45.998703],[-105.207162,45.995081],[-105.207171,45.991459],[-105.207181,45.987837],[-105.212379,45.987836],[-105.217578,45.987835],[-105.222777,45.987835]]]}},{"type":"Feature","properties":{"sec":"17","frstdivid":"MT200030N0520E0SN170"},"geometry":{"type":"Polygon","coordinates":[[[-105.290298,46.00594],[-105.290298,46.009564],[-105.290298,46.013187],[-105.290297,46.01681],[-105.285098,46.016807],[-105.279898,46.016804],[-105.274698,46.016802],[-105.269498,46.016799],[-105.2695,46.013176],[-105.269502,46.009553],[-105.269504,46.005931],[-105.269506,46.002308],[-105.274704,46.00231],[-105.279902,46.002313],[-105.2851,46.002315],[-105.290298,46.002317],[-105.290298,46.00594]]]}},{"type":"Feature","properties":{"sec":"01","frstdivid":"MT200030N0520E0SN010"},"geometry":{"type":"Polygon","coordinates":[[[-105.207046,46.031286],[-105.207033,46.034905],[-105.20702,46.038524],[-105.207007,46.042144],[-105.206994,46.045763],[-105.201788,46.045762],[-105.196582,46.045761],[-105.191377,46.04576],[-105.186171,46.045759],[-105.186186,46.04214],[-105.186189,46.041506],[-105.1862,46.03852],[-105.186203,46.037887],[-105.186216,46.034901],[-105.186218,46.034267],[-105.186231,46.031281],[-105.191435,46.031282],[-105.196638,46.031283],[-105.201842,46.031284],[-105.207046,46.031286]]]}}]}