{"type":"FeatureCollection","note":"BLM Public Land Survey System. Provided by the Bureau of Land Management as is. These data are neither legal documents nor land surveys and must not be used as such.","features":[{"type":"Feature","properties":{"sec":"28","frstdivid":"WY060480N0870W0SN280"},"geometry":{"type":"Polygon","coordinates":[[[-107.310058,44.102396],[-107.310058,44.102351],[-107.31005,44.0988],[-107.31005,44.09875],[-107.310006,44.095178],[-107.309961,44.091555],[-107.315011,44.09155],[-107.320061,44.091545],[-107.32511,44.09154],[-107.33016,44.091535],[-107.330174,44.095158],[-107.330188,44.098781],[-107.330202,44.102405],[-107.330216,44.106028],[-107.325183,44.106019],[-107.320149,44.10601],[-107.315116,44.106001],[-107.310082,44.105992],[-107.310058,44.102396]]]}},{"type":"Feature","properties":{"sec":"23","frstdivid":"WY060480N0870W0SN230"},"geometry":{"type":"Polygon","coordinates":[[[-107.269872,44.113205],[-107.269855,44.109582],[-107.269837,44.105958],[-107.274872,44.105967],[-107.279908,44.105975],[-107.284943,44.105984],[-107.289978,44.105992],[-107.289987,44.109612],[-107.289995,44.113185],[-107.289995,44.113232],[-107.290005,44.11679],[-107.290005,44.116854],[-107.290015,44.120475],[-107.289426,44.120475],[-107.284987,44.120469],[-107.284401,44.120469],[-107.27996,44.120463],[-107.279376,44.120463],[-107.274933,44.120457],[-107.274351,44.120457],[-107.269906,44.120452],[-107.269906,44.120356],[-107.269889,44.116828],[-107.269872,44.113205]]]}},{"type":"Feature","properties":{"sec":"20","frstdivid":"WY060480N0870W0SN200"},"geometry":{"type":"Polygon","coordinates":[[[-107.350309,44.106016],[-107.350314,44.109636],[-107.350319,44.113255],[-107.350325,44.116835],[-107.350325,44.116875],[-107.350335,44.120366],[-107.350336,44.120495],[-107.349747,44.120495],[-107.345309,44.120499],[-107.344724,44.120499],[-107.340283,44.120502],[-107.339704,44.120503],[-107.335257,44.120506],[-107.334679,44.120506],[-107.330231,44.120509],[-107.33023,44.120381],[-107.330226,44.11689],[-107.330226,44.116806],[-107.330221,44.113271],[-107.330221,44.113231],[-107.330219,44.109649],[-107.330216,44.106028],[-107.334656,44.106025],[-107.335239,44.106025],[-107.339672,44.106021],[-107.340262,44.106021],[-107.344709,44.106018],[-107.345286,44.106018],[-107.350309,44.106016]]]}},{"type":"Feature","properties":{"sec":"11","frstdivid":"WY060480N0870W0SN110"},"geometry":{"type":"Polygon","coordinates":[[[-107.290028,44.134956],[-107.290032,44.138366],[-107.290032,44.138576],[-107.290035,44.141968],[-107.290035,44.142195],[-107.290039,44.145572],[-107.290039,44.145814],[-107.290043,44.149174],[-107.290044,44.149432],[-107.289465,44.149432],[-107.285013,44.14943],[-107.279982,44.149428],[-107.274952,44.149425],[-107.269921,44.149423],[-107.269916,44.145802],[-107.269916,44.145524],[-107.269915,44.142181],[-107.269916,44.138559],[-107.269917,44.134937],[-107.274375,44.134942],[-107.274945,44.134942],[-107.279396,44.134947],[-107.279973,44.134948],[-107.284422,44.134952],[-107.285001,44.134952],[-107.289448,44.134956],[-107.290028,44.134956]]]}},{"type":"Feature","properties":{"sec":"24","frstdivid":"WY060480N0870W0SN240"},"geometry":{"type":"Polygon","coordinates":[[[-107.264878,44.120439],[-107.259851,44.120425],[-107.254824,44.120405],[-107.250987,44.120392],[-107.250816,44.11677],[-107.250646,44.113148],[-107.250476,44.109526],[-107.250305,44.105904],[-107.25476,44.105912],[-107.259785,44.105921],[-107.264811,44.10594],[-107.269837,44.105958],[-107.269855,44.109582],[-107.269872,44.113205],[-107.269889,44.116828],[-107.269906,44.120356],[-107.269906,44.120452],[-107.269325,44.120452],[-107.264878,44.120439]]]}},{"type":"Feature","properties":{"sec":"17","frstdivid":"WY060480N0870W0SN170"},"geometry":{"type":"Polygon","coordinates":[[[-107.335289,44.13499],[-107.330261,44.134989],[-107.330261,44.134841],[-107.330257,44.131369],[-107.330253,44.127749],[-107.330252,44.127438],[-107.330242,44.124129],[-107.330241,44.123943],[-107.330231,44.120509],[-107.334679,44.120506],[-107.335257,44.120506],[-107.339704,44.120503],[-107.340283,44.120502],[-107.344724,44.120499],[-107.345309,44.120499],[-107.349747,44.120495],[-107.350336,44.120495],[-107.350341,44.123898],[-107.350342,44.124115],[-107.350348,44.127429],[-107.350348,44.127735],[-107.350362,44.131355],[-107.350375,44.134975],[-107.345345,44.134983],[-107.340316,44.134991],[-107.339725,44.134991],[-107.335289,44.13499]]]}},{"type":"Feature","properties":{"sec":"12","frstdivid":"WY060480N0870W0SN120"},"geometry":{"type":"Polygon","coordinates":[[[-107.269916,44.138559],[-107.269915,44.142181],[-107.269916,44.145524],[-107.269916,44.145802],[-107.269921,44.149423],[-107.264889,44.149406],[-107.259858,44.14939],[-107.254828,44.149374],[-107.252102,44.149367],[-107.251961,44.145745],[-107.25182,44.142124],[-107.251678,44.138502],[-107.251537,44.134881],[-107.254835,44.134887],[-107.259862,44.134899],[-107.264889,44.134919],[-107.269349,44.134937],[-107.269917,44.134937],[-107.269916,44.138559]]]}},{"type":"Feature","properties":{"sec":"16","frstdivid":"WY060480N0870W0SN160"},"geometry":{"type":"Polygon","coordinates":[[[-107.330253,44.127749],[-107.330257,44.131369],[-107.330261,44.134841],[-107.330261,44.134989],[-107.329668,44.134989],[-107.325232,44.134984],[-107.320203,44.134978],[-107.315173,44.134972],[-107.310144,44.134966],[-107.310144,44.134812],[-107.310143,44.131345],[-107.310143,44.131101],[-107.31014,44.127725],[-107.310135,44.124103],[-107.310131,44.120481],[-107.315158,44.120492],[-107.320184,44.120502],[-107.324604,44.120505],[-107.325208,44.120505],[-107.329642,44.120509],[-107.330231,44.120509],[-107.330241,44.123943],[-107.330242,44.124129],[-107.330252,44.127438],[-107.330253,44.127749]]]}},{"type":"Feature","properties":{"sec":"01","frstdivid":"WY060480N0870W0SN010"},"geometry":{"type":"Polygon","coordinates":[[[-107.25993,44.167209],[-107.255166,44.167131],[-107.254907,44.167127],[-107.252879,44.167095],[-107.252738,44.163848],[-107.252579,44.160227],[-107.252421,44.156607],[-107.252262,44.152987],[-107.252102,44.149367],[-107.254828,44.149374],[-107.259858,44.14939],[-107.264889,44.149406],[-107.269921,44.149423],[-107.26994,44.153044],[-107.269959,44.156666],[-107.269965,44.160287],[-107.269971,44.163909],[-107.269977,44.167365],[-107.265014,44.167293],[-107.264954,44.167292],[-107.26009,44.167212],[-107.25993,44.167209]]]}},{"type":"Feature","properties":{"sec":"18","frstdivid":"WY060480N0870W0SN180"},"geometry":{"type":"Polygon","coordinates":[[[-107.350348,44.127735],[-107.350348,44.127429],[-107.350342,44.124115],[-107.350341,44.123898],[-107.350336,44.120495],[-107.354763,44.120484],[-107.355361,44.120481],[-107.360387,44.12046],[-107.365413,44.120441],[-107.369829,44.120442],[-107.369838,44.124063],[-107.369838,44.124074],[-107.369847,44.12743],[-107.369847,44.127684],[-107.369847,44.127705],[-107.369846,44.131305],[-107.369846,44.131337],[-107.369845,44.134833],[-107.369845,44.134925],[-107.369845,44.134969],[-107.365456,44.134949],[-107.360429,44.134954],[-107.355402,44.134964],[-107.350375,44.134975],[-107.350362,44.131355],[-107.350348,44.127735]]]}},{"type":"Feature","properties":{"sec":"05","frstdivid":"WY060480N0870W0SN050"},"geometry":{"type":"Polygon","coordinates":[[[-107.335352,44.167722],[-107.335217,44.167723],[-107.330405,44.167712],[-107.33032,44.167712],[-107.330312,44.163974],[-107.330305,44.160351],[-107.330305,44.160051],[-107.330295,44.156729],[-107.330278,44.153103],[-107.330261,44.149478],[-107.334691,44.149471],[-107.335304,44.14947],[-107.339718,44.149465],[-107.340347,44.149465],[-107.344745,44.149461],[-107.345389,44.14946],[-107.349773,44.149456],[-107.350431,44.149456],[-107.350433,44.153076],[-107.350435,44.156696],[-107.350439,44.160315],[-107.350443,44.163935],[-107.350447,44.167676],[-107.345479,44.167686],[-107.345415,44.167686],[-107.345185,44.167687],[-107.340454,44.167704],[-107.340384,44.167704],[-107.33543,44.167722],[-107.335352,44.167722]]]}},{"type":"Feature","properties":{"sec":"36","frstdivid":"WY060480N0870W0SN360"},"geometry":{"type":"Polygon","coordinates":[[[-107.258954,44.076958],[-107.259191,44.076957],[-107.264029,44.076957],[-107.264366,44.076956],[-107.268125,44.076955],[-107.269104,44.076953],[-107.269541,44.076956],[-107.269578,44.080581],[-107.269615,44.084206],[-107.269652,44.087831],[-107.269689,44.091456],[-107.264661,44.091445],[-107.259633,44.091434],[-107.254607,44.091429],[-107.249581,44.091423],[-107.249387,44.087804],[-107.249192,44.084185],[-107.249016,44.080565],[-107.248841,44.076945],[-107.253897,44.076952],[-107.254016,44.076952],[-107.258954,44.076958]]]}},{"type":"Feature","properties":{"sec":"34","frstdivid":"WY060480N0870W0SN340"},"geometry":{"type":"Polygon","coordinates":[[[-107.30968,44.087937],[-107.309961,44.091555],[-107.304927,44.091544],[-107.299893,44.091533],[-107.294859,44.091523],[-107.289825,44.091512],[-107.289789,44.087892],[-107.289754,44.084272],[-107.289718,44.080652],[-107.289682,44.077032],[-107.294115,44.077039],[-107.294539,44.07704],[-107.29889,44.077047],[-107.299397,44.077048],[-107.30387,44.077057],[-107.304254,44.077058],[-107.306664,44.077063],[-107.308851,44.077068],[-107.309112,44.077069],[-107.309255,44.0807],[-107.309398,44.08432],[-107.30968,44.087937]]]}},{"type":"Feature","properties":{"sec":"26","frstdivid":"WY060480N0870W0SN260"},"geometry":{"type":"Polygon","coordinates":[[[-107.289902,44.098752],[-107.28994,44.102372],[-107.289978,44.105992],[-107.284943,44.105984],[-107.279908,44.105975],[-107.274872,44.105967],[-107.269837,44.105958],[-107.2698,44.102333],[-107.269763,44.098707],[-107.269726,44.095082],[-107.269689,44.091456],[-107.274723,44.09147],[-107.279757,44.091484],[-107.284791,44.091498],[-107.289825,44.091512],[-107.289863,44.095132],[-107.289902,44.098752]]]}},{"type":"Feature","properties":{"sec":"07","frstdivid":"WY060480N0870W0SN070"},"geometry":{"type":"Polygon","coordinates":[[[-107.369863,44.145831],[-107.369863,44.145854],[-107.369866,44.149202],[-107.369866,44.149452],[-107.365513,44.149425],[-107.360486,44.149431],[-107.355459,44.149444],[-107.350431,44.149456],[-107.350417,44.145836],[-107.350403,44.142215],[-107.350389,44.138595],[-107.350375,44.134975],[-107.355402,44.134964],[-107.360429,44.134954],[-107.365456,44.134949],[-107.369845,44.134969],[-107.369854,44.138568],[-107.369854,44.138589],[-107.369863,44.142013],[-107.369863,44.142211],[-107.369863,44.145831]]]}},{"type":"Feature","properties":{"sec":"33","frstdivid":"WY060480N0870W0SN330"},"geometry":{"type":"Polygon","coordinates":[[[-107.31951,44.077094],[-107.31964,44.077094],[-107.324839,44.077091],[-107.324905,44.077091],[-107.330169,44.077087],[-107.33017,44.080673],[-107.33017,44.084294],[-107.33017,44.084308],[-107.330159,44.087911],[-107.330159,44.087915],[-107.33016,44.091535],[-107.32511,44.09154],[-107.320061,44.091545],[-107.315011,44.09155],[-107.309961,44.091555],[-107.30968,44.087937],[-107.309398,44.08432],[-107.309255,44.0807],[-107.309112,44.077069],[-107.31418,44.077081],[-107.314376,44.077082],[-107.31951,44.077094]]]}},{"type":"Feature","properties":{"sec":"32","frstdivid":"WY060480N0870W0SN320"},"geometry":{"type":"Polygon","coordinates":[[[-107.345611,44.077096],[-107.350488,44.077106],[-107.350467,44.080684],[-107.350446,44.084304],[-107.350404,44.087923],[-107.350362,44.091543],[-107.345311,44.091541],[-107.340261,44.091539],[-107.33521,44.091537],[-107.33016,44.091535],[-107.330159,44.087915],[-107.330159,44.087911],[-107.33017,44.084308],[-107.33017,44.084294],[-107.33017,44.080673],[-107.330169,44.077087],[-107.335248,44.077086],[-107.335367,44.077086],[-107.335895,44.077087],[-107.340326,44.077086],[-107.340566,44.077087],[-107.345407,44.077095],[-107.345611,44.077096]]]}},{"type":"Feature","properties":{"sec":"31","frstdivid":"WY060480N0870W0SN310"},"geometry":{"type":"Polygon","coordinates":[[[-107.350488,44.077106],[-107.350656,44.077107],[-107.355515,44.077112],[-107.355746,44.077112],[-107.360543,44.077118],[-107.360836,44.077118],[-107.365572,44.077126],[-107.365908,44.077126],[-107.370267,44.077133],[-107.370196,44.080728],[-107.370125,44.084324],[-107.370007,44.087925],[-107.369889,44.091526],[-107.365461,44.091526],[-107.360432,44.091532],[-107.355397,44.091537],[-107.350362,44.091543],[-107.350404,44.087923],[-107.350446,44.084304],[-107.350467,44.080684],[-107.350488,44.077106]]]}},{"type":"Feature","properties":{"sec":"35","frstdivid":"WY060480N0870W0SN350"},"geometry":{"type":"Polygon","coordinates":[[[-107.289718,44.080652],[-107.289754,44.084272],[-107.289789,44.087892],[-107.289825,44.091512],[-107.284791,44.091498],[-107.279757,44.091484],[-107.274723,44.09147],[-107.269689,44.091456],[-107.269652,44.087831],[-107.269615,44.084206],[-107.269578,44.080581],[-107.269541,44.076956],[-107.274144,44.076978],[-107.274576,44.07698],[-107.279183,44.077003],[-107.279611,44.077005],[-107.284262,44.077018],[-107.284647,44.077019],[-107.288105,44.077029],[-107.28934,44.077031],[-107.289682,44.077032],[-107.289718,44.080652]]]}},{"type":"Feature","properties":{"sec":"10","frstdivid":"WY060480N0870W0SN100"},"geometry":{"type":"Polygon","coordinates":[[[-107.305115,44.134962],[-107.309556,44.134966],[-107.310144,44.134966],[-107.310147,44.138588],[-107.31015,44.14221],[-107.310153,44.145832],[-107.310156,44.149454],[-107.305129,44.149448],[-107.304552,44.149448],[-107.300101,44.149448],[-107.299531,44.149447],[-107.295072,44.14944],[-107.294505,44.149439],[-107.290044,44.149432],[-107.290043,44.149174],[-107.290039,44.145814],[-107.290039,44.145572],[-107.290035,44.142195],[-107.290035,44.141968],[-107.290032,44.138576],[-107.290032,44.138366],[-107.290028,44.134956],[-107.294475,44.134957],[-107.295057,44.134957],[-107.300086,44.134957],[-107.30453,44.134962],[-107.305115,44.134962]]]}},{"type":"Feature","properties":{"sec":"19","frstdivid":"WY060480N0870W0SN190"},"geometry":{"type":"Polygon","coordinates":[[[-107.355361,44.120481],[-107.354763,44.120484],[-107.350336,44.120495],[-107.350335,44.120366],[-107.350325,44.116875],[-107.350325,44.116835],[-107.350319,44.113255],[-107.350314,44.109636],[-107.350309,44.106016],[-107.355339,44.105993],[-107.360368,44.10597],[-107.365395,44.105949],[-107.369839,44.105942],[-107.369825,44.109584],[-107.369813,44.113227],[-107.369821,44.116835],[-107.369829,44.120442],[-107.365413,44.120441],[-107.360387,44.12046],[-107.355361,44.120481]]]}},{"type":"Feature","properties":{"sec":"15","frstdivid":"WY060480N0870W0SN150"},"geometry":{"type":"Polygon","coordinates":[[[-107.294463,44.120481],[-107.295043,44.120482],[-107.299489,44.120487],[-107.300072,44.120486],[-107.305101,44.120484],[-107.310131,44.120481],[-107.310135,44.124103],[-107.31014,44.127725],[-107.310143,44.131101],[-107.310143,44.131345],[-107.310144,44.134812],[-107.310144,44.134966],[-107.309556,44.134966],[-107.305115,44.134962],[-107.30453,44.134962],[-107.300086,44.134957],[-107.295057,44.134957],[-107.294475,44.134957],[-107.290028,44.134956],[-107.290021,44.131337],[-107.290013,44.127718],[-107.290013,44.127359],[-107.290014,44.124097],[-107.290015,44.120475],[-107.294463,44.120481]]]}},{"type":"Feature","properties":{"sec":"29","frstdivid":"WY060480N0870W0SN290"},"geometry":{"type":"Polygon","coordinates":[[[-107.340262,44.106021],[-107.339672,44.106021],[-107.335239,44.106025],[-107.334656,44.106025],[-107.330216,44.106028],[-107.330202,44.102405],[-107.330188,44.098781],[-107.330174,44.095158],[-107.33016,44.091535],[-107.33521,44.091537],[-107.340261,44.091539],[-107.345311,44.091541],[-107.350362,44.091543],[-107.350349,44.095161],[-107.350336,44.098779],[-107.350322,44.102398],[-107.350309,44.106016],[-107.345286,44.106018],[-107.344709,44.106018],[-107.340262,44.106021]]]}},{"type":"Feature","properties":{"sec":"03","frstdivid":"WY060480N0870W0SN030"},"geometry":{"type":"Polygon","coordinates":[[[-107.310186,44.163938],[-107.310217,44.167501],[-107.305277,44.167444],[-107.305183,44.167443],[-107.304832,44.167438],[-107.300243,44.167431],[-107.300148,44.167431],[-107.295209,44.167424],[-107.295114,44.167423],[-107.294746,44.167423],[-107.290176,44.167508],[-107.290082,44.167509],[-107.290075,44.16391],[-107.290069,44.16029],[-107.290069,44.15998],[-107.290063,44.156671],[-107.290062,44.156378],[-107.290053,44.153052],[-107.290053,44.152776],[-107.290044,44.149432],[-107.294505,44.149439],[-107.295072,44.14944],[-107.299531,44.149447],[-107.300101,44.149448],[-107.304552,44.149448],[-107.305129,44.149448],[-107.310156,44.149454],[-107.310165,44.153075],[-107.310173,44.156392],[-107.310173,44.156696],[-107.310179,44.160008],[-107.31018,44.160317],[-107.310186,44.163634],[-107.310186,44.163938]]]}},{"type":"Feature","properties":{"sec":"14","frstdivid":"WY060480N0870W0SN140"},"geometry":{"type":"Polygon","coordinates":[[[-107.279376,44.120463],[-107.27996,44.120463],[-107.284401,44.120469],[-107.284987,44.120469],[-107.289426,44.120475],[-107.290015,44.120475],[-107.290014,44.124097],[-107.290013,44.127359],[-107.290013,44.127718],[-107.290021,44.131337],[-107.290028,44.134956],[-107.289448,44.134956],[-107.285001,44.134952],[-107.284422,44.134952],[-107.279973,44.134948],[-107.279396,44.134947],[-107.274945,44.134942],[-107.274375,44.134942],[-107.269917,44.134937],[-107.269917,44.13475],[-107.269914,44.131316],[-107.269914,44.131145],[-107.269911,44.127694],[-107.269911,44.127541],[-107.269909,44.124073],[-107.269908,44.123951],[-107.269906,44.120452],[-107.274351,44.120457],[-107.274933,44.120457],[-107.279376,44.120463]]]}},{"type":"Feature","properties":{"sec":"13","frstdivid":"WY060480N0870W0SN130"},"geometry":{"type":"Polygon","coordinates":[[[-107.269906,44.120452],[-107.269908,44.123951],[-107.269909,44.124073],[-107.269911,44.127541],[-107.269911,44.127694],[-107.269914,44.131145],[-107.269914,44.131316],[-107.269917,44.13475],[-107.269917,44.134937],[-107.269349,44.134937],[-107.264889,44.134919],[-107.259862,44.134899],[-107.254835,44.134887],[-107.251537,44.134881],[-107.251399,44.131259],[-107.251262,44.127636],[-107.251124,44.124014],[-107.250987,44.120392],[-107.254824,44.120405],[-107.259851,44.120425],[-107.264878,44.120439],[-107.269325,44.120452],[-107.269906,44.120452]]]}},{"type":"Feature","properties":{"sec":"02","frstdivid":"WY060480N0870W0SN020"},"geometry":{"type":"Polygon","coordinates":[[[-107.290069,44.15998],[-107.290069,44.16029],[-107.290075,44.16391],[-107.290082,44.167509],[-107.285143,44.167598],[-107.285056,44.167599],[-107.284711,44.167606],[-107.280111,44.167531],[-107.280029,44.167529],[-107.275079,44.167448],[-107.275003,44.167447],[-107.274863,44.167445],[-107.270046,44.167366],[-107.269977,44.167365],[-107.269971,44.163909],[-107.269965,44.160287],[-107.269959,44.156666],[-107.26994,44.153044],[-107.269921,44.149423],[-107.274952,44.149425],[-107.279982,44.149428],[-107.285013,44.14943],[-107.289465,44.149432],[-107.290044,44.149432],[-107.290053,44.152776],[-107.290053,44.153052],[-107.290062,44.156378],[-107.290063,44.156671],[-107.290069,44.15998]]]}},{"type":"Feature","properties":{"sec":"27","frstdivid":"WY060480N0870W0SN270"},"geometry":{"type":"Polygon","coordinates":[[[-107.289825,44.091512],[-107.294859,44.091523],[-107.299893,44.091533],[-107.304927,44.091544],[-107.309961,44.091555],[-107.310006,44.095178],[-107.31005,44.09875],[-107.31005,44.0988],[-107.310058,44.102351],[-107.310058,44.102396],[-107.310082,44.105992],[-107.305056,44.105992],[-107.30003,44.105992],[-107.295004,44.105992],[-107.289978,44.105992],[-107.28994,44.102372],[-107.289902,44.098752],[-107.289863,44.095132],[-107.289825,44.091512]]]}},{"type":"Feature","properties":{"sec":"04","frstdivid":"WY060480N0870W0SN040"},"geometry":{"type":"Polygon","coordinates":[[[-107.32538,44.167703],[-107.325292,44.167702],[-107.325099,44.167702],[-107.320354,44.167638],[-107.320266,44.167637],[-107.315329,44.16757],[-107.315243,44.167569],[-107.314965,44.167565],[-107.310303,44.167502],[-107.310217,44.167501],[-107.310186,44.163938],[-107.310186,44.163634],[-107.31018,44.160317],[-107.310179,44.160008],[-107.310173,44.156696],[-107.310173,44.156392],[-107.310165,44.153075],[-107.310156,44.149454],[-107.315182,44.14946],[-107.320209,44.149466],[-107.325235,44.149472],[-107.329673,44.149477],[-107.330261,44.149478],[-107.330278,44.153103],[-107.330295,44.156729],[-107.330305,44.160051],[-107.330305,44.160351],[-107.330312,44.163974],[-107.33032,44.167712],[-107.330158,44.167711],[-107.32538,44.167703]]]}},{"type":"Feature","properties":{"sec":"30","frstdivid":"WY060480N0870W0SN300"},"geometry":{"type":"Polygon","coordinates":[[[-107.365461,44.091526],[-107.369889,44.091526],[-107.369869,44.095134],[-107.369849,44.098741],[-107.369844,44.102341],[-107.369839,44.105942],[-107.365395,44.105949],[-107.360368,44.10597],[-107.355339,44.105993],[-107.350309,44.106016],[-107.350322,44.102398],[-107.350336,44.098779],[-107.350349,44.095161],[-107.350362,44.091543],[-107.355397,44.091537],[-107.360432,44.091532],[-107.365461,44.091526]]]}},{"type":"Feature","properties":{"sec":"22","frstdivid":"WY060480N0870W0SN220"},"geometry":{"type":"Polygon","coordinates":[[[-107.295004,44.105992],[-107.30003,44.105992],[-107.305056,44.105992],[-107.310082,44.105992],[-107.3101,44.109615],[-107.310118,44.113238],[-107.310128,44.116814],[-107.310128,44.116859],[-107.310131,44.120414],[-107.310131,44.120481],[-107.305101,44.120484],[-107.300072,44.120486],[-107.299489,44.120487],[-107.295043,44.120482],[-107.294463,44.120481],[-107.290015,44.120475],[-107.290005,44.116854],[-107.290005,44.11679],[-107.289995,44.113232],[-107.289995,44.113185],[-107.289987,44.109612],[-107.289978,44.105992],[-107.295004,44.105992]]]}},{"type":"Feature","properties":{"sec":"25","frstdivid":"WY060480N0870W0SN250"},"geometry":{"type":"Polygon","coordinates":[[[-107.264661,44.091445],[-107.269689,44.091456],[-107.269726,44.095082],[-107.269763,44.098707],[-107.2698,44.102333],[-107.269837,44.105958],[-107.264811,44.10594],[-107.259785,44.105921],[-107.25476,44.105912],[-107.250305,44.105904],[-107.250124,44.102284],[-107.249943,44.098664],[-107.249762,44.095043],[-107.249581,44.091423],[-107.254607,44.091429],[-107.259633,44.091434],[-107.264661,44.091445]]]}},{"type":"Feature","properties":{"sec":"09","frstdivid":"WY060480N0870W0SN090"},"geometry":{"type":"Polygon","coordinates":[[[-107.315173,44.134972],[-107.320203,44.134978],[-107.325232,44.134984],[-107.329668,44.134989],[-107.330261,44.134989],[-107.330264,44.13843],[-107.330264,44.138611],[-107.330261,44.142032],[-107.330261,44.142233],[-107.330261,44.145856],[-107.330261,44.149478],[-107.329673,44.149477],[-107.325235,44.149472],[-107.320209,44.149466],[-107.315182,44.14946],[-107.310156,44.149454],[-107.310153,44.145832],[-107.31015,44.14221],[-107.310147,44.138588],[-107.310144,44.134966],[-107.315173,44.134972]]]}},{"type":"Feature","properties":{"sec":"21","frstdivid":"WY060480N0870W0SN210"},"geometry":{"type":"Polygon","coordinates":[[[-107.330226,44.116806],[-107.330226,44.11689],[-107.33023,44.120381],[-107.330231,44.120509],[-107.329642,44.120509],[-107.325208,44.120505],[-107.324604,44.120505],[-107.320184,44.120502],[-107.315158,44.120492],[-107.310131,44.120481],[-107.310131,44.120414],[-107.310128,44.116859],[-107.310128,44.116814],[-107.310118,44.113238],[-107.3101,44.109615],[-107.310082,44.105992],[-107.315116,44.106001],[-107.320149,44.10601],[-107.325183,44.106019],[-107.330216,44.106028],[-107.330219,44.109649],[-107.330221,44.113231],[-107.330221,44.113271],[-107.330226,44.116806]]]}},{"type":"Feature","properties":{"sec":"06","frstdivid":"WY060480N0870W0SN060"},"geometry":{"type":"Polygon","coordinates":[[[-107.350439,44.160315],[-107.350435,44.156696],[-107.350433,44.153076],[-107.350431,44.149456],[-107.355459,44.149444],[-107.360486,44.149431],[-107.365513,44.149425],[-107.369866,44.149452],[-107.369866,44.149497],[-107.369845,44.153072],[-107.369846,44.153117],[-107.369828,44.156407],[-107.369829,44.156693],[-107.369829,44.156738],[-107.369822,44.159839],[-107.369824,44.160314],[-107.369824,44.160359],[-107.369812,44.163934],[-107.369812,44.16398],[-107.369799,44.167678],[-107.365586,44.167631],[-107.365531,44.167631],[-107.365378,44.167632],[-107.36056,44.167648],[-107.360503,44.167648],[-107.355533,44.167665],[-107.355475,44.167665],[-107.355322,44.167666],[-107.350506,44.167676],[-107.350447,44.167676],[-107.350443,44.163935],[-107.350439,44.160315]]]}},{"type":"Feature","properties":{"sec":"08","frstdivid":"WY060480N0870W0SN080"},"geometry":{"type":"Polygon","coordinates":[[[-107.335289,44.13499],[-107.339725,44.134991],[-107.340316,44.134991],[-107.345345,44.134983],[-107.350375,44.134975],[-107.350389,44.138595],[-107.350403,44.142215],[-107.350417,44.145836],[-107.350431,44.149456],[-107.349773,44.149456],[-107.345389,44.14946],[-107.344745,44.149461],[-107.340347,44.149465],[-107.339718,44.149465],[-107.335304,44.14947],[-107.334691,44.149471],[-107.330261,44.149478],[-107.330261,44.145856],[-107.330261,44.142233],[-107.330261,44.142032],[-107.330264,44.138611],[-107.330264,44.13843],[-107.330261,44.134989],[-107.335289,44.13499]]]}}]}