{"type":"FeatureCollection","note":"BLM Public Land Survey System. Provided by the Bureau of Land Management as is. These data are neither legal documents nor land surveys and must not be used as such.","features":[{"type":"Feature","properties":{"sec":"03","frstdivid":"MT200090S0490E0SN030"},"geometry":{"type":"Polygon","coordinates":[[[-105.694667,45.081462],[-105.694667,45.079653],[-105.694667,45.077844],[-105.694667,45.074226],[-105.699768,45.074226],[-105.704869,45.074227],[-105.70997,45.074228],[-105.715071,45.074228],[-105.715077,45.077846],[-105.715082,45.081463],[-105.715088,45.085081],[-105.715094,45.088698],[-105.709987,45.088698],[-105.70488,45.088698],[-105.699774,45.088698],[-105.694667,45.088698],[-105.694667,45.08508],[-105.694667,45.081462]]]}},{"type":"Feature","properties":{"sec":"12","frstdivid":"MT200090S0490E0SN120"},"geometry":{"type":"Polygon","coordinates":[[[-105.674243,45.059755],[-105.674243,45.063373],[-105.674243,45.066991],[-105.674243,45.070609],[-105.674243,45.071514],[-105.674243,45.072418],[-105.674243,45.073323],[-105.674243,45.074228],[-105.669137,45.074227],[-105.664031,45.074227],[-105.658924,45.074227],[-105.653818,45.074227],[-105.653818,45.072354],[-105.653815,45.070607],[-105.653812,45.068729],[-105.65381,45.066988],[-105.653809,45.065104],[-105.653806,45.063368],[-105.653804,45.06148],[-105.653801,45.059748],[-105.658912,45.05975],[-105.664022,45.059752],[-105.669132,45.059753],[-105.674243,45.059755]]]}},{"type":"Feature","properties":{"sec":"05","frstdivid":"MT200090S0490E0SN050"},"geometry":{"type":"Polygon","coordinates":[[[-105.740636,45.088704],[-105.735529,45.088701],[-105.735524,45.085083],[-105.735519,45.081465],[-105.735514,45.077847],[-105.735511,45.076038],[-105.735509,45.074229],[-105.740616,45.074228],[-105.745724,45.074227],[-105.750832,45.074226],[-105.75594,45.074225],[-105.755944,45.077846],[-105.755949,45.081468],[-105.755954,45.08509],[-105.755958,45.088712],[-105.750851,45.088709],[-105.745744,45.088707],[-105.740636,45.088704]]]}},{"type":"Feature","properties":{"sec":"10","frstdivid":"MT200090S0490E0SN100"},"geometry":{"type":"Polygon","coordinates":[[[-105.715056,45.063377],[-105.715061,45.066994],[-105.715066,45.070611],[-105.715071,45.074228],[-105.70997,45.074228],[-105.704869,45.074227],[-105.699768,45.074226],[-105.694667,45.074226],[-105.694666,45.070606],[-105.694666,45.066986],[-105.694666,45.063367],[-105.694666,45.059747],[-105.699762,45.05975],[-105.704858,45.059753],[-105.709955,45.059757],[-105.715051,45.05976],[-105.715056,45.063377]]]}},{"type":"Feature","properties":{"sec":"04","frstdivid":"MT200090S0490E0SN040"},"geometry":{"type":"Polygon","coordinates":[[[-105.715071,45.074228],[-105.72018,45.074228],[-105.72529,45.074229],[-105.730399,45.074229],[-105.732954,45.074229],[-105.735509,45.074229],[-105.735511,45.076038],[-105.735514,45.077847],[-105.735519,45.081465],[-105.735524,45.085083],[-105.735529,45.088701],[-105.73042,45.088701],[-105.725311,45.0887],[-105.720203,45.088699],[-105.715094,45.088698],[-105.715088,45.085081],[-105.715082,45.081463],[-105.715077,45.077846],[-105.715071,45.074228]]]}},{"type":"Feature","properties":{"sec":"13","frstdivid":"MT200090S0490E0SN130"},"geometry":{"type":"Polygon","coordinates":[[[-105.653799,45.056127],[-105.653796,45.054235],[-105.653794,45.052507],[-105.653793,45.050614],[-105.653791,45.048885],[-105.653788,45.046993],[-105.653786,45.045264],[-105.658898,45.045266],[-105.66401,45.045268],[-105.669123,45.045269],[-105.674235,45.045271],[-105.674237,45.048892],[-105.674239,45.052513],[-105.674241,45.056134],[-105.674243,45.059755],[-105.669132,45.059753],[-105.664022,45.059752],[-105.658912,45.05975],[-105.653801,45.059748],[-105.653801,45.057856],[-105.653799,45.056127]]]}},{"type":"Feature","properties":{"sec":"06","frstdivid":"MT200090S0490E0SN060"},"geometry":{"type":"Polygon","coordinates":[[[-105.761066,45.088716],[-105.755958,45.088712],[-105.755954,45.08509],[-105.755949,45.081468],[-105.755944,45.077846],[-105.75594,45.074225],[-105.761052,45.074221],[-105.766165,45.074218],[-105.771275,45.074216],[-105.775373,45.074215],[-105.775376,45.076403],[-105.775378,45.077842],[-105.775381,45.08002],[-105.775382,45.081469],[-105.775383,45.083638],[-105.775384,45.085097],[-105.775387,45.087872],[-105.775401,45.088725],[-105.771283,45.088723],[-105.766174,45.088721],[-105.761066,45.088716]]]}},{"type":"Feature","properties":{"sec":"01","frstdivid":"MT200090S0490E0SN010"},"geometry":{"type":"Polygon","coordinates":[[[-105.669137,45.074227],[-105.674243,45.074228],[-105.674244,45.077846],[-105.674245,45.081465],[-105.674246,45.085083],[-105.674247,45.088702],[-105.669142,45.088705],[-105.664038,45.088707],[-105.658933,45.088709],[-105.653828,45.088712],[-105.653829,45.086828],[-105.653827,45.085091],[-105.653825,45.08321],[-105.653824,45.08147],[-105.653823,45.079591],[-105.653821,45.077849],[-105.65382,45.075972],[-105.653818,45.074227],[-105.658924,45.074227],[-105.664031,45.074227],[-105.669137,45.074227]]]}},{"type":"Feature","properties":{"sec":"15","frstdivid":"MT200090S0490E0SN150"},"geometry":{"type":"Polygon","coordinates":[[[-105.694661,45.056129],[-105.694656,45.052512],[-105.694651,45.048894],[-105.694647,45.045277],[-105.699742,45.045278],[-105.704838,45.045279],[-105.709934,45.04528],[-105.715029,45.045281],[-105.715035,45.048901],[-105.71504,45.05252],[-105.715046,45.05614],[-105.715051,45.05976],[-105.709955,45.059757],[-105.704858,45.059753],[-105.699762,45.05975],[-105.694666,45.059747],[-105.694661,45.056129]]]}},{"type":"Feature","properties":{"sec":"08","frstdivid":"MT200090S0490E0SN080"},"geometry":{"type":"Polygon","coordinates":[[[-105.745724,45.074227],[-105.740616,45.074228],[-105.735509,45.074229],[-105.735501,45.070612],[-105.735494,45.066996],[-105.735487,45.063379],[-105.735479,45.059762],[-105.740582,45.059762],[-105.745684,45.059761],[-105.750787,45.05976],[-105.75589,45.05976],[-105.755902,45.063376],[-105.755915,45.066992],[-105.755921,45.0688],[-105.755927,45.070608],[-105.75594,45.074225],[-105.750832,45.074226],[-105.745724,45.074227]]]}},{"type":"Feature","properties":{"sec":"18","frstdivid":"MT200090S0490E0SN180"},"geometry":{"type":"Polygon","coordinates":[[[-105.775401,45.048939],[-105.775397,45.051073],[-105.775396,45.052544],[-105.775392,45.054694],[-105.77539,45.056149],[-105.775386,45.058316],[-105.775386,45.059755],[-105.771211,45.059755],[-105.766104,45.059756],[-105.760997,45.059758],[-105.75589,45.05976],[-105.755878,45.056148],[-105.755866,45.052536],[-105.755855,45.048925],[-105.755843,45.045313],[-105.760943,45.04532],[-105.766043,45.045327],[-105.771146,45.045331],[-105.775407,45.045333],[-105.775403,45.047453],[-105.775401,45.048939]]]}},{"type":"Feature","properties":{"sec":"09","frstdivid":"MT200090S0490E0SN090"},"geometry":{"type":"Polygon","coordinates":[[[-105.715056,45.063377],[-105.715051,45.05976],[-105.720158,45.05976],[-105.725265,45.059761],[-105.730372,45.059762],[-105.735479,45.059762],[-105.735487,45.063379],[-105.735494,45.066996],[-105.735501,45.070612],[-105.735509,45.074229],[-105.732954,45.074229],[-105.730399,45.074229],[-105.72529,45.074229],[-105.72018,45.074228],[-105.715071,45.074228],[-105.715066,45.070611],[-105.715061,45.066994],[-105.715056,45.063377]]]}},{"type":"Feature","properties":{"sec":"02","frstdivid":"MT200090S0490E0SN020"},"geometry":{"type":"Polygon","coordinates":[[[-105.674245,45.081465],[-105.674244,45.077846],[-105.674243,45.074228],[-105.676796,45.074227],[-105.679349,45.074227],[-105.684455,45.074227],[-105.689561,45.074226],[-105.694667,45.074226],[-105.694667,45.077844],[-105.694667,45.079653],[-105.694667,45.081462],[-105.694667,45.08508],[-105.694667,45.088698],[-105.689562,45.088699],[-105.684457,45.0887],[-105.679352,45.088701],[-105.674247,45.088702],[-105.674246,45.085083],[-105.674245,45.081465]]]}},{"type":"Feature","properties":{"sec":"16","frstdivid":"MT200090S0490E0SN160"},"geometry":{"type":"Polygon","coordinates":[[[-105.730344,45.045292],[-105.735449,45.045296],[-105.735457,45.048912],[-105.735464,45.052529],[-105.735472,45.056146],[-105.735479,45.059762],[-105.730372,45.059762],[-105.725265,45.059761],[-105.720158,45.05976],[-105.715051,45.05976],[-105.715046,45.05614],[-105.71504,45.05252],[-105.715035,45.048901],[-105.715029,45.045281],[-105.720134,45.045285],[-105.725239,45.045288],[-105.730344,45.045292]]]}},{"type":"Feature","properties":{"sec":"11","frstdivid":"MT200090S0490E0SN110"},"geometry":{"type":"Polygon","coordinates":[[[-105.689561,45.074226],[-105.684455,45.074227],[-105.679349,45.074227],[-105.676796,45.074227],[-105.674243,45.074228],[-105.674243,45.073323],[-105.674243,45.072418],[-105.674243,45.071514],[-105.674243,45.070609],[-105.674243,45.066991],[-105.674243,45.063373],[-105.674243,45.059755],[-105.679348,45.059753],[-105.684454,45.059751],[-105.68956,45.059749],[-105.694666,45.059747],[-105.694666,45.063367],[-105.694666,45.066986],[-105.694666,45.070606],[-105.694667,45.074226],[-105.689561,45.074226]]]}},{"type":"Feature","properties":{"sec":"17","frstdivid":"MT200090S0490E0SN170"},"geometry":{"type":"Polygon","coordinates":[[[-105.740582,45.059762],[-105.735479,45.059762],[-105.735472,45.056146],[-105.735464,45.052529],[-105.735457,45.048912],[-105.735449,45.045296],[-105.740548,45.0453],[-105.745646,45.045304],[-105.750745,45.045309],[-105.755843,45.045313],[-105.755855,45.048925],[-105.755866,45.052536],[-105.755878,45.056148],[-105.75589,45.05976],[-105.750787,45.05976],[-105.745684,45.059761],[-105.740582,45.059762]]]}},{"type":"Feature","properties":{"sec":"14","frstdivid":"MT200090S0490E0SN140"},"geometry":{"type":"Polygon","coordinates":[[[-105.684441,45.045274],[-105.689544,45.045275],[-105.694647,45.045277],[-105.694651,45.048894],[-105.694656,45.052512],[-105.694661,45.056129],[-105.694666,45.059747],[-105.68956,45.059749],[-105.684454,45.059751],[-105.679348,45.059753],[-105.674243,45.059755],[-105.674241,45.056134],[-105.674239,45.052513],[-105.674237,45.048892],[-105.674235,45.045271],[-105.679338,45.045272],[-105.684441,45.045274]]]}},{"type":"Feature","properties":{"sec":"07","frstdivid":"MT200090S0490E0SN070"},"geometry":{"type":"Polygon","coordinates":[[[-105.775386,45.059755],[-105.775383,45.061933],[-105.775382,45.06337],[-105.77538,45.065551],[-105.775379,45.066985],[-105.775377,45.069168],[-105.775376,45.0706],[-105.775374,45.072785],[-105.775373,45.074215],[-105.771275,45.074216],[-105.766165,45.074218],[-105.761052,45.074221],[-105.75594,45.074225],[-105.755927,45.070608],[-105.755921,45.0688],[-105.755915,45.066992],[-105.755902,45.063376],[-105.75589,45.05976],[-105.760997,45.059758],[-105.766104,45.059756],[-105.771211,45.059755],[-105.775386,45.059755]]]}},{"type":"Feature","properties":{"sec":"28","frstdivid":"MT200090S0490E0SN280"},"geometry":{"type":"Polygon","coordinates":[[[-105.715022,45.027136],[-105.715025,45.023506],[-105.715029,45.019877],[-105.715033,45.016247],[-105.720123,45.016252],[-105.725213,45.016257],[-105.730302,45.016261],[-105.735392,45.016266],[-105.735401,45.019897],[-105.73541,45.023528],[-105.735418,45.02716],[-105.735427,45.030791],[-105.730325,45.030785],[-105.725222,45.030778],[-105.72012,45.030772],[-105.715018,45.030765],[-105.715022,45.027136]]]}},{"type":"Feature","properties":{"sec":"30","frstdivid":"MT200090S0490E0SN300"},"geometry":{"type":"Polygon","coordinates":[[[-105.76605,45.030788],[-105.760944,45.030791],[-105.755839,45.030795],[-105.755833,45.02717],[-105.755828,45.023544],[-105.755822,45.019918],[-105.755816,45.016293],[-105.76091,45.01629],[-105.766004,45.016288],[-105.771102,45.016287],[-105.775475,45.016285],[-105.775467,45.018468],[-105.775463,45.01991],[-105.775455,45.022094],[-105.775453,45.023535],[-105.775445,45.025721],[-105.77544,45.027159],[-105.775433,45.029347],[-105.775431,45.030784],[-105.771155,45.030785],[-105.76605,45.030788]]]}},{"type":"Feature","properties":{"sec":"22","frstdivid":"MT200090S0490E0SN220"},"geometry":{"type":"Polygon","coordinates":[[[-105.694644,45.041658],[-105.694643,45.038036],[-105.694645,45.034408],[-105.694647,45.03078],[-105.69974,45.030776],[-105.704833,45.030773],[-105.709925,45.030769],[-105.715018,45.030765],[-105.715019,45.034398],[-105.71502,45.03803],[-105.715023,45.041658],[-105.715029,45.045281],[-105.709934,45.04528],[-105.704838,45.045279],[-105.699742,45.045278],[-105.694647,45.045277],[-105.694644,45.041658]]]}},{"type":"Feature","properties":{"sec":"19","frstdivid":"MT200090S0490E0SN190"},"geometry":{"type":"Polygon","coordinates":[[[-105.771146,45.045331],[-105.766043,45.045327],[-105.760943,45.04532],[-105.755843,45.045313],[-105.755839,45.041691],[-105.755839,45.038059],[-105.755839,45.034427],[-105.755839,45.030795],[-105.760944,45.030791],[-105.76605,45.030788],[-105.771155,45.030785],[-105.775431,45.030784],[-105.775426,45.032969],[-105.775423,45.034423],[-105.775419,45.036592],[-105.775417,45.038063],[-105.775412,45.040214],[-105.775409,45.041702],[-105.775407,45.043832],[-105.775407,45.045333],[-105.771146,45.045331]]]}},{"type":"Feature","properties":{"sec":"25","frstdivid":"MT200090S0490E0SN250"},"geometry":{"type":"Polygon","coordinates":[[[-105.674261,45.019896],[-105.674257,45.023524],[-105.674253,45.027152],[-105.674248,45.03078],[-105.669133,45.030774],[-105.664018,45.030769],[-105.658904,45.030763],[-105.653779,45.030778],[-105.65378,45.028881],[-105.653778,45.027157],[-105.653777,45.025259],[-105.653776,45.023536],[-105.653775,45.021637],[-105.653801,45.019917],[-105.653795,45.017989],[-105.653798,45.016264],[-105.658942,45.016215],[-105.664032,45.016251],[-105.669149,45.016259],[-105.674266,45.016267],[-105.674261,45.019896]]]}},{"type":"Feature","properties":{"sec":"32","frstdivid":"MT200090S0490E0SN320"},"geometry":{"type":"Polygon","coordinates":[[[-105.755817,45.012666],[-105.755816,45.016293],[-105.75071,45.016286],[-105.745604,45.016279],[-105.740498,45.016273],[-105.735392,45.016266],[-105.735387,45.012638],[-105.735382,45.009009],[-105.735379,45.00538],[-105.735415,45.000311],[-105.736297,45.000308],[-105.740522,45.000313],[-105.745629,45.000319],[-105.746439,45.000319],[-105.746865,45.000319],[-105.750738,45.000307],[-105.755845,45.000291],[-105.755817,45.005395],[-105.755817,45.009039],[-105.755817,45.012666]]]}},{"type":"Feature","properties":{"sec":"31","frstdivid":"MT200090S0490E0SN310"},"geometry":{"type":"Polygon","coordinates":[[[-105.755817,45.005395],[-105.755845,45.000291],[-105.756582,45.000287],[-105.760921,45.000276],[-105.766156,45.000263],[-105.76691,45.00026],[-105.76704,45.000259],[-105.771233,45.000268],[-105.775594,45.000274],[-105.77544,45.003919],[-105.775458,45.005358],[-105.775494,45.007583],[-105.775488,45.00903],[-105.775484,45.011213],[-105.775481,45.012658],[-105.775476,45.014841],[-105.775475,45.016285],[-105.771102,45.016287],[-105.766004,45.016288],[-105.76091,45.01629],[-105.755816,45.016293],[-105.755817,45.012666],[-105.755817,45.009039],[-105.755817,45.005395]]]}},{"type":"Feature","properties":{"sec":"23","frstdivid":"MT200090S0490E0SN230"},"geometry":{"type":"Polygon","coordinates":[[[-105.689548,45.03078],[-105.694647,45.03078],[-105.694645,45.034408],[-105.694643,45.038036],[-105.694644,45.041658],[-105.694647,45.045277],[-105.689544,45.045275],[-105.684441,45.045274],[-105.679338,45.045272],[-105.674235,45.045271],[-105.674236,45.041654],[-105.674237,45.038034],[-105.674243,45.034407],[-105.674248,45.03078],[-105.679348,45.03078],[-105.684448,45.03078],[-105.689548,45.03078]]]}},{"type":"Feature","properties":{"sec":"36","frstdivid":"MT200090S0490E0SN360"},"geometry":{"type":"Polygon","coordinates":[[[-105.658942,45.016215],[-105.653798,45.016264],[-105.653791,45.01436],[-105.653786,45.012626],[-105.653802,45.010711],[-105.653806,45.008977],[-105.653806,45.007059],[-105.653805,45.005347],[-105.653803,45.003455],[-105.653801,45.000344],[-105.654725,45.000344],[-105.658922,45.000346],[-105.664042,45.000348],[-105.664883,45.000349],[-105.666491,45.00035],[-105.669163,45.000346],[-105.674283,45.000335],[-105.674274,45.005377],[-105.674271,45.009007],[-105.674268,45.012637],[-105.674266,45.016267],[-105.669149,45.016259],[-105.664032,45.016251],[-105.658942,45.016215]]]}},{"type":"Feature","properties":{"sec":"21","frstdivid":"MT200090S0490E0SN210"},"geometry":{"type":"Polygon","coordinates":[[[-105.71502,45.03803],[-105.715019,45.034398],[-105.715018,45.030765],[-105.72012,45.030772],[-105.725222,45.030778],[-105.730325,45.030785],[-105.735427,45.030791],[-105.735431,45.03442],[-105.735435,45.038049],[-105.73544,45.041676],[-105.735449,45.045296],[-105.730344,45.045292],[-105.725239,45.045288],[-105.720134,45.045285],[-105.715029,45.045281],[-105.715023,45.041658],[-105.71502,45.03803]]]}},{"type":"Feature","properties":{"sec":"27","frstdivid":"MT200090S0490E0SN270"},"geometry":{"type":"Polygon","coordinates":[[[-105.709937,45.01625],[-105.715033,45.016247],[-105.715029,45.019877],[-105.715025,45.023506],[-105.715022,45.027136],[-105.715018,45.030765],[-105.709925,45.030769],[-105.704833,45.030773],[-105.69974,45.030776],[-105.694647,45.03078],[-105.694648,45.02715],[-105.694648,45.02352],[-105.694649,45.019889],[-105.694649,45.016259],[-105.699745,45.016256],[-105.704841,45.016253],[-105.709937,45.01625]]]}},{"type":"Feature","properties":{"sec":"34","frstdivid":"MT200090S0490E0SN340"},"geometry":{"type":"Polygon","coordinates":[[[-105.704841,45.016253],[-105.699745,45.016256],[-105.694649,45.016259],[-105.694652,45.012631],[-105.694656,45.009002],[-105.694658,45.005373],[-105.694688,45.0003],[-105.69519,45.000301],[-105.699757,45.000299],[-105.704827,45.000297],[-105.705484,45.000298],[-105.706403,45.000299],[-105.709923,45.000299],[-105.715019,45.000298],[-105.715047,45.005357],[-105.715045,45.008987],[-105.715039,45.012617],[-105.715033,45.016247],[-105.709937,45.01625],[-105.704841,45.016253]]]}},{"type":"Feature","properties":{"sec":"26","frstdivid":"MT200090S0490E0SN260"},"geometry":{"type":"Polygon","coordinates":[[[-105.674257,45.023524],[-105.674261,45.019896],[-105.674266,45.016267],[-105.679362,45.016265],[-105.684457,45.016263],[-105.689553,45.016261],[-105.694649,45.016259],[-105.694649,45.019889],[-105.694648,45.02352],[-105.694648,45.02715],[-105.694647,45.03078],[-105.689548,45.03078],[-105.684448,45.03078],[-105.679348,45.03078],[-105.674248,45.03078],[-105.674253,45.027152],[-105.674257,45.023524]]]}},{"type":"Feature","properties":{"sec":"29","frstdivid":"MT200090S0490E0SN290"},"geometry":{"type":"Polygon","coordinates":[[[-105.74053,45.030792],[-105.735427,45.030791],[-105.735418,45.02716],[-105.73541,45.023528],[-105.735401,45.019897],[-105.735392,45.016266],[-105.740498,45.016273],[-105.745604,45.016279],[-105.75071,45.016286],[-105.755816,45.016293],[-105.755822,45.019918],[-105.755828,45.023544],[-105.755833,45.02717],[-105.755839,45.030795],[-105.750736,45.030794],[-105.745633,45.030793],[-105.74053,45.030792]]]}},{"type":"Feature","properties":{"sec":"20","frstdivid":"MT200090S0490E0SN200"},"geometry":{"type":"Polygon","coordinates":[[[-105.73544,45.041676],[-105.735435,45.038049],[-105.735431,45.03442],[-105.735427,45.030791],[-105.74053,45.030792],[-105.745633,45.030793],[-105.750736,45.030794],[-105.755839,45.030795],[-105.755839,45.034427],[-105.755839,45.038059],[-105.755839,45.041691],[-105.755843,45.045313],[-105.750745,45.045309],[-105.745646,45.045304],[-105.740548,45.0453],[-105.735449,45.045296],[-105.73544,45.041676]]]}},{"type":"Feature","properties":{"sec":"24","frstdivid":"MT200090S0490E0SN240"},"geometry":{"type":"Polygon","coordinates":[[[-105.658898,45.045266],[-105.653786,45.045264],[-105.653785,45.043372],[-105.653784,45.041643],[-105.653783,45.039749],[-105.653783,45.038021],[-105.653782,45.036126],[-105.653781,45.034399],[-105.65378,45.032504],[-105.653779,45.030778],[-105.658904,45.030763],[-105.664018,45.030769],[-105.669133,45.030774],[-105.674248,45.03078],[-105.674243,45.034407],[-105.674237,45.038034],[-105.674236,45.041654],[-105.674235,45.045271],[-105.669123,45.045269],[-105.66401,45.045268],[-105.658898,45.045266]]]}},{"type":"Feature","properties":{"sec":"35","frstdivid":"MT200090S0490E0SN350"},"geometry":{"type":"Polygon","coordinates":[[[-105.684457,45.016263],[-105.679362,45.016265],[-105.674266,45.016267],[-105.674268,45.012637],[-105.674271,45.009007],[-105.674274,45.005377],[-105.674283,45.000335],[-105.675041,45.000334],[-105.679384,45.00032],[-105.684486,45.000305],[-105.685243,45.000303],[-105.686187,45.000302],[-105.689587,45.000302],[-105.690344,45.000302],[-105.694688,45.0003],[-105.694658,45.005373],[-105.694656,45.009002],[-105.694652,45.012631],[-105.694649,45.016259],[-105.689553,45.016261],[-105.684457,45.016263]]]}},{"type":"Feature","properties":{"sec":"33","frstdivid":"MT200090S0490E0SN330"},"geometry":{"type":"Polygon","coordinates":[[[-105.720089,45.000298],[-105.72516,45.000299],[-105.726008,45.000299],[-105.72679,45.000299],[-105.730216,45.000304],[-105.735415,45.000311],[-105.735379,45.00538],[-105.735382,45.009009],[-105.735387,45.012638],[-105.735392,45.016266],[-105.730302,45.016261],[-105.725213,45.016257],[-105.720123,45.016252],[-105.715033,45.016247],[-105.715039,45.012617],[-105.715045,45.008987],[-105.715047,45.005357],[-105.715019,45.000298],[-105.715832,45.000297],[-105.720089,45.000298]]]}}]}