{"type":"FeatureCollection","note":"BLM Public Land Survey System. Provided by the Bureau of Land Management as is. These data are neither legal documents nor land surveys and must not be used as such.","features":[{"type":"Feature","properties":{"sec":"23","frstdivid":"MT200070S0570E0SN230"},"geometry":{"type":"Polygon","coordinates":[[[-104.691601,45.217765],[-104.691609,45.214144],[-104.691617,45.210522],[-104.691624,45.2069],[-104.696748,45.206898],[-104.701871,45.206896],[-104.706994,45.206893],[-104.712118,45.206891],[-104.712112,45.210517],[-104.712106,45.214143],[-104.7121,45.21777],[-104.712095,45.221396],[-104.706969,45.221394],[-104.701844,45.221392],[-104.696719,45.221389],[-104.691594,45.221387],[-104.691601,45.217765]]]}},{"type":"Feature","properties":{"sec":"19","frstdivid":"MT200070S0570E0SN190"},"geometry":{"type":"Polygon","coordinates":[[[-104.773592,45.210525],[-104.773594,45.206907],[-104.77871,45.206903],[-104.783826,45.2069],[-104.788944,45.206896],[-104.793652,45.206893],[-104.793649,45.210516],[-104.793646,45.214139],[-104.793643,45.217763],[-104.79364,45.221386],[-104.788958,45.221384],[-104.783835,45.221382],[-104.778711,45.221381],[-104.773588,45.221379],[-104.773589,45.217761],[-104.773591,45.214143],[-104.773592,45.210525]]]}},{"type":"Feature","properties":{"sec":"06","frstdivid":"MT200070S0570E0SN060"},"geometry":{"type":"Polygon","coordinates":[[[-104.788954,45.250356],[-104.793613,45.250357],[-104.79361,45.253975],[-104.793607,45.257594],[-104.793604,45.261212],[-104.793601,45.264831],[-104.789026,45.26483],[-104.783896,45.264829],[-104.778764,45.264828],[-104.773631,45.264826],[-104.773617,45.26122],[-104.773603,45.2576],[-104.773589,45.253979],[-104.773574,45.250358],[-104.778701,45.250357],[-104.783828,45.250356],[-104.788954,45.250356]]]}},{"type":"Feature","properties":{"sec":"17","frstdivid":"MT200070S0570E0SN170"},"geometry":{"type":"Polygon","coordinates":[[[-104.773584,45.225002],[-104.773581,45.228624],[-104.773577,45.232246],[-104.773573,45.235869],[-104.768454,45.235875],[-104.763334,45.235882],[-104.758214,45.235889],[-104.753094,45.235895],[-104.753095,45.232274],[-104.753096,45.228652],[-104.753097,45.225031],[-104.753098,45.22141],[-104.758221,45.221402],[-104.763343,45.221395],[-104.768465,45.221387],[-104.773588,45.221379],[-104.773584,45.225002]]]}},{"type":"Feature","properties":{"sec":"24","frstdivid":"MT200070S0570E0SN240"},"geometry":{"type":"Polygon","coordinates":[[[-104.691624,45.2069],[-104.691617,45.210522],[-104.691609,45.214144],[-104.691601,45.217765],[-104.691594,45.221387],[-104.68647,45.22139],[-104.681347,45.221393],[-104.676224,45.221395],[-104.671101,45.221398],[-104.671107,45.218776],[-104.671109,45.217773],[-104.671115,45.215151],[-104.671117,45.214147],[-104.671123,45.211524],[-104.671125,45.210521],[-104.671131,45.207898],[-104.671134,45.206895],[-104.676256,45.206896],[-104.681379,45.206897],[-104.686502,45.206899],[-104.691624,45.2069]]]}},{"type":"Feature","properties":{"sec":"05","frstdivid":"MT200070S0570E0SN050"},"geometry":{"type":"Polygon","coordinates":[[[-104.753089,45.257667],[-104.753083,45.254042],[-104.753077,45.250416],[-104.758201,45.250402],[-104.763326,45.250387],[-104.76845,45.250373],[-104.773574,45.250358],[-104.773589,45.253979],[-104.773603,45.2576],[-104.773617,45.26122],[-104.773631,45.264826],[-104.768499,45.264822],[-104.763367,45.264819],[-104.758235,45.264815],[-104.753102,45.264811],[-104.753096,45.26129],[-104.753089,45.257667]]]}},{"type":"Feature","properties":{"sec":"22","frstdivid":"MT200070S0570E0SN220"},"geometry":{"type":"Polygon","coordinates":[[[-104.7326,45.221397],[-104.727474,45.221397],[-104.722347,45.221397],[-104.717221,45.221396],[-104.712095,45.221396],[-104.7121,45.21777],[-104.712106,45.214143],[-104.712112,45.210517],[-104.712118,45.206891],[-104.717244,45.206892],[-104.72237,45.206893],[-104.727497,45.206894],[-104.732623,45.206895],[-104.732617,45.21052],[-104.732611,45.214146],[-104.732606,45.217771],[-104.7326,45.221397]]]}},{"type":"Feature","properties":{"sec":"04","frstdivid":"MT200070S0570E0SN040"},"geometry":{"type":"Polygon","coordinates":[[[-104.737703,45.264808],[-104.732569,45.264807],[-104.732568,45.261255],[-104.732567,45.257633],[-104.732565,45.254011],[-104.732562,45.250388],[-104.737691,45.250395],[-104.74282,45.250402],[-104.747948,45.250409],[-104.753077,45.250416],[-104.753083,45.254042],[-104.753089,45.257667],[-104.753096,45.26129],[-104.753102,45.264811],[-104.747969,45.26481],[-104.742836,45.264809],[-104.737703,45.264808]]]}},{"type":"Feature","properties":{"sec":"34","frstdivid":"MT200070S0570E0SN340"},"geometry":{"type":"Polygon","coordinates":[[[-104.732657,45.185149],[-104.732651,45.18877],[-104.732644,45.192391],[-104.727519,45.192392],[-104.722393,45.192392],[-104.717268,45.192393],[-104.712142,45.192393],[-104.712147,45.188771],[-104.712151,45.185148],[-104.712155,45.181526],[-104.71216,45.177903],[-104.717287,45.177904],[-104.722415,45.177905],[-104.727542,45.177906],[-104.732669,45.177907],[-104.732663,45.181528],[-104.732657,45.185149]]]}},{"type":"Feature","properties":{"sec":"33","frstdivid":"MT200070S0570E0SN330"},"geometry":{"type":"Polygon","coordinates":[[[-104.732657,45.185149],[-104.732663,45.181528],[-104.732669,45.177907],[-104.737792,45.177908],[-104.742914,45.177908],[-104.748036,45.177908],[-104.753158,45.177909],[-104.753152,45.181531],[-104.753146,45.185153],[-104.753139,45.188775],[-104.753133,45.192397],[-104.748011,45.192395],[-104.742889,45.192394],[-104.737766,45.192393],[-104.732644,45.192391],[-104.732651,45.18877],[-104.732657,45.185149]]]}},{"type":"Feature","properties":{"sec":"26","frstdivid":"MT200070S0570E0SN260"},"geometry":{"type":"Polygon","coordinates":[[[-104.691645,45.196025],[-104.691651,45.192401],[-104.696774,45.192399],[-104.701897,45.192397],[-104.70702,45.192395],[-104.712142,45.192393],[-104.712136,45.196018],[-104.71213,45.199642],[-104.712124,45.203266],[-104.712118,45.206891],[-104.706994,45.206893],[-104.701871,45.206896],[-104.696748,45.206898],[-104.691624,45.2069],[-104.691631,45.203275],[-104.691638,45.19965],[-104.691645,45.196025]]]}},{"type":"Feature","properties":{"sec":"32","frstdivid":"MT200070S0570E0SN320"},"geometry":{"type":"Polygon","coordinates":[[[-104.753158,45.177909],[-104.758281,45.177909],[-104.763403,45.17791],[-104.768525,45.17791],[-104.773648,45.17791],[-104.77364,45.181533],[-104.773632,45.185155],[-104.773624,45.188778],[-104.773617,45.1924],[-104.768496,45.192399],[-104.763375,45.192399],[-104.758254,45.192398],[-104.753133,45.192397],[-104.753139,45.188775],[-104.753146,45.185153],[-104.753152,45.181531],[-104.753158,45.177909]]]}},{"type":"Feature","properties":{"sec":"18","frstdivid":"MT200070S0570E0SN180"},"geometry":{"type":"Polygon","coordinates":[[[-104.773573,45.235869],[-104.773577,45.232246],[-104.773581,45.228624],[-104.773584,45.225002],[-104.773588,45.221379],[-104.778711,45.221381],[-104.783835,45.221382],[-104.788958,45.221384],[-104.79364,45.221386],[-104.793637,45.225008],[-104.793634,45.228629],[-104.793631,45.232251],[-104.793628,45.235873],[-104.788945,45.235871],[-104.783821,45.235869],[-104.778697,45.235869],[-104.773573,45.235869]]]}},{"type":"Feature","properties":{"sec":"10","frstdivid":"MT200070S0570E0SN100"},"geometry":{"type":"Polygon","coordinates":[[[-104.712041,45.250403],[-104.712047,45.246778],[-104.712053,45.243152],[-104.712059,45.239527],[-104.712065,45.235901],[-104.717193,45.235899],[-104.722321,45.235897],[-104.72745,45.235895],[-104.732578,45.235893],[-104.732574,45.239517],[-104.73257,45.243141],[-104.732566,45.246765],[-104.732562,45.250388],[-104.727432,45.250392],[-104.722301,45.250396],[-104.717171,45.2504],[-104.712041,45.250403]]]}},{"type":"Feature","properties":{"sec":"30","frstdivid":"MT200070S0570E0SN300"},"geometry":{"type":"Polygon","coordinates":[[[-104.793652,45.206893],[-104.788944,45.206896],[-104.783826,45.2069],[-104.77871,45.206903],[-104.773594,45.206907],[-104.773599,45.20328],[-104.773605,45.199654],[-104.773611,45.196027],[-104.773617,45.1924],[-104.778735,45.192401],[-104.783852,45.192401],[-104.788971,45.192403],[-104.793659,45.192405],[-104.793658,45.196027],[-104.793656,45.199649],[-104.793654,45.203271],[-104.793652,45.206893]]]}},{"type":"Feature","properties":{"sec":"35","frstdivid":"MT200070S0570E0SN350"},"geometry":{"type":"Polygon","coordinates":[[[-104.712147,45.188771],[-104.712142,45.192393],[-104.70702,45.192395],[-104.701897,45.192397],[-104.696774,45.192399],[-104.691651,45.192401],[-104.691658,45.188775],[-104.691664,45.185149],[-104.69167,45.181523],[-104.691677,45.177897],[-104.696797,45.177898],[-104.701918,45.1779],[-104.707039,45.177901],[-104.71216,45.177903],[-104.712155,45.181526],[-104.712151,45.185148],[-104.712147,45.188771]]]}},{"type":"Feature","properties":{"sec":"28","frstdivid":"MT200070S0570E0SN280"},"geometry":{"type":"Polygon","coordinates":[[[-104.753122,45.199648],[-104.753117,45.203273],[-104.753112,45.206899],[-104.747989,45.206898],[-104.742867,45.206897],[-104.737745,45.206896],[-104.732623,45.206895],[-104.732628,45.203269],[-104.732634,45.199643],[-104.732639,45.196017],[-104.732644,45.192391],[-104.737766,45.192393],[-104.742889,45.192394],[-104.748011,45.192395],[-104.753133,45.192397],[-104.753128,45.196022],[-104.753122,45.199648]]]}},{"type":"Feature","properties":{"sec":"09","frstdivid":"MT200070S0570E0SN090"},"geometry":{"type":"Polygon","coordinates":[[[-104.747965,45.235895],[-104.753094,45.235895],[-104.75309,45.239526],[-104.753086,45.243156],[-104.753081,45.246786],[-104.753077,45.250416],[-104.747948,45.250409],[-104.74282,45.250402],[-104.737691,45.250395],[-104.732562,45.250388],[-104.732566,45.246765],[-104.73257,45.243141],[-104.732574,45.239517],[-104.732578,45.235893],[-104.737707,45.235894],[-104.742836,45.235894],[-104.747965,45.235895]]]}},{"type":"Feature","properties":{"sec":"02","frstdivid":"MT200070S0570E0SN020"},"geometry":{"type":"Polygon","coordinates":[[[-104.706915,45.250398],[-104.712041,45.250403],[-104.712044,45.254027],[-104.712048,45.25765],[-104.712053,45.261272],[-104.712057,45.2648],[-104.706922,45.2648],[-104.701787,45.264801],[-104.696652,45.264801],[-104.691517,45.264802],[-104.691523,45.261234],[-104.691528,45.257616],[-104.691533,45.253998],[-104.691537,45.250381],[-104.696663,45.250387],[-104.701789,45.250392],[-104.706915,45.250398]]]}},{"type":"Feature","properties":{"sec":"15","frstdivid":"MT200070S0570E0SN150"},"geometry":{"type":"Polygon","coordinates":[[[-104.7326,45.221397],[-104.732594,45.225021],[-104.732589,45.228645],[-104.732583,45.232269],[-104.732578,45.235893],[-104.72745,45.235895],[-104.722321,45.235897],[-104.717193,45.235899],[-104.712065,45.235901],[-104.712072,45.232275],[-104.71208,45.228649],[-104.712087,45.225022],[-104.712095,45.221396],[-104.717221,45.221396],[-104.722347,45.221397],[-104.727474,45.221397],[-104.7326,45.221397]]]}},{"type":"Feature","properties":{"sec":"11","frstdivid":"MT200070S0570E0SN110"},"geometry":{"type":"Polygon","coordinates":[[[-104.712053,45.243152],[-104.712047,45.246778],[-104.712041,45.250403],[-104.706915,45.250398],[-104.701789,45.250392],[-104.696663,45.250387],[-104.691537,45.250381],[-104.691545,45.246755],[-104.691552,45.243129],[-104.691559,45.239503],[-104.691566,45.235877],[-104.696691,45.235883],[-104.701816,45.235889],[-104.70694,45.235895],[-104.712065,45.235901],[-104.712059,45.239527],[-104.712053,45.243152]]]}},{"type":"Feature","properties":{"sec":"16","frstdivid":"MT200070S0570E0SN160"},"geometry":{"type":"Polygon","coordinates":[[[-104.742849,45.221403],[-104.747974,45.221406],[-104.753098,45.22141],[-104.753097,45.225031],[-104.753096,45.228652],[-104.753095,45.232274],[-104.753094,45.235895],[-104.747965,45.235895],[-104.742836,45.235894],[-104.737707,45.235894],[-104.732578,45.235893],[-104.732583,45.232269],[-104.732589,45.228645],[-104.732594,45.225021],[-104.7326,45.221397],[-104.737725,45.2214],[-104.742849,45.221403]]]}},{"type":"Feature","properties":{"sec":"27","frstdivid":"MT200070S0570E0SN270"},"geometry":{"type":"Polygon","coordinates":[[[-104.727519,45.192392],[-104.732644,45.192391],[-104.732639,45.196017],[-104.732634,45.199643],[-104.732628,45.203269],[-104.732623,45.206895],[-104.727497,45.206894],[-104.72237,45.206893],[-104.717244,45.206892],[-104.712118,45.206891],[-104.712124,45.203266],[-104.71213,45.199642],[-104.712136,45.196018],[-104.712142,45.192393],[-104.717268,45.192393],[-104.722393,45.192392],[-104.727519,45.192392]]]}},{"type":"Feature","properties":{"sec":"21","frstdivid":"MT200070S0570E0SN210"},"geometry":{"type":"Polygon","coordinates":[[[-104.753105,45.214154],[-104.753102,45.217782],[-104.753098,45.22141],[-104.747974,45.221406],[-104.742849,45.221403],[-104.737725,45.2214],[-104.7326,45.221397],[-104.732606,45.217771],[-104.732611,45.214146],[-104.732617,45.21052],[-104.732623,45.206895],[-104.737745,45.206896],[-104.742867,45.206897],[-104.747989,45.206898],[-104.753112,45.206899],[-104.753108,45.210526],[-104.753105,45.214154]]]}},{"type":"Feature","properties":{"sec":"13","frstdivid":"MT200070S0570E0SN130"},"geometry":{"type":"Polygon","coordinates":[[[-104.671083,45.228653],[-104.671089,45.226029],[-104.671092,45.225026],[-104.671098,45.222401],[-104.671101,45.221398],[-104.676224,45.221395],[-104.681347,45.221393],[-104.68647,45.22139],[-104.691594,45.221387],[-104.691587,45.22501],[-104.69158,45.228632],[-104.691573,45.232254],[-104.691566,45.235877],[-104.686441,45.235883],[-104.681316,45.235888],[-104.676191,45.235894],[-104.671066,45.2359],[-104.671072,45.23328],[-104.671074,45.232277],[-104.671081,45.229657],[-104.671083,45.228653]]]}},{"type":"Feature","properties":{"sec":"12","frstdivid":"MT200070S0570E0SN120"},"geometry":{"type":"Polygon","coordinates":[[[-104.671064,45.236903],[-104.671066,45.2359],[-104.676191,45.235894],[-104.681316,45.235888],[-104.686441,45.235883],[-104.691566,45.235877],[-104.691559,45.239503],[-104.691552,45.243129],[-104.691545,45.246755],[-104.691537,45.250381],[-104.68641,45.250383],[-104.681283,45.250385],[-104.676156,45.250388],[-104.671028,45.25039],[-104.671035,45.247771],[-104.671037,45.246768],[-104.671044,45.24415],[-104.671046,45.243147],[-104.671054,45.240526],[-104.671056,45.239523],[-104.671064,45.236903]]]}},{"type":"Feature","properties":{"sec":"07","frstdivid":"MT200070S0570E0SN070"},"geometry":{"type":"Polygon","coordinates":[[[-104.778701,45.250357],[-104.773574,45.250358],[-104.773574,45.246736],[-104.773574,45.243113],[-104.773574,45.239491],[-104.773573,45.235869],[-104.778697,45.235869],[-104.783821,45.235869],[-104.788945,45.235871],[-104.793628,45.235873],[-104.793624,45.239494],[-104.793621,45.243115],[-104.793617,45.246736],[-104.793613,45.250357],[-104.788954,45.250356],[-104.783828,45.250356],[-104.778701,45.250357]]]}},{"type":"Feature","properties":{"sec":"20","frstdivid":"MT200070S0570E0SN200"},"geometry":{"type":"Polygon","coordinates":[[[-104.768473,45.206905],[-104.773594,45.206907],[-104.773592,45.210525],[-104.773591,45.214143],[-104.773589,45.217761],[-104.773588,45.221379],[-104.768465,45.221387],[-104.763343,45.221395],[-104.758221,45.221402],[-104.753098,45.22141],[-104.753102,45.217782],[-104.753105,45.214154],[-104.753108,45.210526],[-104.753112,45.206899],[-104.758232,45.206901],[-104.763353,45.206903],[-104.768473,45.206905]]]}},{"type":"Feature","properties":{"sec":"03","frstdivid":"MT200070S0570E0SN030"},"geometry":{"type":"Polygon","coordinates":[[[-104.712041,45.250403],[-104.717171,45.2504],[-104.722301,45.250396],[-104.727432,45.250392],[-104.732562,45.250388],[-104.732565,45.254011],[-104.732567,45.257633],[-104.732568,45.261255],[-104.732569,45.264807],[-104.727441,45.264805],[-104.722313,45.264803],[-104.717185,45.264802],[-104.712057,45.2648],[-104.712053,45.261272],[-104.712048,45.25765],[-104.712044,45.254027],[-104.712041,45.250403]]]}},{"type":"Feature","properties":{"sec":"36","frstdivid":"MT200070S0570E0SN360"},"geometry":{"type":"Polygon","coordinates":[[[-104.691658,45.188775],[-104.691651,45.192401],[-104.68653,45.192399],[-104.681408,45.192397],[-104.676286,45.192395],[-104.671165,45.192393],[-104.67117,45.189769],[-104.671173,45.188766],[-104.671178,45.186142],[-104.671181,45.185139],[-104.671186,45.182514],[-104.671189,45.181511],[-104.671195,45.178886],[-104.671197,45.177883],[-104.676317,45.177886],[-104.681437,45.17789],[-104.686557,45.177893],[-104.691677,45.177897],[-104.69167,45.181523],[-104.691664,45.185149],[-104.691658,45.188775]]]}},{"type":"Feature","properties":{"sec":"29","frstdivid":"MT200070S0570E0SN290"},"geometry":{"type":"Polygon","coordinates":[[[-104.763353,45.206903],[-104.758232,45.206901],[-104.753112,45.206899],[-104.753117,45.203273],[-104.753122,45.199648],[-104.753128,45.196022],[-104.753133,45.192397],[-104.758254,45.192398],[-104.763375,45.192399],[-104.768496,45.192399],[-104.773617,45.1924],[-104.773611,45.196027],[-104.773605,45.199654],[-104.773599,45.20328],[-104.773594,45.206907],[-104.768473,45.206905],[-104.763353,45.206903]]]}},{"type":"Feature","properties":{"sec":"01","frstdivid":"MT200070S0570E0SN010"},"geometry":{"type":"Polygon","coordinates":[[[-104.671016,45.255018],[-104.671018,45.254014],[-104.671026,45.251393],[-104.671028,45.25039],[-104.676156,45.250388],[-104.681283,45.250385],[-104.68641,45.250383],[-104.691537,45.250381],[-104.691533,45.253998],[-104.691528,45.257616],[-104.691523,45.261234],[-104.691517,45.264802],[-104.686386,45.264798],[-104.681255,45.264795],[-104.676123,45.264792],[-104.670992,45.264789],[-104.670998,45.262179],[-104.671,45.261262],[-104.671006,45.25856],[-104.671009,45.257638],[-104.671016,45.255018]]]}},{"type":"Feature","properties":{"sec":"14","frstdivid":"MT200070S0570E0SN140"},"geometry":{"type":"Polygon","coordinates":[[[-104.691566,45.235877],[-104.691573,45.232254],[-104.69158,45.228632],[-104.691587,45.22501],[-104.691594,45.221387],[-104.696719,45.221389],[-104.701844,45.221392],[-104.706969,45.221394],[-104.712095,45.221396],[-104.712087,45.225022],[-104.71208,45.228649],[-104.712072,45.232275],[-104.712065,45.235901],[-104.70694,45.235895],[-104.701816,45.235889],[-104.696691,45.235883],[-104.691566,45.235877]]]}},{"type":"Feature","properties":{"sec":"31","frstdivid":"MT200070S0570E0SN310"},"geometry":{"type":"Polygon","coordinates":[[[-104.793663,45.177915],[-104.793662,45.181537],[-104.793661,45.18516],[-104.79366,45.188782],[-104.793659,45.192405],[-104.788971,45.192403],[-104.783852,45.192401],[-104.778735,45.192401],[-104.773617,45.1924],[-104.773624,45.188778],[-104.773632,45.185155],[-104.77364,45.181533],[-104.773648,45.17791],[-104.778765,45.177911],[-104.783883,45.177912],[-104.789001,45.177914],[-104.793663,45.177915]]]}},{"type":"Feature","properties":{"sec":"08","frstdivid":"MT200070S0570E0SN080"},"geometry":{"type":"Polygon","coordinates":[[[-104.763326,45.250387],[-104.758201,45.250402],[-104.753077,45.250416],[-104.753081,45.246786],[-104.753086,45.243156],[-104.75309,45.239526],[-104.753094,45.235895],[-104.758214,45.235889],[-104.763334,45.235882],[-104.768454,45.235875],[-104.773573,45.235869],[-104.773574,45.239491],[-104.773574,45.243113],[-104.773574,45.246736],[-104.773574,45.250358],[-104.76845,45.250373],[-104.763326,45.250387]]]}},{"type":"Feature","properties":{"sec":"25","frstdivid":"MT200070S0570E0SN250"},"geometry":{"type":"Polygon","coordinates":[[[-104.671162,45.193396],[-104.671165,45.192393],[-104.676286,45.192395],[-104.681408,45.192397],[-104.68653,45.192399],[-104.691651,45.192401],[-104.691645,45.196025],[-104.691638,45.19965],[-104.691631,45.203275],[-104.691624,45.2069],[-104.686502,45.206899],[-104.681379,45.206897],[-104.676256,45.206896],[-104.671134,45.206895],[-104.671139,45.204273],[-104.671141,45.20327],[-104.671147,45.200648],[-104.671149,45.199645],[-104.671155,45.197022],[-104.671157,45.196019],[-104.671162,45.193396]]]}}]}