{"type":"FeatureCollection","note":"BLM Public Land Survey System. Provided by the Bureau of Land Management as is. These data are neither legal documents nor land surveys and must not be used as such.","features":[{"type":"Feature","properties":{"sec":"15","frstdivid":"MT200090S0460E0SN150"},"geometry":{"type":"Polygon","coordinates":[[[-106.080864,45.043837],[-106.080865,45.047455],[-106.080866,45.051072],[-106.080867,45.05469],[-106.080867,45.058308],[-106.075761,45.058308],[-106.070654,45.058308],[-106.065548,45.058309],[-106.060441,45.058309],[-106.060441,45.05469],[-106.06044,45.05107],[-106.06044,45.047451],[-106.060439,45.043832],[-106.065545,45.043833],[-106.070652,45.043834],[-106.075758,45.043836],[-106.080864,45.043837]]]}},{"type":"Feature","properties":{"sec":"07","frstdivid":"MT200090S0460E0SN070"},"geometry":{"type":"Polygon","coordinates":[[[-106.137051,45.072779],[-106.131955,45.072782],[-106.126846,45.072775],[-106.121737,45.072768],[-106.12173,45.06915],[-106.121723,45.065531],[-106.121715,45.061913],[-106.121708,45.058294],[-106.126814,45.058294],[-106.13192,45.058293],[-106.137027,45.058294],[-106.14161,45.058295],[-106.141613,45.061916],[-106.141616,45.065537],[-106.141614,45.069156],[-106.141613,45.072776],[-106.137051,45.072779]]]}},{"type":"Feature","properties":{"sec":"16","frstdivid":"MT200090S0460E0SN160"},"geometry":{"type":"Polygon","coordinates":[[[-106.096177,45.043828],[-106.101281,45.043825],[-106.101284,45.047443],[-106.101288,45.051061],[-106.101292,45.05468],[-106.101295,45.058298],[-106.096188,45.0583],[-106.091081,45.058303],[-106.085974,45.058305],[-106.080867,45.058308],[-106.080867,45.05469],[-106.080866,45.051072],[-106.080865,45.047455],[-106.080864,45.043837],[-106.085968,45.043834],[-106.091072,45.043831],[-106.096177,45.043828]]]}},{"type":"Feature","properties":{"sec":"01","frstdivid":"MT200090S0460E0SN010"},"geometry":{"type":"Polygon","coordinates":[[[-106.034913,45.072791],[-106.040021,45.072792],[-106.040021,45.07641],[-106.040022,45.080028],[-106.040023,45.083645],[-106.040023,45.087263],[-106.034916,45.087263],[-106.029808,45.087263],[-106.024701,45.087263],[-106.019593,45.087262],[-106.019593,45.083644],[-106.019592,45.080026],[-106.019591,45.076407],[-106.019591,45.072789],[-106.024698,45.07279],[-106.029806,45.07279],[-106.034913,45.072791]]]}},{"type":"Feature","properties":{"sec":"10","frstdivid":"MT200090S0460E0SN100"},"geometry":{"type":"Polygon","coordinates":[[[-106.075761,45.058308],[-106.080867,45.058308],[-106.080869,45.061925],[-106.080871,45.065543],[-106.080873,45.069161],[-106.080875,45.072778],[-106.075768,45.07278],[-106.07066,45.072781],[-106.065553,45.072782],[-106.060446,45.072784],[-106.060444,45.069165],[-106.060443,45.065546],[-106.060442,45.061928],[-106.060441,45.058309],[-106.065548,45.058309],[-106.070654,45.058308],[-106.075761,45.058308]]]}},{"type":"Feature","properties":{"sec":"14","frstdivid":"MT200090S0460E0SN140"},"geometry":{"type":"Polygon","coordinates":[[[-106.04002,45.051089],[-106.04002,45.047472],[-106.040021,45.043855],[-106.045125,45.043849],[-106.05023,45.043843],[-106.055335,45.043838],[-106.060439,45.043832],[-106.06044,45.047451],[-106.06044,45.05107],[-106.060441,45.05469],[-106.060441,45.058309],[-106.055336,45.058313],[-106.05023,45.058316],[-106.045125,45.05832],[-106.040019,45.058323],[-106.04002,45.054706],[-106.04002,45.051089]]]}},{"type":"Feature","properties":{"sec":"18","frstdivid":"MT200090S0460E0SN180"},"geometry":{"type":"Polygon","coordinates":[[[-106.121697,45.051063],[-106.121692,45.047448],[-106.121686,45.043833],[-106.126792,45.043839],[-106.131897,45.043846],[-106.136995,45.043834],[-106.141593,45.043826],[-106.141597,45.047443],[-106.141602,45.05106],[-106.141606,45.054678],[-106.14161,45.058295],[-106.137027,45.058294],[-106.13192,45.058293],[-106.126814,45.058294],[-106.121708,45.058294],[-106.121703,45.054679],[-106.121697,45.051063]]]}},{"type":"Feature","properties":{"sec":"04","frstdivid":"MT200090S0460E0SN040"},"geometry":{"type":"Polygon","coordinates":[[[-106.085988,45.087245],[-106.080881,45.087247],[-106.08088,45.08363],[-106.080878,45.080013],[-106.080877,45.076396],[-106.080875,45.072778],[-106.085983,45.072776],[-106.09109,45.072774],[-106.096198,45.072772],[-106.101305,45.072769],[-106.101306,45.076387],[-106.101308,45.080004],[-106.101309,45.083621],[-106.10131,45.087239],[-106.096203,45.087241],[-106.091096,45.087243],[-106.085988,45.087245]]]}},{"type":"Feature","properties":{"sec":"05","frstdivid":"MT200090S0460E0SN050"},"geometry":{"type":"Polygon","coordinates":[[[-106.116629,45.072769],[-106.121737,45.072768],[-106.121738,45.076384],[-106.12174,45.08],[-106.121741,45.083617],[-106.121742,45.087233],[-106.116634,45.087234],[-106.111526,45.087236],[-106.108972,45.087236],[-106.106418,45.087237],[-106.10131,45.087239],[-106.101309,45.083621],[-106.101308,45.080004],[-106.101306,45.076387],[-106.101305,45.072769],[-106.106413,45.072769],[-106.111521,45.072769],[-106.116629,45.072769]]]}},{"type":"Feature","properties":{"sec":"12","frstdivid":"MT200090S0460E0SN120"},"geometry":{"type":"Polygon","coordinates":[[[-106.019592,45.069173],[-106.019594,45.065557],[-106.019596,45.061941],[-106.019597,45.058326],[-106.024703,45.058325],[-106.029808,45.058324],[-106.034914,45.058324],[-106.040019,45.058323],[-106.04002,45.06194],[-106.04002,45.065557],[-106.04002,45.069175],[-106.040021,45.072792],[-106.034913,45.072791],[-106.029806,45.07279],[-106.024698,45.07279],[-106.019591,45.072789],[-106.019592,45.069173]]]}},{"type":"Feature","properties":{"sec":"30","frstdivid":"MT200090S0460E0SN300"},"geometry":{"type":"Polygon","coordinates":[[[-106.141587,45.01848],[-106.141587,45.022104],[-106.141587,45.025727],[-106.141587,45.029351],[-106.136969,45.029357],[-106.131874,45.029361],[-106.126769,45.029359],[-106.121665,45.029357],[-106.121655,45.02574],[-106.121645,45.022123],[-106.121635,45.018506],[-106.121626,45.014888],[-106.126728,45.014879],[-106.13183,45.014869],[-106.136933,45.014862],[-106.141586,45.014856],[-106.141587,45.01848]]]}},{"type":"Feature","properties":{"sec":"20","frstdivid":"MT200090S0460E0SN200"},"geometry":{"type":"Polygon","coordinates":[[[-106.116562,45.029355],[-106.121665,45.029357],[-106.12167,45.032976],[-106.121675,45.036595],[-106.121681,45.040214],[-106.121686,45.043833],[-106.116585,45.043831],[-106.111484,45.043829],[-106.106382,45.043827],[-106.101281,45.043825],[-106.101274,45.040206],[-106.101267,45.036587],[-106.10126,45.032968],[-106.101254,45.029349],[-106.106356,45.029351],[-106.111459,45.029353],[-106.116562,45.029355]]]}},{"type":"Feature","properties":{"sec":"26","frstdivid":"MT200090S0460E0SN260"},"geometry":{"type":"Polygon","coordinates":[[[-106.055299,45.014887],[-106.060405,45.014874],[-106.060413,45.018494],[-106.060421,45.022113],[-106.060429,45.025733],[-106.060437,45.029352],[-106.055332,45.029362],[-106.050228,45.029371],[-106.045123,45.029381],[-106.040019,45.029391],[-106.040009,45.025774],[-106.039999,45.022158],[-106.03999,45.018542],[-106.03998,45.014926],[-106.045086,45.014913],[-106.050192,45.0149],[-106.055299,45.014887]]]}},{"type":"Feature","properties":{"sec":"29","frstdivid":"MT200090S0460E0SN290"},"geometry":{"type":"Polygon","coordinates":[[[-106.101254,45.029349],[-106.101246,45.025728],[-106.101239,45.022108],[-106.101231,45.018487],[-106.101224,45.014866],[-106.106324,45.014871],[-106.111425,45.014877],[-106.116525,45.014883],[-106.121626,45.014888],[-106.121635,45.018506],[-106.121645,45.022123],[-106.121655,45.02574],[-106.121665,45.029357],[-106.116562,45.029355],[-106.111459,45.029353],[-106.106356,45.029351],[-106.101254,45.029349]]]}},{"type":"Feature","properties":{"sec":"11","frstdivid":"MT200090S0460E0SN110"},"geometry":{"type":"Polygon","coordinates":[[[-106.04002,45.065557],[-106.04002,45.06194],[-106.040019,45.058323],[-106.045125,45.05832],[-106.05023,45.058316],[-106.055336,45.058313],[-106.060441,45.058309],[-106.060442,45.061928],[-106.060443,45.065546],[-106.060444,45.069165],[-106.060446,45.072784],[-106.055339,45.072786],[-106.050233,45.072788],[-106.045127,45.07279],[-106.040021,45.072792],[-106.04002,45.069175],[-106.04002,45.065557]]]}},{"type":"Feature","properties":{"sec":"21","frstdivid":"MT200090S0460E0SN210"},"geometry":{"type":"Polygon","coordinates":[[[-106.091053,45.029355],[-106.096153,45.029352],[-106.101254,45.029349],[-106.10126,45.032968],[-106.101267,45.036587],[-106.101274,45.040206],[-106.101281,45.043825],[-106.096177,45.043828],[-106.091072,45.043831],[-106.085968,45.043834],[-106.080864,45.043837],[-106.080861,45.040218],[-106.080859,45.036599],[-106.080856,45.03298],[-106.080853,45.029361],[-106.085953,45.029358],[-106.091053,45.029355]]]}},{"type":"Feature","properties":{"sec":"09","frstdivid":"MT200090S0460E0SN090"},"geometry":{"type":"Polygon","coordinates":[[[-106.09109,45.072774],[-106.085983,45.072776],[-106.080875,45.072778],[-106.080873,45.069161],[-106.080871,45.065543],[-106.080869,45.061925],[-106.080867,45.058308],[-106.085974,45.058305],[-106.091081,45.058303],[-106.096188,45.0583],[-106.101295,45.058298],[-106.101298,45.061916],[-106.1013,45.065533],[-106.101303,45.069151],[-106.101305,45.072769],[-106.096198,45.072772],[-106.09109,45.072774]]]}},{"type":"Feature","properties":{"sec":"17","frstdivid":"MT200090S0460E0SN170"},"geometry":{"type":"Polygon","coordinates":[[[-106.101295,45.058298],[-106.101292,45.05468],[-106.101288,45.051061],[-106.101284,45.047443],[-106.101281,45.043825],[-106.106382,45.043827],[-106.111484,45.043829],[-106.116585,45.043831],[-106.121686,45.043833],[-106.121692,45.047448],[-106.121697,45.051063],[-106.121703,45.054679],[-106.121708,45.058294],[-106.116605,45.058295],[-106.111501,45.058296],[-106.106398,45.058297],[-106.101295,45.058298]]]}},{"type":"Feature","properties":{"sec":"06","frstdivid":"MT200090S0460E0SN060"},"geometry":{"type":"Polygon","coordinates":[[[-106.121741,45.083617],[-106.12174,45.08],[-106.121738,45.076384],[-106.121737,45.072768],[-106.126846,45.072775],[-106.131955,45.072782],[-106.137051,45.072779],[-106.141613,45.072776],[-106.141615,45.07639],[-106.141616,45.080003],[-106.141618,45.083617],[-106.14162,45.087231],[-106.13707,45.087231],[-106.131961,45.087232],[-106.126851,45.087232],[-106.121742,45.087233],[-106.121741,45.083617]]]}},{"type":"Feature","properties":{"sec":"08","frstdivid":"MT200090S0460E0SN080"},"geometry":{"type":"Polygon","coordinates":[[[-106.116605,45.058295],[-106.121708,45.058294],[-106.121715,45.061913],[-106.121723,45.065531],[-106.12173,45.06915],[-106.121737,45.072768],[-106.116629,45.072769],[-106.111521,45.072769],[-106.106413,45.072769],[-106.101305,45.072769],[-106.101303,45.069151],[-106.1013,45.065533],[-106.101298,45.061916],[-106.101295,45.058298],[-106.106398,45.058297],[-106.111501,45.058296],[-106.116605,45.058295]]]}},{"type":"Feature","properties":{"sec":"23","frstdivid":"MT200090S0460E0SN230"},"geometry":{"type":"Polygon","coordinates":[[[-106.055332,45.029362],[-106.060437,45.029352],[-106.060437,45.032972],[-106.060438,45.036592],[-106.060439,45.040212],[-106.060439,45.043832],[-106.055335,45.043838],[-106.05023,45.043843],[-106.045125,45.043849],[-106.040021,45.043855],[-106.04002,45.040239],[-106.04002,45.036623],[-106.040019,45.033007],[-106.040019,45.029391],[-106.045123,45.029381],[-106.050228,45.029371],[-106.055332,45.029362]]]}},{"type":"Feature","properties":{"sec":"22","frstdivid":"MT200090S0460E0SN220"},"geometry":{"type":"Polygon","coordinates":[[[-106.060439,45.043832],[-106.060439,45.040212],[-106.060438,45.036592],[-106.060437,45.032972],[-106.060437,45.029352],[-106.065541,45.029355],[-106.070645,45.029357],[-106.075749,45.029359],[-106.080853,45.029361],[-106.080856,45.03298],[-106.080859,45.036599],[-106.080861,45.040218],[-106.080864,45.043837],[-106.075758,45.043836],[-106.070652,45.043834],[-106.065545,45.043833],[-106.060439,45.043832]]]}},{"type":"Feature","properties":{"sec":"02","frstdivid":"MT200090S0460E0SN020"},"geometry":{"type":"Polygon","coordinates":[[[-106.040023,45.083645],[-106.040022,45.080028],[-106.040021,45.07641],[-106.040021,45.072792],[-106.045127,45.07279],[-106.050233,45.072788],[-106.055339,45.072786],[-106.060446,45.072784],[-106.060448,45.076402],[-106.06045,45.08002],[-106.060452,45.083638],[-106.060454,45.087256],[-106.055346,45.087258],[-106.050238,45.08726],[-106.045131,45.087262],[-106.040023,45.087263],[-106.040023,45.083645]]]}},{"type":"Feature","properties":{"sec":"27","frstdivid":"MT200090S0460E0SN270"},"geometry":{"type":"Polygon","coordinates":[[[-106.06551,45.014877],[-106.070616,45.01488],[-106.075721,45.014882],[-106.080827,45.014885],[-106.080833,45.018504],[-106.08084,45.022123],[-106.080846,45.025742],[-106.080853,45.029361],[-106.075749,45.029359],[-106.070645,45.029357],[-106.065541,45.029355],[-106.060437,45.029352],[-106.060429,45.025733],[-106.060421,45.022113],[-106.060413,45.018494],[-106.060405,45.014874],[-106.06551,45.014877]]]}},{"type":"Feature","properties":{"sec":"03","frstdivid":"MT200090S0460E0SN030"},"geometry":{"type":"Polygon","coordinates":[[[-106.080881,45.087247],[-106.075774,45.08725],[-106.070667,45.087252],[-106.06556,45.087254],[-106.060454,45.087256],[-106.060452,45.083638],[-106.06045,45.08002],[-106.060448,45.076402],[-106.060446,45.072784],[-106.065553,45.072782],[-106.07066,45.072781],[-106.075768,45.07278],[-106.080875,45.072778],[-106.080877,45.076396],[-106.080878,45.080013],[-106.08088,45.08363],[-106.080881,45.087247]]]}},{"type":"Feature","properties":{"sec":"28","frstdivid":"MT200090S0460E0SN280"},"geometry":{"type":"Polygon","coordinates":[[[-106.101239,45.022108],[-106.101246,45.025728],[-106.101254,45.029349],[-106.096153,45.029352],[-106.091053,45.029355],[-106.085953,45.029358],[-106.080853,45.029361],[-106.080846,45.025742],[-106.08084,45.022123],[-106.080833,45.018504],[-106.080827,45.014885],[-106.085926,45.01488],[-106.091025,45.014875],[-106.096125,45.014871],[-106.101224,45.014866],[-106.101231,45.018487],[-106.101239,45.022108]]]}},{"type":"Feature","properties":{"sec":"19","frstdivid":"MT200090S0460E0SN190"},"geometry":{"type":"Polygon","coordinates":[[[-106.136969,45.029357],[-106.141587,45.029351],[-106.141589,45.03297],[-106.141592,45.03659],[-106.141593,45.040208],[-106.141593,45.043826],[-106.136995,45.043834],[-106.131897,45.043846],[-106.126792,45.043839],[-106.121686,45.043833],[-106.121681,45.040214],[-106.121675,45.036595],[-106.12167,45.032976],[-106.121665,45.029357],[-106.126769,45.029359],[-106.131874,45.029361],[-106.136969,45.029357]]]}},{"type":"Feature","properties":{"sec":"25","frstdivid":"MT200090S0460E0SN250"},"geometry":{"type":"Polygon","coordinates":[[[-106.024786,45.014854],[-106.029859,45.014876],[-106.0349,45.014914],[-106.03998,45.014926],[-106.03999,45.018542],[-106.039999,45.022158],[-106.040009,45.025774],[-106.040019,45.029391],[-106.034921,45.029384],[-106.029849,45.029321],[-106.024751,45.029315],[-106.019652,45.029309],[-106.019665,45.025678],[-106.019653,45.022014],[-106.019722,45.018424],[-106.01971,45.014832],[-106.024786,45.014854]]]}},{"type":"Feature","properties":{"sec":"13","frstdivid":"MT200090S0460E0SN130"},"geometry":{"type":"Polygon","coordinates":[[[-106.040019,45.058323],[-106.034914,45.058324],[-106.029808,45.058324],[-106.024703,45.058325],[-106.019597,45.058326],[-106.019598,45.054706],[-106.019598,45.051087],[-106.019602,45.04746],[-106.019606,45.04383],[-106.024712,45.043832],[-106.029818,45.043833],[-106.034915,45.043853],[-106.040021,45.043855],[-106.04002,45.047472],[-106.04002,45.051089],[-106.04002,45.054706],[-106.040019,45.058323]]]}},{"type":"Feature","properties":{"sec":"24","frstdivid":"MT200090S0460E0SN240"},"geometry":{"type":"Polygon","coordinates":[[[-106.034921,45.029384],[-106.040019,45.029391],[-106.040019,45.033007],[-106.04002,45.036623],[-106.04002,45.040239],[-106.040021,45.043855],[-106.034915,45.043853],[-106.029818,45.043833],[-106.024712,45.043832],[-106.019606,45.04383],[-106.019618,45.0402],[-106.019629,45.03657],[-106.019641,45.032939],[-106.019652,45.029309],[-106.024751,45.029315],[-106.029849,45.029321],[-106.034921,45.029384]]]}},{"type":"Feature","properties":{"sec":"33","frstdivid":"MT200090S0460E0SN330"},"geometry":{"type":"Polygon","coordinates":[[[-106.101222,45.011244],[-106.101224,45.014866],[-106.096125,45.014871],[-106.091025,45.014875],[-106.085926,45.01488],[-106.080827,45.014885],[-106.080818,45.011266],[-106.08081,45.007646],[-106.080804,45.004027],[-106.080797,45.000407],[-106.080791,44.996787],[-106.080834,44.99351],[-106.085503,44.993516],[-106.08594,44.993516],[-106.089668,44.993521],[-106.091047,44.99351],[-106.095698,44.993476],[-106.096153,44.993473],[-106.10126,44.993439],[-106.101222,44.996769],[-106.101213,45.000382],[-106.101217,45.004002],[-106.101221,45.007623],[-106.101222,45.011244]]]}},{"type":"Feature","properties":{"sec":"32","frstdivid":"MT200090S0460E0SN320"},"geometry":{"type":"Polygon","coordinates":[[[-106.101222,45.011244],[-106.101221,45.007623],[-106.101217,45.004002],[-106.101213,45.000382],[-106.101222,44.996769],[-106.10126,44.993439],[-106.105896,44.993408],[-106.106348,44.993405],[-106.10985,44.993381],[-106.111437,44.993375],[-106.116096,44.993359],[-106.116526,44.993357],[-106.121615,44.993337],[-106.121634,44.996838],[-106.121593,45.000422],[-106.121601,45.00404],[-106.121609,45.007657],[-106.121617,45.011273],[-106.121626,45.014888],[-106.116525,45.014883],[-106.111425,45.014877],[-106.106324,45.014871],[-106.101224,45.014866],[-106.101222,45.011244]]]}},{"type":"Feature","properties":{"sec":"34","frstdivid":"MT200090S0460E0SN340"},"geometry":{"type":"Polygon","coordinates":[[[-106.080827,45.014885],[-106.075721,45.014882],[-106.070616,45.01488],[-106.06551,45.014877],[-106.060405,45.014874],[-106.060397,45.011255],[-106.060388,45.007636],[-106.060383,45.004017],[-106.060377,45.000397],[-106.060372,44.996778],[-106.060418,44.993513],[-106.062387,44.993509],[-106.065523,44.993505],[-106.067488,44.993501],[-106.069424,44.993497],[-106.070628,44.993499],[-106.072589,44.993502],[-106.074752,44.993505],[-106.075732,44.993506],[-106.080405,44.99351],[-106.080834,44.99351],[-106.080791,44.996787],[-106.080797,45.000407],[-106.080804,45.004027],[-106.08081,45.007646],[-106.080818,45.011266],[-106.080827,45.014885]]]}},{"type":"Feature","properties":{"sec":"35","frstdivid":"MT200090S0460E0SN350"},"geometry":{"type":"Polygon","coordinates":[[[-106.060383,45.004017],[-106.060388,45.007636],[-106.060397,45.011255],[-106.060405,45.014874],[-106.055299,45.014887],[-106.050192,45.0149],[-106.045086,45.014913],[-106.03998,45.014926],[-106.039969,45.011307],[-106.039958,45.007689],[-106.039952,45.00407],[-106.039946,45.000451],[-106.03994,44.996832],[-106.039988,44.993528],[-106.041983,44.993528],[-106.045096,44.993532],[-106.049377,44.993537],[-106.050203,44.993534],[-106.052185,44.993529],[-106.055311,44.993524],[-106.057286,44.993519],[-106.060418,44.993513],[-106.060372,44.996778],[-106.060377,45.000397],[-106.060383,45.004017]]]}},{"type":"Feature","properties":{"sec":"36","frstdivid":"MT200090S0460E0SN360"},"geometry":{"type":"Polygon","coordinates":[[[-106.03994,44.996832],[-106.039946,45.000451],[-106.039952,45.00407],[-106.039958,45.007689],[-106.039969,45.011307],[-106.03998,45.014926],[-106.0349,45.014914],[-106.029859,45.014876],[-106.024786,45.014854],[-106.01971,45.014832],[-106.019707,45.011315],[-106.019716,45.007702],[-106.019713,45.004075],[-106.01971,45.000448],[-106.019707,44.996821],[-106.019707,44.99354],[-106.021564,44.993538],[-106.024778,44.993535],[-106.029056,44.993531],[-106.029848,44.993531],[-106.031774,44.993531],[-106.034918,44.993529],[-106.039988,44.993528],[-106.03994,44.996832]]]}},{"type":"Feature","properties":{"sec":"31","frstdivid":"MT200090S0460E0SN310"},"geometry":{"type":"Polygon","coordinates":[[[-106.13183,45.014869],[-106.126728,45.014879],[-106.121626,45.014888],[-106.121617,45.011273],[-106.121609,45.007657],[-106.121601,45.00404],[-106.121593,45.000422],[-106.121634,44.996838],[-106.121615,44.993337],[-106.126297,44.993323],[-106.126713,44.993321],[-106.130104,44.99331],[-106.131812,44.993316],[-106.1365,44.993336],[-106.136911,44.993338],[-106.141614,44.993361],[-106.141629,44.996779],[-106.141583,45.000362],[-106.141584,45.003985],[-106.141584,45.007607],[-106.141585,45.011232],[-106.141586,45.014856],[-106.136933,45.014862],[-106.13183,45.014869]]]}}]}