{"type":"FeatureCollection","note":"BLM Public Land Survey System. Provided by the Bureau of Land Management as is. These data are neither legal documents nor land surveys and must not be used as such.","features":[{"type":"Feature","properties":{"sec":"28","frstdivid":"WY060370N0600W0SN280"},"geometry":{"type":"Polygon","coordinates":[[[-104.06859,43.14761],[-104.073548,43.147626],[-104.078506,43.147642],[-104.083464,43.147659],[-104.083453,43.15128],[-104.083441,43.154901],[-104.08343,43.158521],[-104.083419,43.162142],[-104.078446,43.162126],[-104.073473,43.16211],[-104.068501,43.162094],[-104.063528,43.162078],[-104.063554,43.158457],[-104.06358,43.154836],[-104.063606,43.151215],[-104.063632,43.147594],[-104.06859,43.14761]]]}},{"type":"Feature","properties":{"sec":"19","frstdivid":"WY060370N0600W0SN190"},"geometry":{"type":"Polygon","coordinates":[[[-104.113025,43.176607],[-104.108075,43.176624],[-104.103124,43.176641],[-104.103133,43.17302],[-104.103142,43.169398],[-104.103151,43.165777],[-104.10316,43.162156],[-104.10811,43.162139],[-104.11306,43.162123],[-104.118008,43.162108],[-104.122931,43.162093],[-104.122951,43.165713],[-104.12297,43.169332],[-104.12299,43.172952],[-104.12301,43.176571],[-104.117974,43.176589],[-104.113025,43.176607]]]}},{"type":"Feature","properties":{"sec":"31","frstdivid":"WY060370N0600W0SN310"},"geometry":{"type":"Polygon","coordinates":[[[-104.103219,43.147671],[-104.103276,43.144051],[-104.103334,43.14043],[-104.103391,43.13681],[-104.103449,43.133189],[-104.103971,43.133189],[-104.108408,43.133172],[-104.10893,43.133172],[-104.113368,43.133155],[-104.113889,43.133155],[-104.118327,43.133138],[-104.118849,43.133137],[-104.123286,43.13312],[-104.123243,43.136743],[-104.123199,43.140366],[-104.123156,43.143989],[-104.123113,43.147612],[-104.118056,43.147625],[-104.113111,43.147636],[-104.108165,43.147654],[-104.103219,43.147671]]]}},{"type":"Feature","properties":{"sec":"30","frstdivid":"WY060370N0600W0SN300"},"geometry":{"type":"Polygon","coordinates":[[[-104.10811,43.162139],[-104.10316,43.162156],[-104.103175,43.158534],[-104.103189,43.154913],[-104.103204,43.151292],[-104.103219,43.147671],[-104.108165,43.147654],[-104.113111,43.147636],[-104.118056,43.147625],[-104.123113,43.147612],[-104.123066,43.151233],[-104.123019,43.154853],[-104.122975,43.158473],[-104.122931,43.162093],[-104.118008,43.162108],[-104.11306,43.162123],[-104.10811,43.162139]]]}},{"type":"Feature","properties":{"sec":"29","frstdivid":"WY060370N0600W0SN290"},"geometry":{"type":"Polygon","coordinates":[[[-104.098225,43.162152],[-104.093289,43.162149],[-104.088354,43.162146],[-104.083419,43.162142],[-104.08343,43.158521],[-104.083441,43.154901],[-104.083453,43.15128],[-104.083464,43.147659],[-104.088403,43.147662],[-104.093342,43.147665],[-104.09828,43.147668],[-104.103219,43.147671],[-104.103204,43.151292],[-104.103189,43.154913],[-104.103175,43.158534],[-104.10316,43.162156],[-104.098225,43.162152]]]}},{"type":"Feature","properties":{"sec":"34","frstdivid":"WY060370N0600W0SN340"},"geometry":{"type":"Polygon","coordinates":[[[-104.053481,43.133008],[-104.053815,43.133087],[-104.058786,43.133101],[-104.05932,43.133101],[-104.063752,43.133113],[-104.063722,43.136733],[-104.063692,43.140353],[-104.063662,43.143974],[-104.063632,43.147594],[-104.058687,43.147567],[-104.053536,43.147468],[-104.053527,43.145051],[-104.053522,43.143853],[-104.053513,43.141434],[-104.053508,43.140238],[-104.053499,43.137817],[-104.053494,43.136623],[-104.053486,43.1342],[-104.053481,43.133008]]]}},{"type":"Feature","properties":{"sec":"27","frstdivid":"WY060370N0600W0SN270"},"geometry":{"type":"Polygon","coordinates":[[[-104.063632,43.147594],[-104.063606,43.151215],[-104.06358,43.154836],[-104.063554,43.158457],[-104.063528,43.162078],[-104.05858,43.16205],[-104.053594,43.16196],[-104.053586,43.15952],[-104.053581,43.158337],[-104.053571,43.155903],[-104.053566,43.154714],[-104.053557,43.152285],[-104.053551,43.151091],[-104.053542,43.148668],[-104.053536,43.147468],[-104.058687,43.147567],[-104.063632,43.147594]]]}},{"type":"Feature","properties":{"sec":"33","frstdivid":"WY060370N0600W0SN330"},"geometry":{"type":"Polygon","coordinates":[[[-104.083499,43.144038],[-104.083464,43.147659],[-104.078506,43.147642],[-104.073548,43.147626],[-104.06859,43.14761],[-104.063632,43.147594],[-104.063662,43.143974],[-104.063692,43.140353],[-104.063722,43.136733],[-104.063752,43.133113],[-104.064286,43.133114],[-104.068715,43.13313],[-104.069277,43.13313],[-104.073678,43.133145],[-104.074267,43.133146],[-104.078642,43.133161],[-104.079257,43.133162],[-104.083604,43.133177],[-104.083569,43.136797],[-104.083534,43.140418],[-104.083499,43.144038]]]}},{"type":"Feature","properties":{"sec":"32","frstdivid":"WY060370N0600W0SN320"},"geometry":{"type":"Polygon","coordinates":[[[-104.089178,43.13318],[-104.093526,43.133183],[-104.094109,43.133183],[-104.098488,43.133186],[-104.09904,43.133186],[-104.103449,43.133189],[-104.103391,43.13681],[-104.103334,43.14043],[-104.103276,43.144051],[-104.103219,43.147671],[-104.09828,43.147668],[-104.093342,43.147665],[-104.088403,43.147662],[-104.083464,43.147659],[-104.083499,43.144038],[-104.083534,43.140418],[-104.083569,43.136797],[-104.083604,43.133177],[-104.084248,43.133177],[-104.088565,43.13318],[-104.089178,43.13318]]]}},{"type":"Feature","properties":{"sec":"20","frstdivid":"WY060370N0600W0SN200"},"geometry":{"type":"Polygon","coordinates":[[[-104.098194,43.176638],[-104.093264,43.176634],[-104.088333,43.176631],[-104.083403,43.176627],[-104.083407,43.173006],[-104.083411,43.169385],[-104.083415,43.165764],[-104.083419,43.162142],[-104.088354,43.162146],[-104.093289,43.162149],[-104.098225,43.162152],[-104.10316,43.162156],[-104.103151,43.165777],[-104.103142,43.169398],[-104.103133,43.17302],[-104.103124,43.176641],[-104.098194,43.176638]]]}},{"type":"Feature","properties":{"sec":"21","frstdivid":"WY060370N0600W0SN210"},"geometry":{"type":"Polygon","coordinates":[[[-104.063529,43.1657],[-104.063528,43.162078],[-104.068501,43.162094],[-104.073473,43.16211],[-104.078446,43.162126],[-104.083419,43.162142],[-104.083415,43.165764],[-104.083411,43.169385],[-104.083407,43.173006],[-104.083403,43.176627],[-104.078435,43.176612],[-104.073467,43.176597],[-104.068499,43.176582],[-104.063531,43.176566],[-104.06353,43.172944],[-104.06353,43.169322],[-104.063529,43.1657]]]}},{"type":"Feature","properties":{"sec":"22","frstdivid":"WY060370N0600W0SN220"},"geometry":{"type":"Polygon","coordinates":[[[-104.053631,43.173999],[-104.053628,43.17284],[-104.05362,43.170379],[-104.053616,43.169214],[-104.053609,43.16676],[-104.053605,43.165587],[-104.053597,43.16314],[-104.053594,43.16196],[-104.05858,43.16205],[-104.063528,43.162078],[-104.063529,43.1657],[-104.06353,43.169322],[-104.06353,43.172944],[-104.063531,43.176566],[-104.058582,43.176544],[-104.05364,43.176467],[-104.053631,43.173999]]]}},{"type":"Feature","properties":{"sec":"18","frstdivid":"WY060370N0600W0SN180"},"geometry":{"type":"Polygon","coordinates":[[[-104.12301,43.176571],[-104.123024,43.180191],[-104.123038,43.183811],[-104.123058,43.187431],[-104.123078,43.191051],[-104.118191,43.191065],[-104.11324,43.19108],[-104.108286,43.191103],[-104.103332,43.191125],[-104.10328,43.187504],[-104.103228,43.183883],[-104.103176,43.180262],[-104.103124,43.176641],[-104.108075,43.176624],[-104.113025,43.176607],[-104.117974,43.176589],[-104.12301,43.176571]]]}},{"type":"Feature","properties":{"sec":"15","frstdivid":"WY060370N0600W0SN150"},"geometry":{"type":"Polygon","coordinates":[[[-104.053683,43.18847],[-104.053679,43.187345],[-104.05367,43.184852],[-104.053666,43.183719],[-104.053657,43.181235],[-104.053653,43.180093],[-104.053644,43.177617],[-104.05364,43.176467],[-104.058582,43.176544],[-104.063531,43.176566],[-104.063547,43.180189],[-104.063562,43.183812],[-104.063578,43.187435],[-104.063593,43.191058],[-104.058642,43.191038],[-104.053696,43.190971],[-104.053683,43.18847]]]}},{"type":"Feature","properties":{"sec":"08","frstdivid":"WY060370N0600W0SN080"},"geometry":{"type":"Polygon","coordinates":[[[-104.083581,43.194736],[-104.083533,43.191114],[-104.088483,43.191117],[-104.093432,43.19112],[-104.098382,43.191122],[-104.103332,43.191125],[-104.103391,43.194747],[-104.10345,43.198368],[-104.103508,43.201989],[-104.103567,43.205611],[-104.098607,43.205609],[-104.093647,43.205606],[-104.088686,43.205604],[-104.083726,43.205601],[-104.083678,43.20198],[-104.083629,43.198358],[-104.083581,43.194736]]]}},{"type":"Feature","properties":{"sec":"07","frstdivid":"WY060370N0600W0SN070"},"geometry":{"type":"Polygon","coordinates":[[[-104.10345,43.198368],[-104.103391,43.194747],[-104.103332,43.191125],[-104.108286,43.191103],[-104.11324,43.19108],[-104.118191,43.191065],[-104.123078,43.191051],[-104.123171,43.194668],[-104.123264,43.198286],[-104.123357,43.201903],[-104.12345,43.205521],[-104.118414,43.205543],[-104.113465,43.205564],[-104.108516,43.205587],[-104.103567,43.205611],[-104.103508,43.201989],[-104.10345,43.198368]]]}},{"type":"Feature","properties":{"sec":"05","frstdivid":"WY060370N0600W0SN050"},"geometry":{"type":"Polygon","coordinates":[[[-104.083811,43.220212],[-104.083801,43.216465],[-104.083792,43.212844],[-104.083759,43.209223],[-104.083726,43.205601],[-104.088686,43.205604],[-104.093647,43.205606],[-104.098607,43.205609],[-104.103567,43.205611],[-104.103597,43.209232],[-104.103626,43.212853],[-104.103654,43.216474],[-104.103682,43.220105],[-104.098714,43.220132],[-104.093746,43.220159],[-104.088778,43.220186],[-104.083811,43.220212]]]}},{"type":"Feature","properties":{"sec":"16","frstdivid":"WY060370N0600W0SN160"},"geometry":{"type":"Polygon","coordinates":[[[-104.083435,43.180249],[-104.083468,43.183871],[-104.0835,43.187492],[-104.083533,43.191114],[-104.078548,43.1911],[-104.073563,43.191086],[-104.068578,43.191072],[-104.063593,43.191058],[-104.063578,43.187435],[-104.063562,43.183812],[-104.063547,43.180189],[-104.063531,43.176566],[-104.068499,43.176582],[-104.073467,43.176597],[-104.078435,43.176612],[-104.083403,43.176627],[-104.083435,43.180249]]]}},{"type":"Feature","properties":{"sec":"17","frstdivid":"WY060370N0600W0SN170"},"geometry":{"type":"Polygon","coordinates":[[[-104.083533,43.191114],[-104.0835,43.187492],[-104.083468,43.183871],[-104.083435,43.180249],[-104.083403,43.176627],[-104.088333,43.176631],[-104.093264,43.176634],[-104.098194,43.176638],[-104.103124,43.176641],[-104.103176,43.180262],[-104.103228,43.183883],[-104.10328,43.187504],[-104.103332,43.191125],[-104.098382,43.191122],[-104.093432,43.19112],[-104.088483,43.191117],[-104.083533,43.191114]]]}},{"type":"Feature","properties":{"sec":"10","frstdivid":"WY060370N0600W0SN100"},"geometry":{"type":"Polygon","coordinates":[[[-104.063783,43.205553],[-104.058834,43.205537],[-104.053767,43.205482],[-104.053755,43.202935],[-104.053749,43.201854],[-104.053737,43.199319],[-104.053731,43.198226],[-104.053719,43.195702],[-104.053713,43.194599],[-104.053701,43.192086],[-104.053696,43.190971],[-104.058642,43.191038],[-104.063593,43.191058],[-104.063641,43.194682],[-104.063688,43.198305],[-104.063736,43.201929],[-104.063783,43.205553]]]}},{"type":"Feature","properties":{"sec":"03","frstdivid":"WY060370N0600W0SN030"},"geometry":{"type":"Polygon","coordinates":[[[-104.063947,43.220295],[-104.058992,43.220328],[-104.05384,43.220334],[-104.053826,43.217411],[-104.053821,43.216336],[-104.053808,43.213792],[-104.053803,43.212718],[-104.05379,43.210173],[-104.053785,43.2091],[-104.053773,43.206554],[-104.053767,43.205482],[-104.058834,43.205537],[-104.063783,43.205553],[-104.06383,43.209175],[-104.063877,43.212798],[-104.06391,43.21642],[-104.063947,43.220295]]]}},{"type":"Feature","properties":{"sec":"09","frstdivid":"WY060370N0600W0SN090"},"geometry":{"type":"Polygon","coordinates":[[[-104.063593,43.191058],[-104.068578,43.191072],[-104.073563,43.191086],[-104.078548,43.1911],[-104.083533,43.191114],[-104.083581,43.194736],[-104.083629,43.198358],[-104.083678,43.20198],[-104.083726,43.205601],[-104.07874,43.205589],[-104.073754,43.205577],[-104.068769,43.205565],[-104.063783,43.205553],[-104.063736,43.201929],[-104.063688,43.198305],[-104.063641,43.194682],[-104.063593,43.191058]]]}},{"type":"Feature","properties":{"sec":"04","frstdivid":"WY060370N0600W0SN040"},"geometry":{"type":"Polygon","coordinates":[[[-104.063877,43.212798],[-104.06383,43.209175],[-104.063783,43.205553],[-104.068769,43.205565],[-104.073754,43.205577],[-104.07874,43.205589],[-104.083726,43.205601],[-104.083759,43.209223],[-104.083792,43.212844],[-104.083801,43.216465],[-104.083811,43.220212],[-104.078845,43.220233],[-104.073879,43.220253],[-104.068913,43.220274],[-104.063947,43.220295],[-104.06391,43.21642],[-104.063877,43.212798]]]}},{"type":"Feature","properties":{"sec":"06","frstdivid":"WY060370N0600W0SN060"},"geometry":{"type":"Polygon","coordinates":[[[-104.12351,43.220038],[-104.118555,43.22005],[-104.1136,43.220061],[-104.108641,43.220083],[-104.103682,43.220105],[-104.103654,43.216474],[-104.103626,43.212853],[-104.103597,43.209232],[-104.103567,43.205611],[-104.108516,43.205587],[-104.113465,43.205564],[-104.118414,43.205543],[-104.12345,43.205521],[-104.123472,43.20914],[-104.123494,43.212759],[-104.123502,43.216378],[-104.12351,43.220038]]]}}]}