{"type":"FeatureCollection","note":"BLM Public Land Survey System. Provided by the Bureau of Land Management as is. These data are neither legal documents nor land surveys and must not be used as such.","features":[{"type":"Feature","properties":{"sec":"14","frstdivid":"MT200060N0260E0SN140"},"geometry":{"type":"Polygon","coordinates":[[[-108.424296,46.266694],[-108.424278,46.263073],[-108.429503,46.263071],[-108.434721,46.263067],[-108.439938,46.263064],[-108.445156,46.26306],[-108.445164,46.266681],[-108.445171,46.270302],[-108.445179,46.273923],[-108.445186,46.277544],[-108.439972,46.277546],[-108.434758,46.277548],[-108.429544,46.27755],[-108.42433,46.277551],[-108.424319,46.273932],[-108.424307,46.270313],[-108.424296,46.266694]]]}},{"type":"Feature","properties":{"sec":"24","frstdivid":"MT200060N0260E0SN240"},"geometry":{"type":"Polygon","coordinates":[[[-108.404782,46.259454],[-108.404727,46.257779],[-108.404759,46.255829],[-108.404786,46.254155],[-108.404819,46.252204],[-108.404846,46.250532],[-108.404847,46.248579],[-108.408642,46.248578],[-108.413857,46.248577],[-108.419072,46.248574],[-108.424286,46.248571],[-108.424286,46.252197],[-108.424285,46.255823],[-108.424285,46.259449],[-108.424278,46.263073],[-108.41906,46.263076],[-108.413834,46.263077],[-108.408613,46.263078],[-108.404901,46.263078],[-108.404846,46.261405],[-108.404782,46.259454]]]}},{"type":"Feature","properties":{"sec":"36","frstdivid":"MT200060N0260E0SN360"},"geometry":{"type":"Polygon","coordinates":[[[-108.404854,46.228651],[-108.404871,46.226864],[-108.404885,46.225024],[-108.404898,46.223247],[-108.404916,46.221397],[-108.408558,46.221244],[-108.410186,46.221175],[-108.41378,46.221021],[-108.415456,46.220953],[-108.419005,46.220793],[-108.42073,46.220716],[-108.424229,46.220559],[-108.424235,46.223254],[-108.424246,46.226868],[-108.424266,46.230477],[-108.424278,46.234085],[-108.419069,46.23409],[-108.413853,46.234094],[-108.408638,46.234096],[-108.404869,46.234097],[-108.404864,46.232309],[-108.404859,46.23048],[-108.404854,46.228651]]]}},{"type":"Feature","properties":{"sec":"21","frstdivid":"MT200060N0260E0SN210"},"geometry":{"type":"Polygon","coordinates":[[[-108.465994,46.248556],[-108.471194,46.248565],[-108.476395,46.248574],[-108.481596,46.248583],[-108.486789,46.24859],[-108.486817,46.252209],[-108.486838,46.255826],[-108.486858,46.259444],[-108.486879,46.263061],[-108.481654,46.26305],[-108.476429,46.26304],[-108.471205,46.263029],[-108.465972,46.263017],[-108.465988,46.259403],[-108.465996,46.255787],[-108.465995,46.252171],[-108.465994,46.248556]]]}},{"type":"Feature","properties":{"sec":"19","frstdivid":"MT200060N0260E0SN190"},"geometry":{"type":"Polygon","coordinates":[[[-108.523527,46.248587],[-108.528777,46.248585],[-108.528774,46.252207],[-108.528771,46.25583],[-108.528768,46.259452],[-108.528765,46.263074],[-108.523522,46.263079],[-108.51828,46.263083],[-108.513038,46.263088],[-108.507795,46.263093],[-108.50779,46.259468],[-108.507785,46.255843],[-108.50778,46.252218],[-108.507775,46.248593],[-108.513026,46.248591],[-108.518276,46.248589],[-108.523527,46.248587]]]}},{"type":"Feature","properties":{"sec":"04","frstdivid":"MT200060N0260E0SN040"},"geometry":{"type":"Polygon","coordinates":[[[-108.466089,46.302875],[-108.466071,46.299251],[-108.466057,46.295623],[-108.466042,46.291995],[-108.471264,46.292007],[-108.476486,46.292018],[-108.481708,46.29203],[-108.48693,46.292041],[-108.486949,46.295663],[-108.486969,46.299284],[-108.486988,46.302904],[-108.487008,46.306525],[-108.487018,46.30836],[-108.48319,46.308354],[-108.481792,46.308352],[-108.477965,46.308346],[-108.476567,46.308345],[-108.472739,46.30834],[-108.471342,46.308337],[-108.467514,46.308331],[-108.466117,46.308331],[-108.466107,46.306499],[-108.466089,46.302875]]]}},{"type":"Feature","properties":{"sec":"08","frstdivid":"MT200060N0260E0SN080"},"geometry":{"type":"Polygon","coordinates":[[[-108.502592,46.277565],[-108.507812,46.277575],[-108.50782,46.281188],[-108.507828,46.284802],[-108.507835,46.288416],[-108.507843,46.292029],[-108.502615,46.292032],[-108.497387,46.292035],[-108.492159,46.292038],[-108.48693,46.292041],[-108.486931,46.288415],[-108.486931,46.28479],[-108.486932,46.281164],[-108.486932,46.277538],[-108.492152,46.277547],[-108.497372,46.277556],[-108.502592,46.277565]]]}},{"type":"Feature","properties":{"sec":"18","frstdivid":"MT200060N0260E0SN180"},"geometry":{"type":"Polygon","coordinates":[[[-108.507795,46.263093],[-108.513038,46.263088],[-108.51828,46.263083],[-108.523522,46.263079],[-108.528765,46.263074],[-108.528767,46.266697],[-108.528769,46.27032],[-108.528771,46.273943],[-108.528766,46.277565],[-108.523533,46.277569],[-108.518292,46.277571],[-108.513052,46.277573],[-108.507812,46.277575],[-108.507808,46.273954],[-108.507803,46.270334],[-108.507799,46.266713],[-108.507795,46.263093]]]}},{"type":"Feature","properties":{"sec":"35","frstdivid":"MT200060N0260E0SN350"},"geometry":{"type":"Polygon","coordinates":[[[-108.441818,46.219829],[-108.445132,46.219691],[-108.445136,46.223238],[-108.44514,46.226857],[-108.445144,46.230475],[-108.445149,46.234093],[-108.439933,46.234092],[-108.434717,46.23409],[-108.429501,46.234088],[-108.424278,46.234085],[-108.424266,46.230477],[-108.424246,46.226868],[-108.424235,46.223254],[-108.424229,46.220559],[-108.426005,46.220488],[-108.429455,46.220343],[-108.431277,46.220267],[-108.434681,46.220125],[-108.436548,46.220047],[-108.439906,46.219908],[-108.441818,46.219829]]]}},{"type":"Feature","properties":{"sec":"30","frstdivid":"MT200060N0260E0SN300"},"geometry":{"type":"Polygon","coordinates":[[[-108.507793,46.234088],[-108.513034,46.234091],[-108.518275,46.234093],[-108.523516,46.234095],[-108.528757,46.234097],[-108.528762,46.237719],[-108.528767,46.241341],[-108.528772,46.244963],[-108.528777,46.248585],[-108.523527,46.248587],[-108.518276,46.248589],[-108.513026,46.248591],[-108.507775,46.248593],[-108.50778,46.244967],[-108.507784,46.241341],[-108.507788,46.237715],[-108.507793,46.234088]]]}},{"type":"Feature","properties":{"sec":"28","frstdivid":"MT200060N0260E0SN280"},"geometry":{"type":"Polygon","coordinates":[[[-108.481678,46.234104],[-108.486891,46.2341],[-108.486868,46.237723],[-108.486844,46.241346],[-108.48682,46.244969],[-108.486789,46.24859],[-108.481596,46.248583],[-108.476395,46.248574],[-108.471194,46.248565],[-108.465994,46.248556],[-108.466004,46.244946],[-108.466015,46.241336],[-108.466026,46.237726],[-108.466036,46.234116],[-108.47125,46.234112],[-108.476464,46.234107],[-108.481678,46.234104]]]}},{"type":"Feature","properties":{"sec":"20","frstdivid":"MT200060N0260E0SN200"},"geometry":{"type":"Polygon","coordinates":[[[-108.486838,46.255826],[-108.486817,46.252209],[-108.486789,46.24859],[-108.492042,46.248597],[-108.49728,46.2486],[-108.502531,46.248597],[-108.507775,46.248593],[-108.50778,46.252218],[-108.507785,46.255843],[-108.50779,46.259468],[-108.507795,46.263093],[-108.502566,46.263085],[-108.497337,46.263077],[-108.492108,46.263069],[-108.486879,46.263061],[-108.486858,46.259444],[-108.486838,46.255826]]]}},{"type":"Feature","properties":{"sec":"12","frstdivid":"MT200060N0260E0SN120"},"geometry":{"type":"Polygon","coordinates":[[[-108.404271,46.279367],[-108.404397,46.277558],[-108.408717,46.277557],[-108.413928,46.277556],[-108.419129,46.277554],[-108.42433,46.277551],[-108.424326,46.281173],[-108.424323,46.284794],[-108.424319,46.288415],[-108.424315,46.292036],[-108.4191,46.292034],[-108.413886,46.292033],[-108.408668,46.292032],[-108.404142,46.292032],[-108.404159,46.29024],[-108.404176,46.288413],[-108.404194,46.286612],[-108.404213,46.284795],[-108.404232,46.28299],[-108.404251,46.281176],[-108.404271,46.279367]]]}},{"type":"Feature","properties":{"sec":"17","frstdivid":"MT200060N0260E0SN170"},"geometry":{"type":"Polygon","coordinates":[[[-108.486892,46.26668],[-108.486879,46.263061],[-108.492108,46.263069],[-108.497337,46.263077],[-108.502566,46.263085],[-108.507795,46.263093],[-108.507799,46.266713],[-108.507803,46.270334],[-108.507808,46.273954],[-108.507812,46.277575],[-108.502592,46.277565],[-108.497372,46.277556],[-108.492152,46.277547],[-108.486932,46.277538],[-108.486919,46.273919],[-108.486906,46.2703],[-108.486892,46.26668]]]}},{"type":"Feature","properties":{"sec":"31","frstdivid":"MT200060N0260E0SN310"},"geometry":{"type":"Polygon","coordinates":[[[-108.507774,46.22323],[-108.507765,46.219789],[-108.508523,46.21979],[-108.513004,46.219743],[-108.513734,46.219735],[-108.518237,46.219687],[-108.518946,46.21968],[-108.523469,46.219636],[-108.523962,46.219632],[-108.528694,46.219585],[-108.528715,46.223214],[-108.528729,46.226842],[-108.528743,46.230469],[-108.528757,46.234097],[-108.523516,46.234095],[-108.518275,46.234093],[-108.513034,46.234091],[-108.507793,46.234088],[-108.507785,46.230463],[-108.507769,46.226836],[-108.507774,46.22323]]]}},{"type":"Feature","properties":{"sec":"33","frstdivid":"MT200060N0260E0SN330"},"geometry":{"type":"Polygon","coordinates":[[[-108.466037,46.219953],[-108.46778,46.219907],[-108.471251,46.219898],[-108.472931,46.219893],[-108.476465,46.219883],[-108.478081,46.219879],[-108.481679,46.219869],[-108.483229,46.219864],[-108.486893,46.219853],[-108.486895,46.22323],[-108.486897,46.226852],[-108.486894,46.230476],[-108.486891,46.2341],[-108.481678,46.234104],[-108.476464,46.234107],[-108.47125,46.234112],[-108.466036,46.234116],[-108.466038,46.230504],[-108.46604,46.226892],[-108.466038,46.223276],[-108.466037,46.219953]]]}},{"type":"Feature","properties":{"sec":"23","frstdivid":"MT200060N0260E0SN230"},"geometry":{"type":"Polygon","coordinates":[[[-108.424286,46.248571],[-108.429506,46.248564],[-108.434726,46.248558],[-108.439941,46.248552],[-108.445149,46.248544],[-108.445156,46.252174],[-108.445156,46.255803],[-108.445156,46.259431],[-108.445156,46.26306],[-108.439938,46.263064],[-108.434721,46.263067],[-108.429503,46.263071],[-108.424278,46.263073],[-108.424285,46.259449],[-108.424285,46.255823],[-108.424286,46.252197],[-108.424286,46.248571]]]}},{"type":"Feature","properties":{"sec":"16","frstdivid":"MT200060N0260E0SN160"},"geometry":{"type":"Polygon","coordinates":[[[-108.465972,46.263017],[-108.471205,46.263029],[-108.476429,46.26304],[-108.481654,46.26305],[-108.486879,46.263061],[-108.486892,46.26668],[-108.486906,46.2703],[-108.486919,46.273919],[-108.486932,46.277538],[-108.481714,46.277528],[-108.476496,46.277518],[-108.471278,46.277507],[-108.466053,46.277496],[-108.46604,46.273877],[-108.46602,46.270258],[-108.466,46.266638],[-108.465972,46.263017]]]}},{"type":"Feature","properties":{"sec":"11","frstdivid":"MT200060N0260E0SN110"},"geometry":{"type":"Polygon","coordinates":[[[-108.42433,46.277551],[-108.429544,46.27755],[-108.434758,46.277548],[-108.439972,46.277546],[-108.445186,46.277544],[-108.445179,46.281166],[-108.445172,46.284788],[-108.445164,46.28841],[-108.445157,46.292032],[-108.439947,46.292033],[-108.434736,46.292034],[-108.429526,46.292035],[-108.424315,46.292036],[-108.424319,46.288415],[-108.424323,46.284794],[-108.424326,46.281173],[-108.42433,46.277551]]]}},{"type":"Feature","properties":{"sec":"26","frstdivid":"MT200060N0260E0SN260"},"geometry":{"type":"Polygon","coordinates":[[[-108.424278,46.234085],[-108.429501,46.234088],[-108.434717,46.23409],[-108.439933,46.234092],[-108.445149,46.234093],[-108.445151,46.237706],[-108.445153,46.241319],[-108.445154,46.244932],[-108.445149,46.248544],[-108.439941,46.248552],[-108.434726,46.248558],[-108.429506,46.248564],[-108.424286,46.248571],[-108.424281,46.24495],[-108.424269,46.241327],[-108.424281,46.237707],[-108.424278,46.234085]]]}},{"type":"Feature","properties":{"sec":"07","frstdivid":"MT200060N0260E0SN070"},"geometry":{"type":"Polygon","coordinates":[[[-108.507812,46.277575],[-108.513052,46.277573],[-108.518292,46.277571],[-108.523533,46.277569],[-108.528766,46.277565],[-108.52879,46.281186],[-108.528806,46.284806],[-108.528823,46.288426],[-108.528839,46.292046],[-108.52359,46.292042],[-108.518341,46.292038],[-108.513092,46.292034],[-108.507843,46.292029],[-108.507835,46.288416],[-108.507828,46.284802],[-108.50782,46.281188],[-108.507812,46.277575]]]}},{"type":"Feature","properties":{"sec":"02","frstdivid":"MT200060N0260E0SN020"},"geometry":{"type":"Polygon","coordinates":[[[-108.424284,46.306518],[-108.424289,46.302898],[-108.424294,46.299278],[-108.424305,46.295657],[-108.424315,46.292036],[-108.429526,46.292035],[-108.434736,46.292034],[-108.439947,46.292033],[-108.445157,46.292032],[-108.445164,46.295649],[-108.445172,46.299266],[-108.445184,46.302884],[-108.445196,46.306502],[-108.445203,46.308346],[-108.44137,46.308351],[-108.439973,46.308353],[-108.43614,46.308358],[-108.434743,46.308359],[-108.43091,46.308364],[-108.429513,46.308366],[-108.42568,46.308371],[-108.424282,46.308372],[-108.424284,46.306518]]]}},{"type":"Feature","properties":{"sec":"10","frstdivid":"MT200060N0260E0SN100"},"geometry":{"type":"Polygon","coordinates":[[[-108.445186,46.277544],[-108.450405,46.277533],[-108.455623,46.277521],[-108.460842,46.277509],[-108.466053,46.277496],[-108.466056,46.281122],[-108.466051,46.284746],[-108.466047,46.28837],[-108.466042,46.291995],[-108.460821,46.292004],[-108.4556,46.292013],[-108.450378,46.292022],[-108.445157,46.292032],[-108.445164,46.28841],[-108.445172,46.284788],[-108.445179,46.281166],[-108.445186,46.277544]]]}},{"type":"Feature","properties":{"sec":"03","frstdivid":"MT200060N0260E0SN030"},"geometry":{"type":"Polygon","coordinates":[[[-108.445157,46.292032],[-108.450378,46.292022],[-108.4556,46.292013],[-108.460821,46.292004],[-108.466042,46.291995],[-108.466057,46.295623],[-108.466071,46.299251],[-108.466089,46.302875],[-108.466107,46.306499],[-108.466117,46.308331],[-108.462286,46.308334],[-108.460889,46.308335],[-108.457057,46.308338],[-108.45566,46.308338],[-108.451829,46.308341],[-108.450431,46.308342],[-108.4466,46.308345],[-108.445203,46.308346],[-108.445196,46.306502],[-108.445184,46.302884],[-108.445172,46.299266],[-108.445164,46.295649],[-108.445157,46.292032]]]}},{"type":"Feature","properties":{"sec":"01","frstdivid":"MT200060N0260E0SN010"},"geometry":{"type":"Polygon","coordinates":[[[-108.404389,46.304785],[-108.404195,46.30287],[-108.404024,46.30117],[-108.404053,46.299254],[-108.404077,46.297519],[-108.404104,46.295643],[-108.404128,46.293869],[-108.404142,46.292032],[-108.408668,46.292032],[-108.413886,46.292033],[-108.4191,46.292034],[-108.424315,46.292036],[-108.424305,46.295657],[-108.424294,46.299278],[-108.424289,46.302898],[-108.424284,46.306518],[-108.424282,46.308372],[-108.420446,46.308379],[-108.419048,46.308382],[-108.415211,46.30839],[-108.413814,46.308391],[-108.409982,46.308395],[-108.408583,46.308397],[-108.404754,46.3084],[-108.404561,46.306484],[-108.404389,46.304785]]]}},{"type":"Feature","properties":{"sec":"22","frstdivid":"MT200060N0260E0SN220"},"geometry":{"type":"Polygon","coordinates":[[[-108.445149,46.248544],[-108.450365,46.248548],[-108.455575,46.248551],[-108.460784,46.248553],[-108.465994,46.248556],[-108.465995,46.252171],[-108.465996,46.255787],[-108.465988,46.259403],[-108.465972,46.263017],[-108.460774,46.263029],[-108.455568,46.263039],[-108.450362,46.26305],[-108.445156,46.26306],[-108.445156,46.259431],[-108.445156,46.255803],[-108.445156,46.252174],[-108.445149,46.248544]]]}},{"type":"Feature","properties":{"sec":"06","frstdivid":"MT200060N0260E0SN060"},"geometry":{"type":"Polygon","coordinates":[[[-108.509344,46.308371],[-108.507946,46.308371],[-108.507936,46.306488],[-108.507914,46.302872],[-108.507892,46.299256],[-108.507868,46.295643],[-108.507843,46.292029],[-108.513092,46.292034],[-108.518341,46.292038],[-108.52359,46.292042],[-108.528839,46.292046],[-108.52885,46.295669],[-108.52886,46.299292],[-108.52887,46.302913],[-108.528879,46.306534],[-108.528877,46.308363],[-108.525053,46.308365],[-108.523653,46.308366],[-108.51982,46.308367],[-108.518422,46.308367],[-108.514582,46.308369],[-108.513184,46.308369],[-108.509344,46.308371]]]}},{"type":"Feature","properties":{"sec":"09","frstdivid":"MT200060N0260E0SN090"},"geometry":{"type":"Polygon","coordinates":[[[-108.466053,46.277496],[-108.471278,46.277507],[-108.476496,46.277518],[-108.481714,46.277528],[-108.486932,46.277538],[-108.486932,46.281164],[-108.486931,46.28479],[-108.486931,46.288415],[-108.48693,46.292041],[-108.481708,46.29203],[-108.476486,46.292018],[-108.471264,46.292007],[-108.466042,46.291995],[-108.466047,46.28837],[-108.466051,46.284746],[-108.466056,46.281122],[-108.466053,46.277496]]]}},{"type":"Feature","properties":{"sec":"05","frstdivid":"MT200060N0260E0SN050"},"geometry":{"type":"Polygon","coordinates":[[[-108.486969,46.299284],[-108.486949,46.295663],[-108.48693,46.292041],[-108.492159,46.292038],[-108.497387,46.292035],[-108.502615,46.292032],[-108.507843,46.292029],[-108.507868,46.295643],[-108.507892,46.299256],[-108.507914,46.302872],[-108.507936,46.306488],[-108.507946,46.308371],[-108.504112,46.308369],[-108.502714,46.308368],[-108.498879,46.308366],[-108.497482,46.308366],[-108.493647,46.308363],[-108.49225,46.308363],[-108.488407,46.308359],[-108.487018,46.30836],[-108.487008,46.306525],[-108.486988,46.302904],[-108.486969,46.299284]]]}},{"type":"Feature","properties":{"sec":"15","frstdivid":"MT200060N0260E0SN150"},"geometry":{"type":"Polygon","coordinates":[[[-108.445171,46.270302],[-108.445164,46.266681],[-108.445156,46.26306],[-108.450362,46.26305],[-108.455568,46.263039],[-108.460774,46.263029],[-108.465972,46.263017],[-108.466,46.266638],[-108.46602,46.270258],[-108.46604,46.273877],[-108.466053,46.277496],[-108.460842,46.277509],[-108.455623,46.277521],[-108.450405,46.277533],[-108.445186,46.277544],[-108.445179,46.273923],[-108.445171,46.270302]]]}},{"type":"Feature","properties":{"sec":"13","frstdivid":"MT200060N0260E0SN130"},"geometry":{"type":"Polygon","coordinates":[[[-108.404962,46.265031],[-108.404901,46.263078],[-108.408613,46.263078],[-108.413834,46.263077],[-108.41906,46.263076],[-108.424278,46.263073],[-108.424296,46.266694],[-108.424307,46.270313],[-108.424319,46.273932],[-108.42433,46.277551],[-108.419129,46.277554],[-108.413928,46.277556],[-108.408717,46.277557],[-108.404397,46.277558],[-108.404529,46.275722],[-108.404657,46.273938],[-108.404791,46.272077],[-108.404833,46.270318],[-108.404876,46.268554],[-108.404922,46.266698],[-108.404962,46.265031]]]}},{"type":"Feature","properties":{"sec":"27","frstdivid":"MT200060N0260E0SN270"},"geometry":{"type":"Polygon","coordinates":[[[-108.445149,46.234093],[-108.450371,46.234099],[-108.455593,46.234104],[-108.460815,46.23411],[-108.466036,46.234116],[-108.466026,46.237726],[-108.466015,46.241336],[-108.466004,46.244946],[-108.465994,46.248556],[-108.460784,46.248553],[-108.455575,46.248551],[-108.450365,46.248548],[-108.445149,46.248544],[-108.445154,46.244932],[-108.445153,46.241319],[-108.445151,46.237706],[-108.445149,46.234093]]]}},{"type":"Feature","properties":{"sec":"25","frstdivid":"MT200060N0260E0SN250"},"geometry":{"type":"Polygon","coordinates":[[[-108.404858,46.241338],[-108.404861,46.239596],[-108.404864,46.237717],[-108.404868,46.235967],[-108.404869,46.234097],[-108.408638,46.234096],[-108.413853,46.234094],[-108.419069,46.23409],[-108.424278,46.234085],[-108.424281,46.237707],[-108.424269,46.241327],[-108.424281,46.24495],[-108.424286,46.248571],[-108.419072,46.248574],[-108.413857,46.248577],[-108.408642,46.248578],[-108.404847,46.248579],[-108.40485,46.246879],[-108.404852,46.244959],[-108.404855,46.243225],[-108.404858,46.241338]]]}},{"type":"Feature","properties":{"sec":"29","frstdivid":"MT200060N0260E0SN290"},"geometry":{"type":"Polygon","coordinates":[[[-108.486868,46.237723],[-108.486891,46.2341],[-108.492117,46.234097],[-108.497342,46.234094],[-108.502567,46.234091],[-108.507793,46.234088],[-108.507788,46.237715],[-108.507784,46.241341],[-108.50778,46.244967],[-108.507775,46.248593],[-108.502531,46.248597],[-108.49728,46.2486],[-108.492042,46.248597],[-108.486789,46.24859],[-108.48682,46.244969],[-108.486844,46.241346],[-108.486868,46.237723]]]}},{"type":"Feature","properties":{"sec":"32","frstdivid":"MT200060N0260E0SN320"},"geometry":{"type":"Polygon","coordinates":[[[-108.503513,46.219795],[-108.507765,46.219789],[-108.507774,46.22323],[-108.507769,46.226836],[-108.507785,46.230463],[-108.507793,46.234088],[-108.502567,46.234091],[-108.497342,46.234094],[-108.492117,46.234097],[-108.486891,46.2341],[-108.486894,46.230476],[-108.486897,46.226852],[-108.486895,46.22323],[-108.486893,46.219853],[-108.488377,46.219847],[-108.492113,46.21983],[-108.49344,46.219824],[-108.497333,46.219806],[-108.498503,46.2198],[-108.502552,46.219796],[-108.503513,46.219795]]]}},{"type":"Feature","properties":{"sec":"34","frstdivid":"MT200060N0260E0SN340"},"geometry":{"type":"Polygon","coordinates":[[[-108.445136,46.223238],[-108.445132,46.219691],[-108.447087,46.219613],[-108.450358,46.219799],[-108.452232,46.219905],[-108.455584,46.220094],[-108.457376,46.220196],[-108.460811,46.2201],[-108.462578,46.22005],[-108.466037,46.219953],[-108.466038,46.223276],[-108.46604,46.226892],[-108.466038,46.230504],[-108.466036,46.234116],[-108.460815,46.23411],[-108.455593,46.234104],[-108.450371,46.234099],[-108.445149,46.234093],[-108.445144,46.230475],[-108.44514,46.226857],[-108.445136,46.223238]]]}}]}