{"type":"FeatureCollection","note":"BLM Public Land Survey System. Provided by the Bureau of Land Management as is. These data are neither legal documents nor land surveys and must not be used as such.","features":[{"type":"Feature","properties":{"sec":"30","frstdivid":"WY060440N0860W0SN300"},"geometry":{"type":"Polygon","coordinates":[[[-107.227011,43.75868],[-107.222964,43.758569],[-107.218917,43.758457],[-107.214869,43.758345],[-107.214855,43.754711],[-107.21484,43.751076],[-107.214912,43.747371],[-107.214984,43.743666],[-107.218959,43.743771],[-107.222934,43.743876],[-107.226908,43.743982],[-107.231048,43.744091],[-107.231066,43.747767],[-107.231085,43.751442],[-107.231103,43.755118],[-107.231121,43.758794],[-107.227011,43.75868]]]}},{"type":"Feature","properties":{"sec":"06","frstdivid":"WY060440N0860W0SN060"},"geometry":{"type":"Polygon","coordinates":[[[-107.23354,43.815652],[-107.23329,43.815653],[-107.228752,43.815663],[-107.228259,43.815665],[-107.223721,43.815686],[-107.223229,43.815688],[-107.218691,43.815709],[-107.218199,43.815711],[-107.213661,43.815732],[-107.213696,43.811869],[-107.213728,43.80832],[-107.213759,43.804771],[-107.213791,43.801221],[-107.218649,43.801254],[-107.223507,43.801287],[-107.228365,43.801321],[-107.232946,43.801353],[-107.233092,43.804846],[-107.233238,43.808338],[-107.233382,43.811831],[-107.23354,43.815652]]]}},{"type":"Feature","properties":{"sec":"01","frstdivid":"WY060440N0860W0SN010"},"geometry":{"type":"Polygon","coordinates":[[[-107.11865,43.816017],[-107.117592,43.816016],[-107.113759,43.816004],[-107.113999,43.812823],[-107.114212,43.810007],[-107.114193,43.806357],[-107.114174,43.802707],[-107.119247,43.802383],[-107.124319,43.80206],[-107.129392,43.801736],[-107.134465,43.801413],[-107.134188,43.804966],[-107.133911,43.808519],[-107.133632,43.812071],[-107.133321,43.816036],[-107.132689,43.816038],[-107.128431,43.816048],[-107.127659,43.81605],[-107.12354,43.816034],[-107.122626,43.816033],[-107.11865,43.816017]]]}},{"type":"Feature","properties":{"sec":"02","frstdivid":"WY060440N0860W0SN020"},"geometry":{"type":"Polygon","coordinates":[[[-107.154311,43.805173],[-107.153991,43.808647],[-107.153671,43.812121],[-107.153314,43.815998],[-107.152809,43.816],[-107.148315,43.815983],[-107.147779,43.815985],[-107.143317,43.816001],[-107.142749,43.816003],[-107.138319,43.816018],[-107.137719,43.816021],[-107.133321,43.816036],[-107.133632,43.812071],[-107.133911,43.808519],[-107.134188,43.804966],[-107.134465,43.801413],[-107.139506,43.801485],[-107.144548,43.801556],[-107.149589,43.801628],[-107.15463,43.801699],[-107.154311,43.805173]]]}},{"type":"Feature","properties":{"sec":"26","frstdivid":"WY060440N0860W0SN260"},"geometry":{"type":"Polygon","coordinates":[[[-107.154289,43.755094],[-107.154231,43.758729],[-107.14917,43.758747],[-107.14411,43.758766],[-107.139049,43.758784],[-107.133989,43.758802],[-107.134035,43.755155],[-107.134082,43.751508],[-107.134129,43.747861],[-107.134176,43.744215],[-107.139248,43.744208],[-107.144321,43.744202],[-107.149393,43.744196],[-107.154466,43.744189],[-107.154407,43.747824],[-107.154348,43.751459],[-107.154289,43.755094]]]}},{"type":"Feature","properties":{"sec":"14","frstdivid":"WY060440N0860W0SN140"},"geometry":{"type":"Polygon","coordinates":[[[-107.154333,43.780539],[-107.154252,43.784175],[-107.154172,43.78781],[-107.149157,43.78766],[-107.144142,43.787509],[-107.139127,43.787359],[-107.134112,43.787208],[-107.134167,43.783657],[-107.134223,43.780106],[-107.134279,43.776555],[-107.134335,43.773004],[-107.139375,43.77307],[-107.144415,43.773136],[-107.149455,43.773203],[-107.154495,43.773269],[-107.154414,43.776904],[-107.154333,43.780539]]]}},{"type":"Feature","properties":{"sec":"07","frstdivid":"WY060440N0860W0SN070"},"geometry":{"type":"Polygon","coordinates":[[[-107.213791,43.801221],[-107.213564,43.797673],[-107.213337,43.794125],[-107.213111,43.790577],[-107.212884,43.787029],[-107.217787,43.787118],[-107.222689,43.787207],[-107.227592,43.787297],[-107.232367,43.787385],[-107.232512,43.790877],[-107.232656,43.794369],[-107.232801,43.797861],[-107.232946,43.801353],[-107.228365,43.801321],[-107.223507,43.801287],[-107.218649,43.801254],[-107.213791,43.801221]]]}},{"type":"Feature","properties":{"sec":"25","frstdivid":"WY060440N0860W0SN250"},"geometry":{"type":"Polygon","coordinates":[[[-107.134129,43.747861],[-107.134082,43.751508],[-107.134035,43.755155],[-107.133989,43.758802],[-107.128962,43.758803],[-107.123935,43.758805],[-107.118909,43.758807],[-107.113882,43.758808],[-107.113834,43.755152],[-107.113786,43.751495],[-107.113799,43.747837],[-107.113812,43.744179],[-107.118903,43.744188],[-107.123994,43.744197],[-107.129085,43.744206],[-107.134176,43.744215],[-107.134129,43.747861]]]}},{"type":"Feature","properties":{"sec":"05","frstdivid":"WY060440N0860W0SN050"},"geometry":{"type":"Polygon","coordinates":[[[-107.213696,43.811869],[-107.213661,43.815732],[-107.213168,43.815733],[-107.208652,43.81574],[-107.208138,43.815742],[-107.203644,43.815761],[-107.203108,43.815763],[-107.198636,43.815781],[-107.198078,43.815783],[-107.193628,43.815802],[-107.193837,43.811889],[-107.194025,43.808361],[-107.194211,43.804832],[-107.194397,43.801303],[-107.199246,43.801283],[-107.204094,43.801262],[-107.208942,43.801242],[-107.213791,43.801221],[-107.213759,43.804771],[-107.213728,43.80832],[-107.213696,43.811869]]]}},{"type":"Feature","properties":{"sec":"17","frstdivid":"WY060440N0860W0SN170"},"geometry":{"type":"Polygon","coordinates":[[[-107.208024,43.787067],[-107.203164,43.787106],[-107.198303,43.787144],[-107.193443,43.787183],[-107.193814,43.783652],[-107.194184,43.780122],[-107.194555,43.776591],[-107.194925,43.773061],[-107.199925,43.773005],[-107.204924,43.772948],[-107.209924,43.772892],[-107.214923,43.772835],[-107.214414,43.776383],[-107.213904,43.779932],[-107.213394,43.78348],[-107.212884,43.787029],[-107.208024,43.787067]]]}},{"type":"Feature","properties":{"sec":"22","frstdivid":"WY060440N0860W0SN220"},"geometry":{"type":"Polygon","coordinates":[[[-107.169651,43.773129],[-107.164599,43.773176],[-107.159547,43.773222],[-107.154495,43.773269],[-107.154429,43.769634],[-107.154363,43.765999],[-107.154297,43.762364],[-107.154231,43.758729],[-107.159308,43.758694],[-107.164385,43.758658],[-107.169462,43.758623],[-107.174539,43.758587],[-107.17458,43.762211],[-107.174621,43.765835],[-107.174662,43.769459],[-107.174703,43.773082],[-107.169651,43.773129]]]}},{"type":"Feature","properties":{"sec":"31","frstdivid":"WY060440N0860W0SN310"},"geometry":{"type":"Polygon","coordinates":[[[-107.231048,43.744091],[-107.226908,43.743982],[-107.222934,43.743876],[-107.218959,43.743771],[-107.214984,43.743666],[-107.214256,43.740084],[-107.213528,43.736502],[-107.2128,43.73292],[-107.212072,43.729338],[-107.216772,43.729294],[-107.221472,43.72925],[-107.226171,43.729206],[-107.230979,43.72916],[-107.230996,43.732893],[-107.231014,43.736626],[-107.231031,43.740358],[-107.231048,43.744091]]]}},{"type":"Feature","properties":{"sec":"28","frstdivid":"WY060440N0860W0SN280"},"geometry":{"type":"Polygon","coordinates":[[[-107.194883,43.751109],[-107.19486,43.754775],[-107.194836,43.758441],[-107.189762,43.758477],[-107.184688,43.758514],[-107.179613,43.758551],[-107.174539,43.758587],[-107.174576,43.754963],[-107.174614,43.75134],[-107.174651,43.747716],[-107.174688,43.744092],[-107.179761,43.744016],[-107.184834,43.74394],[-107.189907,43.743864],[-107.194979,43.743788],[-107.194931,43.747448],[-107.194883,43.751109]]]}},{"type":"Feature","properties":{"sec":"13","frstdivid":"WY060440N0860W0SN130"},"geometry":{"type":"Polygon","coordinates":[[[-107.129246,43.773097],[-107.134335,43.773004],[-107.134279,43.776555],[-107.134223,43.780106],[-107.134167,43.783657],[-107.134112,43.787208],[-107.129077,43.787424],[-107.124043,43.78764],[-107.119009,43.787856],[-107.113974,43.788072],[-107.113933,43.784411],[-107.113891,43.78075],[-107.113935,43.777064],[-107.113979,43.773377],[-107.119068,43.773284],[-107.124157,43.773191],[-107.129246,43.773097]]]}},{"type":"Feature","properties":{"sec":"29","frstdivid":"WY060440N0860W0SN290"},"geometry":{"type":"Polygon","coordinates":[[[-107.214912,43.747371],[-107.21484,43.751076],[-107.214855,43.754711],[-107.214869,43.758345],[-107.209861,43.758369],[-107.204853,43.758393],[-107.199844,43.758417],[-107.194836,43.758441],[-107.19486,43.754775],[-107.194883,43.751109],[-107.194931,43.747448],[-107.194979,43.743788],[-107.199981,43.743757],[-107.204982,43.743727],[-107.209983,43.743696],[-107.214984,43.743666],[-107.214912,43.747371]]]}},{"type":"Feature","properties":{"sec":"27","frstdivid":"WY060440N0860W0SN270"},"geometry":{"type":"Polygon","coordinates":[[[-107.169633,43.744117],[-107.174688,43.744092],[-107.174651,43.747716],[-107.174614,43.75134],[-107.174576,43.754963],[-107.174539,43.758587],[-107.169462,43.758623],[-107.164385,43.758658],[-107.159308,43.758694],[-107.154231,43.758729],[-107.154289,43.755094],[-107.154348,43.751459],[-107.154407,43.747824],[-107.154466,43.744189],[-107.159521,43.744165],[-107.164577,43.744141],[-107.169633,43.744117]]]}},{"type":"Feature","properties":{"sec":"34","frstdivid":"WY060440N0860W0SN340"},"geometry":{"type":"Polygon","coordinates":[[[-107.158706,43.729635],[-107.163788,43.729622],[-107.16887,43.72961],[-107.173953,43.729597],[-107.174137,43.733221],[-107.17432,43.736845],[-107.174504,43.740468],[-107.174688,43.744092],[-107.169633,43.744117],[-107.164577,43.744141],[-107.159521,43.744165],[-107.154466,43.744189],[-107.154255,43.740554],[-107.154045,43.736919],[-107.153834,43.733283],[-107.153623,43.729648],[-107.158706,43.729635]]]}},{"type":"Feature","properties":{"sec":"24","frstdivid":"WY060440N0860W0SN240"},"geometry":{"type":"Polygon","coordinates":[[[-107.129246,43.773097],[-107.124157,43.773191],[-107.119068,43.773284],[-107.113979,43.773377],[-107.113966,43.769732],[-107.113952,43.766087],[-107.113917,43.762448],[-107.113882,43.758808],[-107.118909,43.758807],[-107.123935,43.758805],[-107.128962,43.758803],[-107.133989,43.758802],[-107.134075,43.762352],[-107.134162,43.765903],[-107.134248,43.769454],[-107.134335,43.773004],[-107.129246,43.773097]]]}},{"type":"Feature","properties":{"sec":"33","frstdivid":"WY060440N0860W0SN330"},"geometry":{"type":"Polygon","coordinates":[[[-107.183878,43.729634],[-107.188575,43.729583],[-107.193273,43.729533],[-107.193699,43.733097],[-107.194126,43.73666],[-107.194553,43.740224],[-107.194979,43.743788],[-107.189907,43.743864],[-107.184834,43.74394],[-107.179761,43.744016],[-107.174688,43.744092],[-107.174504,43.740468],[-107.17432,43.736845],[-107.174137,43.733221],[-107.173953,43.729597],[-107.178915,43.729615],[-107.183878,43.729634]]]}},{"type":"Feature","properties":{"sec":"21","frstdivid":"WY060440N0860W0SN210"},"geometry":{"type":"Polygon","coordinates":[[[-107.194836,43.758441],[-107.194858,43.762096],[-107.194881,43.765751],[-107.194903,43.769406],[-107.194925,43.773061],[-107.18987,43.773066],[-107.184814,43.773072],[-107.179758,43.773077],[-107.174703,43.773082],[-107.174662,43.769459],[-107.174621,43.765835],[-107.17458,43.762211],[-107.174539,43.758587],[-107.179613,43.758551],[-107.184688,43.758514],[-107.189762,43.758477],[-107.194836,43.758441]]]}},{"type":"Feature","properties":{"sec":"36","frstdivid":"WY060440N0860W0SN360"},"geometry":{"type":"Polygon","coordinates":[[[-107.129085,43.744206],[-107.123994,43.744197],[-107.118903,43.744188],[-107.113812,43.744179],[-107.113782,43.740555],[-107.113751,43.736931],[-107.113432,43.733304],[-107.113112,43.729677],[-107.118159,43.729664],[-107.123206,43.729651],[-107.128253,43.729638],[-107.1333,43.729625],[-107.133519,43.733272],[-107.133738,43.73692],[-107.133957,43.740567],[-107.134176,43.744215],[-107.129085,43.744206]]]}},{"type":"Feature","properties":{"sec":"23","frstdivid":"WY060440N0860W0SN230"},"geometry":{"type":"Polygon","coordinates":[[[-107.154363,43.765999],[-107.154429,43.769634],[-107.154495,43.773269],[-107.149455,43.773203],[-107.144415,43.773136],[-107.139375,43.77307],[-107.134335,43.773004],[-107.134248,43.769454],[-107.134162,43.765903],[-107.134075,43.762352],[-107.133989,43.758802],[-107.139049,43.758784],[-107.14411,43.758766],[-107.14917,43.758747],[-107.154231,43.758729],[-107.154297,43.762364],[-107.154363,43.765999]]]}},{"type":"Feature","properties":{"sec":"32","frstdivid":"WY060440N0860W0SN320"},"geometry":{"type":"Polygon","coordinates":[[[-107.207372,43.729386],[-107.212072,43.729338],[-107.2128,43.73292],[-107.213528,43.736502],[-107.214256,43.740084],[-107.214984,43.743666],[-107.209983,43.743696],[-107.204982,43.743727],[-107.199981,43.743757],[-107.194979,43.743788],[-107.194553,43.740224],[-107.194126,43.73666],[-107.193699,43.733097],[-107.193273,43.729533],[-107.197972,43.729484],[-107.202672,43.729435],[-107.207372,43.729386]]]}},{"type":"Feature","properties":{"sec":"35","frstdivid":"WY060440N0860W0SN350"},"geometry":{"type":"Polygon","coordinates":[[[-107.1333,43.729625],[-107.138324,43.729597],[-107.143349,43.729568],[-107.148486,43.729608],[-107.153623,43.729648],[-107.153834,43.733283],[-107.154045,43.736919],[-107.154255,43.740554],[-107.154466,43.744189],[-107.149393,43.744196],[-107.144321,43.744202],[-107.139248,43.744208],[-107.134176,43.744215],[-107.133957,43.740567],[-107.133738,43.73692],[-107.133519,43.733272],[-107.1333,43.729625]]]}},{"type":"Feature","properties":{"sec":"20","frstdivid":"WY060440N0860W0SN200"},"geometry":{"type":"Polygon","coordinates":[[[-107.194903,43.769406],[-107.194881,43.765751],[-107.194858,43.762096],[-107.194836,43.758441],[-107.199844,43.758417],[-107.204853,43.758393],[-107.209861,43.758369],[-107.214869,43.758345],[-107.214883,43.761967],[-107.214896,43.76559],[-107.21491,43.769213],[-107.214923,43.772835],[-107.209924,43.772892],[-107.204924,43.772948],[-107.199925,43.773005],[-107.194925,43.773061],[-107.194903,43.769406]]]}},{"type":"Feature","properties":{"sec":"19","frstdivid":"WY060440N0860W0SN190"},"geometry":{"type":"Polygon","coordinates":[[[-107.231632,43.769759],[-107.231802,43.773415],[-107.227575,43.77327],[-107.223358,43.773125],[-107.219141,43.77298],[-107.214923,43.772835],[-107.21491,43.769213],[-107.214896,43.76559],[-107.214883,43.761967],[-107.214869,43.758345],[-107.218917,43.758457],[-107.222964,43.758569],[-107.227011,43.75868],[-107.231121,43.758794],[-107.231291,43.762449],[-107.231462,43.766104],[-107.231632,43.769759]]]}},{"type":"Feature","properties":{"sec":"03","frstdivid":"WY060440N0860W0SN030"},"geometry":{"type":"Polygon","coordinates":[[[-107.159703,43.801793],[-107.164776,43.801887],[-107.169849,43.801981],[-107.174922,43.802075],[-107.174566,43.805438],[-107.174211,43.8088],[-107.173859,43.812163],[-107.173472,43.815858],[-107.172929,43.815861],[-107.168432,43.8159],[-107.167899,43.815902],[-107.163393,43.815933],[-107.162869,43.815935],[-107.158353,43.815966],[-107.157839,43.815968],[-107.153314,43.815998],[-107.153671,43.812121],[-107.153991,43.808647],[-107.154311,43.805173],[-107.15463,43.801699],[-107.159703,43.801793]]]}},{"type":"Feature","properties":{"sec":"11","frstdivid":"WY060440N0860W0SN110"},"geometry":{"type":"Polygon","coordinates":[[[-107.139127,43.787359],[-107.144142,43.787509],[-107.149157,43.78766],[-107.154172,43.78781],[-107.154286,43.791282],[-107.154401,43.794754],[-107.154516,43.798227],[-107.15463,43.801699],[-107.149589,43.801628],[-107.144548,43.801556],[-107.139506,43.801485],[-107.134465,43.801413],[-107.134377,43.797862],[-107.134288,43.794311],[-107.1342,43.79076],[-107.134112,43.787208],[-107.139127,43.787359]]]}},{"type":"Feature","properties":{"sec":"15","frstdivid":"WY060440N0860W0SN150"},"geometry":{"type":"Polygon","coordinates":[[[-107.168883,43.787637],[-107.163979,43.787695],[-107.159075,43.787752],[-107.154172,43.78781],[-107.154252,43.784175],[-107.154333,43.780539],[-107.154414,43.776904],[-107.154495,43.773269],[-107.159547,43.773222],[-107.164599,43.773176],[-107.169651,43.773129],[-107.174703,43.773082],[-107.174474,43.776707],[-107.174245,43.780331],[-107.174016,43.783955],[-107.173787,43.78758],[-107.168883,43.787637]]]}},{"type":"Feature","properties":{"sec":"12","frstdivid":"WY060440N0860W0SN120"},"geometry":{"type":"Polygon","coordinates":[[[-107.113974,43.788072],[-107.119009,43.787856],[-107.124043,43.78764],[-107.129077,43.787424],[-107.134112,43.787208],[-107.1342,43.79076],[-107.134288,43.794311],[-107.134377,43.797862],[-107.134465,43.801413],[-107.129392,43.801736],[-107.124319,43.80206],[-107.119247,43.802383],[-107.114174,43.802707],[-107.114046,43.799053],[-107.113919,43.7954],[-107.113946,43.791736],[-107.113974,43.788072]]]}},{"type":"Feature","properties":{"sec":"16","frstdivid":"WY060440N0860W0SN160"},"geometry":{"type":"Polygon","coordinates":[[[-107.174703,43.773082],[-107.179758,43.773077],[-107.184814,43.773072],[-107.18987,43.773066],[-107.194925,43.773061],[-107.194555,43.776591],[-107.194184,43.780122],[-107.193814,43.783652],[-107.193443,43.787183],[-107.188529,43.787282],[-107.183615,43.787381],[-107.178701,43.78748],[-107.173787,43.78758],[-107.174016,43.783955],[-107.174245,43.780331],[-107.174474,43.776707],[-107.174703,43.773082]]]}},{"type":"Feature","properties":{"sec":"18","frstdivid":"WY060440N0860W0SN180"},"geometry":{"type":"Polygon","coordinates":[[[-107.213904,43.779932],[-107.214414,43.776383],[-107.214923,43.772835],[-107.219141,43.77298],[-107.223358,43.773125],[-107.227575,43.77327],[-107.231802,43.773415],[-107.231944,43.776907],[-107.232085,43.7804],[-107.232226,43.783892],[-107.232367,43.787385],[-107.227592,43.787297],[-107.222689,43.787207],[-107.217787,43.787118],[-107.212884,43.787029],[-107.213394,43.78348],[-107.213904,43.779932]]]}},{"type":"Feature","properties":{"sec":"08","frstdivid":"WY060440N0860W0SN080"},"geometry":{"type":"Polygon","coordinates":[[[-107.213111,43.790577],[-107.213337,43.794125],[-107.213564,43.797673],[-107.213791,43.801221],[-107.208942,43.801242],[-107.204094,43.801262],[-107.199246,43.801283],[-107.194397,43.801303],[-107.194159,43.797773],[-107.19392,43.794243],[-107.193682,43.790713],[-107.193443,43.787183],[-107.198303,43.787144],[-107.203164,43.787106],[-107.208024,43.787067],[-107.212884,43.787029],[-107.213111,43.790577]]]}},{"type":"Feature","properties":{"sec":"10","frstdivid":"WY060440N0860W0SN100"},"geometry":{"type":"Polygon","coordinates":[[[-107.173787,43.78758],[-107.174071,43.791203],[-107.174355,43.794827],[-107.174638,43.798451],[-107.174922,43.802075],[-107.169849,43.801981],[-107.164776,43.801887],[-107.159703,43.801793],[-107.15463,43.801699],[-107.154516,43.798227],[-107.154401,43.794754],[-107.154286,43.791282],[-107.154172,43.78781],[-107.159075,43.787752],[-107.163979,43.787695],[-107.168883,43.787637],[-107.173787,43.78758]]]}},{"type":"Feature","properties":{"sec":"04","frstdivid":"WY060440N0860W0SN040"},"geometry":{"type":"Polygon","coordinates":[[[-107.174566,43.805438],[-107.174922,43.802075],[-107.179791,43.801882],[-107.18466,43.801689],[-107.189528,43.801496],[-107.194397,43.801303],[-107.194211,43.804832],[-107.194025,43.808361],[-107.193837,43.811889],[-107.193628,43.815802],[-107.193048,43.815804],[-107.188589,43.815823],[-107.188019,43.815825],[-107.18355,43.815835],[-107.182989,43.815837],[-107.178511,43.815846],[-107.177959,43.815848],[-107.173472,43.815858],[-107.173859,43.812163],[-107.174211,43.8088],[-107.174566,43.805438]]]}},{"type":"Feature","properties":{"sec":"09","frstdivid":"WY060440N0860W0SN090"},"geometry":{"type":"Polygon","coordinates":[[[-107.193443,43.787183],[-107.193682,43.790713],[-107.19392,43.794243],[-107.194159,43.797773],[-107.194397,43.801303],[-107.189528,43.801496],[-107.18466,43.801689],[-107.179791,43.801882],[-107.174922,43.802075],[-107.174638,43.798451],[-107.174355,43.794827],[-107.174071,43.791203],[-107.173787,43.78758],[-107.178701,43.78748],[-107.183615,43.787381],[-107.188529,43.787282],[-107.193443,43.787183]]]}}]}