{"type":"FeatureCollection","note":"BLM Public Land Survey System. Provided by the Bureau of Land Management as is. These data are neither legal documents nor land surveys and must not be used as such.","features":[{"type":"Feature","properties":{"sec":"22","frstdivid":"WY060570N0640W0SN220"},"geometry":{"type":"Polygon","coordinates":[[[-104.517349,44.913847],[-104.517406,44.910175],[-104.522547,44.91033],[-104.527688,44.910485],[-104.532829,44.91064],[-104.53797,44.910794],[-104.537934,44.914396],[-104.537897,44.917997],[-104.537861,44.921598],[-104.537824,44.925199],[-104.532662,44.925115],[-104.5275,44.925031],[-104.522339,44.924948],[-104.517177,44.924864],[-104.517234,44.921192],[-104.517291,44.917519],[-104.517349,44.913847]]]}},{"type":"Feature","properties":{"sec":"18","frstdivid":"WY060570N0640W0SN180"},"geometry":{"type":"Polygon","coordinates":[[[-104.599129,44.939278],[-104.594198,44.939272],[-104.589053,44.939264],[-104.583907,44.939253],[-104.578761,44.939242],[-104.578835,44.935589],[-104.57891,44.931936],[-104.578984,44.928283],[-104.579059,44.92463],[-104.584212,44.92459],[-104.589365,44.92455],[-104.594498,44.924579],[-104.599478,44.924607],[-104.59941,44.927647],[-104.599395,44.928287],[-104.599329,44.931271],[-104.599312,44.931966],[-104.59924,44.934895],[-104.599221,44.935622],[-104.599149,44.938519],[-104.599129,44.939278]]]}},{"type":"Feature","properties":{"sec":"08","frstdivid":"WY060570N0640W0SN080"},"geometry":{"type":"Polygon","coordinates":[[[-104.57341,44.953867],[-104.56825,44.953884],[-104.56309,44.953901],[-104.55793,44.953919],[-104.557989,44.95026],[-104.558048,44.946602],[-104.558107,44.942943],[-104.558166,44.939284],[-104.563314,44.939274],[-104.568463,44.939263],[-104.573612,44.939252],[-104.578761,44.939242],[-104.578713,44.942894],[-104.578665,44.946546],[-104.578618,44.950198],[-104.57857,44.95385],[-104.57341,44.953867]]]}},{"type":"Feature","properties":{"sec":"16","frstdivid":"WY060570N0640W0SN160"},"geometry":{"type":"Polygon","coordinates":[[[-104.537824,44.925199],[-104.543001,44.925061],[-104.548178,44.924924],[-104.553354,44.924787],[-104.558531,44.924649],[-104.55844,44.928308],[-104.558348,44.931967],[-104.558257,44.935626],[-104.558166,44.939284],[-104.553021,44.939364],[-104.547876,44.939444],[-104.542732,44.939524],[-104.537587,44.939604],[-104.537647,44.936002],[-104.537706,44.932401],[-104.537765,44.9288],[-104.537824,44.925199]]]}},{"type":"Feature","properties":{"sec":"26","frstdivid":"WY060570N0640W0SN260"},"geometry":{"type":"Polygon","coordinates":[[[-104.507105,44.910119],[-104.501954,44.910091],[-104.496804,44.910063],[-104.496823,44.906423],[-104.496842,44.902783],[-104.496861,44.899144],[-104.49688,44.895504],[-104.502011,44.895499],[-104.507142,44.895494],[-104.512274,44.89549],[-104.517405,44.895485],[-104.517405,44.899157],[-104.517405,44.90283],[-104.517406,44.906502],[-104.517406,44.910175],[-104.512256,44.910147],[-104.507105,44.910119]]]}},{"type":"Feature","properties":{"sec":"31","frstdivid":"WY060570N0640W0SN310"},"geometry":{"type":"Polygon","coordinates":[[[-104.600311,44.891572],[-104.600182,44.89508],[-104.600177,44.895231],[-104.594816,44.895304],[-104.589505,44.895376],[-104.584195,44.895448],[-104.578885,44.89552],[-104.579126,44.891807],[-104.579367,44.888094],[-104.579608,44.884381],[-104.579848,44.880668],[-104.580696,44.880658],[-104.585032,44.880606],[-104.585954,44.880596],[-104.590215,44.880546],[-104.591213,44.880551],[-104.595465,44.88057],[-104.596472,44.880575],[-104.600715,44.880594],[-104.600582,44.884216],[-104.600581,44.884253],[-104.600449,44.887837],[-104.600446,44.887913],[-104.600315,44.891458],[-104.600311,44.891572]]]}},{"type":"Feature","properties":{"sec":"20","frstdivid":"WY060570N0640W0SN200"},"geometry":{"type":"Polygon","coordinates":[[[-104.573927,44.924635],[-104.568795,44.92464],[-104.563663,44.924645],[-104.558531,44.924649],[-104.558568,44.92099],[-104.558605,44.917331],[-104.558643,44.913672],[-104.55868,44.910013],[-104.563834,44.910014],[-104.568989,44.910015],[-104.574143,44.910016],[-104.579298,44.910018],[-104.579238,44.913671],[-104.579178,44.917324],[-104.579118,44.920977],[-104.579059,44.92463],[-104.573927,44.924635]]]}},{"type":"Feature","properties":{"sec":"07","frstdivid":"WY060570N0640W0SN070"},"geometry":{"type":"Polygon","coordinates":[[[-104.599129,44.939278],[-104.599099,44.942136],[-104.599091,44.942924],[-104.599061,44.945753],[-104.599052,44.946569],[-104.599023,44.94937],[-104.599014,44.950214],[-104.598985,44.952988],[-104.598975,44.95386],[-104.593994,44.953859],[-104.588853,44.953857],[-104.583712,44.953854],[-104.57857,44.95385],[-104.578618,44.950198],[-104.578665,44.946546],[-104.578713,44.942894],[-104.578761,44.939242],[-104.583907,44.939253],[-104.589053,44.939264],[-104.594198,44.939272],[-104.599129,44.939278]]]}},{"type":"Feature","properties":{"sec":"11","frstdivid":"WY060570N0640W0SN110"},"geometry":{"type":"Polygon","coordinates":[[[-104.496152,44.950099],[-104.496225,44.946459],[-104.496298,44.94282],[-104.496371,44.93918],[-104.501533,44.939273],[-104.506695,44.939367],[-104.511857,44.93946],[-104.517019,44.939553],[-104.516905,44.943225],[-104.516791,44.946897],[-104.516677,44.95057],[-104.516563,44.954242],[-104.511442,44.954116],[-104.506321,44.95399],[-104.5012,44.953864],[-104.496079,44.953738],[-104.496152,44.950099]]]}},{"type":"Feature","properties":{"sec":"30","frstdivid":"WY060570N0640W0SN300"},"geometry":{"type":"Polygon","coordinates":[[[-104.578885,44.89552],[-104.584195,44.895448],[-104.589505,44.895376],[-104.594816,44.895304],[-104.600177,44.895231],[-104.600107,44.898697],[-104.600103,44.898899],[-104.600034,44.902315],[-104.600029,44.902565],[-104.599962,44.905932],[-104.599955,44.906232],[-104.599889,44.90955],[-104.599881,44.909899],[-104.594769,44.909929],[-104.589613,44.909959],[-104.584456,44.909988],[-104.579298,44.910018],[-104.579139,44.906413],[-104.57898,44.902809],[-104.578933,44.899164],[-104.578885,44.89552]]]}},{"type":"Feature","properties":{"sec":"28","frstdivid":"WY060570N0640W0SN280"},"geometry":{"type":"Polygon","coordinates":[[[-104.537916,44.903302],[-104.537889,44.899556],[-104.537861,44.89581],[-104.542985,44.895701],[-104.548108,44.895592],[-104.553232,44.895484],[-104.558355,44.895375],[-104.558436,44.899034],[-104.558517,44.902694],[-104.558599,44.906353],[-104.55868,44.910013],[-104.553502,44.910208],[-104.548325,44.910404],[-104.543148,44.910599],[-104.53797,44.910794],[-104.537943,44.907048],[-104.537916,44.903302]]]}},{"type":"Feature","properties":{"sec":"36","frstdivid":"WY060570N0640W0SN360"},"geometry":{"type":"Polygon","coordinates":[[[-104.49173,44.895478],[-104.486581,44.895451],[-104.481431,44.895425],[-104.476281,44.895399],[-104.476322,44.891754],[-104.476363,44.88811],[-104.476404,44.884466],[-104.476445,44.880822],[-104.47788,44.880829],[-104.481572,44.880852],[-104.483024,44.880862],[-104.486698,44.880885],[-104.488167,44.880894],[-104.491802,44.880916],[-104.493311,44.880925],[-104.496906,44.880946],[-104.4969,44.884586],[-104.496893,44.888225],[-104.496886,44.891865],[-104.49688,44.895504],[-104.49173,44.895478]]]}},{"type":"Feature","properties":{"sec":"23","frstdivid":"WY060570N0640W0SN230"},"geometry":{"type":"Polygon","coordinates":[[[-104.496804,44.910063],[-104.501954,44.910091],[-104.507105,44.910119],[-104.512256,44.910147],[-104.517406,44.910175],[-104.517349,44.913847],[-104.517291,44.917519],[-104.517234,44.921192],[-104.517177,44.924864],[-104.512028,44.924803],[-104.50688,44.924743],[-104.501731,44.924682],[-104.496583,44.924621],[-104.496638,44.920982],[-104.496693,44.917342],[-104.496749,44.913702],[-104.496804,44.910063]]]}},{"type":"Feature","properties":{"sec":"27","frstdivid":"WY060570N0640W0SN270"},"geometry":{"type":"Polygon","coordinates":[[[-104.537889,44.899556],[-104.537916,44.903302],[-104.537943,44.907048],[-104.53797,44.910794],[-104.532829,44.91064],[-104.527688,44.910485],[-104.522547,44.91033],[-104.517406,44.910175],[-104.517406,44.906502],[-104.517405,44.90283],[-104.517405,44.899157],[-104.517405,44.895485],[-104.522519,44.895566],[-104.527633,44.895647],[-104.532747,44.895729],[-104.537861,44.89581],[-104.537889,44.899556]]]}},{"type":"Feature","properties":{"sec":"15","frstdivid":"WY060570N0640W0SN150"},"geometry":{"type":"Polygon","coordinates":[[[-104.522339,44.924948],[-104.5275,44.925031],[-104.532662,44.925115],[-104.537824,44.925199],[-104.537765,44.9288],[-104.537706,44.932401],[-104.537647,44.936002],[-104.537587,44.939604],[-104.532445,44.939591],[-104.527303,44.939578],[-104.522161,44.939566],[-104.517019,44.939553],[-104.517059,44.935881],[-104.517098,44.932209],[-104.517137,44.928536],[-104.517177,44.924864],[-104.522339,44.924948]]]}},{"type":"Feature","properties":{"sec":"35","frstdivid":"WY060570N0640W0SN350"},"geometry":{"type":"Polygon","coordinates":[[[-104.51789,44.880796],[-104.517769,44.884468],[-104.517648,44.88814],[-104.517526,44.891813],[-104.517405,44.895485],[-104.512274,44.89549],[-104.507142,44.895494],[-104.502011,44.895499],[-104.49688,44.895504],[-104.496886,44.891865],[-104.496893,44.888225],[-104.4969,44.884586],[-104.496906,44.880946],[-104.498454,44.880936],[-104.5022,44.880907],[-104.503591,44.880896],[-104.507494,44.880865],[-104.508728,44.880857],[-104.512692,44.88083],[-104.513865,44.880823],[-104.51789,44.880796]]]}},{"type":"Feature","properties":{"sec":"09","frstdivid":"WY060570N0640W0SN090"},"geometry":{"type":"Polygon","coordinates":[[[-104.542732,44.939524],[-104.547876,44.939444],[-104.553021,44.939364],[-104.558166,44.939284],[-104.558107,44.942943],[-104.558048,44.946602],[-104.557989,44.95026],[-104.55793,44.953919],[-104.552757,44.953942],[-104.547585,44.953964],[-104.542412,44.953987],[-104.537239,44.95401],[-104.537326,44.950409],[-104.537413,44.946807],[-104.5375,44.943205],[-104.537587,44.939604],[-104.542732,44.939524]]]}},{"type":"Feature","properties":{"sec":"24","frstdivid":"WY060570N0640W0SN240"},"geometry":{"type":"Polygon","coordinates":[[[-104.496804,44.910063],[-104.496749,44.913702],[-104.496693,44.917342],[-104.496638,44.920982],[-104.496583,44.924621],[-104.491438,44.924604],[-104.486294,44.924587],[-104.48115,44.924569],[-104.476006,44.924552],[-104.476044,44.920908],[-104.476082,44.917264],[-104.47612,44.91362],[-104.476158,44.909976],[-104.481319,44.909998],[-104.486481,44.91002],[-104.491642,44.910041],[-104.496804,44.910063]]]}},{"type":"Feature","properties":{"sec":"33","frstdivid":"WY060570N0640W0SN330"},"geometry":{"type":"Polygon","coordinates":[[[-104.55905,44.884396],[-104.558818,44.888055],[-104.558587,44.891715],[-104.558355,44.895375],[-104.553232,44.895484],[-104.548108,44.895592],[-104.542985,44.895701],[-104.537861,44.89581],[-104.538057,44.892064],[-104.538252,44.888317],[-104.538448,44.884571],[-104.538643,44.880825],[-104.539546,44.880812],[-104.543742,44.880756],[-104.544714,44.880742],[-104.548842,44.880687],[-104.549882,44.880691],[-104.554062,44.880711],[-104.55505,44.880716],[-104.559282,44.880736],[-104.55905,44.884396]]]}},{"type":"Feature","properties":{"sec":"13","frstdivid":"WY060570N0640W0SN130"},"geometry":{"type":"Polygon","coordinates":[[[-104.486121,44.939154],[-104.480995,44.93914],[-104.47587,44.939127],[-104.475904,44.935483],[-104.475938,44.93184],[-104.475972,44.928196],[-104.476006,44.924552],[-104.48115,44.924569],[-104.486294,44.924587],[-104.491438,44.924604],[-104.496583,44.924621],[-104.49653,44.928261],[-104.496477,44.931901],[-104.496424,44.93554],[-104.496371,44.93918],[-104.491246,44.939167],[-104.486121,44.939154]]]}},{"type":"Feature","properties":{"sec":"14","frstdivid":"WY060570N0640W0SN140"},"geometry":{"type":"Polygon","coordinates":[[[-104.517059,44.935881],[-104.517019,44.939553],[-104.511857,44.93946],[-104.506695,44.939367],[-104.501533,44.939273],[-104.496371,44.93918],[-104.496424,44.93554],[-104.496477,44.931901],[-104.49653,44.928261],[-104.496583,44.924621],[-104.501731,44.924682],[-104.50688,44.924743],[-104.512028,44.924803],[-104.517177,44.924864],[-104.517137,44.928536],[-104.517098,44.932209],[-104.517059,44.935881]]]}},{"type":"Feature","properties":{"sec":"19","frstdivid":"WY060570N0640W0SN190"},"geometry":{"type":"Polygon","coordinates":[[[-104.599693,44.916787],[-104.59968,44.917253],[-104.599594,44.920405],[-104.599579,44.92093],[-104.599495,44.924023],[-104.599478,44.924607],[-104.594498,44.924579],[-104.589365,44.92455],[-104.584212,44.92459],[-104.579059,44.92463],[-104.579118,44.920977],[-104.579178,44.917324],[-104.579238,44.913671],[-104.579298,44.910018],[-104.584456,44.909988],[-104.589613,44.909959],[-104.594769,44.909929],[-104.599881,44.909899],[-104.599792,44.913168],[-104.599781,44.913576],[-104.599693,44.916787]]]}},{"type":"Feature","properties":{"sec":"32","frstdivid":"WY060570N0640W0SN320"},"geometry":{"type":"Polygon","coordinates":[[[-104.558355,44.895375],[-104.558587,44.891715],[-104.558818,44.888055],[-104.55905,44.884396],[-104.559282,44.880736],[-104.560219,44.880733],[-104.564415,44.880724],[-104.565338,44.880722],[-104.569549,44.880713],[-104.570458,44.880709],[-104.574699,44.88069],[-104.575577,44.880686],[-104.579848,44.880668],[-104.579608,44.884381],[-104.579367,44.888094],[-104.579126,44.891807],[-104.578885,44.89552],[-104.573753,44.895484],[-104.56862,44.895448],[-104.563488,44.895411],[-104.558355,44.895375]]]}},{"type":"Feature","properties":{"sec":"34","frstdivid":"WY060570N0640W0SN340"},"geometry":{"type":"Polygon","coordinates":[[[-104.538057,44.892064],[-104.537861,44.89581],[-104.532747,44.895729],[-104.527633,44.895647],[-104.522519,44.895566],[-104.517405,44.895485],[-104.517526,44.891813],[-104.517648,44.88814],[-104.517769,44.884468],[-104.51789,44.880796],[-104.519003,44.880797],[-104.523078,44.8808],[-104.524139,44.880802],[-104.528267,44.880806],[-104.529275,44.880808],[-104.533455,44.880815],[-104.534411,44.880818],[-104.538643,44.880825],[-104.538448,44.884571],[-104.538252,44.888317],[-104.538057,44.892064]]]}},{"type":"Feature","properties":{"sec":"12","frstdivid":"WY060570N0640W0SN120"},"geometry":{"type":"Polygon","coordinates":[[[-104.480995,44.93914],[-104.486121,44.939154],[-104.491246,44.939167],[-104.496371,44.93918],[-104.496298,44.94282],[-104.496225,44.946459],[-104.496152,44.950099],[-104.496079,44.953738],[-104.490991,44.953729],[-104.485903,44.95372],[-104.480816,44.953711],[-104.475728,44.953701],[-104.475763,44.950058],[-104.475799,44.946414],[-104.475834,44.942771],[-104.47587,44.939127],[-104.480995,44.93914]]]}},{"type":"Feature","properties":{"sec":"17","frstdivid":"WY060570N0640W0SN170"},"geometry":{"type":"Polygon","coordinates":[[[-104.563314,44.939274],[-104.558166,44.939284],[-104.558257,44.935626],[-104.558348,44.931967],[-104.55844,44.928308],[-104.558531,44.924649],[-104.563663,44.924645],[-104.568795,44.92464],[-104.573927,44.924635],[-104.579059,44.92463],[-104.578984,44.928283],[-104.57891,44.931936],[-104.578835,44.935589],[-104.578761,44.939242],[-104.573612,44.939252],[-104.568463,44.939263],[-104.563314,44.939274]]]}},{"type":"Feature","properties":{"sec":"25","frstdivid":"WY060570N0640W0SN250"},"geometry":{"type":"Polygon","coordinates":[[[-104.49173,44.895478],[-104.49688,44.895504],[-104.496861,44.899144],[-104.496842,44.902783],[-104.496823,44.906423],[-104.496804,44.910063],[-104.491642,44.910041],[-104.486481,44.91002],[-104.481319,44.909998],[-104.476158,44.909976],[-104.476189,44.906332],[-104.47622,44.902687],[-104.476251,44.899043],[-104.476281,44.895399],[-104.481431,44.895425],[-104.486581,44.895451],[-104.49173,44.895478]]]}},{"type":"Feature","properties":{"sec":"21","frstdivid":"WY060570N0640W0SN210"},"geometry":{"type":"Polygon","coordinates":[[[-104.55868,44.910013],[-104.558643,44.913672],[-104.558605,44.917331],[-104.558568,44.92099],[-104.558531,44.924649],[-104.553354,44.924787],[-104.548178,44.924924],[-104.543001,44.925061],[-104.537824,44.925199],[-104.537861,44.921598],[-104.537897,44.917997],[-104.537934,44.914396],[-104.53797,44.910794],[-104.543148,44.910599],[-104.548325,44.910404],[-104.553502,44.910208],[-104.55868,44.910013]]]}},{"type":"Feature","properties":{"sec":"29","frstdivid":"WY060570N0640W0SN290"},"geometry":{"type":"Polygon","coordinates":[[[-104.558355,44.895375],[-104.563488,44.895411],[-104.56862,44.895448],[-104.573753,44.895484],[-104.578885,44.89552],[-104.578933,44.899164],[-104.57898,44.902809],[-104.579139,44.906413],[-104.579298,44.910018],[-104.574143,44.910016],[-104.568989,44.910015],[-104.563834,44.910014],[-104.55868,44.910013],[-104.558599,44.906353],[-104.558517,44.902694],[-104.558436,44.899034],[-104.558355,44.895375]]]}},{"type":"Feature","properties":{"sec":"10","frstdivid":"WY060570N0640W0SN100"},"geometry":{"type":"Polygon","coordinates":[[[-104.53207,44.954068],[-104.526901,44.954126],[-104.521732,44.954184],[-104.516563,44.954242],[-104.516677,44.95057],[-104.516791,44.946897],[-104.516905,44.943225],[-104.517019,44.939553],[-104.522161,44.939566],[-104.527303,44.939578],[-104.532445,44.939591],[-104.537587,44.939604],[-104.5375,44.943205],[-104.537413,44.946807],[-104.537326,44.950409],[-104.537239,44.95401],[-104.53207,44.954068]]]}},{"type":"Feature","properties":{"sec":"01","frstdivid":"WY060570N0640W0SN010"},"geometry":{"type":"Polygon","coordinates":[[[-104.475606,44.964631],[-104.475646,44.960988],[-104.475687,44.957345],[-104.475728,44.953701],[-104.480816,44.953711],[-104.485903,44.95372],[-104.490991,44.953729],[-104.496079,44.953738],[-104.496094,44.957378],[-104.496108,44.961017],[-104.496123,44.964656],[-104.496138,44.968317],[-104.490995,44.968306],[-104.485852,44.968296],[-104.480709,44.968285],[-104.475566,44.968274],[-104.475606,44.964631]]]}},{"type":"Feature","properties":{"sec":"03","frstdivid":"WY060570N0640W0SN030"},"geometry":{"type":"Polygon","coordinates":[[[-104.51671,44.968317],[-104.516675,44.964818],[-104.516639,44.961293],[-104.516601,44.957767],[-104.516563,44.954242],[-104.521732,44.954184],[-104.526901,44.954126],[-104.53207,44.954068],[-104.537239,44.95401],[-104.53725,44.957612],[-104.537261,44.961213],[-104.537273,44.964814],[-104.537284,44.968361],[-104.532141,44.96835],[-104.526997,44.968339],[-104.521854,44.968328],[-104.51671,44.968317]]]}},{"type":"Feature","properties":{"sec":"06","frstdivid":"WY060570N0640W0SN060"},"geometry":{"type":"Polygon","coordinates":[[[-104.578466,44.964809],[-104.578503,44.961155],[-104.578537,44.957503],[-104.57857,44.95385],[-104.583712,44.953854],[-104.588853,44.953857],[-104.593994,44.953859],[-104.598975,44.95386],[-104.598947,44.956607],[-104.598937,44.957505],[-104.598909,44.960226],[-104.598899,44.961151],[-104.598872,44.963845],[-104.598861,44.964796],[-104.598834,44.967439],[-104.598822,44.968441],[-104.593855,44.968437],[-104.588712,44.968432],[-104.58357,44.968428],[-104.578428,44.968424],[-104.578466,44.964809]]]}},{"type":"Feature","properties":{"sec":"02","frstdivid":"WY060570N0640W0SN020"},"geometry":{"type":"Polygon","coordinates":[[[-104.506321,44.95399],[-104.511442,44.954116],[-104.516563,44.954242],[-104.516601,44.957767],[-104.516639,44.961293],[-104.516675,44.964818],[-104.51671,44.968317],[-104.511567,44.968317],[-104.506424,44.968317],[-104.501281,44.968317],[-104.496138,44.968317],[-104.496123,44.964656],[-104.496108,44.961017],[-104.496094,44.957378],[-104.496079,44.953738],[-104.5012,44.953864],[-104.506321,44.95399]]]}},{"type":"Feature","properties":{"sec":"04","frstdivid":"WY060570N0640W0SN040"},"geometry":{"type":"Polygon","coordinates":[[[-104.552714,44.968371],[-104.547571,44.968368],[-104.542428,44.968365],[-104.537284,44.968361],[-104.537273,44.964814],[-104.537261,44.961213],[-104.53725,44.957612],[-104.537239,44.95401],[-104.542412,44.953987],[-104.547585,44.953964],[-104.552757,44.953942],[-104.55793,44.953919],[-104.55791,44.957525],[-104.55789,44.961131],[-104.557874,44.964737],[-104.557858,44.968375],[-104.552714,44.968371]]]}},{"type":"Feature","properties":{"sec":"05","frstdivid":"WY060570N0640W0SN050"},"geometry":{"type":"Polygon","coordinates":[[[-104.573286,44.968412],[-104.568143,44.9684],[-104.563,44.968387],[-104.557858,44.968375],[-104.557874,44.964737],[-104.55789,44.961131],[-104.55791,44.957525],[-104.55793,44.953919],[-104.56309,44.953901],[-104.56825,44.953884],[-104.57341,44.953867],[-104.57857,44.95385],[-104.578537,44.957503],[-104.578503,44.961155],[-104.578466,44.964809],[-104.578428,44.968424],[-104.573286,44.968412]]]}}]}