{"type":"FeatureCollection","note":"BLM Public Land Survey System. Provided by the Bureau of Land Management as is. These data are neither legal documents nor land surveys and must not be used as such.","features":[{"type":"Feature","properties":{"sec":"05","frstdivid":"WY060280N0760W0SN050"},"geometry":{"type":"Polygon","coordinates":[[[-105.965213,42.420773],[-105.97008,42.420802],[-105.974947,42.42083],[-105.979814,42.420858],[-105.984682,42.420887],[-105.984661,42.424279],[-105.984639,42.427671],[-105.984615,42.432945],[-105.981557,42.432918],[-105.97981,42.432902],[-105.976583,42.432873],[-105.975005,42.432861],[-105.971651,42.432836],[-105.970199,42.432826],[-105.966719,42.4328],[-105.965394,42.432791],[-105.965329,42.427587],[-105.965271,42.42418],[-105.965213,42.420773]]]}},{"type":"Feature","properties":{"sec":"04","frstdivid":"WY060280N0760W0SN040"},"geometry":{"type":"Polygon","coordinates":[[[-105.965394,42.432791],[-105.96182,42.432763],[-105.960427,42.432753],[-105.956922,42.432726],[-105.955461,42.432714],[-105.952016,42.432685],[-105.950494,42.432673],[-105.94711,42.432644],[-105.945528,42.43263],[-105.945465,42.427467],[-105.945407,42.424006],[-105.945349,42.420545],[-105.950315,42.420602],[-105.955281,42.420659],[-105.960247,42.420716],[-105.965213,42.420773],[-105.965271,42.42418],[-105.965329,42.427587],[-105.965394,42.432791]]]}},{"type":"Feature","properties":{"sec":"01","frstdivid":"WY060280N0760W0SN010"},"geometry":{"type":"Polygon","coordinates":[[[-105.888237,42.432155],[-105.887406,42.432147],[-105.887322,42.42784],[-105.887282,42.424245],[-105.887241,42.42065],[-105.892139,42.420504],[-105.897037,42.420359],[-105.901934,42.420213],[-105.906832,42.420067],[-105.90694,42.423649],[-105.907048,42.42723],[-105.907156,42.432318],[-105.902961,42.432282],[-105.902218,42.432275],[-105.898051,42.432239],[-105.897281,42.432233],[-105.893144,42.432197],[-105.892344,42.432191],[-105.888237,42.432155]]]}},{"type":"Feature","properties":{"sec":"02","frstdivid":"WY060280N0760W0SN020"},"geometry":{"type":"Polygon","coordinates":[[[-105.912805,42.432364],[-105.911833,42.432356],[-105.907872,42.432324],[-105.907156,42.432318],[-105.907048,42.42723],[-105.90694,42.423649],[-105.906832,42.420067],[-105.911624,42.420078],[-105.916417,42.420088],[-105.921209,42.420098],[-105.926002,42.420108],[-105.925957,42.42368],[-105.925912,42.427252],[-105.925864,42.432468],[-105.922671,42.432443],[-105.921187,42.432431],[-105.917738,42.432403],[-105.91651,42.432394],[-105.912805,42.432364]]]}},{"type":"Feature","properties":{"sec":"06","frstdivid":"WY060280N0760W0SN060"},"geometry":{"type":"Polygon","coordinates":[[[-106.004694,42.420887],[-106.004697,42.424509],[-106.004699,42.428132],[-106.004718,42.431367],[-106.004728,42.433107],[-106.001195,42.433085],[-105.999798,42.433078],[-105.996319,42.433057],[-105.994737,42.433042],[-105.991425,42.43301],[-105.989676,42.432993],[-105.986532,42.432962],[-105.984615,42.432945],[-105.984639,42.427671],[-105.984661,42.424279],[-105.984682,42.420887],[-105.989593,42.420855],[-105.994505,42.420823],[-105.999743,42.420856],[-106.004694,42.420887]]]}},{"type":"Feature","properties":{"sec":"03","frstdivid":"WY060280N0760W0SN030"},"geometry":{"type":"Polygon","coordinates":[[[-105.942214,42.432599],[-105.940612,42.432585],[-105.937318,42.432554],[-105.935696,42.432542],[-105.932461,42.432518],[-105.93078,42.432506],[-105.927605,42.432482],[-105.925864,42.432468],[-105.925912,42.427252],[-105.925957,42.42368],[-105.926002,42.420108],[-105.930838,42.420218],[-105.935675,42.420327],[-105.940512,42.420436],[-105.945349,42.420545],[-105.945407,42.424006],[-105.945465,42.427467],[-105.945528,42.43263],[-105.942214,42.432599]]]}}]}