{"type":"FeatureCollection","note":"BLM Public Land Survey System. Provided by the Bureau of Land Management as is. These data are neither legal documents nor land surveys and must not be used as such.","features":[{"type":"Feature","properties":{"sec":"23","frstdivid":"MT200050S0390E0SN230"},"geometry":{"type":"Polygon","coordinates":[[[-106.893819,45.387025],[-106.893819,45.390647],[-106.893819,45.394267],[-106.893818,45.397886],[-106.888677,45.39788],[-106.883537,45.397874],[-106.878398,45.397867],[-106.87326,45.39786],[-106.873263,45.39424],[-106.873266,45.39062],[-106.873268,45.387002],[-106.873271,45.383383],[-106.878408,45.383387],[-106.883545,45.383392],[-106.888682,45.383398],[-106.893818,45.383403],[-106.893819,45.387025]]]}},{"type":"Feature","properties":{"sec":"30","frstdivid":"MT200050S0390E0SN300"},"geometry":{"type":"Polygon","coordinates":[[[-106.970703,45.368844],[-106.977959,45.368855],[-106.97796,45.372473],[-106.977962,45.376091],[-106.977961,45.379709],[-106.977956,45.383326],[-106.970742,45.383317],[-106.965605,45.383313],[-106.960465,45.38331],[-106.955331,45.383306],[-106.955321,45.379685],[-106.955313,45.376065],[-106.955303,45.372443],[-106.955294,45.368821],[-106.960431,45.368827],[-106.965567,45.368837],[-106.970703,45.368844]]]}},{"type":"Feature","properties":{"sec":"33","frstdivid":"MT200050S0390E0SN330"},"geometry":{"type":"Polygon","coordinates":[[[-106.914338,45.354173],[-106.91673,45.35417],[-106.917499,45.354169],[-106.919457,45.354166],[-106.922598,45.354161],[-106.924573,45.354157],[-106.926963,45.354152],[-106.927689,45.354149],[-106.929705,45.354143],[-106.93278,45.354133],[-106.934833,45.354127],[-106.934822,45.357985],[-106.934812,45.361602],[-106.934805,45.365221],[-106.9348,45.368841],[-106.929679,45.36885],[-106.924558,45.36886],[-106.919438,45.368869],[-106.914318,45.368878],[-106.914323,45.365257],[-106.914328,45.361636],[-106.914331,45.358014],[-106.914338,45.354173]]]}},{"type":"Feature","properties":{"sec":"24","frstdivid":"MT200050S0390E0SN240"},"geometry":{"type":"Polygon","coordinates":[[[-106.868136,45.38339],[-106.873271,45.383383],[-106.873268,45.387002],[-106.873266,45.39062],[-106.873263,45.39424],[-106.87326,45.39786],[-106.868123,45.397867],[-106.862986,45.397874],[-106.857852,45.397879],[-106.852718,45.397883],[-106.852721,45.394265],[-106.852719,45.390647],[-106.852721,45.387029],[-106.852722,45.38341],[-106.85786,45.383405],[-106.862998,45.383396],[-106.868136,45.38339]]]}},{"type":"Feature","properties":{"sec":"17","frstdivid":"MT200050S0390E0SN170"},"geometry":{"type":"Polygon","coordinates":[[[-106.934865,45.397802],[-106.939988,45.397806],[-106.94511,45.397809],[-106.950236,45.397811],[-106.955358,45.397811],[-106.955366,45.401436],[-106.955373,45.405058],[-106.955381,45.408679],[-106.95539,45.412301],[-106.950261,45.412297],[-106.945135,45.412294],[-106.940013,45.412295],[-106.934884,45.412298],[-106.934882,45.408674],[-106.934879,45.405049],[-106.934873,45.401426],[-106.934865,45.397802]]]}},{"type":"Feature","properties":{"sec":"02","frstdivid":"MT200050S0390E0SN020"},"geometry":{"type":"Polygon","coordinates":[[[-106.878391,45.426813],[-106.88353,45.426814],[-106.888667,45.426813],[-106.893807,45.426814],[-106.893807,45.430431],[-106.893804,45.434048],[-106.893803,45.437663],[-106.893801,45.441279],[-106.888663,45.441279],[-106.883528,45.441281],[-106.878395,45.441284],[-106.873266,45.441286],[-106.873262,45.437668],[-106.873259,45.43405],[-106.873256,45.430432],[-106.873254,45.426812],[-106.878391,45.426813]]]}},{"type":"Feature","properties":{"sec":"19","frstdivid":"MT200050S0390E0SN190"},"geometry":{"type":"Polygon","coordinates":[[[-106.970742,45.383317],[-106.977956,45.383326],[-106.977947,45.386944],[-106.977943,45.390561],[-106.977936,45.394186],[-106.977933,45.397811],[-106.970771,45.397812],[-106.965636,45.397812],[-106.960496,45.397813],[-106.955358,45.397811],[-106.955352,45.394183],[-106.955345,45.390553],[-106.95534,45.386928],[-106.955331,45.383306],[-106.960465,45.38331],[-106.965605,45.383313],[-106.970742,45.383317]]]}},{"type":"Feature","properties":{"sec":"05","frstdivid":"MT200050S0390E0SN050"},"geometry":{"type":"Polygon","coordinates":[[[-106.950316,45.441273],[-106.945189,45.441271],[-106.940053,45.44127],[-106.934922,45.44127],[-106.934919,45.437648],[-106.934912,45.434025],[-106.934909,45.430405],[-106.934904,45.426784],[-106.94003,45.426785],[-106.945154,45.426785],[-106.950284,45.426783],[-106.955413,45.426781],[-106.955416,45.430404],[-106.955426,45.434028],[-106.955438,45.437647],[-106.955452,45.441269],[-106.950316,45.441273]]]}},{"type":"Feature","properties":{"sec":"32","frstdivid":"MT200050S0390E0SN320"},"geometry":{"type":"Polygon","coordinates":[[[-106.939962,45.35412],[-106.943106,45.354118],[-106.945092,45.354117],[-106.947228,45.354117],[-106.948266,45.354116],[-106.950226,45.354113],[-106.953426,45.354109],[-106.955361,45.354107],[-106.955339,45.35796],[-106.955319,45.361581],[-106.955307,45.365202],[-106.955294,45.368821],[-106.950175,45.368828],[-106.94505,45.368832],[-106.939925,45.368836],[-106.9348,45.368841],[-106.934805,45.365221],[-106.934812,45.361602],[-106.934822,45.357985],[-106.934833,45.354127],[-106.937024,45.354121],[-106.937943,45.35412],[-106.939962,45.35412]]]}},{"type":"Feature","properties":{"sec":"22","frstdivid":"MT200050S0390E0SN220"},"geometry":{"type":"Polygon","coordinates":[[[-106.909207,45.397848],[-106.904079,45.397861],[-106.89895,45.397874],[-106.895101,45.397883],[-106.893818,45.397886],[-106.893819,45.394267],[-106.893819,45.390647],[-106.893819,45.387025],[-106.893818,45.383403],[-106.898943,45.383392],[-106.90407,45.38338],[-106.909194,45.383368],[-106.914319,45.383356],[-106.914323,45.386977],[-106.914326,45.390598],[-106.914329,45.394217],[-106.914332,45.397836],[-106.909207,45.397848]]]}},{"type":"Feature","properties":{"sec":"36","frstdivid":"MT200050S0390E0SN360"},"geometry":{"type":"Polygon","coordinates":[[[-106.8527,45.353402],[-106.854812,45.353412],[-106.856184,45.353421],[-106.857839,45.353432],[-106.861384,45.353455],[-106.862978,45.353466],[-106.866585,45.353489],[-106.868107,45.353499],[-106.871786,45.353523],[-106.873237,45.353533],[-106.873244,45.358045],[-106.873249,45.361665],[-106.873254,45.365286],[-106.873259,45.368907],[-106.86812,45.368911],[-106.862981,45.368916],[-106.857839,45.368923],[-106.852699,45.368928],[-106.852701,45.365309],[-106.852705,45.361693],[-106.852703,45.358073],[-106.8527,45.353402]]]}},{"type":"Feature","properties":{"sec":"26","frstdivid":"MT200050S0390E0SN260"},"geometry":{"type":"Polygon","coordinates":[[[-106.893818,45.383403],[-106.888682,45.383398],[-106.883545,45.383392],[-106.878408,45.383387],[-106.873271,45.383383],[-106.873269,45.379765],[-106.873267,45.376146],[-106.873263,45.372527],[-106.873259,45.368907],[-106.878397,45.368911],[-106.883533,45.368916],[-106.888675,45.368919],[-106.893814,45.368922],[-106.893814,45.37254],[-106.893814,45.376158],[-106.893816,45.379781],[-106.893818,45.383403]]]}},{"type":"Feature","properties":{"sec":"15","frstdivid":"MT200050S0390E0SN150"},"geometry":{"type":"Polygon","coordinates":[[[-106.914332,45.397836],[-106.91434,45.401458],[-106.914348,45.40508],[-106.914351,45.408704],[-106.914355,45.412325],[-106.909223,45.412336],[-106.904084,45.412345],[-106.898955,45.412351],[-106.893819,45.412358],[-106.893813,45.408737],[-106.893814,45.405117],[-106.893815,45.401501],[-106.893818,45.397886],[-106.895101,45.397883],[-106.89895,45.397874],[-106.904079,45.397861],[-106.909207,45.397848],[-106.914332,45.397836]]]}},{"type":"Feature","properties":{"sec":"16","frstdivid":"MT200050S0390E0SN160"},"geometry":{"type":"Polygon","coordinates":[[[-106.929731,45.397809],[-106.934865,45.397802],[-106.934873,45.401426],[-106.934879,45.405049],[-106.934882,45.408674],[-106.934884,45.412298],[-106.929748,45.412308],[-106.924614,45.412311],[-106.919484,45.412317],[-106.914355,45.412325],[-106.914351,45.408704],[-106.914348,45.40508],[-106.91434,45.401458],[-106.914332,45.397836],[-106.919465,45.397825],[-106.924597,45.397815],[-106.929731,45.397809]]]}},{"type":"Feature","properties":{"sec":"01","frstdivid":"MT200050S0390E0SN010"},"geometry":{"type":"Polygon","coordinates":[[[-106.857837,45.426822],[-106.862979,45.42682],[-106.868118,45.426816],[-106.873254,45.426812],[-106.873256,45.430432],[-106.873259,45.43405],[-106.873262,45.437668],[-106.873266,45.441286],[-106.868127,45.441288],[-106.862986,45.44129],[-106.85785,45.441293],[-106.852714,45.441294],[-106.852711,45.437675],[-106.852708,45.434055],[-106.852703,45.43044],[-106.852698,45.426825],[-106.857837,45.426822]]]}},{"type":"Feature","properties":{"sec":"28","frstdivid":"MT200050S0390E0SN280"},"geometry":{"type":"Polygon","coordinates":[[[-106.934815,45.379701],[-106.934823,45.383317],[-106.929695,45.383327],[-106.924569,45.383337],[-106.919443,45.383347],[-106.914319,45.383356],[-106.914317,45.379736],[-106.914315,45.376116],[-106.914317,45.372497],[-106.914318,45.368878],[-106.919438,45.368869],[-106.924558,45.36886],[-106.929679,45.36885],[-106.9348,45.368841],[-106.934804,45.372463],[-106.934808,45.376084],[-106.934815,45.379701]]]}},{"type":"Feature","properties":{"sec":"20","frstdivid":"MT200050S0390E0SN200"},"geometry":{"type":"Polygon","coordinates":[[[-106.950236,45.397811],[-106.94511,45.397809],[-106.939988,45.397806],[-106.934865,45.397802],[-106.934853,45.394178],[-106.934841,45.390555],[-106.934832,45.386936],[-106.934823,45.383317],[-106.939952,45.383315],[-106.94508,45.383312],[-106.950204,45.383309],[-106.955331,45.383306],[-106.95534,45.386928],[-106.955345,45.390553],[-106.955352,45.394183],[-106.955358,45.397811],[-106.950236,45.397811]]]}},{"type":"Feature","properties":{"sec":"14","frstdivid":"MT200050S0390E0SN140"},"geometry":{"type":"Polygon","coordinates":[[[-106.888677,45.39788],[-106.893818,45.397886],[-106.893815,45.401501],[-106.893814,45.405117],[-106.893813,45.408737],[-106.893819,45.412358],[-106.88868,45.41235],[-106.883541,45.412341],[-106.878398,45.412332],[-106.873254,45.412322],[-106.873257,45.408708],[-106.87326,45.405093],[-106.87326,45.401476],[-106.87326,45.39786],[-106.878398,45.397867],[-106.883537,45.397874],[-106.888677,45.39788]]]}},{"type":"Feature","properties":{"sec":"21","frstdivid":"MT200050S0390E0SN210"},"geometry":{"type":"Polygon","coordinates":[[[-106.929695,45.383327],[-106.934823,45.383317],[-106.934832,45.386936],[-106.934841,45.390555],[-106.934853,45.394178],[-106.934865,45.397802],[-106.929731,45.397809],[-106.924597,45.397815],[-106.919465,45.397825],[-106.914332,45.397836],[-106.914329,45.394217],[-106.914326,45.390598],[-106.914323,45.386977],[-106.914319,45.383356],[-106.919443,45.383347],[-106.924569,45.383337],[-106.929695,45.383327]]]}},{"type":"Feature","properties":{"sec":"27","frstdivid":"MT200050S0390E0SN270"},"geometry":{"type":"Polygon","coordinates":[[[-106.904053,45.368901],[-106.909186,45.36889],[-106.914318,45.368878],[-106.914317,45.372497],[-106.914315,45.376116],[-106.914317,45.379736],[-106.914319,45.383356],[-106.909194,45.383368],[-106.90407,45.38338],[-106.898943,45.383392],[-106.893818,45.383403],[-106.893816,45.379781],[-106.893814,45.376158],[-106.893814,45.37254],[-106.893814,45.368922],[-106.898933,45.368912],[-106.904053,45.368901]]]}},{"type":"Feature","properties":{"sec":"31","frstdivid":"MT200050S0390E0SN310"},"geometry":{"type":"Polygon","coordinates":[[[-106.977955,45.365234],[-106.977959,45.368855],[-106.970703,45.368844],[-106.965567,45.368837],[-106.960431,45.368827],[-106.955294,45.368821],[-106.955307,45.365202],[-106.955319,45.361581],[-106.955339,45.35796],[-106.955361,45.354107],[-106.95753,45.354104],[-106.958345,45.354104],[-106.960487,45.354102],[-106.963264,45.354099],[-106.96561,45.354097],[-106.967775,45.354096],[-106.968384,45.354096],[-106.970739,45.354097],[-106.973504,45.354097],[-106.977858,45.354096],[-106.977942,45.354096],[-106.977953,45.357995],[-106.977961,45.361613],[-106.977955,45.365234]]]}},{"type":"Feature","properties":{"sec":"08","frstdivid":"MT200050S0390E0SN080"},"geometry":{"type":"Polygon","coordinates":[[[-106.950261,45.412297],[-106.95539,45.412301],[-106.955395,45.415922],[-106.955403,45.419543],[-106.95541,45.423161],[-106.955413,45.426781],[-106.950284,45.426783],[-106.945154,45.426785],[-106.94003,45.426785],[-106.934904,45.426784],[-106.934901,45.423162],[-106.934898,45.41954],[-106.934891,45.41592],[-106.934884,45.412298],[-106.940013,45.412295],[-106.945135,45.412294],[-106.950261,45.412297]]]}},{"type":"Feature","properties":{"sec":"03","frstdivid":"MT200050S0390E0SN030"},"geometry":{"type":"Polygon","coordinates":[[[-106.89894,45.426808],[-106.904077,45.426803],[-106.909224,45.426799],[-106.914373,45.426795],[-106.914377,45.430414],[-106.91438,45.434034],[-106.914372,45.437654],[-106.914363,45.441274],[-106.909222,45.441275],[-106.904079,45.441276],[-106.89894,45.441277],[-106.893801,45.441279],[-106.893803,45.437663],[-106.893804,45.434048],[-106.893807,45.430431],[-106.893807,45.426814],[-106.89894,45.426808]]]}},{"type":"Feature","properties":{"sec":"11","frstdivid":"MT200050S0390E0SN110"},"geometry":{"type":"Polygon","coordinates":[[[-106.873253,45.415944],[-106.873254,45.412322],[-106.878398,45.412332],[-106.883541,45.412341],[-106.88868,45.41235],[-106.893819,45.412358],[-106.893813,45.415972],[-106.893808,45.419587],[-106.893807,45.4232],[-106.893807,45.426814],[-106.888667,45.426813],[-106.88353,45.426814],[-106.878391,45.426813],[-106.873254,45.426812],[-106.873253,45.423189],[-106.873251,45.419565],[-106.873253,45.415944]]]}},{"type":"Feature","properties":{"sec":"04","frstdivid":"MT200050S0390E0SN040"},"geometry":{"type":"Polygon","coordinates":[[[-106.929773,45.426784],[-106.934904,45.426784],[-106.934909,45.430405],[-106.934912,45.434025],[-106.934919,45.437648],[-106.934922,45.44127],[-106.929779,45.441271],[-106.924635,45.441273],[-106.919499,45.441272],[-106.914363,45.441274],[-106.914372,45.437654],[-106.91438,45.434034],[-106.914377,45.430414],[-106.914373,45.426795],[-106.919508,45.42679],[-106.924642,45.426785],[-106.929773,45.426784]]]}},{"type":"Feature","properties":{"sec":"34","frstdivid":"MT200050S0390E0SN340"},"geometry":{"type":"Polygon","coordinates":[[[-106.909186,45.36889],[-106.904053,45.368901],[-106.898933,45.368912],[-106.893814,45.368922],[-106.893807,45.365303],[-106.8938,45.361684],[-106.893791,45.358065],[-106.893781,45.354206],[-106.896145,45.354202],[-106.896997,45.354201],[-106.898922,45.354198],[-106.902133,45.354193],[-106.904063,45.35419],[-106.90641,45.354186],[-106.907266,45.354185],[-106.9092,45.354182],[-106.912399,45.354177],[-106.914338,45.354173],[-106.914331,45.358014],[-106.914328,45.361636],[-106.914323,45.365257],[-106.914318,45.368878],[-106.909186,45.36889]]]}},{"type":"Feature","properties":{"sec":"18","frstdivid":"MT200050S0390E0SN180"},"geometry":{"type":"Polygon","coordinates":[[[-106.955373,45.405058],[-106.955366,45.401436],[-106.955358,45.397811],[-106.960496,45.397813],[-106.965636,45.397812],[-106.970771,45.397812],[-106.977933,45.397811],[-106.977927,45.401425],[-106.977923,45.405038],[-106.977912,45.408656],[-106.977907,45.412274],[-106.970822,45.412284],[-106.965679,45.412291],[-106.960535,45.412296],[-106.95539,45.412301],[-106.955381,45.408679],[-106.955373,45.405058]]]}},{"type":"Feature","properties":{"sec":"29","frstdivid":"MT200050S0390E0SN290"},"geometry":{"type":"Polygon","coordinates":[[[-106.955331,45.383306],[-106.950204,45.383309],[-106.94508,45.383312],[-106.939952,45.383315],[-106.934823,45.383317],[-106.934815,45.379701],[-106.934808,45.376084],[-106.934804,45.372463],[-106.9348,45.368841],[-106.939925,45.368836],[-106.94505,45.368832],[-106.950175,45.368828],[-106.955294,45.368821],[-106.955303,45.372443],[-106.955313,45.376065],[-106.955321,45.379685],[-106.955331,45.383306]]]}},{"type":"Feature","properties":{"sec":"13","frstdivid":"MT200050S0390E0SN130"},"geometry":{"type":"Polygon","coordinates":[[[-106.862986,45.397874],[-106.868123,45.397867],[-106.87326,45.39786],[-106.87326,45.401476],[-106.87326,45.405093],[-106.873257,45.408708],[-106.873254,45.412322],[-106.868117,45.412329],[-106.862976,45.412335],[-106.857841,45.412344],[-106.852704,45.412353],[-106.852707,45.408737],[-106.852711,45.40512],[-106.852714,45.401502],[-106.852718,45.397883],[-106.857852,45.397879],[-106.862986,45.397874]]]}},{"type":"Feature","properties":{"sec":"06","frstdivid":"MT200050S0390E0SN060"},"geometry":{"type":"Polygon","coordinates":[[[-106.955438,45.437647],[-106.955426,45.434028],[-106.955416,45.430404],[-106.955413,45.426781],[-106.960556,45.426776],[-106.965699,45.426768],[-106.970833,45.426764],[-106.977913,45.426754],[-106.977915,45.430376],[-106.977909,45.433997],[-106.977903,45.43763],[-106.977898,45.44126],[-106.970855,45.441262],[-106.965731,45.441263],[-106.96059,45.441267],[-106.955452,45.441269],[-106.955438,45.437647]]]}},{"type":"Feature","properties":{"sec":"35","frstdivid":"MT200050S0390E0SN350"},"geometry":{"type":"Polygon","coordinates":[[[-106.873249,45.361665],[-106.873244,45.358045],[-106.873237,45.353533],[-106.875689,45.353549],[-106.876869,45.353558],[-106.878372,45.353568],[-106.881951,45.353593],[-106.883507,45.353604],[-106.88596,45.353622],[-106.887035,45.353627],[-106.888644,45.353636],[-106.89186,45.353653],[-106.89186,45.354209],[-106.893781,45.354206],[-106.893791,45.358065],[-106.8938,45.361684],[-106.893807,45.365303],[-106.893814,45.368922],[-106.888675,45.368919],[-106.883533,45.368916],[-106.878397,45.368911],[-106.873259,45.368907],[-106.873254,45.365286],[-106.873249,45.361665]]]}},{"type":"Feature","properties":{"sec":"07","frstdivid":"MT200050S0390E0SN070"},"geometry":{"type":"Polygon","coordinates":[[[-106.970833,45.426764],[-106.965699,45.426768],[-106.960556,45.426776],[-106.955413,45.426781],[-106.95541,45.423161],[-106.955403,45.419543],[-106.955395,45.415922],[-106.95539,45.412301],[-106.960535,45.412296],[-106.965679,45.412291],[-106.970822,45.412284],[-106.977907,45.412274],[-106.977904,45.415888],[-106.977905,45.419505],[-106.977911,45.423129],[-106.977913,45.426754],[-106.970833,45.426764]]]}},{"type":"Feature","properties":{"sec":"09","frstdivid":"MT200050S0390E0SN090"},"geometry":{"type":"Polygon","coordinates":[[[-106.929748,45.412308],[-106.934884,45.412298],[-106.934891,45.41592],[-106.934898,45.41954],[-106.934901,45.423162],[-106.934904,45.426784],[-106.929773,45.426784],[-106.924642,45.426785],[-106.919508,45.42679],[-106.914373,45.426795],[-106.914373,45.423181],[-106.914372,45.419568],[-106.914361,45.415947],[-106.914355,45.412325],[-106.919484,45.412317],[-106.924614,45.412311],[-106.929748,45.412308]]]}},{"type":"Feature","properties":{"sec":"12","frstdivid":"MT200050S0390E0SN120"},"geometry":{"type":"Polygon","coordinates":[[[-106.862979,45.42682],[-106.857837,45.426822],[-106.852698,45.426825],[-106.852703,45.423211],[-106.852708,45.419593],[-106.852706,45.415974],[-106.852704,45.412353],[-106.857841,45.412344],[-106.862976,45.412335],[-106.868117,45.412329],[-106.873254,45.412322],[-106.873253,45.415944],[-106.873251,45.419565],[-106.873253,45.423189],[-106.873254,45.426812],[-106.868118,45.426816],[-106.862979,45.42682]]]}},{"type":"Feature","properties":{"sec":"10","frstdivid":"MT200050S0390E0SN100"},"geometry":{"type":"Polygon","coordinates":[[[-106.914373,45.423181],[-106.914373,45.426795],[-106.909224,45.426799],[-106.904077,45.426803],[-106.89894,45.426808],[-106.893807,45.426814],[-106.893807,45.4232],[-106.893808,45.419587],[-106.893813,45.415972],[-106.893819,45.412358],[-106.898955,45.412351],[-106.904084,45.412345],[-106.909223,45.412336],[-106.914355,45.412325],[-106.914361,45.415947],[-106.914372,45.419568],[-106.914373,45.423181]]]}},{"type":"Feature","properties":{"sec":"25","frstdivid":"MT200050S0390E0SN250"},"geometry":{"type":"Polygon","coordinates":[[[-106.857839,45.368923],[-106.862981,45.368916],[-106.86812,45.368911],[-106.873259,45.368907],[-106.873263,45.372527],[-106.873267,45.376146],[-106.873269,45.379765],[-106.873271,45.383383],[-106.868136,45.38339],[-106.862998,45.383396],[-106.85786,45.383405],[-106.852722,45.38341],[-106.852712,45.37979],[-106.852706,45.376169],[-106.852701,45.372549],[-106.852699,45.368928],[-106.857839,45.368923]]]}}]}