{"type":"FeatureCollection","note":"BLM Public Land Survey System. Provided by the Bureau of Land Management as is. These data are neither legal documents nor land surveys and must not be used as such.","features":[{"type":"Feature","properties":{"sec":"23","frstdivid":"WY060290N0800W0SN230"},"geometry":{"type":"Polygon","coordinates":[[[-106.391107,42.460332],[-106.395933,42.460277],[-106.400758,42.460222],[-106.400834,42.463746],[-106.40091,42.467269],[-106.400985,42.470793],[-106.401061,42.474316],[-106.39626,42.474364],[-106.391458,42.474411],[-106.386657,42.474459],[-106.381856,42.474506],[-106.381756,42.47099],[-106.381656,42.467474],[-106.381556,42.463958],[-106.381456,42.460442],[-106.386282,42.460387],[-106.391107,42.460332]]]}},{"type":"Feature","properties":{"sec":"13","frstdivid":"WY060290N0800W0SN130"},"geometry":{"type":"Polygon","coordinates":[[[-106.362588,42.488593],[-106.362533,42.485127],[-106.362477,42.48166],[-106.362421,42.478193],[-106.362366,42.474727],[-106.367238,42.474672],[-106.372111,42.474616],[-106.376983,42.474561],[-106.381856,42.474506],[-106.381916,42.478022],[-106.381977,42.481538],[-106.382038,42.485054],[-106.382098,42.48857],[-106.377221,42.488576],[-106.372343,42.488582],[-106.367466,42.488587],[-106.362588,42.488593]]]}},{"type":"Feature","properties":{"sec":"25","frstdivid":"WY060290N0800W0SN250"},"geometry":{"type":"Polygon","coordinates":[[[-106.37149,42.446608],[-106.376351,42.446493],[-106.381212,42.446377],[-106.381273,42.449893],[-106.381334,42.45341],[-106.381395,42.456926],[-106.381456,42.460442],[-106.376593,42.460532],[-106.37173,42.460623],[-106.366867,42.460713],[-106.362004,42.460804],[-106.361978,42.457319],[-106.361952,42.453834],[-106.361859,42.450336],[-106.361767,42.446839],[-106.366628,42.446723],[-106.37149,42.446608]]]}},{"type":"Feature","properties":{"sec":"06","frstdivid":"WY060290N0800W0SN060"},"geometry":{"type":"Polygon","coordinates":[[[-106.458974,42.502564],[-106.463769,42.502564],[-106.468564,42.502563],[-106.47336,42.502556],[-106.478155,42.502549],[-106.483663,42.502542],[-106.483541,42.506137],[-106.483419,42.509731],[-106.483442,42.513339],[-106.483464,42.516947],[-106.478189,42.516933],[-106.473456,42.516921],[-106.468725,42.51691],[-106.463991,42.51689],[-106.459257,42.516871],[-106.459188,42.513297],[-106.459119,42.509719],[-106.459046,42.506142],[-106.458974,42.502564]]]}},{"type":"Feature","properties":{"sec":"05","frstdivid":"WY060290N0800W0SN050"},"geometry":{"type":"Polygon","coordinates":[[[-106.439996,42.509708],[-106.439839,42.506118],[-106.439682,42.502529],[-106.444505,42.502538],[-106.449328,42.502546],[-106.454151,42.502555],[-106.458974,42.502564],[-106.459046,42.506142],[-106.459119,42.509719],[-106.459188,42.513297],[-106.459257,42.516871],[-106.454518,42.516875],[-106.44978,42.516879],[-106.445041,42.516884],[-106.440303,42.516888],[-106.440149,42.513298],[-106.439996,42.509708]]]}},{"type":"Feature","properties":{"sec":"04","frstdivid":"WY060290N0800W0SN040"},"geometry":{"type":"Polygon","coordinates":[[[-106.426095,42.516873],[-106.421359,42.516868],[-106.421143,42.513191],[-106.420935,42.509649],[-106.420719,42.506109],[-106.420504,42.502568],[-106.425299,42.502558],[-106.430093,42.502548],[-106.434888,42.502538],[-106.439682,42.502529],[-106.439839,42.506118],[-106.439996,42.509708],[-106.440149,42.513298],[-106.440303,42.516888],[-106.435567,42.516883],[-106.430831,42.516878],[-106.426095,42.516873]]]}},{"type":"Feature","properties":{"sec":"14","frstdivid":"WY060290N0800W0SN140"},"geometry":{"type":"Polygon","coordinates":[[[-106.382038,42.485054],[-106.381977,42.481538],[-106.381916,42.478022],[-106.381856,42.474506],[-106.386657,42.474459],[-106.391458,42.474411],[-106.39626,42.474364],[-106.401061,42.474316],[-106.401158,42.47784],[-106.401255,42.481364],[-106.401353,42.484888],[-106.40145,42.488412],[-106.396612,42.488451],[-106.391774,42.488491],[-106.386936,42.48853],[-106.382098,42.48857],[-106.382038,42.485054]]]}},{"type":"Feature","properties":{"sec":"24","frstdivid":"WY060290N0800W0SN240"},"geometry":{"type":"Polygon","coordinates":[[[-106.362004,42.460804],[-106.366867,42.460713],[-106.37173,42.460623],[-106.376593,42.460532],[-106.381456,42.460442],[-106.381556,42.463958],[-106.381656,42.467474],[-106.381756,42.47099],[-106.381856,42.474506],[-106.376983,42.474561],[-106.372111,42.474616],[-106.367238,42.474672],[-106.362366,42.474727],[-106.362275,42.471246],[-106.362185,42.467765],[-106.362094,42.464284],[-106.362004,42.460804]]]}},{"type":"Feature","properties":{"sec":"19","frstdivid":"WY060290N0800W0SN190"},"geometry":{"type":"Polygon","coordinates":[[[-106.463701,42.4596],[-106.468536,42.459567],[-106.473372,42.459529],[-106.478208,42.459491],[-106.483913,42.459447],[-106.48389,42.463059],[-106.483868,42.466672],[-106.483846,42.470284],[-106.483824,42.473896],[-106.478272,42.473908],[-106.473523,42.473919],[-106.468774,42.473929],[-106.464024,42.473937],[-106.459275,42.473945],[-106.459173,42.470367],[-106.459071,42.466789],[-106.458968,42.463211],[-106.458866,42.459633],[-106.463701,42.4596]]]}},{"type":"Feature","properties":{"sec":"12","frstdivid":"WY060290N0800W0SN120"},"geometry":{"type":"Polygon","coordinates":[[[-106.382098,42.48857],[-106.382101,42.492085],[-106.382103,42.495601],[-106.382106,42.499117],[-106.382108,42.502632],[-106.37728,42.502667],[-106.372452,42.502701],[-106.367623,42.502736],[-106.362795,42.50277],[-106.362744,42.499226],[-106.362692,42.495682],[-106.36264,42.492137],[-106.362588,42.488593],[-106.367466,42.488587],[-106.372343,42.488582],[-106.377221,42.488576],[-106.382098,42.48857]]]}},{"type":"Feature","properties":{"sec":"16","frstdivid":"WY060290N0800W0SN160"},"geometry":{"type":"Polygon","coordinates":[[[-106.440196,42.473817],[-106.440122,42.477406],[-106.440049,42.480995],[-106.439975,42.484584],[-106.439902,42.488172],[-106.435125,42.488231],[-106.430349,42.488289],[-106.425572,42.488347],[-106.420795,42.488406],[-106.420701,42.484763],[-106.420608,42.48112],[-106.420514,42.477477],[-106.42042,42.473834],[-106.425375,42.473836],[-106.43033,42.473839],[-106.435263,42.473828],[-106.440196,42.473817]]]}},{"type":"Feature","properties":{"sec":"27","frstdivid":"WY060290N0800W0SN270"},"geometry":{"type":"Polygon","coordinates":[[[-106.420058,42.45278],[-106.420075,42.456289],[-106.420092,42.459798],[-106.415259,42.459904],[-106.410425,42.46001],[-106.405592,42.460116],[-106.400758,42.460222],[-106.400734,42.456698],[-106.400709,42.453175],[-106.400685,42.449651],[-106.40066,42.446127],[-106.405501,42.446035],[-106.410342,42.445944],[-106.415182,42.445852],[-106.420023,42.445761],[-106.42004,42.44927],[-106.420058,42.45278]]]}},{"type":"Feature","properties":{"sec":"20","frstdivid":"WY060290N0800W0SN200"},"geometry":{"type":"Polygon","coordinates":[[[-106.439838,42.466746],[-106.439659,42.463211],[-106.43948,42.459675],[-106.444326,42.459665],[-106.449173,42.459654],[-106.45402,42.459644],[-106.458866,42.459633],[-106.458968,42.463211],[-106.459071,42.466789],[-106.459173,42.470367],[-106.459275,42.473945],[-106.454505,42.473913],[-106.449735,42.473881],[-106.444965,42.473849],[-106.440196,42.473817],[-106.440017,42.470282],[-106.439838,42.466746]]]}},{"type":"Feature","properties":{"sec":"32","frstdivid":"WY060290N0800W0SN320"},"geometry":{"type":"Polygon","coordinates":[[[-106.44432,42.445479],[-106.43946,42.445533],[-106.439515,42.441998],[-106.43957,42.438462],[-106.439626,42.434926],[-106.439681,42.43139],[-106.444479,42.431328],[-106.449283,42.431266],[-106.449334,42.431265],[-106.454107,42.431176],[-106.454191,42.431175],[-106.458931,42.431086],[-106.459047,42.434621],[-106.459162,42.438156],[-106.45903,42.441736],[-106.458898,42.445317],[-106.454038,42.445371],[-106.449179,42.445425],[-106.44432,42.445479]]]}},{"type":"Feature","properties":{"sec":"36","frstdivid":"WY060290N0800W0SN360"},"geometry":{"type":"Polygon","coordinates":[[[-106.381212,42.446377],[-106.376351,42.446493],[-106.37149,42.446608],[-106.366628,42.446723],[-106.361767,42.446839],[-106.36165,42.443299],[-106.361532,42.439759],[-106.361501,42.43619],[-106.36147,42.432621],[-106.361533,42.43262],[-106.366351,42.43255],[-106.366437,42.432549],[-106.371231,42.432479],[-106.371342,42.432477],[-106.376174,42.432397],[-106.376246,42.432395],[-106.381116,42.432314],[-106.38114,42.43583],[-106.381164,42.439346],[-106.381188,42.442861],[-106.381212,42.446377]]]}},{"type":"Feature","properties":{"sec":"03","frstdivid":"WY060290N0800W0SN030"},"geometry":{"type":"Polygon","coordinates":[[[-106.421143,42.513191],[-106.421359,42.516868],[-106.416647,42.516853],[-106.411935,42.516839],[-106.407223,42.516825],[-106.402511,42.51681],[-106.402186,42.513075],[-106.401879,42.509553],[-106.401571,42.50603],[-106.401264,42.502507],[-106.406074,42.502522],[-106.410884,42.502537],[-106.415694,42.502553],[-106.420504,42.502568],[-106.420719,42.506109],[-106.420935,42.509649],[-106.421143,42.513191]]]}},{"type":"Feature","properties":{"sec":"21","frstdivid":"WY060290N0800W0SN210"},"geometry":{"type":"Polygon","coordinates":[[[-106.420174,42.463307],[-106.420092,42.459798],[-106.424939,42.459768],[-106.429786,42.459737],[-106.434633,42.459706],[-106.43948,42.459675],[-106.439659,42.463211],[-106.439838,42.466746],[-106.440017,42.470282],[-106.440196,42.473817],[-106.435263,42.473828],[-106.43033,42.473839],[-106.425375,42.473836],[-106.42042,42.473834],[-106.420338,42.470325],[-106.420256,42.466816],[-106.420174,42.463307]]]}},{"type":"Feature","properties":{"sec":"10","frstdivid":"WY060290N0800W0SN100"},"geometry":{"type":"Polygon","coordinates":[[[-106.401403,42.491935],[-106.40145,42.488412],[-106.406286,42.48841],[-106.411123,42.488409],[-106.415959,42.488407],[-106.420795,42.488406],[-106.420723,42.491946],[-106.42065,42.495487],[-106.420577,42.499027],[-106.420504,42.502568],[-106.415694,42.502553],[-106.410884,42.502537],[-106.406074,42.502522],[-106.401264,42.502507],[-106.401311,42.498983],[-106.401357,42.495459],[-106.401403,42.491935]]]}},{"type":"Feature","properties":{"sec":"01","frstdivid":"WY060290N0800W0SN010"},"geometry":{"type":"Polygon","coordinates":[[[-106.382485,42.509664],[-106.382674,42.513179],[-106.382867,42.516779],[-106.377871,42.516814],[-106.372875,42.516849],[-106.367878,42.516884],[-106.362882,42.516919],[-106.362916,42.513237],[-106.362951,42.509555],[-106.362873,42.506163],[-106.362795,42.50277],[-106.367623,42.502736],[-106.372452,42.502701],[-106.37728,42.502667],[-106.382108,42.502632],[-106.382297,42.506148],[-106.382485,42.509664]]]}},{"type":"Feature","properties":{"sec":"34","frstdivid":"WY060290N0800W0SN340"},"geometry":{"type":"Polygon","coordinates":[[[-106.405501,42.446035],[-106.40066,42.446127],[-106.400615,42.442604],[-106.40057,42.439081],[-106.400525,42.435558],[-106.40048,42.432035],[-106.400673,42.432033],[-106.405433,42.431984],[-106.40549,42.431984],[-106.410308,42.431934],[-106.410386,42.431934],[-106.415123,42.431833],[-106.415238,42.43183],[-106.420032,42.431725],[-106.42009,42.431724],[-106.420073,42.435233],[-106.420057,42.438742],[-106.42004,42.442252],[-106.420023,42.445761],[-106.415182,42.445852],[-106.410342,42.445944],[-106.405501,42.446035]]]}},{"type":"Feature","properties":{"sec":"15","frstdivid":"WY060290N0800W0SN150"},"geometry":{"type":"Polygon","coordinates":[[[-106.401061,42.474316],[-106.405901,42.474196],[-106.41074,42.474075],[-106.41558,42.473954],[-106.42042,42.473834],[-106.420514,42.477477],[-106.420608,42.48112],[-106.420701,42.484763],[-106.420795,42.488406],[-106.415959,42.488407],[-106.411123,42.488409],[-106.406286,42.48841],[-106.40145,42.488412],[-106.401353,42.484888],[-106.401255,42.481364],[-106.401158,42.47784],[-106.401061,42.474316]]]}},{"type":"Feature","properties":{"sec":"22","frstdivid":"WY060290N0800W0SN220"},"geometry":{"type":"Polygon","coordinates":[[[-106.405901,42.474196],[-106.401061,42.474316],[-106.400985,42.470793],[-106.40091,42.467269],[-106.400834,42.463746],[-106.400758,42.460222],[-106.405592,42.460116],[-106.410425,42.46001],[-106.415259,42.459904],[-106.420092,42.459798],[-106.420174,42.463307],[-106.420256,42.466816],[-106.420338,42.470325],[-106.42042,42.473834],[-106.41558,42.473954],[-106.41074,42.474075],[-106.405901,42.474196]]]}},{"type":"Feature","properties":{"sec":"07","frstdivid":"WY060290N0800W0SN070"},"geometry":{"type":"Polygon","coordinates":[[[-106.468598,42.48823],[-106.473368,42.488214],[-106.478139,42.488199],[-106.483734,42.48818],[-106.483721,42.491759],[-106.483708,42.495338],[-106.483685,42.49894],[-106.483663,42.502542],[-106.478155,42.502549],[-106.47336,42.502556],[-106.468564,42.502563],[-106.463769,42.502564],[-106.458974,42.502564],[-106.458995,42.498987],[-106.459016,42.49541],[-106.459036,42.491834],[-106.459057,42.488257],[-106.463828,42.488244],[-106.468598,42.48823]]]}},{"type":"Feature","properties":{"sec":"17","frstdivid":"WY060290N0800W0SN170"},"geometry":{"type":"Polygon","coordinates":[[[-106.454268,42.488236],[-106.44948,42.488215],[-106.444691,42.488193],[-106.439902,42.488172],[-106.439975,42.484584],[-106.440049,42.480995],[-106.440122,42.477406],[-106.440196,42.473817],[-106.444965,42.473849],[-106.449735,42.473881],[-106.454505,42.473913],[-106.459275,42.473945],[-106.459221,42.477523],[-106.459166,42.481101],[-106.459112,42.484679],[-106.459057,42.488257],[-106.454268,42.488236]]]}},{"type":"Feature","properties":{"sec":"02","frstdivid":"WY060290N0800W0SN020"},"geometry":{"type":"Polygon","coordinates":[[[-106.402186,42.513075],[-106.402511,42.51681],[-106.3976,42.516802],[-106.392689,42.516794],[-106.387778,42.516787],[-106.382867,42.516779],[-106.382674,42.513179],[-106.382485,42.509664],[-106.382297,42.506148],[-106.382108,42.502632],[-106.386897,42.502601],[-106.391686,42.50257],[-106.396475,42.502538],[-106.401264,42.502507],[-106.401571,42.50603],[-106.401879,42.509553],[-106.402186,42.513075]]]}},{"type":"Feature","properties":{"sec":"29","frstdivid":"WY060290N0800W0SN290"},"geometry":{"type":"Polygon","coordinates":[[[-106.439475,42.45614],[-106.43947,42.452604],[-106.439465,42.449069],[-106.43946,42.445533],[-106.44432,42.445479],[-106.449179,42.445425],[-106.454038,42.445371],[-106.458898,42.445317],[-106.45889,42.448896],[-106.458882,42.452475],[-106.458874,42.456054],[-106.458866,42.459633],[-106.45402,42.459644],[-106.449173,42.459654],[-106.444326,42.459665],[-106.43948,42.459675],[-106.439475,42.45614]]]}},{"type":"Feature","properties":{"sec":"31","frstdivid":"WY060290N0800W0SN310"},"geometry":{"type":"Polygon","coordinates":[[[-106.478571,42.430801],[-106.483445,42.430757],[-106.484035,42.43075],[-106.484023,42.434344],[-106.484011,42.437938],[-106.483994,42.441517],[-106.483976,42.445096],[-106.478298,42.445148],[-106.473448,42.445192],[-106.468599,42.445237],[-106.463748,42.445277],[-106.458898,42.445317],[-106.45903,42.441736],[-106.459162,42.438156],[-106.459047,42.434621],[-106.458931,42.431086],[-106.459056,42.431084],[-106.463727,42.430994],[-106.463919,42.43099],[-106.468523,42.430901],[-106.468783,42.430899],[-106.473418,42.430849],[-106.473697,42.430846],[-106.478305,42.430804],[-106.478571,42.430801]]]}},{"type":"Feature","properties":{"sec":"33","frstdivid":"WY060290N0800W0SN330"},"geometry":{"type":"Polygon","coordinates":[[[-106.43946,42.445533],[-106.434601,42.44559],[-106.429742,42.445647],[-106.424882,42.445704],[-106.420023,42.445761],[-106.42004,42.442252],[-106.420057,42.438742],[-106.420073,42.435233],[-106.42009,42.431724],[-106.424942,42.431622],[-106.429795,42.431519],[-106.429851,42.431519],[-106.434738,42.431455],[-106.434761,42.431455],[-106.439619,42.431391],[-106.439681,42.43139],[-106.439626,42.434926],[-106.43957,42.438462],[-106.439515,42.441998],[-106.43946,42.445533]]]}},{"type":"Feature","properties":{"sec":"18","frstdivid":"WY060290N0800W0SN180"},"geometry":{"type":"Polygon","coordinates":[[[-106.468598,42.48823],[-106.463828,42.488244],[-106.459057,42.488257],[-106.459112,42.484679],[-106.459166,42.481101],[-106.459221,42.477523],[-106.459275,42.473945],[-106.464024,42.473937],[-106.468774,42.473929],[-106.473523,42.473919],[-106.478272,42.473908],[-106.483824,42.473896],[-106.483809,42.477499],[-106.483795,42.481102],[-106.483764,42.484641],[-106.483734,42.48818],[-106.478139,42.488199],[-106.473368,42.488214],[-106.468598,42.48823]]]}},{"type":"Feature","properties":{"sec":"08","frstdivid":"WY060290N0800W0SN080"},"geometry":{"type":"Polygon","coordinates":[[[-106.439902,42.488172],[-106.444691,42.488193],[-106.44948,42.488215],[-106.454268,42.488236],[-106.459057,42.488257],[-106.459036,42.491834],[-106.459016,42.49541],[-106.458995,42.498987],[-106.458974,42.502564],[-106.454151,42.502555],[-106.449328,42.502546],[-106.444505,42.502538],[-106.439682,42.502529],[-106.439737,42.49894],[-106.439792,42.495351],[-106.439847,42.491761],[-106.439902,42.488172]]]}},{"type":"Feature","properties":{"sec":"26","frstdivid":"WY060290N0800W0SN260"},"geometry":{"type":"Polygon","coordinates":[[[-106.386282,42.460387],[-106.381456,42.460442],[-106.381395,42.456926],[-106.381334,42.45341],[-106.381273,42.449893],[-106.381212,42.446377],[-106.386074,42.446315],[-106.390936,42.446252],[-106.395798,42.44619],[-106.40066,42.446127],[-106.400685,42.449651],[-106.400709,42.453175],[-106.400734,42.456698],[-106.400758,42.460222],[-106.395933,42.460277],[-106.391107,42.460332],[-106.386282,42.460387]]]}},{"type":"Feature","properties":{"sec":"30","frstdivid":"WY060290N0800W0SN300"},"geometry":{"type":"Polygon","coordinates":[[[-106.478298,42.445148],[-106.483976,42.445096],[-106.483959,42.448682],[-106.483941,42.452268],[-106.483927,42.455858],[-106.483913,42.459447],[-106.478208,42.459491],[-106.473372,42.459529],[-106.468536,42.459567],[-106.463701,42.4596],[-106.458866,42.459633],[-106.458874,42.456054],[-106.458882,42.452475],[-106.45889,42.448896],[-106.458898,42.445317],[-106.463748,42.445277],[-106.468599,42.445237],[-106.473448,42.445192],[-106.478298,42.445148]]]}},{"type":"Feature","properties":{"sec":"09","frstdivid":"WY060290N0800W0SN090"},"geometry":{"type":"Polygon","coordinates":[[[-106.42065,42.495487],[-106.420723,42.491946],[-106.420795,42.488406],[-106.425572,42.488347],[-106.430349,42.488289],[-106.435125,42.488231],[-106.439902,42.488172],[-106.439847,42.491761],[-106.439792,42.495351],[-106.439737,42.49894],[-106.439682,42.502529],[-106.434888,42.502538],[-106.430093,42.502548],[-106.425299,42.502558],[-106.420504,42.502568],[-106.420577,42.499027],[-106.42065,42.495487]]]}},{"type":"Feature","properties":{"sec":"28","frstdivid":"WY060290N0800W0SN280"},"geometry":{"type":"Polygon","coordinates":[[[-106.434601,42.44559],[-106.43946,42.445533],[-106.439465,42.449069],[-106.43947,42.452604],[-106.439475,42.45614],[-106.43948,42.459675],[-106.434633,42.459706],[-106.429786,42.459737],[-106.424939,42.459768],[-106.420092,42.459798],[-106.420075,42.456289],[-106.420058,42.45278],[-106.42004,42.44927],[-106.420023,42.445761],[-106.424882,42.445704],[-106.429742,42.445647],[-106.434601,42.44559]]]}},{"type":"Feature","properties":{"sec":"11","frstdivid":"WY060290N0800W0SN110"},"geometry":{"type":"Polygon","coordinates":[[[-106.396475,42.502538],[-106.391686,42.50257],[-106.386897,42.502601],[-106.382108,42.502632],[-106.382106,42.499117],[-106.382103,42.495601],[-106.382101,42.492085],[-106.382098,42.48857],[-106.386936,42.48853],[-106.391774,42.488491],[-106.396612,42.488451],[-106.40145,42.488412],[-106.401403,42.491935],[-106.401357,42.495459],[-106.401311,42.498983],[-106.401264,42.502507],[-106.396475,42.502538]]]}},{"type":"Feature","properties":{"sec":"35","frstdivid":"WY060290N0800W0SN350"},"geometry":{"type":"Polygon","coordinates":[[[-106.390955,42.432191],[-106.395566,42.432116],[-106.395857,42.432111],[-106.40048,42.432035],[-106.400525,42.435558],[-106.40057,42.439081],[-106.400615,42.442604],[-106.40066,42.446127],[-106.395798,42.44619],[-106.390936,42.446252],[-106.386074,42.446315],[-106.381212,42.446377],[-106.381188,42.442861],[-106.381164,42.439346],[-106.38114,42.43583],[-106.381116,42.432314],[-106.381149,42.432314],[-106.385884,42.432255],[-106.386052,42.432253],[-106.390652,42.432196],[-106.390955,42.432191]]]}}]}