{"type":"FeatureCollection","note":"BLM Public Land Survey System. Provided by the Bureau of Land Management as is. These data are neither legal documents nor land surveys and must not be used as such.","features":[{"type":"Feature","properties":{"sec":"35","frstdivid":"MT200090N0540E0SN350"},"geometry":{"type":"Polygon","coordinates":[[[-104.895888,46.482249],[-104.900755,46.482254],[-104.900752,46.485878],[-104.900749,46.489501],[-104.900746,46.493124],[-104.900742,46.496747],[-104.895499,46.496736],[-104.890256,46.496724],[-104.885013,46.496713],[-104.87977,46.496701],[-104.879768,46.493084],[-104.879767,46.489467],[-104.879765,46.48585],[-104.879764,46.482233],[-104.88014,46.482234],[-104.885012,46.482238],[-104.885392,46.482238],[-104.890259,46.482243],[-104.89064,46.482244],[-104.895507,46.482249],[-104.895888,46.482249]]]}},{"type":"Feature","properties":{"sec":"21","frstdivid":"MT200090N0540E0SN210"},"geometry":{"type":"Polygon","coordinates":[[[-104.937491,46.525796],[-104.932261,46.52578],[-104.927032,46.525763],[-104.921803,46.525747],[-104.921791,46.522128],[-104.921779,46.518509],[-104.921767,46.51489],[-104.921755,46.51127],[-104.926988,46.511284],[-104.932221,46.511297],[-104.937454,46.511311],[-104.942687,46.511324],[-104.942694,46.514951],[-104.942702,46.518577],[-104.942711,46.522195],[-104.94272,46.525813],[-104.937491,46.525796]]]}},{"type":"Feature","properties":{"sec":"14","frstdivid":"MT200090N0540E0SN140"},"geometry":{"type":"Polygon","coordinates":[[[-104.890306,46.52567],[-104.895563,46.525681],[-104.90082,46.525692],[-104.900833,46.529308],[-104.900845,46.532924],[-104.900858,46.536541],[-104.90087,46.540157],[-104.895603,46.540151],[-104.890335,46.540144],[-104.885068,46.540138],[-104.8798,46.540131],[-104.879798,46.536511],[-104.879796,46.53289],[-104.879793,46.52927],[-104.879791,46.525649],[-104.885048,46.52566],[-104.890306,46.52567]]]}},{"type":"Feature","properties":{"sec":"17","frstdivid":"MT200090N0540E0SN170"},"geometry":{"type":"Polygon","coordinates":[[[-104.963859,46.540349],[-104.958591,46.540333],[-104.953322,46.540317],[-104.948083,46.540299],[-104.942844,46.540282],[-104.942813,46.536664],[-104.942782,46.533047],[-104.942751,46.52943],[-104.94272,46.525813],[-104.947983,46.525827],[-104.953246,46.525842],[-104.958521,46.525861],[-104.963796,46.525881],[-104.963811,46.529496],[-104.963827,46.53311],[-104.963843,46.53673],[-104.963859,46.540349]]]}},{"type":"Feature","properties":{"sec":"36","frstdivid":"MT200090N0540E0SN360"},"geometry":{"type":"Polygon","coordinates":[[[-104.859149,46.482219],[-104.864022,46.482222],[-104.864384,46.482222],[-104.869269,46.482226],[-104.869636,46.482226],[-104.874516,46.482229],[-104.874888,46.48223],[-104.879764,46.482233],[-104.879765,46.48585],[-104.879767,46.489467],[-104.879768,46.493084],[-104.87977,46.496701],[-104.874518,46.496695],[-104.869267,46.496688],[-104.864016,46.496682],[-104.858765,46.496676],[-104.858767,46.493061],[-104.858769,46.489447],[-104.858772,46.485833],[-104.858774,46.482219],[-104.859149,46.482219]]]}},{"type":"Feature","properties":{"sec":"13","frstdivid":"MT200090N0540E0SN130"},"geometry":{"type":"Polygon","coordinates":[[[-104.874535,46.525644],[-104.879791,46.525649],[-104.879793,46.52927],[-104.879796,46.53289],[-104.879798,46.536511],[-104.8798,46.540131],[-104.874541,46.540128],[-104.869282,46.540124],[-104.864023,46.540121],[-104.858764,46.540118],[-104.858764,46.536495],[-104.858764,46.532873],[-104.858765,46.529251],[-104.858765,46.525628],[-104.864021,46.525634],[-104.869278,46.525639],[-104.874535,46.525644]]]}},{"type":"Feature","properties":{"sec":"10","frstdivid":"MT200090N0540E0SN100"},"geometry":{"type":"Polygon","coordinates":[[[-104.90087,46.540157],[-104.906119,46.540172],[-104.911368,46.540187],[-104.916618,46.540202],[-104.921867,46.540217],[-104.921872,46.543835],[-104.921877,46.547452],[-104.921881,46.55107],[-104.921886,46.554688],[-104.91665,46.554684],[-104.911413,46.55468],[-104.906149,46.554661],[-104.900885,46.554642],[-104.900881,46.551021],[-104.900877,46.5474],[-104.900874,46.543778],[-104.90087,46.540157]]]}},{"type":"Feature","properties":{"sec":"32","frstdivid":"MT200090N0540E0SN320"},"geometry":{"type":"Polygon","coordinates":[[[-104.963686,46.482384],[-104.963692,46.486005],[-104.963698,46.489626],[-104.963704,46.493247],[-104.96371,46.496868],[-104.958459,46.496859],[-104.953208,46.496851],[-104.947952,46.496842],[-104.942695,46.496833],[-104.942686,46.4932],[-104.942677,46.489567],[-104.942684,46.485932],[-104.94269,46.482297],[-104.947676,46.482317],[-104.947921,46.482318],[-104.952942,46.482338],[-104.953152,46.482339],[-104.958208,46.48236],[-104.958419,46.482361],[-104.963472,46.482383],[-104.963686,46.482384]]]}},{"type":"Feature","properties":{"sec":"03","frstdivid":"MT200090N0540E0SN030"},"geometry":{"type":"Polygon","coordinates":[[[-104.91665,46.554684],[-104.921886,46.554688],[-104.921882,46.558319],[-104.921878,46.56195],[-104.921855,46.565574],[-104.921832,46.569264],[-104.916568,46.569249],[-104.911304,46.569234],[-104.90604,46.569219],[-104.900776,46.569204],[-104.900815,46.565502],[-104.900854,46.561886],[-104.900869,46.558264],[-104.900885,46.554642],[-104.906149,46.554661],[-104.911413,46.55468],[-104.91665,46.554684]]]}},{"type":"Feature","properties":{"sec":"06","frstdivid":"MT200090N0540E0SN060"},"geometry":{"type":"Polygon","coordinates":[[[-104.979663,46.554864],[-104.984747,46.554879],[-104.984748,46.558507],[-104.984749,46.562136],[-104.98475,46.565764],[-104.984751,46.569393],[-104.979634,46.569379],[-104.974384,46.569365],[-104.969132,46.569351],[-104.963879,46.569336],[-104.963886,46.5657],[-104.963893,46.562078],[-104.963903,46.558454],[-104.963912,46.55483],[-104.969163,46.554839],[-104.974414,46.554849],[-104.979663,46.554864]]]}},{"type":"Feature","properties":{"sec":"28","frstdivid":"MT200090N0540E0SN280"},"geometry":{"type":"Polygon","coordinates":[[[-104.937454,46.511311],[-104.932221,46.511297],[-104.926988,46.511284],[-104.921755,46.51127],[-104.921749,46.507647],[-104.921744,46.504024],[-104.921738,46.500402],[-104.921733,46.496779],[-104.926973,46.496792],[-104.932214,46.496806],[-104.937455,46.49682],[-104.942695,46.496833],[-104.942693,46.500456],[-104.942691,46.504079],[-104.942689,46.507701],[-104.942687,46.511324],[-104.937454,46.511311]]]}},{"type":"Feature","properties":{"sec":"20","frstdivid":"MT200090N0540E0SN200"},"geometry":{"type":"Polygon","coordinates":[[[-104.963796,46.525881],[-104.958521,46.525861],[-104.953246,46.525842],[-104.947983,46.525827],[-104.94272,46.525813],[-104.942711,46.522195],[-104.942702,46.518577],[-104.942694,46.514951],[-104.942687,46.511324],[-104.947946,46.511332],[-104.953204,46.511341],[-104.958477,46.511351],[-104.96375,46.511362],[-104.963758,46.514988],[-104.963765,46.518614],[-104.963781,46.522248],[-104.963796,46.525881]]]}},{"type":"Feature","properties":{"sec":"05","frstdivid":"MT200090N0540E0SN050"},"geometry":{"type":"Polygon","coordinates":[[[-104.963912,46.55483],[-104.963903,46.558454],[-104.963893,46.562078],[-104.963886,46.5657],[-104.963879,46.569336],[-104.958621,46.569328],[-104.953364,46.56932],[-104.948106,46.569313],[-104.942848,46.569305],[-104.942844,46.565622],[-104.94284,46.562003],[-104.942836,46.558385],[-104.942832,46.554767],[-104.948102,46.554782],[-104.953372,46.554798],[-104.958642,46.554814],[-104.963912,46.55483]]]}},{"type":"Feature","properties":{"sec":"30","frstdivid":"MT200090N0540E0SN300"},"geometry":{"type":"Polygon","coordinates":[[[-104.96375,46.511362],[-104.963737,46.507738],[-104.963724,46.504114],[-104.963717,46.500491],[-104.96371,46.496868],[-104.968965,46.49688],[-104.97422,46.496893],[-104.979456,46.496913],[-104.984642,46.496933],[-104.984623,46.500554],[-104.984604,46.504175],[-104.9846,46.507798],[-104.984596,46.511422],[-104.979454,46.511412],[-104.974227,46.511402],[-104.968989,46.511382],[-104.96375,46.511362]]]}},{"type":"Feature","properties":{"sec":"31","frstdivid":"MT200090N0540E0SN310"},"geometry":{"type":"Polygon","coordinates":[[[-104.984404,46.482415],[-104.984642,46.482416],[-104.984642,46.486045],[-104.984642,46.489674],[-104.984642,46.493304],[-104.984642,46.496933],[-104.979456,46.496913],[-104.97422,46.496893],[-104.968965,46.49688],[-104.96371,46.496868],[-104.963704,46.493247],[-104.963698,46.489626],[-104.963692,46.486005],[-104.963686,46.482384],[-104.968736,46.48239],[-104.968923,46.482391],[-104.973957,46.482399],[-104.974161,46.482399],[-104.979178,46.482407],[-104.979401,46.482407],[-104.984404,46.482415]]]}},{"type":"Feature","properties":{"sec":"15","frstdivid":"MT200090N0540E0SN150"},"geometry":{"type":"Polygon","coordinates":[[[-104.916557,46.525733],[-104.921803,46.525747],[-104.921819,46.529365],[-104.921835,46.532982],[-104.921851,46.5366],[-104.921867,46.540217],[-104.916618,46.540202],[-104.911368,46.540187],[-104.906119,46.540172],[-104.90087,46.540157],[-104.900858,46.536541],[-104.900845,46.532924],[-104.900833,46.529308],[-104.90082,46.525692],[-104.906066,46.525705],[-104.911311,46.525719],[-104.916557,46.525733]]]}},{"type":"Feature","properties":{"sec":"19","frstdivid":"MT200090N0540E0SN190"},"geometry":{"type":"Polygon","coordinates":[[[-104.979454,46.511412],[-104.984596,46.511422],[-104.984611,46.515043],[-104.984627,46.518664],[-104.984647,46.522292],[-104.984667,46.52592],[-104.979525,46.52591],[-104.974281,46.525901],[-104.969038,46.525891],[-104.963796,46.525881],[-104.963781,46.522248],[-104.963765,46.518614],[-104.963758,46.514988],[-104.96375,46.511362],[-104.968989,46.511382],[-104.974227,46.511402],[-104.979454,46.511412]]]}},{"type":"Feature","properties":{"sec":"02","frstdivid":"MT200090N0540E0SN020"},"geometry":{"type":"Polygon","coordinates":[[[-104.895609,46.554635],[-104.900885,46.554642],[-104.900869,46.558264],[-104.900854,46.561886],[-104.900815,46.565502],[-104.900776,46.569204],[-104.895522,46.56919],[-104.890268,46.569175],[-104.885014,46.56916],[-104.87976,46.569146],[-104.879766,46.565476],[-104.879772,46.561854],[-104.879778,46.558233],[-104.879783,46.554613],[-104.885058,46.55462],[-104.890333,46.554627],[-104.895609,46.554635]]]}},{"type":"Feature","properties":{"sec":"34","frstdivid":"MT200090N0540E0SN340"},"geometry":{"type":"Polygon","coordinates":[[[-104.92173,46.493154],[-104.921733,46.496779],[-104.916485,46.496771],[-104.911237,46.496763],[-104.90599,46.496755],[-104.900742,46.496747],[-104.900746,46.493124],[-104.900749,46.489501],[-104.900752,46.485878],[-104.900755,46.482254],[-104.901135,46.482255],[-104.905793,46.482258],[-104.905999,46.482259],[-104.911041,46.482266],[-104.911243,46.482266],[-104.916289,46.482274],[-104.916483,46.482274],[-104.921537,46.482281],[-104.921723,46.482281],[-104.921726,46.485906],[-104.921728,46.48953],[-104.92173,46.493154]]]}},{"type":"Feature","properties":{"sec":"16","frstdivid":"MT200090N0540E0SN160"},"geometry":{"type":"Polygon","coordinates":[[[-104.937491,46.525796],[-104.94272,46.525813],[-104.942751,46.52943],[-104.942782,46.533047],[-104.942813,46.536664],[-104.942844,46.540282],[-104.937599,46.540266],[-104.932355,46.540249],[-104.927111,46.540233],[-104.921867,46.540217],[-104.921851,46.5366],[-104.921835,46.532982],[-104.921819,46.529365],[-104.921803,46.525747],[-104.927032,46.525763],[-104.932261,46.52578],[-104.937491,46.525796]]]}},{"type":"Feature","properties":{"sec":"22","frstdivid":"MT200090N0540E0SN220"},"geometry":{"type":"Polygon","coordinates":[[[-104.906066,46.525705],[-104.90082,46.525692],[-104.900812,46.522075],[-104.900804,46.518459],[-104.900796,46.514842],[-104.900789,46.511226],[-104.90603,46.511237],[-104.911272,46.511248],[-104.916513,46.511259],[-104.921755,46.51127],[-104.921767,46.51489],[-104.921779,46.518509],[-104.921791,46.522128],[-104.921803,46.525747],[-104.916557,46.525733],[-104.911311,46.525719],[-104.906066,46.525705]]]}},{"type":"Feature","properties":{"sec":"07","frstdivid":"MT200090N0540E0SN070"},"geometry":{"type":"Polygon","coordinates":[[[-104.984725,46.540396],[-104.98473,46.544015],[-104.984735,46.547634],[-104.984741,46.551256],[-104.984747,46.554879],[-104.979663,46.554864],[-104.974414,46.554849],[-104.969163,46.554839],[-104.963912,46.55483],[-104.963896,46.551206],[-104.963879,46.547582],[-104.963869,46.543965],[-104.963859,46.540349],[-104.969106,46.540361],[-104.974353,46.540373],[-104.979603,46.540385],[-104.984725,46.540396]]]}},{"type":"Feature","properties":{"sec":"29","frstdivid":"MT200090N0540E0SN290"},"geometry":{"type":"Polygon","coordinates":[[[-104.953208,46.496851],[-104.958459,46.496859],[-104.96371,46.496868],[-104.963717,46.500491],[-104.963724,46.504114],[-104.963737,46.507738],[-104.96375,46.511362],[-104.958477,46.511351],[-104.953204,46.511341],[-104.947946,46.511332],[-104.942687,46.511324],[-104.942689,46.507701],[-104.942691,46.504079],[-104.942693,46.500456],[-104.942695,46.496833],[-104.947952,46.496842],[-104.953208,46.496851]]]}},{"type":"Feature","properties":{"sec":"25","frstdivid":"MT200090N0540E0SN250"},"geometry":{"type":"Polygon","coordinates":[[[-104.874518,46.496695],[-104.87977,46.496701],[-104.879769,46.50032],[-104.879768,46.503939],[-104.879768,46.507557],[-104.879767,46.511176],[-104.874516,46.511168],[-104.869265,46.511159],[-104.864014,46.511151],[-104.858763,46.511143],[-104.858764,46.507526],[-104.858764,46.503909],[-104.858764,46.500292],[-104.858765,46.496676],[-104.864016,46.496682],[-104.869267,46.496688],[-104.874518,46.496695]]]}},{"type":"Feature","properties":{"sec":"24","frstdivid":"MT200090N0540E0SN240"},"geometry":{"type":"Polygon","coordinates":[[[-104.874516,46.511168],[-104.879767,46.511176],[-104.879773,46.514794],[-104.879779,46.518413],[-104.879785,46.522031],[-104.879791,46.525649],[-104.874535,46.525644],[-104.869278,46.525639],[-104.864021,46.525634],[-104.858765,46.525628],[-104.858764,46.522007],[-104.858764,46.518385],[-104.858764,46.514764],[-104.858763,46.511143],[-104.864014,46.511151],[-104.869265,46.511159],[-104.874516,46.511168]]]}},{"type":"Feature","properties":{"sec":"09","frstdivid":"MT200090N0540E0SN090"},"geometry":{"type":"Polygon","coordinates":[[[-104.927115,46.554703],[-104.921886,46.554688],[-104.921881,46.55107],[-104.921877,46.547452],[-104.921872,46.543835],[-104.921867,46.540217],[-104.927111,46.540233],[-104.932355,46.540249],[-104.937599,46.540266],[-104.942844,46.540282],[-104.942832,46.543901],[-104.942821,46.547521],[-104.942826,46.551144],[-104.942832,46.554767],[-104.937588,46.554742],[-104.932343,46.554718],[-104.927115,46.554703]]]}},{"type":"Feature","properties":{"sec":"27","frstdivid":"MT200090N0540E0SN270"},"geometry":{"type":"Polygon","coordinates":[[[-104.900754,46.500367],[-104.900742,46.496747],[-104.90599,46.496755],[-104.911237,46.496763],[-104.916485,46.496771],[-104.921733,46.496779],[-104.921738,46.500402],[-104.921744,46.504024],[-104.921749,46.507647],[-104.921755,46.51127],[-104.916513,46.511259],[-104.911272,46.511248],[-104.90603,46.511237],[-104.900789,46.511226],[-104.900777,46.507606],[-104.900765,46.503986],[-104.900754,46.500367]]]}},{"type":"Feature","properties":{"sec":"33","frstdivid":"MT200090N0540E0SN330"},"geometry":{"type":"Polygon","coordinates":[[[-104.921723,46.482281],[-104.926785,46.482286],[-104.926965,46.482286],[-104.932008,46.48229],[-104.932206,46.48229],[-104.937232,46.482294],[-104.937448,46.482294],[-104.942454,46.482297],[-104.94269,46.482297],[-104.942684,46.485932],[-104.942677,46.489567],[-104.942686,46.4932],[-104.942695,46.496833],[-104.937455,46.49682],[-104.932214,46.496806],[-104.926973,46.496792],[-104.921733,46.496779],[-104.92173,46.493154],[-104.921728,46.48953],[-104.921726,46.485906],[-104.921723,46.482281]]]}},{"type":"Feature","properties":{"sec":"08","frstdivid":"MT200090N0540E0SN080"},"geometry":{"type":"Polygon","coordinates":[[[-104.963869,46.543965],[-104.963879,46.547582],[-104.963896,46.551206],[-104.963912,46.55483],[-104.958642,46.554814],[-104.953372,46.554798],[-104.948102,46.554782],[-104.942832,46.554767],[-104.942826,46.551144],[-104.942821,46.547521],[-104.942832,46.543901],[-104.942844,46.540282],[-104.948083,46.540299],[-104.953322,46.540317],[-104.958591,46.540333],[-104.963859,46.540349],[-104.963869,46.543965]]]}},{"type":"Feature","properties":{"sec":"26","frstdivid":"MT200090N0540E0SN260"},"geometry":{"type":"Polygon","coordinates":[[[-104.895499,46.496736],[-104.900742,46.496747],[-104.900754,46.500367],[-104.900765,46.503986],[-104.900777,46.507606],[-104.900789,46.511226],[-104.895533,46.511213],[-104.890278,46.511201],[-104.885022,46.511189],[-104.879767,46.511176],[-104.879768,46.507557],[-104.879768,46.503939],[-104.879769,46.50032],[-104.87977,46.496701],[-104.885013,46.496713],[-104.890256,46.496724],[-104.895499,46.496736]]]}},{"type":"Feature","properties":{"sec":"23","frstdivid":"MT200090N0540E0SN230"},"geometry":{"type":"Polygon","coordinates":[[[-104.900789,46.511226],[-104.900796,46.514842],[-104.900804,46.518459],[-104.900812,46.522075],[-104.90082,46.525692],[-104.895563,46.525681],[-104.890306,46.52567],[-104.885048,46.52566],[-104.879791,46.525649],[-104.879785,46.522031],[-104.879779,46.518413],[-104.879773,46.514794],[-104.879767,46.511176],[-104.885022,46.511189],[-104.890278,46.511201],[-104.895533,46.511213],[-104.900789,46.511226]]]}},{"type":"Feature","properties":{"sec":"12","frstdivid":"MT200090N0540E0SN120"},"geometry":{"type":"Polygon","coordinates":[[[-104.864023,46.540121],[-104.869282,46.540124],[-104.874541,46.540128],[-104.8798,46.540131],[-104.879796,46.543751],[-104.879792,46.547372],[-104.879787,46.550992],[-104.879783,46.554613],[-104.874527,46.554612],[-104.869271,46.554611],[-104.864019,46.554606],[-104.858767,46.554602],[-104.858767,46.550981],[-104.858767,46.54736],[-104.858765,46.543739],[-104.858764,46.540118],[-104.864023,46.540121]]]}},{"type":"Feature","properties":{"sec":"18","frstdivid":"MT200090N0540E0SN180"},"geometry":{"type":"Polygon","coordinates":[[[-104.963796,46.525881],[-104.969038,46.525891],[-104.974281,46.525901],[-104.979525,46.52591],[-104.984667,46.52592],[-104.984688,46.529538],[-104.98471,46.533155],[-104.984718,46.536776],[-104.984725,46.540396],[-104.979603,46.540385],[-104.974353,46.540373],[-104.969106,46.540361],[-104.963859,46.540349],[-104.963843,46.53673],[-104.963827,46.53311],[-104.963811,46.529496],[-104.963796,46.525881]]]}},{"type":"Feature","properties":{"sec":"11","frstdivid":"MT200090N0540E0SN110"},"geometry":{"type":"Polygon","coordinates":[[[-104.895603,46.540151],[-104.90087,46.540157],[-104.900874,46.543778],[-104.900877,46.5474],[-104.900881,46.551021],[-104.900885,46.554642],[-104.895609,46.554635],[-104.890333,46.554627],[-104.885058,46.55462],[-104.879783,46.554613],[-104.879787,46.550992],[-104.879792,46.547372],[-104.879796,46.543751],[-104.8798,46.540131],[-104.885068,46.540138],[-104.890335,46.540144],[-104.895603,46.540151]]]}},{"type":"Feature","properties":{"sec":"04","frstdivid":"MT200090N0540E0SN040"},"geometry":{"type":"Polygon","coordinates":[[[-104.942844,46.565622],[-104.942848,46.569305],[-104.937601,46.569292],[-104.932354,46.56928],[-104.927093,46.569272],[-104.921832,46.569264],[-104.921855,46.565574],[-104.921878,46.56195],[-104.921882,46.558319],[-104.921886,46.554688],[-104.927115,46.554703],[-104.932343,46.554718],[-104.937588,46.554742],[-104.942832,46.554767],[-104.942836,46.558385],[-104.94284,46.562003],[-104.942844,46.565622]]]}},{"type":"Feature","properties":{"sec":"01","frstdivid":"MT200090N0540E0SN010"},"geometry":{"type":"Polygon","coordinates":[[[-104.858767,46.554602],[-104.864019,46.554606],[-104.869271,46.554611],[-104.874527,46.554612],[-104.879783,46.554613],[-104.879778,46.558233],[-104.879772,46.561854],[-104.879766,46.565476],[-104.87976,46.569146],[-104.874513,46.569134],[-104.869266,46.569121],[-104.864013,46.569105],[-104.85876,46.569089],[-104.858762,46.565467],[-104.858764,46.561845],[-104.858766,46.558224],[-104.858767,46.554602]]]}}]}