{"type":"FeatureCollection","note":"BLM Public Land Survey System. Provided by the Bureau of Land Management as is. These data are neither legal documents nor land surveys and must not be used as such.","features":[{"type":"Feature","properties":{"sec":"17","frstdivid":"MT200130N0470E0SN170"},"geometry":{"type":"Polygon","coordinates":[[[-105.790419,46.875393],[-105.795764,46.8754],[-105.801108,46.875406],[-105.806363,46.875374],[-105.811617,46.875342],[-105.811613,46.878949],[-105.81161,46.882558],[-105.811606,46.886167],[-105.811601,46.889775],[-105.806309,46.889802],[-105.801016,46.88983],[-105.795723,46.889858],[-105.790431,46.889885],[-105.790434,46.886201],[-105.790437,46.882516],[-105.790428,46.878955],[-105.790419,46.875393]]]}},{"type":"Feature","properties":{"sec":"29","frstdivid":"MT200130N0470E0SN290"},"geometry":{"type":"Polygon","coordinates":[[[-105.790417,46.846491],[-105.795703,46.846487],[-105.800989,46.846484],[-105.806279,46.846475],[-105.811569,46.846465],[-105.811565,46.850067],[-105.811561,46.85367],[-105.811552,46.85725],[-105.811543,46.86083],[-105.806247,46.860842],[-105.80095,46.860854],[-105.795667,46.860859],[-105.790385,46.860863],[-105.790393,46.85727],[-105.790401,46.853677],[-105.790409,46.850084],[-105.790417,46.846491]]]}},{"type":"Feature","properties":{"sec":"02","frstdivid":"MT200130N0470E0SN020"},"geometry":{"type":"Polygon","coordinates":[[[-105.727109,46.908086],[-105.727107,46.90447],[-105.732395,46.904462],[-105.737682,46.904454],[-105.74297,46.904443],[-105.748258,46.904432],[-105.748267,46.908053],[-105.748276,46.911675],[-105.748286,46.915284],[-105.748298,46.919048],[-105.743005,46.919047],[-105.737712,46.919046],[-105.732415,46.919038],[-105.727118,46.91903],[-105.727115,46.915329],[-105.727111,46.911702],[-105.727109,46.908086]]]}},{"type":"Feature","properties":{"sec":"01","frstdivid":"MT200130N0470E0SN010"},"geometry":{"type":"Polygon","coordinates":[[[-105.716543,46.919006],[-105.711255,46.918994],[-105.705968,46.918982],[-105.70595,46.915368],[-105.705932,46.911752],[-105.705935,46.908136],[-105.705938,46.90452],[-105.71123,46.904509],[-105.716523,46.904497],[-105.721815,46.904484],[-105.727107,46.90447],[-105.727109,46.908086],[-105.727111,46.911702],[-105.727115,46.915329],[-105.727118,46.91903],[-105.72183,46.919018],[-105.716543,46.919006]]]}},{"type":"Feature","properties":{"sec":"28","frstdivid":"MT200130N0470E0SN280"},"geometry":{"type":"Polygon","coordinates":[[[-105.785133,46.846498],[-105.790417,46.846491],[-105.790409,46.850084],[-105.790401,46.853677],[-105.790393,46.85727],[-105.790385,46.860863],[-105.785109,46.860869],[-105.779833,46.860876],[-105.774558,46.860887],[-105.769284,46.860899],[-105.769275,46.857309],[-105.769266,46.85372],[-105.769273,46.850117],[-105.769279,46.846514],[-105.774564,46.846509],[-105.779849,46.846504],[-105.785133,46.846498]]]}},{"type":"Feature","properties":{"sec":"11","frstdivid":"MT200130N0470E0SN110"},"geometry":{"type":"Polygon","coordinates":[[[-105.742938,46.889969],[-105.748235,46.889955],[-105.748243,46.893576],[-105.748252,46.897197],[-105.748255,46.900815],[-105.748258,46.904432],[-105.74297,46.904443],[-105.737682,46.904454],[-105.732395,46.904462],[-105.727107,46.90447],[-105.727098,46.90085],[-105.727089,46.89723],[-105.727086,46.893627],[-105.727083,46.890023],[-105.732362,46.890003],[-105.737642,46.889983],[-105.742938,46.889969]]]}},{"type":"Feature","properties":{"sec":"06","frstdivid":"MT200130N0470E0SN060"},"geometry":{"type":"Polygon","coordinates":[[[-105.817177,46.919074],[-105.811883,46.919071],[-105.811878,46.915121],[-105.811874,46.911507],[-105.811782,46.90788],[-105.81169,46.904253],[-105.816974,46.904249],[-105.822258,46.904244],[-105.827541,46.904236],[-105.832816,46.904227],[-105.832826,46.907843],[-105.832835,46.91146],[-105.83286,46.915053],[-105.832886,46.918647],[-105.832889,46.919079],[-105.827782,46.919078],[-105.827737,46.919078],[-105.822471,46.919077],[-105.817177,46.919074]]]}},{"type":"Feature","properties":{"sec":"15","frstdivid":"MT200130N0470E0SN150"},"geometry":{"type":"Polygon","coordinates":[[[-105.758768,46.875442],[-105.764069,46.875419],[-105.76937,46.875396],[-105.769365,46.879027],[-105.76936,46.882658],[-105.76936,46.886286],[-105.769359,46.889914],[-105.764078,46.889924],[-105.758797,46.889933],[-105.753516,46.889944],[-105.748235,46.889955],[-105.74824,46.886334],[-105.748246,46.882713],[-105.748256,46.879107],[-105.748267,46.8755],[-105.753517,46.875471],[-105.758768,46.875442]]]}},{"type":"Feature","properties":{"sec":"16","frstdivid":"MT200130N0470E0SN160"},"geometry":{"type":"Polygon","coordinates":[[[-105.790431,46.889885],[-105.785148,46.889889],[-105.779866,46.889893],[-105.774613,46.889904],[-105.769359,46.889914],[-105.76936,46.886286],[-105.76936,46.882658],[-105.769365,46.879027],[-105.76937,46.875396],[-105.774633,46.875395],[-105.779895,46.875395],[-105.785157,46.875394],[-105.790419,46.875393],[-105.790428,46.878955],[-105.790437,46.882516],[-105.790434,46.886201],[-105.790431,46.889885]]]}},{"type":"Feature","properties":{"sec":"10","frstdivid":"MT200130N0470E0SN100"},"geometry":{"type":"Polygon","coordinates":[[[-105.76937,46.893524],[-105.76938,46.897134],[-105.76939,46.90076],[-105.7694,46.904386],[-105.764113,46.904397],[-105.758826,46.904408],[-105.753542,46.90442],[-105.748258,46.904432],[-105.748255,46.900815],[-105.748252,46.897197],[-105.748243,46.893576],[-105.748235,46.889955],[-105.753516,46.889944],[-105.758797,46.889933],[-105.764078,46.889924],[-105.769359,46.889914],[-105.76937,46.893524]]]}},{"type":"Feature","properties":{"sec":"25","frstdivid":"MT200130N0470E0SN250"},"geometry":{"type":"Polygon","coordinates":[[[-105.727071,46.850182],[-105.727061,46.853795],[-105.727058,46.857409],[-105.727055,46.861022],[-105.721783,46.861042],[-105.716511,46.861061],[-105.711262,46.861081],[-105.706012,46.8611],[-105.706001,46.857481],[-105.70599,46.853862],[-105.705993,46.850244],[-105.705995,46.846626],[-105.711267,46.846612],[-105.716538,46.846597],[-105.72181,46.846583],[-105.727081,46.846569],[-105.727071,46.850182]]]}},{"type":"Feature","properties":{"sec":"23","frstdivid":"MT200130N0470E0SN230"},"geometry":{"type":"Polygon","coordinates":[[[-105.748164,46.864641],[-105.748194,46.868271],[-105.74823,46.871886],[-105.748267,46.8755],[-105.74297,46.875515],[-105.737673,46.87553],[-105.732376,46.875532],[-105.727079,46.875534],[-105.727078,46.871911],[-105.727078,46.868287],[-105.727067,46.864655],[-105.727055,46.861022],[-105.732305,46.861021],[-105.737555,46.86102],[-105.742844,46.861015],[-105.748133,46.86101],[-105.748164,46.864641]]]}},{"type":"Feature","properties":{"sec":"34","frstdivid":"MT200130N0470E0SN340"},"geometry":{"type":"Polygon","coordinates":[[[-105.753453,46.846549],[-105.748182,46.846561],[-105.748193,46.842958],[-105.748204,46.839355],[-105.748215,46.835744],[-105.748226,46.832133],[-105.749253,46.832132],[-105.753512,46.832127],[-105.754506,46.832126],[-105.758798,46.832121],[-105.759755,46.832119],[-105.764063,46.832114],[-105.765004,46.832113],[-105.769329,46.832108],[-105.76931,46.835704],[-105.769292,46.8393],[-105.769285,46.842907],[-105.769279,46.846514],[-105.764001,46.846525],[-105.758724,46.846537],[-105.753453,46.846549]]]}},{"type":"Feature","properties":{"sec":"12","frstdivid":"MT200130N0470E0SN120"},"geometry":{"type":"Polygon","coordinates":[[[-105.721815,46.904484],[-105.716523,46.904497],[-105.71123,46.904509],[-105.705938,46.90452],[-105.705941,46.900903],[-105.705944,46.897286],[-105.705947,46.893669],[-105.705951,46.890052],[-105.711234,46.890045],[-105.716517,46.890038],[-105.7218,46.89003],[-105.727083,46.890023],[-105.727086,46.893627],[-105.727089,46.89723],[-105.727098,46.90085],[-105.727107,46.90447],[-105.721815,46.904484]]]}},{"type":"Feature","properties":{"sec":"32","frstdivid":"MT200130N0470E0SN320"},"geometry":{"type":"Polygon","coordinates":[[[-105.790423,46.842884],[-105.79043,46.839277],[-105.790441,46.835674],[-105.790453,46.832071],[-105.791286,46.83207],[-105.795738,46.83206],[-105.79655,46.832059],[-105.801023,46.83205],[-105.801814,46.832049],[-105.806293,46.832043],[-105.807078,46.832042],[-105.811562,46.832036],[-105.811572,46.835641],[-105.811582,46.839245],[-105.811576,46.842855],[-105.811569,46.846465],[-105.806279,46.846475],[-105.800989,46.846484],[-105.795703,46.846487],[-105.790417,46.846491],[-105.790423,46.842884]]]}},{"type":"Feature","properties":{"sec":"19","frstdivid":"MT200130N0470E0SN190"},"geometry":{"type":"Polygon","coordinates":[[[-105.816814,46.86083],[-105.822085,46.86083],[-105.827362,46.860829],[-105.832686,46.860827],[-105.832694,46.864434],[-105.832702,46.86804],[-105.832713,46.871659],[-105.832725,46.875278],[-105.827427,46.875294],[-105.82215,46.87531],[-105.816883,46.875326],[-105.811617,46.875342],[-105.811599,46.871714],[-105.81158,46.868086],[-105.811562,46.864458],[-105.811543,46.86083],[-105.816814,46.86083]]]}},{"type":"Feature","properties":{"sec":"04","frstdivid":"MT200130N0470E0SN040"},"geometry":{"type":"Polygon","coordinates":[[[-105.76949,46.915216],[-105.769464,46.911603],[-105.769432,46.907995],[-105.7694,46.904386],[-105.774686,46.904369],[-105.779971,46.904353],[-105.785257,46.904323],[-105.790542,46.904294],[-105.790607,46.907896],[-105.790671,46.911498],[-105.790693,46.91513],[-105.790717,46.919071],[-105.785416,46.919068],[-105.780116,46.919065],[-105.774816,46.919064],[-105.769517,46.919064],[-105.76949,46.915216]]]}},{"type":"Feature","properties":{"sec":"09","frstdivid":"MT200130N0470E0SN090"},"geometry":{"type":"Polygon","coordinates":[[[-105.785257,46.904323],[-105.779971,46.904353],[-105.774686,46.904369],[-105.7694,46.904386],[-105.76939,46.90076],[-105.76938,46.897134],[-105.76937,46.893524],[-105.769359,46.889914],[-105.774613,46.889904],[-105.779866,46.889893],[-105.785148,46.889889],[-105.790431,46.889885],[-105.790459,46.893487],[-105.790487,46.89709],[-105.790514,46.900692],[-105.790542,46.904294],[-105.785257,46.904323]]]}},{"type":"Feature","properties":{"sec":"24","frstdivid":"MT200130N0470E0SN240"},"geometry":{"type":"Polygon","coordinates":[[[-105.705994,46.86472],[-105.706012,46.8611],[-105.711262,46.861081],[-105.716511,46.861061],[-105.721783,46.861042],[-105.727055,46.861022],[-105.727067,46.864655],[-105.727078,46.868287],[-105.727078,46.871911],[-105.727079,46.875534],[-105.721801,46.875542],[-105.716524,46.875549],[-105.711247,46.875559],[-105.705969,46.875568],[-105.705972,46.871954],[-105.705975,46.86834],[-105.705994,46.86472]]]}},{"type":"Feature","properties":{"sec":"13","frstdivid":"MT200130N0470E0SN130"},"geometry":{"type":"Polygon","coordinates":[[[-105.727079,46.875534],[-105.727079,46.879163],[-105.727079,46.882791],[-105.727081,46.886407],[-105.727083,46.890023],[-105.7218,46.89003],[-105.716517,46.890038],[-105.711234,46.890045],[-105.705951,46.890052],[-105.705955,46.886431],[-105.70596,46.88281],[-105.705965,46.879189],[-105.705969,46.875568],[-105.711247,46.875559],[-105.716524,46.875549],[-105.721801,46.875542],[-105.727079,46.875534]]]}},{"type":"Feature","properties":{"sec":"05","frstdivid":"MT200130N0470E0SN050"},"geometry":{"type":"Polygon","coordinates":[[[-105.806601,46.919069],[-105.801319,46.919067],[-105.796018,46.919069],[-105.790717,46.919071],[-105.790693,46.91513],[-105.790671,46.911498],[-105.790607,46.907896],[-105.790542,46.904294],[-105.795829,46.904292],[-105.801116,46.904289],[-105.806403,46.904271],[-105.81169,46.904253],[-105.811782,46.90788],[-105.811874,46.911507],[-105.811878,46.915121],[-105.811883,46.919071],[-105.806601,46.919069]]]}},{"type":"Feature","properties":{"sec":"31","frstdivid":"MT200130N0470E0SN310"},"geometry":{"type":"Polygon","coordinates":[[[-105.816833,46.832019],[-105.817613,46.832017],[-105.822103,46.832002],[-105.82288,46.832],[-105.827373,46.831985],[-105.828148,46.831982],[-105.832642,46.831967],[-105.832649,46.835576],[-105.832656,46.839185],[-105.832663,46.842793],[-105.832669,46.846402],[-105.827364,46.846419],[-105.822115,46.846436],[-105.816842,46.84645],[-105.811569,46.846465],[-105.811576,46.842855],[-105.811582,46.839245],[-105.811572,46.835641],[-105.811562,46.832036],[-105.812345,46.832034],[-105.816833,46.832019]]]}},{"type":"Feature","properties":{"sec":"35","frstdivid":"MT200130N0470E0SN350"},"geometry":{"type":"Polygon","coordinates":[[[-105.727088,46.842961],[-105.727095,46.839353],[-105.727103,46.835745],[-105.72711,46.832137],[-105.728947,46.832136],[-105.732389,46.832135],[-105.734226,46.832134],[-105.737669,46.832133],[-105.739502,46.832133],[-105.742948,46.832132],[-105.744001,46.832131],[-105.748226,46.832133],[-105.748215,46.835744],[-105.748204,46.839355],[-105.748193,46.842958],[-105.748182,46.846561],[-105.742893,46.846572],[-105.737604,46.846583],[-105.732343,46.846576],[-105.727081,46.846569],[-105.727088,46.842961]]]}},{"type":"Feature","properties":{"sec":"36","frstdivid":"MT200130N0470E0SN360"},"geometry":{"type":"Polygon","coordinates":[[[-105.727081,46.846569],[-105.72181,46.846583],[-105.716538,46.846597],[-105.711267,46.846612],[-105.705995,46.846626],[-105.706007,46.843009],[-105.706018,46.839392],[-105.70602,46.835778],[-105.706022,46.832163],[-105.707958,46.83216],[-105.711294,46.832156],[-105.713195,46.832154],[-105.716565,46.832151],[-105.718432,46.832149],[-105.721838,46.832145],[-105.723669,46.832143],[-105.72711,46.832137],[-105.727103,46.835745],[-105.727095,46.839353],[-105.727088,46.842961],[-105.727081,46.846569]]]}},{"type":"Feature","properties":{"sec":"30","frstdivid":"MT200130N0470E0SN300"},"geometry":{"type":"Polygon","coordinates":[[[-105.827364,46.846419],[-105.832669,46.846402],[-105.832668,46.850012],[-105.832667,46.853623],[-105.832676,46.857225],[-105.832686,46.860827],[-105.827362,46.860829],[-105.822085,46.86083],[-105.816814,46.86083],[-105.811543,46.86083],[-105.811552,46.85725],[-105.811561,46.85367],[-105.811565,46.850067],[-105.811569,46.846465],[-105.816842,46.84645],[-105.822115,46.846436],[-105.827364,46.846419]]]}},{"type":"Feature","properties":{"sec":"07","frstdivid":"MT200130N0470E0SN070"},"geometry":{"type":"Polygon","coordinates":[[[-105.822178,46.889756],[-105.827461,46.889745],[-105.832763,46.889734],[-105.83278,46.893354],[-105.832796,46.896973],[-105.832806,46.9006],[-105.832816,46.904227],[-105.827541,46.904236],[-105.822258,46.904244],[-105.816974,46.904249],[-105.81169,46.904253],[-105.811723,46.900624],[-105.811756,46.896994],[-105.811679,46.893385],[-105.811601,46.889775],[-105.81689,46.889765],[-105.822178,46.889756]]]}},{"type":"Feature","properties":{"sec":"20","frstdivid":"MT200130N0470E0SN200"},"geometry":{"type":"Polygon","coordinates":[[[-105.795667,46.860859],[-105.80095,46.860854],[-105.806247,46.860842],[-105.811543,46.86083],[-105.811562,46.864458],[-105.81158,46.868086],[-105.811599,46.871714],[-105.811617,46.875342],[-105.806363,46.875374],[-105.801108,46.875406],[-105.795764,46.8754],[-105.790419,46.875393],[-105.790411,46.871757],[-105.790402,46.868121],[-105.790393,46.864492],[-105.790385,46.860863],[-105.795667,46.860859]]]}},{"type":"Feature","properties":{"sec":"33","frstdivid":"MT200130N0470E0SN330"},"geometry":{"type":"Polygon","coordinates":[[[-105.769279,46.846514],[-105.769285,46.842907],[-105.769292,46.8393],[-105.76931,46.835704],[-105.769329,46.832108],[-105.770258,46.832106],[-105.774603,46.832098],[-105.775512,46.832097],[-105.779878,46.832089],[-105.780767,46.832087],[-105.785165,46.83208],[-105.786021,46.832079],[-105.790453,46.832071],[-105.790441,46.835674],[-105.79043,46.839277],[-105.790423,46.842884],[-105.790417,46.846491],[-105.785133,46.846498],[-105.779849,46.846504],[-105.774564,46.846509],[-105.769279,46.846514]]]}},{"type":"Feature","properties":{"sec":"27","frstdivid":"MT200130N0470E0SN270"},"geometry":{"type":"Polygon","coordinates":[[[-105.758697,46.860951],[-105.753415,46.860981],[-105.748133,46.86101],[-105.748139,46.857398],[-105.748146,46.853787],[-105.748164,46.850174],[-105.748182,46.846561],[-105.753453,46.846549],[-105.758724,46.846537],[-105.764001,46.846525],[-105.769279,46.846514],[-105.769273,46.850117],[-105.769266,46.85372],[-105.769275,46.857309],[-105.769284,46.860899],[-105.76399,46.860925],[-105.758697,46.860951]]]}},{"type":"Feature","properties":{"sec":"18","frstdivid":"MT200130N0470E0SN180"},"geometry":{"type":"Polygon","coordinates":[[[-105.832725,46.875278],[-105.832723,46.878891],[-105.832721,46.882503],[-105.832742,46.886118],[-105.832763,46.889734],[-105.827461,46.889745],[-105.822178,46.889756],[-105.81689,46.889765],[-105.811601,46.889775],[-105.811606,46.886167],[-105.81161,46.882558],[-105.811613,46.878949],[-105.811617,46.875342],[-105.816883,46.875326],[-105.82215,46.87531],[-105.827427,46.875294],[-105.832725,46.875278]]]}},{"type":"Feature","properties":{"sec":"03","frstdivid":"MT200130N0470E0SN030"},"geometry":{"type":"Polygon","coordinates":[[[-105.748258,46.904432],[-105.753542,46.90442],[-105.758826,46.904408],[-105.764113,46.904397],[-105.7694,46.904386],[-105.769432,46.907995],[-105.769464,46.911603],[-105.76949,46.915216],[-105.769517,46.919064],[-105.764215,46.919062],[-105.758913,46.919059],[-105.753605,46.919053],[-105.748298,46.919048],[-105.748286,46.915284],[-105.748276,46.911675],[-105.748267,46.908053],[-105.748258,46.904432]]]}},{"type":"Feature","properties":{"sec":"26","frstdivid":"MT200130N0470E0SN260"},"geometry":{"type":"Polygon","coordinates":[[[-105.742844,46.861015],[-105.737555,46.86102],[-105.732305,46.861021],[-105.727055,46.861022],[-105.727058,46.857409],[-105.727061,46.853795],[-105.727071,46.850182],[-105.727081,46.846569],[-105.732343,46.846576],[-105.737604,46.846583],[-105.742893,46.846572],[-105.748182,46.846561],[-105.748164,46.850174],[-105.748146,46.853787],[-105.748139,46.857398],[-105.748133,46.86101],[-105.742844,46.861015]]]}},{"type":"Feature","properties":{"sec":"08","frstdivid":"MT200130N0470E0SN080"},"geometry":{"type":"Polygon","coordinates":[[[-105.801116,46.904289],[-105.795829,46.904292],[-105.790542,46.904294],[-105.790514,46.900692],[-105.790487,46.89709],[-105.790459,46.893487],[-105.790431,46.889885],[-105.795723,46.889858],[-105.801016,46.88983],[-105.806309,46.889802],[-105.811601,46.889775],[-105.811679,46.893385],[-105.811756,46.896994],[-105.811723,46.900624],[-105.81169,46.904253],[-105.806403,46.904271],[-105.801116,46.904289]]]}},{"type":"Feature","properties":{"sec":"22","frstdivid":"MT200130N0470E0SN220"},"geometry":{"type":"Polygon","coordinates":[[[-105.76937,46.875396],[-105.764069,46.875419],[-105.758768,46.875442],[-105.753517,46.875471],[-105.748267,46.8755],[-105.74823,46.871886],[-105.748194,46.868271],[-105.748164,46.864641],[-105.748133,46.86101],[-105.753415,46.860981],[-105.758697,46.860951],[-105.76399,46.860925],[-105.769284,46.860899],[-105.769306,46.864523],[-105.769327,46.868147],[-105.769349,46.871772],[-105.76937,46.875396]]]}},{"type":"Feature","properties":{"sec":"21","frstdivid":"MT200130N0470E0SN210"},"geometry":{"type":"Polygon","coordinates":[[[-105.779833,46.860876],[-105.785109,46.860869],[-105.790385,46.860863],[-105.790393,46.864492],[-105.790402,46.868121],[-105.790411,46.871757],[-105.790419,46.875393],[-105.785157,46.875394],[-105.779895,46.875395],[-105.774633,46.875395],[-105.76937,46.875396],[-105.769349,46.871772],[-105.769327,46.868147],[-105.769306,46.864523],[-105.769284,46.860899],[-105.774558,46.860887],[-105.779833,46.860876]]]}},{"type":"Feature","properties":{"sec":"14","frstdivid":"MT200130N0470E0SN140"},"geometry":{"type":"Polygon","coordinates":[[[-105.748256,46.879107],[-105.748246,46.882713],[-105.74824,46.886334],[-105.748235,46.889955],[-105.742938,46.889969],[-105.737642,46.889983],[-105.732362,46.890003],[-105.727083,46.890023],[-105.727081,46.886407],[-105.727079,46.882791],[-105.727079,46.879163],[-105.727079,46.875534],[-105.732376,46.875532],[-105.737673,46.87553],[-105.74297,46.875515],[-105.748267,46.8755],[-105.748256,46.879107]]]}}]}