{"type":"FeatureCollection","note":"BLM Public Land Survey System. Provided by the Bureau of Land Management as is. These data are neither legal documents nor land surveys and must not be used as such.","features":[{"type":"Feature","properties":{"sec":"25","frstdivid":"WY060400N0870W0SN250"},"geometry":{"type":"Polygon","coordinates":[[[-107.240678,43.401178],[-107.240688,43.404794],[-107.240699,43.408409],[-107.240709,43.412025],[-107.240719,43.415641],[-107.235757,43.415632],[-107.230794,43.415623],[-107.22583,43.415615],[-107.22028,43.415606],[-107.220289,43.414152],[-107.220291,43.411985],[-107.220292,43.410531],[-107.220294,43.408364],[-107.220296,43.40691],[-107.220295,43.404763],[-107.220295,43.403327],[-107.220294,43.401162],[-107.225801,43.401164],[-107.230762,43.401166],[-107.23572,43.401172],[-107.240678,43.401178]]]}},{"type":"Feature","properties":{"sec":"28","frstdivid":"WY060400N0870W0SN280"},"geometry":{"type":"Polygon","coordinates":[[[-107.285262,43.401059],[-107.290224,43.401043],[-107.295185,43.401027],[-107.300147,43.401011],[-107.300145,43.40463],[-107.300143,43.408249],[-107.300141,43.411867],[-107.300139,43.415486],[-107.295186,43.415501],[-107.290233,43.415517],[-107.28528,43.415533],[-107.280327,43.415549],[-107.280321,43.41193],[-107.280314,43.408312],[-107.280308,43.404693],[-107.280301,43.401074],[-107.285262,43.401059]]]}},{"type":"Feature","properties":{"sec":"27","frstdivid":"WY060400N0870W0SN270"},"geometry":{"type":"Polygon","coordinates":[[[-107.260549,43.415729],[-107.260542,43.412104],[-107.260535,43.408478],[-107.260528,43.404852],[-107.260522,43.401226],[-107.265466,43.401188],[-107.270411,43.40115],[-107.275356,43.401112],[-107.280301,43.401074],[-107.280308,43.404693],[-107.280314,43.408312],[-107.280321,43.41193],[-107.280327,43.415549],[-107.275382,43.415594],[-107.270438,43.415639],[-107.265493,43.415684],[-107.260549,43.415729]]]}},{"type":"Feature","properties":{"sec":"17","frstdivid":"WY060400N0870W0SN170"},"geometry":{"type":"Polygon","coordinates":[[[-107.300207,43.444373],[-107.300214,43.44077],[-107.300221,43.437167],[-107.300229,43.433563],[-107.300236,43.42996],[-107.305186,43.429944],[-107.310136,43.429928],[-107.315086,43.429911],[-107.320036,43.429895],[-107.32003,43.4335],[-107.320024,43.437104],[-107.320017,43.440709],[-107.320011,43.444313],[-107.31506,43.444328],[-107.310109,43.444343],[-107.305158,43.444358],[-107.300207,43.444373]]]}},{"type":"Feature","properties":{"sec":"10","frstdivid":"WY060400N0870W0SN100"},"geometry":{"type":"Polygon","coordinates":[[[-107.280363,43.448104],[-107.280362,43.451721],[-107.280362,43.455337],[-107.280358,43.458957],[-107.275395,43.458983],[-107.270432,43.459008],[-107.265469,43.459035],[-107.260505,43.459062],[-107.26051,43.455468],[-107.260511,43.451875],[-107.260512,43.448282],[-107.260514,43.444689],[-107.265476,43.444639],[-107.270438,43.444588],[-107.275401,43.444538],[-107.280363,43.444488],[-107.280363,43.448104]]]}},{"type":"Feature","properties":{"sec":"11","frstdivid":"WY060400N0870W0SN110"},"geometry":{"type":"Polygon","coordinates":[[[-107.255564,43.444674],[-107.260514,43.444689],[-107.260512,43.448282],[-107.260511,43.451875],[-107.26051,43.455468],[-107.260505,43.459062],[-107.255548,43.459077],[-107.25059,43.459092],[-107.245632,43.459106],[-107.240674,43.45912],[-107.240686,43.455495],[-107.240696,43.451873],[-107.240706,43.448252],[-107.240716,43.44463],[-107.245666,43.444645],[-107.250615,43.44466],[-107.255564,43.444674]]]}},{"type":"Feature","properties":{"sec":"26","frstdivid":"WY060400N0870W0SN260"},"geometry":{"type":"Polygon","coordinates":[[[-107.245677,43.415663],[-107.240719,43.415641],[-107.240709,43.412025],[-107.240699,43.408409],[-107.240688,43.404794],[-107.240678,43.401178],[-107.245639,43.40119],[-107.2506,43.401202],[-107.255561,43.401214],[-107.260522,43.401226],[-107.260528,43.404852],[-107.260535,43.408478],[-107.260542,43.412104],[-107.260549,43.415729],[-107.255591,43.415707],[-107.250634,43.415685],[-107.245677,43.415663]]]}},{"type":"Feature","properties":{"sec":"19","frstdivid":"WY060400N0870W0SN190"},"geometry":{"type":"Polygon","coordinates":[[[-107.339686,43.415356],[-107.339718,43.418985],[-107.339749,43.422614],[-107.339781,43.426243],[-107.339812,43.429872],[-107.334868,43.429878],[-107.329924,43.429884],[-107.32498,43.42989],[-107.320036,43.429895],[-107.320006,43.42628],[-107.319976,43.422665],[-107.319945,43.419049],[-107.319915,43.415434],[-107.324858,43.415414],[-107.329801,43.415395],[-107.334743,43.415375],[-107.339686,43.415356]]]}},{"type":"Feature","properties":{"sec":"30","frstdivid":"WY060400N0870W0SN300"},"geometry":{"type":"Polygon","coordinates":[[[-107.329811,43.400952],[-107.334747,43.400941],[-107.339682,43.40093],[-107.339683,43.404536],[-107.339684,43.408143],[-107.339685,43.411749],[-107.339686,43.415356],[-107.334743,43.415375],[-107.329801,43.415395],[-107.324858,43.415414],[-107.319915,43.415434],[-107.319921,43.411819],[-107.319927,43.408204],[-107.319933,43.404589],[-107.31994,43.400974],[-107.324875,43.400963],[-107.329811,43.400952]]]}},{"type":"Feature","properties":{"sec":"31","frstdivid":"WY060400N0870W0SN310"},"geometry":{"type":"Polygon","coordinates":[[[-107.334747,43.400941],[-107.329811,43.400952],[-107.324875,43.400963],[-107.31994,43.400974],[-107.319903,43.397359],[-107.319866,43.393745],[-107.31983,43.39013],[-107.319793,43.386515],[-107.324738,43.38658],[-107.329682,43.386645],[-107.334627,43.38671],[-107.339571,43.386774],[-107.339599,43.390313],[-107.339627,43.393852],[-107.339655,43.397391],[-107.339682,43.40093],[-107.334747,43.400941]]]}},{"type":"Feature","properties":{"sec":"09","frstdivid":"WY060400N0870W0SN090"},"geometry":{"type":"Polygon","coordinates":[[[-107.280362,43.451721],[-107.280363,43.448104],[-107.280363,43.444488],[-107.285324,43.444459],[-107.290285,43.444431],[-107.295246,43.444402],[-107.300207,43.444373],[-107.300214,43.447976],[-107.300221,43.451579],[-107.300228,43.455182],[-107.30023,43.458791],[-107.295262,43.458833],[-107.290294,43.458876],[-107.285326,43.458917],[-107.280358,43.458957],[-107.280362,43.455337],[-107.280362,43.451721]]]}},{"type":"Feature","properties":{"sec":"22","frstdivid":"WY060400N0870W0SN220"},"geometry":{"type":"Polygon","coordinates":[[[-107.265493,43.415684],[-107.270438,43.415639],[-107.275382,43.415594],[-107.280327,43.415549],[-107.280349,43.419166],[-107.280371,43.422784],[-107.280393,43.426402],[-107.280414,43.43002],[-107.275461,43.430075],[-107.270507,43.430129],[-107.265553,43.430184],[-107.260599,43.430239],[-107.260586,43.426611],[-107.260574,43.422984],[-107.260561,43.419357],[-107.260549,43.415729],[-107.265493,43.415684]]]}},{"type":"Feature","properties":{"sec":"01","frstdivid":"WY060400N0870W0SN010"},"geometry":{"type":"Polygon","coordinates":[[[-107.240141,43.472612],[-107.235785,43.472633],[-107.235224,43.472636],[-107.23079,43.472658],[-107.230306,43.47266],[-107.225794,43.472662],[-107.225316,43.472662],[-107.225266,43.472662],[-107.220326,43.472665],[-107.220227,43.472662],[-107.220189,43.472661],[-107.220197,43.470074],[-107.220201,43.468795],[-107.220208,43.466446],[-107.220212,43.464995],[-107.220212,43.462816],[-107.220212,43.461409],[-107.220211,43.459186],[-107.225771,43.45917],[-107.230739,43.459155],[-107.235707,43.459137],[-107.240674,43.45912],[-107.240715,43.462743],[-107.240756,43.466367],[-107.240773,43.46999],[-107.24078,43.472611],[-107.240328,43.472611],[-107.240141,43.472612]]]}},{"type":"Feature","properties":{"sec":"05","frstdivid":"WY060400N0870W0SN050"},"geometry":{"type":"Polygon","coordinates":[[[-107.320037,43.462347],[-107.320002,43.465963],[-107.319982,43.469582],[-107.319967,43.472557],[-107.319573,43.472559],[-107.319559,43.472559],[-107.314998,43.472567],[-107.314621,43.472568],[-107.310029,43.472576],[-107.309669,43.472577],[-107.309607,43.472577],[-107.305059,43.472581],[-107.304695,43.472582],[-107.30009,43.472586],[-107.300109,43.469645],[-107.300136,43.466024],[-107.300183,43.462407],[-107.30023,43.458791],[-107.30519,43.458776],[-107.31015,43.458761],[-107.315111,43.458746],[-107.320071,43.458732],[-107.320037,43.462347]]]}},{"type":"Feature","properties":{"sec":"33","frstdivid":"WY060400N0870W0SN330"},"geometry":{"type":"Polygon","coordinates":[[[-107.280284,43.397456],[-107.280266,43.393837],[-107.280249,43.390218],[-107.280232,43.386599],[-107.285177,43.386589],[-107.290122,43.386579],[-107.295067,43.386569],[-107.300013,43.386559],[-107.300046,43.390172],[-107.30008,43.393785],[-107.300113,43.397398],[-107.300147,43.401011],[-107.295185,43.401027],[-107.290224,43.401043],[-107.285262,43.401059],[-107.280301,43.401074],[-107.280284,43.397456]]]}},{"type":"Feature","properties":{"sec":"29","frstdivid":"WY060400N0870W0SN290"},"geometry":{"type":"Polygon","coordinates":[[[-107.314991,43.400983],[-107.31994,43.400974],[-107.319933,43.404589],[-107.319927,43.408204],[-107.319921,43.411819],[-107.319915,43.415434],[-107.314971,43.415447],[-107.310027,43.41546],[-107.305083,43.415473],[-107.300139,43.415486],[-107.300141,43.411867],[-107.300143,43.408249],[-107.300145,43.40463],[-107.300147,43.401011],[-107.305095,43.401002],[-107.310043,43.400993],[-107.314991,43.400983]]]}},{"type":"Feature","properties":{"sec":"20","frstdivid":"WY060400N0870W0SN200"},"geometry":{"type":"Polygon","coordinates":[[[-107.305186,43.429944],[-107.300236,43.42996],[-107.300212,43.426341],[-107.300188,43.422723],[-107.300164,43.419104],[-107.300139,43.415486],[-107.305083,43.415473],[-107.310027,43.41546],[-107.314971,43.415447],[-107.319915,43.415434],[-107.319945,43.419049],[-107.319976,43.422665],[-107.320006,43.42628],[-107.320036,43.429895],[-107.315086,43.429911],[-107.310136,43.429928],[-107.305186,43.429944]]]}},{"type":"Feature","properties":{"sec":"34","frstdivid":"WY060400N0870W0SN340"},"geometry":{"type":"Polygon","coordinates":[[[-107.280284,43.397456],[-107.280301,43.401074],[-107.275356,43.401112],[-107.270411,43.40115],[-107.265466,43.401188],[-107.260522,43.401226],[-107.260505,43.397607],[-107.260487,43.393987],[-107.26047,43.390367],[-107.260453,43.386747],[-107.265398,43.38671],[-107.270343,43.386673],[-107.275287,43.386636],[-107.275332,43.386636],[-107.280232,43.386599],[-107.280249,43.390218],[-107.280266,43.393837],[-107.280284,43.397456]]]}},{"type":"Feature","properties":{"sec":"08","frstdivid":"WY060400N0870W0SN080"},"geometry":{"type":"Polygon","coordinates":[[[-107.31506,43.444328],[-107.320011,43.444313],[-107.320028,43.447917],[-107.320044,43.451521],[-107.320061,43.455125],[-107.320071,43.458732],[-107.315111,43.458746],[-107.31015,43.458761],[-107.30519,43.458776],[-107.30023,43.458791],[-107.300228,43.455182],[-107.300221,43.451579],[-107.300214,43.447976],[-107.300207,43.444373],[-107.305158,43.444358],[-107.310109,43.444343],[-107.31506,43.444328]]]}},{"type":"Feature","properties":{"sec":"21","frstdivid":"WY060400N0870W0SN210"},"geometry":{"type":"Polygon","coordinates":[[[-107.290233,43.415517],[-107.295186,43.415501],[-107.300139,43.415486],[-107.300164,43.419104],[-107.300188,43.422723],[-107.300212,43.426341],[-107.300236,43.42996],[-107.29528,43.429975],[-107.290325,43.42999],[-107.28537,43.430005],[-107.280414,43.43002],[-107.280393,43.426402],[-107.280371,43.422784],[-107.280349,43.419166],[-107.280327,43.415549],[-107.28528,43.415533],[-107.290233,43.415517]]]}},{"type":"Feature","properties":{"sec":"15","frstdivid":"WY060400N0870W0SN150"},"geometry":{"type":"Polygon","coordinates":[[[-107.265476,43.444639],[-107.260514,43.444689],[-107.260535,43.441076],[-107.260556,43.437464],[-107.260577,43.433851],[-107.260599,43.430239],[-107.265553,43.430184],[-107.270507,43.430129],[-107.275461,43.430075],[-107.280414,43.43002],[-107.280402,43.433637],[-107.280389,43.437254],[-107.280376,43.440871],[-107.280363,43.444488],[-107.275401,43.444538],[-107.270438,43.444588],[-107.265476,43.444639]]]}},{"type":"Feature","properties":{"sec":"06","frstdivid":"WY060400N0870W0SN060"},"geometry":{"type":"Polygon","coordinates":[[[-107.334936,43.458687],[-107.339892,43.458672],[-107.339848,43.462273],[-107.339802,43.465875],[-107.33978,43.469487],[-107.339763,43.472491],[-107.339398,43.472491],[-107.339378,43.472491],[-107.334816,43.472501],[-107.334437,43.472502],[-107.329866,43.472512],[-107.329476,43.472513],[-107.324916,43.472534],[-107.324524,43.472536],[-107.319967,43.472557],[-107.319982,43.469582],[-107.320002,43.465963],[-107.320037,43.462347],[-107.320071,43.458732],[-107.325026,43.458717],[-107.32998,43.458702],[-107.334936,43.458687]]]}},{"type":"Feature","properties":{"sec":"07","frstdivid":"WY060400N0870W0SN070"},"geometry":{"type":"Polygon","coordinates":[[[-107.339818,43.444353],[-107.339838,43.447933],[-107.339858,43.451512],[-107.339877,43.455091],[-107.339892,43.458672],[-107.334936,43.458687],[-107.32998,43.458702],[-107.325026,43.458717],[-107.320071,43.458732],[-107.320061,43.455125],[-107.320044,43.451521],[-107.320028,43.447917],[-107.320011,43.444313],[-107.324963,43.444323],[-107.329915,43.444333],[-107.334866,43.444343],[-107.339818,43.444353]]]}},{"type":"Feature","properties":{"sec":"32","frstdivid":"WY060400N0870W0SN320"},"geometry":{"type":"Polygon","coordinates":[[[-107.30008,43.393785],[-107.300046,43.390172],[-107.300013,43.386559],[-107.304958,43.386548],[-107.309903,43.386537],[-107.314848,43.386526],[-107.319793,43.386515],[-107.31983,43.39013],[-107.319866,43.393745],[-107.319903,43.397359],[-107.31994,43.400974],[-107.314991,43.400983],[-107.310043,43.400993],[-107.305095,43.401002],[-107.300147,43.401011],[-107.300113,43.397398],[-107.30008,43.393785]]]}},{"type":"Feature","properties":{"sec":"18","frstdivid":"WY060400N0870W0SN180"},"geometry":{"type":"Polygon","coordinates":[[[-107.329924,43.429884],[-107.334868,43.429878],[-107.339812,43.429872],[-107.339814,43.433493],[-107.339815,43.437113],[-107.339817,43.440733],[-107.339818,43.444353],[-107.334866,43.444343],[-107.329915,43.444333],[-107.324963,43.444323],[-107.320011,43.444313],[-107.320017,43.440709],[-107.320024,43.437104],[-107.32003,43.4335],[-107.320036,43.429895],[-107.32498,43.42989],[-107.329924,43.429884]]]}},{"type":"Feature","properties":{"sec":"04","frstdivid":"WY060400N0870W0SN040"},"geometry":{"type":"Polygon","coordinates":[[[-107.300109,43.469645],[-107.30009,43.472586],[-107.299721,43.472587],[-107.299683,43.472587],[-107.295149,43.472591],[-107.294747,43.472592],[-107.290208,43.472596],[-107.289773,43.472597],[-107.285267,43.472605],[-107.284808,43.472606],[-107.280325,43.472614],[-107.280331,43.469825],[-107.280339,43.466202],[-107.280349,43.46258],[-107.280358,43.458957],[-107.285326,43.458917],[-107.290294,43.458876],[-107.295262,43.458833],[-107.30023,43.458791],[-107.300183,43.462407],[-107.300136,43.466024],[-107.300109,43.469645]]]}},{"type":"Feature","properties":{"sec":"16","frstdivid":"WY060400N0870W0SN160"},"geometry":{"type":"Polygon","coordinates":[[[-107.300221,43.437167],[-107.300214,43.44077],[-107.300207,43.444373],[-107.295246,43.444402],[-107.290285,43.444431],[-107.285324,43.444459],[-107.280363,43.444488],[-107.280376,43.440871],[-107.280389,43.437254],[-107.280402,43.433637],[-107.280414,43.43002],[-107.28537,43.430005],[-107.290325,43.42999],[-107.29528,43.429975],[-107.300236,43.42996],[-107.300229,43.433563],[-107.300221,43.437167]]]}},{"type":"Feature","properties":{"sec":"23","frstdivid":"WY060400N0870W0SN230"},"geometry":{"type":"Polygon","coordinates":[[[-107.245677,43.415663],[-107.250634,43.415685],[-107.255591,43.415707],[-107.260549,43.415729],[-107.260561,43.419357],[-107.260574,43.422984],[-107.260586,43.426611],[-107.260599,43.430239],[-107.255629,43.430213],[-107.250658,43.430188],[-107.245688,43.430162],[-107.240718,43.430137],[-107.240718,43.426513],[-107.240719,43.422889],[-107.240719,43.419265],[-107.240719,43.415641],[-107.245677,43.415663]]]}},{"type":"Feature","properties":{"sec":"14","frstdivid":"WY060400N0870W0SN140"},"geometry":{"type":"Polygon","coordinates":[[[-107.260577,43.433851],[-107.260556,43.437464],[-107.260535,43.441076],[-107.260514,43.444689],[-107.255564,43.444674],[-107.250615,43.44466],[-107.245666,43.444645],[-107.240716,43.44463],[-107.240717,43.441007],[-107.240717,43.437384],[-107.240718,43.43376],[-107.240718,43.430137],[-107.245688,43.430162],[-107.250658,43.430188],[-107.255629,43.430213],[-107.260599,43.430239],[-107.260577,43.433851]]]}},{"type":"Feature","properties":{"sec":"02","frstdivid":"WY060400N0870W0SN020"},"geometry":{"type":"Polygon","coordinates":[[[-107.255548,43.459077],[-107.260505,43.459062],[-107.260573,43.462671],[-107.260641,43.46628],[-107.260668,43.469895],[-107.260682,43.472607],[-107.260235,43.472607],[-107.259945,43.472608],[-107.255707,43.472609],[-107.254961,43.47261],[-107.250731,43.472612],[-107.25028,43.472613],[-107.249977,43.472613],[-107.245756,43.472612],[-107.245059,43.472612],[-107.24078,43.472611],[-107.240773,43.46999],[-107.240756,43.466367],[-107.240715,43.462743],[-107.240674,43.45912],[-107.245632,43.459106],[-107.25059,43.459092],[-107.255548,43.459077]]]}},{"type":"Feature","properties":{"sec":"03","frstdivid":"WY060400N0870W0SN030"},"geometry":{"type":"Polygon","coordinates":[[[-107.279885,43.472615],[-107.279843,43.472615],[-107.275414,43.472615],[-107.274878,43.472615],[-107.270504,43.472615],[-107.270082,43.472615],[-107.269913,43.472615],[-107.265593,43.472611],[-107.264929,43.472611],[-107.260682,43.472607],[-107.260668,43.469895],[-107.260641,43.46628],[-107.260573,43.462671],[-107.260505,43.459062],[-107.265469,43.459035],[-107.270432,43.459008],[-107.275395,43.458983],[-107.280358,43.458957],[-107.280349,43.46258],[-107.280339,43.466202],[-107.280331,43.469825],[-107.280325,43.472614],[-107.279885,43.472615]]]}},{"type":"Feature","properties":{"sec":"13","frstdivid":"WY060400N0870W0SN130"},"geometry":{"type":"Polygon","coordinates":[[[-107.230788,43.430132],[-107.235753,43.430134],[-107.240718,43.430137],[-107.240718,43.43376],[-107.240717,43.437384],[-107.240717,43.441007],[-107.240716,43.44463],[-107.235751,43.444637],[-107.230785,43.444644],[-107.225818,43.444652],[-107.220235,43.444661],[-107.220238,43.443211],[-107.220242,43.441037],[-107.220244,43.439499],[-107.220248,43.437412],[-107.220251,43.435787],[-107.220254,43.433774],[-107.220256,43.432234],[-107.220259,43.430135],[-107.225821,43.430134],[-107.230788,43.430132]]]}},{"type":"Feature","properties":{"sec":"35","frstdivid":"WY060400N0870W0SN350"},"geometry":{"type":"Polygon","coordinates":[[[-107.2506,43.401202],[-107.245639,43.40119],[-107.240678,43.401178],[-107.240676,43.397562],[-107.240675,43.393946],[-107.240673,43.39033],[-107.240672,43.386714],[-107.245617,43.386723],[-107.250563,43.386731],[-107.255508,43.386739],[-107.260453,43.386747],[-107.26047,43.390367],[-107.260487,43.393987],[-107.260505,43.397607],[-107.260522,43.401226],[-107.255561,43.401214],[-107.2506,43.401202]]]}},{"type":"Feature","properties":{"sec":"12","frstdivid":"WY060400N0870W0SN120"},"geometry":{"type":"Polygon","coordinates":[[[-107.235751,43.444637],[-107.240716,43.44463],[-107.240706,43.448252],[-107.240696,43.451873],[-107.240686,43.455495],[-107.240674,43.45912],[-107.235707,43.459137],[-107.230739,43.459155],[-107.225771,43.45917],[-107.220211,43.459186],[-107.220211,43.457822],[-107.220215,43.455551],[-107.220218,43.454177],[-107.220221,43.451917],[-107.220224,43.450532],[-107.220228,43.448289],[-107.220231,43.446871],[-107.220235,43.444661],[-107.225818,43.444652],[-107.230785,43.444644],[-107.235751,43.444637]]]}},{"type":"Feature","properties":{"sec":"36","frstdivid":"WY060400N0870W0SN360"},"geometry":{"type":"Polygon","coordinates":[[[-107.220299,43.38896],[-107.220286,43.386635],[-107.225802,43.386648],[-107.230762,43.386658],[-107.235717,43.386686],[-107.240672,43.386714],[-107.240673,43.39033],[-107.240675,43.393946],[-107.240676,43.397562],[-107.240678,43.401178],[-107.23572,43.401172],[-107.230762,43.401166],[-107.225801,43.401164],[-107.220294,43.401162],[-107.220294,43.399744],[-107.220301,43.397525],[-107.220306,43.396138],[-107.220313,43.393888],[-107.220318,43.392532],[-107.220305,43.390261],[-107.220299,43.38896]]]}},{"type":"Feature","properties":{"sec":"24","frstdivid":"WY060400N0870W0SN240"},"geometry":{"type":"Polygon","coordinates":[[[-107.240719,43.419265],[-107.240719,43.422889],[-107.240718,43.426513],[-107.240718,43.430137],[-107.235753,43.430134],[-107.230788,43.430132],[-107.225821,43.430134],[-107.220259,43.430135],[-107.220261,43.428681],[-107.220256,43.426501],[-107.220253,43.425049],[-107.220249,43.422868],[-107.220246,43.421416],[-107.220259,43.419237],[-107.220267,43.417784],[-107.22028,43.415606],[-107.22583,43.415615],[-107.230794,43.415623],[-107.235757,43.415632],[-107.240719,43.415641],[-107.240719,43.419265]]]}}]}