{"type":"FeatureCollection","note":"BLM Public Land Survey System. Provided by the Bureau of Land Management as is. These data are neither legal documents nor land surveys and must not be used as such.","features":[{"type":"Feature","properties":{"sec":"31","frstdivid":"WY060420N0790W0SN310"},"geometry":{"type":"Polygon","coordinates":[[[-106.395475,43.572377],[-106.39057,43.572447],[-106.385665,43.572518],[-106.385651,43.568911],[-106.385636,43.565305],[-106.385621,43.561699],[-106.385607,43.558092],[-106.390525,43.558072],[-106.395444,43.558052],[-106.400365,43.558033],[-106.404793,43.558016],[-106.404799,43.561579],[-106.404806,43.565143],[-106.404815,43.568693],[-106.404824,43.572242],[-106.400379,43.572306],[-106.395475,43.572377]]]}},{"type":"Feature","properties":{"sec":"27","frstdivid":"WY060420N0790W0SN270"},"geometry":{"type":"Polygon","coordinates":[[[-106.346221,43.583338],[-106.346243,43.586964],[-106.341329,43.586951],[-106.336415,43.586937],[-106.331501,43.586924],[-106.326586,43.58691],[-106.326517,43.583246],[-106.326447,43.579582],[-106.326377,43.575917],[-106.326307,43.572253],[-106.331271,43.572266],[-106.336235,43.572279],[-106.341195,43.57237],[-106.346155,43.572461],[-106.346177,43.576087],[-106.346199,43.579712],[-106.346221,43.583338]]]}},{"type":"Feature","properties":{"sec":"25","frstdivid":"WY060420N0790W0SN250"},"geometry":{"type":"Polygon","coordinates":[[[-106.292195,43.572703],[-106.29706,43.572656],[-106.301924,43.572609],[-106.306789,43.572562],[-106.306831,43.576121],[-106.306874,43.57968],[-106.306916,43.583239],[-106.306959,43.586798],[-106.30206,43.586911],[-106.297161,43.587024],[-106.292262,43.587136],[-106.287363,43.587249],[-106.287355,43.583624],[-106.287347,43.579999],[-106.287339,43.576374],[-106.287331,43.57275],[-106.292195,43.572703]]]}},{"type":"Feature","properties":{"sec":"32","frstdivid":"WY060420N0790W0SN320"},"geometry":{"type":"Polygon","coordinates":[[[-106.366097,43.568598],[-106.366142,43.564961],[-106.366035,43.56156],[-106.365928,43.558159],[-106.370847,43.558142],[-106.375767,43.558126],[-106.380687,43.558109],[-106.385607,43.558092],[-106.385621,43.561699],[-106.385636,43.565305],[-106.385651,43.568911],[-106.385665,43.572518],[-106.380762,43.572447],[-106.375858,43.572376],[-106.370955,43.572305],[-106.366052,43.572234],[-106.366097,43.568598]]]}},{"type":"Feature","properties":{"sec":"35","frstdivid":"WY060420N0790W0SN350"},"geometry":{"type":"Polygon","coordinates":[[[-106.316539,43.558293],[-106.32155,43.558294],[-106.326562,43.558295],[-106.326499,43.561784],[-106.326435,43.565274],[-106.326371,43.568764],[-106.326307,43.572253],[-106.321428,43.57233],[-106.316548,43.572408],[-106.311669,43.572485],[-106.306789,43.572562],[-106.30676,43.569003],[-106.306732,43.565443],[-106.306703,43.561884],[-106.306674,43.558325],[-106.311606,43.558309],[-106.316539,43.558293]]]}},{"type":"Feature","properties":{"sec":"36","frstdivid":"WY060420N0790W0SN360"},"geometry":{"type":"Polygon","coordinates":[[[-106.306732,43.565443],[-106.30676,43.569003],[-106.306789,43.572562],[-106.301924,43.572609],[-106.29706,43.572656],[-106.292195,43.572703],[-106.287331,43.57275],[-106.28731,43.569153],[-106.28729,43.565556],[-106.287269,43.561959],[-106.287249,43.558363],[-106.292006,43.558387],[-106.296763,43.558411],[-106.301718,43.558368],[-106.306674,43.558325],[-106.306703,43.561884],[-106.306732,43.565443]]]}},{"type":"Feature","properties":{"sec":"29","frstdivid":"WY060420N0790W0SN290"},"geometry":{"type":"Polygon","coordinates":[[[-106.365735,43.586838],[-106.365814,43.583187],[-106.365893,43.579536],[-106.365973,43.575885],[-106.366052,43.572234],[-106.370955,43.572305],[-106.375858,43.572376],[-106.380762,43.572447],[-106.385665,43.572518],[-106.385495,43.576123],[-106.385324,43.579728],[-106.385327,43.583327],[-106.385331,43.586926],[-106.380432,43.586904],[-106.375533,43.586882],[-106.370634,43.58686],[-106.365735,43.586838]]]}},{"type":"Feature","properties":{"sec":"33","frstdivid":"WY060420N0790W0SN330"},"geometry":{"type":"Polygon","coordinates":[[[-106.346226,43.561718],[-106.346249,43.558227],[-106.351169,43.55821],[-106.356088,43.558193],[-106.361008,43.558176],[-106.365928,43.558159],[-106.366035,43.56156],[-106.366142,43.564961],[-106.366097,43.568598],[-106.366052,43.572234],[-106.361078,43.572291],[-106.356103,43.572348],[-106.351129,43.572404],[-106.346155,43.572461],[-106.346179,43.568835],[-106.346203,43.56521],[-106.346226,43.561718]]]}},{"type":"Feature","properties":{"sec":"30","frstdivid":"WY060420N0790W0SN300"},"geometry":{"type":"Polygon","coordinates":[[[-106.385495,43.576123],[-106.385665,43.572518],[-106.39057,43.572447],[-106.395475,43.572377],[-106.400379,43.572306],[-106.404824,43.572242],[-106.40484,43.575791],[-106.404855,43.57934],[-106.404862,43.582974],[-106.404869,43.586607],[-106.400395,43.586681],[-106.395374,43.586765],[-106.390352,43.586845],[-106.385331,43.586926],[-106.385327,43.583327],[-106.385324,43.579728],[-106.385495,43.576123]]]}},{"type":"Feature","properties":{"sec":"28","frstdivid":"WY060420N0790W0SN280"},"geometry":{"type":"Polygon","coordinates":[[[-106.346221,43.583338],[-106.346199,43.579712],[-106.346177,43.576087],[-106.346155,43.572461],[-106.351129,43.572404],[-106.356103,43.572348],[-106.361078,43.572291],[-106.366052,43.572234],[-106.365973,43.575885],[-106.365893,43.579536],[-106.365814,43.583187],[-106.365735,43.586838],[-106.360862,43.586869],[-106.355989,43.586901],[-106.351116,43.586932],[-106.346243,43.586964],[-106.346221,43.583338]]]}},{"type":"Feature","properties":{"sec":"26","frstdivid":"WY060420N0790W0SN260"},"geometry":{"type":"Polygon","coordinates":[[[-106.311866,43.586826],[-106.306959,43.586798],[-106.306916,43.583239],[-106.306874,43.57968],[-106.306831,43.576121],[-106.306789,43.572562],[-106.311669,43.572485],[-106.316548,43.572408],[-106.321428,43.57233],[-106.326307,43.572253],[-106.326377,43.575917],[-106.326447,43.579582],[-106.326517,43.583246],[-106.326586,43.58691],[-106.321679,43.586882],[-106.316773,43.586854],[-106.311866,43.586826]]]}},{"type":"Feature","properties":{"sec":"34","frstdivid":"WY060420N0790W0SN340"},"geometry":{"type":"Polygon","coordinates":[[[-106.346249,43.558227],[-106.346226,43.561718],[-106.346203,43.56521],[-106.346179,43.568835],[-106.346155,43.572461],[-106.341195,43.57237],[-106.336235,43.572279],[-106.331271,43.572266],[-106.326307,43.572253],[-106.326371,43.568764],[-106.326435,43.565274],[-106.326499,43.561784],[-106.326562,43.558295],[-106.331484,43.558278],[-106.336406,43.558261],[-106.341327,43.558244],[-106.346249,43.558227]]]}},{"type":"Feature","properties":{"sec":"02","frstdivid":"WY060420N0790W0SN020"},"geometry":{"type":"Polygon","coordinates":[[[-106.326497,43.637501],[-106.326452,43.641177],[-106.326407,43.644895],[-106.321578,43.644915],[-106.31675,43.644935],[-106.311889,43.644956],[-106.307028,43.644978],[-106.306968,43.641222],[-106.306908,43.637522],[-106.30685,43.633823],[-106.306792,43.630123],[-106.311794,43.630132],[-106.316796,43.63014],[-106.321692,43.630144],[-106.326588,43.630147],[-106.326542,43.633824],[-106.326497,43.637501]]]}},{"type":"Feature","properties":{"sec":"13","frstdivid":"WY060420N0790W0SN130"},"geometry":{"type":"Polygon","coordinates":[[[-106.306853,43.615655],[-106.302018,43.615789],[-106.297182,43.615922],[-106.292347,43.616056],[-106.287512,43.616189],[-106.287483,43.612579],[-106.287455,43.608969],[-106.287426,43.605359],[-106.287398,43.601748],[-106.292291,43.601571],[-106.297185,43.601393],[-106.302078,43.601215],[-106.306971,43.601037],[-106.306942,43.604682],[-106.306913,43.608326],[-106.306883,43.611991],[-106.306853,43.615655]]]}},{"type":"Feature","properties":{"sec":"23","frstdivid":"WY060420N0790W0SN230"},"geometry":{"type":"Polygon","coordinates":[[[-106.316773,43.586854],[-106.321679,43.586882],[-106.326586,43.58691],[-106.326593,43.590574],[-106.3266,43.594238],[-106.326606,43.597902],[-106.326613,43.601566],[-106.321703,43.601434],[-106.316792,43.601302],[-106.311882,43.601169],[-106.306971,43.601037],[-106.306968,43.597478],[-106.306965,43.593918],[-106.306962,43.590358],[-106.306959,43.586798],[-106.311866,43.586826],[-106.316773,43.586854]]]}},{"type":"Feature","properties":{"sec":"04","frstdivid":"WY060420N0790W0SN040"},"geometry":{"type":"Polygon","coordinates":[[[-106.345754,43.64479],[-106.345912,43.641168],[-106.346072,43.637488],[-106.346235,43.633808],[-106.346398,43.630127],[-106.351286,43.630155],[-106.356173,43.630182],[-106.361061,43.63021],[-106.365949,43.630238],[-106.365862,43.633836],[-106.365776,43.637435],[-106.365692,43.641071],[-106.365608,43.644693],[-106.360645,43.644717],[-106.355681,43.644742],[-106.350718,43.644766],[-106.345754,43.64479]]]}},{"type":"Feature","properties":{"sec":"09","frstdivid":"WY060420N0790W0SN090"},"geometry":{"type":"Polygon","coordinates":[[[-106.361061,43.63021],[-106.356173,43.630182],[-106.351286,43.630155],[-106.346398,43.630127],[-106.346408,43.626565],[-106.346418,43.623003],[-106.346428,43.619442],[-106.346438,43.61588],[-106.351337,43.615933],[-106.356236,43.615987],[-106.361121,43.615913],[-106.366005,43.61584],[-106.365991,43.619439],[-106.365977,43.623039],[-106.365963,43.626638],[-106.365949,43.630238],[-106.361061,43.63021]]]}},{"type":"Feature","properties":{"sec":"12","frstdivid":"WY060420N0790W0SN120"},"geometry":{"type":"Polygon","coordinates":[[[-106.302018,43.615789],[-106.306853,43.615655],[-106.306831,43.619259],[-106.306809,43.622863],[-106.3068,43.626493],[-106.306792,43.630123],[-106.302002,43.630249],[-106.297212,43.630376],[-106.292422,43.630502],[-106.287631,43.630629],[-106.287601,43.627019],[-106.287571,43.623409],[-106.287542,43.619799],[-106.287512,43.616189],[-106.292347,43.616056],[-106.297182,43.615922],[-106.302018,43.615789]]]}},{"type":"Feature","properties":{"sec":"01","frstdivid":"WY060420N0790W0SN010"},"geometry":{"type":"Polygon","coordinates":[[[-106.287631,43.630629],[-106.292422,43.630502],[-106.297212,43.630376],[-106.302002,43.630249],[-106.306792,43.630123],[-106.30685,43.633823],[-106.306908,43.637522],[-106.306968,43.641222],[-106.307028,43.644978],[-106.302169,43.644995],[-106.297311,43.645013],[-106.292453,43.645031],[-106.287594,43.645048],[-106.287603,43.641443],[-106.287612,43.637838],[-106.287622,43.634233],[-106.287631,43.630629]]]}},{"type":"Feature","properties":{"sec":"22","frstdivid":"WY060420N0790W0SN220"},"geometry":{"type":"Polygon","coordinates":[[[-106.346288,43.594233],[-106.34631,43.597868],[-106.346332,43.601503],[-106.341403,43.601518],[-106.336473,43.601534],[-106.331543,43.60155],[-106.326613,43.601566],[-106.326606,43.597902],[-106.3266,43.594238],[-106.326593,43.590574],[-106.326586,43.58691],[-106.331501,43.586924],[-106.336415,43.586937],[-106.341329,43.586951],[-106.346243,43.586964],[-106.346266,43.590599],[-106.346288,43.594233]]]}},{"type":"Feature","properties":{"sec":"15","frstdivid":"WY060420N0790W0SN150"},"geometry":{"type":"Polygon","coordinates":[[[-106.326608,43.615991],[-106.326609,43.612385],[-106.326611,43.608778],[-106.326612,43.605172],[-106.326613,43.601566],[-106.331543,43.60155],[-106.336473,43.601534],[-106.341403,43.601518],[-106.346332,43.601503],[-106.346359,43.605097],[-106.346385,43.608691],[-106.346412,43.612285],[-106.346438,43.61588],[-106.341481,43.615908],[-106.336523,43.615935],[-106.331566,43.615963],[-106.326608,43.615991]]]}},{"type":"Feature","properties":{"sec":"18","frstdivid":"WY060420N0790W0SN180"},"geometry":{"type":"Polygon","coordinates":[[[-106.395471,43.6159],[-106.390474,43.615952],[-106.385477,43.616003],[-106.385454,43.612375],[-106.385432,43.608748],[-106.385406,43.605059],[-106.38538,43.601371],[-106.390386,43.601349],[-106.395391,43.601327],[-106.400452,43.60128],[-106.404856,43.601239],[-106.404862,43.604892],[-106.404868,43.608544],[-106.404862,43.612171],[-106.404856,43.615798],[-106.400469,43.615846],[-106.395471,43.6159]]]}},{"type":"Feature","properties":{"sec":"16","frstdivid":"WY060420N0790W0SN160"},"geometry":{"type":"Polygon","coordinates":[[[-106.365955,43.605041],[-106.365972,43.608641],[-106.365989,43.61224],[-106.366005,43.61584],[-106.361121,43.615913],[-106.356236,43.615987],[-106.351337,43.615933],[-106.346438,43.61588],[-106.346412,43.612285],[-106.346385,43.608691],[-106.346359,43.605097],[-106.346332,43.601503],[-106.351234,43.601487],[-106.356135,43.601472],[-106.361037,43.601457],[-106.365938,43.601442],[-106.365955,43.605041]]]}},{"type":"Feature","properties":{"sec":"11","frstdivid":"WY060420N0790W0SN110"},"geometry":{"type":"Polygon","coordinates":[[[-106.311792,43.615739],[-106.316731,43.615823],[-106.321669,43.615907],[-106.326608,43.615991],[-106.326603,43.61953],[-106.326598,43.623069],[-106.326593,43.626608],[-106.326588,43.630147],[-106.321692,43.630144],[-106.316796,43.63014],[-106.311794,43.630132],[-106.306792,43.630123],[-106.3068,43.626493],[-106.306809,43.622863],[-106.306831,43.619259],[-106.306853,43.615655],[-106.311792,43.615739]]]}},{"type":"Feature","properties":{"sec":"20","frstdivid":"WY060420N0790W0SN200"},"geometry":{"type":"Polygon","coordinates":[[[-106.385372,43.590519],[-106.385413,43.594111],[-106.385397,43.597741],[-106.38538,43.601371],[-106.380509,43.601386],[-106.375638,43.601402],[-106.370788,43.601422],[-106.365938,43.601442],[-106.365888,43.597791],[-106.365837,43.59414],[-106.365786,43.590489],[-106.365735,43.586838],[-106.370634,43.58686],[-106.375533,43.586882],[-106.380432,43.586904],[-106.385331,43.586926],[-106.385372,43.590519]]]}},{"type":"Feature","properties":{"sec":"05","frstdivid":"WY060420N0790W0SN050"},"geometry":{"type":"Polygon","coordinates":[[[-106.375722,43.630381],[-106.380624,43.630465],[-106.385527,43.630548],[-106.385507,43.634074],[-106.385487,43.637599],[-106.385473,43.641123],[-106.38546,43.644595],[-106.380497,43.644619],[-106.375534,43.644644],[-106.370571,43.644668],[-106.365608,43.644693],[-106.365692,43.641071],[-106.365776,43.637435],[-106.365862,43.633836],[-106.365949,43.630238],[-106.370835,43.630309],[-106.375722,43.630381]]]}},{"type":"Feature","properties":{"sec":"19","frstdivid":"WY060420N0790W0SN190"},"geometry":{"type":"Polygon","coordinates":[[[-106.404857,43.597586],[-106.404856,43.601239],[-106.400452,43.60128],[-106.395391,43.601327],[-106.390386,43.601349],[-106.38538,43.601371],[-106.385397,43.597741],[-106.385413,43.594111],[-106.385372,43.590519],[-106.385331,43.586926],[-106.390352,43.586845],[-106.395374,43.586765],[-106.400395,43.586681],[-106.404869,43.586607],[-106.404864,43.59027],[-106.404858,43.593934],[-106.404857,43.597586]]]}},{"type":"Feature","properties":{"sec":"10","frstdivid":"WY060420N0790W0SN100"},"geometry":{"type":"Polygon","coordinates":[[[-106.326588,43.630147],[-106.326593,43.626608],[-106.326598,43.623069],[-106.326603,43.61953],[-106.326608,43.615991],[-106.331566,43.615963],[-106.336523,43.615935],[-106.341481,43.615908],[-106.346438,43.61588],[-106.346428,43.619442],[-106.346418,43.623003],[-106.346408,43.626565],[-106.346398,43.630127],[-106.341446,43.630132],[-106.336493,43.630137],[-106.33154,43.630142],[-106.326588,43.630147]]]}},{"type":"Feature","properties":{"sec":"21","frstdivid":"WY060420N0790W0SN210"},"geometry":{"type":"Polygon","coordinates":[[[-106.346266,43.590599],[-106.346243,43.586964],[-106.351116,43.586932],[-106.355989,43.586901],[-106.360862,43.586869],[-106.365735,43.586838],[-106.365786,43.590489],[-106.365837,43.59414],[-106.365888,43.597791],[-106.365938,43.601442],[-106.361037,43.601457],[-106.356135,43.601472],[-106.351234,43.601487],[-106.346332,43.601503],[-106.34631,43.597868],[-106.346288,43.594233],[-106.346266,43.590599]]]}},{"type":"Feature","properties":{"sec":"06","frstdivid":"WY060420N0790W0SN060"},"geometry":{"type":"Polygon","coordinates":[[[-106.404733,43.633813],[-106.404688,43.63738],[-106.40465,43.640947],[-106.404612,43.644514],[-106.400356,43.644532],[-106.39539,43.644554],[-106.390425,43.644574],[-106.38546,43.644595],[-106.385473,43.641123],[-106.385487,43.637599],[-106.385507,43.634074],[-106.385527,43.630548],[-106.390514,43.63047],[-106.395502,43.630392],[-106.40049,43.630314],[-106.404778,43.630247],[-106.404733,43.633813]]]}},{"type":"Feature","properties":{"sec":"03","frstdivid":"WY060420N0790W0SN030"},"geometry":{"type":"Polygon","coordinates":[[[-106.336493,43.630137],[-106.341446,43.630132],[-106.346398,43.630127],[-106.346235,43.633808],[-106.346072,43.637488],[-106.345912,43.641168],[-106.345754,43.64479],[-106.340917,43.644817],[-106.336081,43.644843],[-106.331244,43.644869],[-106.326407,43.644895],[-106.326452,43.641177],[-106.326497,43.637501],[-106.326542,43.633824],[-106.326588,43.630147],[-106.33154,43.630142],[-106.336493,43.630137]]]}},{"type":"Feature","properties":{"sec":"14","frstdivid":"WY060420N0790W0SN140"},"geometry":{"type":"Polygon","coordinates":[[[-106.326612,43.605172],[-106.326611,43.608778],[-106.326609,43.612385],[-106.326608,43.615991],[-106.321669,43.615907],[-106.316731,43.615823],[-106.311792,43.615739],[-106.306853,43.615655],[-106.306883,43.611991],[-106.306913,43.608326],[-106.306942,43.604682],[-106.306971,43.601037],[-106.311882,43.601169],[-106.316792,43.601302],[-106.321703,43.601434],[-106.326613,43.601566],[-106.326612,43.605172]]]}},{"type":"Feature","properties":{"sec":"08","frstdivid":"WY060420N0790W0SN080"},"geometry":{"type":"Polygon","coordinates":[[[-106.370873,43.61588],[-106.375741,43.615921],[-106.380609,43.615962],[-106.385477,43.616003],[-106.385465,43.61964],[-106.385454,43.623277],[-106.38549,43.626913],[-106.385527,43.630548],[-106.380624,43.630465],[-106.375722,43.630381],[-106.370835,43.630309],[-106.365949,43.630238],[-106.365963,43.626638],[-106.365977,43.623039],[-106.365991,43.619439],[-106.366005,43.61584],[-106.370873,43.61588]]]}},{"type":"Feature","properties":{"sec":"07","frstdivid":"WY060420N0790W0SN070"},"geometry":{"type":"Polygon","coordinates":[[[-106.404856,43.615798],[-106.404846,43.619423],[-106.404836,43.623049],[-106.404807,43.626648],[-106.404778,43.630247],[-106.40049,43.630314],[-106.395502,43.630392],[-106.390514,43.63047],[-106.385527,43.630548],[-106.38549,43.626913],[-106.385454,43.623277],[-106.385465,43.61964],[-106.385477,43.616003],[-106.390474,43.615952],[-106.395471,43.6159],[-106.400469,43.615846],[-106.404856,43.615798]]]}},{"type":"Feature","properties":{"sec":"24","frstdivid":"WY060420N0790W0SN240"},"geometry":{"type":"Polygon","coordinates":[[[-106.306965,43.593918],[-106.306968,43.597478],[-106.306971,43.601037],[-106.302078,43.601215],[-106.297185,43.601393],[-106.292291,43.601571],[-106.287398,43.601748],[-106.287389,43.598123],[-106.28738,43.594499],[-106.287371,43.590874],[-106.287363,43.587249],[-106.292262,43.587136],[-106.297161,43.587024],[-106.30206,43.586911],[-106.306959,43.586798],[-106.306962,43.590358],[-106.306965,43.593918]]]}},{"type":"Feature","properties":{"sec":"17","frstdivid":"WY060420N0790W0SN170"},"geometry":{"type":"Polygon","coordinates":[[[-106.370788,43.601422],[-106.375638,43.601402],[-106.380509,43.601386],[-106.38538,43.601371],[-106.385406,43.605059],[-106.385432,43.608748],[-106.385454,43.612375],[-106.385477,43.616003],[-106.380609,43.615962],[-106.375741,43.615921],[-106.370873,43.61588],[-106.366005,43.61584],[-106.365989,43.61224],[-106.365972,43.608641],[-106.365955,43.605041],[-106.365938,43.601442],[-106.370788,43.601422]]]}}]}