{"type":"FeatureCollection","note":"BLM Public Land Survey System. Provided by the Bureau of Land Management as is. These data are neither legal documents nor land surveys and must not be used as such.","features":[{"type":"Feature","properties":{"sec":"22","frstdivid":"MT200030S0420E0SN220"},"geometry":{"type":"Polygon","coordinates":[[[-106.543387,45.560962],[-106.543394,45.564577],[-106.543406,45.568206],[-106.543418,45.571835],[-106.538299,45.571822],[-106.53318,45.571809],[-106.527992,45.571811],[-106.522804,45.571812],[-106.522804,45.568191],[-106.522803,45.564569],[-106.5228,45.560942],[-106.522797,45.557315],[-106.527942,45.557323],[-106.533088,45.557331],[-106.538234,45.557339],[-106.54338,45.557347],[-106.543387,45.560962]]]}},{"type":"Feature","properties":{"sec":"05","frstdivid":"MT200030S0420E0SN050"},"geometry":{"type":"Polygon","coordinates":[[[-106.580441,45.615243],[-106.5795,45.615242],[-106.575285,45.615236],[-106.574344,45.615236],[-106.570127,45.61523],[-106.569186,45.615229],[-106.56497,45.615224],[-106.564028,45.615223],[-106.564043,45.611656],[-106.564057,45.60803],[-106.564072,45.604404],[-106.564087,45.600779],[-106.569247,45.600787],[-106.574409,45.600795],[-106.579569,45.600803],[-106.584732,45.600812],[-106.584717,45.604435],[-106.584699,45.608058],[-106.584677,45.611681],[-106.584655,45.615247],[-106.580441,45.615243]]]}},{"type":"Feature","properties":{"sec":"29","frstdivid":"MT200030S0420E0SN290"},"geometry":{"type":"Polygon","coordinates":[[[-106.579469,45.542881],[-106.584613,45.542867],[-106.584616,45.546487],[-106.584618,45.550107],[-106.584614,45.553721],[-106.584613,45.557341],[-106.579482,45.557353],[-106.574352,45.557363],[-106.569181,45.557361],[-106.564023,45.557355],[-106.564024,45.55373],[-106.564019,45.550105],[-106.564012,45.546491],[-106.564008,45.542876],[-106.569165,45.542883],[-106.574321,45.542895],[-106.579469,45.542881]]]}},{"type":"Feature","properties":{"sec":"10","frstdivid":"MT200030S0420E0SN100"},"geometry":{"type":"Polygon","coordinates":[[[-106.538294,45.586306],[-106.543455,45.586298],[-106.543462,45.589917],[-106.543469,45.593538],[-106.543477,45.597158],[-106.543481,45.600778],[-106.538315,45.600784],[-106.53315,45.600791],[-106.527986,45.600796],[-106.522821,45.600805],[-106.522818,45.597186],[-106.522812,45.593564],[-106.522806,45.589942],[-106.5228,45.586319],[-106.527966,45.586315],[-106.533131,45.58631],[-106.538294,45.586306]]]}},{"type":"Feature","properties":{"sec":"36","frstdivid":"MT200030S0420E0SN360"},"geometry":{"type":"Polygon","coordinates":[[[-106.481616,45.531832],[-106.481619,45.528389],[-106.486774,45.528389],[-106.491928,45.528391],[-106.497056,45.528394],[-106.499621,45.528391],[-106.500903,45.528389],[-106.502186,45.528388],[-106.502188,45.532008],[-106.50219,45.535628],[-106.502193,45.539253],[-106.502198,45.542872],[-106.497055,45.542862],[-106.491906,45.542853],[-106.486759,45.542841],[-106.481611,45.542827],[-106.481611,45.542686],[-106.481607,45.53922],[-106.481607,45.53907],[-106.481611,45.535609],[-106.481611,45.53545],[-106.481616,45.532],[-106.481616,45.531832]]]}},{"type":"Feature","properties":{"sec":"21","frstdivid":"MT200030S0420E0SN210"},"geometry":{"type":"Polygon","coordinates":[[[-106.543406,45.568206],[-106.543394,45.564577],[-106.543387,45.560962],[-106.54338,45.557347],[-106.548537,45.557345],[-106.55369,45.557344],[-106.55886,45.557348],[-106.564023,45.557355],[-106.564013,45.560973],[-106.564003,45.564593],[-106.564037,45.5682],[-106.564072,45.571808],[-106.558901,45.571819],[-106.553727,45.571831],[-106.548573,45.571833],[-106.543418,45.571835],[-106.543406,45.568206]]]}},{"type":"Feature","properties":{"sec":"09","frstdivid":"MT200030S0420E0SN090"},"geometry":{"type":"Polygon","coordinates":[[[-106.558919,45.586301],[-106.564074,45.586305],[-106.564076,45.589925],[-106.564081,45.593542],[-106.564084,45.59716],[-106.564087,45.600779],[-106.558932,45.600775],[-106.553778,45.600772],[-106.548629,45.600773],[-106.543481,45.600778],[-106.543477,45.597158],[-106.543469,45.593538],[-106.543462,45.589917],[-106.543455,45.586298],[-106.548609,45.586302],[-106.553763,45.5863],[-106.558919,45.586301]]]}},{"type":"Feature","properties":{"sec":"20","frstdivid":"MT200030S0420E0SN200"},"geometry":{"type":"Polygon","coordinates":[[[-106.584661,45.571829],[-106.579479,45.571824],[-106.574305,45.57182],[-106.569188,45.571814],[-106.564072,45.571808],[-106.564037,45.5682],[-106.564003,45.564593],[-106.564013,45.560973],[-106.564023,45.557355],[-106.569181,45.557361],[-106.574352,45.557363],[-106.579482,45.557353],[-106.584613,45.557341],[-106.584632,45.560963],[-106.584646,45.564581],[-106.584648,45.566392],[-106.584651,45.568204],[-106.584661,45.571829]]]}},{"type":"Feature","properties":{"sec":"28","frstdivid":"MT200030S0420E0SN280"},"geometry":{"type":"Polygon","coordinates":[[[-106.564019,45.550105],[-106.564024,45.55373],[-106.564023,45.557355],[-106.55886,45.557348],[-106.55369,45.557344],[-106.548537,45.557345],[-106.54338,45.557347],[-106.54338,45.553726],[-106.543379,45.551915],[-106.543378,45.550104],[-106.543374,45.546486],[-106.543371,45.544678],[-106.543367,45.54287],[-106.548523,45.542875],[-106.553682,45.542876],[-106.558841,45.542876],[-106.564008,45.542876],[-106.564012,45.546491],[-106.564019,45.550105]]]}},{"type":"Feature","properties":{"sec":"25","frstdivid":"MT200030S0420E0SN250"},"geometry":{"type":"Polygon","coordinates":[[[-106.481613,45.553531],[-106.481614,45.550044],[-106.481614,45.549917],[-106.481614,45.546434],[-106.481614,45.5463],[-106.481611,45.542827],[-106.486759,45.542841],[-106.491906,45.542853],[-106.497055,45.542862],[-106.502198,45.542872],[-106.502204,45.54649],[-106.502207,45.550112],[-106.502215,45.553729],[-106.502216,45.555537],[-106.502218,45.557346],[-106.49707,45.557329],[-106.491924,45.557311],[-106.486768,45.5573],[-106.481609,45.557292],[-106.481609,45.557147],[-106.481613,45.553667],[-106.481613,45.553531]]]}},{"type":"Feature","properties":{"sec":"13","frstdivid":"MT200030S0420E0SN130"},"geometry":{"type":"Polygon","coordinates":[[[-106.481573,45.582495],[-106.48158,45.578971],[-106.48158,45.578875],[-106.481585,45.575351],[-106.481586,45.575255],[-106.481593,45.571731],[-106.486754,45.571768],[-106.491915,45.571804],[-106.497069,45.571814],[-106.502223,45.571823],[-106.502229,45.575444],[-106.502236,45.579065],[-106.502242,45.582686],[-106.502249,45.586307],[-106.497081,45.586286],[-106.491913,45.586265],[-106.486742,45.586241],[-106.481573,45.58622],[-106.481573,45.586116],[-106.481573,45.582595],[-106.481573,45.582495]]]}},{"type":"Feature","properties":{"sec":"03","frstdivid":"MT200030S0420E0SN030"},"geometry":{"type":"Polygon","coordinates":[[[-106.527936,45.615197],[-106.523721,45.615193],[-106.52278,45.615193],[-106.522789,45.611661],[-106.522799,45.608042],[-106.522812,45.604424],[-106.522821,45.600805],[-106.527986,45.600796],[-106.53315,45.600791],[-106.538315,45.600784],[-106.543481,45.600778],[-106.543459,45.604398],[-106.543438,45.608019],[-106.543419,45.611634],[-106.5434,45.615211],[-106.539186,45.615206],[-106.538245,45.615206],[-106.534032,45.615201],[-106.533091,45.615201],[-106.528877,45.615198],[-106.527936,45.615197]]]}},{"type":"Feature","properties":{"sec":"16","frstdivid":"MT200030S0420E0SN160"},"geometry":{"type":"Polygon","coordinates":[[[-106.558901,45.571819],[-106.564072,45.571808],[-106.564068,45.575433],[-106.564065,45.579059],[-106.564069,45.582683],[-106.564074,45.586305],[-106.558919,45.586301],[-106.553763,45.5863],[-106.548609,45.586302],[-106.543455,45.586298],[-106.543445,45.582684],[-106.543435,45.579068],[-106.543426,45.575452],[-106.543418,45.571835],[-106.548573,45.571833],[-106.553727,45.571831],[-106.558901,45.571819]]]}},{"type":"Feature","properties":{"sec":"17","frstdivid":"MT200030S0420E0SN170"},"geometry":{"type":"Polygon","coordinates":[[[-106.579479,45.571824],[-106.584661,45.571829],[-106.584664,45.57364],[-106.584667,45.57545],[-106.584674,45.579071],[-106.584678,45.582691],[-106.584681,45.586311],[-106.579531,45.58631],[-106.57438,45.586309],[-106.56923,45.586308],[-106.564074,45.586305],[-106.564069,45.582683],[-106.564065,45.579059],[-106.564068,45.575433],[-106.564072,45.571808],[-106.569188,45.571814],[-106.574305,45.57182],[-106.579479,45.571824]]]}},{"type":"Feature","properties":{"sec":"15","frstdivid":"MT200030S0420E0SN150"},"geometry":{"type":"Polygon","coordinates":[[[-106.522804,45.571812],[-106.527992,45.571811],[-106.53318,45.571809],[-106.538299,45.571822],[-106.543418,45.571835],[-106.543426,45.575452],[-106.543435,45.579068],[-106.543445,45.582684],[-106.543455,45.586298],[-106.538294,45.586306],[-106.533131,45.58631],[-106.527966,45.586315],[-106.5228,45.586319],[-106.522801,45.582692],[-106.522802,45.579066],[-106.522803,45.575439],[-106.522804,45.571812]]]}},{"type":"Feature","properties":{"sec":"06","frstdivid":"MT200030S0420E0SN060"},"geometry":{"type":"Polygon","coordinates":[[[-106.584717,45.604435],[-106.584732,45.600812],[-106.589887,45.600803],[-106.595041,45.600792],[-106.600199,45.600781],[-106.606606,45.60077],[-106.606607,45.604391],[-106.60661,45.608011],[-106.606622,45.611642],[-106.606634,45.615273],[-106.601061,45.615264],[-106.60012,45.615263],[-106.595907,45.615257],[-106.594966,45.615256],[-106.590752,45.615252],[-106.589811,45.615251],[-106.585596,45.615247],[-106.584655,45.615247],[-106.584677,45.611681],[-106.584699,45.608058],[-106.584717,45.604435]]]}},{"type":"Feature","properties":{"sec":"12","frstdivid":"MT200030S0420E0SN120"},"geometry":{"type":"Polygon","coordinates":[[[-106.497075,45.600757],[-106.491907,45.600729],[-106.486739,45.600701],[-106.48157,45.600672],[-106.48157,45.600591],[-106.481574,45.597057],[-106.481574,45.59697],[-106.481572,45.593444],[-106.481572,45.593351],[-106.48157,45.589832],[-106.48157,45.589734],[-106.481573,45.58622],[-106.486742,45.586241],[-106.491913,45.586265],[-106.497081,45.586286],[-106.502249,45.586307],[-106.502248,45.589925],[-106.502246,45.593542],[-106.502244,45.597164],[-106.502242,45.600786],[-106.497075,45.600757]]]}},{"type":"Feature","properties":{"sec":"26","frstdivid":"MT200030S0420E0SN260"},"geometry":{"type":"Polygon","coordinates":[[[-106.520222,45.542863],[-106.522795,45.542862],[-106.522795,45.546466],[-106.522793,45.550072],[-106.522794,45.553696],[-106.522797,45.557315],[-106.517643,45.557321],[-106.512486,45.557325],[-106.507353,45.557336],[-106.502218,45.557346],[-106.502216,45.555537],[-106.502215,45.553729],[-106.502207,45.550112],[-106.502204,45.54649],[-106.502198,45.542872],[-106.507345,45.542869],[-106.512496,45.542868],[-106.517649,45.542864],[-106.520222,45.542863]]]}},{"type":"Feature","properties":{"sec":"11","frstdivid":"MT200030S0420E0SN110"},"geometry":{"type":"Polygon","coordinates":[[[-106.502244,45.597164],[-106.502246,45.593542],[-106.502248,45.589925],[-106.502249,45.586307],[-106.507389,45.58631],[-106.512526,45.586313],[-106.517663,45.586316],[-106.5228,45.586319],[-106.522806,45.589942],[-106.522812,45.593564],[-106.522818,45.597186],[-106.522821,45.600805],[-106.517676,45.600802],[-106.51253,45.600799],[-106.507386,45.600792],[-106.502242,45.600786],[-106.502244,45.597164]]]}},{"type":"Feature","properties":{"sec":"34","frstdivid":"MT200030S0420E0SN340"},"geometry":{"type":"Polygon","coordinates":[[[-106.527919,45.528386],[-106.533064,45.528388],[-106.538204,45.52839],[-106.543349,45.528388],[-106.54335,45.532004],[-106.543355,45.535624],[-106.543364,45.539246],[-106.543367,45.54287],[-106.538229,45.542873],[-106.535656,45.542872],[-106.533084,45.542871],[-106.527941,45.542865],[-106.522795,45.542862],[-106.522786,45.539247],[-106.522785,45.535624],[-106.522779,45.532005],[-106.522775,45.528386],[-106.527919,45.528386]]]}},{"type":"Feature","properties":{"sec":"07","frstdivid":"MT200030S0420E0SN070"},"geometry":{"type":"Polygon","coordinates":[[[-106.584732,45.600812],[-106.584719,45.597186],[-106.584706,45.593561],[-106.584694,45.589936],[-106.584681,45.586311],[-106.589825,45.586309],[-106.594969,45.586308],[-106.600116,45.586307],[-106.606591,45.586303],[-106.606591,45.589928],[-106.60659,45.593553],[-106.606598,45.597161],[-106.606606,45.60077],[-106.600199,45.600781],[-106.595041,45.600792],[-106.589887,45.600803],[-106.584732,45.600812]]]}},{"type":"Feature","properties":{"sec":"01","frstdivid":"MT200030S0420E0SN010"},"geometry":{"type":"Polygon","coordinates":[[[-106.492808,45.615165],[-106.491867,45.615165],[-106.487657,45.615163],[-106.486716,45.615162],[-106.482506,45.61516],[-106.481565,45.615159],[-106.481571,45.612927],[-106.481571,45.611539],[-106.48157,45.607915],[-106.48157,45.607833],[-106.481569,45.604291],[-106.481569,45.604209],[-106.48157,45.600672],[-106.486739,45.600701],[-106.491907,45.600729],[-106.497075,45.600757],[-106.502242,45.600786],[-106.502223,45.604411],[-106.502204,45.608036],[-106.502186,45.611664],[-106.50217,45.61517],[-106.497959,45.615168],[-106.497018,45.615168],[-106.492808,45.615165]]]}},{"type":"Feature","properties":{"sec":"04","frstdivid":"MT200030S0420E0SN040"},"geometry":{"type":"Polygon","coordinates":[[[-106.564072,45.604404],[-106.564057,45.60803],[-106.564043,45.611656],[-106.564028,45.615223],[-106.559812,45.615221],[-106.558871,45.61522],[-106.554655,45.615218],[-106.553714,45.615217],[-106.549498,45.615215],[-106.548557,45.615214],[-106.544341,45.615212],[-106.5434,45.615211],[-106.543419,45.611634],[-106.543438,45.608019],[-106.543459,45.604398],[-106.543481,45.600778],[-106.548629,45.600773],[-106.553778,45.600772],[-106.558932,45.600775],[-106.564087,45.600779],[-106.564072,45.604404]]]}},{"type":"Feature","properties":{"sec":"30","frstdivid":"MT200030S0420E0SN300"},"geometry":{"type":"Polygon","coordinates":[[[-106.584616,45.546487],[-106.584613,45.542867],[-106.589766,45.542866],[-106.59492,45.542863],[-106.600072,45.54286],[-106.606546,45.54286],[-106.606543,45.546483],[-106.606544,45.550108],[-106.606553,45.553729],[-106.606562,45.557351],[-106.600099,45.557346],[-106.594939,45.55734],[-106.589779,45.557341],[-106.584613,45.557341],[-106.584614,45.553721],[-106.584618,45.550107],[-106.584616,45.546487]]]}},{"type":"Feature","properties":{"sec":"18","frstdivid":"MT200030S0420E0SN180"},"geometry":{"type":"Polygon","coordinates":[[[-106.584678,45.582691],[-106.584674,45.579071],[-106.584667,45.57545],[-106.584664,45.57364],[-106.584661,45.571829],[-106.589815,45.571828],[-106.594975,45.571829],[-106.600128,45.571827],[-106.606573,45.571824],[-106.606575,45.575441],[-106.606577,45.579059],[-106.606584,45.582681],[-106.606591,45.586303],[-106.600116,45.586307],[-106.594969,45.586308],[-106.589825,45.586309],[-106.584681,45.586311],[-106.584678,45.582691]]]}},{"type":"Feature","properties":{"sec":"32","frstdivid":"MT200030S0420E0SN320"},"geometry":{"type":"Polygon","coordinates":[[[-106.569165,45.542883],[-106.564008,45.542876],[-106.564001,45.539257],[-106.563993,45.535637],[-106.563986,45.532019],[-106.563977,45.528399],[-106.569129,45.528398],[-106.574278,45.528397],[-106.579429,45.528391],[-106.584579,45.52839],[-106.584592,45.53201],[-106.584598,45.535627],[-106.584609,45.539247],[-106.584613,45.542867],[-106.579469,45.542881],[-106.574321,45.542895],[-106.569165,45.542883]]]}},{"type":"Feature","properties":{"sec":"02","frstdivid":"MT200030S0420E0SN020"},"geometry":{"type":"Polygon","coordinates":[[[-106.508261,45.615176],[-106.507321,45.615175],[-106.50311,45.615171],[-106.50217,45.61517],[-106.502186,45.611664],[-106.502204,45.608036],[-106.502223,45.604411],[-106.502242,45.600786],[-106.507386,45.600792],[-106.51253,45.600799],[-106.517676,45.600802],[-106.522821,45.600805],[-106.522812,45.604424],[-106.522799,45.608042],[-106.522789,45.611661],[-106.52278,45.615193],[-106.518567,45.615187],[-106.517626,45.615187],[-106.513413,45.615181],[-106.512472,45.615181],[-106.508261,45.615176]]]}},{"type":"Feature","properties":{"sec":"27","frstdivid":"MT200030S0420E0SN270"},"geometry":{"type":"Polygon","coordinates":[[[-106.522795,45.542862],[-106.527941,45.542865],[-106.533084,45.542871],[-106.535656,45.542872],[-106.538229,45.542873],[-106.543367,45.54287],[-106.543371,45.544678],[-106.543374,45.546486],[-106.543378,45.550104],[-106.543379,45.551915],[-106.54338,45.553726],[-106.54338,45.557347],[-106.538234,45.557339],[-106.533088,45.557331],[-106.527942,45.557323],[-106.522797,45.557315],[-106.522794,45.553696],[-106.522793,45.550072],[-106.522795,45.546466],[-106.522795,45.542862]]]}},{"type":"Feature","properties":{"sec":"31","frstdivid":"MT200030S0420E0SN310"},"geometry":{"type":"Polygon","coordinates":[[[-106.59492,45.542863],[-106.589766,45.542866],[-106.584613,45.542867],[-106.584609,45.539247],[-106.584598,45.535627],[-106.584592,45.53201],[-106.584579,45.52839],[-106.58973,45.528391],[-106.594879,45.528394],[-106.600022,45.528394],[-106.606536,45.528394],[-106.606533,45.532012],[-106.606534,45.535629],[-106.606541,45.539243],[-106.606546,45.54286],[-106.600072,45.54286],[-106.59492,45.542863]]]}},{"type":"Feature","properties":{"sec":"14","frstdivid":"MT200030S0420E0SN140"},"geometry":{"type":"Polygon","coordinates":[[[-106.517648,45.571819],[-106.522804,45.571812],[-106.522803,45.575439],[-106.522802,45.579066],[-106.522801,45.582692],[-106.5228,45.586319],[-106.517663,45.586316],[-106.512526,45.586313],[-106.507389,45.58631],[-106.502249,45.586307],[-106.502242,45.582686],[-106.502236,45.579065],[-106.502229,45.575444],[-106.502223,45.571823],[-106.507355,45.571824],[-106.51249,45.571825],[-106.517648,45.571819]]]}},{"type":"Feature","properties":{"sec":"19","frstdivid":"MT200030S0420E0SN190"},"geometry":{"type":"Polygon","coordinates":[[[-106.584632,45.560963],[-106.584613,45.557341],[-106.589779,45.557341],[-106.594939,45.55734],[-106.600099,45.557346],[-106.606562,45.557351],[-106.606566,45.560972],[-106.60657,45.564593],[-106.606575,45.568209],[-106.606573,45.571824],[-106.600128,45.571827],[-106.594975,45.571829],[-106.589815,45.571828],[-106.584661,45.571829],[-106.584651,45.568204],[-106.584648,45.566392],[-106.584646,45.564581],[-106.584632,45.560963]]]}},{"type":"Feature","properties":{"sec":"23","frstdivid":"MT200030S0420E0SN230"},"geometry":{"type":"Polygon","coordinates":[[[-106.517643,45.557321],[-106.522797,45.557315],[-106.5228,45.560942],[-106.522803,45.564569],[-106.522804,45.568191],[-106.522804,45.571812],[-106.517648,45.571819],[-106.51249,45.571825],[-106.507355,45.571824],[-106.502223,45.571823],[-106.502221,45.568203],[-106.502219,45.564583],[-106.502218,45.560965],[-106.502218,45.557346],[-106.507353,45.557336],[-106.512486,45.557325],[-106.517643,45.557321]]]}},{"type":"Feature","properties":{"sec":"33","frstdivid":"MT200030S0420E0SN330"},"geometry":{"type":"Polygon","coordinates":[[[-106.543355,45.535624],[-106.54335,45.532004],[-106.543349,45.528388],[-106.548507,45.528387],[-106.553667,45.528394],[-106.558821,45.528396],[-106.563977,45.528399],[-106.563986,45.532019],[-106.563993,45.535637],[-106.564001,45.539257],[-106.564008,45.542876],[-106.558841,45.542876],[-106.553682,45.542876],[-106.548523,45.542875],[-106.543367,45.54287],[-106.543364,45.539246],[-106.543355,45.535624]]]}},{"type":"Feature","properties":{"sec":"08","frstdivid":"MT200030S0420E0SN080"},"geometry":{"type":"Polygon","coordinates":[[[-106.584694,45.589936],[-106.584706,45.593561],[-106.584719,45.597186],[-106.584732,45.600812],[-106.579569,45.600803],[-106.574409,45.600795],[-106.569247,45.600787],[-106.564087,45.600779],[-106.564084,45.59716],[-106.564081,45.593542],[-106.564076,45.589925],[-106.564074,45.586305],[-106.56923,45.586308],[-106.57438,45.586309],[-106.579531,45.58631],[-106.584681,45.586311],[-106.584694,45.589936]]]}},{"type":"Feature","properties":{"sec":"35","frstdivid":"MT200030S0420E0SN350"},"geometry":{"type":"Polygon","coordinates":[[[-106.522779,45.532005],[-106.522785,45.535624],[-106.522786,45.539247],[-106.522795,45.542862],[-106.520222,45.542863],[-106.517649,45.542864],[-106.512496,45.542868],[-106.507345,45.542869],[-106.502198,45.542872],[-106.502193,45.539253],[-106.50219,45.535628],[-106.502188,45.532008],[-106.502186,45.528388],[-106.507337,45.528386],[-106.512479,45.528385],[-106.517627,45.528386],[-106.522775,45.528386],[-106.522779,45.532005]]]}},{"type":"Feature","properties":{"sec":"24","frstdivid":"MT200030S0420E0SN240"},"geometry":{"type":"Polygon","coordinates":[[[-106.49707,45.557329],[-106.502218,45.557346],[-106.502218,45.560965],[-106.502219,45.564583],[-106.502221,45.568203],[-106.502223,45.571823],[-106.497069,45.571814],[-106.491915,45.571804],[-106.486754,45.571768],[-106.481593,45.571731],[-106.481593,45.571635],[-106.481596,45.568118],[-106.481596,45.568012],[-106.481597,45.564507],[-106.481597,45.56439],[-106.481599,45.5609],[-106.481599,45.560768],[-106.481609,45.557292],[-106.486768,45.5573],[-106.491924,45.557311],[-106.49707,45.557329]]]}}]}