{"type":"FeatureCollection","note":"BLM Public Land Survey System. Provided by the Bureau of Land Management as is. These data are neither legal documents nor land surveys and must not be used as such.","features":[{"type":"Feature","properties":{"sec":"07","frstdivid":"WY060560N0660W0SN070"},"geometry":{"type":"Polygon","coordinates":[[[-104.826047,44.859324],[-104.820958,44.859323],[-104.815869,44.859327],[-104.81078,44.859332],[-104.810777,44.855711],[-104.810773,44.852089],[-104.81077,44.848468],[-104.810767,44.844847],[-104.815859,44.844846],[-104.820951,44.844845],[-104.826042,44.844846],[-104.830286,44.844847],[-104.830277,44.845343],[-104.830276,44.848467],[-104.830276,44.849046],[-104.830274,44.852086],[-104.830274,44.852749],[-104.830273,44.855706],[-104.830273,44.856452],[-104.830271,44.859326],[-104.826047,44.859324]]]}},{"type":"Feature","properties":{"sec":"31","frstdivid":"WY060560N0660W0SN310"},"geometry":{"type":"Polygon","coordinates":[[[-104.815817,44.786938],[-104.8209,44.786936],[-104.825982,44.786936],[-104.831065,44.786935],[-104.831102,44.790555],[-104.831102,44.790588],[-104.831139,44.794175],[-104.831139,44.794242],[-104.831192,44.797794],[-104.831194,44.797878],[-104.831246,44.801414],[-104.826027,44.801413],[-104.820941,44.801412],[-104.815855,44.801413],[-104.810769,44.801415],[-104.81076,44.797796],[-104.810751,44.794177],[-104.810743,44.790558],[-104.810734,44.78694],[-104.815817,44.786938]]]}},{"type":"Feature","properties":{"sec":"18","frstdivid":"WY060560N0660W0SN180"},"geometry":{"type":"Polygon","coordinates":[[[-104.830499,44.833989],[-104.830492,44.834357],[-104.830428,44.837608],[-104.83042,44.838019],[-104.830357,44.841227],[-104.830349,44.841681],[-104.830286,44.844847],[-104.826042,44.844846],[-104.820951,44.844845],[-104.815859,44.844846],[-104.810767,44.844847],[-104.810768,44.841227],[-104.810768,44.841212],[-104.810773,44.837645],[-104.810773,44.837607],[-104.810777,44.833987],[-104.810782,44.83051],[-104.810782,44.830367],[-104.814768,44.830368],[-104.815869,44.830367],[-104.820956,44.830366],[-104.824941,44.830368],[-104.826042,44.830369],[-104.830571,44.830369],[-104.830564,44.830695],[-104.830499,44.833989]]]}},{"type":"Feature","properties":{"sec":"30","frstdivid":"WY060560N0660W0SN300"},"geometry":{"type":"Polygon","coordinates":[[[-104.83106,44.808653],[-104.831058,44.80873],[-104.831009,44.812272],[-104.831007,44.812389],[-104.830959,44.815892],[-104.826074,44.815888],[-104.820988,44.815885],[-104.8159,44.815887],[-104.810813,44.81589],[-104.810802,44.812271],[-104.810791,44.808652],[-104.81078,44.805033],[-104.810769,44.801415],[-104.815855,44.801413],[-104.820941,44.801412],[-104.826027,44.801413],[-104.831246,44.801414],[-104.831248,44.801515],[-104.831155,44.805033],[-104.831153,44.805123],[-104.83106,44.808653]]]}},{"type":"Feature","properties":{"sec":"19","frstdivid":"WY060560N0660W0SN190"},"geometry":{"type":"Polygon","coordinates":[[[-104.815869,44.830367],[-104.814768,44.830368],[-104.810782,44.830367],[-104.81079,44.826747],[-104.810798,44.823128],[-104.810806,44.819509],[-104.810813,44.81589],[-104.8159,44.815887],[-104.820988,44.815885],[-104.826074,44.815888],[-104.830959,44.815892],[-104.830957,44.816048],[-104.830855,44.819511],[-104.830851,44.819709],[-104.830751,44.82313],[-104.830745,44.823371],[-104.830656,44.82675],[-104.830652,44.826914],[-104.830649,44.827033],[-104.830571,44.830369],[-104.826042,44.830369],[-104.824941,44.830368],[-104.820956,44.830366],[-104.815869,44.830367]]]}},{"type":"Feature","properties":{"sec":"06","frstdivid":"WY060560N0660W0SN060"},"geometry":{"type":"Polygon","coordinates":[[[-104.81078,44.859332],[-104.815869,44.859327],[-104.820958,44.859323],[-104.826047,44.859324],[-104.830271,44.859326],[-104.830271,44.860155],[-104.830268,44.862946],[-104.830267,44.863858],[-104.830264,44.866566],[-104.830263,44.867561],[-104.83026,44.870185],[-104.83026,44.871264],[-104.830256,44.873805],[-104.830256,44.874806],[-104.830254,44.876989],[-104.830254,44.877425],[-104.830251,44.880608],[-104.829826,44.880609],[-104.826047,44.880613],[-104.824734,44.880614],[-104.820955,44.880615],[-104.819642,44.880616],[-104.815864,44.880618],[-104.81455,44.880618],[-104.810772,44.88062],[-104.810773,44.877434],[-104.810774,44.873814],[-104.810775,44.870194],[-104.810776,44.866574],[-104.810778,44.862953],[-104.81078,44.859332]]]}}]}