{"type":"FeatureCollection","note":"BLM Public Land Survey System. Provided by the Bureau of Land Management as is. These data are neither legal documents nor land surveys and must not be used as such.","features":[{"type":"Feature","properties":{"sec":"01","frstdivid":"MT200060S0380E0SN010"},"geometry":{"type":"Polygon","coordinates":[[[-107.013194,45.339718],[-107.018327,45.339716],[-107.019793,45.339716],[-107.024857,45.339732],[-107.029984,45.339749],[-107.029984,45.340541],[-107.029966,45.343384],[-107.029962,45.344176],[-107.029943,45.347019],[-107.029943,45.347811],[-107.029931,45.350645],[-107.02993,45.351437],[-107.02992,45.353958],[-107.029034,45.353958],[-107.024763,45.353962],[-107.023886,45.353963],[-107.019702,45.353967],[-107.018188,45.353982],[-107.013856,45.354019],[-107.013055,45.354027],[-107.01309,45.35045],[-107.013125,45.346872],[-107.013159,45.343295],[-107.013194,45.339718]]]}},{"type":"Feature","properties":{"sec":"04","frstdivid":"MT200060S0380E0SN040"},"geometry":{"type":"Polygon","coordinates":[[[-107.07105,45.351474],[-107.071055,45.347858],[-107.07106,45.344244],[-107.071065,45.34063],[-107.076214,45.340661],[-107.081364,45.340691],[-107.086513,45.340722],[-107.091662,45.340753],[-107.091666,45.344381],[-107.091669,45.347515],[-107.090832,45.347515],[-107.086511,45.347519],[-107.085737,45.347519],[-107.081354,45.347523],[-107.080642,45.347523],[-107.080642,45.348018],[-107.080644,45.351155],[-107.080645,45.351656],[-107.080646,45.35389],[-107.0762,45.353897],[-107.075472,45.353899],[-107.071047,45.353906],[-107.07105,45.351474]]]}},{"type":"Feature","properties":{"sec":"03","frstdivid":"MT200060S0380E0SN030"},"geometry":{"type":"Polygon","coordinates":[[[-107.050511,45.340586],[-107.055649,45.340597],[-107.060788,45.340608],[-107.065926,45.340619],[-107.071065,45.34063],[-107.07106,45.344244],[-107.071055,45.347858],[-107.07105,45.351474],[-107.071047,45.353906],[-107.070297,45.353907],[-107.065905,45.353909],[-107.065116,45.35391],[-107.060763,45.353912],[-107.059935,45.353912],[-107.05562,45.353922],[-107.054775,45.353924],[-107.050477,45.353934],[-107.050482,45.351437],[-107.05049,45.347819],[-107.050501,45.344202],[-107.050511,45.340586]]]}},{"type":"Feature","properties":{"sec":"02","frstdivid":"MT200060S0380E0SN020"},"geometry":{"type":"Polygon","coordinates":[[[-107.029931,45.350645],[-107.029943,45.347811],[-107.029943,45.347019],[-107.029962,45.344176],[-107.029966,45.343384],[-107.029984,45.340541],[-107.035116,45.340552],[-107.040248,45.340563],[-107.045379,45.340574],[-107.050511,45.340586],[-107.050501,45.344202],[-107.05049,45.347819],[-107.050482,45.351437],[-107.050477,45.353934],[-107.049615,45.353936],[-107.047035,45.353941],[-107.045336,45.353945],[-107.044455,45.353946],[-107.040196,45.353955],[-107.039296,45.353957],[-107.035058,45.353957],[-107.034165,45.353957],[-107.02992,45.353958],[-107.02993,45.351437],[-107.029931,45.350645]]]}},{"type":"Feature","properties":{"sec":"05","frstdivid":"MT200060S0380E0SN050"},"geometry":{"type":"Polygon","coordinates":[[[-107.091662,45.340753],[-107.096782,45.340747],[-107.101902,45.34074],[-107.107021,45.340734],[-107.112194,45.340727],[-107.11217,45.343946],[-107.112169,45.344348],[-107.11214,45.347514],[-107.111362,45.347514],[-107.108785,45.347512],[-107.107022,45.347511],[-107.106208,45.347511],[-107.101905,45.347508],[-107.101054,45.347508],[-107.096787,45.347511],[-107.095943,45.347512],[-107.091669,45.347515],[-107.091666,45.344381],[-107.091662,45.340753]]]}},{"type":"Feature","properties":{"sec":"24","frstdivid":"MT200060S0380E0SN240"},"geometry":{"type":"Polygon","coordinates":[[[-107.013114,45.300446],[-107.013065,45.296881],[-107.018275,45.296887],[-107.019549,45.296888],[-107.025032,45.296887],[-107.030157,45.296885],[-107.030157,45.297133],[-107.030133,45.300444],[-107.030131,45.300756],[-107.030108,45.304003],[-107.030108,45.30438],[-107.030086,45.307561],[-107.030083,45.308004],[-107.030061,45.311119],[-107.024918,45.311125],[-107.019822,45.311131],[-107.018482,45.311132],[-107.013259,45.311141],[-107.01321,45.307576],[-107.013162,45.304011],[-107.013114,45.300446]]]}},{"type":"Feature","properties":{"sec":"32","frstdivid":"MT200060S0380E0SN320"},"geometry":{"type":"Polygon","coordinates":[[[-107.091747,45.279162],[-107.091747,45.278258],[-107.091748,45.277354],[-107.091747,45.275546],[-107.091748,45.274641],[-107.091748,45.273737],[-107.091749,45.272833],[-107.09175,45.271929],[-107.091751,45.271025],[-107.091752,45.27012],[-107.091752,45.269216],[-107.091754,45.268312],[-107.096877,45.268308],[-107.102,45.268304],[-107.107123,45.2683],[-107.112357,45.268313],[-107.112354,45.271528],[-107.112353,45.27193],[-107.11235,45.275145],[-107.112351,45.275547],[-107.112349,45.277356],[-107.112348,45.278261],[-107.112347,45.278763],[-107.112346,45.279165],[-107.112344,45.282382],[-107.112344,45.282783],[-107.107089,45.282772],[-107.101975,45.282774],[-107.096861,45.282777],[-107.091747,45.282779],[-107.091747,45.279162]]]}},{"type":"Feature","properties":{"sec":"17","frstdivid":"MT200060S0380E0SN170"},"geometry":{"type":"Polygon","coordinates":[[[-107.091667,45.31537],[-107.09167,45.311751],[-107.096796,45.311744],[-107.101922,45.311737],[-107.107048,45.31173],[-107.112318,45.311728],[-107.112312,45.314952],[-107.112312,45.315353],[-107.112305,45.318578],[-107.112304,45.318979],[-107.112293,45.322203],[-107.112292,45.322605],[-107.112279,45.325829],[-107.112278,45.326231],[-107.107035,45.326229],[-107.101909,45.326228],[-107.096783,45.326228],[-107.091657,45.326227],[-107.091661,45.322608],[-107.091664,45.318989],[-107.091667,45.31537]]]}},{"type":"Feature","properties":{"sec":"20","frstdivid":"MT200060S0380E0SN200"},"geometry":{"type":"Polygon","coordinates":[[[-107.091705,45.300888],[-107.091716,45.297267],[-107.096833,45.29726],[-107.101949,45.297254],[-107.107066,45.297247],[-107.112332,45.297249],[-107.112329,45.300467],[-107.112328,45.300869],[-107.112325,45.304087],[-107.112324,45.304488],[-107.112322,45.307707],[-107.112321,45.308108],[-107.112318,45.311326],[-107.112318,45.311728],[-107.107048,45.31173],[-107.101922,45.311737],[-107.096796,45.311744],[-107.09167,45.311751],[-107.091682,45.30813],[-107.091693,45.304509],[-107.091705,45.300888]]]}},{"type":"Feature","properties":{"sec":"21","frstdivid":"MT200060S0380E0SN210"},"geometry":{"type":"Polygon","coordinates":[[[-107.086589,45.297259],[-107.091716,45.297267],[-107.091705,45.300888],[-107.091693,45.304509],[-107.091682,45.30813],[-107.09167,45.311751],[-107.086538,45.31174],[-107.081406,45.311729],[-107.076274,45.311718],[-107.071142,45.311706],[-107.071158,45.308089],[-107.071174,45.304471],[-107.07119,45.300854],[-107.071207,45.297237],[-107.076334,45.297244],[-107.081461,45.297252],[-107.086589,45.297259]]]}},{"type":"Feature","properties":{"sec":"36","frstdivid":"MT200060S0380E0SN360"},"geometry":{"type":"Polygon","coordinates":[[[-107.025173,45.268356],[-107.030299,45.268331],[-107.030276,45.271909],[-107.030223,45.275487],[-107.030251,45.279073],[-107.030247,45.282658],[-107.025132,45.282646],[-107.019277,45.282623],[-107.018083,45.282624],[-107.012966,45.282634],[-107.013019,45.279075],[-107.013072,45.275516],[-107.013125,45.271957],[-107.013178,45.268398],[-107.018314,45.268382],[-107.019463,45.268381],[-107.025173,45.268356]]]}},{"type":"Feature","properties":{"sec":"13","frstdivid":"MT200060S0380E0SN130"},"geometry":{"type":"Polygon","coordinates":[[[-107.013259,45.311141],[-107.018482,45.311132],[-107.019822,45.311131],[-107.024918,45.311125],[-107.030061,45.311119],[-107.03006,45.311627],[-107.030055,45.31471],[-107.030055,45.315245],[-107.03005,45.318301],[-107.03005,45.318863],[-107.030045,45.321892],[-107.030045,45.322481],[-107.03004,45.325483],[-107.024916,45.325488],[-107.019962,45.325494],[-107.018565,45.325494],[-107.013349,45.325487],[-107.013327,45.3219],[-107.013304,45.318314],[-107.013281,45.314727],[-107.013259,45.311141]]]}},{"type":"Feature","properties":{"sec":"10","frstdivid":"MT200060S0380E0SN100"},"geometry":{"type":"Polygon","coordinates":[[[-107.050549,45.326128],[-107.055689,45.32614],[-107.060828,45.32615],[-107.063398,45.326155],[-107.065969,45.326161],[-107.071108,45.326172],[-107.071098,45.329786],[-107.071087,45.333401],[-107.071076,45.337016],[-107.071065,45.34063],[-107.065926,45.340619],[-107.060788,45.340608],[-107.055649,45.340597],[-107.050511,45.340586],[-107.05052,45.336971],[-107.05053,45.333357],[-107.050539,45.329742],[-107.050549,45.326128]]]}},{"type":"Feature","properties":{"sec":"33","frstdivid":"MT200060S0380E0SN330"},"geometry":{"type":"Polygon","coordinates":[[[-107.071262,45.268313],[-107.076384,45.268313],[-107.081507,45.268313],[-107.08663,45.268312],[-107.089192,45.268312],[-107.090473,45.268312],[-107.091754,45.268312],[-107.091752,45.269216],[-107.091752,45.27012],[-107.091751,45.271025],[-107.09175,45.271929],[-107.091749,45.272833],[-107.091748,45.273737],[-107.091748,45.274641],[-107.091747,45.275546],[-107.091748,45.277354],[-107.091747,45.278258],[-107.091747,45.279162],[-107.091747,45.282779],[-107.086622,45.282777],[-107.084059,45.282776],[-107.082777,45.282775],[-107.081496,45.282775],[-107.076371,45.282773],[-107.071245,45.282771],[-107.071245,45.279157],[-107.071244,45.275542],[-107.071253,45.271927],[-107.071262,45.268313]]]}},{"type":"Feature","properties":{"sec":"34","frstdivid":"MT200060S0380E0SN340"},"geometry":{"type":"Polygon","coordinates":[[[-107.050777,45.268312],[-107.055898,45.268314],[-107.061019,45.268314],[-107.06614,45.268314],[-107.071262,45.268313],[-107.071253,45.271927],[-107.071244,45.275542],[-107.071245,45.279157],[-107.071245,45.282771],[-107.066111,45.282765],[-107.060978,45.282759],[-107.055844,45.282752],[-107.05071,45.282744],[-107.050719,45.279136],[-107.050723,45.275528],[-107.050751,45.27192],[-107.050777,45.268312]]]}},{"type":"Feature","properties":{"sec":"27","frstdivid":"MT200060S0380E0SN270"},"geometry":{"type":"Polygon","coordinates":[[[-107.05071,45.282744],[-107.055844,45.282752],[-107.060978,45.282759],[-107.066111,45.282765],[-107.071245,45.282771],[-107.071237,45.286387],[-107.071227,45.290004],[-107.071217,45.29362],[-107.071207,45.297237],[-107.066068,45.297228],[-107.06093,45.297219],[-107.055791,45.297209],[-107.050652,45.297199],[-107.050667,45.293585],[-107.050682,45.289972],[-107.050697,45.286358],[-107.05071,45.282744]]]}},{"type":"Feature","properties":{"sec":"16","frstdivid":"MT200060S0380E0SN160"},"geometry":{"type":"Polygon","coordinates":[[[-107.071142,45.311706],[-107.076274,45.311718],[-107.081406,45.311729],[-107.086538,45.31174],[-107.09167,45.311751],[-107.091667,45.31537],[-107.091664,45.318989],[-107.091661,45.322608],[-107.091657,45.326227],[-107.08652,45.326213],[-107.081383,45.3262],[-107.076246,45.326186],[-107.071108,45.326172],[-107.071117,45.322555],[-107.071125,45.318939],[-107.071134,45.315323],[-107.071142,45.311706]]]}},{"type":"Feature","properties":{"sec":"23","frstdivid":"MT200060S0380E0SN230"},"geometry":{"type":"Polygon","coordinates":[[[-107.030061,45.311119],[-107.030083,45.308004],[-107.030086,45.307561],[-107.030108,45.30438],[-107.030108,45.304003],[-107.030131,45.300756],[-107.030133,45.300444],[-107.030157,45.297133],[-107.035281,45.29715],[-107.040404,45.297167],[-107.045528,45.297183],[-107.050652,45.297199],[-107.050639,45.300816],[-107.050627,45.304433],[-107.050614,45.30805],[-107.050601,45.311667],[-107.045466,45.311657],[-107.040331,45.311646],[-107.037763,45.311642],[-107.03648,45.311639],[-107.035196,45.311637],[-107.03006,45.311627],[-107.030061,45.311119]]]}},{"type":"Feature","properties":{"sec":"08","frstdivid":"MT200060S0380E0SN080"},"geometry":{"type":"Polygon","coordinates":[[[-107.091657,45.326227],[-107.096783,45.326228],[-107.101909,45.326228],[-107.107035,45.326229],[-107.112278,45.326231],[-107.112262,45.329453],[-107.11226,45.329855],[-107.112243,45.333077],[-107.112242,45.333479],[-107.112221,45.336701],[-107.112219,45.337103],[-107.112196,45.340325],[-107.112194,45.340727],[-107.107021,45.340734],[-107.101902,45.34074],[-107.096782,45.340747],[-107.091662,45.340753],[-107.091662,45.337122],[-107.091661,45.33349],[-107.091659,45.329859],[-107.091657,45.326227]]]}},{"type":"Feature","properties":{"sec":"26","frstdivid":"MT200060S0380E0SN260"},"geometry":{"type":"Polygon","coordinates":[[[-107.030157,45.296885],[-107.030179,45.293514],[-107.03018,45.293328],[-107.030202,45.289896],[-107.030202,45.289771],[-107.030225,45.286277],[-107.030225,45.286214],[-107.030247,45.282658],[-107.035363,45.282686],[-107.040478,45.282708],[-107.045594,45.282727],[-107.05071,45.282744],[-107.050697,45.286358],[-107.050682,45.289972],[-107.050667,45.293585],[-107.050652,45.297199],[-107.045528,45.297183],[-107.040404,45.297167],[-107.035281,45.29715],[-107.030157,45.297133],[-107.030157,45.296885]]]}},{"type":"Feature","properties":{"sec":"22","frstdivid":"MT200060S0380E0SN220"},"geometry":{"type":"Polygon","coordinates":[[[-107.050652,45.297199],[-107.055791,45.297209],[-107.06093,45.297219],[-107.066068,45.297228],[-107.071207,45.297237],[-107.07119,45.300854],[-107.071174,45.304471],[-107.071158,45.308089],[-107.071142,45.311706],[-107.066007,45.311697],[-107.06344,45.311692],[-107.060872,45.311687],[-107.059588,45.311685],[-107.058304,45.311683],[-107.055736,45.311678],[-107.050601,45.311667],[-107.050614,45.30805],[-107.050627,45.304433],[-107.050639,45.300816],[-107.050652,45.297199]]]}},{"type":"Feature","properties":{"sec":"09","frstdivid":"MT200060S0380E0SN090"},"geometry":{"type":"Polygon","coordinates":[[[-107.071108,45.326172],[-107.076246,45.326186],[-107.081383,45.3262],[-107.08652,45.326213],[-107.091657,45.326227],[-107.091659,45.329859],[-107.091661,45.33349],[-107.091662,45.337122],[-107.091662,45.340753],[-107.086513,45.340722],[-107.081364,45.340691],[-107.076214,45.340661],[-107.071065,45.34063],[-107.071076,45.337016],[-107.071087,45.333401],[-107.071098,45.329786],[-107.071108,45.326172]]]}},{"type":"Feature","properties":{"sec":"29","frstdivid":"MT200060S0380E0SN290"},"geometry":{"type":"Polygon","coordinates":[[[-107.091747,45.282779],[-107.096861,45.282777],[-107.101975,45.282774],[-107.107089,45.282772],[-107.112344,45.282783],[-107.112344,45.285998],[-107.112344,45.2864],[-107.112343,45.289615],[-107.112342,45.290016],[-107.112338,45.293231],[-107.112338,45.293633],[-107.112332,45.296848],[-107.112332,45.297249],[-107.107066,45.297247],[-107.101949,45.297254],[-107.096833,45.29726],[-107.091716,45.297267],[-107.091724,45.293645],[-107.091732,45.290023],[-107.09174,45.286401],[-107.091747,45.282779]]]}},{"type":"Feature","properties":{"sec":"15","frstdivid":"MT200060S0380E0SN150"},"geometry":{"type":"Polygon","coordinates":[[[-107.050601,45.311667],[-107.055736,45.311678],[-107.058304,45.311683],[-107.059588,45.311685],[-107.060872,45.311687],[-107.06344,45.311692],[-107.066007,45.311697],[-107.071142,45.311706],[-107.071134,45.315323],[-107.071125,45.318939],[-107.071117,45.322555],[-107.071108,45.326172],[-107.065969,45.326161],[-107.063398,45.326155],[-107.060828,45.32615],[-107.055689,45.32614],[-107.050549,45.326128],[-107.050562,45.322513],[-107.050574,45.318897],[-107.050588,45.315282],[-107.050601,45.311667]]]}},{"type":"Feature","properties":{"sec":"28","frstdivid":"MT200060S0380E0SN280"},"geometry":{"type":"Polygon","coordinates":[[[-107.086622,45.282777],[-107.091747,45.282779],[-107.09174,45.286401],[-107.091732,45.290023],[-107.091724,45.293645],[-107.091716,45.297267],[-107.086589,45.297259],[-107.081461,45.297252],[-107.076334,45.297244],[-107.071207,45.297237],[-107.071217,45.29362],[-107.071227,45.290004],[-107.071237,45.286387],[-107.071245,45.282771],[-107.076371,45.282773],[-107.081496,45.282775],[-107.082777,45.282775],[-107.084059,45.282776],[-107.086622,45.282777]]]}},{"type":"Feature","properties":{"sec":"12","frstdivid":"MT200060S0380E0SN120"},"geometry":{"type":"Polygon","coordinates":[[[-107.013272,45.332602],[-107.013311,45.329045],[-107.013349,45.325487],[-107.018565,45.325494],[-107.019962,45.325494],[-107.024916,45.325488],[-107.03004,45.325483],[-107.03004,45.326099],[-107.030027,45.329049],[-107.030025,45.329709],[-107.030012,45.332616],[-107.030012,45.333319],[-107.029999,45.336182],[-107.029997,45.33693],[-107.029984,45.339749],[-107.024857,45.339732],[-107.019793,45.339716],[-107.018327,45.339716],[-107.013194,45.339718],[-107.013233,45.33616],[-107.013272,45.332602]]]}},{"type":"Feature","properties":{"sec":"14","frstdivid":"MT200060S0380E0SN140"},"geometry":{"type":"Polygon","coordinates":[[[-107.045466,45.311657],[-107.050601,45.311667],[-107.050588,45.315282],[-107.050574,45.318897],[-107.050562,45.322513],[-107.050549,45.326128],[-107.045422,45.32612],[-107.040294,45.326112],[-107.037731,45.326108],[-107.036449,45.326107],[-107.035167,45.326106],[-107.03004,45.326099],[-107.03004,45.325483],[-107.030045,45.322481],[-107.030045,45.321892],[-107.03005,45.318863],[-107.03005,45.318301],[-107.030055,45.315245],[-107.030055,45.31471],[-107.03006,45.311627],[-107.035196,45.311637],[-107.03648,45.311639],[-107.037763,45.311642],[-107.040331,45.311646],[-107.045466,45.311657]]]}},{"type":"Feature","properties":{"sec":"25","frstdivid":"MT200060S0380E0SN250"},"geometry":{"type":"Polygon","coordinates":[[[-107.012966,45.282634],[-107.018083,45.282624],[-107.019277,45.282623],[-107.025132,45.282646],[-107.030247,45.282658],[-107.030225,45.286214],[-107.030225,45.286277],[-107.030202,45.289771],[-107.030202,45.289896],[-107.03018,45.293328],[-107.030179,45.293514],[-107.030157,45.296885],[-107.025032,45.296887],[-107.019549,45.296888],[-107.018275,45.296887],[-107.013065,45.296881],[-107.013041,45.293319],[-107.013016,45.289758],[-107.012991,45.286196],[-107.012966,45.282634]]]}},{"type":"Feature","properties":{"sec":"35","frstdivid":"MT200060S0380E0SN350"},"geometry":{"type":"Polygon","coordinates":[[[-107.030299,45.268331],[-107.035418,45.268331],[-107.040537,45.268327],[-107.043097,45.268324],[-107.045657,45.26832],[-107.050777,45.268312],[-107.050751,45.27192],[-107.050723,45.275528],[-107.050719,45.279136],[-107.05071,45.282744],[-107.045594,45.282727],[-107.040478,45.282708],[-107.035363,45.282686],[-107.030247,45.282658],[-107.030251,45.279073],[-107.030223,45.275487],[-107.030276,45.271909],[-107.030299,45.268331]]]}},{"type":"Feature","properties":{"sec":"11","frstdivid":"MT200060S0380E0SN110"},"geometry":{"type":"Polygon","coordinates":[[[-107.029984,45.339749],[-107.029997,45.33693],[-107.029999,45.336182],[-107.030012,45.333319],[-107.030012,45.332616],[-107.030025,45.329709],[-107.030027,45.329049],[-107.03004,45.326099],[-107.035167,45.326106],[-107.036449,45.326107],[-107.037731,45.326108],[-107.040294,45.326112],[-107.045422,45.32612],[-107.050549,45.326128],[-107.050539,45.329742],[-107.05053,45.333357],[-107.05052,45.336971],[-107.050511,45.340586],[-107.045379,45.340574],[-107.040248,45.340563],[-107.035116,45.340552],[-107.029984,45.340541],[-107.029984,45.339749]]]}}]}