{"type":"FeatureCollection","note":"BLM Public Land Survey System. Provided by the Bureau of Land Management as is. These data are neither legal documents nor land surveys and must not be used as such.","features":[{"type":"Feature","properties":{"sec":"02","frstdivid":"WY060400N0640W0SN020"},"geometry":{"type":"Polygon","coordinates":[[[-104.515496,43.48017],[-104.51549,43.48017],[-104.510576,43.480185],[-104.510501,43.480186],[-104.505655,43.480201],[-104.505512,43.480201],[-104.500734,43.480216],[-104.500704,43.476393],[-104.500675,43.472729],[-104.500647,43.469066],[-104.500618,43.465402],[-104.505443,43.465352],[-104.510268,43.465302],[-104.515306,43.465284],[-104.520345,43.465266],[-104.520363,43.468934],[-104.520381,43.472603],[-104.520398,43.476272],[-104.520417,43.480155],[-104.515496,43.48017]]]}},{"type":"Feature","properties":{"sec":"27","frstdivid":"WY060400N0640W0SN270"},"geometry":{"type":"Polygon","coordinates":[[[-104.539681,43.42195],[-104.534789,43.42197],[-104.529897,43.42199],[-104.524984,43.421886],[-104.520071,43.421782],[-104.520048,43.418155],[-104.520025,43.414527],[-104.520003,43.410913],[-104.51998,43.407299],[-104.52489,43.407251],[-104.529801,43.407203],[-104.534683,43.407347],[-104.539565,43.407491],[-104.539629,43.411109],[-104.539693,43.414727],[-104.539687,43.418339],[-104.539681,43.42195]]]}},{"type":"Feature","properties":{"sec":"04","frstdivid":"WY060400N0640W0SN040"},"geometry":{"type":"Polygon","coordinates":[[[-104.559692,43.465257],[-104.559806,43.468752],[-104.559919,43.472246],[-104.559988,43.475958],[-104.560063,43.480051],[-104.555395,43.48006],[-104.555136,43.480061],[-104.550411,43.48007],[-104.550208,43.480071],[-104.545423,43.480082],[-104.545281,43.480083],[-104.540435,43.480094],[-104.540353,43.480095],[-104.540334,43.476254],[-104.540315,43.472613],[-104.540214,43.468989],[-104.540114,43.465365],[-104.545008,43.465338],[-104.549903,43.465311],[-104.554798,43.465284],[-104.559692,43.465257]]]}},{"type":"Feature","properties":{"sec":"08","frstdivid":"WY060400N0640W0SN080"},"geometry":{"type":"Polygon","coordinates":[[[-104.564613,43.465258],[-104.559692,43.465257],[-104.559717,43.461548],[-104.559741,43.457839],[-104.559698,43.454238],[-104.559656,43.450638],[-104.56461,43.450685],[-104.569564,43.450732],[-104.574416,43.450763],[-104.579268,43.450795],[-104.579297,43.454415],[-104.579326,43.458035],[-104.579351,43.461648],[-104.579376,43.465261],[-104.574455,43.46526],[-104.569534,43.465259],[-104.564613,43.465258]]]}},{"type":"Feature","properties":{"sec":"30","frstdivid":"WY060400N0640W0SN300"},"geometry":{"type":"Polygon","coordinates":[[[-104.59435,43.407466],[-104.599689,43.407547],[-104.599712,43.411162],[-104.599734,43.414777],[-104.599756,43.418393],[-104.599779,43.422008],[-104.594283,43.421976],[-104.589289,43.421947],[-104.584295,43.421919],[-104.579301,43.42189],[-104.579302,43.418268],[-104.579304,43.414645],[-104.57932,43.410942],[-104.579337,43.407238],[-104.584341,43.407314],[-104.589345,43.40739],[-104.59435,43.407466]]]}},{"type":"Feature","properties":{"sec":"23","frstdivid":"WY060400N0640W0SN230"},"geometry":{"type":"Polygon","coordinates":[[[-104.515259,43.436289],[-104.510289,43.43633],[-104.505319,43.436371],[-104.500349,43.436413],[-104.500322,43.43279],[-104.500295,43.429167],[-104.500268,43.425544],[-104.500242,43.421921],[-104.505206,43.421872],[-104.51017,43.421823],[-104.515121,43.421803],[-104.520071,43.421782],[-104.52011,43.425412],[-104.520148,43.429041],[-104.520189,43.432644],[-104.52023,43.436247],[-104.515259,43.436289]]]}},{"type":"Feature","properties":{"sec":"06","frstdivid":"WY060400N0640W0SN060"},"geometry":{"type":"Polygon","coordinates":[[[-104.594224,43.465375],[-104.599967,43.465427],[-104.600007,43.469059],[-104.600048,43.472692],[-104.600087,43.476324],[-104.600127,43.479956],[-104.595167,43.479963],[-104.594609,43.479964],[-104.590206,43.479971],[-104.589647,43.479971],[-104.585244,43.479978],[-104.584685,43.479979],[-104.580283,43.479986],[-104.579723,43.479988],[-104.579509,43.476098],[-104.579309,43.472484],[-104.579343,43.468873],[-104.579376,43.465261],[-104.584311,43.465296],[-104.589247,43.46533],[-104.594224,43.465375]]]}},{"type":"Feature","properties":{"sec":"32","frstdivid":"WY060400N0640W0SN320"},"geometry":{"type":"Polygon","coordinates":[[[-104.559278,43.39305],[-104.564255,43.393085],[-104.569232,43.39312],[-104.574208,43.393155],[-104.579185,43.39319],[-104.579253,43.39651],[-104.579321,43.399831],[-104.579329,43.403534],[-104.579337,43.407238],[-104.574307,43.407342],[-104.569278,43.407445],[-104.564287,43.407466],[-104.559297,43.407486],[-104.559274,43.403887],[-104.559251,43.400289],[-104.559265,43.396669],[-104.559278,43.39305]]]}},{"type":"Feature","properties":{"sec":"17","frstdivid":"WY060400N0640W0SN170"},"geometry":{"type":"Polygon","coordinates":[[[-104.579291,43.443607],[-104.57928,43.447201],[-104.579268,43.450795],[-104.574416,43.450763],[-104.569564,43.450732],[-104.56461,43.450685],[-104.559656,43.450638],[-104.559568,43.447045],[-104.55948,43.443453],[-104.559442,43.439859],[-104.559404,43.436264],[-104.564347,43.436301],[-104.56929,43.436337],[-104.574299,43.436351],[-104.579308,43.436364],[-104.5793,43.439985],[-104.579291,43.443607]]]}},{"type":"Feature","properties":{"sec":"26","frstdivid":"WY060400N0640W0SN260"},"geometry":{"type":"Polygon","coordinates":[[[-104.515047,43.407347],[-104.51998,43.407299],[-104.520003,43.410913],[-104.520025,43.414527],[-104.520048,43.418155],[-104.520071,43.421782],[-104.515121,43.421803],[-104.51017,43.421823],[-104.505206,43.421872],[-104.500242,43.421921],[-104.500253,43.418294],[-104.500265,43.414667],[-104.500256,43.411079],[-104.500248,43.407492],[-104.505181,43.407444],[-104.510114,43.407395],[-104.515047,43.407347]]]}},{"type":"Feature","properties":{"sec":"31","frstdivid":"WY060400N0640W0SN310"},"geometry":{"type":"Polygon","coordinates":[[[-104.599666,43.403932],[-104.599689,43.407547],[-104.59435,43.407466],[-104.589345,43.40739],[-104.584341,43.407314],[-104.579337,43.407238],[-104.579329,43.403534],[-104.579321,43.399831],[-104.579253,43.39651],[-104.579185,43.39319],[-104.584207,43.393165],[-104.589228,43.39314],[-104.59425,43.393114],[-104.599596,43.393087],[-104.59962,43.396702],[-104.599643,43.400317],[-104.599666,43.403932]]]}},{"type":"Feature","properties":{"sec":"34","frstdivid":"WY060400N0640W0SN340"},"geometry":{"type":"Polygon","coordinates":[[[-104.534769,43.39292],[-104.539601,43.393031],[-104.5396,43.396642],[-104.539599,43.400253],[-104.539582,43.403872],[-104.539565,43.407491],[-104.534683,43.407347],[-104.529801,43.407203],[-104.52489,43.407251],[-104.51998,43.407299],[-104.519993,43.403685],[-104.520006,43.400071],[-104.52002,43.396457],[-104.520033,43.392843],[-104.524985,43.392827],[-104.529937,43.39281],[-104.534769,43.39292]]]}},{"type":"Feature","properties":{"sec":"33","frstdivid":"WY060400N0640W0SN330"},"geometry":{"type":"Polygon","coordinates":[[[-104.559251,43.400289],[-104.559274,43.403887],[-104.559297,43.407486],[-104.554379,43.407492],[-104.549462,43.407499],[-104.544514,43.407495],[-104.539565,43.407491],[-104.539582,43.403872],[-104.539599,43.400253],[-104.5396,43.396642],[-104.539601,43.393031],[-104.544525,43.393021],[-104.549448,43.393012],[-104.554363,43.393031],[-104.559278,43.39305],[-104.559265,43.396669],[-104.559251,43.400289]]]}},{"type":"Feature","properties":{"sec":"05","frstdivid":"WY060400N0640W0SN050"},"geometry":{"type":"Polygon","coordinates":[[[-104.57531,43.480005],[-104.574808,43.480007],[-104.570337,43.480024],[-104.569893,43.480026],[-104.565358,43.480037],[-104.564978,43.480038],[-104.560379,43.48005],[-104.560063,43.480051],[-104.559988,43.475958],[-104.559919,43.472246],[-104.559806,43.468752],[-104.559692,43.465257],[-104.564613,43.465258],[-104.569534,43.465259],[-104.574455,43.46526],[-104.579376,43.465261],[-104.579343,43.468873],[-104.579309,43.472484],[-104.579509,43.476098],[-104.579723,43.479988],[-104.57531,43.480005]]]}},{"type":"Feature","properties":{"sec":"11","frstdivid":"WY060400N0640W0SN110"},"geometry":{"type":"Polygon","coordinates":[[[-104.520345,43.465266],[-104.515306,43.465284],[-104.510268,43.465302],[-104.505443,43.465352],[-104.500618,43.465402],[-104.500562,43.461776],[-104.500506,43.458151],[-104.500485,43.454528],[-104.500463,43.450905],[-104.505414,43.450866],[-104.510364,43.450827],[-104.515308,43.450793],[-104.520252,43.450758],[-104.520315,43.454385],[-104.520377,43.458013],[-104.520361,43.461639],[-104.520345,43.465266]]]}},{"type":"Feature","properties":{"sec":"35","frstdivid":"WY060400N0640W0SN350"},"geometry":{"type":"Polygon","coordinates":[[[-104.505181,43.407444],[-104.500248,43.407492],[-104.500233,43.403904],[-104.500217,43.400316],[-104.500215,43.396609],[-104.500212,43.392901],[-104.505171,43.392889],[-104.510129,43.392877],[-104.515081,43.39286],[-104.520033,43.392843],[-104.52002,43.396457],[-104.520006,43.400071],[-104.519993,43.403685],[-104.51998,43.407299],[-104.515047,43.407347],[-104.510114,43.407395],[-104.505181,43.407444]]]}},{"type":"Feature","properties":{"sec":"36","frstdivid":"WY060400N0640W0SN360"},"geometry":{"type":"Polygon","coordinates":[[[-104.49524,43.392925],[-104.500212,43.392901],[-104.500215,43.396609],[-104.500217,43.400316],[-104.500233,43.403904],[-104.500248,43.407492],[-104.495287,43.407493],[-104.490326,43.407494],[-104.485366,43.407495],[-104.480405,43.407496],[-104.480385,43.403872],[-104.480365,43.400247],[-104.480345,43.396622],[-104.480325,43.392997],[-104.485296,43.392973],[-104.490268,43.392949],[-104.49524,43.392925]]]}},{"type":"Feature","properties":{"sec":"20","frstdivid":"WY060400N0640W0SN200"},"geometry":{"type":"Polygon","coordinates":[[[-104.56929,43.436337],[-104.564347,43.436301],[-104.559404,43.436264],[-104.559384,43.432657],[-104.559363,43.429049],[-104.559343,43.425438],[-104.559322,43.421826],[-104.564314,43.421868],[-104.569305,43.421909],[-104.574303,43.421899],[-104.579301,43.42189],[-104.579288,43.425501],[-104.579274,43.429112],[-104.579291,43.432738],[-104.579308,43.436364],[-104.574299,43.436351],[-104.56929,43.436337]]]}},{"type":"Feature","properties":{"sec":"09","frstdivid":"WY060400N0640W0SN090"},"geometry":{"type":"Polygon","coordinates":[[[-104.545008,43.465338],[-104.540114,43.465365],[-104.539995,43.46174],[-104.539876,43.458115],[-104.539948,43.454504],[-104.540021,43.450892],[-104.544917,43.450835],[-104.549814,43.450779],[-104.554735,43.450708],[-104.559656,43.450638],[-104.559698,43.454238],[-104.559741,43.457839],[-104.559717,43.461548],[-104.559692,43.465257],[-104.554798,43.465284],[-104.549903,43.465311],[-104.545008,43.465338]]]}},{"type":"Feature","properties":{"sec":"03","frstdivid":"WY060400N0640W0SN030"},"geometry":{"type":"Polygon","coordinates":[[[-104.525307,43.465249],[-104.530269,43.465232],[-104.535191,43.465298],[-104.540114,43.465365],[-104.540214,43.468989],[-104.540315,43.472613],[-104.540334,43.476254],[-104.540353,43.480095],[-104.535446,43.48011],[-104.535369,43.48011],[-104.530457,43.480125],[-104.530385,43.480125],[-104.525468,43.48014],[-104.525401,43.48014],[-104.520479,43.480155],[-104.520417,43.480155],[-104.520398,43.476272],[-104.520381,43.472603],[-104.520363,43.468934],[-104.520345,43.465266],[-104.525307,43.465249]]]}},{"type":"Feature","properties":{"sec":"29","frstdivid":"WY060400N0640W0SN290"},"geometry":{"type":"Polygon","coordinates":[[[-104.574307,43.407342],[-104.579337,43.407238],[-104.57932,43.410942],[-104.579304,43.414645],[-104.579302,43.418268],[-104.579301,43.42189],[-104.574303,43.421899],[-104.569305,43.421909],[-104.564314,43.421868],[-104.559322,43.421826],[-104.559319,43.418249],[-104.559317,43.414672],[-104.559307,43.411079],[-104.559297,43.407486],[-104.564287,43.407466],[-104.569278,43.407445],[-104.574307,43.407342]]]}},{"type":"Feature","properties":{"sec":"10","frstdivid":"WY060400N0640W0SN100"},"geometry":{"type":"Polygon","coordinates":[[[-104.520252,43.450758],[-104.525168,43.450827],[-104.530085,43.450896],[-104.535053,43.450894],[-104.540021,43.450892],[-104.539948,43.454504],[-104.539876,43.458115],[-104.539995,43.46174],[-104.540114,43.465365],[-104.535191,43.465298],[-104.530269,43.465232],[-104.525307,43.465249],[-104.520345,43.465266],[-104.520361,43.461639],[-104.520377,43.458013],[-104.520315,43.454385],[-104.520252,43.450758]]]}},{"type":"Feature","properties":{"sec":"18","frstdivid":"WY060400N0640W0SN180"},"geometry":{"type":"Polygon","coordinates":[[[-104.599925,43.443714],[-104.599948,43.447328],[-104.599972,43.450942],[-104.594195,43.4509],[-104.589216,43.450864],[-104.584242,43.45083],[-104.579268,43.450795],[-104.57928,43.447201],[-104.579291,43.443607],[-104.5793,43.439985],[-104.579308,43.436364],[-104.584264,43.436393],[-104.589219,43.436422],[-104.594175,43.436452],[-104.599878,43.436486],[-104.599902,43.4401],[-104.599925,43.443714]]]}},{"type":"Feature","properties":{"sec":"21","frstdivid":"WY060400N0640W0SN210"},"geometry":{"type":"Polygon","coordinates":[[[-104.554407,43.421841],[-104.559322,43.421826],[-104.559343,43.425438],[-104.559363,43.429049],[-104.559384,43.432657],[-104.559404,43.436264],[-104.554516,43.4363],[-104.549627,43.436335],[-104.544748,43.436367],[-104.539868,43.436398],[-104.539864,43.432786],[-104.539861,43.429173],[-104.539771,43.425562],[-104.539681,43.42195],[-104.544587,43.421902],[-104.549493,43.421855],[-104.554407,43.421841]]]}},{"type":"Feature","properties":{"sec":"16","frstdivid":"WY060400N0640W0SN160"},"geometry":{"type":"Polygon","coordinates":[[[-104.539978,43.44727],[-104.539936,43.443648],[-104.539902,43.440023],[-104.539868,43.436398],[-104.544748,43.436367],[-104.549627,43.436335],[-104.554516,43.4363],[-104.559404,43.436264],[-104.559442,43.439859],[-104.55948,43.443453],[-104.559568,43.447045],[-104.559656,43.450638],[-104.554735,43.450708],[-104.549814,43.450779],[-104.544917,43.450835],[-104.540021,43.450892],[-104.539978,43.44727]]]}},{"type":"Feature","properties":{"sec":"14","frstdivid":"WY060400N0640W0SN140"},"geometry":{"type":"Polygon","coordinates":[[[-104.500435,43.447282],[-104.500406,43.443659],[-104.500377,43.440036],[-104.500349,43.436413],[-104.505319,43.436371],[-104.510289,43.43633],[-104.515259,43.436289],[-104.52023,43.436247],[-104.520235,43.439875],[-104.520241,43.443503],[-104.520247,43.44713],[-104.520252,43.450758],[-104.515308,43.450793],[-104.510364,43.450827],[-104.505414,43.450866],[-104.500463,43.450905],[-104.500435,43.447282]]]}},{"type":"Feature","properties":{"sec":"22","frstdivid":"WY060400N0640W0SN220"},"geometry":{"type":"Polygon","coordinates":[[[-104.529897,43.42199],[-104.534789,43.42197],[-104.539681,43.42195],[-104.539771,43.425562],[-104.539861,43.429173],[-104.539864,43.432786],[-104.539868,43.436398],[-104.534958,43.43636],[-104.530049,43.436323],[-104.525139,43.436285],[-104.52023,43.436247],[-104.520189,43.432644],[-104.520148,43.429041],[-104.52011,43.425412],[-104.520071,43.421782],[-104.524984,43.421886],[-104.529897,43.42199]]]}},{"type":"Feature","properties":{"sec":"28","frstdivid":"WY060400N0640W0SN280"},"geometry":{"type":"Polygon","coordinates":[[[-104.559307,43.411079],[-104.559317,43.414672],[-104.559319,43.418249],[-104.559322,43.421826],[-104.554407,43.421841],[-104.549493,43.421855],[-104.544587,43.421902],[-104.539681,43.42195],[-104.539687,43.418339],[-104.539693,43.414727],[-104.539629,43.411109],[-104.539565,43.407491],[-104.544514,43.407495],[-104.549462,43.407499],[-104.554379,43.407492],[-104.559297,43.407486],[-104.559307,43.411079]]]}},{"type":"Feature","properties":{"sec":"07","frstdivid":"WY060400N0640W0SN070"},"geometry":{"type":"Polygon","coordinates":[[[-104.589216,43.450864],[-104.594195,43.4509],[-104.599972,43.450942],[-104.599971,43.454563],[-104.59997,43.458185],[-104.599968,43.461806],[-104.599967,43.465427],[-104.594224,43.465375],[-104.589247,43.46533],[-104.584311,43.465296],[-104.579376,43.465261],[-104.579351,43.461648],[-104.579326,43.458035],[-104.579297,43.454415],[-104.579268,43.450795],[-104.584242,43.45083],[-104.589216,43.450864]]]}},{"type":"Feature","properties":{"sec":"15","frstdivid":"WY060400N0640W0SN150"},"geometry":{"type":"Polygon","coordinates":[[[-104.539936,43.443648],[-104.539978,43.44727],[-104.540021,43.450892],[-104.535053,43.450894],[-104.530085,43.450896],[-104.525168,43.450827],[-104.520252,43.450758],[-104.520247,43.44713],[-104.520241,43.443503],[-104.520235,43.439875],[-104.52023,43.436247],[-104.525139,43.436285],[-104.530049,43.436323],[-104.534958,43.43636],[-104.539868,43.436398],[-104.539902,43.440023],[-104.539936,43.443648]]]}},{"type":"Feature","properties":{"sec":"19","frstdivid":"WY060400N0640W0SN190"},"geometry":{"type":"Polygon","coordinates":[[[-104.594283,43.421976],[-104.599779,43.422008],[-104.599805,43.425633],[-104.599831,43.429259],[-104.599855,43.432872],[-104.599878,43.436486],[-104.594175,43.436452],[-104.589219,43.436422],[-104.584264,43.436393],[-104.579308,43.436364],[-104.579291,43.432738],[-104.579274,43.429112],[-104.579288,43.425501],[-104.579301,43.42189],[-104.584295,43.421919],[-104.589289,43.421947],[-104.594283,43.421976]]]}},{"type":"Feature","properties":{"sec":"01","frstdivid":"WY060400N0640W0SN010"},"geometry":{"type":"Polygon","coordinates":[[[-104.485584,43.480252],[-104.480848,43.480258],[-104.480823,43.476275],[-104.480801,43.472654],[-104.480779,43.469033],[-104.480756,43.465411],[-104.485722,43.465409],[-104.490687,43.465407],[-104.495653,43.465404],[-104.500618,43.465402],[-104.500647,43.469066],[-104.500675,43.472729],[-104.500704,43.476393],[-104.500734,43.480216],[-104.500523,43.480217],[-104.495763,43.480231],[-104.495534,43.480231],[-104.490791,43.480245],[-104.490545,43.480246],[-104.485819,43.480252],[-104.485584,43.480252]]]}},{"type":"Feature","properties":{"sec":"13","frstdivid":"WY060400N0640W0SN130"},"geometry":{"type":"Polygon","coordinates":[[[-104.500349,43.436413],[-104.500377,43.440036],[-104.500406,43.443659],[-104.500435,43.447282],[-104.500463,43.450905],[-104.495515,43.45091],[-104.490567,43.450916],[-104.485619,43.450921],[-104.480671,43.450926],[-104.48065,43.447305],[-104.480629,43.443684],[-104.480609,43.440063],[-104.480588,43.436441],[-104.485527,43.43643],[-104.490467,43.436419],[-104.495408,43.436416],[-104.500349,43.436413]]]}},{"type":"Feature","properties":{"sec":"24","frstdivid":"WY060400N0640W0SN240"},"geometry":{"type":"Polygon","coordinates":[[[-104.490372,43.421919],[-104.495307,43.42192],[-104.500242,43.421921],[-104.500268,43.425544],[-104.500295,43.429167],[-104.500322,43.43279],[-104.500349,43.436413],[-104.495408,43.436416],[-104.490467,43.436419],[-104.485527,43.43643],[-104.480588,43.436441],[-104.480567,43.43281],[-104.480545,43.429179],[-104.480524,43.425548],[-104.480502,43.421916],[-104.485437,43.421917],[-104.490372,43.421919]]]}},{"type":"Feature","properties":{"sec":"25","frstdivid":"WY060400N0640W0SN250"},"geometry":{"type":"Polygon","coordinates":[[[-104.500242,43.421921],[-104.495307,43.42192],[-104.490372,43.421919],[-104.485437,43.421917],[-104.480502,43.421916],[-104.480481,43.418285],[-104.480459,43.414654],[-104.480432,43.411075],[-104.480405,43.407496],[-104.485366,43.407495],[-104.490326,43.407494],[-104.495287,43.407493],[-104.500248,43.407492],[-104.500256,43.411079],[-104.500265,43.414667],[-104.500253,43.418294],[-104.500242,43.421921]]]}},{"type":"Feature","properties":{"sec":"12","frstdivid":"WY060400N0640W0SN120"},"geometry":{"type":"Polygon","coordinates":[[[-104.485722,43.465409],[-104.480756,43.465411],[-104.480735,43.46179],[-104.480713,43.458169],[-104.480692,43.454548],[-104.480671,43.450926],[-104.485619,43.450921],[-104.490567,43.450916],[-104.495515,43.45091],[-104.500463,43.450905],[-104.500485,43.454528],[-104.500506,43.458151],[-104.500562,43.461776],[-104.500618,43.465402],[-104.495653,43.465404],[-104.490687,43.465407],[-104.485722,43.465409]]]}}]}