{"type":"FeatureCollection","note":"BLM Public Land Survey System. Provided by the Bureau of Land Management as is. These data are neither legal documents nor land surveys and must not be used as such.","features":[{"type":"Feature","properties":{"sec":"26","frstdivid":"MT200110N0430E0SN260"},"geometry":{"type":"Polygon","coordinates":[[[-106.272969,46.686387],[-106.267671,46.686386],[-106.267685,46.682761],[-106.267699,46.679135],[-106.267714,46.675509],[-106.267728,46.671884],[-106.27302,46.671884],[-106.278312,46.671883],[-106.283604,46.671883],[-106.288896,46.671882],[-106.288888,46.675509],[-106.288879,46.679136],[-106.288871,46.682764],[-106.288863,46.686391],[-106.283565,46.686389],[-106.278267,46.686388],[-106.272969,46.686387]]]}},{"type":"Feature","properties":{"sec":"21","frstdivid":"MT200110N0430E0SN210"},"geometry":{"type":"Polygon","coordinates":[[[-106.325805,46.700835],[-106.320534,46.700839],[-106.315264,46.700843],[-106.309994,46.700846],[-106.30999,46.697224],[-106.309986,46.693602],[-106.309983,46.68998],[-106.309979,46.686358],[-106.315238,46.686349],[-106.320497,46.68634],[-106.325756,46.686331],[-106.331015,46.686322],[-106.33103,46.689949],[-106.331045,46.693577],[-106.33106,46.697204],[-106.331075,46.700832],[-106.325805,46.700835]]]}},{"type":"Feature","properties":{"sec":"31","frstdivid":"MT200110N0430E0SN310"},"geometry":{"type":"Polygon","coordinates":[[[-106.352098,46.657356],[-106.357381,46.657352],[-106.362663,46.657348],[-106.367933,46.657342],[-106.372358,46.657337],[-106.372345,46.660961],[-106.372332,46.664584],[-106.372319,46.668208],[-106.372306,46.671831],[-106.367963,46.671831],[-106.362697,46.67183],[-106.357423,46.671828],[-106.352148,46.671825],[-106.352136,46.668208],[-106.352123,46.66459],[-106.352111,46.660973],[-106.352098,46.657356]]]}},{"type":"Feature","properties":{"sec":"20","frstdivid":"MT200110N0430E0SN200"},"geometry":{"type":"Polygon","coordinates":[[[-106.336338,46.700831],[-106.331075,46.700832],[-106.33106,46.697204],[-106.331045,46.693577],[-106.33103,46.689949],[-106.331015,46.686322],[-106.336288,46.686317],[-106.341561,46.686313],[-106.346835,46.686308],[-106.352108,46.686304],[-106.352113,46.689935],[-106.352119,46.693566],[-106.352124,46.697198],[-106.352129,46.700829],[-106.346866,46.70083],[-106.341602,46.70083],[-106.336338,46.700831]]]}},{"type":"Feature","properties":{"sec":"33","frstdivid":"MT200110N0430E0SN330"},"geometry":{"type":"Polygon","coordinates":[[[-106.320469,46.671833],[-106.315213,46.671837],[-106.309958,46.671841],[-106.309947,46.66822],[-106.309935,46.6646],[-106.309924,46.66098],[-106.309912,46.657359],[-106.315176,46.657359],[-106.320439,46.657359],[-106.325703,46.657358],[-106.330967,46.657358],[-106.33097,46.660975],[-106.330973,46.664592],[-106.330976,46.668208],[-106.330979,46.671825],[-106.325724,46.671829],[-106.320469,46.671833]]]}},{"type":"Feature","properties":{"sec":"19","frstdivid":"MT200110N0430E0SN190"},"geometry":{"type":"Polygon","coordinates":[[[-106.352119,46.693566],[-106.352113,46.689935],[-106.352108,46.686304],[-106.357365,46.68631],[-106.362622,46.686316],[-106.367879,46.686326],[-106.372278,46.686335],[-106.372267,46.68996],[-106.372257,46.693585],[-106.372247,46.697209],[-106.372236,46.700834],[-106.367947,46.700833],[-106.362679,46.700833],[-106.357404,46.700831],[-106.352129,46.700829],[-106.352124,46.697198],[-106.352119,46.693566]]]}},{"type":"Feature","properties":{"sec":"17","frstdivid":"MT200110N0430E0SN170"},"geometry":{"type":"Polygon","coordinates":[[[-106.346802,46.715283],[-106.341543,46.715288],[-106.336283,46.715294],[-106.331024,46.715299],[-106.331037,46.711682],[-106.331049,46.708066],[-106.331062,46.704449],[-106.331075,46.700832],[-106.336338,46.700831],[-106.341602,46.70083],[-106.346866,46.70083],[-106.352129,46.700829],[-106.352112,46.704441],[-106.352095,46.708053],[-106.352078,46.711665],[-106.352061,46.715277],[-106.346802,46.715283]]]}},{"type":"Feature","properties":{"sec":"08","frstdivid":"MT200110N0430E0SN080"},"geometry":{"type":"Polygon","coordinates":[[[-106.351993,46.729748],[-106.346738,46.729758],[-106.341482,46.729769],[-106.336227,46.729779],[-106.330972,46.72979],[-106.330985,46.726167],[-106.330998,46.722544],[-106.331011,46.718922],[-106.331024,46.715299],[-106.336283,46.715294],[-106.341543,46.715288],[-106.346802,46.715283],[-106.352061,46.715277],[-106.352044,46.718895],[-106.352027,46.722512],[-106.35201,46.72613],[-106.351993,46.729748]]]}},{"type":"Feature","properties":{"sec":"01","frstdivid":"MT200110N0430E0SN010"},"geometry":{"type":"Polygon","coordinates":[[[-106.246392,46.740785],[-106.246393,46.737165],[-106.246394,46.733545],[-106.246396,46.729924],[-106.251666,46.72992],[-106.256937,46.729915],[-106.262207,46.729911],[-106.267478,46.729906],[-106.26748,46.733524],[-106.267483,46.737141],[-106.267485,46.74076],[-106.267487,46.744378],[-106.262213,46.744384],[-106.256939,46.744391],[-106.251665,46.744397],[-106.246391,46.744404],[-106.246392,46.740785]]]}},{"type":"Feature","properties":{"sec":"04","frstdivid":"MT200110N0430E0SN040"},"geometry":{"type":"Polygon","coordinates":[[[-106.309831,46.729809],[-106.315116,46.729804],[-106.320402,46.729799],[-106.325687,46.729794],[-106.330972,46.72979],[-106.330941,46.733409],[-106.33091,46.737028],[-106.330881,46.740646],[-106.330852,46.74432],[-106.325582,46.744325],[-106.320312,46.744331],[-106.315042,46.744336],[-106.309772,46.744342],[-106.309783,46.740662],[-106.309794,46.737044],[-106.309813,46.733427],[-106.309831,46.729809]]]}},{"type":"Feature","properties":{"sec":"03","frstdivid":"MT200110N0430E0SN030"},"geometry":{"type":"Polygon","coordinates":[[[-106.304552,46.729822],[-106.309831,46.729809],[-106.309813,46.733427],[-106.309794,46.737044],[-106.309783,46.740662],[-106.309772,46.744342],[-106.304483,46.744346],[-106.299194,46.744351],[-106.293905,46.744355],[-106.288615,46.744359],[-106.28864,46.740716],[-106.288664,46.737097],[-106.288689,46.733479],[-106.288714,46.729861],[-106.293993,46.729848],[-106.299273,46.729835],[-106.304552,46.729822]]]}},{"type":"Feature","properties":{"sec":"05","frstdivid":"MT200110N0430E0SN050"},"geometry":{"type":"Polygon","coordinates":[[[-106.330972,46.72979],[-106.336227,46.729779],[-106.341482,46.729769],[-106.346738,46.729758],[-106.351993,46.729748],[-106.351983,46.733365],[-106.351974,46.736983],[-106.351965,46.740601],[-106.351956,46.744301],[-106.34668,46.744306],[-106.341404,46.74431],[-106.336128,46.744315],[-106.330852,46.74432],[-106.330881,46.740646],[-106.33091,46.737028],[-106.330941,46.733409],[-106.330972,46.72979]]]}},{"type":"Feature","properties":{"sec":"36","frstdivid":"MT200110N0430E0SN360"},"geometry":{"type":"Polygon","coordinates":[[[-106.267784,46.657389],[-106.26777,46.661013],[-106.267756,46.664636],[-106.267742,46.66826],[-106.267728,46.671884],[-106.262476,46.671886],[-106.257224,46.671888],[-106.251971,46.67189],[-106.246719,46.671892],[-106.246719,46.668264],[-106.24672,46.664636],[-106.24672,46.661008],[-106.24672,46.65738],[-106.251986,46.657382],[-106.257252,46.657385],[-106.262518,46.657387],[-106.267784,46.657389]]]}},{"type":"Feature","properties":{"sec":"24","frstdivid":"MT200110N0430E0SN240"},"geometry":{"type":"Polygon","coordinates":[[[-106.267614,46.697279],[-106.267595,46.70091],[-106.262339,46.700913],[-106.257082,46.700916],[-106.251826,46.700919],[-106.24657,46.700923],[-106.246589,46.69729],[-106.246609,46.693657],[-106.246629,46.690025],[-106.246649,46.686392],[-106.251904,46.686391],[-106.25716,46.686389],[-106.262415,46.686388],[-106.267671,46.686386],[-106.267652,46.690017],[-106.267633,46.693648],[-106.267614,46.697279]]]}},{"type":"Feature","properties":{"sec":"23","frstdivid":"MT200110N0430E0SN230"},"geometry":{"type":"Polygon","coordinates":[[[-106.267595,46.70091],[-106.267614,46.697279],[-106.267633,46.693648],[-106.267652,46.690017],[-106.267671,46.686386],[-106.272969,46.686387],[-106.278267,46.686388],[-106.283565,46.686389],[-106.288863,46.686391],[-106.288849,46.690017],[-106.288834,46.693644],[-106.28882,46.697271],[-106.288806,46.700898],[-106.283503,46.700901],[-106.2782,46.700904],[-106.272898,46.700907],[-106.267595,46.70091]]]}},{"type":"Feature","properties":{"sec":"07","frstdivid":"MT200110N0430E0SN070"},"geometry":{"type":"Polygon","coordinates":[[[-106.35201,46.72613],[-106.352027,46.722512],[-106.352044,46.718895],[-106.352061,46.715277],[-106.357322,46.715286],[-106.362582,46.715296],[-106.367843,46.715308],[-106.372188,46.715318],[-106.372173,46.718939],[-106.372158,46.72256],[-106.372143,46.726181],[-106.372127,46.729802],[-106.367767,46.72979],[-106.362507,46.729776],[-106.35725,46.729762],[-106.351993,46.729748],[-106.35201,46.72613]]]}},{"type":"Feature","properties":{"sec":"09","frstdivid":"MT200110N0430E0SN090"},"geometry":{"type":"Polygon","coordinates":[[[-106.325687,46.729794],[-106.320402,46.729799],[-106.315116,46.729804],[-106.309831,46.729809],[-106.309843,46.726194],[-106.309855,46.722579],[-106.309867,46.718964],[-106.309878,46.715349],[-106.315165,46.715336],[-106.320451,46.715324],[-106.325738,46.715312],[-106.331024,46.715299],[-106.331011,46.718922],[-106.330998,46.722544],[-106.330985,46.726167],[-106.330972,46.72979],[-106.325687,46.729794]]]}},{"type":"Feature","properties":{"sec":"30","frstdivid":"MT200110N0430E0SN300"},"geometry":{"type":"Polygon","coordinates":[[[-106.372278,46.686335],[-106.367879,46.686326],[-106.362622,46.686316],[-106.357365,46.68631],[-106.352108,46.686304],[-106.352118,46.682684],[-106.352128,46.679064],[-106.352138,46.675445],[-106.352148,46.671825],[-106.357423,46.671828],[-106.362697,46.67183],[-106.367963,46.671831],[-106.372306,46.671831],[-106.372299,46.675457],[-106.372292,46.679083],[-106.372285,46.682709],[-106.372278,46.686335]]]}},{"type":"Feature","properties":{"sec":"22","frstdivid":"MT200110N0430E0SN220"},"geometry":{"type":"Polygon","coordinates":[[[-106.309983,46.68998],[-106.309986,46.693602],[-106.30999,46.697224],[-106.309994,46.700846],[-106.304697,46.700859],[-106.2994,46.700872],[-106.294103,46.700885],[-106.288806,46.700898],[-106.28882,46.697271],[-106.288834,46.693644],[-106.288849,46.690017],[-106.288863,46.686391],[-106.294142,46.686382],[-106.299421,46.686374],[-106.3047,46.686366],[-106.309979,46.686358],[-106.309983,46.68998]]]}},{"type":"Feature","properties":{"sec":"11","frstdivid":"MT200110N0430E0SN110"},"geometry":{"type":"Polygon","coordinates":[[[-106.288726,46.726243],[-106.288714,46.729861],[-106.283405,46.729873],[-106.278096,46.729884],[-106.272787,46.729895],[-106.267478,46.729906],[-106.267493,46.72629],[-106.267508,46.722674],[-106.267522,46.719058],[-106.267537,46.715441],[-106.272844,46.715428],[-106.27815,46.715415],[-106.283456,46.715401],[-106.288763,46.715388],[-106.288751,46.719006],[-106.288738,46.722625],[-106.288726,46.726243]]]}},{"type":"Feature","properties":{"sec":"27","frstdivid":"MT200110N0430E0SN270"},"geometry":{"type":"Polygon","coordinates":[[[-106.309963,46.67547],[-106.309968,46.679099],[-106.309973,46.682729],[-106.309979,46.686358],[-106.3047,46.686366],[-106.299421,46.686374],[-106.294142,46.686382],[-106.288863,46.686391],[-106.288871,46.682764],[-106.288879,46.679136],[-106.288888,46.675509],[-106.288896,46.671882],[-106.294161,46.671872],[-106.299427,46.671861],[-106.304692,46.671851],[-106.309958,46.671841],[-106.309963,46.67547]]]}},{"type":"Feature","properties":{"sec":"06","frstdivid":"MT200110N0430E0SN060"},"geometry":{"type":"Polygon","coordinates":[[[-106.362507,46.729776],[-106.367767,46.72979],[-106.372127,46.729802],[-106.372122,46.733421],[-106.372116,46.73704],[-106.372113,46.740659],[-106.37211,46.744278],[-106.367774,46.744282],[-106.362504,46.744288],[-106.35723,46.744295],[-106.351956,46.744301],[-106.351965,46.740601],[-106.351974,46.736983],[-106.351983,46.733365],[-106.351993,46.729748],[-106.35725,46.729762],[-106.362507,46.729776]]]}},{"type":"Feature","properties":{"sec":"13","frstdivid":"MT200110N0430E0SN130"},"geometry":{"type":"Polygon","coordinates":[[[-106.246509,46.711803],[-106.246529,46.708176],[-106.246549,46.704549],[-106.24657,46.700923],[-106.251826,46.700919],[-106.257082,46.700916],[-106.262339,46.700913],[-106.267595,46.70091],[-106.267581,46.704543],[-106.267566,46.708176],[-106.267552,46.711808],[-106.267537,46.715441],[-106.262275,46.715438],[-106.257013,46.715435],[-106.251751,46.715432],[-106.246488,46.715429],[-106.246509,46.711803]]]}},{"type":"Feature","properties":{"sec":"14","frstdivid":"MT200110N0430E0SN140"},"geometry":{"type":"Polygon","coordinates":[[[-106.288795,46.70452],[-106.288784,46.708143],[-106.288773,46.711765],[-106.288763,46.715388],[-106.283456,46.715401],[-106.27815,46.715415],[-106.272844,46.715428],[-106.267537,46.715441],[-106.267552,46.711808],[-106.267566,46.708176],[-106.267581,46.704543],[-106.267595,46.70091],[-106.272898,46.700907],[-106.2782,46.700904],[-106.283503,46.700901],[-106.288806,46.700898],[-106.288795,46.70452]]]}},{"type":"Feature","properties":{"sec":"12","frstdivid":"MT200110N0430E0SN120"},"geometry":{"type":"Polygon","coordinates":[[[-106.257013,46.715435],[-106.262275,46.715438],[-106.267537,46.715441],[-106.267522,46.719058],[-106.267508,46.722674],[-106.267493,46.72629],[-106.267478,46.729906],[-106.262207,46.729911],[-106.256937,46.729915],[-106.251666,46.72992],[-106.246396,46.729924],[-106.246419,46.7263],[-106.246442,46.722677],[-106.246465,46.719053],[-106.246488,46.715429],[-106.251751,46.715432],[-106.257013,46.715435]]]}},{"type":"Feature","properties":{"sec":"29","frstdivid":"MT200110N0430E0SN290"},"geometry":{"type":"Polygon","coordinates":[[[-106.352108,46.686304],[-106.346835,46.686308],[-106.341561,46.686313],[-106.336288,46.686317],[-106.331015,46.686322],[-106.331006,46.682698],[-106.330997,46.679073],[-106.330988,46.675449],[-106.330979,46.671825],[-106.336272,46.671825],[-106.341564,46.671825],[-106.346856,46.671825],[-106.352148,46.671825],[-106.352138,46.675445],[-106.352128,46.679064],[-106.352118,46.682684],[-106.352108,46.686304]]]}},{"type":"Feature","properties":{"sec":"25","frstdivid":"MT200110N0430E0SN250"},"geometry":{"type":"Polygon","coordinates":[[[-106.267714,46.675509],[-106.267699,46.679135],[-106.267685,46.682761],[-106.267671,46.686386],[-106.262415,46.686388],[-106.25716,46.686389],[-106.251904,46.686391],[-106.246649,46.686392],[-106.246666,46.682767],[-106.246684,46.679142],[-106.246702,46.675517],[-106.246719,46.671892],[-106.251971,46.67189],[-106.257224,46.671888],[-106.262476,46.671886],[-106.267728,46.671884],[-106.267714,46.675509]]]}},{"type":"Feature","properties":{"sec":"35","frstdivid":"MT200110N0430E0SN350"},"geometry":{"type":"Polygon","coordinates":[[[-106.278312,46.671883],[-106.27302,46.671884],[-106.267728,46.671884],[-106.267742,46.66826],[-106.267756,46.664636],[-106.26777,46.661013],[-106.267784,46.657389],[-106.273049,46.657385],[-106.278315,46.65738],[-106.283581,46.657376],[-106.288846,46.657372],[-106.288858,46.660999],[-106.288871,46.664627],[-106.288883,46.668255],[-106.288896,46.671882],[-106.283604,46.671883],[-106.278312,46.671883]]]}},{"type":"Feature","properties":{"sec":"34","frstdivid":"MT200110N0430E0SN340"},"geometry":{"type":"Polygon","coordinates":[[[-106.288846,46.657372],[-106.294113,46.657369],[-106.299379,46.657365],[-106.304646,46.657362],[-106.309912,46.657359],[-106.309924,46.66098],[-106.309935,46.6646],[-106.309947,46.66822],[-106.309958,46.671841],[-106.304692,46.671851],[-106.299427,46.671861],[-106.294161,46.671872],[-106.288896,46.671882],[-106.288883,46.668255],[-106.288871,46.664627],[-106.288858,46.660999],[-106.288846,46.657372]]]}},{"type":"Feature","properties":{"sec":"18","frstdivid":"MT200110N0430E0SN180"},"geometry":{"type":"Polygon","coordinates":[[[-106.372188,46.715318],[-106.367843,46.715308],[-106.362582,46.715296],[-106.357322,46.715286],[-106.352061,46.715277],[-106.352078,46.711665],[-106.352095,46.708053],[-106.352112,46.704441],[-106.352129,46.700829],[-106.357404,46.700831],[-106.362679,46.700833],[-106.367947,46.700833],[-106.372236,46.700834],[-106.372224,46.704455],[-106.372212,46.708076],[-106.3722,46.711697],[-106.372188,46.715318]]]}},{"type":"Feature","properties":{"sec":"32","frstdivid":"MT200110N0430E0SN320"},"geometry":{"type":"Polygon","coordinates":[[[-106.330967,46.657358],[-106.33625,46.657358],[-106.341532,46.657357],[-106.346815,46.657356],[-106.352098,46.657356],[-106.352111,46.660973],[-106.352123,46.66459],[-106.352136,46.668208],[-106.352148,46.671825],[-106.346856,46.671825],[-106.341564,46.671825],[-106.336272,46.671825],[-106.330979,46.671825],[-106.330976,46.668208],[-106.330973,46.664592],[-106.33097,46.660975],[-106.330967,46.657358]]]}},{"type":"Feature","properties":{"sec":"28","frstdivid":"MT200110N0430E0SN280"},"geometry":{"type":"Polygon","coordinates":[[[-106.320497,46.68634],[-106.315238,46.686349],[-106.309979,46.686358],[-106.309973,46.682729],[-106.309968,46.679099],[-106.309963,46.67547],[-106.309958,46.671841],[-106.315213,46.671837],[-106.320469,46.671833],[-106.325724,46.671829],[-106.330979,46.671825],[-106.330988,46.675449],[-106.330997,46.679073],[-106.331006,46.682698],[-106.331015,46.686322],[-106.325756,46.686331],[-106.320497,46.68634]]]}},{"type":"Feature","properties":{"sec":"02","frstdivid":"MT200110N0430E0SN020"},"geometry":{"type":"Polygon","coordinates":[[[-106.267487,46.744378],[-106.267485,46.74076],[-106.267483,46.737141],[-106.26748,46.733524],[-106.267478,46.729906],[-106.272787,46.729895],[-106.278096,46.729884],[-106.283405,46.729873],[-106.288714,46.729861],[-106.288689,46.733479],[-106.288664,46.737097],[-106.28864,46.740716],[-106.288615,46.744359],[-106.283333,46.744364],[-106.278051,46.744368],[-106.272769,46.744373],[-106.267487,46.744378]]]}},{"type":"Feature","properties":{"sec":"10","frstdivid":"MT200110N0430E0SN100"},"geometry":{"type":"Polygon","coordinates":[[[-106.299273,46.729835],[-106.293993,46.729848],[-106.288714,46.729861],[-106.288726,46.726243],[-106.288738,46.722625],[-106.288751,46.719006],[-106.288763,46.715388],[-106.294042,46.715378],[-106.299321,46.715368],[-106.304599,46.715359],[-106.309878,46.715349],[-106.309867,46.718964],[-106.309855,46.722579],[-106.309843,46.726194],[-106.309831,46.729809],[-106.304552,46.729822],[-106.299273,46.729835]]]}},{"type":"Feature","properties":{"sec":"16","frstdivid":"MT200110N0430E0SN160"},"geometry":{"type":"Polygon","coordinates":[[[-106.325805,46.700835],[-106.331075,46.700832],[-106.331062,46.704449],[-106.331049,46.708066],[-106.331037,46.711682],[-106.331024,46.715299],[-106.325738,46.715312],[-106.320451,46.715324],[-106.315165,46.715336],[-106.309878,46.715349],[-106.309907,46.711723],[-106.309936,46.708097],[-106.309965,46.704472],[-106.309994,46.700846],[-106.315264,46.700843],[-106.320534,46.700839],[-106.325805,46.700835]]]}},{"type":"Feature","properties":{"sec":"15","frstdivid":"MT200110N0430E0SN150"},"geometry":{"type":"Polygon","coordinates":[[[-106.288784,46.708143],[-106.288795,46.70452],[-106.288806,46.700898],[-106.294103,46.700885],[-106.2994,46.700872],[-106.304697,46.700859],[-106.309994,46.700846],[-106.309965,46.704472],[-106.309936,46.708097],[-106.309907,46.711723],[-106.309878,46.715349],[-106.304599,46.715359],[-106.299321,46.715368],[-106.294042,46.715378],[-106.288763,46.715388],[-106.288773,46.711765],[-106.288784,46.708143]]]}}]}