{"type":"FeatureCollection","note":"BLM Public Land Survey System. Provided by the Bureau of Land Management as is. These data are neither legal documents nor land surveys and must not be used as such.","features":[{"type":"Feature","properties":{"sec":"06","frstdivid":"MT200040S0440E0SN060"},"geometry":{"type":"Polygon","coordinates":[[[-106.352787,45.524634],[-106.347515,45.524639],[-106.342304,45.524648],[-106.3371,45.524659],[-106.337132,45.521397],[-106.337166,45.518004],[-106.337177,45.514365],[-106.33719,45.510729],[-106.342337,45.510628],[-106.347486,45.510527],[-106.352635,45.510424],[-106.357706,45.510323],[-106.357692,45.513939],[-106.357678,45.517552],[-106.357682,45.52117],[-106.357686,45.52463],[-106.352787,45.524634]]]}},{"type":"Feature","properties":{"sec":"04","frstdivid":"MT200040S0440E0SN040"},"geometry":{"type":"Polygon","coordinates":[[[-106.295764,45.524647],[-106.295765,45.52157],[-106.295765,45.521163],[-106.295766,45.51795],[-106.295766,45.517679],[-106.295769,45.51433],[-106.295769,45.514194],[-106.295773,45.51071],[-106.300917,45.510712],[-106.306061,45.510714],[-106.311214,45.510716],[-106.316367,45.510718],[-106.316366,45.514092],[-106.316366,45.517466],[-106.316337,45.521076],[-106.316308,45.524686],[-106.311166,45.524689],[-106.306023,45.524692],[-106.300893,45.52467],[-106.295764,45.524647]]]}},{"type":"Feature","properties":{"sec":"05","frstdivid":"MT200040S0440E0SN050"},"geometry":{"type":"Polygon","coordinates":[[[-106.335854,45.510728],[-106.33719,45.510729],[-106.337177,45.514365],[-106.337166,45.518004],[-106.337132,45.521397],[-106.3371,45.524659],[-106.331864,45.524664],[-106.326634,45.524669],[-106.321476,45.524682],[-106.320778,45.524682],[-106.319856,45.524683],[-106.316308,45.524686],[-106.316337,45.521076],[-106.316366,45.517466],[-106.316366,45.514092],[-106.316367,45.510718],[-106.321526,45.510721],[-106.326685,45.510723],[-106.331937,45.510725],[-106.33495,45.510727],[-106.335854,45.510728]]]}},{"type":"Feature","properties":{"sec":"33","frstdivid":"MT200040S0440E0SN330"},"geometry":{"type":"Polygon","coordinates":[[[-106.316438,45.443694],[-106.316425,45.445537],[-106.316413,45.447308],[-106.316394,45.449144],[-106.316376,45.450915],[-106.316357,45.452751],[-106.316357,45.454521],[-106.311237,45.454525],[-106.306116,45.454529],[-106.300996,45.454533],[-106.295876,45.454538],[-106.295888,45.450921],[-106.2959,45.447304],[-106.295912,45.443687],[-106.295924,45.44007],[-106.301059,45.440072],[-106.306194,45.440075],[-106.311329,45.440077],[-106.316464,45.44008],[-106.316451,45.441923],[-106.316438,45.443694]]]}},{"type":"Feature","properties":{"sec":"12","frstdivid":"MT200040S0440E0SN120"},"geometry":{"type":"Polygon","coordinates":[[[-106.254605,45.510697],[-106.249447,45.510703],[-106.244289,45.510709],[-106.239131,45.510714],[-106.233972,45.51072],[-106.233976,45.509594],[-106.233978,45.508746],[-106.23399,45.505127],[-106.233991,45.504913],[-106.233991,45.504769],[-106.234014,45.501508],[-106.234016,45.501179],[-106.23404,45.497888],[-106.239185,45.497907],[-106.24433,45.497926],[-106.249475,45.497945],[-106.25462,45.497964],[-106.254612,45.50159],[-106.254604,45.505217],[-106.254603,45.508839],[-106.254605,45.510697]]]}},{"type":"Feature","properties":{"sec":"35","frstdivid":"MT200040S0440E0SN350"},"geometry":{"type":"Polygon","coordinates":[[[-106.270224,45.440047],[-106.275356,45.440054],[-106.275347,45.443669],[-106.275338,45.447284],[-106.275328,45.450899],[-106.275319,45.454513],[-106.270183,45.454507],[-106.265048,45.4545],[-106.259912,45.454493],[-106.254776,45.454486],[-106.254789,45.450871],[-106.254801,45.447257],[-106.254814,45.443642],[-106.254827,45.440027],[-106.259959,45.440034],[-106.265091,45.44004],[-106.270224,45.440047]]]}},{"type":"Feature","properties":{"sec":"25","frstdivid":"MT200040S0440E0SN250"},"geometry":{"type":"Polygon","coordinates":[[[-106.23422,45.461635],[-106.234221,45.46149],[-106.234225,45.458019],[-106.234225,45.457865],[-106.234229,45.454386],[-106.239366,45.454411],[-106.244503,45.454436],[-106.249639,45.454461],[-106.254776,45.454486],[-106.254769,45.458113],[-106.254761,45.461739],[-106.254754,45.465365],[-106.254747,45.468992],[-106.249609,45.468972],[-106.244471,45.468952],[-106.239334,45.468932],[-106.234196,45.468912],[-106.234197,45.468851],[-106.234197,45.468706],[-106.234208,45.465283],[-106.234209,45.465098],[-106.23422,45.461653],[-106.23422,45.461635]]]}},{"type":"Feature","properties":{"sec":"14","frstdivid":"MT200040S0440E0SN140"},"geometry":{"type":"Polygon","coordinates":[[[-106.270026,45.498009],[-106.264891,45.497994],[-106.259756,45.497979],[-106.25462,45.497964],[-106.254642,45.494335],[-106.254664,45.490705],[-106.254685,45.487076],[-106.254707,45.483447],[-106.259838,45.483447],[-106.264969,45.483446],[-106.270099,45.483446],[-106.27523,45.483446],[-106.275213,45.487091],[-106.275196,45.490735],[-106.275179,45.494379],[-106.275162,45.498024],[-106.270026,45.498009]]]}},{"type":"Feature","properties":{"sec":"09","frstdivid":"MT200040S0440E0SN090"},"geometry":{"type":"Polygon","coordinates":[[[-106.311209,45.496153],[-106.316353,45.496155],[-106.316354,45.499769],[-106.316354,45.499799],[-106.316354,45.503382],[-106.316354,45.503444],[-106.31636,45.50699],[-106.31636,45.507081],[-106.316367,45.510718],[-106.311214,45.510716],[-106.306061,45.510714],[-106.300917,45.510712],[-106.295773,45.51071],[-106.295772,45.508833],[-106.295771,45.507],[-106.29577,45.505215],[-106.295769,45.503383],[-106.29577,45.501601],[-106.295771,45.499768],[-106.295771,45.497986],[-106.29577,45.496153],[-106.300917,45.496152],[-106.306065,45.496152],[-106.311209,45.496153]]]}},{"type":"Feature","properties":{"sec":"18","frstdivid":"MT200040S0440E0SN180"},"geometry":{"type":"Polygon","coordinates":[[[-106.357523,45.488679],[-106.357529,45.492282],[-106.357554,45.495866],[-106.355454,45.495893],[-106.354234,45.495908],[-106.352415,45.495931],[-106.347343,45.495996],[-106.342265,45.496058],[-106.337186,45.496121],[-106.337144,45.492529],[-106.337102,45.488936],[-106.337049,45.485316],[-106.336996,45.481696],[-106.341646,45.481587],[-106.346296,45.481477],[-106.351902,45.481529],[-106.357513,45.481581],[-106.357517,45.48513],[-106.357518,45.485444],[-106.357519,45.486279],[-106.357523,45.488679]]]}},{"type":"Feature","properties":{"sec":"21","frstdivid":"MT200040S0440E0SN210"},"geometry":{"type":"Polygon","coordinates":[[[-106.316361,45.479831],[-106.316363,45.481677],[-106.311214,45.481678],[-106.306065,45.481678],[-106.300915,45.48168],[-106.295764,45.481681],[-106.295774,45.479894],[-106.295797,45.476272],[-106.295823,45.472646],[-106.295849,45.46902],[-106.300975,45.469008],[-106.306101,45.468996],[-106.311228,45.468984],[-106.316354,45.468972],[-106.316355,45.470818],[-106.316356,45.472592],[-106.316356,45.474438],[-106.316358,45.476212],[-106.31636,45.478058],[-106.316361,45.479831]]]}},{"type":"Feature","properties":{"sec":"17","frstdivid":"MT200040S0440E0SN170"},"geometry":{"type":"Polygon","coordinates":[[[-106.337186,45.496121],[-106.332046,45.496141],[-106.326907,45.496161],[-106.321761,45.496158],[-106.32163,45.496158],[-106.316353,45.496155],[-106.316356,45.492534],[-106.316359,45.488912],[-106.316361,45.485295],[-106.316363,45.481677],[-106.321506,45.481685],[-106.321516,45.481685],[-106.326648,45.481694],[-106.331822,45.481695],[-106.336996,45.481696],[-106.337049,45.485316],[-106.337102,45.488936],[-106.337144,45.492529],[-106.337186,45.496121]]]}},{"type":"Feature","properties":{"sec":"23","frstdivid":"MT200040S0440E0SN230"},"geometry":{"type":"Polygon","coordinates":[[[-106.270099,45.483446],[-106.264969,45.483446],[-106.259838,45.483447],[-106.254707,45.483447],[-106.254717,45.479833],[-106.254727,45.476219],[-106.254737,45.472605],[-106.254747,45.468992],[-106.259878,45.468989],[-106.265009,45.468987],[-106.270141,45.468985],[-106.275272,45.468983],[-106.275262,45.472598],[-106.275251,45.476214],[-106.275241,45.47983],[-106.27523,45.483446],[-106.270099,45.483446]]]}},{"type":"Feature","properties":{"sec":"29","frstdivid":"MT200040S0440E0SN290"},"geometry":{"type":"Polygon","coordinates":[[[-106.316356,45.45637],[-106.316357,45.454521],[-106.316357,45.452751],[-106.321499,45.452759],[-106.326641,45.452767],[-106.331783,45.452775],[-106.336925,45.452784],[-106.336931,45.456401],[-106.336938,45.460019],[-106.336944,45.463636],[-106.33695,45.467253],[-106.331803,45.467224],[-106.326657,45.467195],[-106.321505,45.467197],[-106.316353,45.467198],[-106.316354,45.465367],[-106.316355,45.463594],[-106.316356,45.461763],[-106.316354,45.459989],[-106.316355,45.458142],[-106.316356,45.45637]]]}},{"type":"Feature","properties":{"sec":"15","frstdivid":"MT200040S0440E0SN150"},"geometry":{"type":"Polygon","coordinates":[[[-106.290646,45.483427],[-106.295767,45.4835],[-106.295765,45.485306],[-106.295762,45.487131],[-106.295759,45.48893],[-106.295761,45.490761],[-106.295764,45.492541],[-106.295767,45.494374],[-106.29577,45.496153],[-106.295771,45.497986],[-106.290619,45.497996],[-106.285466,45.498005],[-106.280314,45.498015],[-106.275162,45.498024],[-106.275179,45.494379],[-106.275196,45.490735],[-106.275213,45.487091],[-106.27523,45.483446],[-106.280378,45.483414],[-106.285525,45.483383],[-106.287329,45.483379],[-106.290646,45.483427]]]}},{"type":"Feature","properties":{"sec":"31","frstdivid":"MT200040S0440E0SN310"},"geometry":{"type":"Polygon","coordinates":[[[-106.33701,45.440076],[-106.342147,45.440076],[-106.347283,45.440077],[-106.352422,45.440078],[-106.357484,45.440078],[-106.357487,45.441905],[-106.357487,45.441906],[-106.357491,45.445522],[-106.357507,45.449125],[-106.357522,45.452728],[-106.352354,45.452739],[-106.347211,45.452749],[-106.342068,45.452766],[-106.336925,45.452784],[-106.336948,45.449187],[-106.336971,45.445589],[-106.336996,45.441983],[-106.33701,45.440076]]]}},{"type":"Feature","properties":{"sec":"03","frstdivid":"MT200040S0440E0SN030"},"geometry":{"type":"Polygon","coordinates":[[[-106.2752,45.51069],[-106.280343,45.510695],[-106.285486,45.5107],[-106.290629,45.510705],[-106.295773,45.51071],[-106.295769,45.514194],[-106.295769,45.51433],[-106.295766,45.517679],[-106.295766,45.51795],[-106.295765,45.521163],[-106.295765,45.52157],[-106.295764,45.524647],[-106.290597,45.524643],[-106.285431,45.524638],[-106.280257,45.524618],[-106.275082,45.524598],[-106.275106,45.521544],[-106.275134,45.517925],[-106.275167,45.514308],[-106.2752,45.51069]]]}},{"type":"Feature","properties":{"sec":"30","frstdivid":"MT200040S0440E0SN300"},"geometry":{"type":"Polygon","coordinates":[[[-106.33695,45.467253],[-106.336944,45.463636],[-106.336938,45.460019],[-106.336931,45.456401],[-106.336925,45.452784],[-106.342068,45.452766],[-106.347211,45.452749],[-106.352354,45.452739],[-106.357522,45.452728],[-106.357537,45.456329],[-106.357552,45.45993],[-106.357578,45.463555],[-106.357605,45.46718],[-106.352374,45.467198],[-106.347233,45.467216],[-106.342091,45.467235],[-106.33695,45.467253]]]}},{"type":"Feature","properties":{"sec":"22","frstdivid":"MT200040S0440E0SN220"},"geometry":{"type":"Polygon","coordinates":[[[-106.27523,45.483446],[-106.275241,45.47983],[-106.275251,45.476214],[-106.275262,45.472598],[-106.275272,45.468983],[-106.280416,45.468992],[-106.28556,45.469001],[-106.290704,45.469011],[-106.295849,45.46902],[-106.295823,45.472646],[-106.295797,45.476272],[-106.295774,45.479894],[-106.295764,45.481681],[-106.295767,45.4835],[-106.290646,45.483427],[-106.287329,45.483379],[-106.285525,45.483383],[-106.280378,45.483414],[-106.27523,45.483446]]]}},{"type":"Feature","properties":{"sec":"26","frstdivid":"MT200040S0440E0SN260"},"geometry":{"type":"Polygon","coordinates":[[[-106.270183,45.454507],[-106.275319,45.454513],[-106.275307,45.458131],[-106.275296,45.461748],[-106.275284,45.465365],[-106.275272,45.468983],[-106.270141,45.468985],[-106.265009,45.468987],[-106.259878,45.468989],[-106.254747,45.468992],[-106.254754,45.465365],[-106.254761,45.461739],[-106.254769,45.458113],[-106.254776,45.454486],[-106.259912,45.454493],[-106.265048,45.4545],[-106.270183,45.454507]]]}},{"type":"Feature","properties":{"sec":"16","frstdivid":"MT200040S0440E0SN160"},"geometry":{"type":"Polygon","coordinates":[[[-106.295765,45.485306],[-106.295767,45.4835],[-106.295764,45.481681],[-106.300915,45.48168],[-106.306065,45.481678],[-106.311214,45.481678],[-106.316363,45.481677],[-106.316361,45.485295],[-106.316359,45.488912],[-106.316356,45.492534],[-106.316353,45.496155],[-106.311209,45.496153],[-106.306065,45.496152],[-106.300917,45.496152],[-106.29577,45.496153],[-106.295767,45.494374],[-106.295764,45.492541],[-106.295761,45.490761],[-106.295759,45.48893],[-106.295762,45.487131],[-106.295765,45.485306]]]}},{"type":"Feature","properties":{"sec":"32","frstdivid":"MT200040S0440E0SN320"},"geometry":{"type":"Polygon","coordinates":[[[-106.316394,45.449144],[-106.316413,45.447308],[-106.316425,45.445537],[-106.316438,45.443694],[-106.316451,45.441923],[-106.316464,45.44008],[-106.3216,45.440079],[-106.324169,45.440078],[-106.326737,45.440077],[-106.331874,45.440077],[-106.334442,45.440076],[-106.33701,45.440076],[-106.336996,45.441983],[-106.336971,45.445589],[-106.336948,45.449187],[-106.336925,45.452784],[-106.331783,45.452775],[-106.326641,45.452767],[-106.321499,45.452759],[-106.316357,45.452751],[-106.316376,45.450915],[-106.316394,45.449144]]]}},{"type":"Feature","properties":{"sec":"28","frstdivid":"MT200040S0440E0SN280"},"geometry":{"type":"Polygon","coordinates":[[[-106.295849,45.46902],[-106.295855,45.465399],[-106.295862,45.461779],[-106.295869,45.458158],[-106.295876,45.454538],[-106.300996,45.454533],[-106.306116,45.454529],[-106.311237,45.454525],[-106.316357,45.454521],[-106.316356,45.45637],[-106.316355,45.458142],[-106.316354,45.459989],[-106.316356,45.461763],[-106.316355,45.463594],[-106.316354,45.465367],[-106.316353,45.467198],[-106.316354,45.468972],[-106.311228,45.468984],[-106.306101,45.468996],[-106.300975,45.469008],[-106.295849,45.46902]]]}},{"type":"Feature","properties":{"sec":"19","frstdivid":"MT200040S0440E0SN190"},"geometry":{"type":"Polygon","coordinates":[[[-106.357605,45.46718],[-106.357551,45.470765],[-106.357497,45.47435],[-106.357505,45.477965],[-106.357513,45.481581],[-106.351902,45.481529],[-106.346296,45.481477],[-106.341646,45.481587],[-106.336996,45.481696],[-106.336977,45.478084],[-106.336959,45.474473],[-106.336954,45.470863],[-106.33695,45.467253],[-106.342091,45.467235],[-106.347233,45.467216],[-106.352374,45.467198],[-106.357605,45.46718]]]}},{"type":"Feature","properties":{"sec":"24","frstdivid":"MT200040S0440E0SN240"},"geometry":{"type":"Polygon","coordinates":[[[-106.254707,45.483447],[-106.249569,45.483436],[-106.244431,45.483426],[-106.239292,45.483415],[-106.234154,45.483405],[-106.234155,45.483314],[-106.234155,45.483169],[-106.234168,45.479785],[-106.234169,45.479555],[-106.234181,45.476166],[-106.234182,45.476086],[-106.234182,45.475941],[-106.234189,45.472539],[-106.234189,45.472324],[-106.234196,45.468912],[-106.239334,45.468932],[-106.244471,45.468952],[-106.249609,45.468972],[-106.254747,45.468992],[-106.254737,45.472605],[-106.254727,45.476219],[-106.254717,45.479833],[-106.254707,45.483447]]]}},{"type":"Feature","properties":{"sec":"36","frstdivid":"MT200040S0440E0SN360"},"geometry":{"type":"Polygon","coordinates":[[[-106.249639,45.454461],[-106.244503,45.454436],[-106.239366,45.454411],[-106.234229,45.454386],[-106.23423,45.454241],[-106.234234,45.450792],[-106.234234,45.450646],[-106.234239,45.447198],[-106.234239,45.447052],[-106.234258,45.443596],[-106.234258,45.443522],[-106.234277,45.439993],[-106.239415,45.440001],[-106.244552,45.44001],[-106.24969,45.440018],[-106.254827,45.440027],[-106.254814,45.443642],[-106.254801,45.447257],[-106.254789,45.450871],[-106.254776,45.454486],[-106.249639,45.454461]]]}},{"type":"Feature","properties":{"sec":"34","frstdivid":"MT200040S0440E0SN340"},"geometry":{"type":"Polygon","coordinates":[[[-106.295876,45.454538],[-106.290736,45.454532],[-106.285597,45.454525],[-106.280458,45.454519],[-106.275319,45.454513],[-106.275328,45.450899],[-106.275338,45.447284],[-106.275347,45.443669],[-106.275356,45.440054],[-106.280498,45.440058],[-106.28564,45.440062],[-106.290782,45.440066],[-106.295924,45.44007],[-106.295912,45.443687],[-106.2959,45.447304],[-106.295888,45.450921],[-106.295876,45.454538]]]}},{"type":"Feature","properties":{"sec":"11","frstdivid":"MT200040S0440E0SN110"},"geometry":{"type":"Polygon","coordinates":[[[-106.264891,45.497994],[-106.270026,45.498009],[-106.275162,45.498024],[-106.27517,45.501646],[-106.275178,45.505268],[-106.275192,45.508889],[-106.2752,45.51069],[-106.270052,45.510692],[-106.264903,45.510694],[-106.259754,45.510695],[-106.254605,45.510697],[-106.254603,45.508839],[-106.254604,45.505217],[-106.254612,45.50159],[-106.25462,45.497964],[-106.259756,45.497979],[-106.264891,45.497994]]]}},{"type":"Feature","properties":{"sec":"27","frstdivid":"MT200040S0440E0SN270"},"geometry":{"type":"Polygon","coordinates":[[[-106.275319,45.454513],[-106.280458,45.454519],[-106.285597,45.454525],[-106.290736,45.454532],[-106.295876,45.454538],[-106.295869,45.458158],[-106.295862,45.461779],[-106.295855,45.465399],[-106.295849,45.46902],[-106.290704,45.469011],[-106.28556,45.469001],[-106.280416,45.468992],[-106.275272,45.468983],[-106.275284,45.465365],[-106.275296,45.461748],[-106.275307,45.458131],[-106.275319,45.454513]]]}},{"type":"Feature","properties":{"sec":"10","frstdivid":"MT200040S0440E0SN100"},"geometry":{"type":"Polygon","coordinates":[[[-106.275192,45.508889],[-106.275178,45.505268],[-106.27517,45.501646],[-106.275162,45.498024],[-106.280314,45.498015],[-106.285466,45.498005],[-106.290619,45.497996],[-106.295771,45.497986],[-106.295771,45.499768],[-106.29577,45.501601],[-106.295769,45.503383],[-106.29577,45.505215],[-106.295771,45.507],[-106.295772,45.508833],[-106.295773,45.51071],[-106.290629,45.510705],[-106.285486,45.5107],[-106.280343,45.510695],[-106.2752,45.51069],[-106.275192,45.508889]]]}},{"type":"Feature","properties":{"sec":"08","frstdivid":"MT200040S0440E0SN080"},"geometry":{"type":"Polygon","coordinates":[[[-106.316353,45.496155],[-106.32163,45.496158],[-106.321761,45.496158],[-106.326907,45.496161],[-106.332046,45.496141],[-106.337186,45.496121],[-106.337184,45.499776],[-106.337183,45.503432],[-106.337183,45.504087],[-106.337183,45.504952],[-106.337182,45.507078],[-106.33719,45.510729],[-106.335854,45.510728],[-106.33495,45.510727],[-106.331937,45.510725],[-106.326685,45.510723],[-106.321526,45.510721],[-106.316367,45.510718],[-106.31636,45.507081],[-106.31636,45.50699],[-106.316354,45.503444],[-106.316354,45.503382],[-106.316354,45.499799],[-106.316354,45.499769],[-106.316353,45.496155]]]}},{"type":"Feature","properties":{"sec":"02","frstdivid":"MT200040S0440E0SN020"},"geometry":{"type":"Polygon","coordinates":[[[-106.270052,45.510692],[-106.2752,45.51069],[-106.275167,45.514308],[-106.275134,45.517925],[-106.275106,45.521544],[-106.275082,45.524598],[-106.269998,45.524603],[-106.264914,45.524609],[-106.259744,45.524614],[-106.254573,45.52462],[-106.254577,45.521554],[-106.254583,45.517935],[-106.254594,45.514316],[-106.254605,45.510697],[-106.259754,45.510695],[-106.264903,45.510694],[-106.270052,45.510692]]]}},{"type":"Feature","properties":{"sec":"01","frstdivid":"MT200040S0440E0SN010"},"geometry":{"type":"Polygon","coordinates":[[[-106.254577,45.521554],[-106.254573,45.52462],[-106.249398,45.524614],[-106.244222,45.524609],[-106.239071,45.524608],[-106.239048,45.524608],[-106.233874,45.524606],[-106.233909,45.521526],[-106.233915,45.521054],[-106.233951,45.517904],[-106.233956,45.517502],[-106.233963,45.514312],[-106.233965,45.513548],[-106.233972,45.51072],[-106.239131,45.510714],[-106.244289,45.510709],[-106.249447,45.510703],[-106.254605,45.510697],[-106.254594,45.514316],[-106.254583,45.517935],[-106.254577,45.521554]]]}},{"type":"Feature","properties":{"sec":"20","frstdivid":"MT200040S0440E0SN200"},"geometry":{"type":"Polygon","coordinates":[[[-106.31636,45.478058],[-106.316358,45.476212],[-106.316356,45.474438],[-106.316356,45.472592],[-106.316355,45.470818],[-106.316354,45.468972],[-106.316353,45.467198],[-106.321505,45.467197],[-106.326657,45.467195],[-106.331803,45.467224],[-106.33695,45.467253],[-106.336954,45.470863],[-106.336959,45.474473],[-106.336977,45.478084],[-106.336996,45.481696],[-106.331822,45.481695],[-106.326648,45.481694],[-106.321516,45.481685],[-106.321506,45.481685],[-106.316363,45.481677],[-106.316361,45.479831],[-106.31636,45.478058]]]}},{"type":"Feature","properties":{"sec":"07","frstdivid":"MT200040S0440E0SN070"},"geometry":{"type":"Polygon","coordinates":[[[-106.337183,45.504952],[-106.337183,45.504087],[-106.337183,45.503432],[-106.337184,45.499776],[-106.337186,45.496121],[-106.342265,45.496058],[-106.347343,45.495996],[-106.352415,45.495931],[-106.354234,45.495908],[-106.355454,45.495893],[-106.357554,45.495866],[-106.357573,45.499477],[-106.357627,45.503099],[-106.357662,45.506705],[-106.357706,45.510323],[-106.352635,45.510424],[-106.347486,45.510527],[-106.342337,45.510628],[-106.33719,45.510729],[-106.337182,45.507078],[-106.337183,45.504952]]]}},{"type":"Feature","properties":{"sec":"13","frstdivid":"MT200040S0440E0SN130"},"geometry":{"type":"Polygon","coordinates":[[[-106.249569,45.483436],[-106.254707,45.483447],[-106.254685,45.487076],[-106.254664,45.490705],[-106.254642,45.494335],[-106.25462,45.497964],[-106.249475,45.497945],[-106.24433,45.497926],[-106.239185,45.497907],[-106.23404,45.497888],[-106.234041,45.497735],[-106.234042,45.49759],[-106.23408,45.494265],[-106.234083,45.493985],[-106.234121,45.490641],[-106.234122,45.490525],[-106.234124,45.490381],[-106.234138,45.487023],[-106.23414,45.486775],[-106.234154,45.483405],[-106.239292,45.483415],[-106.244431,45.483426],[-106.249569,45.483436]]]}}]}