{"type":"FeatureCollection","note":"BLM Public Land Survey System. Provided by the Bureau of Land Management as is. These data are neither legal documents nor land surveys and must not be used as such.","features":[{"type":"Feature","properties":{"sec":"28","frstdivid":"MT200070N0520E0SN280"},"geometry":{"type":"Polygon","coordinates":[[[-105.237258,46.331028],[-105.237211,46.334638],[-105.237164,46.338248],[-105.237117,46.341857],[-105.231951,46.341849],[-105.226784,46.341841],[-105.221556,46.341818],[-105.216328,46.341796],[-105.216431,46.338209],[-105.216534,46.334622],[-105.216532,46.331018],[-105.216529,46.327414],[-105.221706,46.327415],[-105.226883,46.327416],[-105.232094,46.327417],[-105.237305,46.327419],[-105.237258,46.331028]]]}},{"type":"Feature","properties":{"sec":"08","frstdivid":"MT200070N0520E0SN080"},"geometry":{"type":"Polygon","coordinates":[[[-105.24243,46.385159],[-105.237284,46.385186],[-105.237117,46.381565],[-105.23695,46.377944],[-105.237034,46.374331],[-105.237118,46.370719],[-105.242368,46.37071],[-105.247618,46.3707],[-105.252844,46.370685],[-105.258071,46.37067],[-105.258036,46.374282],[-105.258002,46.377895],[-105.257993,46.381545],[-105.257984,46.385196],[-105.25278,46.385164],[-105.247575,46.385133],[-105.24243,46.385159]]]}},{"type":"Feature","properties":{"sec":"17","frstdivid":"MT200070N0520E0SN170"},"geometry":{"type":"Polygon","coordinates":[[[-105.258176,46.359812],[-105.258141,46.363431],[-105.258106,46.367051],[-105.258071,46.37067],[-105.252844,46.370685],[-105.247618,46.3707],[-105.242368,46.37071],[-105.237118,46.370719],[-105.23712,46.36711],[-105.237122,46.363502],[-105.237125,46.359893],[-105.237127,46.356284],[-105.242398,46.356261],[-105.247669,46.356238],[-105.25294,46.356215],[-105.25821,46.356193],[-105.258176,46.359812]]]}},{"type":"Feature","properties":{"sec":"12","frstdivid":"MT200070N0520E0SN120"},"geometry":{"type":"Polygon","coordinates":[[[-105.169838,46.385065],[-105.164698,46.385031],[-105.159438,46.385064],[-105.154178,46.385096],[-105.154189,46.382433],[-105.154194,46.381505],[-105.154205,46.378825],[-105.154211,46.377913],[-105.154223,46.375217],[-105.154227,46.374336],[-105.154239,46.371609],[-105.154244,46.370759],[-105.159448,46.370726],[-105.164651,46.370694],[-105.169888,46.370759],[-105.175125,46.370824],[-105.175116,46.374451],[-105.175106,46.378079],[-105.175042,46.381589],[-105.174979,46.385099],[-105.169838,46.385065]]]}},{"type":"Feature","properties":{"sec":"25","frstdivid":"MT200070N0520E0SN250"},"geometry":{"type":"Polygon","coordinates":[[[-105.164541,46.341845],[-105.159428,46.341861],[-105.154314,46.341876],[-105.154337,46.338271],[-105.15436,46.334666],[-105.1543,46.331016],[-105.154241,46.327365],[-105.159439,46.327346],[-105.164637,46.327326],[-105.16975,46.327292],[-105.174863,46.327259],[-105.174866,46.33088],[-105.174869,46.334502],[-105.174872,46.338124],[-105.174876,46.341746],[-105.169709,46.341796],[-105.164541,46.341845]]]}},{"type":"Feature","properties":{"sec":"31","frstdivid":"MT200070N0520E0SN310"},"geometry":{"type":"Polygon","coordinates":[[[-105.27379,46.313033],[-105.278737,46.313039],[-105.27874,46.31662],[-105.278742,46.3202],[-105.278763,46.323793],[-105.278783,46.327386],[-105.27385,46.327401],[-105.268654,46.327417],[-105.26346,46.327435],[-105.258265,46.327453],[-105.258289,46.323872],[-105.258312,46.320292],[-105.258262,46.316655],[-105.258211,46.313019],[-105.263341,46.313023],[-105.268472,46.313027],[-105.27379,46.313033]]]}},{"type":"Feature","properties":{"sec":"10","frstdivid":"MT200070N0520E0SN100"},"geometry":{"type":"Polygon","coordinates":[[[-105.216432,46.374176],[-105.216486,46.377792],[-105.21654,46.381407],[-105.216594,46.385023],[-105.211403,46.38505],[-105.206212,46.385078],[-105.201021,46.385105],[-105.19583,46.385132],[-105.195834,46.381402],[-105.195838,46.377671],[-105.195817,46.374119],[-105.195797,46.370567],[-105.200939,46.370574],[-105.206081,46.370581],[-105.21123,46.370571],[-105.216378,46.37056],[-105.216432,46.374176]]]}},{"type":"Feature","properties":{"sec":"21","frstdivid":"MT200070N0520E0SN210"},"geometry":{"type":"Polygon","coordinates":[[[-105.221743,46.356124],[-105.21654,46.35609],[-105.216466,46.352507],[-105.216392,46.348923],[-105.21636,46.345359],[-105.216328,46.341796],[-105.221556,46.341818],[-105.226784,46.341841],[-105.231951,46.341849],[-105.237117,46.341857],[-105.23712,46.345464],[-105.237122,46.349071],[-105.237125,46.352677],[-105.237127,46.356284],[-105.232037,46.35622],[-105.226946,46.356157],[-105.221743,46.356124]]]}},{"type":"Feature","properties":{"sec":"20","frstdivid":"MT200070N0520E0SN200"},"geometry":{"type":"Polygon","coordinates":[[[-105.252849,46.341826],[-105.258146,46.341786],[-105.258162,46.345387],[-105.258178,46.348989],[-105.258194,46.352591],[-105.25821,46.356193],[-105.25294,46.356215],[-105.247669,46.356238],[-105.242398,46.356261],[-105.237127,46.356284],[-105.237125,46.352677],[-105.237122,46.349071],[-105.23712,46.345464],[-105.237117,46.341857],[-105.242335,46.341862],[-105.247552,46.341866],[-105.252849,46.341826]]]}},{"type":"Feature","properties":{"sec":"03","frstdivid":"MT200070N0520E0SN030"},"geometry":{"type":"Polygon","coordinates":[[[-105.195545,46.399582],[-105.195679,46.395856],[-105.195809,46.392266],[-105.195819,46.388699],[-105.19583,46.385132],[-105.201021,46.385105],[-105.206212,46.385078],[-105.211403,46.38505],[-105.216594,46.385023],[-105.216415,46.388609],[-105.216236,46.392195],[-105.216145,46.395783],[-105.21605,46.399499],[-105.210806,46.399485],[-105.205562,46.399471],[-105.200554,46.399527],[-105.195545,46.399582]]]}},{"type":"Feature","properties":{"sec":"29","frstdivid":"MT200070N0520E0SN290"},"geometry":{"type":"Polygon","coordinates":[[[-105.237258,46.331028],[-105.237305,46.327419],[-105.242558,46.327443],[-105.24781,46.327466],[-105.253037,46.32746],[-105.258265,46.327453],[-105.258235,46.331036],[-105.258205,46.334619],[-105.258175,46.338202],[-105.258146,46.341786],[-105.252849,46.341826],[-105.247552,46.341866],[-105.242335,46.341862],[-105.237117,46.341857],[-105.237164,46.338248],[-105.237211,46.334638],[-105.237258,46.331028]]]}},{"type":"Feature","properties":{"sec":"27","frstdivid":"MT200070N0520E0SN270"},"geometry":{"type":"Polygon","coordinates":[[[-105.195483,46.341808],[-105.195516,46.338202],[-105.195549,46.334595],[-105.195572,46.33097],[-105.195596,46.327345],[-105.200846,46.327346],[-105.206097,46.327347],[-105.211313,46.327381],[-105.216529,46.327414],[-105.216532,46.331018],[-105.216534,46.334622],[-105.216431,46.338209],[-105.216328,46.341796],[-105.211093,46.341869],[-105.205858,46.341942],[-105.20067,46.341875],[-105.195483,46.341808]]]}},{"type":"Feature","properties":{"sec":"07","frstdivid":"MT200070N0520E0SN070"},"geometry":{"type":"Polygon","coordinates":[[[-105.273731,46.370616],[-105.278654,46.370582],[-105.278663,46.374211],[-105.278671,46.37784],[-105.27868,46.381469],[-105.278689,46.385098],[-105.273798,46.385146],[-105.268497,46.385198],[-105.26324,46.385197],[-105.257984,46.385196],[-105.257993,46.381545],[-105.258002,46.377895],[-105.258036,46.374282],[-105.258071,46.37067],[-105.263212,46.370661],[-105.268353,46.370652],[-105.273731,46.370616]]]}},{"type":"Feature","properties":{"sec":"13","frstdivid":"MT200070N0520E0SN130"},"geometry":{"type":"Polygon","coordinates":[[[-105.15426,46.367137],[-105.154272,46.364329],[-105.15428,46.363515],[-105.154284,46.36069],[-105.154285,46.359894],[-105.154289,46.35705],[-105.154294,46.356273],[-105.159476,46.356231],[-105.164658,46.35619],[-105.169842,46.356199],[-105.175025,46.356209],[-105.175,46.359793],[-105.174974,46.363377],[-105.17505,46.367101],[-105.175125,46.370824],[-105.169888,46.370759],[-105.164651,46.370694],[-105.159448,46.370726],[-105.154244,46.370759],[-105.154256,46.367969],[-105.15426,46.367137]]]}},{"type":"Feature","properties":{"sec":"14","frstdivid":"MT200070N0520E0SN140"},"geometry":{"type":"Polygon","coordinates":[[[-105.19061,46.356174],[-105.195734,46.35617],[-105.195754,46.359754],[-105.195773,46.363339],[-105.195785,46.366953],[-105.195797,46.370567],[-105.190629,46.370631],[-105.185461,46.370696],[-105.180293,46.37076],[-105.175125,46.370824],[-105.17505,46.367101],[-105.174974,46.363377],[-105.175,46.359793],[-105.175025,46.356209],[-105.180255,46.356194],[-105.185485,46.356179],[-105.19061,46.356174]]]}},{"type":"Feature","properties":{"sec":"04","frstdivid":"MT200070N0520E0SN040"},"geometry":{"type":"Polygon","coordinates":[[[-105.23162,46.399547],[-105.226426,46.399489],[-105.221238,46.399494],[-105.21605,46.399499],[-105.216145,46.395783],[-105.216236,46.392195],[-105.216415,46.388609],[-105.216594,46.385023],[-105.221767,46.385064],[-105.226939,46.385104],[-105.232112,46.385145],[-105.237284,46.385186],[-105.237166,46.388807],[-105.237047,46.392427],[-105.236929,46.396048],[-105.236813,46.399604],[-105.23162,46.399547]]]}},{"type":"Feature","properties":{"sec":"33","frstdivid":"MT200070N0520E0SN330"},"geometry":{"type":"Polygon","coordinates":[[[-105.23216,46.312988],[-105.237383,46.312977],[-105.237363,46.316588],[-105.237344,46.320198],[-105.237325,46.323808],[-105.237305,46.327419],[-105.232094,46.327417],[-105.226883,46.327416],[-105.221706,46.327415],[-105.216529,46.327414],[-105.21652,46.323816],[-105.216511,46.320217],[-105.216502,46.316618],[-105.216493,46.313019],[-105.221716,46.313009],[-105.226938,46.312998],[-105.23216,46.312988]]]}},{"type":"Feature","properties":{"sec":"30","frstdivid":"MT200070N0520E0SN300"},"geometry":{"type":"Polygon","coordinates":[[[-105.258205,46.334619],[-105.258235,46.331036],[-105.258265,46.327453],[-105.26346,46.327435],[-105.268654,46.327417],[-105.27385,46.327401],[-105.278783,46.327386],[-105.278761,46.330936],[-105.278738,46.334485],[-105.278714,46.338133],[-105.278691,46.341781],[-105.273763,46.341747],[-105.268577,46.34171],[-105.263361,46.341748],[-105.258146,46.341786],[-105.258175,46.338202],[-105.258205,46.334619]]]}},{"type":"Feature","properties":{"sec":"19","frstdivid":"MT200070N0520E0SN190"},"geometry":{"type":"Polygon","coordinates":[[[-105.273763,46.341747],[-105.278691,46.341781],[-105.278689,46.345387],[-105.278688,46.348993],[-105.278686,46.352521],[-105.278683,46.35605],[-105.273792,46.356101],[-105.268505,46.356156],[-105.263358,46.356174],[-105.25821,46.356193],[-105.258194,46.352591],[-105.258178,46.348989],[-105.258162,46.345387],[-105.258146,46.341786],[-105.263361,46.341748],[-105.268577,46.34171],[-105.273763,46.341747]]]}},{"type":"Feature","properties":{"sec":"01","frstdivid":"MT200070N0520E0SN010"},"geometry":{"type":"Polygon","coordinates":[[[-105.174979,46.385099],[-105.174941,46.388665],[-105.174904,46.392232],[-105.174907,46.395904],[-105.17491,46.399608],[-105.169707,46.399577],[-105.164504,46.399547],[-105.159381,46.399574],[-105.154259,46.399602],[-105.15419,46.396905],[-105.154166,46.395963],[-105.154097,46.393286],[-105.154072,46.392325],[-105.154111,46.389663],[-105.154125,46.388711],[-105.154165,46.386041],[-105.154178,46.385096],[-105.159438,46.385064],[-105.164698,46.385031],[-105.169838,46.385065],[-105.174979,46.385099]]]}},{"type":"Feature","properties":{"sec":"26","frstdivid":"MT200070N0520E0SN260"},"geometry":{"type":"Polygon","coordinates":[[[-105.185157,46.341774],[-105.180017,46.34176],[-105.174876,46.341746],[-105.174872,46.338124],[-105.174869,46.334502],[-105.174866,46.33088],[-105.174863,46.327259],[-105.180032,46.327252],[-105.185201,46.327246],[-105.190399,46.327295],[-105.195596,46.327345],[-105.195572,46.33097],[-105.195549,46.334595],[-105.195516,46.338202],[-105.195483,46.341808],[-105.19032,46.341791],[-105.185157,46.341774]]]}},{"type":"Feature","properties":{"sec":"18","frstdivid":"MT200070N0520E0SN180"},"geometry":{"type":"Polygon","coordinates":[[[-105.258106,46.367051],[-105.258141,46.363431],[-105.258176,46.359812],[-105.25821,46.356193],[-105.263358,46.356174],[-105.268505,46.356156],[-105.273792,46.356101],[-105.278683,46.35605],[-105.278674,46.359688],[-105.278665,46.363327],[-105.27866,46.366955],[-105.278654,46.370582],[-105.273731,46.370616],[-105.268353,46.370652],[-105.263212,46.370661],[-105.258071,46.37067],[-105.258106,46.367051]]]}},{"type":"Feature","properties":{"sec":"05","frstdivid":"MT200070N0520E0SN050"},"geometry":{"type":"Polygon","coordinates":[[[-105.257851,46.39607],[-105.257812,46.399559],[-105.252562,46.39957],[-105.247313,46.399581],[-105.242063,46.399593],[-105.236813,46.399604],[-105.236929,46.396048],[-105.237047,46.392427],[-105.237166,46.388807],[-105.237284,46.385186],[-105.24243,46.385159],[-105.247575,46.385133],[-105.25278,46.385164],[-105.257984,46.385196],[-105.257938,46.388821],[-105.257892,46.392446],[-105.257851,46.39607]]]}},{"type":"Feature","properties":{"sec":"35","frstdivid":"MT200070N0520E0SN350"},"geometry":{"type":"Polygon","coordinates":[[[-105.174758,46.320101],[-105.174767,46.316554],[-105.174776,46.313007],[-105.18,46.313007],[-105.185225,46.313006],[-105.19045,46.313005],[-105.195674,46.313004],[-105.195655,46.31659],[-105.195635,46.320175],[-105.195616,46.32376],[-105.195596,46.327345],[-105.190399,46.327295],[-105.185201,46.327246],[-105.180032,46.327252],[-105.174863,46.327259],[-105.17481,46.32368],[-105.174758,46.320101]]]}},{"type":"Feature","properties":{"sec":"09","frstdivid":"MT200070N0520E0SN090"},"geometry":{"type":"Polygon","coordinates":[[[-105.226627,46.370652],[-105.231872,46.370686],[-105.237118,46.370719],[-105.237034,46.374331],[-105.23695,46.377944],[-105.237117,46.381565],[-105.237284,46.385186],[-105.232112,46.385145],[-105.226939,46.385104],[-105.221767,46.385064],[-105.216594,46.385023],[-105.21654,46.381407],[-105.216486,46.377792],[-105.216432,46.374176],[-105.216378,46.37056],[-105.221503,46.370606],[-105.226627,46.370652]]]}},{"type":"Feature","properties":{"sec":"15","frstdivid":"MT200070N0520E0SN150"},"geometry":{"type":"Polygon","coordinates":[[[-105.195734,46.35617],[-105.200819,46.356187],[-105.205904,46.356204],[-105.211222,46.356147],[-105.21654,46.35609],[-105.216586,46.359702],[-105.216632,46.363314],[-105.216505,46.366937],[-105.216378,46.37056],[-105.21123,46.370571],[-105.206081,46.370581],[-105.200939,46.370574],[-105.195797,46.370567],[-105.195785,46.366953],[-105.195773,46.363339],[-105.195754,46.359754],[-105.195734,46.35617]]]}},{"type":"Feature","properties":{"sec":"06","frstdivid":"MT200070N0520E0SN060"},"geometry":{"type":"Polygon","coordinates":[[[-105.268497,46.385198],[-105.273798,46.385146],[-105.278689,46.385098],[-105.278681,46.388733],[-105.278673,46.392369],[-105.278637,46.395979],[-105.278602,46.399588],[-105.273544,46.399558],[-105.268303,46.399526],[-105.263057,46.399542],[-105.257812,46.399559],[-105.257851,46.39607],[-105.257892,46.392446],[-105.257938,46.388821],[-105.257984,46.385196],[-105.26324,46.385197],[-105.268497,46.385198]]]}},{"type":"Feature","properties":{"sec":"36","frstdivid":"MT200070N0520E0SN360"},"geometry":{"type":"Polygon","coordinates":[[[-105.159439,46.327346],[-105.154241,46.327365],[-105.154238,46.323741],[-105.154234,46.320116],[-105.154239,46.316554],[-105.154243,46.312992],[-105.159376,46.312996],[-105.164509,46.312999],[-105.169643,46.313003],[-105.174776,46.313007],[-105.174767,46.316554],[-105.174758,46.320101],[-105.17481,46.32368],[-105.174863,46.327259],[-105.16975,46.327292],[-105.164637,46.327326],[-105.159439,46.327346]]]}},{"type":"Feature","properties":{"sec":"34","frstdivid":"MT200070N0520E0SN340"},"geometry":{"type":"Polygon","coordinates":[[[-105.216502,46.316618],[-105.216511,46.320217],[-105.21652,46.323816],[-105.216529,46.327414],[-105.211313,46.327381],[-105.206097,46.327347],[-105.200846,46.327346],[-105.195596,46.327345],[-105.195616,46.32376],[-105.195635,46.320175],[-105.195655,46.31659],[-105.195674,46.313004],[-105.200879,46.313008],[-105.206084,46.313012],[-105.211289,46.313016],[-105.216493,46.313019],[-105.216502,46.316618]]]}},{"type":"Feature","properties":{"sec":"11","frstdivid":"MT200070N0520E0SN110"},"geometry":{"type":"Polygon","coordinates":[[[-105.190629,46.370631],[-105.195797,46.370567],[-105.195817,46.374119],[-105.195838,46.377671],[-105.195834,46.381402],[-105.19583,46.385132],[-105.190617,46.385124],[-105.185404,46.385116],[-105.180192,46.385107],[-105.174979,46.385099],[-105.175042,46.381589],[-105.175106,46.378079],[-105.175116,46.374451],[-105.175125,46.370824],[-105.180293,46.37076],[-105.185461,46.370696],[-105.190629,46.370631]]]}},{"type":"Feature","properties":{"sec":"02","frstdivid":"MT200070N0520E0SN020"},"geometry":{"type":"Polygon","coordinates":[[[-105.174979,46.385099],[-105.180192,46.385107],[-105.185404,46.385116],[-105.190617,46.385124],[-105.19583,46.385132],[-105.195819,46.388699],[-105.195809,46.392266],[-105.195679,46.395856],[-105.195545,46.399582],[-105.190397,46.399572],[-105.185248,46.399562],[-105.180079,46.399585],[-105.17491,46.399608],[-105.174907,46.395904],[-105.174904,46.392232],[-105.174941,46.388665],[-105.174979,46.385099]]]}},{"type":"Feature","properties":{"sec":"23","frstdivid":"MT200070N0520E0SN230"},"geometry":{"type":"Polygon","coordinates":[[[-105.19032,46.341791],[-105.195483,46.341808],[-105.195457,46.345412],[-105.19543,46.349016],[-105.195582,46.352593],[-105.195734,46.35617],[-105.19061,46.356174],[-105.185485,46.356179],[-105.180255,46.356194],[-105.175025,46.356209],[-105.174974,46.352617],[-105.174924,46.349026],[-105.1749,46.345386],[-105.174876,46.341746],[-105.180017,46.34176],[-105.185157,46.341774],[-105.19032,46.341791]]]}},{"type":"Feature","properties":{"sec":"16","frstdivid":"MT200070N0520E0SN160"},"geometry":{"type":"Polygon","coordinates":[[[-105.216378,46.37056],[-105.216505,46.366937],[-105.216632,46.363314],[-105.216586,46.359702],[-105.21654,46.35609],[-105.221743,46.356124],[-105.226946,46.356157],[-105.232037,46.35622],[-105.237127,46.356284],[-105.237125,46.359893],[-105.237122,46.363502],[-105.23712,46.36711],[-105.237118,46.370719],[-105.231872,46.370686],[-105.226627,46.370652],[-105.221503,46.370606],[-105.216378,46.37056]]]}},{"type":"Feature","properties":{"sec":"24","frstdivid":"MT200070N0520E0SN240"},"geometry":{"type":"Polygon","coordinates":[[[-105.159428,46.341861],[-105.164541,46.341845],[-105.169709,46.341796],[-105.174876,46.341746],[-105.1749,46.345386],[-105.174924,46.349026],[-105.174974,46.352617],[-105.175025,46.356209],[-105.169842,46.356199],[-105.164658,46.35619],[-105.159476,46.356231],[-105.154294,46.356273],[-105.154269,46.35308],[-105.154266,46.352692],[-105.154237,46.349111],[-105.154275,46.345494],[-105.154314,46.341876],[-105.159428,46.341861]]]}},{"type":"Feature","properties":{"sec":"22","frstdivid":"MT200070N0520E0SN220"},"geometry":{"type":"Polygon","coordinates":[[[-105.211093,46.341869],[-105.216328,46.341796],[-105.21636,46.345359],[-105.216392,46.348923],[-105.216466,46.352507],[-105.21654,46.35609],[-105.211222,46.356147],[-105.205904,46.356204],[-105.200819,46.356187],[-105.195734,46.35617],[-105.195582,46.352593],[-105.19543,46.349016],[-105.195457,46.345412],[-105.195483,46.341808],[-105.20067,46.341875],[-105.205858,46.341942],[-105.211093,46.341869]]]}},{"type":"Feature","properties":{"sec":"32","frstdivid":"MT200070N0520E0SN320"},"geometry":{"type":"Polygon","coordinates":[[[-105.258211,46.313019],[-105.258262,46.316655],[-105.258312,46.320292],[-105.258289,46.323872],[-105.258265,46.327453],[-105.253037,46.32746],[-105.24781,46.327466],[-105.242558,46.327443],[-105.237305,46.327419],[-105.237325,46.323808],[-105.237344,46.320198],[-105.237363,46.316588],[-105.237383,46.312977],[-105.242661,46.312996],[-105.247939,46.313016],[-105.253075,46.313017],[-105.258211,46.313019]]]}}]}