{"type":"FeatureCollection","note":"BLM Public Land Survey System. Provided by the Bureau of Land Management as is. These data are neither legal documents nor land surveys and must not be used as such.","features":[{"type":"Feature","properties":{"sec":"01","frstdivid":"MT200040S0460E0SN010"},"geometry":{"type":"Polygon","coordinates":[[[-105.99058,45.521316],[-105.990583,45.517777],[-105.990586,45.514158],[-105.990593,45.510538],[-105.990596,45.508728],[-105.9906,45.506918],[-105.995751,45.506912],[-105.998327,45.50691],[-106.000903,45.506907],[-106.003478,45.506905],[-106.006054,45.506903],[-106.011204,45.506898],[-106.011205,45.508706],[-106.011205,45.510515],[-106.011205,45.514132],[-106.011206,45.51775],[-106.011207,45.521332],[-106.007268,45.521327],[-106.006051,45.521325],[-106.002124,45.521321],[-106.000895,45.52132],[-105.996978,45.521319],[-105.995737,45.521318],[-105.991833,45.521316],[-105.99058,45.521316]]]}},{"type":"Feature","properties":{"sec":"13","frstdivid":"MT200040S0460E0SN130"},"geometry":{"type":"Polygon","coordinates":[[[-106.011235,45.483411],[-106.011234,45.485217],[-106.011232,45.487023],[-106.01123,45.488829],[-106.011228,45.490636],[-106.011226,45.492442],[-106.008655,45.492442],[-106.006083,45.492443],[-106.000939,45.492444],[-105.995796,45.492445],[-105.990652,45.492446],[-105.990659,45.488829],[-105.990666,45.485212],[-105.990667,45.484308],[-105.990669,45.483404],[-105.990672,45.481595],[-105.990676,45.479787],[-105.990679,45.477978],[-105.995819,45.477982],[-106.00096,45.477985],[-106.0061,45.477989],[-106.007386,45.477989],[-106.008671,45.47799],[-106.011241,45.477992],[-106.011237,45.481605],[-106.011235,45.483411]]]}},{"type":"Feature","properties":{"sec":"12","frstdivid":"MT200040S0460E0SN120"},"geometry":{"type":"Polygon","coordinates":[[[-106.003478,45.506905],[-106.000903,45.506907],[-105.998327,45.50691],[-105.995751,45.506912],[-105.9906,45.506918],[-105.990606,45.505109],[-105.990613,45.5033],[-105.990626,45.499682],[-105.990639,45.496064],[-105.990652,45.492446],[-105.995796,45.492445],[-106.000939,45.492444],[-106.006083,45.492443],[-106.008655,45.492442],[-106.011226,45.492442],[-106.011224,45.494249],[-106.011221,45.496056],[-106.011215,45.49967],[-106.011213,45.501477],[-106.01121,45.503284],[-106.011207,45.505091],[-106.011204,45.506898],[-106.006054,45.506903],[-106.003478,45.506905]]]}},{"type":"Feature","properties":{"sec":"24","frstdivid":"MT200040S0460E0SN240"},"geometry":{"type":"Polygon","coordinates":[[[-106.007386,45.477989],[-106.0061,45.477989],[-106.00096,45.477985],[-105.995819,45.477982],[-105.990679,45.477978],[-105.990682,45.476169],[-105.990684,45.47436],[-105.990689,45.470742],[-105.990694,45.467124],[-105.990699,45.463506],[-105.995835,45.46351],[-106.000971,45.463513],[-106.006107,45.463517],[-106.011244,45.46352],[-106.011243,45.467138],[-106.011242,45.470756],[-106.011242,45.474374],[-106.011241,45.476183],[-106.011241,45.477992],[-106.008671,45.47799],[-106.007386,45.477989]]]}},{"type":"Feature","properties":{"sec":"32","frstdivid":"MT200040S0460E0SN320"},"geometry":{"type":"Polygon","coordinates":[[[-106.072936,45.435498],[-106.072885,45.43459],[-106.074222,45.434595],[-106.075508,45.434597],[-106.078034,45.434598],[-106.083184,45.434606],[-106.088333,45.434614],[-106.093482,45.434622],[-106.093488,45.438242],[-106.093517,45.440059],[-106.093493,45.441862],[-106.093499,45.445482],[-106.093505,45.449102],[-106.088346,45.449092],[-106.083187,45.449083],[-106.078029,45.449074],[-106.07287,45.449064],[-106.072874,45.445446],[-106.072877,45.441827],[-106.072881,45.438209],[-106.072935,45.436402],[-106.072936,45.435498]]]}},{"type":"Feature","properties":{"sec":"18","frstdivid":"MT200040S0460E0SN180"},"geometry":{"type":"Polygon","coordinates":[[[-106.093551,45.478032],[-106.098697,45.478035],[-106.103843,45.478037],[-106.108989,45.47804],[-106.112742,45.478042],[-106.11268,45.480676],[-106.112652,45.481654],[-106.112564,45.484289],[-106.112541,45.485272],[-106.112485,45.487894],[-106.11246,45.488886],[-106.112378,45.491506],[-106.112333,45.492503],[-106.109038,45.492501],[-106.103886,45.492496],[-106.098735,45.492492],[-106.093584,45.492487],[-106.093576,45.488873],[-106.093567,45.485259],[-106.093559,45.481646],[-106.093551,45.478032]]]}},{"type":"Feature","properties":{"sec":"21","frstdivid":"MT200040S0460E0SN210"},"geometry":{"type":"Polygon","coordinates":[[[-106.072906,45.467152],[-106.072914,45.470769],[-106.072922,45.474386],[-106.072929,45.478003],[-106.067785,45.478003],[-106.06264,45.478003],[-106.057495,45.478003],[-106.05235,45.478003],[-106.052351,45.474386],[-106.052352,45.470769],[-106.052353,45.467153],[-106.052354,45.463536],[-106.05749,45.463535],[-106.062626,45.463535],[-106.067762,45.463535],[-106.072898,45.463535],[-106.072906,45.467152]]]}},{"type":"Feature","properties":{"sec":"31","frstdivid":"MT200040S0460E0SN310"},"geometry":{"type":"Polygon","coordinates":[[[-106.108959,45.449122],[-106.103808,45.449115],[-106.098656,45.449109],[-106.093505,45.449102],[-106.093499,45.445482],[-106.093493,45.441862],[-106.093517,45.440059],[-106.093488,45.438242],[-106.093482,45.434622],[-106.098634,45.43463],[-106.103785,45.434638],[-106.108936,45.434646],[-106.111507,45.434642],[-106.113447,45.434653],[-106.113419,45.437574],[-106.113419,45.438273],[-106.113413,45.439171],[-106.113413,45.440077],[-106.113418,45.441893],[-106.113411,45.442963],[-106.113409,45.44551],[-106.113418,45.448356],[-106.113414,45.449127],[-106.108959,45.449122]]]}},{"type":"Feature","properties":{"sec":"17","frstdivid":"MT200040S0460E0SN170"},"geometry":{"type":"Polygon","coordinates":[[[-106.083275,45.492476],[-106.078121,45.49247],[-106.072966,45.492464],[-106.072957,45.488849],[-106.072948,45.485234],[-106.072939,45.481618],[-106.072929,45.478003],[-106.078085,45.47801],[-106.08324,45.478017],[-106.088396,45.478025],[-106.093551,45.478032],[-106.093559,45.481646],[-106.093567,45.485259],[-106.093576,45.488873],[-106.093584,45.492487],[-106.08843,45.492481],[-106.083275,45.492476]]]}},{"type":"Feature","properties":{"sec":"15","frstdivid":"MT200040S0460E0SN150"},"geometry":{"type":"Polygon","coordinates":[[[-106.03178,45.488846],[-106.031779,45.48523],[-106.031777,45.481613],[-106.031776,45.477997],[-106.036919,45.477999],[-106.042063,45.478],[-106.047207,45.478001],[-106.05235,45.478003],[-106.052355,45.481619],[-106.052359,45.485235],[-106.052363,45.488851],[-106.052367,45.492467],[-106.047221,45.492466],[-106.042074,45.492465],[-106.036928,45.492463],[-106.031782,45.492462],[-106.031785,45.490651],[-106.03178,45.488846]]]}},{"type":"Feature","properties":{"sec":"06","frstdivid":"MT200040S0460E0SN060"},"geometry":{"type":"Polygon","coordinates":[[[-106.093551,45.521348],[-106.093557,45.51778],[-106.093563,45.514167],[-106.093554,45.513258],[-106.093556,45.512355],[-106.09357,45.510554],[-106.093563,45.508743],[-106.093576,45.506941],[-106.096141,45.50694],[-106.098719,45.506944],[-106.10129,45.506945],[-106.103861,45.506947],[-106.109004,45.50695],[-106.112083,45.506952],[-106.112029,45.509206],[-106.112013,45.510566],[-106.111992,45.512907],[-106.111972,45.514181],[-106.111944,45.516608],[-106.11193,45.517795],[-106.111901,45.520306],[-106.111888,45.521338],[-106.108968,45.521339],[-106.104965,45.521341],[-106.103828,45.521341],[-106.099825,45.521344],[-106.09869,45.521345],[-106.094688,45.521348],[-106.093551,45.521348]]]}},{"type":"Feature","properties":{"sec":"30","frstdivid":"MT200040S0460E0SN300"},"geometry":{"type":"Polygon","coordinates":[[[-106.103825,45.463588],[-106.09867,45.463583],[-106.093515,45.463578],[-106.093512,45.459959],[-106.09351,45.45634],[-106.093507,45.452721],[-106.093505,45.449102],[-106.098656,45.449109],[-106.103808,45.449115],[-106.108959,45.449122],[-106.113414,45.449127],[-106.113394,45.451864],[-106.113391,45.452744],[-106.113382,45.455372],[-106.113359,45.456354],[-106.113285,45.458982],[-106.113259,45.459967],[-106.113189,45.462599],[-106.113163,45.463581],[-106.108971,45.463584],[-106.103825,45.463588]]]}},{"type":"Feature","properties":{"sec":"08","frstdivid":"MT200040S0460E0SN080"},"geometry":{"type":"Polygon","coordinates":[[[-106.072966,45.492464],[-106.078121,45.49247],[-106.083275,45.492476],[-106.08843,45.492481],[-106.093584,45.492487],[-106.093582,45.4961],[-106.09358,45.499714],[-106.093578,45.503327],[-106.093576,45.506941],[-106.090997,45.506934],[-106.088431,45.506936],[-106.083286,45.506931],[-106.078141,45.506927],[-106.072996,45.506922],[-106.073002,45.505107],[-106.072989,45.503307],[-106.072981,45.499693],[-106.072974,45.496079],[-106.072966,45.492464]]]}},{"type":"Feature","properties":{"sec":"26","frstdivid":"MT200040S0460E0SN260"},"geometry":{"type":"Polygon","coordinates":[[[-106.026647,45.449043],[-106.031782,45.449043],[-106.031781,45.452663],[-106.031781,45.456283],[-106.031781,45.459903],[-106.031781,45.463523],[-106.026647,45.463522],[-106.021512,45.463522],[-106.016378,45.463521],[-106.011244,45.46352],[-106.011243,45.4599],[-106.011243,45.456281],[-106.011242,45.452661],[-106.011242,45.449041],[-106.016377,45.449042],[-106.021512,45.449042],[-106.026647,45.449043]]]}},{"type":"Feature","properties":{"sec":"34","frstdivid":"MT200040S0460E0SN340"},"geometry":{"type":"Polygon","coordinates":[[[-106.047171,45.434568],[-106.0523,45.43457],[-106.052309,45.438192],[-106.052318,45.441814],[-106.052327,45.445436],[-106.052336,45.449058],[-106.047198,45.449054],[-106.042059,45.44905],[-106.03692,45.449047],[-106.031782,45.449043],[-106.031782,45.445423],[-106.031782,45.441803],[-106.031782,45.438183],[-106.031783,45.434563],[-106.036912,45.434565],[-106.042042,45.434566],[-106.047171,45.434568]]]}},{"type":"Feature","properties":{"sec":"27","frstdivid":"MT200040S0460E0SN270"},"geometry":{"type":"Polygon","coordinates":[[[-106.036924,45.463526],[-106.031781,45.463523],[-106.031781,45.459903],[-106.031781,45.456283],[-106.031781,45.452663],[-106.031782,45.449043],[-106.03692,45.449047],[-106.042059,45.44905],[-106.047198,45.449054],[-106.052336,45.449058],[-106.052341,45.452677],[-106.052345,45.456297],[-106.052349,45.459916],[-106.052354,45.463536],[-106.04721,45.463533],[-106.042067,45.463529],[-106.036924,45.463526]]]}},{"type":"Feature","properties":{"sec":"36","frstdivid":"MT200040S0460E0SN360"},"geometry":{"type":"Polygon","coordinates":[[[-105.990726,45.445415],[-105.99072,45.441794],[-105.990713,45.438173],[-105.990707,45.434552],[-105.995849,45.434553],[-106.00099,45.434553],[-106.006132,45.434554],[-106.011273,45.434554],[-106.011265,45.438176],[-106.011257,45.441798],[-106.01125,45.44542],[-106.011242,45.449041],[-106.006114,45.44904],[-106.000987,45.449039],[-105.99586,45.449037],[-105.990732,45.449036],[-105.990726,45.445415]]]}},{"type":"Feature","properties":{"sec":"35","frstdivid":"MT200040S0460E0SN350"},"geometry":{"type":"Polygon","coordinates":[[[-106.016401,45.434556],[-106.021528,45.434558],[-106.026655,45.434561],[-106.031783,45.434563],[-106.031782,45.438183],[-106.031782,45.441803],[-106.031782,45.445423],[-106.031782,45.449043],[-106.026647,45.449043],[-106.021512,45.449042],[-106.016377,45.449042],[-106.011242,45.449041],[-106.01125,45.44542],[-106.011257,45.441798],[-106.011265,45.438176],[-106.011273,45.434554],[-106.016401,45.434556]]]}},{"type":"Feature","properties":{"sec":"03","frstdivid":"MT200040S0460E0SN030"},"geometry":{"type":"Polygon","coordinates":[[[-106.031793,45.506898],[-106.034367,45.506889],[-106.036939,45.506905],[-106.042084,45.506912],[-106.04723,45.506918],[-106.049807,45.506908],[-106.052376,45.506925],[-106.052382,45.510536],[-106.052388,45.514147],[-106.052393,45.517758],[-106.052399,45.521357],[-106.048413,45.521355],[-106.047251,45.521354],[-106.043271,45.521352],[-106.042102,45.521352],[-106.038128,45.521351],[-106.036953,45.521351],[-106.032985,45.52135],[-106.031803,45.52135],[-106.031801,45.517734],[-106.031798,45.514122],[-106.031795,45.51051],[-106.031795,45.508693],[-106.031793,45.506898]]]}},{"type":"Feature","properties":{"sec":"22","frstdivid":"MT200040S0460E0SN220"},"geometry":{"type":"Polygon","coordinates":[[[-106.031777,45.474379],[-106.031778,45.47076],[-106.03178,45.467142],[-106.031781,45.463523],[-106.036924,45.463526],[-106.042067,45.463529],[-106.04721,45.463533],[-106.052354,45.463536],[-106.052353,45.467153],[-106.052352,45.470769],[-106.052351,45.474386],[-106.05235,45.478003],[-106.047207,45.478001],[-106.042063,45.478],[-106.036919,45.477999],[-106.031776,45.477997],[-106.031777,45.474379]]]}},{"type":"Feature","properties":{"sec":"23","frstdivid":"MT200040S0460E0SN230"},"geometry":{"type":"Polygon","coordinates":[[[-106.031776,45.477997],[-106.026642,45.477996],[-106.021508,45.477995],[-106.016375,45.477993],[-106.011241,45.477992],[-106.011241,45.476183],[-106.011242,45.474374],[-106.011242,45.470756],[-106.011243,45.467138],[-106.011244,45.46352],[-106.016378,45.463521],[-106.021512,45.463522],[-106.026647,45.463522],[-106.031781,45.463523],[-106.03178,45.467142],[-106.031778,45.47076],[-106.031777,45.474379],[-106.031776,45.477997]]]}},{"type":"Feature","properties":{"sec":"33","frstdivid":"MT200040S0460E0SN330"},"geometry":{"type":"Polygon","coordinates":[[[-106.062593,45.43458],[-106.067739,45.434585],[-106.072885,45.43459],[-106.072936,45.435498],[-106.072935,45.436402],[-106.072881,45.438209],[-106.072877,45.441827],[-106.072874,45.445446],[-106.07287,45.449064],[-106.067737,45.449063],[-106.062603,45.449061],[-106.05747,45.449059],[-106.052336,45.449058],[-106.052327,45.445436],[-106.052318,45.441814],[-106.052309,45.438192],[-106.0523,45.43457],[-106.057446,45.434575],[-106.062593,45.43458]]]}},{"type":"Feature","properties":{"sec":"25","frstdivid":"MT200040S0460E0SN250"},"geometry":{"type":"Polygon","coordinates":[[[-105.990707,45.459889],[-105.990716,45.456271],[-105.990724,45.452653],[-105.990732,45.449036],[-105.99586,45.449037],[-106.000987,45.449039],[-106.006114,45.44904],[-106.011242,45.449041],[-106.011242,45.452661],[-106.011243,45.456281],[-106.011243,45.4599],[-106.011244,45.46352],[-106.006107,45.463517],[-106.000971,45.463513],[-105.995835,45.46351],[-105.990699,45.463506],[-105.990707,45.459889]]]}},{"type":"Feature","properties":{"sec":"05","frstdivid":"MT200040S0460E0SN050"},"geometry":{"type":"Polygon","coordinates":[[[-106.093554,45.513258],[-106.093563,45.514167],[-106.093557,45.51778],[-106.093551,45.521348],[-106.089545,45.521349],[-106.088422,45.521349],[-106.084402,45.52135],[-106.083292,45.52135],[-106.079261,45.521352],[-106.078163,45.521352],[-106.074119,45.521354],[-106.073035,45.521354],[-106.073026,45.517766],[-106.073025,45.515954],[-106.073016,45.514151],[-106.073017,45.512338],[-106.073015,45.511434],[-106.073006,45.510537],[-106.073011,45.509626],[-106.073009,45.508722],[-106.072996,45.506922],[-106.078141,45.506927],[-106.083286,45.506931],[-106.088431,45.506936],[-106.090997,45.506934],[-106.093576,45.506941],[-106.093563,45.508743],[-106.09357,45.510554],[-106.093556,45.512355],[-106.093554,45.513258]]]}},{"type":"Feature","properties":{"sec":"19","frstdivid":"MT200040S0460E0SN190"},"geometry":{"type":"Polygon","coordinates":[[[-106.112889,45.47343],[-106.11286,45.474423],[-106.112778,45.477068],[-106.112742,45.478042],[-106.108989,45.47804],[-106.103843,45.478037],[-106.098697,45.478035],[-106.093551,45.478032],[-106.093542,45.474418],[-106.093533,45.470805],[-106.093524,45.467191],[-106.093515,45.463578],[-106.09867,45.463583],[-106.103825,45.463588],[-106.108971,45.463584],[-106.113163,45.463581],[-106.113091,45.466195],[-106.113065,45.467193],[-106.112991,45.469799],[-106.112959,45.470811],[-106.112889,45.47343]]]}},{"type":"Feature","properties":{"sec":"28","frstdivid":"MT200040S0460E0SN280"},"geometry":{"type":"Polygon","coordinates":[[[-106.052349,45.459916],[-106.052345,45.456297],[-106.052341,45.452677],[-106.052336,45.449058],[-106.05747,45.449059],[-106.062603,45.449061],[-106.067737,45.449063],[-106.07287,45.449064],[-106.072877,45.452682],[-106.072884,45.456299],[-106.072891,45.459917],[-106.072898,45.463535],[-106.067762,45.463535],[-106.062626,45.463535],[-106.05749,45.463535],[-106.052354,45.463536],[-106.052349,45.459916]]]}},{"type":"Feature","properties":{"sec":"10","frstdivid":"MT200040S0460E0SN100"},"geometry":{"type":"Polygon","coordinates":[[[-106.052374,45.50331],[-106.052379,45.505105],[-106.05238,45.506009],[-106.052376,45.506925],[-106.049807,45.506908],[-106.04723,45.506918],[-106.042084,45.506912],[-106.036939,45.506905],[-106.034367,45.506889],[-106.031793,45.506898],[-106.031793,45.505083],[-106.03179,45.503289],[-106.031791,45.501476],[-106.031787,45.49968],[-106.031784,45.496071],[-106.031782,45.492462],[-106.036928,45.492463],[-106.042074,45.492465],[-106.047221,45.492466],[-106.052367,45.492467],[-106.052369,45.496081],[-106.052372,45.499696],[-106.052378,45.501492],[-106.052378,45.502396],[-106.052374,45.50331]]]}},{"type":"Feature","properties":{"sec":"11","frstdivid":"MT200040S0460E0SN110"},"geometry":{"type":"Polygon","coordinates":[[[-106.03179,45.503289],[-106.031793,45.505083],[-106.031793,45.506898],[-106.02922,45.506887],[-106.026646,45.506898],[-106.024073,45.50689],[-106.021499,45.506898],[-106.018925,45.506893],[-106.016352,45.506898],[-106.013778,45.506896],[-106.011204,45.506898],[-106.011207,45.505091],[-106.01121,45.503284],[-106.011213,45.501477],[-106.011215,45.49967],[-106.011221,45.496056],[-106.011224,45.494249],[-106.011226,45.492442],[-106.013796,45.492444],[-106.016365,45.492447],[-106.018936,45.492448],[-106.021504,45.492452],[-106.024076,45.492452],[-106.026643,45.492457],[-106.029216,45.492456],[-106.031782,45.492462],[-106.031784,45.496071],[-106.031787,45.49968],[-106.031791,45.501476],[-106.03179,45.503289]]]}},{"type":"Feature","properties":{"sec":"20","frstdivid":"MT200040S0460E0SN200"},"geometry":{"type":"Polygon","coordinates":[[[-106.083206,45.463556],[-106.088361,45.463567],[-106.093515,45.463578],[-106.093524,45.467191],[-106.093533,45.470805],[-106.093542,45.474418],[-106.093551,45.478032],[-106.088396,45.478025],[-106.08324,45.478017],[-106.078085,45.47801],[-106.072929,45.478003],[-106.072922,45.474386],[-106.072914,45.470769],[-106.072906,45.467152],[-106.072898,45.463535],[-106.078052,45.463545],[-106.083206,45.463556]]]}},{"type":"Feature","properties":{"sec":"02","frstdivid":"MT200040S0460E0SN020"},"geometry":{"type":"Polygon","coordinates":[[[-106.011205,45.514132],[-106.011205,45.510515],[-106.011205,45.508706],[-106.011204,45.506898],[-106.013778,45.506896],[-106.016352,45.506898],[-106.018925,45.506893],[-106.021499,45.506898],[-106.024073,45.50689],[-106.026646,45.506898],[-106.02922,45.506887],[-106.031793,45.506898],[-106.031795,45.508693],[-106.031795,45.51051],[-106.031798,45.514122],[-106.031801,45.517734],[-106.031803,45.52135],[-106.027841,45.521346],[-106.026654,45.521344],[-106.022698,45.52134],[-106.021505,45.52134],[-106.017555,45.521337],[-106.016356,45.521336],[-106.012412,45.521332],[-106.011207,45.521332],[-106.011206,45.51775],[-106.011205,45.514132]]]}},{"type":"Feature","properties":{"sec":"29","frstdivid":"MT200040S0460E0SN290"},"geometry":{"type":"Polygon","coordinates":[[[-106.072877,45.452682],[-106.07287,45.449064],[-106.078029,45.449074],[-106.083187,45.449083],[-106.088346,45.449092],[-106.093505,45.449102],[-106.093507,45.452721],[-106.09351,45.45634],[-106.093512,45.459959],[-106.093515,45.463578],[-106.088361,45.463567],[-106.083206,45.463556],[-106.078052,45.463545],[-106.072898,45.463535],[-106.072891,45.459917],[-106.072884,45.456299],[-106.072877,45.452682]]]}},{"type":"Feature","properties":{"sec":"07","frstdivid":"MT200040S0460E0SN070"},"geometry":{"type":"Polygon","coordinates":[[[-106.093576,45.506941],[-106.093578,45.503327],[-106.09358,45.499714],[-106.093582,45.4961],[-106.093584,45.492487],[-106.098735,45.492492],[-106.103886,45.492496],[-106.109038,45.492501],[-106.112333,45.492503],[-106.112341,45.493131],[-106.112271,45.494763],[-106.112275,45.496114],[-106.112251,45.498382],[-106.112223,45.499728],[-106.1122,45.502005],[-106.112181,45.503339],[-106.112126,45.505605],[-106.112083,45.506952],[-106.109004,45.50695],[-106.103861,45.506947],[-106.10129,45.506945],[-106.098719,45.506944],[-106.096141,45.50694],[-106.093576,45.506941]]]}},{"type":"Feature","properties":{"sec":"09","frstdivid":"MT200040S0460E0SN090"},"geometry":{"type":"Polygon","coordinates":[[[-106.052374,45.50331],[-106.052378,45.502396],[-106.052378,45.501492],[-106.052372,45.499696],[-106.052369,45.496081],[-106.052367,45.492467],[-106.057517,45.492466],[-106.062667,45.492466],[-106.067817,45.492465],[-106.072966,45.492464],[-106.072974,45.496079],[-106.072981,45.499693],[-106.072989,45.503307],[-106.073002,45.505107],[-106.072996,45.506922],[-106.067841,45.506923],[-106.062686,45.506923],[-106.057531,45.506924],[-106.054958,45.506912],[-106.052376,45.506925],[-106.05238,45.506009],[-106.052379,45.505105],[-106.052374,45.50331]]]}},{"type":"Feature","properties":{"sec":"04","frstdivid":"MT200040S0460E0SN040"},"geometry":{"type":"Polygon","coordinates":[[[-106.073006,45.510537],[-106.073015,45.511434],[-106.073017,45.512338],[-106.073016,45.514151],[-106.073025,45.515954],[-106.073026,45.517766],[-106.073035,45.521354],[-106.068979,45.521353],[-106.067877,45.521353],[-106.063839,45.521352],[-106.06272,45.521352],[-106.058697,45.521354],[-106.057559,45.521355],[-106.053555,45.521357],[-106.052399,45.521357],[-106.052393,45.517758],[-106.052388,45.514147],[-106.052382,45.510536],[-106.052376,45.506925],[-106.054958,45.506912],[-106.057531,45.506924],[-106.062686,45.506923],[-106.067841,45.506923],[-106.072996,45.506922],[-106.073009,45.508722],[-106.073011,45.509626],[-106.073006,45.510537]]]}},{"type":"Feature","properties":{"sec":"14","frstdivid":"MT200040S0460E0SN140"},"geometry":{"type":"Polygon","coordinates":[[[-106.01123,45.488829],[-106.011232,45.487023],[-106.011234,45.485217],[-106.011235,45.483411],[-106.011237,45.481605],[-106.011241,45.477992],[-106.016375,45.477993],[-106.021508,45.477995],[-106.026642,45.477996],[-106.031776,45.477997],[-106.031777,45.481613],[-106.031779,45.48523],[-106.03178,45.488846],[-106.031785,45.490651],[-106.031782,45.492462],[-106.029216,45.492456],[-106.026643,45.492457],[-106.024076,45.492452],[-106.021504,45.492452],[-106.018936,45.492448],[-106.016365,45.492447],[-106.013796,45.492444],[-106.011226,45.492442],[-106.011228,45.490636],[-106.01123,45.488829]]]}},{"type":"Feature","properties":{"sec":"16","frstdivid":"MT200040S0460E0SN160"},"geometry":{"type":"Polygon","coordinates":[[[-106.062667,45.492466],[-106.057517,45.492466],[-106.052367,45.492467],[-106.052363,45.488851],[-106.052359,45.485235],[-106.052355,45.481619],[-106.05235,45.478003],[-106.057495,45.478003],[-106.06264,45.478003],[-106.067785,45.478003],[-106.072929,45.478003],[-106.072939,45.481618],[-106.072948,45.485234],[-106.072957,45.488849],[-106.072966,45.492464],[-106.067817,45.492465],[-106.062667,45.492466]]]}}]}