{"type":"FeatureCollection","note":"BLM Public Land Survey System. Provided by the Bureau of Land Management as is. These data are neither legal documents nor land surveys and must not be used as such.","features":[{"type":"Feature","properties":{"sec":"19","frstdivid":"WY060380N0620W0SN190"},"geometry":{"type":"Polygon","coordinates":[[[-104.360457,43.262633],[-104.355688,43.262658],[-104.350746,43.262684],[-104.345815,43.262735],[-104.340885,43.262786],[-104.340971,43.259192],[-104.341056,43.255599],[-104.341141,43.252005],[-104.341227,43.248411],[-104.346178,43.248316],[-104.35113,43.24822],[-104.356082,43.248174],[-104.360812,43.248132],[-104.360723,43.251757],[-104.360634,43.255382],[-104.360546,43.259007],[-104.360457,43.262633]]]}},{"type":"Feature","properties":{"sec":"31","frstdivid":"WY060380N0620W0SN310"},"geometry":{"type":"Polygon","coordinates":[[[-104.346309,43.234007],[-104.341429,43.234163],[-104.341378,43.23045],[-104.341326,43.226737],[-104.341275,43.223024],[-104.341223,43.219311],[-104.34617,43.21929],[-104.351118,43.219269],[-104.356067,43.219261],[-104.360654,43.219254],[-104.360685,43.222868],[-104.360716,43.226482],[-104.360747,43.230096],[-104.360778,43.23371],[-104.356106,43.233777],[-104.351189,43.233852],[-104.346309,43.234007]]]}},{"type":"Feature","properties":{"sec":"29","frstdivid":"WY060380N0620W0SN290"},"geometry":{"type":"Polygon","coordinates":[[[-104.32166,43.233803],[-104.326602,43.233893],[-104.331545,43.233983],[-104.336487,43.234073],[-104.341429,43.234163],[-104.341379,43.237725],[-104.341328,43.241287],[-104.341277,43.244849],[-104.341227,43.248411],[-104.336286,43.248386],[-104.331344,43.248362],[-104.326403,43.248338],[-104.321462,43.248313],[-104.321511,43.244686],[-104.321561,43.241058],[-104.32161,43.237431],[-104.32166,43.233803]]]}},{"type":"Feature","properties":{"sec":"26","frstdivid":"WY060380N0620W0SN260"},"geometry":{"type":"Polygon","coordinates":[[[-104.281845,43.233855],[-104.28185,43.237473],[-104.281854,43.241092],[-104.281859,43.24471],[-104.281863,43.248329],[-104.276941,43.248309],[-104.272019,43.24829],[-104.267097,43.248271],[-104.262175,43.248252],[-104.262182,43.244644],[-104.262189,43.241036],[-104.262195,43.237428],[-104.262202,43.233821],[-104.267113,43.233829],[-104.272024,43.233838],[-104.276934,43.233846],[-104.281845,43.233855]]]}},{"type":"Feature","properties":{"sec":"27","frstdivid":"WY060380N0620W0SN270"},"geometry":{"type":"Polygon","coordinates":[[[-104.30173,43.23747],[-104.301705,43.241108],[-104.301679,43.244746],[-104.301653,43.248383],[-104.296706,43.24837],[-104.291758,43.248356],[-104.286811,43.248342],[-104.281863,43.248329],[-104.281859,43.24471],[-104.281854,43.241092],[-104.28185,43.237473],[-104.281845,43.233855],[-104.286823,43.233849],[-104.291801,43.233844],[-104.296778,43.233838],[-104.301756,43.233833],[-104.30173,43.23747]]]}},{"type":"Feature","properties":{"sec":"23","frstdivid":"WY060380N0620W0SN230"},"geometry":{"type":"Polygon","coordinates":[[[-104.267097,43.248271],[-104.272019,43.24829],[-104.276941,43.248309],[-104.281863,43.248329],[-104.28189,43.251935],[-104.281916,43.255541],[-104.281943,43.259148],[-104.281969,43.262754],[-104.277041,43.262739],[-104.272113,43.262724],[-104.267185,43.262709],[-104.262256,43.262694],[-104.262236,43.259083],[-104.262216,43.255473],[-104.262196,43.251863],[-104.262175,43.248252],[-104.267097,43.248271]]]}},{"type":"Feature","properties":{"sec":"18","frstdivid":"WY060380N0620W0SN180"},"geometry":{"type":"Polygon","coordinates":[[[-104.341076,43.273611],[-104.341012,43.270003],[-104.340949,43.266395],[-104.340885,43.262786],[-104.345815,43.262735],[-104.350746,43.262684],[-104.355688,43.262658],[-104.360457,43.262633],[-104.360472,43.266256],[-104.360487,43.269879],[-104.360502,43.273502],[-104.360516,43.277126],[-104.356007,43.277145],[-104.351051,43.277167],[-104.346095,43.277193],[-104.341139,43.27722],[-104.341076,43.273611]]]}},{"type":"Feature","properties":{"sec":"25","frstdivid":"WY060380N0620W0SN250"},"geometry":{"type":"Polygon","coordinates":[[[-104.262182,43.244644],[-104.262175,43.248252],[-104.257256,43.248241],[-104.252337,43.24823],[-104.247417,43.248219],[-104.242498,43.248207],[-104.242451,43.244588],[-104.242403,43.240969],[-104.242356,43.237349],[-104.242309,43.23373],[-104.247282,43.233753],[-104.252256,43.233775],[-104.257229,43.233798],[-104.262202,43.233821],[-104.262195,43.237428],[-104.262189,43.241036],[-104.262182,43.244644]]]}},{"type":"Feature","properties":{"sec":"22","frstdivid":"WY060380N0620W0SN220"},"geometry":{"type":"Polygon","coordinates":[[[-104.28689,43.262773],[-104.281969,43.262754],[-104.281943,43.259148],[-104.281916,43.255541],[-104.28189,43.251935],[-104.281863,43.248329],[-104.286811,43.248342],[-104.291758,43.248356],[-104.296706,43.24837],[-104.301653,43.248383],[-104.301653,43.251995],[-104.301653,43.255607],[-104.301654,43.259219],[-104.301654,43.262831],[-104.296733,43.262812],[-104.291812,43.262792],[-104.28689,43.262773]]]}},{"type":"Feature","properties":{"sec":"14","frstdivid":"WY060380N0620W0SN140"},"geometry":{"type":"Polygon","coordinates":[[[-104.277033,43.277176],[-104.272148,43.277157],[-104.267264,43.277139],[-104.26238,43.277121],[-104.262349,43.273514],[-104.262318,43.269907],[-104.262287,43.2663],[-104.262256,43.262694],[-104.267185,43.262709],[-104.272113,43.262724],[-104.277041,43.262739],[-104.281969,43.262754],[-104.281956,43.266364],[-104.281943,43.269974],[-104.28193,43.273584],[-104.281917,43.277194],[-104.277033,43.277176]]]}},{"type":"Feature","properties":{"sec":"20","frstdivid":"WY060380N0620W0SN200"},"geometry":{"type":"Polygon","coordinates":[[[-104.326403,43.248338],[-104.331344,43.248362],[-104.336286,43.248386],[-104.341227,43.248411],[-104.341141,43.252005],[-104.341056,43.255599],[-104.340971,43.259192],[-104.340885,43.262786],[-104.335995,43.262791],[-104.331105,43.262796],[-104.326215,43.262801],[-104.321325,43.262806],[-104.321359,43.259183],[-104.321393,43.255559],[-104.321427,43.251936],[-104.321462,43.248313],[-104.326403,43.248338]]]}},{"type":"Feature","properties":{"sec":"11","frstdivid":"WY060380N0620W0SN110"},"geometry":{"type":"Polygon","coordinates":[[[-104.281887,43.280806],[-104.281857,43.284418],[-104.281828,43.28803],[-104.281798,43.291642],[-104.276947,43.291615],[-104.272095,43.291589],[-104.267243,43.291562],[-104.262392,43.291536],[-104.262389,43.287932],[-104.262386,43.284328],[-104.262383,43.280724],[-104.26238,43.277121],[-104.267264,43.277139],[-104.272148,43.277157],[-104.277033,43.277176],[-104.281917,43.277194],[-104.281887,43.280806]]]}},{"type":"Feature","properties":{"sec":"15","frstdivid":"WY060380N0620W0SN150"},"geometry":{"type":"Polygon","coordinates":[[[-104.281917,43.277194],[-104.28193,43.273584],[-104.281943,43.269974],[-104.281956,43.266364],[-104.281969,43.262754],[-104.28689,43.262773],[-104.291812,43.262792],[-104.296733,43.262812],[-104.301654,43.262831],[-104.301611,43.266443],[-104.301568,43.270055],[-104.301525,43.273667],[-104.301482,43.277278],[-104.29659,43.277257],[-104.291699,43.277236],[-104.286808,43.277215],[-104.281917,43.277194]]]}},{"type":"Feature","properties":{"sec":"08","frstdivid":"WY060380N0620W0SN080"},"geometry":{"type":"Polygon","coordinates":[[[-104.34117,43.280832],[-104.341202,43.284445],[-104.341233,43.288057],[-104.341264,43.291669],[-104.336323,43.291695],[-104.331381,43.291721],[-104.32644,43.291747],[-104.321498,43.291773],[-104.321468,43.288152],[-104.321438,43.284532],[-104.321407,43.280912],[-104.321377,43.277292],[-104.326318,43.277274],[-104.331258,43.277256],[-104.336199,43.277238],[-104.341139,43.27722],[-104.34117,43.280832]]]}},{"type":"Feature","properties":{"sec":"34","frstdivid":"WY060380N0620W0SN340"},"geometry":{"type":"Polygon","coordinates":[[[-104.286823,43.233849],[-104.281845,43.233855],[-104.281849,43.230241],[-104.281853,43.226627],[-104.281857,43.223013],[-104.281861,43.219399],[-104.286811,43.21937],[-104.291761,43.21934],[-104.296712,43.219309],[-104.301662,43.219278],[-104.301685,43.222916],[-104.301709,43.226555],[-104.301733,43.230194],[-104.301756,43.233833],[-104.296778,43.233838],[-104.291801,43.233844],[-104.286823,43.233849]]]}},{"type":"Feature","properties":{"sec":"07","frstdivid":"WY060380N0620W0SN070"},"geometry":{"type":"Polygon","coordinates":[[[-104.34117,43.280832],[-104.341139,43.27722],[-104.346095,43.277193],[-104.351051,43.277167],[-104.356007,43.277145],[-104.360516,43.277126],[-104.360603,43.280738],[-104.36069,43.284351],[-104.360777,43.287963],[-104.360863,43.291576],[-104.356152,43.291603],[-104.351192,43.291631],[-104.346228,43.29165],[-104.341264,43.291669],[-104.341233,43.288057],[-104.341202,43.284445],[-104.34117,43.280832]]]}},{"type":"Feature","properties":{"sec":"16","frstdivid":"WY060380N0620W0SN160"},"geometry":{"type":"Polygon","coordinates":[[[-104.301525,43.273667],[-104.301568,43.270055],[-104.301611,43.266443],[-104.301654,43.262831],[-104.306572,43.262825],[-104.31149,43.262818],[-104.316407,43.262812],[-104.321325,43.262806],[-104.321338,43.266427],[-104.321351,43.270049],[-104.321364,43.27367],[-104.321377,43.277292],[-104.316403,43.277288],[-104.311429,43.277285],[-104.306456,43.277282],[-104.301482,43.277278],[-104.301525,43.273667]]]}},{"type":"Feature","properties":{"sec":"28","frstdivid":"WY060380N0620W0SN280"},"geometry":{"type":"Polygon","coordinates":[[[-104.321462,43.248313],[-104.316509,43.248331],[-104.311557,43.248348],[-104.306605,43.248366],[-104.301653,43.248383],[-104.301679,43.244746],[-104.301705,43.241108],[-104.30173,43.23747],[-104.301756,43.233833],[-104.306732,43.233825],[-104.311708,43.233818],[-104.316684,43.233811],[-104.32166,43.233803],[-104.32161,43.237431],[-104.321561,43.241058],[-104.321511,43.244686],[-104.321462,43.248313]]]}},{"type":"Feature","properties":{"sec":"10","frstdivid":"WY060380N0620W0SN100"},"geometry":{"type":"Polygon","coordinates":[[[-104.301239,43.288308],[-104.301158,43.291984],[-104.296318,43.291899],[-104.291478,43.291813],[-104.286638,43.291727],[-104.281798,43.291642],[-104.281828,43.28803],[-104.281857,43.284418],[-104.281887,43.280806],[-104.281917,43.277194],[-104.286808,43.277215],[-104.291699,43.277236],[-104.29659,43.277257],[-104.301482,43.277278],[-104.301401,43.280955],[-104.30132,43.284631],[-104.301239,43.288308]]]}},{"type":"Feature","properties":{"sec":"32","frstdivid":"WY060380N0620W0SN320"},"geometry":{"type":"Polygon","coordinates":[[[-104.341275,43.223024],[-104.341326,43.226737],[-104.341378,43.23045],[-104.341429,43.234163],[-104.336487,43.234073],[-104.331545,43.233983],[-104.326602,43.233893],[-104.32166,43.233803],[-104.321603,43.230164],[-104.321546,43.226525],[-104.32149,43.222886],[-104.321433,43.219247],[-104.32638,43.219263],[-104.331328,43.219279],[-104.336275,43.219295],[-104.341223,43.219311],[-104.341275,43.223024]]]}},{"type":"Feature","properties":{"sec":"21","frstdivid":"WY060380N0620W0SN210"},"geometry":{"type":"Polygon","coordinates":[[[-104.321325,43.262806],[-104.316407,43.262812],[-104.31149,43.262818],[-104.306572,43.262825],[-104.301654,43.262831],[-104.301654,43.259219],[-104.301653,43.255607],[-104.301653,43.251995],[-104.301653,43.248383],[-104.306605,43.248366],[-104.311557,43.248348],[-104.316509,43.248331],[-104.321462,43.248313],[-104.321427,43.251936],[-104.321393,43.255559],[-104.321359,43.259183],[-104.321325,43.262806]]]}},{"type":"Feature","properties":{"sec":"09","frstdivid":"WY060380N0620W0SN090"},"geometry":{"type":"Polygon","coordinates":[[[-104.301401,43.280955],[-104.301482,43.277278],[-104.306456,43.277282],[-104.311429,43.277285],[-104.316403,43.277288],[-104.321377,43.277292],[-104.321407,43.280912],[-104.321438,43.284532],[-104.321468,43.288152],[-104.321498,43.291773],[-104.316413,43.291826],[-104.311328,43.291878],[-104.306243,43.291931],[-104.301158,43.291984],[-104.301239,43.288308],[-104.30132,43.284631],[-104.301401,43.280955]]]}},{"type":"Feature","properties":{"sec":"33","frstdivid":"WY060380N0620W0SN330"},"geometry":{"type":"Polygon","coordinates":[[[-104.301685,43.222916],[-104.301662,43.219278],[-104.306604,43.21927],[-104.311547,43.219262],[-104.31649,43.219254],[-104.321433,43.219247],[-104.32149,43.222886],[-104.321546,43.226525],[-104.321603,43.230164],[-104.32166,43.233803],[-104.316684,43.233811],[-104.311708,43.233818],[-104.306732,43.233825],[-104.301756,43.233833],[-104.301733,43.230194],[-104.301709,43.226555],[-104.301685,43.222916]]]}},{"type":"Feature","properties":{"sec":"17","frstdivid":"WY060380N0620W0SN170"},"geometry":{"type":"Polygon","coordinates":[[[-104.335995,43.262791],[-104.340885,43.262786],[-104.340949,43.266395],[-104.341012,43.270003],[-104.341076,43.273611],[-104.341139,43.27722],[-104.336199,43.277238],[-104.331258,43.277256],[-104.326318,43.277274],[-104.321377,43.277292],[-104.321364,43.27367],[-104.321351,43.270049],[-104.321338,43.266427],[-104.321325,43.262806],[-104.326215,43.262801],[-104.331105,43.262796],[-104.335995,43.262791]]]}},{"type":"Feature","properties":{"sec":"35","frstdivid":"WY060380N0620W0SN350"},"geometry":{"type":"Polygon","coordinates":[[[-104.272024,43.233838],[-104.267113,43.233829],[-104.262202,43.233821],[-104.262167,43.230212],[-104.262131,43.226603],[-104.262096,43.222995],[-104.262061,43.219386],[-104.267011,43.219389],[-104.271961,43.219393],[-104.276911,43.219396],[-104.281861,43.219399],[-104.281857,43.223013],[-104.281853,43.226627],[-104.281849,43.230241],[-104.281845,43.233855],[-104.276934,43.233846],[-104.272024,43.233838]]]}},{"type":"Feature","properties":{"sec":"30","frstdivid":"WY060380N0620W0SN300"},"geometry":{"type":"Polygon","coordinates":[[[-104.341227,43.248411],[-104.341277,43.244849],[-104.341328,43.241287],[-104.341379,43.237725],[-104.341429,43.234163],[-104.346309,43.234007],[-104.351189,43.233852],[-104.356106,43.233777],[-104.360778,43.23371],[-104.360787,43.237316],[-104.360795,43.240921],[-104.360803,43.244526],[-104.360812,43.248132],[-104.356082,43.248174],[-104.35113,43.24822],[-104.346178,43.248316],[-104.341227,43.248411]]]}},{"type":"Feature","properties":{"sec":"36","frstdivid":"WY060380N0620W0SN360"},"geometry":{"type":"Polygon","coordinates":[[[-104.262131,43.226603],[-104.262167,43.230212],[-104.262202,43.233821],[-104.257229,43.233798],[-104.252256,43.233775],[-104.247282,43.233753],[-104.242309,43.23373],[-104.242328,43.23016],[-104.242346,43.22659],[-104.242364,43.22302],[-104.242383,43.219449],[-104.247302,43.219434],[-104.252222,43.219418],[-104.257141,43.219402],[-104.262061,43.219386],[-104.262096,43.222995],[-104.262131,43.226603]]]}},{"type":"Feature","properties":{"sec":"13","frstdivid":"WY060380N0620W0SN130"},"geometry":{"type":"Polygon","coordinates":[[[-104.242763,43.26631],[-104.242709,43.262689],[-104.247596,43.262691],[-104.252483,43.262692],[-104.257369,43.262693],[-104.262256,43.262694],[-104.262287,43.2663],[-104.262318,43.269907],[-104.262349,43.273514],[-104.26238,43.277121],[-104.257519,43.277133],[-104.252658,43.277145],[-104.247797,43.277157],[-104.242935,43.27717],[-104.242877,43.27355],[-104.242818,43.26993],[-104.242763,43.26631]]]}},{"type":"Feature","properties":{"sec":"12","frstdivid":"WY060380N0620W0SN120"},"geometry":{"type":"Polygon","coordinates":[[[-104.247849,43.291624],[-104.243001,43.291654],[-104.242984,43.288033],[-104.242967,43.284412],[-104.242951,43.280791],[-104.242935,43.27717],[-104.247797,43.277157],[-104.252658,43.277145],[-104.257519,43.277133],[-104.26238,43.277121],[-104.262383,43.280724],[-104.262386,43.284328],[-104.262389,43.287932],[-104.262392,43.291536],[-104.257544,43.291565],[-104.252696,43.291595],[-104.247849,43.291624]]]}},{"type":"Feature","properties":{"sec":"24","frstdivid":"WY060380N0620W0SN240"},"geometry":{"type":"Polygon","coordinates":[[[-104.262196,43.251863],[-104.262216,43.255473],[-104.262236,43.259083],[-104.262256,43.262694],[-104.257369,43.262693],[-104.252483,43.262692],[-104.247596,43.262691],[-104.242709,43.262689],[-104.242656,43.259069],[-104.242603,43.255448],[-104.24255,43.251828],[-104.242498,43.248207],[-104.247417,43.248219],[-104.252337,43.24823],[-104.257256,43.248241],[-104.262175,43.248252],[-104.262196,43.251863]]]}},{"type":"Feature","properties":{"sec":"03","frstdivid":"WY060380N0620W0SN030"},"geometry":{"type":"Polygon","coordinates":[[[-104.296318,43.291899],[-104.301158,43.291984],[-104.301399,43.295523],[-104.301641,43.299061],[-104.301786,43.302641],[-104.30193,43.306185],[-104.296971,43.306129],[-104.292012,43.306072],[-104.287071,43.306105],[-104.282131,43.306138],[-104.282056,43.302515],[-104.281982,43.298892],[-104.28189,43.295267],[-104.281798,43.291642],[-104.286638,43.291727],[-104.291478,43.291813],[-104.296318,43.291899]]]}},{"type":"Feature","properties":{"sec":"04","frstdivid":"WY060380N0620W0SN040"},"geometry":{"type":"Polygon","coordinates":[[[-104.30193,43.306185],[-104.301786,43.302641],[-104.301641,43.299061],[-104.301399,43.295523],[-104.301158,43.291984],[-104.306243,43.291931],[-104.311328,43.291878],[-104.316413,43.291826],[-104.321498,43.291773],[-104.321572,43.295409],[-104.321646,43.299045],[-104.321704,43.302673],[-104.321756,43.306047],[-104.316799,43.30608],[-104.311843,43.306114],[-104.306886,43.30615],[-104.30193,43.306185]]]}},{"type":"Feature","properties":{"sec":"02","frstdivid":"WY060380N0620W0SN020"},"geometry":{"type":"Polygon","coordinates":[[[-104.272251,43.306112],[-104.267311,43.3061],[-104.262371,43.306088],[-104.262368,43.302366],[-104.262364,43.298752],[-104.262378,43.295144],[-104.262392,43.291536],[-104.267243,43.291562],[-104.272095,43.291589],[-104.276947,43.291615],[-104.281798,43.291642],[-104.28189,43.295267],[-104.281982,43.298892],[-104.282056,43.302515],[-104.282131,43.306138],[-104.277191,43.306125],[-104.272251,43.306112]]]}},{"type":"Feature","properties":{"sec":"06","frstdivid":"WY060380N0620W0SN060"},"geometry":{"type":"Polygon","coordinates":[[[-104.341343,43.295283],[-104.341264,43.291669],[-104.346228,43.29165],[-104.351192,43.291631],[-104.356152,43.291603],[-104.360863,43.291576],[-104.36086,43.295197],[-104.360856,43.298819],[-104.360854,43.30244],[-104.360853,43.306061],[-104.35644,43.306059],[-104.351485,43.306058],[-104.346533,43.306067],[-104.341581,43.306075],[-104.341503,43.302513],[-104.341423,43.298896],[-104.341343,43.295283]]]}},{"type":"Feature","properties":{"sec":"05","frstdivid":"WY060380N0620W0SN050"},"geometry":{"type":"Polygon","coordinates":[[[-104.321704,43.302673],[-104.321646,43.299045],[-104.321572,43.295409],[-104.321498,43.291773],[-104.32644,43.291747],[-104.331381,43.291721],[-104.336323,43.291695],[-104.341264,43.291669],[-104.341343,43.295283],[-104.341423,43.298896],[-104.341503,43.302513],[-104.341581,43.306075],[-104.336625,43.306066],[-104.331669,43.306057],[-104.326712,43.306052],[-104.321756,43.306047],[-104.321704,43.302673]]]}},{"type":"Feature","properties":{"sec":"01","frstdivid":"WY060380N0620W0SN010"},"geometry":{"type":"Polygon","coordinates":[[[-104.262364,43.298752],[-104.262368,43.302366],[-104.262371,43.306088],[-104.257447,43.306102],[-104.252523,43.306115],[-104.247599,43.306128],[-104.242674,43.306141],[-104.242726,43.302509],[-104.242778,43.29889],[-104.242889,43.295272],[-104.243001,43.291654],[-104.247849,43.291624],[-104.252696,43.291595],[-104.257544,43.291565],[-104.262392,43.291536],[-104.262378,43.295144],[-104.262364,43.298752]]]}}]}