{"type":"FeatureCollection","note":"BLM Public Land Survey System. Provided by the Bureau of Land Management as is. These data are neither legal documents nor land surveys and must not be used as such.","features":[{"type":"Feature","properties":{"sec":"27","frstdivid":"MT200060N0510E0SN270"},"geometry":{"type":"Polygon","coordinates":[[[-105.320935,46.254856],[-105.320894,46.251211],[-105.320853,46.247566],[-105.320919,46.243928],[-105.320985,46.240291],[-105.326228,46.240346],[-105.33147,46.240402],[-105.3367,46.240359],[-105.34193,46.240316],[-105.341906,46.243981],[-105.341882,46.247646],[-105.341867,46.251238],[-105.341853,46.254829],[-105.336612,46.254832],[-105.331371,46.254834],[-105.326153,46.254845],[-105.320935,46.254856]]]}},{"type":"Feature","properties":{"sec":"22","frstdivid":"MT200060N0510E0SN220"},"geometry":{"type":"Polygon","coordinates":[[[-105.341866,46.258471],[-105.34188,46.262113],[-105.341908,46.265844],[-105.341936,46.269576],[-105.336651,46.269508],[-105.331366,46.269441],[-105.326149,46.269374],[-105.320932,46.269308],[-105.320986,46.265706],[-105.321041,46.262104],[-105.320988,46.25848],[-105.320935,46.254856],[-105.326153,46.254845],[-105.331371,46.254834],[-105.336612,46.254832],[-105.341853,46.254829],[-105.341866,46.258471]]]}},{"type":"Feature","properties":{"sec":"04","frstdivid":"MT200060N0510E0SN040"},"geometry":{"type":"Polygon","coordinates":[[[-105.363101,46.309291],[-105.363071,46.312862],[-105.357835,46.312851],[-105.352599,46.312839],[-105.347363,46.312828],[-105.342127,46.312816],[-105.342105,46.30932],[-105.342083,46.305697],[-105.342128,46.302081],[-105.342173,46.298465],[-105.347385,46.298428],[-105.352597,46.298391],[-105.357825,46.298488],[-105.363054,46.298586],[-105.363092,46.302193],[-105.363131,46.305799],[-105.363101,46.309291]]]}},{"type":"Feature","properties":{"sec":"07","frstdivid":"MT200060N0510E0SN070"},"geometry":{"type":"Polygon","coordinates":[[[-105.400149,46.297308],[-105.394348,46.297491],[-105.38921,46.298027],[-105.384072,46.298563],[-105.384076,46.294908],[-105.384081,46.291254],[-105.384071,46.287632],[-105.38406,46.28401],[-105.389285,46.283994],[-105.394509,46.283979],[-105.399835,46.283282],[-105.404498,46.282672],[-105.404677,46.286291],[-105.404857,46.28991],[-105.405036,46.293529],[-105.405216,46.297148],[-105.400149,46.297308]]]}},{"type":"Feature","properties":{"sec":"19","frstdivid":"MT200060N0510E0SN190"},"geometry":{"type":"Polygon","coordinates":[[[-105.403073,46.253783],[-105.403247,46.257394],[-105.403421,46.261005],[-105.403595,46.264616],[-105.403769,46.268228],[-105.399397,46.26868],[-105.394484,46.269188],[-105.38925,46.269202],[-105.384016,46.269217],[-105.38389,46.265528],[-105.383764,46.261839],[-105.383637,46.25815],[-105.383511,46.254461],[-105.388634,46.254414],[-105.393756,46.254368],[-105.398725,46.254056],[-105.403073,46.253783]]]}},{"type":"Feature","properties":{"sec":"08","frstdivid":"MT200060N0510E0SN080"},"geometry":{"type":"Polygon","coordinates":[[[-105.384071,46.287632],[-105.384081,46.291254],[-105.384076,46.294908],[-105.384072,46.298563],[-105.378816,46.298568],[-105.373561,46.298574],[-105.368308,46.29858],[-105.363054,46.298586],[-105.36305,46.294933],[-105.363046,46.29128],[-105.363058,46.287618],[-105.363071,46.283955],[-105.368311,46.283972],[-105.373551,46.283989],[-105.378806,46.283999],[-105.38406,46.28401],[-105.384071,46.287632]]]}},{"type":"Feature","properties":{"sec":"09","frstdivid":"MT200060N0510E0SN090"},"geometry":{"type":"Polygon","coordinates":[[[-105.357802,46.283952],[-105.363071,46.283955],[-105.363058,46.287618],[-105.363046,46.29128],[-105.36305,46.294933],[-105.363054,46.298586],[-105.357825,46.298488],[-105.352597,46.298391],[-105.347385,46.298428],[-105.342173,46.298465],[-105.342099,46.294818],[-105.342024,46.291171],[-105.34201,46.287556],[-105.341996,46.283941],[-105.347265,46.283944],[-105.352534,46.283948],[-105.357802,46.283952]]]}},{"type":"Feature","properties":{"sec":"23","frstdivid":"MT200060N0510E0SN230"},"geometry":{"type":"Polygon","coordinates":[[[-105.320935,46.254856],[-105.320988,46.25848],[-105.321041,46.262104],[-105.320986,46.265706],[-105.320932,46.269308],[-105.315658,46.269402],[-105.310383,46.269496],[-105.305114,46.269508],[-105.299844,46.26952],[-105.299881,46.265872],[-105.299918,46.262224],[-105.299957,46.258584],[-105.299995,46.254944],[-105.305248,46.254919],[-105.3105,46.254894],[-105.315717,46.254875],[-105.320935,46.254856]]]}},{"type":"Feature","properties":{"sec":"11","frstdivid":"MT200060N0510E0SN110"},"geometry":{"type":"Polygon","coordinates":[[[-105.29997,46.291305],[-105.299978,46.287668],[-105.299986,46.284031],[-105.30524,46.283972],[-105.310494,46.283914],[-105.315711,46.283863],[-105.320927,46.283813],[-105.320928,46.287457],[-105.320929,46.291101],[-105.32095,46.294746],[-105.320971,46.29839],[-105.315708,46.298454],[-105.310445,46.298517],[-105.30516,46.298533],[-105.299876,46.29855],[-105.299923,46.294927],[-105.29997,46.291305]]]}},{"type":"Feature","properties":{"sec":"01","frstdivid":"MT200060N0510E0SN010"},"geometry":{"type":"Polygon","coordinates":[[[-105.278756,46.298676],[-105.284036,46.298646],[-105.288365,46.298621],[-105.289315,46.298615],[-105.290654,46.298607],[-105.294595,46.298582],[-105.299876,46.29855],[-105.299827,46.302171],[-105.299778,46.305792],[-105.29973,46.309412],[-105.299682,46.313053],[-105.294446,46.313049],[-105.290682,46.313047],[-105.289996,46.313046],[-105.28921,46.313046],[-105.283973,46.313042],[-105.278737,46.313039],[-105.27874,46.309447],[-105.278744,46.305855],[-105.27875,46.302265],[-105.278756,46.298676]]]}},{"type":"Feature","properties":{"sec":"31","frstdivid":"MT200060N0510E0SN310"},"geometry":{"type":"Polygon","coordinates":[[[-105.398717,46.225642],[-105.402786,46.225624],[-105.402698,46.229046],[-105.402609,46.232468],[-105.402521,46.23589],[-105.402433,46.239312],[-105.398375,46.239643],[-105.393725,46.240022],[-105.388562,46.240038],[-105.383398,46.240054],[-105.3834,46.236474],[-105.383403,46.232893],[-105.383406,46.229253],[-105.383408,46.225612],[-105.388704,46.225638],[-105.393999,46.225663],[-105.398703,46.225642],[-105.398717,46.225642]]]}},{"type":"Feature","properties":{"sec":"26","frstdivid":"MT200060N0510E0SN260"},"geometry":{"type":"Polygon","coordinates":[[[-105.310573,46.240368],[-105.315779,46.240329],[-105.320985,46.240291],[-105.320919,46.243928],[-105.320853,46.247566],[-105.320894,46.251211],[-105.320935,46.254856],[-105.315717,46.254875],[-105.3105,46.254894],[-105.305248,46.254919],[-105.299995,46.254944],[-105.300037,46.251319],[-105.300078,46.247694],[-105.300119,46.24407],[-105.30016,46.240445],[-105.305366,46.240406],[-105.310573,46.240368]]]}},{"type":"Feature","properties":{"sec":"18","frstdivid":"MT200060N0510E0SN180"},"geometry":{"type":"Polygon","coordinates":[[[-105.404316,46.279061],[-105.404498,46.282672],[-105.399835,46.283282],[-105.394509,46.283979],[-105.389285,46.283994],[-105.38406,46.28401],[-105.384052,46.280384],[-105.384043,46.276759],[-105.38403,46.272988],[-105.384016,46.269217],[-105.38925,46.269202],[-105.394484,46.269188],[-105.399397,46.26868],[-105.403769,46.268228],[-105.403952,46.271839],[-105.404134,46.27545],[-105.404316,46.279061]]]}},{"type":"Feature","properties":{"sec":"20","frstdivid":"MT200060N0510E0SN200"},"geometry":{"type":"Polygon","coordinates":[[[-105.38389,46.265528],[-105.384016,46.269217],[-105.378794,46.269227],[-105.373573,46.269237],[-105.368299,46.269264],[-105.363025,46.26929],[-105.363004,46.265626],[-105.362983,46.261963],[-105.362898,46.258301],[-105.362812,46.254639],[-105.368034,46.25454],[-105.373255,46.254441],[-105.378383,46.254451],[-105.383511,46.254461],[-105.383637,46.25815],[-105.383764,46.261839],[-105.38389,46.265528]]]}},{"type":"Feature","properties":{"sec":"33","frstdivid":"MT200060N0510E0SN330"},"geometry":{"type":"Polygon","coordinates":[[[-105.362673,46.229293],[-105.362679,46.232917],[-105.362718,46.236538],[-105.362757,46.240158],[-105.357554,46.240198],[-105.352351,46.240237],[-105.34714,46.240276],[-105.34193,46.240316],[-105.341886,46.236705],[-105.341842,46.233094],[-105.341797,46.229483],[-105.341753,46.225872],[-105.346985,46.225823],[-105.352217,46.225774],[-105.357443,46.225721],[-105.362668,46.225668],[-105.362673,46.229293]]]}},{"type":"Feature","properties":{"sec":"35","frstdivid":"MT200060N0510E0SN350"},"geometry":{"type":"Polygon","coordinates":[[[-105.320863,46.229408],[-105.320844,46.233033],[-105.320915,46.236662],[-105.320985,46.240291],[-105.315779,46.240329],[-105.310573,46.240368],[-105.305366,46.240406],[-105.30016,46.240445],[-105.300137,46.236834],[-105.300114,46.233224],[-105.300091,46.229614],[-105.300068,46.226003],[-105.305258,46.225934],[-105.310448,46.225864],[-105.315665,46.225823],[-105.320883,46.225782],[-105.320863,46.229408]]]}},{"type":"Feature","properties":{"sec":"03","frstdivid":"MT200060N0510E0SN030"},"geometry":{"type":"Polygon","coordinates":[[[-105.336873,46.298446],[-105.342173,46.298465],[-105.342128,46.302081],[-105.342083,46.305697],[-105.342105,46.30932],[-105.342127,46.312816],[-105.336878,46.312855],[-105.331629,46.312895],[-105.326381,46.312934],[-105.321132,46.312973],[-105.321092,46.309349],[-105.321051,46.305696],[-105.321011,46.302043],[-105.320971,46.29839],[-105.326271,46.298409],[-105.331572,46.298427],[-105.336873,46.298446]]]}},{"type":"Feature","properties":{"sec":"25","frstdivid":"MT200060N0510E0SN250"},"geometry":{"type":"Polygon","coordinates":[[[-105.279071,46.244222],[-105.279061,46.240604],[-105.284284,46.240553],[-105.289507,46.240502],[-105.294833,46.240474],[-105.30016,46.240445],[-105.300119,46.24407],[-105.300078,46.247694],[-105.300037,46.251319],[-105.299995,46.254944],[-105.294764,46.254974],[-105.289532,46.255005],[-105.284301,46.255036],[-105.279069,46.255066],[-105.279075,46.251453],[-105.27908,46.247839],[-105.279071,46.244222]]]}},{"type":"Feature","properties":{"sec":"30","frstdivid":"MT200060N0510E0SN300"},"geometry":{"type":"Polygon","coordinates":[[[-105.398725,46.254056],[-105.393756,46.254368],[-105.388634,46.254414],[-105.383511,46.254461],[-105.383435,46.250831],[-105.383359,46.2472],[-105.383378,46.243627],[-105.383398,46.240054],[-105.388562,46.240038],[-105.393725,46.240022],[-105.398375,46.239643],[-105.402433,46.239312],[-105.402593,46.242929],[-105.402753,46.246547],[-105.402913,46.250165],[-105.403073,46.253783],[-105.398725,46.254056]]]}},{"type":"Feature","properties":{"sec":"17","frstdivid":"MT200060N0510E0SN170"},"geometry":{"type":"Polygon","coordinates":[[[-105.378794,46.269227],[-105.384016,46.269217],[-105.38403,46.272988],[-105.384043,46.276759],[-105.384052,46.280384],[-105.38406,46.28401],[-105.378806,46.283999],[-105.373551,46.283989],[-105.368311,46.283972],[-105.363071,46.283955],[-105.363059,46.280285],[-105.363048,46.276615],[-105.363036,46.272952],[-105.363025,46.26929],[-105.368299,46.269264],[-105.373573,46.269237],[-105.378794,46.269227]]]}},{"type":"Feature","properties":{"sec":"24","frstdivid":"MT200060N0510E0SN240"},"geometry":{"type":"Polygon","coordinates":[[[-105.294764,46.254974],[-105.299995,46.254944],[-105.299957,46.258584],[-105.299918,46.262224],[-105.299881,46.265872],[-105.299844,46.26952],[-105.294626,46.269569],[-105.289409,46.269619],[-105.285346,46.269659],[-105.284193,46.26967],[-105.283917,46.269673],[-105.278977,46.269723],[-105.279001,46.266061],[-105.279024,46.262398],[-105.279026,46.262123],[-105.279048,46.258732],[-105.279053,46.257862],[-105.279069,46.255066],[-105.284301,46.255036],[-105.289532,46.255005],[-105.294764,46.254974]]]}},{"type":"Feature","properties":{"sec":"16","frstdivid":"MT200060N0510E0SN160"},"geometry":{"type":"Polygon","coordinates":[[[-105.347207,46.269476],[-105.352478,46.269375],[-105.357751,46.269333],[-105.363025,46.26929],[-105.363036,46.272952],[-105.363048,46.276615],[-105.363059,46.280285],[-105.363071,46.283955],[-105.357802,46.283952],[-105.352534,46.283948],[-105.347265,46.283944],[-105.341996,46.283941],[-105.341993,46.280299],[-105.34199,46.276657],[-105.341963,46.273117],[-105.341936,46.269576],[-105.347207,46.269476]]]}},{"type":"Feature","properties":{"sec":"29","frstdivid":"MT200060N0510E0SN290"},"geometry":{"type":"Polygon","coordinates":[[[-105.368034,46.25454],[-105.362812,46.254639],[-105.362718,46.251052],[-105.362625,46.247465],[-105.362691,46.243811],[-105.362757,46.240158],[-105.367972,46.24014],[-105.373188,46.240121],[-105.378293,46.240088],[-105.383398,46.240054],[-105.383378,46.243627],[-105.383359,46.2472],[-105.383435,46.250831],[-105.383511,46.254461],[-105.378383,46.254451],[-105.373255,46.254441],[-105.368034,46.25454]]]}},{"type":"Feature","properties":{"sec":"36","frstdivid":"MT200060N0510E0SN360"},"geometry":{"type":"Polygon","coordinates":[[[-105.294849,46.226029],[-105.300068,46.226003],[-105.300091,46.229614],[-105.300114,46.233224],[-105.300137,46.236834],[-105.30016,46.240445],[-105.294833,46.240474],[-105.289507,46.240502],[-105.284284,46.240553],[-105.279061,46.240604],[-105.279064,46.236949],[-105.279068,46.233294],[-105.279077,46.229682],[-105.279086,46.22607],[-105.284358,46.226062],[-105.284438,46.226062],[-105.28963,46.226054],[-105.294849,46.226029]]]}},{"type":"Feature","properties":{"sec":"21","frstdivid":"MT200060N0510E0SN210"},"geometry":{"type":"Polygon","coordinates":[[[-105.341866,46.258471],[-105.341853,46.254829],[-105.347087,46.254736],[-105.35232,46.254642],[-105.357566,46.254641],[-105.362812,46.254639],[-105.362898,46.258301],[-105.362983,46.261963],[-105.363004,46.265626],[-105.363025,46.26929],[-105.357751,46.269333],[-105.352478,46.269375],[-105.347207,46.269476],[-105.341936,46.269576],[-105.341908,46.265844],[-105.34188,46.262113],[-105.341866,46.258471]]]}},{"type":"Feature","properties":{"sec":"34","frstdivid":"MT200060N0510E0SN340"},"geometry":{"type":"Polygon","coordinates":[[[-105.336536,46.225849],[-105.341753,46.225872],[-105.341797,46.229483],[-105.341842,46.233094],[-105.341886,46.236705],[-105.34193,46.240316],[-105.3367,46.240359],[-105.33147,46.240402],[-105.326228,46.240346],[-105.320985,46.240291],[-105.320915,46.236662],[-105.320844,46.233033],[-105.320863,46.229408],[-105.320883,46.225782],[-105.3261,46.225804],[-105.331318,46.225827],[-105.336536,46.225849]]]}},{"type":"Feature","properties":{"sec":"10","frstdivid":"MT200060N0510E0SN100"},"geometry":{"type":"Polygon","coordinates":[[[-105.341996,46.283941],[-105.34201,46.287556],[-105.342024,46.291171],[-105.342099,46.294818],[-105.342173,46.298465],[-105.336873,46.298446],[-105.331572,46.298427],[-105.326271,46.298409],[-105.320971,46.29839],[-105.32095,46.294746],[-105.320929,46.291101],[-105.320928,46.287457],[-105.320927,46.283813],[-105.326211,46.283836],[-105.331495,46.283859],[-105.336745,46.2839],[-105.341996,46.283941]]]}},{"type":"Feature","properties":{"sec":"14","frstdivid":"MT200060N0510E0SN140"},"geometry":{"type":"Polygon","coordinates":[[[-105.299844,46.26952],[-105.305114,46.269508],[-105.310383,46.269496],[-105.315658,46.269402],[-105.320932,46.269308],[-105.32096,46.272934],[-105.320988,46.27656],[-105.320958,46.280187],[-105.320927,46.283813],[-105.315711,46.283863],[-105.310494,46.283914],[-105.30524,46.283972],[-105.299986,46.284031],[-105.299946,46.2804],[-105.299906,46.276769],[-105.299875,46.273144],[-105.299844,46.26952]]]}},{"type":"Feature","properties":{"sec":"15","frstdivid":"MT200060N0510E0SN150"},"geometry":{"type":"Polygon","coordinates":[[[-105.341963,46.273117],[-105.34199,46.276657],[-105.341993,46.280299],[-105.341996,46.283941],[-105.336745,46.2839],[-105.331495,46.283859],[-105.326211,46.283836],[-105.320927,46.283813],[-105.320958,46.280187],[-105.320988,46.27656],[-105.32096,46.272934],[-105.320932,46.269308],[-105.326149,46.269374],[-105.331366,46.269441],[-105.336651,46.269508],[-105.341936,46.269576],[-105.341963,46.273117]]]}},{"type":"Feature","properties":{"sec":"02","frstdivid":"MT200060N0510E0SN020"},"geometry":{"type":"Polygon","coordinates":[[[-105.315708,46.298454],[-105.320971,46.29839],[-105.321011,46.302043],[-105.321051,46.305696],[-105.321092,46.309349],[-105.321132,46.312973],[-105.315643,46.313017],[-105.310153,46.313061],[-105.304917,46.313057],[-105.299682,46.313053],[-105.29973,46.309412],[-105.299778,46.305792],[-105.299827,46.302171],[-105.299876,46.29855],[-105.30516,46.298533],[-105.310445,46.298517],[-105.315708,46.298454]]]}},{"type":"Feature","properties":{"sec":"32","frstdivid":"MT200060N0510E0SN320"},"geometry":{"type":"Polygon","coordinates":[[[-105.362679,46.232917],[-105.362673,46.229293],[-105.362668,46.225668],[-105.367926,46.225583],[-105.373184,46.225498],[-105.378296,46.225555],[-105.383408,46.225612],[-105.383406,46.229253],[-105.383403,46.232893],[-105.3834,46.236474],[-105.383398,46.240054],[-105.378293,46.240088],[-105.373188,46.240121],[-105.367972,46.24014],[-105.362757,46.240158],[-105.362718,46.236538],[-105.362679,46.232917]]]}},{"type":"Feature","properties":{"sec":"05","frstdivid":"MT200060N0510E0SN050"},"geometry":{"type":"Polygon","coordinates":[[[-105.378816,46.298568],[-105.384072,46.298563],[-105.384051,46.302199],[-105.384031,46.305836],[-105.38408,46.309353],[-105.38413,46.312968],[-105.378863,46.312955],[-105.373595,46.312943],[-105.368333,46.312902],[-105.363071,46.312862],[-105.363101,46.309291],[-105.363131,46.305799],[-105.363092,46.302193],[-105.363054,46.298586],[-105.368308,46.29858],[-105.373561,46.298574],[-105.378816,46.298568]]]}},{"type":"Feature","properties":{"sec":"28","frstdivid":"MT200060N0510E0SN280"},"geometry":{"type":"Polygon","coordinates":[[[-105.34714,46.240276],[-105.352351,46.240237],[-105.357554,46.240198],[-105.362757,46.240158],[-105.362691,46.243811],[-105.362625,46.247465],[-105.362718,46.251052],[-105.362812,46.254639],[-105.357566,46.254641],[-105.35232,46.254642],[-105.347087,46.254736],[-105.341853,46.254829],[-105.341867,46.251238],[-105.341882,46.247646],[-105.341906,46.243981],[-105.34193,46.240316],[-105.34714,46.240276]]]}},{"type":"Feature","properties":{"sec":"06","frstdivid":"MT200060N0510E0SN060"},"geometry":{"type":"Polygon","coordinates":[[[-105.38413,46.312968],[-105.38408,46.309353],[-105.384031,46.305836],[-105.384051,46.302199],[-105.384072,46.298563],[-105.38921,46.298027],[-105.394348,46.297491],[-105.400149,46.297308],[-105.405216,46.297148],[-105.405057,46.300656],[-105.404899,46.304164],[-105.404743,46.307666],[-105.404742,46.307692],[-105.404584,46.311219],[-105.399784,46.311651],[-105.394264,46.312147],[-105.389197,46.312558],[-105.38413,46.312968]]]}},{"type":"Feature","properties":{"sec":"13","frstdivid":"MT200060N0510E0SN130"},"geometry":{"type":"Polygon","coordinates":[[[-105.281201,46.284171],[-105.28003,46.284186],[-105.27945,46.284193],[-105.278881,46.284201],[-105.278903,46.281034],[-105.278906,46.28058],[-105.278923,46.278135],[-105.278931,46.276959],[-105.278954,46.273341],[-105.278977,46.269723],[-105.283917,46.269673],[-105.284193,46.26967],[-105.285346,46.269659],[-105.289409,46.269619],[-105.294626,46.269569],[-105.299844,46.26952],[-105.299875,46.273144],[-105.299906,46.276769],[-105.299946,46.2804],[-105.299986,46.284031],[-105.294761,46.284049],[-105.289537,46.284067],[-105.284209,46.284133],[-105.281201,46.284171]]]}},{"type":"Feature","properties":{"sec":"12","frstdivid":"MT200060N0510E0SN120"},"geometry":{"type":"Polygon","coordinates":[[[-105.284036,46.298646],[-105.278756,46.298676],[-105.278788,46.295057],[-105.278819,46.291438],[-105.27885,46.287819],[-105.278881,46.284201],[-105.27945,46.284193],[-105.28003,46.284186],[-105.281201,46.284171],[-105.284209,46.284133],[-105.289537,46.284067],[-105.294761,46.284049],[-105.299986,46.284031],[-105.299978,46.287668],[-105.29997,46.291305],[-105.299923,46.294927],[-105.299876,46.29855],[-105.294595,46.298582],[-105.290654,46.298607],[-105.289315,46.298615],[-105.288365,46.298621],[-105.284036,46.298646]]]}}]}