{"type":"FeatureCollection","note":"BLM Public Land Survey System. Provided by the Bureau of Land Management as is. These data are neither legal documents nor land surveys and must not be used as such.","features":[{"type":"Feature","properties":{"sec":"28","frstdivid":"WY060540N0640W0SN280"},"geometry":{"type":"Polygon","coordinates":[[[-104.540048,44.642069],[-104.539796,44.638694],[-104.539544,44.635319],[-104.539292,44.631944],[-104.544377,44.631885],[-104.549462,44.631827],[-104.554547,44.631768],[-104.559632,44.631709],[-104.559891,44.635015],[-104.56015,44.63832],[-104.560409,44.641626],[-104.560667,44.644932],[-104.555576,44.645059],[-104.550484,44.645186],[-104.545392,44.645315],[-104.5403,44.645444],[-104.540048,44.642069]]]}},{"type":"Feature","properties":{"sec":"32","frstdivid":"WY060540N0640W0SN320"},"geometry":{"type":"Polygon","coordinates":[[[-104.579375,44.62391],[-104.579465,44.627503],[-104.579556,44.631096],[-104.574575,44.631249],[-104.569594,44.631402],[-104.564613,44.631556],[-104.559632,44.631709],[-104.559478,44.628001],[-104.559325,44.624293],[-104.559171,44.620584],[-104.559017,44.616876],[-104.564058,44.616887],[-104.569099,44.616897],[-104.574146,44.616811],[-104.579193,44.616724],[-104.579284,44.620317],[-104.579375,44.62391]]]}},{"type":"Feature","properties":{"sec":"27","frstdivid":"WY060540N0640W0SN270"},"geometry":{"type":"Polygon","coordinates":[[[-104.524095,44.63128],[-104.529161,44.631501],[-104.534226,44.631723],[-104.539292,44.631944],[-104.539544,44.635319],[-104.539796,44.638694],[-104.540048,44.642069],[-104.5403,44.645444],[-104.535207,44.645202],[-104.530113,44.64496],[-104.525043,44.64489],[-104.519973,44.64482],[-104.519737,44.64138],[-104.519501,44.637939],[-104.519265,44.634499],[-104.519029,44.631058],[-104.524095,44.63128]]]}},{"type":"Feature","properties":{"sec":"36","frstdivid":"WY060540N0640W0SN360"},"geometry":{"type":"Polygon","coordinates":[[[-104.49856,44.621068],[-104.498609,44.624489],[-104.498658,44.627909],[-104.498707,44.63133],[-104.493606,44.631678],[-104.488505,44.632026],[-104.483403,44.632374],[-104.478302,44.632722],[-104.478271,44.629063],[-104.478239,44.625403],[-104.47819,44.621765],[-104.478142,44.618127],[-104.483246,44.61797],[-104.48835,44.617813],[-104.493431,44.61773],[-104.498511,44.617647],[-104.49856,44.621068]]]}},{"type":"Feature","properties":{"sec":"30","frstdivid":"WY060540N0640W0SN300"},"geometry":{"type":"Polygon","coordinates":[[[-104.599588,44.642127],[-104.59965,44.64578],[-104.59541,44.645304],[-104.591136,44.644823],[-104.586132,44.644841],[-104.581128,44.644858],[-104.580735,44.641418],[-104.580342,44.637977],[-104.579949,44.634536],[-104.579556,44.631096],[-104.584558,44.631103],[-104.58956,44.63111],[-104.594562,44.631109],[-104.599485,44.631109],[-104.599505,44.634792],[-104.599526,44.638474],[-104.599588,44.642127]]]}},{"type":"Feature","properties":{"sec":"26","frstdivid":"WY060540N0640W0SN260"},"geometry":{"type":"Polygon","coordinates":[[[-104.519737,44.64138],[-104.519973,44.64482],[-104.514904,44.644896],[-104.509834,44.644972],[-104.504841,44.644995],[-104.499847,44.645018],[-104.499562,44.641596],[-104.499277,44.638174],[-104.498992,44.634752],[-104.498707,44.63133],[-104.503787,44.631262],[-104.508868,44.631194],[-104.513948,44.631126],[-104.519029,44.631058],[-104.519265,44.634499],[-104.519501,44.637939],[-104.519737,44.64138]]]}},{"type":"Feature","properties":{"sec":"35","frstdivid":"WY060540N0640W0SN350"},"geometry":{"type":"Polygon","coordinates":[[[-104.513736,44.617386],[-104.518811,44.617298],[-104.518866,44.620738],[-104.51892,44.624178],[-104.518974,44.627618],[-104.519029,44.631058],[-104.513948,44.631126],[-104.508868,44.631194],[-104.503787,44.631262],[-104.498707,44.63133],[-104.498658,44.627909],[-104.498609,44.624489],[-104.49856,44.621068],[-104.498511,44.617647],[-104.503586,44.61756],[-104.508661,44.617473],[-104.513736,44.617386]]]}},{"type":"Feature","properties":{"sec":"29","frstdivid":"WY060540N0640W0SN290"},"geometry":{"type":"Polygon","coordinates":[[[-104.580735,44.641418],[-104.581128,44.644858],[-104.576013,44.644877],[-104.570898,44.644896],[-104.565783,44.644914],[-104.560667,44.644932],[-104.560409,44.641626],[-104.56015,44.63832],[-104.559891,44.635015],[-104.559632,44.631709],[-104.564613,44.631556],[-104.569594,44.631402],[-104.574575,44.631249],[-104.579556,44.631096],[-104.579949,44.634536],[-104.580342,44.637977],[-104.580735,44.641418]]]}},{"type":"Feature","properties":{"sec":"33","frstdivid":"WY060540N0640W0SN330"},"geometry":{"type":"Polygon","coordinates":[[[-104.539082,44.621196],[-104.538963,44.617196],[-104.543976,44.617116],[-104.54899,44.617036],[-104.554003,44.616956],[-104.559017,44.616876],[-104.559171,44.620584],[-104.559325,44.624293],[-104.559478,44.628001],[-104.559632,44.631709],[-104.554547,44.631768],[-104.549462,44.631827],[-104.544377,44.631885],[-104.539292,44.631944],[-104.539247,44.62857],[-104.539201,44.625195],[-104.539082,44.621196]]]}},{"type":"Feature","properties":{"sec":"31","frstdivid":"WY060540N0640W0SN310"},"geometry":{"type":"Polygon","coordinates":[[[-104.579375,44.62391],[-104.579284,44.620317],[-104.579193,44.616724],[-104.584241,44.616649],[-104.589288,44.616573],[-104.594365,44.61652],[-104.599393,44.616467],[-104.599417,44.620086],[-104.599441,44.623705],[-104.599463,44.627407],[-104.599485,44.631109],[-104.594562,44.631109],[-104.58956,44.63111],[-104.584558,44.631103],[-104.579556,44.631096],[-104.579465,44.627503],[-104.579375,44.62391]]]}},{"type":"Feature","properties":{"sec":"34","frstdivid":"WY060540N0640W0SN340"},"geometry":{"type":"Polygon","coordinates":[[[-104.518974,44.627618],[-104.51892,44.624178],[-104.518866,44.620738],[-104.518811,44.617298],[-104.523892,44.617234],[-104.528974,44.617169],[-104.533968,44.617183],[-104.538963,44.617196],[-104.539082,44.621196],[-104.539201,44.625195],[-104.539247,44.62857],[-104.539292,44.631944],[-104.534226,44.631723],[-104.529161,44.631501],[-104.524095,44.63128],[-104.519029,44.631058],[-104.518974,44.627618]]]}},{"type":"Feature","properties":{"sec":"25","frstdivid":"WY060540N0640W0SN250"},"geometry":{"type":"Polygon","coordinates":[[[-104.483583,44.646506],[-104.478162,44.647002],[-104.47816,44.643387],[-104.478158,44.639771],[-104.47823,44.636247],[-104.478302,44.632722],[-104.483403,44.632374],[-104.488505,44.632026],[-104.493606,44.631678],[-104.498707,44.63133],[-104.498992,44.634752],[-104.499277,44.638174],[-104.499562,44.641596],[-104.499847,44.645018],[-104.494426,44.645514],[-104.489005,44.64601],[-104.483583,44.646506]]]}},{"type":"Feature","properties":{"sec":"07","frstdivid":"WY060540N0640W0SN070"},"geometry":{"type":"Polygon","coordinates":[[[-104.598916,44.689828],[-104.594161,44.689512],[-104.589082,44.689174],[-104.584003,44.688837],[-104.578925,44.688499],[-104.578986,44.685075],[-104.579048,44.68165],[-104.57911,44.678226],[-104.579171,44.674801],[-104.584277,44.674864],[-104.589383,44.674928],[-104.59449,44.674989],[-104.599319,44.675047],[-104.599222,44.678748],[-104.599125,44.682449],[-104.59902,44.686139],[-104.598916,44.689828]]]}},{"type":"Feature","properties":{"sec":"04","frstdivid":"WY060540N0640W0SN040"},"geometry":{"type":"Polygon","coordinates":[[[-104.558922,44.692817],[-104.558845,44.696725],[-104.558792,44.700632],[-104.558739,44.704543],[-104.553652,44.704558],[-104.548566,44.704573],[-104.543479,44.704588],[-104.538393,44.704603],[-104.538496,44.70079],[-104.538599,44.696951],[-104.538678,44.693113],[-104.538757,44.689276],[-104.543817,44.689185],[-104.548878,44.689093],[-104.553938,44.689002],[-104.558999,44.68891],[-104.558922,44.692817]]]}},{"type":"Feature","properties":{"sec":"03","frstdivid":"WY060540N0640W0SN030"},"geometry":{"type":"Polygon","coordinates":[[[-104.523132,44.704696],[-104.518045,44.704727],[-104.518033,44.700907],[-104.518021,44.697117],[-104.518002,44.693327],[-104.517983,44.689536],[-104.523176,44.689471],[-104.52837,44.689406],[-104.533563,44.689341],[-104.538757,44.689276],[-104.538678,44.693113],[-104.538599,44.696951],[-104.538496,44.70079],[-104.538393,44.704603],[-104.533306,44.704634],[-104.528219,44.704665],[-104.523132,44.704696]]]}},{"type":"Feature","properties":{"sec":"01","frstdivid":"WY060540N0640W0SN010"},"geometry":{"type":"Polygon","coordinates":[[[-104.497283,44.690849],[-104.497377,44.694426],[-104.497472,44.698003],[-104.497553,44.701581],[-104.497634,44.705147],[-104.492565,44.705201],[-104.487496,44.705255],[-104.482839,44.705004],[-104.478182,44.704753],[-104.478174,44.701076],[-104.478165,44.697398],[-104.478217,44.693722],[-104.478268,44.690047],[-104.483022,44.690247],[-104.487775,44.690448],[-104.492529,44.690648],[-104.497283,44.690849]]]}},{"type":"Feature","properties":{"sec":"08","frstdivid":"WY060540N0640W0SN080"},"geometry":{"type":"Polygon","coordinates":[[[-104.558999,44.68891],[-104.55897,44.685425],[-104.55894,44.68194],[-104.558911,44.678456],[-104.558882,44.674971],[-104.563954,44.674928],[-104.569027,44.674886],[-104.574099,44.674843],[-104.579171,44.674801],[-104.57911,44.678226],[-104.579048,44.68165],[-104.578986,44.685075],[-104.578925,44.688499],[-104.573943,44.688602],[-104.568962,44.688705],[-104.56398,44.688807],[-104.558999,44.68891]]]}},{"type":"Feature","properties":{"sec":"14","frstdivid":"WY060540N0640W0SN140"},"geometry":{"type":"Polygon","coordinates":[[[-104.502219,44.675869],[-104.497029,44.676367],[-104.497758,44.672106],[-104.498487,44.667845],[-104.499216,44.663585],[-104.499946,44.659324],[-104.504966,44.659297],[-104.509987,44.659271],[-104.515007,44.659244],[-104.520028,44.659218],[-104.519468,44.663007],[-104.518909,44.666797],[-104.518349,44.670586],[-104.51779,44.674375],[-104.5126,44.674873],[-104.50741,44.675371],[-104.502219,44.675869]]]}},{"type":"Feature","properties":{"sec":"02","frstdivid":"WY060540N0640W0SN020"},"geometry":{"type":"Polygon","coordinates":[[[-104.518045,44.704727],[-104.512943,44.704832],[-104.50784,44.704937],[-104.502737,44.705042],[-104.497634,44.705147],[-104.497553,44.701581],[-104.497472,44.698003],[-104.497377,44.694426],[-104.497283,44.690849],[-104.502458,44.690521],[-104.507633,44.690193],[-104.512808,44.689864],[-104.517983,44.689536],[-104.518002,44.693327],[-104.518021,44.697117],[-104.518033,44.700907],[-104.518045,44.704727]]]}},{"type":"Feature","properties":{"sec":"17","frstdivid":"WY060540N0640W0SN170"},"geometry":{"type":"Polygon","coordinates":[[[-104.569554,44.660255],[-104.57439,44.660407],[-104.579226,44.660559],[-104.579213,44.664119],[-104.579199,44.66768],[-104.579185,44.67124],[-104.579171,44.674801],[-104.574099,44.674843],[-104.569027,44.674886],[-104.563954,44.674928],[-104.558882,44.674971],[-104.559132,44.671216],[-104.559382,44.667461],[-104.559632,44.663706],[-104.559882,44.659951],[-104.564718,44.660103],[-104.569554,44.660255]]]}},{"type":"Feature","properties":{"sec":"06","frstdivid":"WY060540N0640W0SN060"},"geometry":{"type":"Polygon","coordinates":[[[-104.584003,44.688837],[-104.589082,44.689174],[-104.594161,44.689512],[-104.598916,44.689828],[-104.598988,44.693464],[-104.59906,44.697099],[-104.599133,44.700735],[-104.599206,44.704369],[-104.594343,44.704364],[-104.589208,44.70436],[-104.584147,44.704415],[-104.579086,44.70447],[-104.579051,44.700487],[-104.579016,44.696491],[-104.578971,44.692495],[-104.578925,44.688499],[-104.584003,44.688837]]]}},{"type":"Feature","properties":{"sec":"21","frstdivid":"WY060540N0640W0SN210"},"geometry":{"type":"Polygon","coordinates":[[[-104.545418,44.659196],[-104.540596,44.658945],[-104.540522,44.65557],[-104.540448,44.652194],[-104.540374,44.648819],[-104.5403,44.645444],[-104.545392,44.645315],[-104.550484,44.645186],[-104.555576,44.645059],[-104.560667,44.644932],[-104.560471,44.648686],[-104.560275,44.652441],[-104.560078,44.656196],[-104.559882,44.659951],[-104.555061,44.659699],[-104.550239,44.659448],[-104.545418,44.659196]]]}},{"type":"Feature","properties":{"sec":"20","frstdivid":"WY060540N0640W0SN200"},"geometry":{"type":"Polygon","coordinates":[[[-104.579226,44.660559],[-104.57439,44.660407],[-104.569554,44.660255],[-104.564718,44.660103],[-104.559882,44.659951],[-104.560078,44.656196],[-104.560275,44.652441],[-104.560471,44.648686],[-104.560667,44.644932],[-104.565783,44.644914],[-104.570898,44.644896],[-104.576013,44.644877],[-104.581128,44.644858],[-104.580653,44.648783],[-104.580177,44.652708],[-104.579702,44.656633],[-104.579226,44.660559]]]}},{"type":"Feature","properties":{"sec":"19","frstdivid":"WY060540N0640W0SN190"},"geometry":{"type":"Polygon","coordinates":[[[-104.581128,44.644858],[-104.586132,44.644841],[-104.591136,44.644823],[-104.59541,44.645304],[-104.59965,44.64578],[-104.599634,44.649462],[-104.599619,44.653144],[-104.599604,44.656826],[-104.599588,44.660508],[-104.594631,44.66052],[-104.589496,44.660532],[-104.584361,44.660545],[-104.579226,44.660559],[-104.579702,44.656633],[-104.580177,44.652708],[-104.580653,44.648783],[-104.581128,44.644858]]]}},{"type":"Feature","properties":{"sec":"11","frstdivid":"WY060540N0640W0SN110"},"geometry":{"type":"Polygon","coordinates":[[[-104.497168,44.683603],[-104.497098,44.679985],[-104.497029,44.676367],[-104.502219,44.675869],[-104.50741,44.675371],[-104.5126,44.674873],[-104.51779,44.674375],[-104.517838,44.678166],[-104.517887,44.681956],[-104.517935,44.685746],[-104.517983,44.689536],[-104.512808,44.689864],[-104.507633,44.690193],[-104.502458,44.690521],[-104.497283,44.690849],[-104.497225,44.687226],[-104.497168,44.683603]]]}},{"type":"Feature","properties":{"sec":"22","frstdivid":"WY060540N0640W0SN220"},"geometry":{"type":"Polygon","coordinates":[[[-104.519973,44.64482],[-104.525043,44.64489],[-104.530113,44.64496],[-104.535207,44.645202],[-104.5403,44.645444],[-104.540374,44.648819],[-104.540448,44.652194],[-104.540522,44.65557],[-104.540596,44.658945],[-104.535454,44.659001],[-104.530313,44.659058],[-104.52517,44.659138],[-104.520028,44.659218],[-104.520014,44.655618],[-104.52,44.652019],[-104.519987,44.64842],[-104.519973,44.64482]]]}},{"type":"Feature","properties":{"sec":"10","frstdivid":"WY060540N0640W0SN100"},"geometry":{"type":"Polygon","coordinates":[[[-104.523176,44.689471],[-104.517983,44.689536],[-104.517935,44.685746],[-104.517887,44.681956],[-104.517838,44.678166],[-104.51779,44.674375],[-104.523,44.674475],[-104.528209,44.674575],[-104.533418,44.674675],[-104.538628,44.674775],[-104.53866,44.6784],[-104.538692,44.682025],[-104.538724,44.685651],[-104.538757,44.689276],[-104.533563,44.689341],[-104.52837,44.689406],[-104.523176,44.689471]]]}},{"type":"Feature","properties":{"sec":"09","frstdivid":"WY060540N0640W0SN090"},"geometry":{"type":"Polygon","coordinates":[[[-104.558911,44.678456],[-104.55894,44.68194],[-104.55897,44.685425],[-104.558999,44.68891],[-104.553938,44.689002],[-104.548878,44.689093],[-104.543817,44.689185],[-104.538757,44.689276],[-104.538724,44.685651],[-104.538692,44.682025],[-104.53866,44.6784],[-104.538628,44.674775],[-104.543691,44.674824],[-104.548755,44.674873],[-104.553818,44.674922],[-104.558882,44.674971],[-104.558911,44.678456]]]}},{"type":"Feature","properties":{"sec":"16","frstdivid":"WY060540N0640W0SN160"},"geometry":{"type":"Polygon","coordinates":[[[-104.558882,44.674971],[-104.553818,44.674922],[-104.548755,44.674873],[-104.543691,44.674824],[-104.538628,44.674775],[-104.53912,44.670817],[-104.539612,44.66686],[-104.540104,44.662902],[-104.540596,44.658945],[-104.545418,44.659196],[-104.550239,44.659448],[-104.555061,44.659699],[-104.559882,44.659951],[-104.559632,44.663706],[-104.559382,44.667461],[-104.559132,44.671216],[-104.558882,44.674971]]]}},{"type":"Feature","properties":{"sec":"24","frstdivid":"WY060540N0640W0SN240"},"geometry":{"type":"Polygon","coordinates":[[[-104.478306,44.661257],[-104.478283,44.657695],[-104.478259,44.654133],[-104.478211,44.650568],[-104.478162,44.647002],[-104.483583,44.646506],[-104.489005,44.64601],[-104.494426,44.645514],[-104.499847,44.645018],[-104.499853,44.648579],[-104.499858,44.65214],[-104.499902,44.655732],[-104.499946,44.659324],[-104.494536,44.659807],[-104.489126,44.66029],[-104.483716,44.660774],[-104.478306,44.661257]]]}},{"type":"Feature","properties":{"sec":"15","frstdivid":"WY060540N0640W0SN150"},"geometry":{"type":"Polygon","coordinates":[[[-104.540104,44.662902],[-104.539612,44.66686],[-104.53912,44.670817],[-104.538628,44.674775],[-104.533418,44.674675],[-104.528209,44.674575],[-104.523,44.674475],[-104.51779,44.674375],[-104.518349,44.670586],[-104.518909,44.666797],[-104.519468,44.663007],[-104.520028,44.659218],[-104.52517,44.659138],[-104.530313,44.659058],[-104.535454,44.659001],[-104.540596,44.658945],[-104.540104,44.662902]]]}},{"type":"Feature","properties":{"sec":"18","frstdivid":"WY060540N0640W0SN180"},"geometry":{"type":"Polygon","coordinates":[[[-104.579185,44.67124],[-104.579199,44.66768],[-104.579213,44.664119],[-104.579226,44.660559],[-104.584361,44.660545],[-104.589496,44.660532],[-104.594631,44.66052],[-104.599588,44.660508],[-104.599521,44.664143],[-104.599454,44.667778],[-104.599386,44.671412],[-104.599319,44.675047],[-104.59449,44.674989],[-104.589383,44.674928],[-104.584277,44.674864],[-104.579171,44.674801],[-104.579185,44.67124]]]}},{"type":"Feature","properties":{"sec":"23","frstdivid":"WY060540N0640W0SN230"},"geometry":{"type":"Polygon","coordinates":[[[-104.499847,44.645018],[-104.504841,44.644995],[-104.509834,44.644972],[-104.514904,44.644896],[-104.519973,44.64482],[-104.519987,44.64842],[-104.52,44.652019],[-104.520014,44.655618],[-104.520028,44.659218],[-104.515007,44.659244],[-104.509987,44.659271],[-104.504966,44.659297],[-104.499946,44.659324],[-104.499902,44.655732],[-104.499858,44.65214],[-104.499853,44.648579],[-104.499847,44.645018]]]}},{"type":"Feature","properties":{"sec":"12","frstdivid":"WY060540N0640W0SN120"},"geometry":{"type":"Polygon","coordinates":[[[-104.478381,44.679286],[-104.478378,44.675698],[-104.483041,44.675865],[-104.487703,44.676033],[-104.492366,44.6762],[-104.497029,44.676367],[-104.497098,44.679985],[-104.497168,44.683603],[-104.497225,44.687226],[-104.497283,44.690849],[-104.492529,44.690648],[-104.487775,44.690448],[-104.483022,44.690247],[-104.478268,44.690047],[-104.478326,44.686461],[-104.478384,44.682875],[-104.478381,44.679286]]]}},{"type":"Feature","properties":{"sec":"05","frstdivid":"WY060540N0640W0SN050"},"geometry":{"type":"Polygon","coordinates":[[[-104.568913,44.704506],[-104.563826,44.704525],[-104.558739,44.704543],[-104.558792,44.700632],[-104.558845,44.696725],[-104.558922,44.692817],[-104.558999,44.68891],[-104.56398,44.688807],[-104.568962,44.688705],[-104.573943,44.688602],[-104.578925,44.688499],[-104.578971,44.692495],[-104.579016,44.696491],[-104.579051,44.700487],[-104.579086,44.70447],[-104.574,44.704488],[-104.568913,44.704506]]]}},{"type":"Feature","properties":{"sec":"13","frstdivid":"WY060540N0640W0SN130"},"geometry":{"type":"Polygon","coordinates":[[[-104.478314,44.668488],[-104.47831,44.664872],[-104.478306,44.661257],[-104.483716,44.660774],[-104.489126,44.66029],[-104.494536,44.659807],[-104.499946,44.659324],[-104.499216,44.663585],[-104.498487,44.667845],[-104.497758,44.672106],[-104.497029,44.676367],[-104.492366,44.6762],[-104.487703,44.676033],[-104.483041,44.675865],[-104.478378,44.675698],[-104.478346,44.672093],[-104.478314,44.668488]]]}}]}