{"type":"FeatureCollection","note":"BLM Public Land Survey System. Provided by the Bureau of Land Management as is. These data are neither legal documents nor land surveys and must not be used as such.","features":[{"type":"Feature","properties":{"sec":"06","frstdivid":"WY060280N0810W0SN060"},"geometry":{"type":"Polygon","coordinates":[[[-106.591131,42.417382],[-106.591121,42.420991],[-106.59111,42.4246],[-106.591119,42.427785],[-106.591128,42.430751],[-106.590285,42.430753],[-106.585992,42.43076],[-106.585431,42.430762],[-106.581086,42.430769],[-106.580577,42.430771],[-106.576181,42.430753],[-106.575694,42.430751],[-106.571275,42.430733],[-106.571342,42.42828],[-106.571355,42.424663],[-106.57138,42.421049],[-106.571404,42.417436],[-106.576288,42.417424],[-106.581172,42.417413],[-106.586058,42.417398],[-106.591131,42.417382]]]}},{"type":"Feature","properties":{"sec":"03","frstdivid":"WY060280N0810W0SN030"},"geometry":{"type":"Polygon","coordinates":[[[-106.532518,42.428079],[-106.532709,42.430719],[-106.532327,42.430721],[-106.527696,42.430735],[-106.527529,42.430736],[-106.522731,42.43075],[-106.522683,42.43075],[-106.517888,42.43078],[-106.51767,42.430781],[-106.513046,42.43081],[-106.512658,42.430816],[-106.512798,42.427999],[-106.512818,42.42438],[-106.512857,42.420764],[-106.512897,42.417149],[-106.517764,42.41717],[-106.522632,42.417191],[-106.527499,42.417212],[-106.532366,42.417233],[-106.532427,42.420847],[-106.532488,42.424461],[-106.532518,42.428079]]]}},{"type":"Feature","properties":{"sec":"02","frstdivid":"WY060280N0810W0SN020"},"geometry":{"type":"Polygon","coordinates":[[[-106.493356,42.416905],[-106.498241,42.416966],[-106.503127,42.417027],[-106.508012,42.417088],[-106.512897,42.417149],[-106.512857,42.420764],[-106.512818,42.42438],[-106.512798,42.427999],[-106.512658,42.430816],[-106.508196,42.430875],[-106.507792,42.430881],[-106.503345,42.43094],[-106.502926,42.430938],[-106.498549,42.430907],[-106.49806,42.430904],[-106.493753,42.430875],[-106.493194,42.430868],[-106.493296,42.427759],[-106.493308,42.42414],[-106.493332,42.420523],[-106.493356,42.416905]]]}},{"type":"Feature","properties":{"sec":"04","frstdivid":"WY060280N0810W0SN040"},"geometry":{"type":"Polygon","coordinates":[[[-106.551736,42.42096],[-106.55166,42.424573],[-106.551622,42.42819],[-106.551405,42.430703],[-106.546729,42.430696],[-106.542057,42.43069],[-106.541925,42.43069],[-106.537383,42.430704],[-106.537126,42.430705],[-106.532709,42.430719],[-106.532518,42.428079],[-106.532488,42.424461],[-106.532427,42.420847],[-106.532366,42.417233],[-106.537228,42.417262],[-106.542089,42.41729],[-106.546951,42.417319],[-106.551813,42.417347],[-106.551736,42.42096]]]}},{"type":"Feature","properties":{"sec":"05","frstdivid":"WY060280N0810W0SN050"},"geometry":{"type":"Polygon","coordinates":[[[-106.561211,42.430726],[-106.556372,42.430714],[-106.551532,42.430703],[-106.551405,42.430703],[-106.551622,42.42819],[-106.55166,42.424573],[-106.551736,42.42096],[-106.551813,42.417347],[-106.556711,42.41737],[-106.561608,42.417392],[-106.566506,42.417414],[-106.571404,42.417436],[-106.57138,42.421049],[-106.571355,42.424663],[-106.571342,42.42828],[-106.571275,42.430733],[-106.570811,42.430732],[-106.566307,42.430729],[-106.566011,42.430729],[-106.56134,42.430725],[-106.561211,42.430726]]]}},{"type":"Feature","properties":{"sec":"01","frstdivid":"WY060280N0810W0SN010"},"geometry":{"type":"Polygon","coordinates":[[[-106.493194,42.430868],[-106.488894,42.430813],[-106.488319,42.430806],[-106.484035,42.43075],[-106.483445,42.430757],[-106.478571,42.430801],[-106.478305,42.430804],[-106.473697,42.430846],[-106.473749,42.427211],[-106.473801,42.423576],[-106.47385,42.420003],[-106.473899,42.41643],[-106.478764,42.416549],[-106.483628,42.416667],[-106.488492,42.416786],[-106.493356,42.416905],[-106.493332,42.420523],[-106.493308,42.42414],[-106.493296,42.427759],[-106.493194,42.430868]]]}}]}