{"type":"FeatureCollection","note":"BLM Public Land Survey System. Provided by the Bureau of Land Management as is. These data are neither legal documents nor land surveys and must not be used as such.","features":[{"type":"Feature","properties":{"sec":"34","frstdivid":"MT200080S0420E0SN340"},"geometry":{"type":"Polygon","coordinates":[[[-106.573687,45.104814],[-106.568567,45.104811],[-106.563447,45.104807],[-106.563445,45.101187],[-106.563442,45.097566],[-106.56344,45.093945],[-106.563437,45.090325],[-106.568552,45.090326],[-106.573666,45.090328],[-106.57878,45.090329],[-106.583894,45.090331],[-106.583902,45.093954],[-106.58391,45.097576],[-106.583919,45.101199],[-106.583927,45.104822],[-106.578807,45.104818],[-106.573687,45.104814]]]}},{"type":"Feature","properties":{"sec":"22","frstdivid":"MT200080S0420E0SN220"},"geometry":{"type":"Polygon","coordinates":[[[-106.583961,45.13017],[-106.583965,45.133791],[-106.578842,45.133786],[-106.573719,45.133782],[-106.568596,45.133777],[-106.563474,45.133772],[-106.563469,45.130152],[-106.563463,45.126531],[-106.563458,45.12291],[-106.563453,45.119289],[-106.568577,45.119294],[-106.573701,45.119299],[-106.578826,45.119303],[-106.58395,45.119308],[-106.583953,45.122929],[-106.583957,45.12655],[-106.583961,45.13017]]]}},{"type":"Feature","properties":{"sec":"32","frstdivid":"MT200080S0420E0SN320"},"geometry":{"type":"Polygon","coordinates":[[[-106.619675,45.090342],[-106.624784,45.090343],[-106.624797,45.093965],[-106.624809,45.097587],[-106.624821,45.101208],[-106.624833,45.10483],[-106.61972,45.104831],[-106.614607,45.104832],[-106.609493,45.104832],[-106.60438,45.104833],[-106.604371,45.10121],[-106.604362,45.097586],[-106.604354,45.093963],[-106.604345,45.09034],[-106.609455,45.09034],[-106.614565,45.090341],[-106.619675,45.090342]]]}},{"type":"Feature","properties":{"sec":"30","frstdivid":"MT200080S0420E0SN300"},"geometry":{"type":"Polygon","coordinates":[[[-106.642654,45.115874],[-106.642558,45.119321],[-106.640198,45.119321],[-106.635084,45.11932],[-106.629968,45.11932],[-106.624853,45.119319],[-106.624848,45.115697],[-106.624843,45.112074],[-106.624838,45.108452],[-106.624833,45.10483],[-106.62995,45.10483],[-106.635066,45.104831],[-106.64018,45.104831],[-106.642903,45.104831],[-106.6429,45.104929],[-106.642816,45.10845],[-106.642813,45.108588],[-106.642737,45.112069],[-106.642733,45.112231],[-106.642657,45.115695],[-106.642654,45.115874]]]}},{"type":"Feature","properties":{"sec":"29","frstdivid":"MT200080S0420E0SN290"},"geometry":{"type":"Polygon","coordinates":[[[-106.624833,45.10483],[-106.624838,45.108452],[-106.624843,45.112074],[-106.624848,45.115697],[-106.624853,45.119319],[-106.619742,45.119319],[-106.614632,45.11932],[-106.609521,45.119321],[-106.604411,45.119322],[-106.604403,45.1157],[-106.604395,45.112077],[-106.604388,45.108455],[-106.60438,45.104833],[-106.609493,45.104832],[-106.614607,45.104832],[-106.61972,45.104831],[-106.624833,45.10483]]]}},{"type":"Feature","properties":{"sec":"13","frstdivid":"MT200080S0420E0SN130"},"geometry":{"type":"Polygon","coordinates":[[[-106.522557,45.144671],[-106.522553,45.141047],[-106.522552,45.137423],[-106.522552,45.133799],[-106.527668,45.133789],[-106.532783,45.133778],[-106.537899,45.133768],[-106.543015,45.133758],[-106.543018,45.13738],[-106.543021,45.141001],[-106.543024,45.144623],[-106.543027,45.148245],[-106.537911,45.148258],[-106.532795,45.14827],[-106.527678,45.148283],[-106.522562,45.148295],[-106.522557,45.144671]]]}},{"type":"Feature","properties":{"sec":"33","frstdivid":"MT200080S0420E0SN330"},"geometry":{"type":"Polygon","coordinates":[[[-106.599232,45.090337],[-106.604345,45.09034],[-106.604354,45.093963],[-106.604362,45.097586],[-106.604371,45.10121],[-106.60438,45.104833],[-106.599267,45.10483],[-106.594153,45.104828],[-106.58904,45.104825],[-106.583927,45.104822],[-106.583919,45.101199],[-106.58391,45.097576],[-106.583902,45.093954],[-106.583894,45.090331],[-106.589007,45.090333],[-106.59412,45.090335],[-106.599232,45.090337]]]}},{"type":"Feature","properties":{"sec":"11","frstdivid":"MT200080S0420E0SN110"},"geometry":{"type":"Polygon","coordinates":[[[-106.543034,45.162744],[-106.543033,45.159119],[-106.543031,45.155494],[-106.543029,45.15187],[-106.543027,45.148245],[-106.548145,45.148248],[-106.553262,45.14825],[-106.55838,45.148253],[-106.563498,45.148255],[-106.563504,45.151877],[-106.563511,45.155499],[-106.563518,45.159121],[-106.563524,45.162743],[-106.558402,45.162743],[-106.553279,45.162743],[-106.548157,45.162743],[-106.543034,45.162744]]]}},{"type":"Feature","properties":{"sec":"03","frstdivid":"MT200080S0420E0SN030"},"geometry":{"type":"Polygon","coordinates":[[[-106.563474,45.177357],[-106.563487,45.173606],[-106.5635,45.169986],[-106.563512,45.166364],[-106.563524,45.162743],[-106.568642,45.162752],[-106.57376,45.162762],[-106.578878,45.162772],[-106.583996,45.162781],[-106.583986,45.166405],[-106.583976,45.170028],[-106.583965,45.173649],[-106.583954,45.177392],[-106.578834,45.177383],[-106.573714,45.177375],[-106.568594,45.177366],[-106.563474,45.177357]]]}},{"type":"Feature","properties":{"sec":"02","frstdivid":"MT200080S0420E0SN020"},"geometry":{"type":"Polygon","coordinates":[[[-106.563512,45.166364],[-106.5635,45.169986],[-106.563487,45.173606],[-106.563474,45.177357],[-106.558355,45.177346],[-106.553235,45.177335],[-106.548116,45.177324],[-106.542996,45.177314],[-106.543006,45.173611],[-106.543016,45.169989],[-106.543025,45.166366],[-106.543034,45.162744],[-106.548157,45.162743],[-106.553279,45.162743],[-106.558402,45.162743],[-106.563524,45.162743],[-106.563512,45.166364]]]}},{"type":"Feature","properties":{"sec":"35","frstdivid":"MT200080S0420E0SN350"},"geometry":{"type":"Polygon","coordinates":[[[-106.553211,45.090321],[-106.558324,45.090323],[-106.563437,45.090325],[-106.56344,45.093945],[-106.563442,45.097566],[-106.563445,45.101187],[-106.563447,45.104807],[-106.558336,45.104804],[-106.553224,45.104802],[-106.548113,45.104799],[-106.543001,45.104796],[-106.542997,45.101177],[-106.542993,45.097557],[-106.542989,45.093937],[-106.542985,45.090318],[-106.548098,45.09032],[-106.553211,45.090321]]]}},{"type":"Feature","properties":{"sec":"17","frstdivid":"MT200080S0420E0SN170"},"geometry":{"type":"Polygon","coordinates":[[[-106.604447,45.141052],[-106.604443,45.137433],[-106.604438,45.133814],[-106.609539,45.13381],[-106.614641,45.133807],[-106.619742,45.133803],[-106.624843,45.133799],[-106.624847,45.137419],[-106.624852,45.14104],[-106.624856,45.144661],[-106.62486,45.148281],[-106.619759,45.148284],[-106.614658,45.148286],[-106.609557,45.148288],[-106.604456,45.14829],[-106.604451,45.144671],[-106.604447,45.141052]]]}},{"type":"Feature","properties":{"sec":"25","frstdivid":"MT200080S0420E0SN250"},"geometry":{"type":"Polygon","coordinates":[[[-106.532778,45.119296],[-106.527665,45.119305],[-106.522551,45.119314],[-106.52256,45.115692],[-106.522569,45.112071],[-106.522576,45.10845],[-106.522582,45.104829],[-106.527687,45.104821],[-106.532792,45.104812],[-106.537897,45.104804],[-106.543001,45.104796],[-106.543003,45.108417],[-106.543004,45.112037],[-106.543005,45.115657],[-106.543006,45.119278],[-106.537892,45.119287],[-106.532778,45.119296]]]}},{"type":"Feature","properties":{"sec":"06","frstdivid":"MT200080S0420E0SN060"},"geometry":{"type":"Polygon","coordinates":[[[-106.645453,45.174452],[-106.645451,45.177511],[-106.640251,45.177502],[-106.635132,45.177492],[-106.630013,45.177482],[-106.624894,45.177472],[-106.624887,45.173654],[-106.62488,45.170031],[-106.624872,45.166406],[-106.624863,45.162781],[-106.62997,45.162776],[-106.635077,45.162772],[-106.640189,45.16277],[-106.641352,45.162771],[-106.641347,45.163487],[-106.641324,45.16639],[-106.641317,45.167165],[-106.645456,45.167212],[-106.645455,45.170026],[-106.645455,45.170832],[-106.645453,45.173646],[-106.645453,45.174452]]]}},{"type":"Feature","properties":{"sec":"07","frstdivid":"MT200080S0420E0SN070"},"geometry":{"type":"Polygon","coordinates":[[[-106.62997,45.162776],[-106.624863,45.162781],[-106.624862,45.159156],[-106.624862,45.155531],[-106.624861,45.151906],[-106.62486,45.148281],[-106.629977,45.14828],[-106.635094,45.14828],[-106.64021,45.148281],[-106.641847,45.148281],[-106.641834,45.148809],[-106.641753,45.151902],[-106.641738,45.15248],[-106.641587,45.155522],[-106.641556,45.156144],[-106.641408,45.159146],[-106.641375,45.159808],[-106.641352,45.162771],[-106.640189,45.16277],[-106.635077,45.162772],[-106.62997,45.162776]]]}},{"type":"Feature","properties":{"sec":"27","frstdivid":"MT200080S0420E0SN270"},"geometry":{"type":"Polygon","coordinates":[[[-106.563452,45.115669],[-106.56345,45.112048],[-106.563449,45.108428],[-106.563447,45.104807],[-106.568567,45.104811],[-106.573687,45.104814],[-106.578807,45.104818],[-106.583927,45.104822],[-106.583932,45.108443],[-106.583938,45.112065],[-106.583944,45.115686],[-106.58395,45.119308],[-106.578826,45.119303],[-106.573701,45.119299],[-106.568577,45.119294],[-106.563453,45.119289],[-106.563452,45.115669]]]}},{"type":"Feature","properties":{"sec":"05","frstdivid":"MT200080S0420E0SN050"},"geometry":{"type":"Polygon","coordinates":[[[-106.604431,45.177441],[-106.604436,45.17363],[-106.60444,45.17001],[-106.604446,45.166388],[-106.604452,45.162767],[-106.609555,45.162771],[-106.614658,45.162774],[-106.61976,45.162777],[-106.624863,45.162781],[-106.624872,45.166406],[-106.62488,45.170031],[-106.624887,45.173654],[-106.624894,45.177472],[-106.619778,45.177464],[-106.614662,45.177457],[-106.609547,45.177449],[-106.604431,45.177441]]]}},{"type":"Feature","properties":{"sec":"08","frstdivid":"MT200080S0420E0SN080"},"geometry":{"type":"Polygon","coordinates":[[[-106.604455,45.15191],[-106.604456,45.14829],[-106.609557,45.148288],[-106.614658,45.148286],[-106.619759,45.148284],[-106.62486,45.148281],[-106.624861,45.151906],[-106.624862,45.155531],[-106.624862,45.159156],[-106.624863,45.162781],[-106.61976,45.162777],[-106.614658,45.162774],[-106.609555,45.162771],[-106.604452,45.162767],[-106.604453,45.159148],[-106.604454,45.155529],[-106.604455,45.15191]]]}},{"type":"Feature","properties":{"sec":"28","frstdivid":"MT200080S0420E0SN280"},"geometry":{"type":"Polygon","coordinates":[[[-106.589065,45.119311],[-106.58395,45.119308],[-106.583944,45.115686],[-106.583938,45.112065],[-106.583932,45.108443],[-106.583927,45.104822],[-106.58904,45.104825],[-106.594153,45.104828],[-106.599267,45.10483],[-106.60438,45.104833],[-106.604388,45.108455],[-106.604395,45.112077],[-106.604403,45.1157],[-106.604411,45.119322],[-106.599295,45.119318],[-106.59418,45.119315],[-106.589065,45.119311]]]}},{"type":"Feature","properties":{"sec":"09","frstdivid":"MT200080S0420E0SN090"},"geometry":{"type":"Polygon","coordinates":[[[-106.604453,45.159148],[-106.604452,45.162767],[-106.599338,45.162771],[-106.594224,45.162774],[-106.58911,45.162778],[-106.583996,45.162781],[-106.583992,45.159157],[-106.583988,45.155532],[-106.583985,45.151907],[-106.583981,45.148282],[-106.5891,45.148284],[-106.594218,45.148286],[-106.599337,45.148288],[-106.604456,45.14829],[-106.604455,45.15191],[-106.604454,45.155529],[-106.604453,45.159148]]]}},{"type":"Feature","properties":{"sec":"10","frstdivid":"MT200080S0420E0SN100"},"geometry":{"type":"Polygon","coordinates":[[[-106.583992,45.159157],[-106.583996,45.162781],[-106.578878,45.162772],[-106.57376,45.162762],[-106.568642,45.162752],[-106.563524,45.162743],[-106.563518,45.159121],[-106.563511,45.155499],[-106.563504,45.151877],[-106.563498,45.148255],[-106.568619,45.148262],[-106.573739,45.148269],[-106.57886,45.148275],[-106.583981,45.148282],[-106.583985,45.151907],[-106.583988,45.155532],[-106.583992,45.159157]]]}},{"type":"Feature","properties":{"sec":"19","frstdivid":"MT200080S0420E0SN190"},"geometry":{"type":"Polygon","coordinates":[[[-106.642218,45.133808],[-106.640168,45.133807],[-106.635058,45.133805],[-106.62995,45.133802],[-106.624843,45.133799],[-106.624845,45.130179],[-106.624848,45.126559],[-106.62485,45.122939],[-106.624853,45.119319],[-106.629968,45.11932],[-106.635084,45.11932],[-106.640198,45.119321],[-106.642558,45.119321],[-106.642552,45.119562],[-106.642459,45.122936],[-106.64245,45.123249],[-106.642397,45.126551],[-106.642392,45.126889],[-106.642339,45.13018],[-106.642334,45.130528],[-106.642218,45.133808]]]}},{"type":"Feature","properties":{"sec":"20","frstdivid":"MT200080S0420E0SN200"},"geometry":{"type":"Polygon","coordinates":[[[-106.604431,45.130191],[-106.604424,45.126568],[-106.604418,45.122945],[-106.604411,45.119322],[-106.609521,45.119321],[-106.614632,45.11932],[-106.619742,45.119319],[-106.624853,45.119319],[-106.62485,45.122939],[-106.624848,45.126559],[-106.624845,45.130179],[-106.624843,45.133799],[-106.619742,45.133803],[-106.614641,45.133807],[-106.609539,45.13381],[-106.604438,45.133814],[-106.604431,45.130191]]]}},{"type":"Feature","properties":{"sec":"21","frstdivid":"MT200080S0420E0SN210"},"geometry":{"type":"Polygon","coordinates":[[[-106.58395,45.119308],[-106.589065,45.119311],[-106.59418,45.119315],[-106.599295,45.119318],[-106.604411,45.119322],[-106.604418,45.122945],[-106.604424,45.126568],[-106.604431,45.130191],[-106.604438,45.133814],[-106.59932,45.133809],[-106.594201,45.133803],[-106.589083,45.133797],[-106.583965,45.133791],[-106.583961,45.13017],[-106.583957,45.12655],[-106.583953,45.122929],[-106.58395,45.119308]]]}},{"type":"Feature","properties":{"sec":"15","frstdivid":"MT200080S0420E0SN150"},"geometry":{"type":"Polygon","coordinates":[[[-106.578842,45.133786],[-106.583965,45.133791],[-106.583969,45.137414],[-106.583973,45.141037],[-106.583977,45.144659],[-106.583981,45.148282],[-106.57886,45.148275],[-106.573739,45.148269],[-106.568619,45.148262],[-106.563498,45.148255],[-106.563492,45.144635],[-106.563486,45.141014],[-106.56348,45.137393],[-106.563474,45.133772],[-106.568596,45.133777],[-106.573719,45.133782],[-106.578842,45.133786]]]}},{"type":"Feature","properties":{"sec":"01","frstdivid":"MT200080S0420E0SN010"},"geometry":{"type":"Polygon","coordinates":[[[-106.537914,45.162757],[-106.543034,45.162744],[-106.543025,45.166366],[-106.543016,45.169989],[-106.543006,45.173611],[-106.542996,45.177314],[-106.537886,45.177304],[-106.532775,45.177295],[-106.527665,45.177286],[-106.522554,45.177277],[-106.522553,45.173665],[-106.522551,45.170053],[-106.522553,45.166426],[-106.522555,45.162798],[-106.527675,45.162785],[-106.532794,45.162771],[-106.537914,45.162757]]]}},{"type":"Feature","properties":{"sec":"24","frstdivid":"MT200080S0420E0SN240"},"geometry":{"type":"Polygon","coordinates":[[[-106.537892,45.119287],[-106.543006,45.119278],[-106.543008,45.122898],[-106.543011,45.126518],[-106.543013,45.130138],[-106.543015,45.133758],[-106.537899,45.133768],[-106.532783,45.133778],[-106.527668,45.133789],[-106.522552,45.133799],[-106.522545,45.130174],[-106.522538,45.126549],[-106.522544,45.122931],[-106.522551,45.119314],[-106.527665,45.119305],[-106.532778,45.119296],[-106.537892,45.119287]]]}},{"type":"Feature","properties":{"sec":"16","frstdivid":"MT200080S0420E0SN160"},"geometry":{"type":"Polygon","coordinates":[[[-106.604438,45.133814],[-106.604443,45.137433],[-106.604447,45.141052],[-106.604451,45.144671],[-106.604456,45.14829],[-106.599337,45.148288],[-106.594218,45.148286],[-106.5891,45.148284],[-106.583981,45.148282],[-106.583977,45.144659],[-106.583973,45.141037],[-106.583969,45.137414],[-106.583965,45.133791],[-106.589083,45.133797],[-106.594201,45.133803],[-106.59932,45.133809],[-106.604438,45.133814]]]}},{"type":"Feature","properties":{"sec":"14","frstdivid":"MT200080S0420E0SN140"},"geometry":{"type":"Polygon","coordinates":[[[-106.558359,45.133769],[-106.563474,45.133772],[-106.56348,45.137393],[-106.563486,45.141014],[-106.563492,45.144635],[-106.563498,45.148255],[-106.55838,45.148253],[-106.553262,45.14825],[-106.548145,45.148248],[-106.543027,45.148245],[-106.543024,45.144623],[-106.543021,45.141001],[-106.543018,45.13738],[-106.543015,45.133758],[-106.548129,45.133761],[-106.553244,45.133765],[-106.558359,45.133769]]]}},{"type":"Feature","properties":{"sec":"04","frstdivid":"MT200080S0420E0SN040"},"geometry":{"type":"Polygon","coordinates":[[[-106.604431,45.177441],[-106.599312,45.177429],[-106.594193,45.177416],[-106.589074,45.177404],[-106.583954,45.177392],[-106.583965,45.173649],[-106.583976,45.170028],[-106.583986,45.166405],[-106.583996,45.162781],[-106.58911,45.162778],[-106.594224,45.162774],[-106.599338,45.162771],[-106.604452,45.162767],[-106.604446,45.166388],[-106.60444,45.17001],[-106.604436,45.17363],[-106.604431,45.177441]]]}},{"type":"Feature","properties":{"sec":"31","frstdivid":"MT200080S0420E0SN310"},"geometry":{"type":"Polygon","coordinates":[[[-106.643139,45.093974],[-106.643139,45.093976],[-106.643064,45.097597],[-106.643064,45.097623],[-106.642989,45.101214],[-106.642988,45.101271],[-106.642903,45.104831],[-106.64018,45.104831],[-106.635066,45.104831],[-106.62995,45.10483],[-106.624833,45.10483],[-106.624821,45.101208],[-106.624809,45.097587],[-106.624797,45.093965],[-106.624784,45.090343],[-106.6299,45.090346],[-106.635015,45.090349],[-106.640128,45.09035],[-106.643233,45.09035],[-106.643139,45.093974]]]}},{"type":"Feature","properties":{"sec":"36","frstdivid":"MT200080S0420E0SN360"},"geometry":{"type":"Polygon","coordinates":[[[-106.532792,45.104812],[-106.527687,45.104821],[-106.522582,45.104829],[-106.522592,45.101201],[-106.522602,45.097574],[-106.522578,45.093941],[-106.522554,45.090309],[-106.527662,45.090311],[-106.53277,45.090313],[-106.537878,45.090316],[-106.542985,45.090318],[-106.542989,45.093937],[-106.542993,45.097557],[-106.542997,45.101177],[-106.543001,45.104796],[-106.537897,45.104804],[-106.532792,45.104812]]]}},{"type":"Feature","properties":{"sec":"23","frstdivid":"MT200080S0420E0SN230"},"geometry":{"type":"Polygon","coordinates":[[[-106.553244,45.133765],[-106.548129,45.133761],[-106.543015,45.133758],[-106.543013,45.130138],[-106.543011,45.126518],[-106.543008,45.122898],[-106.543006,45.119278],[-106.548118,45.119281],[-106.55323,45.119283],[-106.558341,45.119286],[-106.563453,45.119289],[-106.563458,45.12291],[-106.563463,45.126531],[-106.563469,45.130152],[-106.563474,45.133772],[-106.558359,45.133769],[-106.553244,45.133765]]]}},{"type":"Feature","properties":{"sec":"12","frstdivid":"MT200080S0420E0SN120"},"geometry":{"type":"Polygon","coordinates":[[[-106.537911,45.148258],[-106.543027,45.148245],[-106.543029,45.15187],[-106.543031,45.155494],[-106.543033,45.159119],[-106.543034,45.162744],[-106.537914,45.162757],[-106.532794,45.162771],[-106.527675,45.162785],[-106.522555,45.162798],[-106.522528,45.159114],[-106.522502,45.15543],[-106.522532,45.151862],[-106.522562,45.148295],[-106.527678,45.148283],[-106.532795,45.14827],[-106.537911,45.148258]]]}},{"type":"Feature","properties":{"sec":"18","frstdivid":"MT200080S0420E0SN180"},"geometry":{"type":"Polygon","coordinates":[[[-106.640168,45.133807],[-106.642218,45.133808],[-106.642205,45.134174],[-106.642089,45.137425],[-106.642075,45.137819],[-106.642011,45.141042],[-106.642002,45.141479],[-106.641939,45.144662],[-106.641929,45.145138],[-106.641847,45.148281],[-106.64021,45.148281],[-106.635094,45.14828],[-106.629977,45.14828],[-106.62486,45.148281],[-106.624856,45.144661],[-106.624852,45.14104],[-106.624847,45.137419],[-106.624843,45.133799],[-106.62995,45.133802],[-106.635058,45.133805],[-106.640168,45.133807]]]}},{"type":"Feature","properties":{"sec":"26","frstdivid":"MT200080S0420E0SN260"},"geometry":{"type":"Polygon","coordinates":[[[-106.563449,45.108428],[-106.56345,45.112048],[-106.563452,45.115669],[-106.563453,45.119289],[-106.558341,45.119286],[-106.55323,45.119283],[-106.548118,45.119281],[-106.543006,45.119278],[-106.543005,45.115657],[-106.543004,45.112037],[-106.543003,45.108417],[-106.543001,45.104796],[-106.548113,45.104799],[-106.553224,45.104802],[-106.558336,45.104804],[-106.563447,45.104807],[-106.563449,45.108428]]]}}]}