{"type":"FeatureCollection","note":"BLM Public Land Survey System. Provided by the Bureau of Land Management as is. These data are neither legal documents nor land surveys and must not be used as such.","features":[{"type":"Feature","properties":{"sec":"26","frstdivid":"MT200010S0490E0SN260"},"geometry":{"type":"Polygon","coordinates":[[[-105.648122,45.713583],[-105.653266,45.71351],[-105.653268,45.717211],[-105.65327,45.720912],[-105.653272,45.724613],[-105.653273,45.728314],[-105.648085,45.728384],[-105.642896,45.728455],[-105.637707,45.728525],[-105.632518,45.728595],[-105.632561,45.724897],[-105.632605,45.721199],[-105.632648,45.7175],[-105.632691,45.713802],[-105.637835,45.713729],[-105.642978,45.713656],[-105.648122,45.713583]]]}},{"type":"Feature","properties":{"sec":"04","frstdivid":"MT200010S0490E0SN040"},"geometry":{"type":"Polygon","coordinates":[[[-105.691672,45.788393],[-105.686566,45.788357],[-105.686507,45.788357],[-105.68139,45.788321],[-105.681341,45.788321],[-105.676242,45.788345],[-105.676176,45.788345],[-105.675681,45.784186],[-105.675294,45.780512],[-105.674499,45.776769],[-105.673704,45.773027],[-105.678889,45.772979],[-105.684075,45.772932],[-105.68926,45.772884],[-105.694446,45.772837],[-105.69521,45.776632],[-105.695975,45.780427],[-105.696346,45.784128],[-105.696837,45.788396],[-105.691745,45.788393],[-105.691672,45.788393]]]}},{"type":"Feature","properties":{"sec":"08","frstdivid":"MT200010S0490E0SN080"},"geometry":{"type":"Polygon","coordinates":[[[-105.71096,45.757801],[-105.716418,45.75776],[-105.716444,45.761396],[-105.71647,45.765033],[-105.716496,45.76867],[-105.716523,45.772306],[-105.711003,45.772439],[-105.705484,45.772572],[-105.699965,45.772704],[-105.694446,45.772837],[-105.694481,45.769109],[-105.694516,45.765382],[-105.694552,45.761654],[-105.694587,45.757926],[-105.700045,45.757885],[-105.705502,45.757843],[-105.71096,45.757801]]]}},{"type":"Feature","properties":{"sec":"03","frstdivid":"MT200010S0490E0SN030"},"geometry":{"type":"Polygon","coordinates":[[[-105.653913,45.776775],[-105.653164,45.773012],[-105.658299,45.773016],[-105.663434,45.773019],[-105.668569,45.773023],[-105.673704,45.773027],[-105.674499,45.776769],[-105.675294,45.780512],[-105.675681,45.784186],[-105.676176,45.788345],[-105.671094,45.788369],[-105.671007,45.788369],[-105.665919,45.788366],[-105.665838,45.788366],[-105.660744,45.788363],[-105.66067,45.788364],[-105.655583,45.788429],[-105.655502,45.788431],[-105.655028,45.784223],[-105.654663,45.780538],[-105.653913,45.776775]]]}},{"type":"Feature","properties":{"sec":"25","frstdivid":"MT200010S0490E0SN250"},"geometry":{"type":"Polygon","coordinates":[[[-105.616798,45.728903],[-105.611558,45.729006],[-105.61157,45.728452],[-105.611675,45.725187],[-105.611689,45.724772],[-105.611799,45.721369],[-105.611808,45.721092],[-105.611923,45.71755],[-105.611929,45.71735],[-105.612047,45.713732],[-105.617208,45.713749],[-105.622369,45.713767],[-105.62753,45.713784],[-105.632691,45.713802],[-105.632648,45.7175],[-105.632605,45.721199],[-105.632561,45.724897],[-105.632518,45.728595],[-105.627278,45.728698],[-105.622038,45.728801],[-105.616798,45.728903]]]}},{"type":"Feature","properties":{"sec":"13","frstdivid":"MT200010S0490E0SN130"},"geometry":{"type":"Polygon","coordinates":[[[-105.611488,45.754275],[-105.611489,45.753781],[-105.611495,45.750628],[-105.611496,45.750165],[-105.611507,45.746979],[-105.611508,45.74655],[-105.611518,45.74333],[-105.616758,45.743296],[-105.621999,45.743263],[-105.627239,45.743229],[-105.63248,45.743195],[-105.632519,45.746862],[-105.632558,45.750528],[-105.632597,45.754195],[-105.632636,45.757861],[-105.627347,45.757876],[-105.622059,45.757892],[-105.61677,45.757907],[-105.611481,45.757922],[-105.611482,45.757397],[-105.611488,45.754275]]]}},{"type":"Feature","properties":{"sec":"19","frstdivid":"MT200010S0490E0SN190"},"geometry":{"type":"Polygon","coordinates":[[[-105.736029,45.731912],[-105.736092,45.735579],[-105.736154,45.739246],[-105.736217,45.742913],[-105.731858,45.74293],[-105.726658,45.742953],[-105.721427,45.742987],[-105.716197,45.74302],[-105.716148,45.739349],[-105.7161,45.735677],[-105.716052,45.732006],[-105.716003,45.728335],[-105.721207,45.728307],[-105.72641,45.728279],[-105.731595,45.72826],[-105.735967,45.728246],[-105.736029,45.731912]]]}},{"type":"Feature","properties":{"sec":"35","frstdivid":"MT200010S0490E0SN350"},"geometry":{"type":"Polygon","coordinates":[[[-105.642978,45.713656],[-105.637835,45.713729],[-105.632691,45.713802],[-105.63274,45.710173],[-105.632789,45.706545],[-105.632839,45.702916],[-105.632888,45.699287],[-105.638054,45.699286],[-105.64322,45.699285],[-105.648386,45.699285],[-105.653553,45.699284],[-105.653481,45.70284],[-105.653409,45.706397],[-105.653338,45.709953],[-105.653266,45.71351],[-105.648122,45.713583],[-105.642978,45.713656]]]}},{"type":"Feature","properties":{"sec":"36","frstdivid":"MT200010S0490E0SN360"},"geometry":{"type":"Polygon","coordinates":[[[-105.612227,45.699288],[-105.617274,45.699288],[-105.617392,45.699288],[-105.622479,45.699288],[-105.622558,45.699288],[-105.627683,45.699287],[-105.627723,45.699287],[-105.632888,45.699287],[-105.632839,45.702916],[-105.632789,45.706545],[-105.63274,45.710173],[-105.632691,45.713802],[-105.62753,45.713784],[-105.622369,45.713767],[-105.617208,45.713749],[-105.612047,45.713732],[-105.612092,45.710122],[-105.612137,45.706513],[-105.612182,45.702901],[-105.612227,45.699288]]]}},{"type":"Feature","properties":{"sec":"15","frstdivid":"MT200010S0490E0SN150"},"geometry":{"type":"Polygon","coordinates":[[[-105.653193,45.746519],[-105.653214,45.742939],[-105.658419,45.742938],[-105.663625,45.742937],[-105.66883,45.742935],[-105.674036,45.742934],[-105.673976,45.746568],[-105.673917,45.750201],[-105.673858,45.753834],[-105.673799,45.757468],[-105.668631,45.757416],[-105.663464,45.757364],[-105.658298,45.757313],[-105.653131,45.757261],[-105.653152,45.753681],[-105.653173,45.7501],[-105.653193,45.746519]]]}},{"type":"Feature","properties":{"sec":"02","frstdivid":"MT200010S0490E0SN020"},"geometry":{"type":"Polygon","coordinates":[[[-105.639997,45.788489],[-105.639978,45.788489],[-105.634803,45.788485],[-105.634527,45.784245],[-105.634318,45.780557],[-105.633892,45.776797],[-105.633465,45.773037],[-105.63839,45.773031],[-105.643315,45.773025],[-105.648239,45.773018],[-105.653164,45.773012],[-105.653913,45.776775],[-105.654663,45.780538],[-105.655028,45.784223],[-105.655502,45.788431],[-105.650422,45.788496],[-105.650328,45.788496],[-105.64521,45.788492],[-105.645153,45.788492],[-105.639997,45.788489]]]}},{"type":"Feature","properties":{"sec":"11","frstdivid":"MT200010S0490E0SN110"},"geometry":{"type":"Polygon","coordinates":[[[-105.633258,45.769243],[-105.633051,45.765449],[-105.632843,45.761655],[-105.632636,45.757861],[-105.63776,45.757711],[-105.642884,45.757561],[-105.648007,45.757411],[-105.653131,45.757261],[-105.653139,45.761199],[-105.653148,45.765137],[-105.653156,45.769074],[-105.653164,45.773012],[-105.648239,45.773018],[-105.643315,45.773025],[-105.63839,45.773031],[-105.633465,45.773037],[-105.633258,45.769243]]]}},{"type":"Feature","properties":{"sec":"21","frstdivid":"MT200010S0490E0SN210"},"geometry":{"type":"Polygon","coordinates":[[[-105.689784,45.728344],[-105.694995,45.728354],[-105.694987,45.732022],[-105.694978,45.73569],[-105.694969,45.739358],[-105.69496,45.743027],[-105.689729,45.743003],[-105.684498,45.74298],[-105.679267,45.742957],[-105.674036,45.742934],[-105.674064,45.73928],[-105.674093,45.735626],[-105.674121,45.731971],[-105.674149,45.728317],[-105.679361,45.728326],[-105.684572,45.728335],[-105.689784,45.728344]]]}},{"type":"Feature","properties":{"sec":"32","frstdivid":"MT200010S0490E0SN320"},"geometry":{"type":"Polygon","coordinates":[[[-105.710591,45.713709],[-105.705376,45.713716],[-105.700161,45.713723],[-105.694946,45.71373],[-105.694938,45.710089],[-105.694929,45.706448],[-105.694921,45.702808],[-105.694913,45.699167],[-105.700081,45.699167],[-105.705248,45.699166],[-105.710416,45.699166],[-105.715584,45.699166],[-105.71564,45.7028],[-105.715695,45.706434],[-105.715751,45.710068],[-105.715806,45.713703],[-105.710591,45.713709]]]}},{"type":"Feature","properties":{"sec":"06","frstdivid":"MT200010S0490E0SN060"},"geometry":{"type":"Polygon","coordinates":[[[-105.732551,45.772411],[-105.736896,45.772423],[-105.737118,45.77635],[-105.73734,45.780277],[-105.737447,45.78405],[-105.73759,45.788416],[-105.733387,45.788402],[-105.733033,45.788402],[-105.728181,45.788399],[-105.727508,45.788399],[-105.722975,45.788396],[-105.721982,45.788396],[-105.717768,45.788393],[-105.716456,45.788392],[-105.71647,45.784024],[-105.71648,45.780232],[-105.716501,45.776269],[-105.716523,45.772306],[-105.7219,45.77235],[-105.727277,45.772393],[-105.732551,45.772411]]]}},{"type":"Feature","properties":{"sec":"34","frstdivid":"MT200010S0490E0SN340"},"geometry":{"type":"Polygon","coordinates":[[[-105.67416,45.6992],[-105.674454,45.699198],[-105.674399,45.702821],[-105.674343,45.706443],[-105.674288,45.710066],[-105.674233,45.713689],[-105.668991,45.713644],[-105.663749,45.713599],[-105.658508,45.713554],[-105.653266,45.71351],[-105.653338,45.709953],[-105.653409,45.706397],[-105.653481,45.70284],[-105.653553,45.699284],[-105.658719,45.699284],[-105.663885,45.699284],[-105.669022,45.699242],[-105.669169,45.699241],[-105.67416,45.6992]]]}},{"type":"Feature","properties":{"sec":"05","frstdivid":"MT200010S0490E0SN050"},"geometry":{"type":"Polygon","coordinates":[[[-105.696837,45.788396],[-105.696346,45.784128],[-105.695975,45.780427],[-105.69521,45.776632],[-105.694446,45.772837],[-105.699965,45.772704],[-105.705484,45.772572],[-105.711003,45.772439],[-105.716523,45.772306],[-105.716501,45.776269],[-105.71648,45.780232],[-105.71647,45.784024],[-105.716456,45.788392],[-105.712562,45.78839],[-105.711551,45.788391],[-105.707415,45.788395],[-105.706647,45.788396],[-105.702267,45.7884],[-105.701742,45.7884],[-105.697006,45.788396],[-105.696837,45.788396]]]}},{"type":"Feature","properties":{"sec":"30","frstdivid":"MT200010S0490E0SN300"},"geometry":{"type":"Polygon","coordinates":[[[-105.721207,45.728307],[-105.716003,45.728335],[-105.715954,45.724677],[-105.715905,45.721019],[-105.715856,45.717361],[-105.715806,45.713703],[-105.720996,45.713674],[-105.726185,45.713646],[-105.731363,45.71363],[-105.73576,45.713617],[-105.735812,45.717274],[-105.735864,45.720931],[-105.735915,45.724588],[-105.735967,45.728246],[-105.731595,45.72826],[-105.72641,45.728279],[-105.721207,45.728307]]]}},{"type":"Feature","properties":{"sec":"29","frstdivid":"MT200010S0490E0SN290"},"geometry":{"type":"Polygon","coordinates":[[[-105.715954,45.724677],[-105.716003,45.728335],[-105.710751,45.728339],[-105.705499,45.728344],[-105.700247,45.728349],[-105.694995,45.728354],[-105.694983,45.724698],[-105.694971,45.721042],[-105.694958,45.717386],[-105.694946,45.71373],[-105.700161,45.713723],[-105.705376,45.713716],[-105.710591,45.713709],[-105.715806,45.713703],[-105.715856,45.717361],[-105.715905,45.721019],[-105.715954,45.724677]]]}},{"type":"Feature","properties":{"sec":"17","frstdivid":"MT200010S0490E0SN170"},"geometry":{"type":"Polygon","coordinates":[[[-105.694587,45.757926],[-105.69468,45.754201],[-105.694774,45.750477],[-105.694867,45.746752],[-105.69496,45.743027],[-105.700269,45.743025],[-105.705578,45.743023],[-105.710888,45.743022],[-105.716197,45.74302],[-105.716252,45.746705],[-105.716307,45.75039],[-105.716363,45.754075],[-105.716418,45.75776],[-105.71096,45.757801],[-105.705502,45.757843],[-105.700045,45.757885],[-105.694587,45.757926]]]}},{"type":"Feature","properties":{"sec":"24","frstdivid":"MT200010S0490E0SN240"},"geometry":{"type":"Polygon","coordinates":[[[-105.616758,45.743296],[-105.611518,45.74333],[-105.611519,45.742934],[-105.61153,45.739805],[-105.611532,45.739313],[-105.611542,45.736279],[-105.611544,45.735693],[-105.61155,45.732643],[-105.611552,45.732073],[-105.611558,45.729006],[-105.616798,45.728903],[-105.622038,45.728801],[-105.627278,45.728698],[-105.632518,45.728595],[-105.632509,45.732245],[-105.632499,45.735895],[-105.632489,45.739545],[-105.63248,45.743195],[-105.627239,45.743229],[-105.621999,45.743263],[-105.616758,45.743296]]]}},{"type":"Feature","properties":{"sec":"01","frstdivid":"MT200010S0490E0SN010"},"geometry":{"type":"Polygon","coordinates":[[[-105.627959,45.772933],[-105.633465,45.773037],[-105.633892,45.776797],[-105.634318,45.780557],[-105.634527,45.784245],[-105.634803,45.788485],[-105.634785,45.788485],[-105.629573,45.788482],[-105.629052,45.788488],[-105.624368,45.788541],[-105.623301,45.788553],[-105.619164,45.7886],[-105.61755,45.7886],[-105.613943,45.7886],[-105.611799,45.7886],[-105.6117,45.786355],[-105.611593,45.783927],[-105.611541,45.782737],[-105.611414,45.779863],[-105.611416,45.779119],[-105.611426,45.776242],[-105.611429,45.775499],[-105.611439,45.772622],[-105.616945,45.772726],[-105.622452,45.77283],[-105.627959,45.772933]]]}},{"type":"Feature","properties":{"sec":"22","frstdivid":"MT200010S0490E0SN220"},"geometry":{"type":"Polygon","coordinates":[[[-105.653214,45.742939],[-105.653229,45.739283],[-105.653244,45.735626],[-105.653259,45.73197],[-105.653273,45.728314],[-105.658492,45.728315],[-105.663711,45.728316],[-105.66893,45.728316],[-105.674149,45.728317],[-105.674121,45.731971],[-105.674093,45.735626],[-105.674064,45.73928],[-105.674036,45.742934],[-105.66883,45.742935],[-105.663625,45.742937],[-105.658419,45.742938],[-105.653214,45.742939]]]}},{"type":"Feature","properties":{"sec":"20","frstdivid":"MT200010S0490E0SN200"},"geometry":{"type":"Polygon","coordinates":[[[-105.716197,45.74302],[-105.710888,45.743022],[-105.705578,45.743023],[-105.700269,45.743025],[-105.69496,45.743027],[-105.694969,45.739358],[-105.694978,45.73569],[-105.694987,45.732022],[-105.694995,45.728354],[-105.700247,45.728349],[-105.705499,45.728344],[-105.710751,45.728339],[-105.716003,45.728335],[-105.716052,45.732006],[-105.7161,45.735677],[-105.716148,45.739349],[-105.716197,45.74302]]]}},{"type":"Feature","properties":{"sec":"28","frstdivid":"MT200010S0490E0SN280"},"geometry":{"type":"Polygon","coordinates":[[[-105.67941,45.713699],[-105.684588,45.713709],[-105.689767,45.71372],[-105.694946,45.71373],[-105.694958,45.717386],[-105.694971,45.721042],[-105.694983,45.724698],[-105.694995,45.728354],[-105.689784,45.728344],[-105.684572,45.728335],[-105.679361,45.728326],[-105.674149,45.728317],[-105.67417,45.72466],[-105.674191,45.721003],[-105.674212,45.717346],[-105.674233,45.713689],[-105.67941,45.713699]]]}},{"type":"Feature","properties":{"sec":"14","frstdivid":"MT200010S0490E0SN140"},"geometry":{"type":"Polygon","coordinates":[[[-105.642847,45.743067],[-105.64803,45.743003],[-105.653214,45.742939],[-105.653193,45.746519],[-105.653173,45.7501],[-105.653152,45.753681],[-105.653131,45.757261],[-105.648007,45.757411],[-105.642884,45.757561],[-105.63776,45.757711],[-105.632636,45.757861],[-105.632597,45.754195],[-105.632558,45.750528],[-105.632519,45.746862],[-105.63248,45.743195],[-105.637663,45.743131],[-105.642847,45.743067]]]}},{"type":"Feature","properties":{"sec":"27","frstdivid":"MT200010S0490E0SN270"},"geometry":{"type":"Polygon","coordinates":[[[-105.653272,45.724613],[-105.65327,45.720912],[-105.653268,45.717211],[-105.653266,45.71351],[-105.658508,45.713554],[-105.663749,45.713599],[-105.668991,45.713644],[-105.674233,45.713689],[-105.674212,45.717346],[-105.674191,45.721003],[-105.67417,45.72466],[-105.674149,45.728317],[-105.66893,45.728316],[-105.663711,45.728316],[-105.658492,45.728315],[-105.653273,45.728314],[-105.653272,45.724613]]]}},{"type":"Feature","properties":{"sec":"09","frstdivid":"MT200010S0490E0SN090"},"geometry":{"type":"Polygon","coordinates":[[[-105.673728,45.769137],[-105.673752,45.765247],[-105.673775,45.761358],[-105.673799,45.757468],[-105.678996,45.757582],[-105.684193,45.757697],[-105.68939,45.757812],[-105.694587,45.757926],[-105.694552,45.761654],[-105.694516,45.765382],[-105.694481,45.769109],[-105.694446,45.772837],[-105.68926,45.772884],[-105.684075,45.772932],[-105.678889,45.772979],[-105.673704,45.773027],[-105.673728,45.769137]]]}},{"type":"Feature","properties":{"sec":"31","frstdivid":"MT200010S0490E0SN310"},"geometry":{"type":"Polygon","coordinates":[[[-105.720996,45.713674],[-105.715806,45.713703],[-105.715751,45.710068],[-105.715695,45.706434],[-105.71564,45.7028],[-105.715584,45.699166],[-105.72075,45.699137],[-105.725916,45.699108],[-105.731081,45.699085],[-105.731084,45.699085],[-105.735487,45.699065],[-105.735556,45.702703],[-105.735624,45.706341],[-105.735692,45.709979],[-105.73576,45.713617],[-105.731363,45.71363],[-105.726185,45.713646],[-105.720996,45.713674]]]}},{"type":"Feature","properties":{"sec":"18","frstdivid":"MT200010S0490E0SN180"},"geometry":{"type":"Polygon","coordinates":[[[-105.716418,45.75776],[-105.716363,45.754075],[-105.716307,45.75039],[-105.716252,45.746705],[-105.716197,45.74302],[-105.721427,45.742987],[-105.726658,45.742953],[-105.731858,45.74293],[-105.736217,45.742913],[-105.73632,45.746607],[-105.736423,45.7503],[-105.736526,45.753994],[-105.736629,45.757688],[-105.732276,45.757703],[-105.727036,45.75772],[-105.721727,45.75774],[-105.716418,45.75776]]]}},{"type":"Feature","properties":{"sec":"23","frstdivid":"MT200010S0490E0SN230"},"geometry":{"type":"Polygon","coordinates":[[[-105.637707,45.728525],[-105.642896,45.728455],[-105.648085,45.728384],[-105.653273,45.728314],[-105.653259,45.73197],[-105.653244,45.735626],[-105.653229,45.739283],[-105.653214,45.742939],[-105.64803,45.743003],[-105.642847,45.743067],[-105.637663,45.743131],[-105.63248,45.743195],[-105.632489,45.739545],[-105.632499,45.735895],[-105.632509,45.732245],[-105.632518,45.728595],[-105.637707,45.728525]]]}},{"type":"Feature","properties":{"sec":"12","frstdivid":"MT200010S0490E0SN120"},"geometry":{"type":"Polygon","coordinates":[[[-105.627347,45.757876],[-105.632636,45.757861],[-105.632843,45.761655],[-105.633051,45.765449],[-105.633258,45.769243],[-105.633465,45.773037],[-105.627959,45.772933],[-105.622452,45.77283],[-105.616945,45.772726],[-105.611439,45.772622],[-105.61144,45.771878],[-105.611447,45.769036],[-105.611449,45.768258],[-105.611456,45.765449],[-105.611459,45.764638],[-105.611469,45.761685],[-105.611471,45.761017],[-105.611481,45.757922],[-105.61677,45.757907],[-105.622059,45.757892],[-105.627347,45.757876]]]}},{"type":"Feature","properties":{"sec":"07","frstdivid":"MT200010S0490E0SN070"},"geometry":{"type":"Polygon","coordinates":[[[-105.736896,45.772423],[-105.732551,45.772411],[-105.727277,45.772393],[-105.7219,45.77235],[-105.716523,45.772306],[-105.716496,45.76867],[-105.71647,45.765033],[-105.716444,45.761396],[-105.716418,45.75776],[-105.721727,45.75774],[-105.727036,45.75772],[-105.732276,45.757703],[-105.736629,45.757688],[-105.736696,45.761372],[-105.736762,45.765055],[-105.736829,45.768739],[-105.736896,45.772423]]]}},{"type":"Feature","properties":{"sec":"33","frstdivid":"MT200010S0490E0SN330"},"geometry":{"type":"Polygon","coordinates":[[[-105.689747,45.699167],[-105.694913,45.699167],[-105.694921,45.702808],[-105.694929,45.706448],[-105.694938,45.710089],[-105.694946,45.71373],[-105.689767,45.71372],[-105.684588,45.713709],[-105.67941,45.713699],[-105.674233,45.713689],[-105.674288,45.710066],[-105.674343,45.706443],[-105.674399,45.702821],[-105.674454,45.699198],[-105.679348,45.699183],[-105.679517,45.699182],[-105.684536,45.699167],[-105.68458,45.699167],[-105.689725,45.699167],[-105.689747,45.699167]]]}},{"type":"Feature","properties":{"sec":"10","frstdivid":"MT200010S0490E0SN100"},"geometry":{"type":"Polygon","coordinates":[[[-105.653148,45.765137],[-105.653139,45.761199],[-105.653131,45.757261],[-105.658298,45.757313],[-105.663464,45.757364],[-105.668631,45.757416],[-105.673799,45.757468],[-105.673775,45.761358],[-105.673752,45.765247],[-105.673728,45.769137],[-105.673704,45.773027],[-105.668569,45.773023],[-105.663434,45.773019],[-105.658299,45.773016],[-105.653164,45.773012],[-105.653156,45.769074],[-105.653148,45.765137]]]}},{"type":"Feature","properties":{"sec":"16","frstdivid":"MT200010S0490E0SN160"},"geometry":{"type":"Polygon","coordinates":[[[-105.673917,45.750201],[-105.673976,45.746568],[-105.674036,45.742934],[-105.679267,45.742957],[-105.684498,45.74298],[-105.689729,45.743003],[-105.69496,45.743027],[-105.694867,45.746752],[-105.694774,45.750477],[-105.69468,45.754201],[-105.694587,45.757926],[-105.68939,45.757812],[-105.684193,45.757697],[-105.678996,45.757582],[-105.673799,45.757468],[-105.673858,45.753834],[-105.673917,45.750201]]]}}]}