{"type":"FeatureCollection","note":"BLM Public Land Survey System. Provided by the Bureau of Land Management as is. These data are neither legal documents nor land surveys and must not be used as such.","features":[{"type":"Feature","properties":{"sec":"34","frstdivid":"WY060580N0820W0SN340"},"geometry":{"type":"Polygon","coordinates":[[[-106.741568,44.956013],[-106.741568,44.956301],[-106.741595,44.959632],[-106.741595,44.95992],[-106.741621,44.963251],[-106.741621,44.963539],[-106.741647,44.96687],[-106.737727,44.96687],[-106.732628,44.966869],[-106.72753,44.966868],[-106.722431,44.966866],[-106.722408,44.963246],[-106.722385,44.959627],[-106.722371,44.956007],[-106.72236,44.9528],[-106.726493,44.952718],[-106.727456,44.9527],[-106.731589,44.952618],[-106.732552,44.952601],[-106.736684,44.952519],[-106.737647,44.952501],[-106.741538,44.952424],[-106.741568,44.956013]]]}},{"type":"Feature","properties":{"sec":"32","frstdivid":"WY060580N0820W0SN320"},"geometry":{"type":"Polygon","coordinates":[[[-106.762109,44.967339],[-106.762073,44.963553],[-106.762037,44.959767],[-106.762015,44.956148],[-106.761991,44.952196],[-106.767126,44.952262],[-106.772261,44.952328],[-106.777396,44.952395],[-106.782531,44.952461],[-106.782528,44.956153],[-106.782526,44.959845],[-106.782523,44.963537],[-106.78252,44.967229],[-106.777417,44.967257],[-106.772315,44.967284],[-106.767212,44.967312],[-106.762109,44.967339]]]}},{"type":"Feature","properties":{"sec":"35","frstdivid":"WY060580N0820W0SN350"},"geometry":{"type":"Polygon","coordinates":[[[-106.707069,44.953011],[-106.711204,44.952957],[-106.712166,44.952941],[-106.716301,44.952886],[-106.717263,44.95287],[-106.721397,44.952816],[-106.72236,44.9528],[-106.722371,44.956007],[-106.722385,44.959627],[-106.722408,44.963246],[-106.722431,44.966866],[-106.717333,44.966857],[-106.712235,44.966847],[-106.707137,44.966838],[-106.702039,44.966829],[-106.702016,44.963209],[-106.701992,44.95959],[-106.70198,44.95597],[-106.701971,44.953082],[-106.706107,44.953027],[-106.707069,44.953011]]]}},{"type":"Feature","properties":{"sec":"31","frstdivid":"WY060580N0820W0SN310"},"geometry":{"type":"Polygon","coordinates":[[[-106.782531,44.952461],[-106.787647,44.95248],[-106.792763,44.952499],[-106.79787,44.952513],[-106.802977,44.952528],[-106.802926,44.956205],[-106.802876,44.959883],[-106.802826,44.96356],[-106.802775,44.967237],[-106.797832,44.967237],[-106.79273,44.967237],[-106.787625,44.967233],[-106.78252,44.967229],[-106.782523,44.963537],[-106.782526,44.959845],[-106.782528,44.956153],[-106.782531,44.952461]]]}},{"type":"Feature","properties":{"sec":"33","frstdivid":"WY060580N0820W0SN330"},"geometry":{"type":"Polygon","coordinates":[[[-106.761991,44.952196],[-106.762015,44.956148],[-106.762037,44.959767],[-106.762073,44.963553],[-106.762109,44.967339],[-106.756977,44.967294],[-106.751845,44.967248],[-106.746747,44.967203],[-106.741648,44.967158],[-106.741647,44.96687],[-106.741621,44.963539],[-106.741621,44.963251],[-106.741595,44.95992],[-106.741595,44.959632],[-106.741568,44.956301],[-106.741568,44.956013],[-106.741538,44.952424],[-106.74178,44.95242],[-106.746651,44.952366],[-106.746833,44.952363],[-106.751764,44.952308],[-106.751885,44.952306],[-106.756878,44.952252],[-106.756938,44.952251],[-106.761991,44.952196]]]}},{"type":"Feature","properties":{"sec":"30","frstdivid":"WY060580N0820W0SN300"},"geometry":{"type":"Polygon","coordinates":[[[-106.802775,44.981937],[-106.797871,44.981943],[-106.792769,44.981951],[-106.787663,44.981971],[-106.782557,44.981991],[-106.782548,44.9783],[-106.782539,44.97461],[-106.782529,44.97092],[-106.78252,44.967229],[-106.787625,44.967233],[-106.79273,44.967237],[-106.797832,44.967237],[-106.802775,44.967237],[-106.802775,44.970912],[-106.802775,44.974587],[-106.802775,44.978262],[-106.802775,44.981937]]]}},{"type":"Feature","properties":{"sec":"20","frstdivid":"WY060580N0820W0SN200"},"geometry":{"type":"Polygon","coordinates":[[[-106.782319,44.992939],[-106.782291,44.995602],[-106.780733,44.995597],[-106.779649,44.995593],[-106.777235,44.995584],[-106.775708,44.995579],[-106.772133,44.995566],[-106.770637,44.995561],[-106.76703,44.995548],[-106.765565,44.995543],[-106.761927,44.995528],[-106.761945,44.992935],[-106.76198,44.989302],[-106.762046,44.985656],[-106.762112,44.982011],[-106.767223,44.982006],[-106.772335,44.982001],[-106.777446,44.981996],[-106.782557,44.981991],[-106.782464,44.985646],[-106.78237,44.989301],[-106.782319,44.992939]]]}},{"type":"Feature","properties":{"sec":"19","frstdivid":"WY060580N0820W0SN190"},"geometry":{"type":"Polygon","coordinates":[[[-106.79262,44.995639],[-106.790987,44.995633],[-106.787456,44.99562],[-106.785804,44.995615],[-106.782291,44.995602],[-106.782319,44.992939],[-106.78237,44.989301],[-106.782464,44.985646],[-106.782557,44.981991],[-106.787663,44.981971],[-106.792769,44.981951],[-106.797871,44.981943],[-106.802775,44.981937],[-106.802814,44.985569],[-106.802853,44.989201],[-106.802872,44.992826],[-106.802884,44.995675],[-106.801352,44.99567],[-106.800053,44.995665],[-106.797784,44.995657],[-106.79617,44.995651],[-106.79262,44.995639]]]}},{"type":"Feature","properties":{"sec":"25","frstdivid":"WY060580N0820W0SN250"},"geometry":{"type":"Polygon","coordinates":[[[-106.681649,44.977594],[-106.681649,44.97398],[-106.681648,44.970366],[-106.681647,44.966751],[-106.686745,44.966771],[-106.691843,44.96679],[-106.696941,44.966809],[-106.702039,44.966829],[-106.702053,44.970448],[-106.702067,44.974068],[-106.70208,44.977688],[-106.702094,44.981307],[-106.696983,44.981283],[-106.691872,44.981258],[-106.686761,44.981233],[-106.68165,44.981209],[-106.681649,44.977594]]]}},{"type":"Feature","properties":{"sec":"22","frstdivid":"WY060580N0820W0SN220"},"geometry":{"type":"Polygon","coordinates":[[[-106.741039,44.995508],[-106.738931,44.995506],[-106.737739,44.9955],[-106.73592,44.99549],[-106.732634,44.99547],[-106.730799,44.995459],[-106.727529,44.995439],[-106.725679,44.995429],[-106.722424,44.995409],[-106.722427,44.992206],[-106.722432,44.988586],[-106.722444,44.984966],[-106.722457,44.981346],[-106.727556,44.981345],[-106.732655,44.981343],[-106.737755,44.981342],[-106.741758,44.981341],[-106.741759,44.981707],[-106.741715,44.98496],[-106.741716,44.985428],[-106.741675,44.988579],[-106.741676,44.989149],[-106.741639,44.992198],[-106.741639,44.992872],[-106.741613,44.995508],[-106.741039,44.995508]]]}},{"type":"Feature","properties":{"sec":"36","frstdivid":"WY060580N0820W0SN360"},"geometry":{"type":"Polygon","coordinates":[[[-106.696137,44.952897],[-106.696856,44.952924],[-106.701011,44.953097],[-106.701971,44.953082],[-106.70198,44.95597],[-106.701992,44.95959],[-106.702016,44.963209],[-106.702039,44.966829],[-106.696941,44.966809],[-106.691843,44.96679],[-106.686745,44.966771],[-106.681647,44.966751],[-106.681601,44.963134],[-106.681554,44.959518],[-106.681535,44.955899],[-106.681516,44.952281],[-106.686389,44.952489],[-106.686629,44.952498],[-106.691263,44.952694],[-106.691743,44.952712],[-106.696137,44.952897]]]}},{"type":"Feature","properties":{"sec":"28","frstdivid":"WY060580N0820W0SN280"},"geometry":{"type":"Polygon","coordinates":[[[-106.751935,44.981859],[-106.746847,44.981783],[-106.741759,44.981707],[-106.741758,44.981341],[-106.741729,44.977773],[-106.741729,44.977724],[-106.7417,44.974127],[-106.7417,44.974106],[-106.741675,44.970786],[-106.741674,44.970488],[-106.741648,44.967158],[-106.746747,44.967203],[-106.751845,44.967248],[-106.756977,44.967294],[-106.762109,44.967339],[-106.76211,44.971007],[-106.76211,44.974675],[-106.762111,44.978343],[-106.762112,44.982011],[-106.757023,44.981935],[-106.751935,44.981859]]]}},{"type":"Feature","properties":{"sec":"26","frstdivid":"WY060580N0820W0SN260"},"geometry":{"type":"Polygon","coordinates":[[[-106.707185,44.981317],[-106.702094,44.981307],[-106.70208,44.977688],[-106.702067,44.974068],[-106.702053,44.970448],[-106.702039,44.966829],[-106.707137,44.966838],[-106.712235,44.966847],[-106.717333,44.966857],[-106.722431,44.966866],[-106.722438,44.970486],[-106.722444,44.974106],[-106.722451,44.977726],[-106.722457,44.981346],[-106.717366,44.981337],[-106.712276,44.981327],[-106.707185,44.981317]]]}},{"type":"Feature","properties":{"sec":"23","frstdivid":"WY060580N0820W0SN230"},"geometry":{"type":"Polygon","coordinates":[[[-106.710349,44.995371],[-106.70718,44.995363],[-106.705238,44.995359],[-106.702098,44.995351],[-106.702097,44.992166],[-106.702096,44.988547],[-106.702095,44.984927],[-106.702094,44.981307],[-106.707185,44.981317],[-106.712276,44.981327],[-106.717366,44.981337],[-106.722457,44.981346],[-106.722444,44.984966],[-106.722432,44.988586],[-106.722427,44.992206],[-106.722424,44.995409],[-106.720568,44.995399],[-106.719132,44.995392],[-106.717343,44.995388],[-106.715459,44.995383],[-106.712261,44.995375],[-106.710349,44.995371]]]}},{"type":"Feature","properties":{"sec":"29","frstdivid":"WY060580N0820W0SN290"},"geometry":{"type":"Polygon","coordinates":[[[-106.782548,44.9783],[-106.782557,44.981991],[-106.777446,44.981996],[-106.772335,44.982001],[-106.767223,44.982006],[-106.762112,44.982011],[-106.762111,44.978343],[-106.76211,44.974675],[-106.76211,44.971007],[-106.762109,44.967339],[-106.767212,44.967312],[-106.772315,44.967284],[-106.777417,44.967257],[-106.78252,44.967229],[-106.782529,44.97092],[-106.782539,44.97461],[-106.782548,44.9783]]]}},{"type":"Feature","properties":{"sec":"27","frstdivid":"WY060580N0820W0SN270"},"geometry":{"type":"Polygon","coordinates":[[[-106.741647,44.96687],[-106.741648,44.967158],[-106.741674,44.970488],[-106.741675,44.970786],[-106.7417,44.974106],[-106.7417,44.974127],[-106.741729,44.977724],[-106.741729,44.977773],[-106.741758,44.981341],[-106.737755,44.981342],[-106.732655,44.981343],[-106.727556,44.981345],[-106.722457,44.981346],[-106.722451,44.977726],[-106.722444,44.974106],[-106.722438,44.970486],[-106.722431,44.966866],[-106.72753,44.966868],[-106.732628,44.966869],[-106.737727,44.96687],[-106.741647,44.96687]]]}},{"type":"Feature","properties":{"sec":"21","frstdivid":"WY060580N0820W0SN210"},"geometry":{"type":"Polygon","coordinates":[[[-106.741639,44.992198],[-106.741676,44.989149],[-106.741675,44.988579],[-106.741716,44.985428],[-106.741715,44.98496],[-106.741759,44.981707],[-106.746847,44.981783],[-106.751935,44.981859],[-106.757023,44.981935],[-106.762112,44.982011],[-106.762046,44.985656],[-106.76198,44.989302],[-106.761945,44.992935],[-106.761927,44.995528],[-106.761468,44.995526],[-106.759289,44.995518],[-106.75685,44.995517],[-106.756366,44.995517],[-106.751771,44.995515],[-106.751262,44.995515],[-106.746692,44.995512],[-106.746158,44.995512],[-106.741613,44.995508],[-106.741639,44.992872],[-106.741639,44.992198]]]}},{"type":"Feature","properties":{"sec":"24","frstdivid":"WY060580N0820W0SN240"},"geometry":{"type":"Polygon","coordinates":[[[-106.686761,44.981233],[-106.691872,44.981258],[-106.696983,44.981283],[-106.702094,44.981307],[-106.702095,44.984927],[-106.702096,44.988547],[-106.702097,44.992166],[-106.702098,44.995351],[-106.700136,44.995347],[-106.699547,44.995346],[-106.697004,44.995353],[-106.695035,44.995359],[-106.691909,44.995368],[-106.689932,44.995374],[-106.686814,44.995383],[-106.68483,44.995389],[-106.681719,44.995399],[-106.681711,44.992059],[-106.681701,44.988442],[-106.681675,44.984825],[-106.68165,44.981209],[-106.686761,44.981233]]]}}]}