{"type":"FeatureCollection","note":"BLM Public Land Survey System. Provided by the Bureau of Land Management as is. These data are neither legal documents nor land surveys and must not be used as such.","features":[{"type":"Feature","properties":{"sec":"03","frstdivid":"WY060310N0600W0SN030"},"geometry":{"type":"Polygon","coordinates":[[[-104.064591,42.688102],[-104.064589,42.691732],[-104.064593,42.695357],[-104.064597,42.699052],[-104.059677,42.698928],[-104.054757,42.698804],[-104.053036,42.698795],[-104.053036,42.697747],[-104.053038,42.695227],[-104.053038,42.693661],[-104.053039,42.692736],[-104.053039,42.691634],[-104.05304,42.690012],[-104.053041,42.688036],[-104.053042,42.686368],[-104.053043,42.684444],[-104.054768,42.684445],[-104.05968,42.684458],[-104.064593,42.684472],[-104.064591,42.688102]]]}},{"type":"Feature","properties":{"sec":"19","frstdivid":"WY060310N0600W0SN190"},"geometry":{"type":"Polygon","coordinates":[[[-104.103691,42.644694],[-104.103661,42.641068],[-104.108569,42.641075],[-104.113477,42.641082],[-104.118384,42.641092],[-104.123447,42.641103],[-104.123483,42.644733],[-104.123518,42.648362],[-104.123554,42.651992],[-104.123589,42.655622],[-104.118504,42.655604],[-104.113597,42.655586],[-104.108689,42.655578],[-104.103781,42.655571],[-104.103751,42.651945],[-104.103721,42.648319],[-104.103691,42.644694]]]}},{"type":"Feature","properties":{"sec":"20","frstdivid":"WY060310N0600W0SN200"},"geometry":{"type":"Polygon","coordinates":[[[-104.084012,42.640985],[-104.088924,42.641006],[-104.093836,42.641027],[-104.098748,42.641048],[-104.103661,42.641068],[-104.103691,42.644694],[-104.103721,42.648319],[-104.103751,42.651945],[-104.103781,42.655571],[-104.098863,42.655554],[-104.093945,42.655537],[-104.089027,42.655521],[-104.08411,42.655504],[-104.084085,42.651875],[-104.084061,42.648245],[-104.084037,42.644615],[-104.084012,42.640985]]]}},{"type":"Feature","properties":{"sec":"17","frstdivid":"WY060310N0600W0SN170"},"geometry":{"type":"Polygon","coordinates":[[[-104.103971,42.666449],[-104.104034,42.670076],[-104.099079,42.670063],[-104.094124,42.67005],[-104.089169,42.670038],[-104.084214,42.670025],[-104.084188,42.666395],[-104.084162,42.662765],[-104.084136,42.659135],[-104.08411,42.655504],[-104.089027,42.655521],[-104.093945,42.655537],[-104.098863,42.655554],[-104.103781,42.655571],[-104.103844,42.659197],[-104.103907,42.662823],[-104.103971,42.666449]]]}},{"type":"Feature","properties":{"sec":"21","frstdivid":"WY060310N0600W0SN210"},"geometry":{"type":"Polygon","coordinates":[[[-104.084061,42.648245],[-104.084085,42.651875],[-104.08411,42.655504],[-104.079219,42.655468],[-104.074327,42.655432],[-104.069436,42.655396],[-104.064545,42.65536],[-104.064515,42.651719],[-104.064485,42.648077],[-104.064455,42.644435],[-104.064425,42.640794],[-104.069322,42.640842],[-104.074219,42.640889],[-104.079115,42.640937],[-104.084012,42.640985],[-104.084037,42.644615],[-104.084061,42.648245]]]}},{"type":"Feature","properties":{"sec":"28","frstdivid":"WY060310N0600W0SN280"},"geometry":{"type":"Polygon","coordinates":[[[-104.084098,42.633726],[-104.084055,42.637355],[-104.084012,42.640985],[-104.079115,42.640937],[-104.074219,42.640889],[-104.069322,42.640842],[-104.064425,42.640794],[-104.064441,42.637147],[-104.064456,42.633501],[-104.064472,42.629854],[-104.064487,42.626207],[-104.069411,42.626272],[-104.074335,42.626337],[-104.079259,42.626402],[-104.084183,42.626467],[-104.084141,42.630096],[-104.084098,42.633726]]]}},{"type":"Feature","properties":{"sec":"07","frstdivid":"WY060310N0600W0SN070"},"geometry":{"type":"Polygon","coordinates":[[[-104.118758,42.670131],[-104.123775,42.670138],[-104.123727,42.673764],[-104.123679,42.677389],[-104.123656,42.681014],[-104.123633,42.68464],[-104.118671,42.684628],[-104.113761,42.684617],[-104.108849,42.684598],[-104.103936,42.68458],[-104.103961,42.680954],[-104.103985,42.677328],[-104.10401,42.673702],[-104.104034,42.670076],[-104.108942,42.6701],[-104.11385,42.670124],[-104.118758,42.670131]]]}},{"type":"Feature","properties":{"sec":"16","frstdivid":"WY060310N0600W0SN160"},"geometry":{"type":"Polygon","coordinates":[[[-104.069436,42.655396],[-104.074327,42.655432],[-104.079219,42.655468],[-104.08411,42.655504],[-104.084136,42.659135],[-104.084162,42.662765],[-104.084188,42.666395],[-104.084214,42.670025],[-104.079314,42.669998],[-104.074414,42.669971],[-104.069514,42.669944],[-104.064614,42.669916],[-104.064597,42.666277],[-104.064579,42.662638],[-104.064562,42.658999],[-104.064545,42.65536],[-104.069436,42.655396]]]}},{"type":"Feature","properties":{"sec":"33","frstdivid":"WY060310N0600W0SN330"},"geometry":{"type":"Polygon","coordinates":[[[-104.084177,42.615581],[-104.084179,42.619209],[-104.084181,42.622838],[-104.084183,42.626467],[-104.079259,42.626402],[-104.074335,42.626337],[-104.069411,42.626272],[-104.064487,42.626207],[-104.064484,42.622557],[-104.064481,42.618906],[-104.064477,42.615255],[-104.064474,42.611604],[-104.069399,42.611691],[-104.074324,42.611778],[-104.07925,42.611865],[-104.084175,42.611952],[-104.084177,42.615581]]]}},{"type":"Feature","properties":{"sec":"34","frstdivid":"WY060310N0600W0SN340"},"geometry":{"type":"Polygon","coordinates":[[[-104.064481,42.618906],[-104.064484,42.622557],[-104.064487,42.626207],[-104.059578,42.626309],[-104.054669,42.62641],[-104.053002,42.626417],[-104.053007,42.623989],[-104.053009,42.622644],[-104.053014,42.620457],[-104.053014,42.620336],[-104.053012,42.618872],[-104.05301,42.616925],[-104.053008,42.615099],[-104.053006,42.613393],[-104.053003,42.611327],[-104.054647,42.611333],[-104.05956,42.611468],[-104.064474,42.611604],[-104.064477,42.615255],[-104.064481,42.618906]]]}},{"type":"Feature","properties":{"sec":"04","frstdivid":"WY060310N0600W0SN040"},"geometry":{"type":"Polygon","coordinates":[[[-104.084296,42.688171],[-104.084295,42.691796],[-104.084291,42.69542],[-104.084287,42.699184],[-104.079365,42.699152],[-104.074442,42.69912],[-104.06952,42.699086],[-104.064597,42.699052],[-104.064593,42.695357],[-104.064589,42.691732],[-104.064591,42.688102],[-104.064593,42.684472],[-104.069519,42.68449],[-104.074445,42.684508],[-104.079371,42.684527],[-104.084297,42.684545],[-104.084296,42.688171]]]}},{"type":"Feature","properties":{"sec":"22","frstdivid":"WY060310N0600W0SN220"},"geometry":{"type":"Polygon","coordinates":[[[-104.064515,42.651719],[-104.064545,42.65536],[-104.059638,42.655426],[-104.05473,42.655492],[-104.053016,42.655496],[-104.053014,42.652991],[-104.053012,42.6519],[-104.05301,42.649363],[-104.05301,42.649335],[-104.053008,42.648304],[-104.053004,42.645735],[-104.053002,42.644708],[-104.052997,42.642107],[-104.052995,42.641111],[-104.054614,42.641102],[-104.05952,42.640948],[-104.064425,42.640794],[-104.064455,42.644435],[-104.064485,42.648077],[-104.064515,42.651719]]]}},{"type":"Feature","properties":{"sec":"05","frstdivid":"WY060310N0600W0SN050"},"geometry":{"type":"Polygon","coordinates":[[[-104.103944,42.688203],[-104.103953,42.691826],[-104.103965,42.695448],[-104.103978,42.69915],[-104.099055,42.699157],[-104.094133,42.699163],[-104.08921,42.699174],[-104.084287,42.699184],[-104.084291,42.69542],[-104.084295,42.691796],[-104.084296,42.688171],[-104.084297,42.684545],[-104.089207,42.684554],[-104.094117,42.684562],[-104.099026,42.684571],[-104.103936,42.68458],[-104.103944,42.688203]]]}},{"type":"Feature","properties":{"sec":"10","frstdivid":"WY060310N0600W0SN100"},"geometry":{"type":"Polygon","coordinates":[[[-104.064603,42.677194],[-104.064598,42.680833],[-104.064593,42.684472],[-104.05968,42.684458],[-104.054768,42.684445],[-104.053043,42.684444],[-104.053043,42.682725],[-104.053044,42.680812],[-104.053045,42.679036],[-104.053045,42.678207],[-104.053044,42.67718],[-104.053041,42.675347],[-104.053038,42.673547],[-104.053036,42.671658],[-104.053033,42.669915],[-104.054799,42.669915],[-104.059707,42.669916],[-104.064614,42.669916],[-104.064609,42.673555],[-104.064603,42.677194]]]}},{"type":"Feature","properties":{"sec":"15","frstdivid":"WY060310N0600W0SN150"},"geometry":{"type":"Polygon","coordinates":[[[-104.064597,42.666277],[-104.064614,42.669916],[-104.059707,42.669916],[-104.054799,42.669915],[-104.053033,42.669915],[-104.05303,42.667969],[-104.053028,42.66631],[-104.053025,42.664225],[-104.053024,42.663819],[-104.053023,42.662706],[-104.053021,42.66048],[-104.053019,42.659101],[-104.053017,42.656736],[-104.053016,42.655496],[-104.05473,42.655492],[-104.059638,42.655426],[-104.064545,42.65536],[-104.064562,42.658999],[-104.064579,42.662638],[-104.064597,42.666277]]]}},{"type":"Feature","properties":{"sec":"31","frstdivid":"WY060310N0600W0SN310"},"geometry":{"type":"Polygon","coordinates":[[[-104.103786,42.626568],[-104.103806,42.622943],[-104.103826,42.619317],[-104.103846,42.615692],[-104.103866,42.612066],[-104.108777,42.612086],[-104.113687,42.612105],[-104.118594,42.612103],[-104.123523,42.6121],[-104.123504,42.615725],[-104.123485,42.61935],[-104.123473,42.622975],[-104.123461,42.6266],[-104.118517,42.626597],[-104.113609,42.626594],[-104.108698,42.626581],[-104.103786,42.626568]]]}},{"type":"Feature","properties":{"sec":"18","frstdivid":"WY060310N0600W0SN180"},"geometry":{"type":"Polygon","coordinates":[[[-104.103971,42.666449],[-104.103907,42.662823],[-104.103844,42.659197],[-104.103781,42.655571],[-104.108689,42.655578],[-104.113597,42.655586],[-104.118504,42.655604],[-104.123589,42.655622],[-104.123636,42.659251],[-104.123682,42.66288],[-104.123729,42.666509],[-104.123775,42.670138],[-104.118758,42.670131],[-104.11385,42.670124],[-104.108942,42.6701],[-104.104034,42.670076],[-104.103971,42.666449]]]}},{"type":"Feature","properties":{"sec":"30","frstdivid":"WY060310N0600W0SN300"},"geometry":{"type":"Polygon","coordinates":[[[-104.103755,42.630193],[-104.103786,42.626568],[-104.108698,42.626581],[-104.113609,42.626594],[-104.118517,42.626597],[-104.123461,42.6266],[-104.123454,42.630226],[-104.123448,42.633852],[-104.123447,42.637477],[-104.123447,42.641103],[-104.118384,42.641092],[-104.113477,42.641082],[-104.108569,42.641075],[-104.103661,42.641068],[-104.103692,42.637443],[-104.103723,42.633818],[-104.103755,42.630193]]]}},{"type":"Feature","properties":{"sec":"09","frstdivid":"WY060310N0600W0SN090"},"geometry":{"type":"Polygon","coordinates":[[[-104.084214,42.670025],[-104.084235,42.673655],[-104.084256,42.677285],[-104.084277,42.680915],[-104.084297,42.684545],[-104.079371,42.684527],[-104.074445,42.684508],[-104.069519,42.68449],[-104.064593,42.684472],[-104.064598,42.680833],[-104.064603,42.677194],[-104.064609,42.673555],[-104.064614,42.669916],[-104.069514,42.669944],[-104.074414,42.669971],[-104.079314,42.669998],[-104.084214,42.670025]]]}},{"type":"Feature","properties":{"sec":"29","frstdivid":"WY060310N0600W0SN290"},"geometry":{"type":"Polygon","coordinates":[[[-104.103786,42.626568],[-104.103755,42.630193],[-104.103723,42.633818],[-104.103692,42.637443],[-104.103661,42.641068],[-104.098748,42.641048],[-104.093836,42.641027],[-104.088924,42.641006],[-104.084012,42.640985],[-104.084055,42.637355],[-104.084098,42.633726],[-104.084141,42.630096],[-104.084183,42.626467],[-104.089084,42.626492],[-104.093985,42.626518],[-104.098885,42.626543],[-104.103786,42.626568]]]}},{"type":"Feature","properties":{"sec":"32","frstdivid":"WY060310N0600W0SN320"},"geometry":{"type":"Polygon","coordinates":[[[-104.084183,42.626467],[-104.084181,42.622838],[-104.084179,42.619209],[-104.084177,42.615581],[-104.084175,42.611952],[-104.089098,42.61198],[-104.09402,42.612009],[-104.098943,42.612038],[-104.103866,42.612066],[-104.103846,42.615692],[-104.103826,42.619317],[-104.103806,42.622943],[-104.103786,42.626568],[-104.098885,42.626543],[-104.093985,42.626518],[-104.089084,42.626492],[-104.084183,42.626467]]]}},{"type":"Feature","properties":{"sec":"08","frstdivid":"WY060310N0600W0SN080"},"geometry":{"type":"Polygon","coordinates":[[[-104.084214,42.670025],[-104.089169,42.670038],[-104.094124,42.67005],[-104.099079,42.670063],[-104.104034,42.670076],[-104.10401,42.673702],[-104.103985,42.677328],[-104.103961,42.680954],[-104.103936,42.68458],[-104.099026,42.684571],[-104.094117,42.684562],[-104.089207,42.684554],[-104.084297,42.684545],[-104.084277,42.680915],[-104.084256,42.677285],[-104.084235,42.673655],[-104.084214,42.670025]]]}},{"type":"Feature","properties":{"sec":"06","frstdivid":"WY060310N0600W0SN060"},"geometry":{"type":"Polygon","coordinates":[[[-104.123624,42.691891],[-104.123621,42.695515],[-104.123618,42.699162],[-104.118739,42.699149],[-104.113823,42.699136],[-104.1089,42.699143],[-104.103978,42.69915],[-104.103965,42.695448],[-104.103953,42.691826],[-104.103944,42.688203],[-104.103936,42.68458],[-104.108849,42.684598],[-104.113761,42.684617],[-104.118671,42.684628],[-104.123633,42.68464],[-104.123628,42.688266],[-104.123624,42.691891]]]}},{"type":"Feature","properties":{"sec":"27","frstdivid":"WY060310N0600W0SN270"},"geometry":{"type":"Polygon","coordinates":[[[-104.052992,42.631234],[-104.052994,42.63009],[-104.052999,42.627612],[-104.053002,42.626417],[-104.054669,42.62641],[-104.059578,42.626309],[-104.064487,42.626207],[-104.064472,42.629854],[-104.064456,42.633501],[-104.064441,42.637147],[-104.064425,42.640794],[-104.05952,42.640948],[-104.054614,42.641102],[-104.052995,42.641111],[-104.052991,42.63848],[-104.052989,42.637438],[-104.052984,42.634857],[-104.052984,42.634834],[-104.052986,42.633764],[-104.052992,42.631234]]]}}]}