{"type":"FeatureCollection","note":"BLM Public Land Survey System. Provided by the Bureau of Land Management as is. These data are neither legal documents nor land surveys and must not be used as such.","features":[{"type":"Feature","properties":{"sec":"06","frstdivid":"MT200070S0340E0SN060"},"geometry":{"type":"Polygon","coordinates":[[[-107.581285,45.246257],[-107.586388,45.246295],[-107.59149,45.246332],[-107.596608,45.24635],[-107.601267,45.246366],[-107.601401,45.249784],[-107.601409,45.250027],[-107.601541,45.253397],[-107.601551,45.253689],[-107.601512,45.257014],[-107.60151,45.257137],[-107.601463,45.260607],[-107.598003,45.260572],[-107.596835,45.260558],[-107.592873,45.260514],[-107.591751,45.260501],[-107.587734,45.260453],[-107.586612,45.26044],[-107.582595,45.260391],[-107.581473,45.260378],[-107.581436,45.257029],[-107.581395,45.253427],[-107.581348,45.249842],[-107.581285,45.246257]]]}},{"type":"Feature","properties":{"sec":"18","frstdivid":"MT200070S0340E0SN180"},"geometry":{"type":"Polygon","coordinates":[[[-107.581403,45.225479],[-107.581393,45.224579],[-107.581371,45.22098],[-107.581355,45.21918],[-107.581345,45.21828],[-107.581335,45.21738],[-107.582609,45.217381],[-107.583884,45.217381],[-107.585158,45.217381],[-107.586433,45.217381],[-107.587708,45.217382],[-107.588982,45.217382],[-107.590257,45.217383],[-107.591532,45.217383],[-107.596642,45.217374],[-107.601369,45.21737],[-107.601363,45.220827],[-107.601363,45.221073],[-107.601353,45.224447],[-107.601352,45.224775],[-107.601345,45.228067],[-107.601345,45.228322],[-107.601329,45.231687],[-107.601329,45.231868],[-107.596667,45.231858],[-107.591575,45.23185],[-107.586511,45.231814],[-107.581448,45.231778],[-107.581429,45.228178],[-107.581413,45.226379],[-107.581403,45.225479]]]}},{"type":"Feature","properties":{"sec":"09","frstdivid":"MT200070S0340E0SN090"},"geometry":{"type":"Polygon","coordinates":[[[-107.540512,45.231885],[-107.545647,45.231857],[-107.550781,45.231833],[-107.555916,45.231812],[-107.561051,45.231795],[-107.561095,45.235404],[-107.561129,45.239013],[-107.561134,45.242621],[-107.561078,45.24623],[-107.55582,45.246254],[-107.55056,45.246282],[-107.545296,45.246316],[-107.540028,45.246371],[-107.540335,45.242753],[-107.540418,45.23913],[-107.540469,45.235507],[-107.540512,45.231885]]]}},{"type":"Feature","properties":{"sec":"13","frstdivid":"MT200070S0340E0SN130"},"geometry":{"type":"Polygon","coordinates":[[[-107.479183,45.217301],[-107.484298,45.217285],[-107.489418,45.217285],[-107.494538,45.217284],[-107.499658,45.217284],[-107.499691,45.220925],[-107.499724,45.224565],[-107.499756,45.228205],[-107.499786,45.231846],[-107.494672,45.231834],[-107.489557,45.231821],[-107.484443,45.231807],[-107.479341,45.231812],[-107.479303,45.228184],[-107.479264,45.224556],[-107.479223,45.220929],[-107.479183,45.217301]]]}},{"type":"Feature","properties":{"sec":"02","frstdivid":"MT200070S0340E0SN020"},"geometry":{"type":"Polygon","coordinates":[[[-107.500082,45.250164],[-107.500078,45.248329],[-107.500064,45.246494],[-107.50261,45.246487],[-107.505157,45.246481],[-107.510238,45.246459],[-107.515322,45.246436],[-107.520408,45.246414],[-107.520196,45.250039],[-107.520178,45.253667],[-107.520196,45.25729],[-107.520219,45.259689],[-107.51586,45.259671],[-107.515201,45.259668],[-107.510729,45.259649],[-107.510184,45.259647],[-107.505596,45.259628],[-107.505166,45.259626],[-107.500464,45.259606],[-107.500149,45.259605],[-107.500127,45.257478],[-107.5001,45.253833],[-107.500082,45.250164]]]}},{"type":"Feature","properties":{"sec":"29","frstdivid":"MT200070S0340E0SN290"},"geometry":{"type":"Polygon","coordinates":[[[-107.561145,45.188336],[-107.566198,45.188358],[-107.571254,45.188374],[-107.576314,45.18839],[-107.581375,45.188405],[-107.581321,45.192053],[-107.581306,45.195701],[-107.581305,45.199349],[-107.581309,45.202997],[-107.576205,45.202965],[-107.571101,45.202933],[-107.565997,45.202901],[-107.560893,45.202868],[-107.560884,45.199234],[-107.560882,45.195601],[-107.560913,45.191967],[-107.561145,45.188336]]]}},{"type":"Feature","properties":{"sec":"36","frstdivid":"MT200070S0340E0SN360"},"geometry":{"type":"Polygon","coordinates":[[[-107.479106,45.173773],[-107.484149,45.173594],[-107.489195,45.173481],[-107.494241,45.173383],[-107.499287,45.173283],[-107.499372,45.177313],[-107.499393,45.180952],[-107.499411,45.184591],[-107.49942,45.18823],[-107.494281,45.188232],[-107.489141,45.188236],[-107.484001,45.188241],[-107.478875,45.188255],[-107.478935,45.184634],[-107.478997,45.181014],[-107.479056,45.177393],[-107.479106,45.173773]]]}},{"type":"Feature","properties":{"sec":"21","frstdivid":"MT200070S0340E0SN210"},"geometry":{"type":"Polygon","coordinates":[[[-107.540454,45.202844],[-107.545564,45.202855],[-107.550674,45.202861],[-107.555783,45.202864],[-107.560893,45.202868],[-107.560908,45.206486],[-107.560921,45.210104],[-107.560935,45.213722],[-107.560948,45.21734],[-107.555834,45.217345],[-107.550721,45.217355],[-107.545607,45.217364],[-107.540494,45.217371],[-107.540484,45.213739],[-107.540474,45.210107],[-107.540464,45.206476],[-107.540454,45.202844]]]}},{"type":"Feature","properties":{"sec":"31","frstdivid":"MT200070S0340E0SN310"},"geometry":{"type":"Polygon","coordinates":[[[-107.581197,45.181068],[-107.581164,45.177399],[-107.581067,45.173459],[-107.586238,45.173512],[-107.591411,45.173535],[-107.596566,45.173605],[-107.601346,45.173748],[-107.601337,45.17737],[-107.601337,45.177444],[-107.601325,45.179183],[-107.60131,45.180994],[-107.601309,45.181147],[-107.601351,45.184616],[-107.601352,45.184783],[-107.60132,45.188228],[-107.601318,45.188426],[-107.596601,45.188433],[-107.591526,45.188437],[-107.58645,45.188422],[-107.581375,45.188405],[-107.581267,45.184736],[-107.581197,45.181068]]]}},{"type":"Feature","properties":{"sec":"03","frstdivid":"MT200070S0340E0SN030"},"geometry":{"type":"Polygon","coordinates":[[[-107.520178,45.253667],[-107.520196,45.250039],[-107.520408,45.246414],[-107.525313,45.246393],[-107.530219,45.246377],[-107.535125,45.246362],[-107.540028,45.246371],[-107.540384,45.249993],[-107.540447,45.251807],[-107.540496,45.253622],[-107.540568,45.257245],[-107.540623,45.259911],[-107.536401,45.259865],[-107.535522,45.259855],[-107.531265,45.259809],[-107.530421,45.2598],[-107.526129,45.259753],[-107.52532,45.259744],[-107.520992,45.259697],[-107.520219,45.259689],[-107.520196,45.25729],[-107.520178,45.253667]]]}},{"type":"Feature","properties":{"sec":"30","frstdivid":"MT200070S0340E0SN300"},"geometry":{"type":"Polygon","coordinates":[[[-107.581375,45.188405],[-107.58645,45.188422],[-107.591526,45.188437],[-107.596601,45.188433],[-107.601318,45.188426],[-107.601393,45.191854],[-107.601394,45.19206],[-107.601411,45.195476],[-107.601412,45.195693],[-107.601398,45.199099],[-107.601397,45.199367],[-107.601382,45.202721],[-107.601381,45.203041],[-107.596649,45.203043],[-107.591534,45.203046],[-107.586421,45.203022],[-107.581309,45.202997],[-107.581305,45.199349],[-107.581306,45.195701],[-107.581321,45.192053],[-107.581375,45.188405]]]}},{"type":"Feature","properties":{"sec":"35","frstdivid":"MT200070S0340E0SN350"},"geometry":{"type":"Polygon","coordinates":[[[-107.499287,45.173283],[-107.504383,45.173346],[-107.509482,45.173402],[-107.514582,45.173452],[-107.519683,45.1735],[-107.519824,45.17741],[-107.519861,45.181039],[-107.519893,45.184669],[-107.519899,45.188298],[-107.51478,45.188281],[-107.50966,45.188263],[-107.50454,45.188246],[-107.49942,45.18823],[-107.499411,45.184591],[-107.499393,45.180952],[-107.499372,45.177313],[-107.499287,45.173283]]]}},{"type":"Feature","properties":{"sec":"28","frstdivid":"MT200070S0340E0SN280"},"geometry":{"type":"Polygon","coordinates":[[[-107.540341,45.188354],[-107.54554,45.188358],[-107.55074,45.188355],[-107.555941,45.188348],[-107.561145,45.188336],[-107.560913,45.191967],[-107.560882,45.195601],[-107.560884,45.199234],[-107.560893,45.202868],[-107.555783,45.202864],[-107.550674,45.202861],[-107.545564,45.202855],[-107.540454,45.202844],[-107.540447,45.199221],[-107.540441,45.195599],[-107.540435,45.191976],[-107.540341,45.188354]]]}},{"type":"Feature","properties":{"sec":"14","frstdivid":"MT200070S0340E0SN140"},"geometry":{"type":"Polygon","coordinates":[[[-107.499658,45.217284],[-107.504765,45.217291],[-107.509873,45.217299],[-107.514981,45.217306],[-107.520088,45.217313],[-107.520101,45.220947],[-107.520113,45.224581],[-107.520124,45.228215],[-107.520133,45.231849],[-107.515046,45.23185],[-107.50996,45.231849],[-107.504873,45.231848],[-107.499786,45.231846],[-107.499756,45.228205],[-107.499724,45.224565],[-107.499691,45.220925],[-107.499658,45.217284]]]}},{"type":"Feature","properties":{"sec":"12","frstdivid":"MT200070S0340E0SN120"},"geometry":{"type":"Polygon","coordinates":[[[-107.479341,45.231812],[-107.484443,45.231807],[-107.489557,45.231821],[-107.494672,45.231834],[-107.499786,45.231846],[-107.499835,45.235508],[-107.499891,45.239171],[-107.499967,45.242833],[-107.500064,45.246494],[-107.494936,45.246456],[-107.489808,45.24641],[-107.48468,45.246363],[-107.479517,45.246337],[-107.479474,45.242705],[-107.479431,45.239074],[-107.479387,45.235443],[-107.479341,45.231812]]]}},{"type":"Feature","properties":{"sec":"01","frstdivid":"MT200070S0340E0SN010"},"geometry":{"type":"Polygon","coordinates":[[[-107.479556,45.249964],[-107.479517,45.246337],[-107.48468,45.246363],[-107.489808,45.24641],[-107.494936,45.246456],[-107.500064,45.246494],[-107.500078,45.248329],[-107.500082,45.250164],[-107.5001,45.253833],[-107.500127,45.257478],[-107.500149,45.259605],[-107.495264,45.259567],[-107.495033,45.259565],[-107.490064,45.259527],[-107.489917,45.259526],[-107.484863,45.259479],[-107.48479,45.259478],[-107.479663,45.259434],[-107.479636,45.257474],[-107.479633,45.257215],[-107.479595,45.253592],[-107.479556,45.249964]]]}},{"type":"Feature","properties":{"sec":"34","frstdivid":"MT200070S0340E0SN340"},"geometry":{"type":"Polygon","coordinates":[[[-107.519683,45.1735],[-107.524785,45.173518],[-107.529888,45.173535],[-107.534992,45.173551],[-107.540097,45.173563],[-107.54026,45.177409],[-107.540312,45.181057],[-107.540369,45.184706],[-107.540341,45.188354],[-107.535232,45.188347],[-107.530122,45.188333],[-107.525011,45.188316],[-107.519899,45.188298],[-107.519893,45.184669],[-107.519861,45.181039],[-107.519824,45.17741],[-107.519683,45.1735]]]}},{"type":"Feature","properties":{"sec":"11","frstdivid":"MT200070S0340E0SN110"},"geometry":{"type":"Polygon","coordinates":[[[-107.499786,45.231846],[-107.504873,45.231848],[-107.50996,45.231849],[-107.515046,45.23185],[-107.520133,45.231849],[-107.520134,45.235491],[-107.520138,45.239133],[-107.520165,45.242775],[-107.520408,45.246414],[-107.515322,45.246436],[-107.510238,45.246459],[-107.505157,45.246481],[-107.50261,45.246487],[-107.500064,45.246494],[-107.499967,45.242833],[-107.499891,45.239171],[-107.499835,45.235508],[-107.499786,45.231846]]]}},{"type":"Feature","properties":{"sec":"19","frstdivid":"MT200070S0340E0SN190"},"geometry":{"type":"Polygon","coordinates":[[[-107.581309,45.202997],[-107.586421,45.203022],[-107.591534,45.203046],[-107.596649,45.203043],[-107.601381,45.203041],[-107.601384,45.206343],[-107.601385,45.206667],[-107.601388,45.209964],[-107.601389,45.210293],[-107.601379,45.213586],[-107.601379,45.213832],[-107.601369,45.217207],[-107.601369,45.21737],[-107.596642,45.217374],[-107.591532,45.217383],[-107.590257,45.217383],[-107.588982,45.217382],[-107.587708,45.217382],[-107.586433,45.217381],[-107.585158,45.217381],[-107.583884,45.217381],[-107.582609,45.217381],[-107.581335,45.21738],[-107.58133,45.213785],[-107.581324,45.210189],[-107.581317,45.206593],[-107.581309,45.202997]]]}},{"type":"Feature","properties":{"sec":"07","frstdivid":"MT200070S0340E0SN070"},"geometry":{"type":"Polygon","coordinates":[[[-107.581448,45.231778],[-107.586511,45.231814],[-107.591575,45.23185],[-107.596667,45.231858],[-107.601329,45.231868],[-107.601309,45.235308],[-107.601309,45.235498],[-107.601284,45.238929],[-107.601284,45.239128],[-107.601274,45.24255],[-107.601275,45.242747],[-107.601266,45.24617],[-107.601267,45.246366],[-107.596608,45.24635],[-107.59149,45.246332],[-107.586388,45.246295],[-107.581285,45.246257],[-107.581345,45.242638],[-107.581392,45.239018],[-107.581424,45.235398],[-107.581448,45.231778]]]}},{"type":"Feature","properties":{"sec":"24","frstdivid":"MT200070S0340E0SN240"},"geometry":{"type":"Polygon","coordinates":[[[-107.479055,45.20277],[-107.484169,45.202756],[-107.489297,45.202753],[-107.494426,45.202751],[-107.499555,45.20275],[-107.499581,45.206384],[-107.499607,45.210017],[-107.499632,45.213651],[-107.499658,45.217284],[-107.494538,45.217284],[-107.489418,45.217285],[-107.484298,45.217285],[-107.479183,45.217301],[-107.479148,45.213668],[-107.479113,45.210036],[-107.479081,45.206403],[-107.479055,45.20277]]]}},{"type":"Feature","properties":{"sec":"23","frstdivid":"MT200070S0340E0SN230"},"geometry":{"type":"Polygon","coordinates":[[[-107.499555,45.20275],[-107.504678,45.202751],[-107.509801,45.202752],[-107.514924,45.202754],[-107.520047,45.202755],[-107.520057,45.206395],[-107.520068,45.210034],[-107.520078,45.213673],[-107.520088,45.217313],[-107.514981,45.217306],[-107.509873,45.217299],[-107.504765,45.217291],[-107.499658,45.217284],[-107.499632,45.213651],[-107.499607,45.210017],[-107.499581,45.206384],[-107.499555,45.20275]]]}},{"type":"Feature","properties":{"sec":"16","frstdivid":"MT200070S0340E0SN160"},"geometry":{"type":"Polygon","coordinates":[[[-107.540494,45.217371],[-107.545607,45.217364],[-107.550721,45.217355],[-107.555834,45.217345],[-107.560948,45.21734],[-107.560975,45.220954],[-107.56099,45.222761],[-107.561005,45.224568],[-107.561031,45.228182],[-107.561051,45.231795],[-107.555916,45.231812],[-107.550781,45.231833],[-107.545647,45.231857],[-107.540512,45.231885],[-107.540512,45.228256],[-107.540507,45.224627],[-107.5405,45.220999],[-107.540494,45.217371]]]}},{"type":"Feature","properties":{"sec":"26","frstdivid":"MT200070S0340E0SN260"},"geometry":{"type":"Polygon","coordinates":[[[-107.49942,45.18823],[-107.50454,45.188246],[-107.50966,45.188263],[-107.51478,45.188281],[-107.519899,45.188298],[-107.519962,45.191912],[-107.519996,45.195527],[-107.520022,45.199141],[-107.520047,45.202755],[-107.514924,45.202754],[-107.509801,45.202752],[-107.504678,45.202751],[-107.499555,45.20275],[-107.499529,45.19912],[-107.499501,45.19549],[-107.499466,45.19186],[-107.49942,45.18823]]]}},{"type":"Feature","properties":{"sec":"25","frstdivid":"MT200070S0340E0SN250"},"geometry":{"type":"Polygon","coordinates":[[[-107.478875,45.188255],[-107.484001,45.188241],[-107.489141,45.188236],[-107.494281,45.188232],[-107.49942,45.18823],[-107.499466,45.19186],[-107.499501,45.19549],[-107.499529,45.19912],[-107.499555,45.20275],[-107.494426,45.202751],[-107.489297,45.202753],[-107.484169,45.202756],[-107.479055,45.20277],[-107.479003,45.199141],[-107.478958,45.195512],[-107.478916,45.191883],[-107.478875,45.188255]]]}},{"type":"Feature","properties":{"sec":"17","frstdivid":"MT200070S0340E0SN170"},"geometry":{"type":"Polygon","coordinates":[[[-107.56099,45.222761],[-107.560975,45.220954],[-107.560948,45.21734],[-107.566044,45.217348],[-107.571141,45.217356],[-107.572415,45.217359],[-107.573689,45.217362],[-107.574963,45.217366],[-107.576238,45.217369],[-107.577512,45.217372],[-107.578786,45.217375],[-107.58006,45.217378],[-107.581335,45.21738],[-107.581345,45.21828],[-107.581355,45.21918],[-107.581371,45.22098],[-107.581393,45.224579],[-107.581403,45.225479],[-107.581413,45.226379],[-107.581429,45.228178],[-107.581448,45.231778],[-107.576348,45.23178],[-107.571249,45.231782],[-107.56615,45.231788],[-107.561051,45.231795],[-107.561031,45.228182],[-107.561005,45.224568],[-107.56099,45.222761]]]}},{"type":"Feature","properties":{"sec":"05","frstdivid":"MT200070S0340E0SN050"},"geometry":{"type":"Polygon","coordinates":[[[-107.561098,45.249868],[-107.561078,45.24623],[-107.566132,45.246235],[-107.571185,45.246241],[-107.576235,45.246249],[-107.581285,45.246257],[-107.581348,45.249842],[-107.581395,45.253427],[-107.581436,45.257029],[-107.581473,45.260378],[-107.577465,45.26033],[-107.576365,45.260317],[-107.572335,45.260268],[-107.571257,45.260256],[-107.567205,45.260207],[-107.566148,45.260195],[-107.562075,45.260145],[-107.56104,45.260134],[-107.561038,45.257134],[-107.561049,45.253506],[-107.561098,45.249868]]]}},{"type":"Feature","properties":{"sec":"08","frstdivid":"MT200070S0340E0SN080"},"geometry":{"type":"Polygon","coordinates":[[[-107.561051,45.231795],[-107.56615,45.231788],[-107.571249,45.231782],[-107.576348,45.23178],[-107.581448,45.231778],[-107.581424,45.235398],[-107.581392,45.239018],[-107.581345,45.242638],[-107.581285,45.246257],[-107.576235,45.246249],[-107.571185,45.246241],[-107.566132,45.246235],[-107.561078,45.24623],[-107.561134,45.242621],[-107.561129,45.239013],[-107.561095,45.235404],[-107.561051,45.231795]]]}},{"type":"Feature","properties":{"sec":"15","frstdivid":"MT200070S0340E0SN150"},"geometry":{"type":"Polygon","coordinates":[[[-107.520088,45.217313],[-107.52519,45.217327],[-107.530291,45.217341],[-107.535393,45.217357],[-107.540494,45.217371],[-107.5405,45.220999],[-107.540507,45.224627],[-107.540512,45.228256],[-107.540512,45.231885],[-107.535417,45.23187],[-107.530322,45.23186],[-107.525228,45.231853],[-107.520133,45.231849],[-107.520124,45.228215],[-107.520113,45.224581],[-107.520101,45.220947],[-107.520088,45.217313]]]}},{"type":"Feature","properties":{"sec":"32","frstdivid":"MT200070S0340E0SN320"},"geometry":{"type":"Polygon","coordinates":[[[-107.560575,45.173418],[-107.565695,45.173487],[-107.570817,45.173514],[-107.575942,45.173502],[-107.581067,45.173459],[-107.581164,45.177399],[-107.581197,45.181068],[-107.581267,45.184736],[-107.581375,45.188405],[-107.576314,45.18839],[-107.571254,45.188374],[-107.566198,45.188358],[-107.561145,45.188336],[-107.560851,45.18469],[-107.560762,45.181038],[-107.560716,45.177386],[-107.560575,45.173418]]]}},{"type":"Feature","properties":{"sec":"10","frstdivid":"MT200070S0340E0SN100"},"geometry":{"type":"Polygon","coordinates":[[[-107.520133,45.231849],[-107.525228,45.231853],[-107.530322,45.23186],[-107.535417,45.23187],[-107.540512,45.231885],[-107.540469,45.235507],[-107.540418,45.23913],[-107.540335,45.242753],[-107.540028,45.246371],[-107.535125,45.246362],[-107.530219,45.246377],[-107.525313,45.246393],[-107.520408,45.246414],[-107.520165,45.242775],[-107.520138,45.239133],[-107.520134,45.235491],[-107.520133,45.231849]]]}},{"type":"Feature","properties":{"sec":"22","frstdivid":"MT200070S0340E0SN220"},"geometry":{"type":"Polygon","coordinates":[[[-107.520047,45.202755],[-107.525149,45.20278],[-107.53025,45.202804],[-107.535352,45.202826],[-107.540454,45.202844],[-107.540464,45.206476],[-107.540474,45.210107],[-107.540484,45.213739],[-107.540494,45.217371],[-107.535393,45.217357],[-107.530291,45.217341],[-107.52519,45.217327],[-107.520088,45.217313],[-107.520078,45.213673],[-107.520068,45.210034],[-107.520057,45.206395],[-107.520047,45.202755]]]}},{"type":"Feature","properties":{"sec":"33","frstdivid":"MT200070S0340E0SN330"},"geometry":{"type":"Polygon","coordinates":[[[-107.540097,45.173563],[-107.545216,45.173562],[-107.550336,45.173546],[-107.555456,45.173503],[-107.560575,45.173418],[-107.560716,45.177386],[-107.560762,45.181038],[-107.560851,45.18469],[-107.561145,45.188336],[-107.555941,45.188348],[-107.55074,45.188355],[-107.54554,45.188358],[-107.540341,45.188354],[-107.540369,45.184706],[-107.540312,45.181057],[-107.54026,45.177409],[-107.540097,45.173563]]]}},{"type":"Feature","properties":{"sec":"27","frstdivid":"MT200070S0340E0SN270"},"geometry":{"type":"Polygon","coordinates":[[[-107.519899,45.188298],[-107.525011,45.188316],[-107.530122,45.188333],[-107.535232,45.188347],[-107.540341,45.188354],[-107.540435,45.191976],[-107.540441,45.195599],[-107.540447,45.199221],[-107.540454,45.202844],[-107.535352,45.202826],[-107.53025,45.202804],[-107.525149,45.20278],[-107.520047,45.202755],[-107.520022,45.199141],[-107.519996,45.195527],[-107.519962,45.191912],[-107.519899,45.188298]]]}},{"type":"Feature","properties":{"sec":"20","frstdivid":"MT200070S0340E0SN200"},"geometry":{"type":"Polygon","coordinates":[[[-107.560921,45.210104],[-107.560908,45.206486],[-107.560893,45.202868],[-107.565997,45.202901],[-107.571101,45.202933],[-107.576205,45.202965],[-107.581309,45.202997],[-107.581317,45.206593],[-107.581324,45.210189],[-107.58133,45.213785],[-107.581335,45.21738],[-107.58006,45.217378],[-107.578786,45.217375],[-107.577512,45.217372],[-107.576238,45.217369],[-107.574963,45.217366],[-107.573689,45.217362],[-107.572415,45.217359],[-107.571141,45.217356],[-107.566044,45.217348],[-107.560948,45.21734],[-107.560935,45.213722],[-107.560921,45.210104]]]}},{"type":"Feature","properties":{"sec":"04","frstdivid":"MT200070S0340E0SN040"},"geometry":{"type":"Polygon","coordinates":[[[-107.540384,45.249993],[-107.540028,45.246371],[-107.545296,45.246316],[-107.55056,45.246282],[-107.55582,45.246254],[-107.561078,45.24623],[-107.561098,45.249868],[-107.561049,45.253506],[-107.561038,45.257134],[-107.56104,45.260134],[-107.556941,45.260089],[-107.555936,45.260078],[-107.551806,45.260033],[-107.550832,45.260022],[-107.546672,45.259977],[-107.545727,45.259966],[-107.541538,45.25992],[-107.540623,45.259911],[-107.540568,45.257245],[-107.540496,45.253622],[-107.540447,45.251807],[-107.540384,45.249993]]]}}]}