{"type":"FeatureCollection","note":"BLM Public Land Survey System. Provided by the Bureau of Land Management as is. These data are neither legal documents nor land surveys and must not be used as such.","features":[{"type":"Feature","properties":{"sec":"03","frstdivid":"MT200080S0370E0SN030"},"geometry":{"type":"Polygon","coordinates":[[[-107.153189,45.159135],[-107.154471,45.159133],[-107.155752,45.159132],[-107.157034,45.15913],[-107.158316,45.159129],[-107.159597,45.159127],[-107.160879,45.159126],[-107.162161,45.159124],[-107.163443,45.159122],[-107.16857,45.159119],[-107.173696,45.159116],[-107.173715,45.162741],[-107.173735,45.166366],[-107.173755,45.169988],[-107.173775,45.173653],[-107.168662,45.173644],[-107.163549,45.173636],[-107.158437,45.17363],[-107.153325,45.173624],[-107.153288,45.170003],[-107.153269,45.168193],[-107.153253,45.166382],[-107.15322,45.162759],[-107.153189,45.159135]]]}},{"type":"Feature","properties":{"sec":"22","frstdivid":"MT200080S0370E0SN220"},"geometry":{"type":"Polygon","coordinates":[[[-107.153099,45.115597],[-107.158211,45.115599],[-107.163323,45.115598],[-107.168435,45.115598],[-107.173546,45.115603],[-107.173561,45.119229],[-107.173576,45.122856],[-107.173583,45.124669],[-107.173591,45.126482],[-107.173598,45.128295],[-107.173605,45.130108],[-107.168484,45.130103],[-107.163363,45.130099],[-107.158242,45.130097],[-107.153122,45.130094],[-107.153118,45.12647],[-107.153112,45.122845],[-107.15311,45.121033],[-107.153108,45.119221],[-107.153099,45.115597]]]}},{"type":"Feature","properties":{"sec":"16","frstdivid":"MT200080S0370E0SN160"},"geometry":{"type":"Polygon","coordinates":[[[-107.173605,45.130108],[-107.176161,45.130106],[-107.178718,45.130104],[-107.183831,45.130103],[-107.188944,45.130101],[-107.194057,45.130099],[-107.194068,45.133723],[-107.194078,45.137346],[-107.194088,45.140969],[-107.194098,45.144592],[-107.188985,45.144596],[-107.183873,45.144598],[-107.17876,45.144601],[-107.173648,45.144605],[-107.173638,45.140981],[-107.173627,45.137356],[-107.173616,45.133732],[-107.173605,45.130108]]]}},{"type":"Feature","properties":{"sec":"04","frstdivid":"MT200080S0370E0SN040"},"geometry":{"type":"Polygon","coordinates":[[[-107.173696,45.159116],[-107.178813,45.159111],[-107.183929,45.159106],[-107.189045,45.159102],[-107.191604,45.159099],[-107.194162,45.159095],[-107.194171,45.160907],[-107.19418,45.162719],[-107.19419,45.164532],[-107.1942,45.166344],[-107.194222,45.169966],[-107.194247,45.173676],[-107.189129,45.173672],[-107.184011,45.173665],[-107.178893,45.173659],[-107.173775,45.173653],[-107.173755,45.169988],[-107.173735,45.166366],[-107.173715,45.162741],[-107.173696,45.159116]]]}},{"type":"Feature","properties":{"sec":"23","frstdivid":"MT200080S0370E0SN230"},"geometry":{"type":"Polygon","coordinates":[[[-107.132639,45.115605],[-107.135197,45.115603],[-107.137755,45.1156],[-107.142869,45.115597],[-107.147984,45.115597],[-107.153099,45.115597],[-107.153108,45.119221],[-107.15311,45.121033],[-107.153112,45.122845],[-107.153118,45.12647],[-107.153122,45.130094],[-107.14801,45.130098],[-107.142898,45.130102],[-107.137786,45.130109],[-107.132674,45.130117],[-107.13267,45.126489],[-107.132663,45.122861],[-107.132659,45.121048],[-107.132654,45.119234],[-107.132647,45.11742],[-107.132639,45.115605]]]}},{"type":"Feature","properties":{"sec":"29","frstdivid":"MT200080S0370E0SN290"},"geometry":{"type":"Polygon","coordinates":[[[-107.194078,45.104747],[-107.19412,45.101126],[-107.199231,45.101126],[-107.204342,45.101126],[-107.209452,45.101126],[-107.214563,45.101129],[-107.214518,45.104753],[-107.214486,45.108377],[-107.214466,45.112001],[-107.214455,45.115625],[-107.209346,45.115619],[-107.204237,45.115616],[-107.199128,45.115612],[-107.194019,45.115609],[-107.194028,45.111988],[-107.194047,45.108368],[-107.194078,45.104747]]]}},{"type":"Feature","properties":{"sec":"32","frstdivid":"MT200080S0370E0SN320"},"geometry":{"type":"Polygon","coordinates":[[[-107.194191,45.09025],[-107.19417,45.086624],[-107.199283,45.086628],[-107.204396,45.086632],[-107.209508,45.086636],[-107.21462,45.086641],[-107.214664,45.090263],[-107.214711,45.093885],[-107.214631,45.097507],[-107.214563,45.101129],[-107.209452,45.101126],[-107.204342,45.101126],[-107.199231,45.101126],[-107.19412,45.101126],[-107.194165,45.097501],[-107.194203,45.093875],[-107.194191,45.09025]]]}},{"type":"Feature","properties":{"sec":"07","frstdivid":"MT200080S0370E0SN070"},"geometry":{"type":"Polygon","coordinates":[[[-107.214594,45.158196],[-107.214591,45.15729],[-107.214587,45.156383],[-107.214584,45.155477],[-107.214581,45.15457],[-107.214578,45.153664],[-107.214575,45.152757],[-107.214572,45.15185],[-107.214569,45.150944],[-107.214566,45.150037],[-107.214563,45.14913],[-107.21456,45.148223],[-107.214557,45.147316],[-107.214554,45.146409],[-107.214552,45.145502],[-107.214549,45.144595],[-107.215828,45.144596],[-107.217106,45.144596],[-107.219663,45.144599],[-107.224777,45.144614],[-107.231354,45.14464],[-107.231355,45.145311],[-107.231356,45.148261],[-107.231356,45.148932],[-107.231356,45.151881],[-107.231357,45.152553],[-107.231359,45.154364],[-107.23136,45.155503],[-107.231361,45.156175],[-107.231361,45.159125],[-107.224821,45.159104],[-107.219709,45.159098],[-107.217153,45.159099],[-107.215875,45.159101],[-107.214597,45.159103],[-107.214594,45.158196]]]}},{"type":"Feature","properties":{"sec":"36","frstdivid":"MT200080S0370E0SN360"},"geometry":{"type":"Polygon","coordinates":[[[-107.112335,45.094754],[-107.11234,45.093872],[-107.112357,45.091141],[-107.112362,45.090259],[-107.112377,45.087529],[-107.112381,45.086648],[-107.117488,45.086605],[-107.122596,45.08659],[-107.127705,45.086584],[-107.132813,45.086582],[-107.132798,45.090208],[-107.132778,45.093834],[-107.132749,45.097459],[-107.13271,45.101085],[-107.127597,45.101087],[-107.122485,45.101092],[-107.117372,45.101105],[-107.11226,45.101122],[-107.112298,45.09838],[-107.112306,45.097496],[-107.112335,45.094754]]]}},{"type":"Feature","properties":{"sec":"34","frstdivid":"MT200080S0370E0SN340"},"geometry":{"type":"Polygon","coordinates":[[[-107.153252,45.086592],[-107.158365,45.086596],[-107.163477,45.086598],[-107.16859,45.086602],[-107.171146,45.086605],[-107.172425,45.086606],[-107.173704,45.086608],[-107.173703,45.087514],[-107.173703,45.088421],[-107.173704,45.089327],[-107.173704,45.090234],[-107.173702,45.09114],[-107.1737,45.092047],[-107.173698,45.092953],[-107.173697,45.09386],[-107.17369,45.094767],[-107.173684,45.095673],[-107.173678,45.096579],[-107.173673,45.097486],[-107.173664,45.098392],[-107.173657,45.099298],[-107.17365,45.100204],[-107.173644,45.10111],[-107.172362,45.101106],[-107.171081,45.101103],[-107.168519,45.1011],[-107.163398,45.101101],[-107.158276,45.101102],[-107.155715,45.1011],[-107.153153,45.101097],[-107.153193,45.097471],[-107.153223,45.093845],[-107.153241,45.090218],[-107.153252,45.086592]]]}},{"type":"Feature","properties":{"sec":"28","frstdivid":"MT200080S0370E0SN280"},"geometry":{"type":"Polygon","coordinates":[[[-107.173644,45.10111],[-107.178763,45.101112],[-107.183882,45.101116],[-107.189001,45.101121],[-107.19412,45.101126],[-107.194078,45.104747],[-107.194047,45.108368],[-107.194028,45.111988],[-107.194019,45.115609],[-107.188901,45.115607],[-107.183783,45.115605],[-107.178665,45.115603],[-107.173546,45.115603],[-107.173551,45.111979],[-107.173568,45.108356],[-107.1736,45.104733],[-107.173644,45.10111]]]}},{"type":"Feature","properties":{"sec":"13","frstdivid":"MT200080S0370E0SN130"},"geometry":{"type":"Polygon","coordinates":[[[-107.112249,45.138264],[-107.112248,45.13738],[-107.112244,45.134636],[-107.112244,45.133752],[-107.11224,45.131008],[-107.112239,45.130124],[-107.117348,45.130123],[-107.122456,45.13012],[-107.127565,45.130118],[-107.132674,45.130117],[-107.132682,45.133745],[-107.132689,45.137374],[-107.132696,45.141002],[-107.132702,45.14463],[-107.12759,45.144632],[-107.122478,45.144634],[-107.117366,45.144635],[-107.112253,45.144634],[-107.112251,45.141891],[-107.112251,45.141006],[-107.112249,45.138264]]]}},{"type":"Feature","properties":{"sec":"02","frstdivid":"MT200080S0370E0SN020"},"geometry":{"type":"Polygon","coordinates":[[[-107.13273,45.159162],[-107.137845,45.159154],[-107.142959,45.159147],[-107.144238,45.159146],[-107.145517,45.159144],[-107.146796,45.159142],[-107.148074,45.159141],[-107.149353,45.159139],[-107.150632,45.159138],[-107.15191,45.159136],[-107.153189,45.159135],[-107.15322,45.162759],[-107.153253,45.166382],[-107.153269,45.168193],[-107.153288,45.170003],[-107.153325,45.173624],[-107.148194,45.173624],[-107.143064,45.173625],[-107.137934,45.173626],[-107.132804,45.173627],[-107.132785,45.17004],[-107.132767,45.166417],[-107.132748,45.16279],[-107.13273,45.159162]]]}},{"type":"Feature","properties":{"sec":"01","frstdivid":"MT200080S0370E0SN010"},"geometry":{"type":"Polygon","coordinates":[[[-107.112287,45.167273],[-107.112287,45.166389],[-107.11228,45.163648],[-107.112279,45.162763],[-107.112272,45.160023],[-107.112272,45.159138],[-107.117386,45.159148],[-107.122501,45.159153],[-107.127615,45.159158],[-107.13273,45.159162],[-107.132748,45.16279],[-107.132767,45.166417],[-107.132785,45.17004],[-107.132804,45.173627],[-107.127685,45.173635],[-107.122567,45.173643],[-107.117448,45.173649],[-107.11233,45.173649],[-107.11231,45.170904],[-107.112306,45.170019],[-107.112287,45.167273]]]}},{"type":"Feature","properties":{"sec":"05","frstdivid":"MT200080S0370E0SN050"},"geometry":{"type":"Polygon","coordinates":[[[-107.194162,45.159095],[-107.19927,45.159095],[-107.204379,45.159096],[-107.209488,45.159099],[-107.214597,45.159103],[-107.214628,45.162734],[-107.214662,45.166365],[-107.214675,45.168177],[-107.214686,45.16999],[-107.21473,45.173749],[-107.209608,45.173729],[-107.204488,45.17371],[-107.199367,45.173692],[-107.194247,45.173676],[-107.194222,45.169966],[-107.1942,45.166344],[-107.19419,45.164532],[-107.19418,45.162719],[-107.194171,45.160907],[-107.194162,45.159095]]]}},{"type":"Feature","properties":{"sec":"33","frstdivid":"MT200080S0370E0SN330"},"geometry":{"type":"Polygon","coordinates":[[[-107.173664,45.098392],[-107.173673,45.097486],[-107.173678,45.096579],[-107.173684,45.095673],[-107.17369,45.094767],[-107.173697,45.09386],[-107.173698,45.092953],[-107.1737,45.092047],[-107.173702,45.09114],[-107.173704,45.090234],[-107.173704,45.089327],[-107.173703,45.088421],[-107.173703,45.087514],[-107.173704,45.086608],[-107.176262,45.086609],[-107.178821,45.086611],[-107.183937,45.086615],[-107.189054,45.086619],[-107.19417,45.086624],[-107.194191,45.09025],[-107.194203,45.093875],[-107.194165,45.097501],[-107.19412,45.101126],[-107.189001,45.101121],[-107.183882,45.101116],[-107.178763,45.101112],[-107.173644,45.10111],[-107.17365,45.100204],[-107.173657,45.099298],[-107.173664,45.098392]]]}},{"type":"Feature","properties":{"sec":"24","frstdivid":"MT200080S0370E0SN240"},"geometry":{"type":"Polygon","coordinates":[[[-107.112231,45.123753],[-107.112227,45.122869],[-107.112215,45.120129],[-107.112213,45.119245],[-107.112194,45.116505],[-107.112189,45.115621],[-107.117301,45.115615],[-107.122413,45.115609],[-107.127526,45.115606],[-107.132639,45.115605],[-107.132647,45.11742],[-107.132654,45.119234],[-107.132659,45.121048],[-107.132663,45.122861],[-107.13267,45.126489],[-107.132674,45.130117],[-107.127565,45.130118],[-107.122456,45.13012],[-107.117348,45.130123],[-107.112239,45.130124],[-107.112236,45.12738],[-107.112235,45.126496],[-107.112231,45.123753]]]}},{"type":"Feature","properties":{"sec":"08","frstdivid":"MT200080S0370E0SN080"},"geometry":{"type":"Polygon","coordinates":[[[-107.194098,45.144592],[-107.19921,45.144591],[-107.204323,45.144592],[-107.209436,45.144593],[-107.214549,45.144595],[-107.214552,45.145502],[-107.214554,45.146409],[-107.214557,45.147316],[-107.21456,45.148223],[-107.214563,45.14913],[-107.214566,45.150037],[-107.214569,45.150944],[-107.214572,45.15185],[-107.214575,45.152757],[-107.214578,45.153664],[-107.214581,45.15457],[-107.214584,45.155477],[-107.214587,45.156383],[-107.214591,45.15729],[-107.214594,45.158196],[-107.214597,45.159103],[-107.209488,45.159099],[-107.204379,45.159096],[-107.19927,45.159095],[-107.194162,45.159095],[-107.194145,45.15547],[-107.194128,45.151844],[-107.194113,45.148218],[-107.194098,45.144592]]]}},{"type":"Feature","properties":{"sec":"09","frstdivid":"MT200080S0370E0SN090"},"geometry":{"type":"Polygon","coordinates":[[[-107.173648,45.144605],[-107.17876,45.144601],[-107.183873,45.144598],[-107.188985,45.144596],[-107.194098,45.144592],[-107.194113,45.148218],[-107.194128,45.151844],[-107.194145,45.15547],[-107.194162,45.159095],[-107.191604,45.159099],[-107.189045,45.159102],[-107.183929,45.159106],[-107.178813,45.159111],[-107.173696,45.159116],[-107.173684,45.155488],[-107.173672,45.151861],[-107.173659,45.148233],[-107.173648,45.144605]]]}},{"type":"Feature","properties":{"sec":"10","frstdivid":"MT200080S0370E0SN100"},"geometry":{"type":"Polygon","coordinates":[[[-107.153187,45.158227],[-107.153185,45.157319],[-107.15318,45.155504],[-107.153168,45.151873],[-107.153157,45.148242],[-107.153147,45.144611],[-107.158272,45.144608],[-107.163397,45.144606],[-107.168522,45.144605],[-107.173648,45.144605],[-107.173659,45.148233],[-107.173672,45.151861],[-107.173684,45.155488],[-107.173696,45.159116],[-107.16857,45.159119],[-107.163443,45.159122],[-107.162161,45.159124],[-107.160879,45.159126],[-107.159597,45.159127],[-107.158316,45.159129],[-107.157034,45.15913],[-107.155752,45.159132],[-107.154471,45.159133],[-107.153189,45.159135],[-107.153187,45.158227]]]}},{"type":"Feature","properties":{"sec":"31","frstdivid":"MT200080S0370E0SN310"},"geometry":{"type":"Polygon","coordinates":[[[-107.21462,45.086641],[-107.219735,45.086649],[-107.224849,45.086656],[-107.231231,45.086622],[-107.231235,45.087293],[-107.231311,45.090304],[-107.231321,45.091017],[-107.231436,45.094028],[-107.23143,45.094702],[-107.231377,45.097637],[-107.231378,45.098301],[-107.231359,45.101239],[-107.224794,45.101158],[-107.219679,45.101138],[-107.214563,45.101129],[-107.214631,45.097507],[-107.214711,45.093885],[-107.214664,45.090263],[-107.21462,45.086641]]]}},{"type":"Feature","properties":{"sec":"18","frstdivid":"MT200080S0370E0SN180"},"geometry":{"type":"Polygon","coordinates":[[[-107.214511,45.137353],[-107.214493,45.133732],[-107.214474,45.130111],[-107.219584,45.130119],[-107.224693,45.130132],[-107.231361,45.130157],[-107.231362,45.130827],[-107.23136,45.133777],[-107.231361,45.134448],[-107.231358,45.137398],[-107.231359,45.138069],[-107.231357,45.141019],[-107.231357,45.14169],[-107.231354,45.14464],[-107.224777,45.144614],[-107.219663,45.144599],[-107.217106,45.144596],[-107.215828,45.144596],[-107.214549,45.144595],[-107.21453,45.140974],[-107.214511,45.137353]]]}},{"type":"Feature","properties":{"sec":"06","frstdivid":"MT200080S0370E0SN060"},"geometry":{"type":"Polygon","coordinates":[[[-107.214628,45.162734],[-107.214597,45.159103],[-107.215875,45.159101],[-107.217153,45.159099],[-107.219709,45.159098],[-107.224821,45.159104],[-107.231361,45.159125],[-107.231362,45.159797],[-107.231354,45.162745],[-107.231354,45.163417],[-107.231345,45.166366],[-107.231346,45.167038],[-107.231336,45.169987],[-107.231336,45.170659],[-107.231314,45.173832],[-107.230109,45.173831],[-107.224983,45.173792],[-107.219856,45.173767],[-107.21473,45.173749],[-107.214686,45.16999],[-107.214675,45.168177],[-107.214662,45.166365],[-107.214628,45.162734]]]}},{"type":"Feature","properties":{"sec":"26","frstdivid":"MT200080S0370E0SN260"},"geometry":{"type":"Polygon","coordinates":[[[-107.13271,45.101085],[-107.13782,45.101085],[-107.142929,45.101085],[-107.145485,45.101088],[-107.148041,45.101091],[-107.150597,45.101094],[-107.153153,45.101097],[-107.153138,45.10291],[-107.153124,45.104722],[-107.15311,45.106534],[-107.153093,45.108347],[-107.153085,45.11016],[-107.153088,45.111972],[-107.153099,45.115597],[-107.147984,45.115597],[-107.142869,45.115597],[-107.137755,45.1156],[-107.135197,45.115603],[-107.132639,45.115605],[-107.132614,45.111975],[-107.132599,45.108345],[-107.132659,45.104715],[-107.13271,45.101085]]]}},{"type":"Feature","properties":{"sec":"27","frstdivid":"MT200080S0370E0SN270"},"geometry":{"type":"Polygon","coordinates":[[[-107.153085,45.11016],[-107.153093,45.108347],[-107.15311,45.106534],[-107.153124,45.104722],[-107.153138,45.10291],[-107.153153,45.101097],[-107.155715,45.1011],[-107.158276,45.101102],[-107.163398,45.101101],[-107.168519,45.1011],[-107.171081,45.101103],[-107.172362,45.101106],[-107.173644,45.10111],[-107.1736,45.104733],[-107.173568,45.108356],[-107.173551,45.111979],[-107.173546,45.115603],[-107.168435,45.115598],[-107.163323,45.115598],[-107.158211,45.115599],[-107.153099,45.115597],[-107.153088,45.111972],[-107.153085,45.11016]]]}},{"type":"Feature","properties":{"sec":"14","frstdivid":"MT200080S0370E0SN140"},"geometry":{"type":"Polygon","coordinates":[[[-107.132674,45.130117],[-107.137786,45.130109],[-107.142898,45.130102],[-107.14801,45.130098],[-107.153122,45.130094],[-107.153129,45.133723],[-107.153135,45.137352],[-107.153141,45.140982],[-107.153147,45.144611],[-107.148036,45.144614],[-107.142925,45.144619],[-107.137813,45.144624],[-107.132702,45.14463],[-107.132696,45.141002],[-107.132689,45.137374],[-107.132682,45.133745],[-107.132674,45.130117]]]}},{"type":"Feature","properties":{"sec":"11","frstdivid":"MT200080S0370E0SN110"},"geometry":{"type":"Polygon","coordinates":[[[-107.132702,45.14463],[-107.137813,45.144624],[-107.142925,45.144619],[-107.148036,45.144614],[-107.153147,45.144611],[-107.153157,45.148242],[-107.153168,45.151873],[-107.15318,45.155504],[-107.153185,45.157319],[-107.153187,45.158227],[-107.153189,45.159135],[-107.15191,45.159136],[-107.150632,45.159138],[-107.149353,45.159139],[-107.148074,45.159141],[-107.146796,45.159142],[-107.145517,45.159144],[-107.144238,45.159146],[-107.142959,45.159147],[-107.137845,45.159154],[-107.13273,45.159162],[-107.132723,45.155529],[-107.132716,45.151896],[-107.132709,45.148263],[-107.132702,45.14463]]]}},{"type":"Feature","properties":{"sec":"25","frstdivid":"MT200080S0370E0SN250"},"geometry":{"type":"Polygon","coordinates":[[[-107.11214,45.111999],[-107.112043,45.10926],[-107.112068,45.108376],[-107.112175,45.105633],[-107.11219,45.104749],[-107.112251,45.102006],[-107.11226,45.101122],[-107.117372,45.101105],[-107.122485,45.101092],[-107.127597,45.101087],[-107.13271,45.101085],[-107.132659,45.104715],[-107.132599,45.108345],[-107.132614,45.111975],[-107.132639,45.115605],[-107.127526,45.115606],[-107.122413,45.115609],[-107.117301,45.115615],[-107.112189,45.115621],[-107.112148,45.112882],[-107.11214,45.111999]]]}},{"type":"Feature","properties":{"sec":"19","frstdivid":"MT200080S0370E0SN190"},"geometry":{"type":"Polygon","coordinates":[[[-107.214451,45.117437],[-107.214453,45.116531],[-107.214455,45.115625],[-107.215733,45.115627],[-107.217011,45.115629],[-107.218288,45.115631],[-107.219566,45.115633],[-107.220843,45.115637],[-107.222121,45.11564],[-107.223398,45.115643],[-107.224674,45.115646],[-107.231362,45.115684],[-107.231364,45.116353],[-107.231361,45.119301],[-107.231363,45.11997],[-107.231361,45.122919],[-107.231362,45.123589],[-107.231361,45.126538],[-107.231362,45.127208],[-107.231361,45.130157],[-107.224693,45.130132],[-107.219584,45.130119],[-107.214474,45.130111],[-107.214467,45.12649],[-107.214459,45.122869],[-107.21445,45.119247],[-107.214451,45.117437]]]}},{"type":"Feature","properties":{"sec":"15","frstdivid":"MT200080S0370E0SN150"},"geometry":{"type":"Polygon","coordinates":[[[-107.153122,45.130094],[-107.158242,45.130097],[-107.163363,45.130099],[-107.168484,45.130103],[-107.173605,45.130108],[-107.173616,45.133732],[-107.173627,45.137356],[-107.173638,45.140981],[-107.173648,45.144605],[-107.168522,45.144605],[-107.163397,45.144606],[-107.158272,45.144608],[-107.153147,45.144611],[-107.153141,45.140982],[-107.153135,45.137352],[-107.153129,45.133723],[-107.153122,45.130094]]]}},{"type":"Feature","properties":{"sec":"12","frstdivid":"MT200080S0370E0SN120"},"geometry":{"type":"Polygon","coordinates":[[[-107.112257,45.152772],[-107.112256,45.151888],[-107.112255,45.149145],[-107.112255,45.148261],[-107.112254,45.145518],[-107.112253,45.144634],[-107.117366,45.144635],[-107.122478,45.144634],[-107.12759,45.144632],[-107.132702,45.14463],[-107.132709,45.148263],[-107.132716,45.151896],[-107.132723,45.155529],[-107.13273,45.159162],[-107.127615,45.159158],[-107.122501,45.159153],[-107.117386,45.159148],[-107.112272,45.159138],[-107.112265,45.156398],[-107.112264,45.155513],[-107.112257,45.152772]]]}},{"type":"Feature","properties":{"sec":"30","frstdivid":"MT200080S0370E0SN300"},"geometry":{"type":"Polygon","coordinates":[[[-107.214563,45.101129],[-107.219679,45.101138],[-107.224794,45.101158],[-107.231359,45.101239],[-107.231362,45.101904],[-107.231357,45.104847],[-107.231361,45.105514],[-107.231358,45.108458],[-107.23136,45.109126],[-107.231359,45.11207],[-107.231362,45.112739],[-107.231362,45.115684],[-107.224674,45.115646],[-107.223398,45.115643],[-107.222121,45.11564],[-107.220843,45.115637],[-107.219566,45.115633],[-107.218288,45.115631],[-107.217011,45.115629],[-107.215733,45.115627],[-107.214455,45.115625],[-107.214466,45.112001],[-107.214486,45.108377],[-107.214518,45.104753],[-107.214563,45.101129]]]}},{"type":"Feature","properties":{"sec":"35","frstdivid":"MT200080S0370E0SN350"},"geometry":{"type":"Polygon","coordinates":[[[-107.132749,45.097459],[-107.132778,45.093834],[-107.132798,45.090208],[-107.132813,45.086582],[-107.137923,45.086582],[-107.143032,45.086584],[-107.148142,45.086587],[-107.153252,45.086592],[-107.153241,45.090218],[-107.153223,45.093845],[-107.153193,45.097471],[-107.153153,45.101097],[-107.150597,45.101094],[-107.148041,45.101091],[-107.145485,45.101088],[-107.142929,45.101085],[-107.13782,45.101085],[-107.13271,45.101085],[-107.132749,45.097459]]]}},{"type":"Feature","properties":{"sec":"20","frstdivid":"MT200080S0370E0SN200"},"geometry":{"type":"Polygon","coordinates":[[[-107.194019,45.115609],[-107.199128,45.115612],[-107.204237,45.115616],[-107.209346,45.115619],[-107.214455,45.115625],[-107.214453,45.116531],[-107.214451,45.117437],[-107.21445,45.119247],[-107.214459,45.122869],[-107.214467,45.12649],[-107.214474,45.130111],[-107.209369,45.130105],[-107.206817,45.130105],[-107.204265,45.130105],[-107.199161,45.130101],[-107.194057,45.130099],[-107.194046,45.126477],[-107.194034,45.122854],[-107.19403,45.121043],[-107.194026,45.119232],[-107.194019,45.115609]]]}},{"type":"Feature","properties":{"sec":"17","frstdivid":"MT200080S0370E0SN170"},"geometry":{"type":"Polygon","coordinates":[[[-107.194057,45.130099],[-107.199161,45.130101],[-107.204265,45.130105],[-107.206817,45.130105],[-107.209369,45.130105],[-107.214474,45.130111],[-107.214493,45.133732],[-107.214511,45.137353],[-107.21453,45.140974],[-107.214549,45.144595],[-107.209436,45.144593],[-107.204323,45.144592],[-107.19921,45.144591],[-107.194098,45.144592],[-107.194088,45.140969],[-107.194078,45.137346],[-107.194068,45.133723],[-107.194057,45.130099]]]}},{"type":"Feature","properties":{"sec":"21","frstdivid":"MT200080S0370E0SN210"},"geometry":{"type":"Polygon","coordinates":[[[-107.173546,45.115603],[-107.178665,45.115603],[-107.183783,45.115605],[-107.188901,45.115607],[-107.194019,45.115609],[-107.194026,45.119232],[-107.19403,45.121043],[-107.194034,45.122854],[-107.194046,45.126477],[-107.194057,45.130099],[-107.188944,45.130101],[-107.183831,45.130103],[-107.178718,45.130104],[-107.176161,45.130106],[-107.173605,45.130108],[-107.173598,45.128295],[-107.173591,45.126482],[-107.173583,45.124669],[-107.173576,45.122856],[-107.173561,45.119229],[-107.173546,45.115603]]]}}]}