{"type":"FeatureCollection","note":"BLM Public Land Survey System. Provided by the Bureau of Land Management as is. These data are neither legal documents nor land surveys and must not be used as such.","features":[{"type":"Feature","properties":{"sec":"16","frstdivid":"MT200010S0610E0SN160"},"geometry":{"type":"Polygon","coordinates":[[[-104.207529,45.741353],[-104.212709,45.741337],[-104.212716,45.744952],[-104.212723,45.748566],[-104.21273,45.752181],[-104.212737,45.755796],[-104.207553,45.75581],[-104.202368,45.755825],[-104.197183,45.75584],[-104.191998,45.755855],[-104.191998,45.752236],[-104.191998,45.748618],[-104.191997,45.747076],[-104.191995,45.744998],[-104.191993,45.741379],[-104.197171,45.741374],[-104.198922,45.741373],[-104.202349,45.741368],[-104.207529,45.741353]]]}},{"type":"Feature","properties":{"sec":"10","frstdivid":"MT200010S0610E0SN100"},"geometry":{"type":"Polygon","coordinates":[[[-104.171304,45.755872],[-104.176478,45.755868],[-104.181651,45.755863],[-104.186825,45.755859],[-104.191998,45.755855],[-104.191999,45.759476],[-104.192,45.763098],[-104.192,45.76672],[-104.192001,45.770342],[-104.186828,45.770345],[-104.181654,45.770348],[-104.176481,45.77035],[-104.171307,45.770353],[-104.171306,45.766733],[-104.171306,45.763113],[-104.171305,45.759492],[-104.171304,45.755872]]]}},{"type":"Feature","properties":{"sec":"14","frstdivid":"MT200010S0610E0SN140"},"geometry":{"type":"Polygon","coordinates":[[[-104.150648,45.755901],[-104.150646,45.752281],[-104.150644,45.748661],[-104.150642,45.745041],[-104.15064,45.741421],[-104.155805,45.741414],[-104.16097,45.741406],[-104.166135,45.741398],[-104.1713,45.74139],[-104.171301,45.745011],[-104.171302,45.748631],[-104.171303,45.752251],[-104.171304,45.755872],[-104.16614,45.755879],[-104.160976,45.755886],[-104.155812,45.755894],[-104.150648,45.755901]]]}},{"type":"Feature","properties":{"sec":"15","frstdivid":"MT200010S0610E0SN150"},"geometry":{"type":"Polygon","coordinates":[[[-104.171303,45.752251],[-104.171302,45.748631],[-104.171301,45.745011],[-104.1713,45.74139],[-104.176473,45.741387],[-104.181646,45.741384],[-104.18682,45.741382],[-104.191993,45.741379],[-104.191995,45.744998],[-104.191997,45.747076],[-104.191998,45.748618],[-104.191998,45.752236],[-104.191998,45.755855],[-104.186825,45.755859],[-104.181651,45.755863],[-104.176478,45.755868],[-104.171304,45.755872],[-104.171303,45.752251]]]}},{"type":"Feature","properties":{"sec":"11","frstdivid":"MT200010S0610E0SN110"},"geometry":{"type":"Polygon","coordinates":[[[-104.171307,45.770353],[-104.166141,45.770358],[-104.160975,45.770363],[-104.15581,45.770367],[-104.150644,45.770372],[-104.150645,45.766754],[-104.150646,45.763137],[-104.150647,45.759519],[-104.150648,45.755901],[-104.155812,45.755894],[-104.160976,45.755886],[-104.16614,45.755879],[-104.171304,45.755872],[-104.171305,45.759492],[-104.171306,45.763113],[-104.171306,45.766733],[-104.171307,45.770353]]]}},{"type":"Feature","properties":{"sec":"27","frstdivid":"MT200010S0610E0SN270"},"geometry":{"type":"Polygon","coordinates":[[[-104.19198,45.726881],[-104.186809,45.726889],[-104.181637,45.726898],[-104.176466,45.726907],[-104.171294,45.726915],[-104.171293,45.723297],[-104.171292,45.719678],[-104.171291,45.71606],[-104.17129,45.712441],[-104.176459,45.712432],[-104.181628,45.712422],[-104.186797,45.712412],[-104.191965,45.712402],[-104.191969,45.716022],[-104.191973,45.719641],[-104.191977,45.723261],[-104.19198,45.726881]]]}},{"type":"Feature","properties":{"sec":"29","frstdivid":"MT200010S0610E0SN290"},"geometry":{"type":"Polygon","coordinates":[[[-104.217838,45.726869],[-104.212665,45.726866],[-104.212661,45.725876],[-104.212652,45.723445],[-104.212651,45.723247],[-104.212638,45.719627],[-104.212634,45.716015],[-104.212629,45.712403],[-104.217799,45.712405],[-104.222968,45.712407],[-104.228138,45.712409],[-104.233307,45.712411],[-104.233319,45.716027],[-104.233331,45.719644],[-104.233344,45.72326],[-104.233356,45.726876],[-104.228183,45.726874],[-104.223011,45.726871],[-104.217838,45.726869]]]}},{"type":"Feature","properties":{"sec":"34","frstdivid":"MT200010S0610E0SN340"},"geometry":{"type":"Polygon","coordinates":[[[-104.176447,45.697955],[-104.181614,45.697951],[-104.186781,45.697947],[-104.191947,45.697943],[-104.191952,45.701558],[-104.191956,45.705172],[-104.191961,45.708787],[-104.191965,45.712402],[-104.186797,45.712412],[-104.181628,45.712422],[-104.176459,45.712432],[-104.17129,45.712441],[-104.171288,45.708821],[-104.171285,45.7052],[-104.171285,45.704295],[-104.171284,45.70339],[-104.171283,45.70158],[-104.17128,45.69796],[-104.176447,45.697955]]]}},{"type":"Feature","properties":{"sec":"26","frstdivid":"MT200010S0610E0SN260"},"geometry":{"type":"Polygon","coordinates":[[[-104.155797,45.72693],[-104.150632,45.726934],[-104.15063,45.723313],[-104.150628,45.719691],[-104.150626,45.71607],[-104.150624,45.712448],[-104.15579,45.712446],[-104.160957,45.712445],[-104.166123,45.712443],[-104.17129,45.712441],[-104.171291,45.71606],[-104.171292,45.719678],[-104.171293,45.723297],[-104.171294,45.726915],[-104.166129,45.72692],[-104.160963,45.726925],[-104.155797,45.72693]]]}},{"type":"Feature","properties":{"sec":"19","frstdivid":"MT200010S0610E0SN190"},"geometry":{"type":"Polygon","coordinates":[[[-104.233384,45.741368],[-104.233377,45.737745],[-104.23337,45.734122],[-104.233363,45.730499],[-104.233356,45.726876],[-104.238209,45.726874],[-104.238211,45.728262],[-104.238213,45.730498],[-104.238215,45.731886],[-104.238216,45.734122],[-104.238217,45.735508],[-104.238219,45.737745],[-104.238221,45.73913],[-104.238222,45.741369],[-104.233384,45.741368]]]}},{"type":"Feature","properties":{"sec":"33","frstdivid":"MT200010S0610E0SN330"},"geometry":{"type":"Polygon","coordinates":[[[-104.212617,45.701557],[-104.212621,45.705173],[-104.212625,45.708788],[-104.212629,45.712403],[-104.207463,45.712403],[-104.202297,45.712403],[-104.197131,45.712402],[-104.191965,45.712402],[-104.191961,45.708787],[-104.191956,45.705172],[-104.191952,45.701558],[-104.191947,45.697943],[-104.197114,45.697943],[-104.20228,45.697942],[-104.207446,45.697942],[-104.212613,45.697942],[-104.212617,45.701557]]]}},{"type":"Feature","properties":{"sec":"22","frstdivid":"MT200010S0610E0SN220"},"geometry":{"type":"Polygon","coordinates":[[[-104.191993,45.741379],[-104.18682,45.741382],[-104.181646,45.741384],[-104.176473,45.741387],[-104.1713,45.74139],[-104.171299,45.737771],[-104.171297,45.734153],[-104.171296,45.730534],[-104.171294,45.726915],[-104.176466,45.726907],[-104.181637,45.726898],[-104.186809,45.726889],[-104.19198,45.726881],[-104.191983,45.730505],[-104.191986,45.73413],[-104.19199,45.737754],[-104.191993,45.741379]]]}},{"type":"Feature","properties":{"sec":"13","frstdivid":"MT200010S0610E0SN130"},"geometry":{"type":"Polygon","coordinates":[[[-104.145475,45.741426],[-104.15064,45.741421],[-104.150642,45.745041],[-104.150644,45.748661],[-104.150646,45.752281],[-104.150648,45.755901],[-104.145485,45.755907],[-104.140322,45.755913],[-104.135158,45.755918],[-104.129995,45.755924],[-104.129991,45.752303],[-104.129987,45.748681],[-104.129983,45.74506],[-104.129979,45.741438],[-104.135144,45.741434],[-104.14031,45.74143],[-104.145475,45.741426]]]}},{"type":"Feature","properties":{"sec":"35","frstdivid":"MT200010S0610E0SN350"},"geometry":{"type":"Polygon","coordinates":[[[-104.150624,45.712448],[-104.150622,45.708829],[-104.15062,45.705209],[-104.150619,45.70159],[-104.150617,45.69797],[-104.155783,45.697967],[-104.158366,45.697966],[-104.160949,45.697965],[-104.166114,45.697962],[-104.17128,45.69796],[-104.171283,45.70158],[-104.171284,45.70339],[-104.171285,45.704295],[-104.171285,45.7052],[-104.171288,45.708821],[-104.17129,45.712441],[-104.166123,45.712443],[-104.160957,45.712445],[-104.15579,45.712446],[-104.150624,45.712448]]]}},{"type":"Feature","properties":{"sec":"06","frstdivid":"MT200010S0610E0SN060"},"geometry":{"type":"Polygon","coordinates":[[[-104.238226,45.779177],[-104.238223,45.781169],[-104.238221,45.782802],[-104.238218,45.784794],[-104.238216,45.786427],[-104.238213,45.788419],[-104.238211,45.790051],[-104.238209,45.792043],[-104.238202,45.795043],[-104.237827,45.795043],[-104.237038,45.795044],[-104.233546,45.795046],[-104.233541,45.791988],[-104.233534,45.788369],[-104.233533,45.787859],[-104.233527,45.784751],[-104.233521,45.781134],[-104.233515,45.777517],[-104.233507,45.773905],[-104.233499,45.770292],[-104.238231,45.770295],[-104.238231,45.771885],[-104.238231,45.77392],[-104.23823,45.775553],[-104.238227,45.777545],[-104.238226,45.779177]]]}},{"type":"Feature","properties":{"sec":"02","frstdivid":"MT200010S0610E0SN020"},"geometry":{"type":"Polygon","coordinates":[[[-104.160981,45.795063],[-104.160596,45.795063],[-104.15581,45.795065],[-104.155421,45.795065],[-104.150638,45.795067],[-104.150638,45.79207],[-104.150638,45.788453],[-104.150638,45.784836],[-104.150639,45.781219],[-104.150639,45.777602],[-104.150641,45.773987],[-104.150644,45.770372],[-104.15581,45.770367],[-104.160975,45.770363],[-104.166141,45.770358],[-104.171307,45.770353],[-104.17131,45.773975],[-104.171312,45.777597],[-104.171315,45.781218],[-104.171318,45.784839],[-104.171321,45.78846],[-104.171323,45.792081],[-104.171326,45.795058],[-104.170945,45.795059],[-104.166154,45.795061],[-104.165771,45.795061],[-104.160981,45.795063]]]}},{"type":"Feature","properties":{"sec":"04","frstdivid":"MT200010S0610E0SN040"},"geometry":{"type":"Polygon","coordinates":[[[-104.212787,45.777525],[-104.212794,45.781146],[-104.2128,45.784767],[-104.212807,45.788389],[-104.212814,45.79201],[-104.21282,45.795048],[-104.212349,45.795048],[-104.207625,45.79505],[-104.207172,45.79505],[-104.202431,45.795051],[-104.201996,45.795051],[-104.197237,45.795053],[-104.19682,45.795053],[-104.192043,45.795054],[-104.192038,45.792054],[-104.192032,45.788435],[-104.192027,45.784817],[-104.192021,45.781198],[-104.192015,45.777579],[-104.192008,45.77396],[-104.192001,45.770342],[-104.197194,45.770326],[-104.202388,45.770309],[-104.204984,45.770302],[-104.206282,45.770298],[-104.20758,45.770294],[-104.210176,45.770286],[-104.212772,45.770279],[-104.212775,45.77209],[-104.212777,45.772996],[-104.212779,45.773902],[-104.212787,45.777525]]]}},{"type":"Feature","properties":{"sec":"24","frstdivid":"MT200010S0610E0SN240"},"geometry":{"type":"Polygon","coordinates":[[[-104.129979,45.741438],[-104.129978,45.737818],[-104.129976,45.734197],[-104.129975,45.730577],[-104.129973,45.726957],[-104.135138,45.726951],[-104.140303,45.726945],[-104.145467,45.72694],[-104.150632,45.726934],[-104.150634,45.730556],[-104.150636,45.734178],[-104.150638,45.7378],[-104.15064,45.741421],[-104.145475,45.741426],[-104.14031,45.74143],[-104.135144,45.741434],[-104.129979,45.741438]]]}},{"type":"Feature","properties":{"sec":"30","frstdivid":"MT200010S0610E0SN300"},"geometry":{"type":"Polygon","coordinates":[[[-104.238209,45.724639],[-104.238209,45.726874],[-104.233356,45.726876],[-104.233344,45.72326],[-104.233331,45.719644],[-104.233319,45.716027],[-104.233307,45.712411],[-104.238207,45.712412],[-104.238207,45.713753],[-104.238208,45.716028],[-104.238208,45.717381],[-104.238208,45.719643],[-104.238208,45.72101],[-104.238209,45.723259],[-104.238209,45.724639]]]}},{"type":"Feature","properties":{"sec":"17","frstdivid":"MT200010S0610E0SN170"},"geometry":{"type":"Polygon","coordinates":[[[-104.228215,45.74136],[-104.233384,45.741368],[-104.233397,45.744981],[-104.23341,45.748594],[-104.233423,45.752207],[-104.233435,45.75582],[-104.228261,45.755814],[-104.223087,45.755807],[-104.217912,45.755802],[-104.212737,45.755796],[-104.21273,45.752181],[-104.212723,45.748566],[-104.212716,45.744952],[-104.212709,45.741337],[-104.217878,45.741345],[-104.223046,45.741353],[-104.228215,45.74136]]]}},{"type":"Feature","properties":{"sec":"07","frstdivid":"MT200010S0610E0SN070"},"geometry":{"type":"Polygon","coordinates":[[[-104.238232,45.764563],[-104.23823,45.766676],[-104.23823,45.768218],[-104.238231,45.770295],[-104.233499,45.770292],[-104.233483,45.766674],[-104.233467,45.763056],[-104.233451,45.759438],[-104.233435,45.75582],[-104.23823,45.755817],[-104.238231,45.757271],[-104.238232,45.759437],[-104.238232,45.760909],[-104.238232,45.763056],[-104.238232,45.764563]]]}},{"type":"Feature","properties":{"sec":"12","frstdivid":"MT200010S0610E0SN120"},"geometry":{"type":"Polygon","coordinates":[[[-104.150645,45.766754],[-104.150644,45.770372],[-104.145485,45.770379],[-104.140327,45.770385],[-104.135168,45.770392],[-104.13001,45.770398],[-104.130006,45.76678],[-104.130002,45.763161],[-104.129999,45.759543],[-104.129995,45.755924],[-104.135158,45.755918],[-104.140322,45.755913],[-104.145485,45.755907],[-104.150648,45.755901],[-104.150647,45.759519],[-104.150646,45.763137],[-104.150645,45.766754]]]}},{"type":"Feature","properties":{"sec":"32","frstdivid":"MT200010S0610E0SN320"},"geometry":{"type":"Polygon","coordinates":[[[-104.212629,45.712403],[-104.212625,45.708788],[-104.212621,45.705173],[-104.212617,45.701557],[-104.212613,45.697942],[-104.217777,45.697942],[-104.218427,45.697942],[-104.221164,45.697942],[-104.222941,45.697942],[-104.228107,45.697943],[-104.233274,45.697945],[-104.233282,45.701562],[-104.23329,45.705178],[-104.233299,45.708795],[-104.233307,45.712411],[-104.228138,45.712409],[-104.222968,45.712407],[-104.217799,45.712405],[-104.212629,45.712403]]]}},{"type":"Feature","properties":{"sec":"36","frstdivid":"MT200010S0610E0SN360"},"geometry":{"type":"Polygon","coordinates":[[[-104.129957,45.705225],[-104.129954,45.701603],[-104.129951,45.697981],[-104.135117,45.697978],[-104.140284,45.697975],[-104.14545,45.697973],[-104.150617,45.69797],[-104.150619,45.70159],[-104.15062,45.705209],[-104.150622,45.708829],[-104.150624,45.712448],[-104.145459,45.712453],[-104.140294,45.712459],[-104.135129,45.712464],[-104.129963,45.71247],[-104.12996,45.708847],[-104.129957,45.705225]]]}},{"type":"Feature","properties":{"sec":"01","frstdivid":"MT200010S0610E0SN010"},"geometry":{"type":"Polygon","coordinates":[[[-104.134718,45.795067],[-104.132598,45.795067],[-104.130021,45.795067],[-104.130021,45.793923],[-104.13002,45.792113],[-104.13002,45.790304],[-104.130019,45.788494],[-104.130018,45.786684],[-104.130018,45.784875],[-104.130017,45.783065],[-104.130016,45.781256],[-104.130015,45.777636],[-104.130012,45.774017],[-104.13001,45.770398],[-104.135168,45.770392],[-104.140327,45.770385],[-104.145485,45.770379],[-104.150644,45.770372],[-104.150641,45.773987],[-104.150639,45.777602],[-104.150639,45.781219],[-104.150638,45.784836],[-104.150638,45.788453],[-104.150638,45.79207],[-104.150638,45.795067],[-104.150246,45.795067],[-104.145483,45.795067],[-104.14507,45.795067],[-104.140329,45.795067],[-104.139894,45.795067],[-104.137752,45.795067],[-104.135175,45.795067],[-104.134718,45.795067]]]}},{"type":"Feature","properties":{"sec":"23","frstdivid":"MT200010S0610E0SN230"},"geometry":{"type":"Polygon","coordinates":[[[-104.150632,45.726934],[-104.155797,45.72693],[-104.160963,45.726925],[-104.166129,45.72692],[-104.171294,45.726915],[-104.171296,45.730534],[-104.171297,45.734153],[-104.171299,45.737771],[-104.1713,45.74139],[-104.166135,45.741398],[-104.16097,45.741406],[-104.155805,45.741414],[-104.15064,45.741421],[-104.150638,45.7378],[-104.150636,45.734178],[-104.150634,45.730556],[-104.150632,45.726934]]]}},{"type":"Feature","properties":{"sec":"25","frstdivid":"MT200010S0610E0SN250"},"geometry":{"type":"Polygon","coordinates":[[[-104.140294,45.712459],[-104.145459,45.712453],[-104.150624,45.712448],[-104.150626,45.71607],[-104.150628,45.719691],[-104.15063,45.723313],[-104.150632,45.726934],[-104.145467,45.72694],[-104.140303,45.726945],[-104.135138,45.726951],[-104.129973,45.726957],[-104.129971,45.723335],[-104.129968,45.719713],[-104.129966,45.716091],[-104.129963,45.71247],[-104.135129,45.712464],[-104.140294,45.712459]]]}},{"type":"Feature","properties":{"sec":"21","frstdivid":"MT200010S0610E0SN210"},"geometry":{"type":"Polygon","coordinates":[[[-104.210811,45.726869],[-104.212665,45.726866],[-104.212676,45.730484],[-104.212687,45.734102],[-104.212698,45.737719],[-104.212709,45.741337],[-104.207529,45.741353],[-104.202349,45.741368],[-104.198922,45.741373],[-104.197171,45.741374],[-104.191993,45.741379],[-104.19199,45.737754],[-104.191986,45.73413],[-104.191983,45.730505],[-104.19198,45.726881],[-104.197142,45.726879],[-104.202304,45.726877],[-104.207485,45.726872],[-104.210811,45.726869]]]}},{"type":"Feature","properties":{"sec":"20","frstdivid":"MT200010S0610E0SN200"},"geometry":{"type":"Polygon","coordinates":[[[-104.233384,45.741368],[-104.228215,45.74136],[-104.223046,45.741353],[-104.217878,45.741345],[-104.212709,45.741337],[-104.212698,45.737719],[-104.212687,45.734102],[-104.212676,45.730484],[-104.212665,45.726866],[-104.217838,45.726869],[-104.223011,45.726871],[-104.228183,45.726874],[-104.233356,45.726876],[-104.233363,45.730499],[-104.23337,45.734122],[-104.233377,45.737745],[-104.233384,45.741368]]]}},{"type":"Feature","properties":{"sec":"08","frstdivid":"MT200010S0610E0SN080"},"geometry":{"type":"Polygon","coordinates":[[[-104.212746,45.759416],[-104.212737,45.755796],[-104.217912,45.755802],[-104.223087,45.755807],[-104.228261,45.755814],[-104.233435,45.75582],[-104.233451,45.759438],[-104.233467,45.763056],[-104.233483,45.766674],[-104.233499,45.770292],[-104.228317,45.770288],[-104.223135,45.770285],[-104.217953,45.770282],[-104.215362,45.77028],[-104.214067,45.77028],[-104.212772,45.770279],[-104.212769,45.769374],[-104.212767,45.768468],[-104.212763,45.766658],[-104.212759,45.764847],[-104.212755,45.763036],[-104.212746,45.759416]]]}},{"type":"Feature","properties":{"sec":"31","frstdivid":"MT200010S0610E0SN310"},"geometry":{"type":"Polygon","coordinates":[[[-104.233274,45.697945],[-104.238204,45.697946],[-104.238204,45.700695],[-104.238204,45.701561],[-104.238205,45.702876],[-104.238205,45.705176],[-104.238205,45.7065],[-104.238206,45.708794],[-104.238207,45.710125],[-104.238207,45.712412],[-104.233307,45.712411],[-104.233299,45.708795],[-104.23329,45.705178],[-104.233282,45.701562],[-104.233274,45.697945]]]}},{"type":"Feature","properties":{"sec":"28","frstdivid":"MT200010S0610E0SN280"},"geometry":{"type":"Polygon","coordinates":[[[-104.207463,45.712403],[-104.212629,45.712403],[-104.212634,45.716015],[-104.212638,45.719627],[-104.212651,45.723247],[-104.212652,45.723445],[-104.212661,45.725876],[-104.212665,45.726866],[-104.210811,45.726869],[-104.207485,45.726872],[-104.202304,45.726877],[-104.197142,45.726879],[-104.19198,45.726881],[-104.191977,45.723261],[-104.191973,45.719641],[-104.191969,45.716022],[-104.191965,45.712402],[-104.197131,45.712402],[-104.202297,45.712403],[-104.207463,45.712403]]]}},{"type":"Feature","properties":{"sec":"05","frstdivid":"MT200010S0610E0SN050"},"geometry":{"type":"Polygon","coordinates":[[[-104.227881,45.795048],[-104.223184,45.795048],[-104.222703,45.795048],[-104.218002,45.795048],[-104.217526,45.795048],[-104.21282,45.795048],[-104.212814,45.79201],[-104.212807,45.788389],[-104.2128,45.784767],[-104.212794,45.781146],[-104.212787,45.777525],[-104.212779,45.773902],[-104.212777,45.772996],[-104.212775,45.77209],[-104.212772,45.770279],[-104.214067,45.77028],[-104.215362,45.77028],[-104.217953,45.770282],[-104.223135,45.770285],[-104.228317,45.770288],[-104.233499,45.770292],[-104.233507,45.773905],[-104.233515,45.777517],[-104.233521,45.781134],[-104.233527,45.784751],[-104.233533,45.787859],[-104.233534,45.788369],[-104.233541,45.791988],[-104.233546,45.795046],[-104.233054,45.795046],[-104.232095,45.795047],[-104.228365,45.795048],[-104.227881,45.795048]]]}},{"type":"Feature","properties":{"sec":"09","frstdivid":"MT200010S0610E0SN090"},"geometry":{"type":"Polygon","coordinates":[[[-104.212755,45.763036],[-104.212759,45.764847],[-104.212763,45.766658],[-104.212767,45.768468],[-104.212769,45.769374],[-104.212772,45.770279],[-104.210176,45.770286],[-104.20758,45.770294],[-104.206282,45.770298],[-104.204984,45.770302],[-104.202388,45.770309],[-104.197194,45.770326],[-104.192001,45.770342],[-104.192,45.76672],[-104.192,45.763098],[-104.191999,45.759476],[-104.191998,45.755855],[-104.197183,45.75584],[-104.202368,45.755825],[-104.207553,45.75581],[-104.212737,45.755796],[-104.212746,45.759416],[-104.212755,45.763036]]]}},{"type":"Feature","properties":{"sec":"18","frstdivid":"MT200010S0610E0SN180"},"geometry":{"type":"Polygon","coordinates":[[[-104.238222,45.741369],[-104.238223,45.742755],[-104.238224,45.744982],[-104.238224,45.746381],[-104.238225,45.748594],[-104.238225,45.750008],[-104.238226,45.752206],[-104.238227,45.753634],[-104.23823,45.755817],[-104.233435,45.75582],[-104.233423,45.752207],[-104.23341,45.748594],[-104.233397,45.744981],[-104.233384,45.741368],[-104.238222,45.741369]]]}},{"type":"Feature","properties":{"sec":"03","frstdivid":"MT200010S0610E0SN030"},"geometry":{"type":"Polygon","coordinates":[[[-104.186828,45.770345],[-104.192001,45.770342],[-104.192008,45.77396],[-104.192015,45.777579],[-104.192021,45.781198],[-104.192027,45.784817],[-104.192032,45.788435],[-104.192038,45.792054],[-104.192043,45.795054],[-104.191644,45.795054],[-104.186863,45.795055],[-104.186469,45.795055],[-104.181684,45.795056],[-104.181295,45.795056],[-104.176505,45.795058],[-104.17612,45.795058],[-104.171326,45.795058],[-104.171323,45.792081],[-104.171321,45.78846],[-104.171318,45.784839],[-104.171315,45.781218],[-104.171312,45.777597],[-104.17131,45.773975],[-104.171307,45.770353],[-104.176481,45.77035],[-104.181654,45.770348],[-104.186828,45.770345]]]}}]}