{"type":"FeatureCollection","note":"BLM Public Land Survey System. Provided by the Bureau of Land Management as is. These data are neither legal documents nor land surveys and must not be used as such.","features":[{"type":"Feature","properties":{"sec":"23","frstdivid":"MT200090S0270E0SN230"},"geometry":{"type":"Polygon","coordinates":[[[-108.393088,45.041858],[-108.393099,45.045488],[-108.387981,45.045492],[-108.382865,45.045496],[-108.377759,45.045507],[-108.372654,45.045519],[-108.372654,45.041906],[-108.372653,45.038294],[-108.372668,45.034675],[-108.372683,45.031056],[-108.377793,45.031034],[-108.382903,45.031013],[-108.387993,45.031],[-108.393083,45.030988],[-108.39308,45.034607],[-108.393077,45.038227],[-108.393083,45.040042],[-108.393088,45.041858]]]}},{"type":"Feature","properties":{"sec":"18","frstdivid":"MT200090S0270E0SN180"},"geometry":{"type":"Polygon","coordinates":[[[-108.454243,45.052684],[-108.454263,45.049066],[-108.454283,45.045448],[-108.459395,45.045449],[-108.464507,45.045449],[-108.469616,45.04545],[-108.474475,45.04545],[-108.4744,45.049079],[-108.474326,45.052708],[-108.474343,45.056326],[-108.47436,45.059945],[-108.469524,45.059939],[-108.464417,45.059932],[-108.45931,45.059926],[-108.454204,45.059919],[-108.454223,45.056301],[-108.454243,45.052684]]]}},{"type":"Feature","properties":{"sec":"34","frstdivid":"MT200090S0270E0SN340"},"geometry":{"type":"Polygon","coordinates":[[[-108.408471,45.00205],[-108.413553,45.002047],[-108.413559,45.005668],[-108.413564,45.009289],[-108.41357,45.012911],[-108.413582,45.016529],[-108.408498,45.016532],[-108.403255,45.016535],[-108.398172,45.016538],[-108.393089,45.016541],[-108.393077,45.012923],[-108.393073,45.009301],[-108.393069,45.00568],[-108.393065,45.002058],[-108.398147,45.002056],[-108.403229,45.002053],[-108.408471,45.00205]]]}},{"type":"Feature","properties":{"sec":"07","frstdivid":"MT200090S0270E0SN070"},"geometry":{"type":"Polygon","coordinates":[[[-108.459283,45.074389],[-108.45418,45.074383],[-108.454186,45.070767],[-108.454192,45.067151],[-108.454198,45.063535],[-108.454204,45.059919],[-108.45931,45.059926],[-108.464417,45.059932],[-108.469524,45.059939],[-108.47436,45.059945],[-108.474366,45.06356],[-108.474372,45.067174],[-108.474378,45.070789],[-108.474383,45.074404],[-108.469492,45.0744],[-108.464386,45.074395],[-108.459283,45.074389]]]}},{"type":"Feature","properties":{"sec":"22","frstdivid":"MT200090S0270E0SN220"},"geometry":{"type":"Polygon","coordinates":[[[-108.413516,45.034611],[-108.413508,45.038231],[-108.4135,45.04185],[-108.413492,45.04547],[-108.408394,45.045475],[-108.403296,45.045479],[-108.398197,45.045484],[-108.393099,45.045488],[-108.393088,45.041858],[-108.393083,45.040042],[-108.393077,45.038227],[-108.39308,45.034607],[-108.393083,45.030988],[-108.398193,45.030989],[-108.403303,45.030989],[-108.408414,45.03099],[-108.413524,45.030991],[-108.413516,45.034611]]]}},{"type":"Feature","properties":{"sec":"20","frstdivid":"MT200090S0270E0SN200"},"geometry":{"type":"Polygon","coordinates":[[[-108.439007,45.045459],[-108.433915,45.045463],[-108.433907,45.041842],[-108.433899,45.038222],[-108.433892,45.034601],[-108.433931,45.030987],[-108.439032,45.03099],[-108.444132,45.030993],[-108.449233,45.030995],[-108.454333,45.030998],[-108.454302,45.034599],[-108.454296,45.038215],[-108.454289,45.041832],[-108.454283,45.045448],[-108.449191,45.045452],[-108.444099,45.045456],[-108.439007,45.045459]]]}},{"type":"Feature","properties":{"sec":"25","frstdivid":"MT200090S0270E0SN250"},"geometry":{"type":"Polygon","coordinates":[[[-108.35227,45.016554],[-108.35738,45.016556],[-108.36249,45.016558],[-108.3676,45.016549],[-108.370155,45.016549],[-108.37271,45.016548],[-108.372689,45.020176],[-108.37269,45.021081],[-108.37269,45.021987],[-108.372692,45.023798],[-108.372688,45.027427],[-108.372683,45.031056],[-108.370125,45.031055],[-108.367566,45.031054],[-108.36245,45.031053],[-108.357333,45.031051],[-108.352132,45.031047],[-108.352147,45.027426],[-108.352162,45.023804],[-108.352178,45.020181],[-108.35227,45.016554]]]}},{"type":"Feature","properties":{"sec":"29","frstdivid":"MT200090S0270E0SN290"},"geometry":{"type":"Polygon","coordinates":[[[-108.454348,45.027378],[-108.454333,45.030998],[-108.449233,45.030995],[-108.444132,45.030993],[-108.439032,45.03099],[-108.433931,45.030987],[-108.433939,45.027367],[-108.433947,45.023747],[-108.433955,45.020128],[-108.433956,45.016521],[-108.439061,45.016523],[-108.444166,45.016525],[-108.449272,45.016527],[-108.454377,45.016529],[-108.454377,45.020138],[-108.454363,45.023758],[-108.454348,45.027378]]]}},{"type":"Feature","properties":{"sec":"15","frstdivid":"MT200090S0270E0SN150"},"geometry":{"type":"Polygon","coordinates":[[[-108.41346,45.059959],[-108.408349,45.05996],[-108.403239,45.05996],[-108.398129,45.059961],[-108.393019,45.059962],[-108.393039,45.056344],[-108.393059,45.052725],[-108.393079,45.049107],[-108.393099,45.045488],[-108.398197,45.045484],[-108.403296,45.045479],[-108.408394,45.045475],[-108.413492,45.04547],[-108.413484,45.049092],[-108.413476,45.052714],[-108.413468,45.056336],[-108.41346,45.059959]]]}},{"type":"Feature","properties":{"sec":"27","frstdivid":"MT200090S0270E0SN270"},"geometry":{"type":"Polygon","coordinates":[[[-108.403255,45.016535],[-108.408498,45.016532],[-108.413582,45.016529],[-108.413521,45.020129],[-108.413522,45.02375],[-108.413523,45.02737],[-108.413524,45.030991],[-108.408414,45.03099],[-108.403303,45.030989],[-108.398193,45.030989],[-108.393083,45.030988],[-108.39309,45.027379],[-108.393098,45.023769],[-108.393116,45.020168],[-108.393089,45.016541],[-108.398172,45.016538],[-108.403255,45.016535]]]}},{"type":"Feature","properties":{"sec":"32","frstdivid":"MT200090S0270E0SN320"},"geometry":{"type":"Polygon","coordinates":[[[-108.433958,45.002039],[-108.439062,45.002042],[-108.444166,45.002044],[-108.44927,45.002047],[-108.454374,45.002049],[-108.454375,45.005669],[-108.454375,45.009289],[-108.454376,45.01291],[-108.454377,45.016529],[-108.449272,45.016527],[-108.444166,45.016525],[-108.439061,45.016523],[-108.433956,45.016521],[-108.433956,45.012901],[-108.433957,45.009281],[-108.433958,45.00566],[-108.433958,45.002039]]]}},{"type":"Feature","properties":{"sec":"30","frstdivid":"MT200090S0270E0SN300"},"geometry":{"type":"Polygon","coordinates":[[[-108.454348,45.027378],[-108.454363,45.023758],[-108.454377,45.020138],[-108.454377,45.016529],[-108.459484,45.016531],[-108.464591,45.016532],[-108.469698,45.016533],[-108.474568,45.016534],[-108.47457,45.020146],[-108.474572,45.023766],[-108.474574,45.027385],[-108.474576,45.031005],[-108.469705,45.031004],[-108.464551,45.031002],[-108.459442,45.031],[-108.454333,45.030998],[-108.454348,45.027378]]]}},{"type":"Feature","properties":{"sec":"08","frstdivid":"MT200090S0270E0SN080"},"geometry":{"type":"Polygon","coordinates":[[[-108.433797,45.070798],[-108.433811,45.067177],[-108.433825,45.063556],[-108.43384,45.059936],[-108.438931,45.059931],[-108.444022,45.059927],[-108.449113,45.059923],[-108.454204,45.059919],[-108.454198,45.063535],[-108.454192,45.067151],[-108.454186,45.070767],[-108.45418,45.074383],[-108.44908,45.074392],[-108.443981,45.074401],[-108.438882,45.07441],[-108.433783,45.074418],[-108.433797,45.070798]]]}},{"type":"Feature","properties":{"sec":"13","frstdivid":"MT200090S0270E0SN130"},"geometry":{"type":"Polygon","coordinates":[[[-108.372638,45.049132],[-108.372622,45.052745],[-108.372606,45.056358],[-108.37259,45.059971],[-108.367479,45.059975],[-108.362369,45.059979],[-108.357259,45.059983],[-108.352149,45.059987],[-108.352155,45.056372],[-108.352162,45.052758],[-108.352169,45.049143],[-108.352176,45.045529],[-108.357295,45.045526],[-108.362415,45.045524],[-108.367534,45.045521],[-108.372654,45.045519],[-108.372638,45.049132]]]}},{"type":"Feature","properties":{"sec":"14","frstdivid":"MT200090S0270E0SN140"},"geometry":{"type":"Polygon","coordinates":[[[-108.377697,45.059969],[-108.37259,45.059971],[-108.372606,45.056358],[-108.372622,45.052745],[-108.372638,45.049132],[-108.372654,45.045519],[-108.377759,45.045507],[-108.382865,45.045496],[-108.387981,45.045492],[-108.393099,45.045488],[-108.393079,45.049107],[-108.393059,45.052725],[-108.393039,45.056344],[-108.393019,45.059962],[-108.387911,45.059965],[-108.382804,45.059967],[-108.377697,45.059969]]]}},{"type":"Feature","properties":{"sec":"17","frstdivid":"MT200090S0270E0SN170"},"geometry":{"type":"Polygon","coordinates":[[[-108.449191,45.045452],[-108.454283,45.045448],[-108.454263,45.049066],[-108.454243,45.052684],[-108.454223,45.056301],[-108.454204,45.059919],[-108.449113,45.059923],[-108.444022,45.059927],[-108.438931,45.059931],[-108.43384,45.059936],[-108.433858,45.056317],[-108.433877,45.052699],[-108.433896,45.049081],[-108.433915,45.045463],[-108.439007,45.045459],[-108.444099,45.045456],[-108.449191,45.045452]]]}},{"type":"Feature","properties":{"sec":"03","frstdivid":"MT200090S0270E0SN030"},"geometry":{"type":"Polygon","coordinates":[[[-108.392965,45.074418],[-108.398076,45.074425],[-108.403186,45.074431],[-108.408297,45.074438],[-108.413408,45.074444],[-108.413383,45.078068],[-108.413357,45.081691],[-108.413338,45.085313],[-108.413319,45.088866],[-108.408209,45.088866],[-108.4031,45.088866],[-108.39799,45.088866],[-108.39288,45.088867],[-108.392898,45.085261],[-108.392915,45.081645],[-108.39294,45.078031],[-108.392965,45.074418]]]}},{"type":"Feature","properties":{"sec":"01","frstdivid":"MT200090S0270E0SN010"},"geometry":{"type":"Polygon","coordinates":[[[-108.372463,45.081683],[-108.372452,45.085304],[-108.372441,45.088867],[-108.367338,45.08887],[-108.362234,45.088873],[-108.35713,45.088877],[-108.352027,45.08888],[-108.352035,45.085274],[-108.352043,45.081668],[-108.352051,45.078062],[-108.352059,45.074457],[-108.357169,45.074452],[-108.362279,45.074448],[-108.367389,45.074444],[-108.372499,45.07444],[-108.372481,45.078062],[-108.372463,45.081683]]]}},{"type":"Feature","properties":{"sec":"11","frstdivid":"MT200090S0270E0SN110"},"geometry":{"type":"Polygon","coordinates":[[[-108.387911,45.059965],[-108.393019,45.059962],[-108.393005,45.063576],[-108.392992,45.06719],[-108.392978,45.070804],[-108.392965,45.074418],[-108.387848,45.074424],[-108.382732,45.074429],[-108.377615,45.074435],[-108.372499,45.07444],[-108.372522,45.070823],[-108.372544,45.067205],[-108.372567,45.063588],[-108.37259,45.059971],[-108.377697,45.059969],[-108.382804,45.059967],[-108.387911,45.059965]]]}},{"type":"Feature","properties":{"sec":"05","frstdivid":"MT200090S0270E0SN050"},"geometry":{"type":"Polygon","coordinates":[[[-108.443977,45.088866],[-108.438868,45.088866],[-108.433758,45.088866],[-108.433763,45.085279],[-108.433767,45.081659],[-108.433775,45.078038],[-108.433783,45.074418],[-108.438882,45.07441],[-108.443981,45.074401],[-108.44908,45.074392],[-108.45418,45.074383],[-108.454187,45.078],[-108.454194,45.081616],[-108.454195,45.085233],[-108.454197,45.088866],[-108.449087,45.088866],[-108.443977,45.088866]]]}},{"type":"Feature","properties":{"sec":"12","frstdivid":"MT200090S0270E0SN120"},"geometry":{"type":"Polygon","coordinates":[[[-108.352149,45.059987],[-108.357259,45.059983],[-108.362369,45.059979],[-108.367479,45.059975],[-108.37259,45.059971],[-108.372567,45.063588],[-108.372544,45.067205],[-108.372522,45.070823],[-108.372499,45.07444],[-108.367389,45.074444],[-108.362279,45.074448],[-108.357169,45.074452],[-108.352059,45.074457],[-108.352081,45.070839],[-108.352104,45.067222],[-108.352126,45.063604],[-108.352149,45.059987]]]}},{"type":"Feature","properties":{"sec":"02","frstdivid":"MT200090S0270E0SN020"},"geometry":{"type":"Polygon","coordinates":[[[-108.392965,45.074418],[-108.39294,45.078031],[-108.392915,45.081645],[-108.392898,45.085261],[-108.39288,45.088867],[-108.387771,45.088867],[-108.382661,45.088867],[-108.377551,45.088867],[-108.372441,45.088867],[-108.372452,45.085304],[-108.372463,45.081683],[-108.372481,45.078062],[-108.372499,45.07444],[-108.377615,45.074435],[-108.382732,45.074429],[-108.387848,45.074424],[-108.392965,45.074418]]]}},{"type":"Feature","properties":{"sec":"10","frstdivid":"MT200090S0270E0SN100"},"geometry":{"type":"Polygon","coordinates":[[[-108.393019,45.059962],[-108.398129,45.059961],[-108.403239,45.05996],[-108.408349,45.05996],[-108.41346,45.059959],[-108.413447,45.06358],[-108.413434,45.067202],[-108.413421,45.070823],[-108.413408,45.074444],[-108.408297,45.074438],[-108.403186,45.074431],[-108.398076,45.074425],[-108.392965,45.074418],[-108.392978,45.070804],[-108.392992,45.06719],[-108.393005,45.063576],[-108.393019,45.059962]]]}},{"type":"Feature","properties":{"sec":"09","frstdivid":"MT200090S0270E0SN090"},"geometry":{"type":"Polygon","coordinates":[[[-108.433825,45.063556],[-108.433811,45.067177],[-108.433797,45.070798],[-108.433783,45.074418],[-108.428689,45.074425],[-108.423595,45.074431],[-108.418502,45.074438],[-108.413408,45.074444],[-108.413421,45.070823],[-108.413434,45.067202],[-108.413447,45.06358],[-108.41346,45.059959],[-108.418555,45.059953],[-108.42365,45.059947],[-108.428745,45.059941],[-108.43384,45.059936],[-108.433825,45.063556]]]}},{"type":"Feature","properties":{"sec":"04","frstdivid":"MT200090S0270E0SN040"},"geometry":{"type":"Polygon","coordinates":[[[-108.423595,45.074431],[-108.428689,45.074425],[-108.433783,45.074418],[-108.433775,45.078038],[-108.433767,45.081659],[-108.433763,45.085279],[-108.433758,45.088866],[-108.428648,45.088866],[-108.423539,45.088866],[-108.418429,45.088866],[-108.413319,45.088866],[-108.413338,45.085313],[-108.413357,45.081691],[-108.413383,45.078068],[-108.413408,45.074444],[-108.418502,45.074438],[-108.423595,45.074431]]]}},{"type":"Feature","properties":{"sec":"06","frstdivid":"MT200090S0270E0SN060"},"geometry":{"type":"Polygon","coordinates":[[[-108.474383,45.074404],[-108.474401,45.078019],[-108.474419,45.081635],[-108.474436,45.08525],[-108.474454,45.088865],[-108.46953,45.088865],[-108.464419,45.088865],[-108.459308,45.088866],[-108.454197,45.088866],[-108.454195,45.085233],[-108.454194,45.081616],[-108.454187,45.078],[-108.45418,45.074383],[-108.459283,45.074389],[-108.464386,45.074395],[-108.469492,45.0744],[-108.474383,45.074404]]]}},{"type":"Feature","properties":{"sec":"16","frstdivid":"MT200090S0270E0SN160"},"geometry":{"type":"Polygon","coordinates":[[[-108.41346,45.059959],[-108.413468,45.056336],[-108.413476,45.052714],[-108.413484,45.049092],[-108.413492,45.04547],[-108.418598,45.045468],[-108.423704,45.045466],[-108.428809,45.045465],[-108.433915,45.045463],[-108.433896,45.049081],[-108.433877,45.052699],[-108.433858,45.056317],[-108.43384,45.059936],[-108.428745,45.059941],[-108.42365,45.059947],[-108.418555,45.059953],[-108.41346,45.059959]]]}},{"type":"Feature","properties":{"sec":"24","frstdivid":"MT200090S0270E0SN240"},"geometry":{"type":"Polygon","coordinates":[[[-108.352132,45.031047],[-108.357333,45.031051],[-108.36245,45.031053],[-108.367566,45.031054],[-108.370125,45.031055],[-108.372683,45.031056],[-108.372668,45.034675],[-108.372653,45.038294],[-108.372654,45.041906],[-108.372654,45.045519],[-108.367534,45.045521],[-108.362415,45.045524],[-108.357295,45.045526],[-108.352176,45.045529],[-108.352186,45.041909],[-108.352196,45.03829],[-108.352206,45.03467],[-108.352132,45.031047]]]}},{"type":"Feature","properties":{"sec":"36","frstdivid":"MT200090S0270E0SN360"},"geometry":{"type":"Polygon","coordinates":[[[-108.35738,45.016556],[-108.35227,45.016554],[-108.352268,45.012938],[-108.352267,45.009313],[-108.352265,45.005691],[-108.352264,45.002069],[-108.357372,45.002069],[-108.362481,45.002068],[-108.36759,45.002067],[-108.372699,45.002066],[-108.372702,45.005687],[-108.372705,45.009309],[-108.372708,45.012932],[-108.37271,45.016548],[-108.370155,45.016549],[-108.3676,45.016549],[-108.36249,45.016558],[-108.35738,45.016556]]]}},{"type":"Feature","properties":{"sec":"26","frstdivid":"MT200090S0270E0SN260"},"geometry":{"type":"Polygon","coordinates":[[[-108.372683,45.031056],[-108.372688,45.027427],[-108.372692,45.023798],[-108.37269,45.021987],[-108.37269,45.021081],[-108.372689,45.020176],[-108.37271,45.016548],[-108.377803,45.016547],[-108.382896,45.016545],[-108.387989,45.016543],[-108.393089,45.016541],[-108.393116,45.020168],[-108.393098,45.023769],[-108.39309,45.027379],[-108.393083,45.030988],[-108.387993,45.031],[-108.382903,45.031013],[-108.377793,45.031034],[-108.372683,45.031056]]]}},{"type":"Feature","properties":{"sec":"35","frstdivid":"MT200090S0270E0SN350"},"geometry":{"type":"Polygon","coordinates":[[[-108.372699,45.002066],[-108.377791,45.002064],[-108.382882,45.002062],[-108.387973,45.00206],[-108.393065,45.002058],[-108.393069,45.00568],[-108.393073,45.009301],[-108.393077,45.012923],[-108.393089,45.016541],[-108.387989,45.016543],[-108.382896,45.016545],[-108.377803,45.016547],[-108.37271,45.016548],[-108.372708,45.012932],[-108.372705,45.009309],[-108.372702,45.005687],[-108.372699,45.002066]]]}},{"type":"Feature","properties":{"sec":"31","frstdivid":"MT200090S0270E0SN310"},"geometry":{"type":"Polygon","coordinates":[[[-108.469698,45.016533],[-108.464591,45.016532],[-108.459484,45.016531],[-108.454377,45.016529],[-108.454376,45.01291],[-108.454375,45.009289],[-108.454375,45.005669],[-108.454374,45.002049],[-108.45948,45.00205],[-108.464586,45.002052],[-108.469692,45.002053],[-108.47456,45.002054],[-108.474562,45.005674],[-108.474564,45.009294],[-108.474566,45.012914],[-108.474568,45.016534],[-108.469698,45.016533]]]}},{"type":"Feature","properties":{"sec":"33","frstdivid":"MT200090S0270E0SN330"},"geometry":{"type":"Polygon","coordinates":[[[-108.41357,45.012911],[-108.413564,45.009289],[-108.413559,45.005668],[-108.413553,45.002047],[-108.418656,45.002044],[-108.423758,45.00204],[-108.42886,45.002036],[-108.433958,45.002039],[-108.433958,45.00566],[-108.433957,45.009281],[-108.433956,45.012901],[-108.433956,45.016521],[-108.428886,45.016518],[-108.423782,45.016522],[-108.418679,45.016526],[-108.413582,45.016529],[-108.41357,45.012911]]]}},{"type":"Feature","properties":{"sec":"19","frstdivid":"MT200090S0270E0SN190"},"geometry":{"type":"Polygon","coordinates":[[[-108.474576,45.031005],[-108.474472,45.03459],[-108.474473,45.03821],[-108.474474,45.04183],[-108.474475,45.04545],[-108.469616,45.04545],[-108.464507,45.045449],[-108.459395,45.045449],[-108.454283,45.045448],[-108.454289,45.041832],[-108.454296,45.038215],[-108.454302,45.034599],[-108.454333,45.030998],[-108.459442,45.031],[-108.464551,45.031002],[-108.469705,45.031004],[-108.474576,45.031005]]]}},{"type":"Feature","properties":{"sec":"28","frstdivid":"MT200090S0270E0SN280"},"geometry":{"type":"Polygon","coordinates":[[[-108.433931,45.030987],[-108.428794,45.030983],[-108.423704,45.030986],[-108.418614,45.030989],[-108.413524,45.030991],[-108.413523,45.02737],[-108.413522,45.02375],[-108.413521,45.020129],[-108.413582,45.016529],[-108.418679,45.016526],[-108.423782,45.016522],[-108.428886,45.016518],[-108.433956,45.016521],[-108.433955,45.020128],[-108.433947,45.023747],[-108.433939,45.027367],[-108.433931,45.030987]]]}},{"type":"Feature","properties":{"sec":"21","frstdivid":"MT200090S0270E0SN210"},"geometry":{"type":"Polygon","coordinates":[[[-108.413516,45.034611],[-108.413524,45.030991],[-108.418614,45.030989],[-108.423704,45.030986],[-108.428794,45.030983],[-108.433931,45.030987],[-108.433892,45.034601],[-108.433899,45.038222],[-108.433907,45.041842],[-108.433915,45.045463],[-108.428809,45.045465],[-108.423704,45.045466],[-108.418598,45.045468],[-108.413492,45.04547],[-108.4135,45.04185],[-108.413508,45.038231],[-108.413516,45.034611]]]}}]}