{"type":"FeatureCollection","note":"BLM Public Land Survey System. Provided by the Bureau of Land Management as is. These data are neither legal documents nor land surveys and must not be used as such.","features":[{"type":"Feature","properties":{"sec":"29","frstdivid":"MT200050S0570E0SN290"},"geometry":{"type":"Polygon","coordinates":[[[-104.697212,45.370673],[-104.702374,45.370716],[-104.707535,45.37076],[-104.712697,45.370804],[-104.717858,45.370848],[-104.717768,45.37448],[-104.717678,45.378112],[-104.717588,45.381745],[-104.717497,45.385377],[-104.712373,45.385346],[-104.707248,45.385314],[-104.702124,45.385283],[-104.696999,45.385251],[-104.697052,45.381607],[-104.697106,45.377962],[-104.697159,45.374317],[-104.697212,45.370673]]]}},{"type":"Feature","properties":{"sec":"31","frstdivid":"MT200050S0570E0SN310"},"geometry":{"type":"Polygon","coordinates":[[[-104.738712,45.362793],[-104.738694,45.36363],[-104.738633,45.366417],[-104.738613,45.367264],[-104.73855,45.370037],[-104.73853,45.370899],[-104.733302,45.370894],[-104.728159,45.37089],[-104.723009,45.370869],[-104.717858,45.370848],[-104.717939,45.3672],[-104.71802,45.363551],[-104.718101,45.359903],[-104.718182,45.356255],[-104.722425,45.356273],[-104.723349,45.356277],[-104.727565,45.356295],[-104.728516,45.356299],[-104.732705,45.356322],[-104.733683,45.356328],[-104.737828,45.356352],[-104.738851,45.356358],[-104.738789,45.359169],[-104.738772,45.359994],[-104.738712,45.362793]]]}},{"type":"Feature","properties":{"sec":"18","frstdivid":"MT200050S0570E0SN180"},"geometry":{"type":"Polygon","coordinates":[[[-104.737549,45.414558],[-104.732327,45.414532],[-104.727119,45.414506],[-104.72191,45.414479],[-104.716701,45.414453],[-104.716804,45.41082],[-104.716907,45.407187],[-104.717011,45.403553],[-104.717114,45.39992],[-104.722304,45.399939],[-104.727495,45.399958],[-104.732684,45.399974],[-104.737874,45.399991],[-104.737816,45.402628],[-104.737794,45.403634],[-104.737736,45.406255],[-104.737714,45.407277],[-104.737656,45.409882],[-104.737632,45.410917],[-104.737573,45.413506],[-104.737549,45.414558]]]}},{"type":"Feature","properties":{"sec":"13","frstdivid":"MT200050S0570E0SN130"},"geometry":{"type":"Polygon","coordinates":[[[-104.634308,45.409875],[-104.634222,45.413524],[-104.629047,45.413463],[-104.623873,45.413402],[-104.618698,45.41334],[-104.613523,45.413278],[-104.61358,45.40964],[-104.613637,45.406002],[-104.613694,45.402364],[-104.613751,45.398726],[-104.618917,45.398792],[-104.624082,45.398857],[-104.629248,45.398923],[-104.634413,45.398989],[-104.634404,45.402607],[-104.634395,45.406226],[-104.634308,45.409875]]]}},{"type":"Feature","properties":{"sec":"26","frstdivid":"MT200050S0570E0SN260"},"geometry":{"type":"Polygon","coordinates":[[[-104.650635,45.37016],[-104.6558,45.370237],[-104.655692,45.373867],[-104.655584,45.377497],[-104.655476,45.381127],[-104.655367,45.384757],[-104.650198,45.384683],[-104.645028,45.384608],[-104.639884,45.384533],[-104.63474,45.384459],[-104.634863,45.380826],[-104.634986,45.377193],[-104.635063,45.373562],[-104.635139,45.369931],[-104.640304,45.370007],[-104.645469,45.370084],[-104.650635,45.37016]]]}},{"type":"Feature","properties":{"sec":"04","frstdivid":"MT200050S0570E0SN040"},"geometry":{"type":"Polygon","coordinates":[[[-104.690218,45.443148],[-104.685396,45.4431],[-104.685072,45.443097],[-104.680228,45.443049],[-104.679927,45.443046],[-104.675059,45.442998],[-104.675087,45.439457],[-104.675116,45.435843],[-104.675144,45.432229],[-104.675172,45.428615],[-104.680359,45.428694],[-104.685546,45.428774],[-104.690734,45.428854],[-104.695921,45.428933],[-104.695873,45.432523],[-104.695826,45.436112],[-104.695779,45.439702],[-104.695733,45.443202],[-104.695363,45.443199],[-104.690565,45.443151],[-104.690218,45.443148]]]}},{"type":"Feature","properties":{"sec":"10","frstdivid":"MT200050S0570E0SN100"},"geometry":{"type":"Polygon","coordinates":[[[-104.675303,45.417777],[-104.67526,45.42139],[-104.675216,45.425002],[-104.675172,45.428615],[-104.670004,45.428557],[-104.664835,45.4285],[-104.659666,45.428443],[-104.654498,45.428385],[-104.654541,45.424748],[-104.654584,45.42111],[-104.654628,45.417473],[-104.654671,45.413835],[-104.65984,45.413918],[-104.665009,45.414],[-104.670178,45.414083],[-104.675347,45.414165],[-104.675303,45.417777]]]}},{"type":"Feature","properties":{"sec":"11","frstdivid":"MT200050S0570E0SN110"},"geometry":{"type":"Polygon","coordinates":[[[-104.654628,45.417473],[-104.654584,45.42111],[-104.654541,45.424748],[-104.654498,45.428385],[-104.649338,45.428308],[-104.644178,45.42823],[-104.639019,45.428152],[-104.633859,45.428075],[-104.633956,45.424437],[-104.634053,45.420799],[-104.634137,45.417161],[-104.634222,45.413524],[-104.639269,45.413608],[-104.644317,45.413692],[-104.649494,45.413764],[-104.654671,45.413835],[-104.654628,45.417473]]]}},{"type":"Feature","properties":{"sec":"25","frstdivid":"MT200050S0570E0SN250"},"geometry":{"type":"Polygon","coordinates":[[[-104.629989,45.369853],[-104.635139,45.369931],[-104.635063,45.373562],[-104.634986,45.377193],[-104.634863,45.380826],[-104.63474,45.384459],[-104.629596,45.384389],[-104.624452,45.38432],[-104.619295,45.38425],[-104.614138,45.384179],[-104.614235,45.380541],[-104.614331,45.376903],[-104.614435,45.373261],[-104.614539,45.369619],[-104.619689,45.369697],[-104.624839,45.369775],[-104.629989,45.369853]]]}},{"type":"Feature","properties":{"sec":"23","frstdivid":"MT200050S0570E0SN230"},"geometry":{"type":"Polygon","coordinates":[[[-104.655074,45.399277],[-104.649909,45.399208],[-104.644744,45.39914],[-104.639578,45.399064],[-104.634413,45.398989],[-104.634495,45.395356],[-104.634576,45.391723],[-104.634658,45.388091],[-104.63474,45.384459],[-104.639884,45.384533],[-104.645028,45.384608],[-104.650198,45.384683],[-104.655367,45.384757],[-104.655244,45.388387],[-104.655121,45.392017],[-104.655097,45.395647],[-104.655074,45.399277]]]}},{"type":"Feature","properties":{"sec":"36","frstdivid":"MT200050S0570E0SN360"},"geometry":{"type":"Polygon","coordinates":[[[-104.619689,45.369697],[-104.614539,45.369619],[-104.614642,45.365974],[-104.614745,45.362329],[-104.614848,45.358684],[-104.614951,45.355039],[-104.619009,45.355092],[-104.620108,45.355107],[-104.624144,45.35516],[-104.625265,45.355175],[-104.629279,45.355247],[-104.630419,45.355268],[-104.634413,45.35534],[-104.635574,45.355361],[-104.635465,45.359003],[-104.635356,45.362646],[-104.635248,45.366289],[-104.635139,45.369931],[-104.629989,45.369853],[-104.624839,45.369775],[-104.619689,45.369697]]]}},{"type":"Feature","properties":{"sec":"08","frstdivid":"MT200050S0570E0SN080"},"geometry":{"type":"Polygon","coordinates":[[[-104.701052,45.428958],[-104.695921,45.428933],[-104.695948,45.425285],[-104.695975,45.421637],[-104.696033,45.418008],[-104.696092,45.414379],[-104.7012,45.414394],[-104.706307,45.414409],[-104.711504,45.414431],[-104.716701,45.414453],[-104.716593,45.418113],[-104.716484,45.421773],[-104.716465,45.425402],[-104.716445,45.429032],[-104.711314,45.429007],[-104.706183,45.428982],[-104.701052,45.428958]]]}},{"type":"Feature","properties":{"sec":"16","frstdivid":"MT200050S0570E0SN160"},"geometry":{"type":"Polygon","coordinates":[[[-104.696092,45.414379],[-104.690906,45.414313],[-104.68572,45.414248],[-104.680533,45.414206],[-104.675347,45.414165],[-104.67544,45.410521],[-104.675534,45.406878],[-104.675628,45.403234],[-104.675721,45.39959],[-104.680891,45.399645],[-104.68606,45.3997],[-104.691229,45.399752],[-104.696397,45.399804],[-104.69632,45.403448],[-104.696243,45.407092],[-104.696167,45.410735],[-104.696092,45.414379]]]}},{"type":"Feature","properties":{"sec":"02","frstdivid":"MT200050S0570E0SN020"},"geometry":{"type":"Polygon","coordinates":[[[-104.633793,45.435329],[-104.633826,45.431702],[-104.633859,45.428075],[-104.639019,45.428152],[-104.644178,45.42823],[-104.649338,45.428308],[-104.654498,45.428385],[-104.65448,45.432025],[-104.654462,45.435664],[-104.654432,45.439251],[-104.654402,45.442799],[-104.654217,45.442797],[-104.649233,45.442745],[-104.649071,45.442743],[-104.644063,45.442691],[-104.643924,45.442689],[-104.638894,45.442637],[-104.638778,45.442635],[-104.633724,45.442583],[-104.633759,45.438956],[-104.633793,45.435329]]]}},{"type":"Feature","properties":{"sec":"12","frstdivid":"MT200050S0570E0SN120"},"geometry":{"type":"Polygon","coordinates":[[[-104.613466,45.416913],[-104.613523,45.413278],[-104.618698,45.41334],[-104.623873,45.413402],[-104.629047,45.413463],[-104.634222,45.413524],[-104.634137,45.417161],[-104.634053,45.420799],[-104.633956,45.424437],[-104.633859,45.428075],[-104.628664,45.428009],[-104.623469,45.427942],[-104.618381,45.42788],[-104.613293,45.427817],[-104.613351,45.424182],[-104.613408,45.420548],[-104.613466,45.416913]]]}},{"type":"Feature","properties":{"sec":"28","frstdivid":"MT200050S0570E0SN280"},"geometry":{"type":"Polygon","coordinates":[[[-104.692035,45.370616],[-104.697212,45.370673],[-104.697159,45.374317],[-104.697106,45.377962],[-104.697052,45.381607],[-104.696999,45.385251],[-104.691783,45.385198],[-104.686567,45.385146],[-104.681351,45.385092],[-104.676135,45.385039],[-104.676227,45.381391],[-104.676319,45.377744],[-104.676411,45.374096],[-104.676503,45.370448],[-104.68168,45.370504],[-104.686857,45.37056],[-104.692035,45.370616]]]}},{"type":"Feature","properties":{"sec":"19","frstdivid":"MT200050S0570E0SN190"},"geometry":{"type":"Polygon","coordinates":[[[-104.732968,45.385429],[-104.7382,45.385447],[-104.738141,45.388143],[-104.73812,45.389082],[-104.738061,45.391764],[-104.73804,45.392718],[-104.737981,45.395386],[-104.737959,45.396354],[-104.737897,45.399007],[-104.737874,45.399991],[-104.732684,45.399974],[-104.727495,45.399958],[-104.722304,45.399939],[-104.717114,45.39992],[-104.71721,45.396284],[-104.717306,45.392649],[-104.717401,45.389013],[-104.717497,45.385377],[-104.722634,45.385394],[-104.727771,45.385411],[-104.732968,45.385429]]]}},{"type":"Feature","properties":{"sec":"14","frstdivid":"MT200050S0570E0SN140"},"geometry":{"type":"Polygon","coordinates":[[[-104.634404,45.402607],[-104.634413,45.398989],[-104.639578,45.399064],[-104.644744,45.39914],[-104.649909,45.399208],[-104.655074,45.399277],[-104.654973,45.402916],[-104.654873,45.406556],[-104.654772,45.410196],[-104.654671,45.413835],[-104.649494,45.413764],[-104.644317,45.413692],[-104.639269,45.413608],[-104.634222,45.413524],[-104.634308,45.409875],[-104.634395,45.406226],[-104.634404,45.402607]]]}},{"type":"Feature","properties":{"sec":"35","frstdivid":"MT200050S0570E0SN350"},"geometry":{"type":"Polygon","coordinates":[[[-104.654952,45.355629],[-104.656215,45.355646],[-104.656111,45.359294],[-104.656007,45.362941],[-104.655904,45.366589],[-104.6558,45.370237],[-104.650635,45.37016],[-104.645469,45.370084],[-104.640304,45.370007],[-104.635139,45.369931],[-104.635248,45.366289],[-104.635356,45.362646],[-104.635465,45.359003],[-104.635574,45.355361],[-104.639551,45.355417],[-104.640736,45.355434],[-104.644688,45.355489],[-104.645899,45.355506],[-104.64982,45.355559],[-104.651057,45.355576],[-104.654952,45.355629]]]}},{"type":"Feature","properties":{"sec":"32","frstdivid":"MT200050S0570E0SN320"},"geometry":{"type":"Polygon","coordinates":[[[-104.707535,45.37076],[-104.702374,45.370716],[-104.697212,45.370673],[-104.697299,45.367035],[-104.697385,45.363398],[-104.697471,45.359761],[-104.697558,45.356123],[-104.701859,45.356149],[-104.702705,45.356154],[-104.707002,45.35618],[-104.707851,45.356185],[-104.712145,45.356214],[-104.713017,45.35622],[-104.717285,45.356249],[-104.718182,45.356255],[-104.718101,45.359903],[-104.71802,45.363551],[-104.717939,45.3672],[-104.717858,45.370848],[-104.712697,45.370804],[-104.707535,45.37076]]]}},{"type":"Feature","properties":{"sec":"03","frstdivid":"MT200050S0570E0SN030"},"geometry":{"type":"Polygon","coordinates":[[[-104.674782,45.442995],[-104.669895,45.442948],[-104.66964,45.442946],[-104.664731,45.442899],[-104.664499,45.442896],[-104.659566,45.442849],[-104.659358,45.442847],[-104.654402,45.442799],[-104.654432,45.439251],[-104.654462,45.435664],[-104.65448,45.432025],[-104.654498,45.428385],[-104.659666,45.428443],[-104.664835,45.4285],[-104.670004,45.428557],[-104.675172,45.428615],[-104.675144,45.432229],[-104.675116,45.435843],[-104.675087,45.439457],[-104.675059,45.442998],[-104.674782,45.442995]]]}},{"type":"Feature","properties":{"sec":"06","frstdivid":"MT200050S0570E0SN060"},"geometry":{"type":"Polygon","coordinates":[[[-104.734944,45.443589],[-104.731859,45.443558],[-104.731391,45.443553],[-104.726706,45.443505],[-104.726246,45.443501],[-104.721557,45.443452],[-104.721096,45.443447],[-104.716409,45.443398],[-104.716398,45.43989],[-104.716387,45.436306],[-104.716416,45.432669],[-104.716445,45.429032],[-104.721651,45.42905],[-104.726856,45.429067],[-104.732061,45.429085],[-104.737217,45.429103],[-104.737161,45.431612],[-104.737135,45.432739],[-104.737079,45.435234],[-104.737053,45.436376],[-104.737039,45.438855],[-104.737033,45.439995],[-104.737016,45.442807],[-104.737012,45.443614],[-104.734944,45.443589]]]}},{"type":"Feature","properties":{"sec":"22","frstdivid":"MT200050S0570E0SN220"},"geometry":{"type":"Polygon","coordinates":[[[-104.660209,45.399354],[-104.655074,45.399277],[-104.655097,45.395647],[-104.655121,45.392017],[-104.655244,45.388387],[-104.655367,45.384757],[-104.660541,45.384828],[-104.665714,45.384898],[-104.670925,45.384968],[-104.676135,45.385039],[-104.676032,45.388677],[-104.675928,45.392315],[-104.675825,45.395953],[-104.675721,45.39959],[-104.670532,45.399511],[-104.665343,45.399432],[-104.660209,45.399354]]]}},{"type":"Feature","properties":{"sec":"24","frstdivid":"MT200050S0570E0SN240"},"geometry":{"type":"Polygon","coordinates":[[[-104.613848,45.395089],[-104.613945,45.391453],[-104.614042,45.387816],[-104.614138,45.384179],[-104.619295,45.38425],[-104.624452,45.38432],[-104.629596,45.384389],[-104.63474,45.384459],[-104.634658,45.388091],[-104.634576,45.391723],[-104.634495,45.395356],[-104.634413,45.398989],[-104.629248,45.398923],[-104.624082,45.398857],[-104.618917,45.398792],[-104.613751,45.398726],[-104.613848,45.395089]]]}},{"type":"Feature","properties":{"sec":"17","frstdivid":"MT200050S0570E0SN170"},"geometry":{"type":"Polygon","coordinates":[[[-104.716804,45.41082],[-104.716701,45.414453],[-104.711504,45.414431],[-104.706307,45.414409],[-104.7012,45.414394],[-104.696092,45.414379],[-104.696167,45.410735],[-104.696243,45.407092],[-104.69632,45.403448],[-104.696397,45.399804],[-104.701577,45.399833],[-104.706756,45.399862],[-104.711935,45.399891],[-104.717114,45.39992],[-104.717011,45.403553],[-104.716907,45.407187],[-104.716804,45.41082]]]}},{"type":"Feature","properties":{"sec":"15","frstdivid":"MT200050S0570E0SN150"},"geometry":{"type":"Polygon","coordinates":[[[-104.654973,45.402916],[-104.655074,45.399277],[-104.660209,45.399354],[-104.665343,45.399432],[-104.670532,45.399511],[-104.675721,45.39959],[-104.675628,45.403234],[-104.675534,45.406878],[-104.67544,45.410521],[-104.675347,45.414165],[-104.670178,45.414083],[-104.665009,45.414],[-104.65984,45.413918],[-104.654671,45.413835],[-104.654772,45.410196],[-104.654873,45.406556],[-104.654973,45.402916]]]}},{"type":"Feature","properties":{"sec":"01","frstdivid":"MT200050S0570E0SN010"},"geometry":{"type":"Polygon","coordinates":[[[-104.628664,45.428009],[-104.633859,45.428075],[-104.633826,45.431702],[-104.633793,45.435329],[-104.633759,45.438956],[-104.633724,45.442583],[-104.633632,45.442582],[-104.62856,45.442527],[-104.62849,45.442526],[-104.623396,45.442471],[-104.623349,45.442471],[-104.618231,45.442416],[-104.618208,45.442416],[-104.613067,45.44236],[-104.613124,45.438725],[-104.61318,45.435087],[-104.613237,45.431452],[-104.613293,45.427817],[-104.618381,45.42788],[-104.623469,45.427942],[-104.628664,45.428009]]]}},{"type":"Feature","properties":{"sec":"30","frstdivid":"MT200050S0570E0SN300"},"geometry":{"type":"Polygon","coordinates":[[[-104.738222,45.384522],[-104.7382,45.385447],[-104.732968,45.385429],[-104.727771,45.385411],[-104.722634,45.385394],[-104.717497,45.385377],[-104.717588,45.381745],[-104.717678,45.378112],[-104.717768,45.37448],[-104.717858,45.370848],[-104.723009,45.370869],[-104.728159,45.37089],[-104.733302,45.370894],[-104.73853,45.370899],[-104.738469,45.373658],[-104.738449,45.374535],[-104.738388,45.37728],[-104.738368,45.378171],[-104.738307,45.380901],[-104.738285,45.381809],[-104.738222,45.384522]]]}},{"type":"Feature","properties":{"sec":"20","frstdivid":"MT200050S0570E0SN200"},"geometry":{"type":"Polygon","coordinates":[[[-104.717114,45.39992],[-104.711935,45.399891],[-104.706756,45.399862],[-104.701577,45.399833],[-104.696397,45.399804],[-104.696548,45.396166],[-104.696698,45.392528],[-104.696849,45.38889],[-104.696999,45.385251],[-104.702124,45.385283],[-104.707248,45.385314],[-104.712373,45.385346],[-104.717497,45.385377],[-104.717401,45.389013],[-104.717306,45.392649],[-104.71721,45.396284],[-104.717114,45.39992]]]}},{"type":"Feature","properties":{"sec":"21","frstdivid":"MT200050S0570E0SN210"},"geometry":{"type":"Polygon","coordinates":[[[-104.675825,45.395953],[-104.675928,45.392315],[-104.676032,45.388677],[-104.676135,45.385039],[-104.681351,45.385092],[-104.686567,45.385146],[-104.691783,45.385198],[-104.696999,45.385251],[-104.696849,45.38889],[-104.696698,45.392528],[-104.696548,45.396166],[-104.696397,45.399804],[-104.691229,45.399752],[-104.68606,45.3997],[-104.680891,45.399645],[-104.675721,45.39959],[-104.675825,45.395953]]]}},{"type":"Feature","properties":{"sec":"05","frstdivid":"MT200050S0570E0SN050"},"geometry":{"type":"Polygon","coordinates":[[[-104.705654,45.443296],[-104.700902,45.443251],[-104.700509,45.443247],[-104.695733,45.443202],[-104.695779,45.439702],[-104.695826,45.436112],[-104.695873,45.432523],[-104.695921,45.428933],[-104.701052,45.428958],[-104.706183,45.428982],[-104.711314,45.429007],[-104.716445,45.429032],[-104.716416,45.432669],[-104.716387,45.436306],[-104.716398,45.43989],[-104.716409,45.443398],[-104.715946,45.443394],[-104.71124,45.443349],[-104.7108,45.443345],[-104.706071,45.4433],[-104.705654,45.443296]]]}},{"type":"Feature","properties":{"sec":"07","frstdivid":"MT200050S0570E0SN070"},"geometry":{"type":"Polygon","coordinates":[[[-104.716701,45.414453],[-104.72191,45.414479],[-104.727119,45.414506],[-104.732327,45.414532],[-104.737549,45.414558],[-104.737491,45.41713],[-104.737467,45.418195],[-104.73741,45.420751],[-104.737386,45.421831],[-104.737329,45.424372],[-104.737303,45.425467],[-104.737244,45.427992],[-104.737217,45.429103],[-104.732061,45.429085],[-104.726856,45.429067],[-104.721651,45.42905],[-104.716445,45.429032],[-104.716465,45.425402],[-104.716484,45.421773],[-104.716593,45.418113],[-104.716701,45.414453]]]}},{"type":"Feature","properties":{"sec":"33","frstdivid":"MT200050S0570E0SN330"},"geometry":{"type":"Polygon","coordinates":[[[-104.696717,45.356114],[-104.697558,45.356123],[-104.697471,45.359761],[-104.697385,45.363398],[-104.697299,45.367035],[-104.697212,45.370673],[-104.692035,45.370616],[-104.686857,45.37056],[-104.68168,45.370504],[-104.676503,45.370448],[-104.676594,45.366808],[-104.676685,45.363167],[-104.676776,45.359527],[-104.676866,45.355886],[-104.681286,45.35594],[-104.682038,45.35595],[-104.68643,45.356004],[-104.68721,45.356013],[-104.691574,45.35606],[-104.692384,45.356068],[-104.696717,45.356114]]]}},{"type":"Feature","properties":{"sec":"27","frstdivid":"MT200050S0570E0SN270"},"geometry":{"type":"Polygon","coordinates":[[[-104.676227,45.381391],[-104.676135,45.385039],[-104.670925,45.384968],[-104.665714,45.384898],[-104.660541,45.384828],[-104.655367,45.384757],[-104.655476,45.381127],[-104.655584,45.377497],[-104.655692,45.373867],[-104.6558,45.370237],[-104.660976,45.370289],[-104.666151,45.370342],[-104.671327,45.370395],[-104.676503,45.370448],[-104.676411,45.374096],[-104.676319,45.377744],[-104.676227,45.381391]]]}},{"type":"Feature","properties":{"sec":"09","frstdivid":"MT200050S0570E0SN090"},"geometry":{"type":"Polygon","coordinates":[[[-104.68572,45.414248],[-104.690906,45.414313],[-104.696092,45.414379],[-104.696033,45.418008],[-104.695975,45.421637],[-104.695948,45.425285],[-104.695921,45.428933],[-104.690734,45.428854],[-104.685546,45.428774],[-104.680359,45.428694],[-104.675172,45.428615],[-104.675216,45.425002],[-104.67526,45.42139],[-104.675303,45.417777],[-104.675347,45.414165],[-104.680533,45.414206],[-104.68572,45.414248]]]}},{"type":"Feature","properties":{"sec":"34","frstdivid":"MT200050S0570E0SN340"},"geometry":{"type":"Polygon","coordinates":[[[-104.676142,45.355879],[-104.676866,45.355886],[-104.676776,45.359527],[-104.676685,45.363167],[-104.676594,45.366808],[-104.676503,45.370448],[-104.671327,45.370395],[-104.666151,45.370342],[-104.660976,45.370289],[-104.6558,45.370237],[-104.655904,45.366589],[-104.656007,45.362941],[-104.656111,45.359294],[-104.656215,45.355646],[-104.660085,45.355695],[-104.661383,45.355712],[-104.665218,45.35576],[-104.666552,45.355777],[-104.670997,45.355824],[-104.671709,45.355831],[-104.676142,45.355879]]]}}]}