{"type":"FeatureCollection","note":"BLM Public Land Survey System. Provided by the Bureau of Land Management as is. These data are neither legal documents nor land surveys and must not be used as such.","features":[{"type":"Feature","properties":{"sec":"16","frstdivid":"MT200110N0480E0SN160"},"geometry":{"type":"Polygon","coordinates":[[[-105.686545,46.701534],[-105.691796,46.70154],[-105.697046,46.701546],[-105.702297,46.701552],[-105.702301,46.705179],[-105.702306,46.708805],[-105.702311,46.712432],[-105.702316,46.716058],[-105.697064,46.716051],[-105.691813,46.716045],[-105.686561,46.716038],[-105.68131,46.716031],[-105.681306,46.712405],[-105.681302,46.70878],[-105.681298,46.705154],[-105.681294,46.701528],[-105.686545,46.701534]]]}},{"type":"Feature","properties":{"sec":"14","frstdivid":"MT200110N0480E0SN140"},"geometry":{"type":"Polygon","coordinates":[[[-105.649667,46.701479],[-105.654938,46.701491],[-105.66021,46.701502],[-105.660215,46.705126],[-105.66022,46.708749],[-105.660226,46.712373],[-105.660231,46.715996],[-105.654959,46.715984],[-105.649688,46.715972],[-105.644416,46.71596],[-105.639145,46.715948],[-105.63914,46.712325],[-105.639134,46.708702],[-105.639129,46.705079],[-105.639124,46.701455],[-105.644395,46.701467],[-105.649667,46.701479]]]}},{"type":"Feature","properties":{"sec":"15","frstdivid":"MT200110N0480E0SN150"},"geometry":{"type":"Polygon","coordinates":[[[-105.660226,46.712373],[-105.66022,46.708749],[-105.660215,46.705126],[-105.66021,46.701502],[-105.665481,46.701509],[-105.670752,46.701515],[-105.676023,46.701522],[-105.681294,46.701528],[-105.681298,46.705154],[-105.681302,46.70878],[-105.681306,46.712405],[-105.68131,46.716031],[-105.67604,46.716023],[-105.67077,46.716014],[-105.665501,46.716005],[-105.660231,46.715996],[-105.660226,46.712373]]]}},{"type":"Feature","properties":{"sec":"23","frstdivid":"MT200110N0480E0SN230"},"geometry":{"type":"Polygon","coordinates":[[[-105.639089,46.690584],[-105.639078,46.68696],[-105.644351,46.686976],[-105.649623,46.686991],[-105.654896,46.687006],[-105.660169,46.687021],[-105.660179,46.690642],[-105.66019,46.694262],[-105.6602,46.697882],[-105.66021,46.701502],[-105.654938,46.701491],[-105.649667,46.701479],[-105.644395,46.701467],[-105.639124,46.701455],[-105.639112,46.697832],[-105.639101,46.694208],[-105.639089,46.690584]]]}},{"type":"Feature","properties":{"sec":"26","frstdivid":"MT200110N0480E0SN260"},"geometry":{"type":"Polygon","coordinates":[[[-105.644351,46.686976],[-105.639078,46.68696],[-105.639068,46.683338],[-105.639059,46.679715],[-105.639049,46.676093],[-105.63904,46.67247],[-105.644311,46.672479],[-105.649582,46.672487],[-105.654853,46.672496],[-105.660124,46.672504],[-105.660135,46.676133],[-105.660147,46.679763],[-105.660158,46.683392],[-105.660169,46.687021],[-105.654896,46.687006],[-105.649623,46.686991],[-105.644351,46.686976]]]}},{"type":"Feature","properties":{"sec":"20","frstdivid":"MT200110N0480E0SN200"},"geometry":{"type":"Polygon","coordinates":[[[-105.707564,46.687072],[-105.712844,46.687083],[-105.718123,46.687093],[-105.723403,46.687104],[-105.723407,46.690727],[-105.72341,46.69435],[-105.723414,46.697972],[-105.723418,46.701595],[-105.718137,46.701585],[-105.712857,46.701574],[-105.707577,46.701563],[-105.702297,46.701552],[-105.702294,46.69793],[-105.702291,46.694307],[-105.702288,46.690685],[-105.702285,46.687062],[-105.707564,46.687072]]]}},{"type":"Feature","properties":{"sec":"24","frstdivid":"MT200110N0480E0SN240"},"geometry":{"type":"Polygon","coordinates":[[[-105.633821,46.686953],[-105.639078,46.68696],[-105.639089,46.690584],[-105.639101,46.694208],[-105.639112,46.697832],[-105.639124,46.701455],[-105.633866,46.70144],[-105.628607,46.701425],[-105.623349,46.70141],[-105.618091,46.701395],[-105.61808,46.697778],[-105.61807,46.694162],[-105.61806,46.690546],[-105.618049,46.686929],[-105.623306,46.686937],[-105.628564,46.686945],[-105.633821,46.686953]]]}},{"type":"Feature","properties":{"sec":"32","frstdivid":"MT200110N0480E0SN320"},"geometry":{"type":"Polygon","coordinates":[[[-105.718065,46.658108],[-105.723341,46.658114],[-105.723348,46.661738],[-105.723355,46.665361],[-105.723363,46.668985],[-105.72337,46.672609],[-105.718095,46.672602],[-105.712819,46.672595],[-105.707543,46.672588],[-105.702268,46.672581],[-105.70226,46.668958],[-105.702252,46.665336],[-105.702244,46.661714],[-105.702237,46.658091],[-105.707513,46.658097],[-105.712789,46.658103],[-105.718065,46.658108]]]}},{"type":"Feature","properties":{"sec":"17","frstdivid":"MT200110N0480E0SN170"},"geometry":{"type":"Polygon","coordinates":[[[-105.723435,46.712467],[-105.723441,46.716091],[-105.71816,46.716083],[-105.712879,46.716074],[-105.707597,46.716066],[-105.702316,46.716058],[-105.702311,46.712432],[-105.702306,46.708805],[-105.702301,46.705179],[-105.702297,46.701552],[-105.707577,46.701563],[-105.712857,46.701574],[-105.718137,46.701585],[-105.723418,46.701595],[-105.723423,46.705219],[-105.723429,46.708843],[-105.723435,46.712467]]]}},{"type":"Feature","properties":{"sec":"34","frstdivid":"MT200110N0480E0SN340"},"geometry":{"type":"Polygon","coordinates":[[[-105.675864,46.658015],[-105.681135,46.658022],[-105.681155,46.661652],[-105.681176,46.665281],[-105.681196,46.668911],[-105.681217,46.67254],[-105.675944,46.672531],[-105.67067,46.672522],[-105.665397,46.672513],[-105.660124,46.672504],[-105.660112,46.668875],[-105.6601,46.665246],[-105.660088,46.661618],[-105.660076,46.657989],[-105.665335,46.657998],[-105.670594,46.658008],[-105.675864,46.658015]]]}},{"type":"Feature","properties":{"sec":"29","frstdivid":"MT200110N0480E0SN290"},"geometry":{"type":"Polygon","coordinates":[[[-105.723395,46.68348],[-105.723403,46.687104],[-105.718123,46.687093],[-105.712844,46.687083],[-105.707564,46.687072],[-105.702285,46.687062],[-105.70228,46.683442],[-105.702276,46.679821],[-105.702272,46.676201],[-105.702268,46.672581],[-105.707543,46.672588],[-105.712819,46.672595],[-105.718095,46.672602],[-105.72337,46.672609],[-105.723379,46.676232],[-105.723387,46.679856],[-105.723395,46.68348]]]}},{"type":"Feature","properties":{"sec":"25","frstdivid":"MT200110N0480E0SN250"},"geometry":{"type":"Polygon","coordinates":[[[-105.618049,46.686929],[-105.618044,46.683292],[-105.618039,46.679655],[-105.618039,46.676051],[-105.618039,46.672448],[-105.623289,46.672453],[-105.628539,46.672459],[-105.63379,46.672464],[-105.63904,46.67247],[-105.639049,46.676093],[-105.639059,46.679715],[-105.639068,46.683338],[-105.639078,46.68696],[-105.633821,46.686953],[-105.628564,46.686945],[-105.623306,46.686937],[-105.618049,46.686929]]]}},{"type":"Feature","properties":{"sec":"22","frstdivid":"MT200110N0480E0SN220"},"geometry":{"type":"Polygon","coordinates":[[[-105.660169,46.687021],[-105.665444,46.687024],[-105.670718,46.687026],[-105.675993,46.687028],[-105.681267,46.68703],[-105.681274,46.690655],[-105.681281,46.694279],[-105.681288,46.697904],[-105.681294,46.701528],[-105.676023,46.701522],[-105.670752,46.701515],[-105.665481,46.701509],[-105.66021,46.701502],[-105.6602,46.697882],[-105.66019,46.694262],[-105.660179,46.690642],[-105.660169,46.687021]]]}},{"type":"Feature","properties":{"sec":"01","frstdivid":"MT200110N0480E0SN010"},"geometry":{"type":"Polygon","coordinates":[[[-105.639172,46.730457],[-105.639175,46.734081],[-105.639178,46.737705],[-105.639181,46.741326],[-105.639185,46.744958],[-105.633916,46.744953],[-105.628647,46.744948],[-105.623378,46.744944],[-105.618108,46.744939],[-105.618112,46.741317],[-105.618115,46.737695],[-105.618115,46.734069],[-105.618115,46.730442],[-105.623379,46.730446],[-105.628643,46.73045],[-105.633908,46.730453],[-105.639172,46.730457]]]}},{"type":"Feature","properties":{"sec":"05","frstdivid":"MT200110N0480E0SN050"},"geometry":{"type":"Polygon","coordinates":[[[-105.702394,46.74141],[-105.702377,46.73779],[-105.70236,46.734168],[-105.702343,46.730545],[-105.707617,46.730554],[-105.712891,46.730563],[-105.718165,46.730571],[-105.723438,46.73058],[-105.723448,46.734198],[-105.723459,46.737817],[-105.723474,46.741435],[-105.723489,46.745072],[-105.718219,46.745063],[-105.712949,46.745055],[-105.70768,46.745046],[-105.70241,46.745038],[-105.702394,46.74141]]]}},{"type":"Feature","properties":{"sec":"07","frstdivid":"MT200110N0480E0SN070"},"geometry":{"type":"Polygon","coordinates":[[[-105.728709,46.716097],[-105.733977,46.716102],[-105.739242,46.716106],[-105.743888,46.716109],[-105.743887,46.719735],[-105.743887,46.723361],[-105.743886,46.726988],[-105.743885,46.730614],[-105.739241,46.730606],[-105.733976,46.730597],[-105.728707,46.730588],[-105.723438,46.73058],[-105.723439,46.726957],[-105.72344,46.723335],[-105.72344,46.719713],[-105.723441,46.716091],[-105.728709,46.716097]]]}},{"type":"Feature","properties":{"sec":"33","frstdivid":"MT200110N0480E0SN330"},"geometry":{"type":"Polygon","coordinates":[[[-105.681135,46.658022],[-105.686405,46.658029],[-105.691675,46.658036],[-105.696956,46.658064],[-105.702237,46.658091],[-105.702244,46.661714],[-105.702252,46.665336],[-105.70226,46.668958],[-105.702268,46.672581],[-105.697005,46.672571],[-105.691742,46.67256],[-105.686479,46.67255],[-105.681217,46.67254],[-105.681196,46.668911],[-105.681176,46.665281],[-105.681155,46.661652],[-105.681135,46.658022]]]}},{"type":"Feature","properties":{"sec":"31","frstdivid":"MT200110N0480E0SN310"},"geometry":{"type":"Polygon","coordinates":[[[-105.728635,46.672615],[-105.72337,46.672609],[-105.723363,46.668985],[-105.723355,46.665361],[-105.723348,46.661738],[-105.723341,46.658114],[-105.728605,46.658122],[-105.73387,46.658129],[-105.739131,46.658137],[-105.743878,46.658145],[-105.743879,46.661767],[-105.743881,46.665389],[-105.743881,46.66901],[-105.743882,46.672632],[-105.739161,46.672627],[-105.7339,46.672622],[-105.728635,46.672615]]]}},{"type":"Feature","properties":{"sec":"19","frstdivid":"MT200110N0480E0SN190"},"geometry":{"type":"Polygon","coordinates":[[[-105.739205,46.701638],[-105.733943,46.701623],[-105.72868,46.701609],[-105.723418,46.701595],[-105.723414,46.697972],[-105.72341,46.69435],[-105.723407,46.690727],[-105.723403,46.687104],[-105.728668,46.687116],[-105.733933,46.687128],[-105.739194,46.687141],[-105.743887,46.687152],[-105.743885,46.690777],[-105.743883,46.694402],[-105.743881,46.698027],[-105.743879,46.701652],[-105.739205,46.701638]]]}},{"type":"Feature","properties":{"sec":"35","frstdivid":"MT200110N0480E0SN350"},"geometry":{"type":"Polygon","coordinates":[[[-105.660112,46.668875],[-105.660124,46.672504],[-105.654853,46.672496],[-105.649582,46.672487],[-105.644311,46.672479],[-105.63904,46.67247],[-105.639012,46.668841],[-105.638984,46.665212],[-105.638956,46.661583],[-105.638928,46.657954],[-105.6442,46.657965],[-105.649472,46.657975],[-105.654774,46.657982],[-105.660076,46.657989],[-105.660088,46.661618],[-105.6601,46.665246],[-105.660112,46.668875]]]}},{"type":"Feature","properties":{"sec":"27","frstdivid":"MT200110N0480E0SN270"},"geometry":{"type":"Polygon","coordinates":[[[-105.660169,46.687021],[-105.660158,46.683392],[-105.660147,46.679763],[-105.660135,46.676133],[-105.660124,46.672504],[-105.665397,46.672513],[-105.67067,46.672522],[-105.675944,46.672531],[-105.681217,46.67254],[-105.681229,46.676163],[-105.681242,46.679785],[-105.681255,46.683408],[-105.681267,46.68703],[-105.675993,46.687028],[-105.670718,46.687026],[-105.665444,46.687024],[-105.660169,46.687021]]]}},{"type":"Feature","properties":{"sec":"11","frstdivid":"MT200110N0480E0SN110"},"geometry":{"type":"Polygon","coordinates":[[[-105.639172,46.730457],[-105.639165,46.72683],[-105.639158,46.723202],[-105.639152,46.719575],[-105.639145,46.715948],[-105.644416,46.71596],[-105.649688,46.715972],[-105.654959,46.715984],[-105.660231,46.715996],[-105.660236,46.719624],[-105.660241,46.723252],[-105.660245,46.72688],[-105.66025,46.730508],[-105.654981,46.730495],[-105.649711,46.730483],[-105.644441,46.73047],[-105.639172,46.730457]]]}},{"type":"Feature","properties":{"sec":"06","frstdivid":"MT200110N0480E0SN060"},"geometry":{"type":"Polygon","coordinates":[[[-105.723474,46.741435],[-105.723459,46.737817],[-105.723448,46.734198],[-105.723438,46.73058],[-105.728707,46.730588],[-105.733976,46.730597],[-105.739241,46.730606],[-105.743885,46.730614],[-105.74389,46.734235],[-105.743895,46.737856],[-105.743897,46.741476],[-105.7439,46.745095],[-105.73926,46.745088],[-105.734,46.745081],[-105.728745,46.745077],[-105.723489,46.745072],[-105.723474,46.741435]]]}},{"type":"Feature","properties":{"sec":"09","frstdivid":"MT200110N0480E0SN090"},"geometry":{"type":"Polygon","coordinates":[[[-105.686561,46.716038],[-105.691813,46.716045],[-105.697064,46.716051],[-105.702316,46.716058],[-105.702323,46.71968],[-105.70233,46.723302],[-105.702336,46.726924],[-105.702343,46.730545],[-105.697087,46.730541],[-105.691832,46.730537],[-105.686576,46.730533],[-105.68132,46.730529],[-105.681318,46.726905],[-105.681315,46.72328],[-105.681312,46.719656],[-105.68131,46.716031],[-105.686561,46.716038]]]}},{"type":"Feature","properties":{"sec":"08","frstdivid":"MT200110N0480E0SN080"},"geometry":{"type":"Polygon","coordinates":[[[-105.72344,46.719713],[-105.72344,46.723335],[-105.723439,46.726957],[-105.723438,46.73058],[-105.718165,46.730571],[-105.712891,46.730563],[-105.707617,46.730554],[-105.702343,46.730545],[-105.702336,46.726924],[-105.70233,46.723302],[-105.702323,46.71968],[-105.702316,46.716058],[-105.707597,46.716066],[-105.712879,46.716074],[-105.71816,46.716083],[-105.723441,46.716091],[-105.72344,46.719713]]]}},{"type":"Feature","properties":{"sec":"28","frstdivid":"MT200110N0480E0SN280"},"geometry":{"type":"Polygon","coordinates":[[[-105.691776,46.687046],[-105.686522,46.687038],[-105.681267,46.68703],[-105.681255,46.683408],[-105.681242,46.679785],[-105.681229,46.676163],[-105.681217,46.67254],[-105.686479,46.67255],[-105.691742,46.67256],[-105.697005,46.672571],[-105.702268,46.672581],[-105.702272,46.676201],[-105.702276,46.679821],[-105.70228,46.683442],[-105.702285,46.687062],[-105.69703,46.687054],[-105.691776,46.687046]]]}},{"type":"Feature","properties":{"sec":"18","frstdivid":"MT200110N0480E0SN180"},"geometry":{"type":"Polygon","coordinates":[[[-105.723418,46.701595],[-105.72868,46.701609],[-105.733943,46.701623],[-105.739205,46.701638],[-105.743879,46.701652],[-105.743881,46.705266],[-105.743884,46.70888],[-105.743886,46.712495],[-105.743888,46.716109],[-105.739242,46.716106],[-105.733977,46.716102],[-105.728709,46.716097],[-105.723441,46.716091],[-105.723435,46.712467],[-105.723429,46.708843],[-105.723423,46.705219],[-105.723418,46.701595]]]}},{"type":"Feature","properties":{"sec":"21","frstdivid":"MT200110N0480E0SN210"},"geometry":{"type":"Polygon","coordinates":[[[-105.686522,46.687038],[-105.691776,46.687046],[-105.69703,46.687054],[-105.702285,46.687062],[-105.702288,46.690685],[-105.702291,46.694307],[-105.702294,46.69793],[-105.702297,46.701552],[-105.697046,46.701546],[-105.691796,46.70154],[-105.686545,46.701534],[-105.681294,46.701528],[-105.681288,46.697904],[-105.681281,46.694279],[-105.681274,46.690655],[-105.681267,46.68703],[-105.686522,46.687038]]]}},{"type":"Feature","properties":{"sec":"36","frstdivid":"MT200110N0480E0SN360"},"geometry":{"type":"Polygon","coordinates":[[[-105.628539,46.672459],[-105.623289,46.672453],[-105.618039,46.672448],[-105.618033,46.668827],[-105.618027,46.665206],[-105.618021,46.661586],[-105.618016,46.657965],[-105.623244,46.657963],[-105.628472,46.65796],[-105.6337,46.657957],[-105.638928,46.657954],[-105.638956,46.661583],[-105.638984,46.665212],[-105.639012,46.668841],[-105.63904,46.67247],[-105.63379,46.672464],[-105.628539,46.672459]]]}},{"type":"Feature","properties":{"sec":"13","frstdivid":"MT200110N0480E0SN130"},"geometry":{"type":"Polygon","coordinates":[[[-105.639145,46.715948],[-105.633888,46.715936],[-105.62863,46.715924],[-105.623373,46.715912],[-105.618116,46.7159],[-105.61811,46.712273],[-105.618103,46.708647],[-105.618097,46.705021],[-105.618091,46.701395],[-105.623349,46.70141],[-105.628607,46.701425],[-105.633866,46.70144],[-105.639124,46.701455],[-105.639129,46.705079],[-105.639134,46.708702],[-105.63914,46.712325],[-105.639145,46.715948]]]}},{"type":"Feature","properties":{"sec":"02","frstdivid":"MT200110N0480E0SN020"},"geometry":{"type":"Polygon","coordinates":[[[-105.660287,46.74499],[-105.655011,46.744982],[-105.649736,46.744974],[-105.64446,46.744966],[-105.639185,46.744958],[-105.639181,46.741326],[-105.639178,46.737705],[-105.639175,46.734081],[-105.639172,46.730457],[-105.644441,46.73047],[-105.649711,46.730483],[-105.654981,46.730495],[-105.66025,46.730508],[-105.660259,46.734133],[-105.660268,46.737758],[-105.660278,46.741379],[-105.660287,46.74499]]]}},{"type":"Feature","properties":{"sec":"03","frstdivid":"MT200110N0480E0SN030"},"geometry":{"type":"Polygon","coordinates":[[[-105.676053,46.730524],[-105.68132,46.730529],[-105.681332,46.73415],[-105.681343,46.73777],[-105.681354,46.74139],[-105.681364,46.745024],[-105.676095,46.745015],[-105.670825,46.745007],[-105.665556,46.744999],[-105.660287,46.74499],[-105.660278,46.741379],[-105.660268,46.737758],[-105.660259,46.734133],[-105.66025,46.730508],[-105.665518,46.730513],[-105.670785,46.730519],[-105.676053,46.730524]]]}},{"type":"Feature","properties":{"sec":"12","frstdivid":"MT200110N0480E0SN120"},"geometry":{"type":"Polygon","coordinates":[[[-105.639145,46.715948],[-105.639152,46.719575],[-105.639158,46.723202],[-105.639165,46.72683],[-105.639172,46.730457],[-105.633908,46.730453],[-105.628643,46.73045],[-105.623379,46.730446],[-105.618115,46.730442],[-105.618115,46.726806],[-105.618115,46.723171],[-105.618116,46.719535],[-105.618116,46.7159],[-105.623373,46.715912],[-105.62863,46.715924],[-105.633888,46.715936],[-105.639145,46.715948]]]}},{"type":"Feature","properties":{"sec":"04","frstdivid":"MT200110N0480E0SN040"},"geometry":{"type":"Polygon","coordinates":[[[-105.691832,46.730537],[-105.697087,46.730541],[-105.702343,46.730545],[-105.70236,46.734168],[-105.702377,46.73779],[-105.702394,46.74141],[-105.70241,46.745038],[-105.697148,46.745034],[-105.691887,46.745031],[-105.686625,46.745027],[-105.681364,46.745024],[-105.681354,46.74139],[-105.681343,46.73777],[-105.681332,46.73415],[-105.68132,46.730529],[-105.686576,46.730533],[-105.691832,46.730537]]]}},{"type":"Feature","properties":{"sec":"10","frstdivid":"MT200110N0480E0SN100"},"geometry":{"type":"Polygon","coordinates":[[[-105.67604,46.716023],[-105.68131,46.716031],[-105.681312,46.719656],[-105.681315,46.72328],[-105.681318,46.726905],[-105.68132,46.730529],[-105.676053,46.730524],[-105.670785,46.730519],[-105.665518,46.730513],[-105.66025,46.730508],[-105.660245,46.72688],[-105.660241,46.723252],[-105.660236,46.719624],[-105.660231,46.715996],[-105.665501,46.716005],[-105.67077,46.716014],[-105.67604,46.716023]]]}},{"type":"Feature","properties":{"sec":"30","frstdivid":"MT200110N0480E0SN300"},"geometry":{"type":"Polygon","coordinates":[[[-105.723395,46.68348],[-105.723387,46.679856],[-105.723379,46.676232],[-105.72337,46.672609],[-105.728635,46.672615],[-105.7339,46.672622],[-105.739161,46.672627],[-105.743882,46.672632],[-105.743883,46.676262],[-105.743885,46.679892],[-105.743886,46.683522],[-105.743887,46.687152],[-105.739194,46.687141],[-105.733933,46.687128],[-105.728668,46.687116],[-105.723403,46.687104],[-105.723395,46.68348]]]}}]}