{"type":"FeatureCollection","note":"BLM Public Land Survey System. Provided by the Bureau of Land Management as is. These data are neither legal documents nor land surveys and must not be used as such.","features":[{"type":"Feature","properties":{"sec":"29","frstdivid":"WY060560N0790W0SN290"},"geometry":{"type":"Polygon","coordinates":[[[-106.408626,44.789165],[-106.408618,44.792787],[-106.408611,44.79641],[-106.408603,44.800032],[-106.408596,44.803655],[-106.403503,44.803651],[-106.398411,44.803647],[-106.393318,44.803644],[-106.388226,44.80364],[-106.388242,44.800018],[-106.388259,44.796396],[-106.388275,44.792774],[-106.388292,44.789153],[-106.393375,44.789156],[-106.398459,44.789159],[-106.403542,44.789162],[-106.408626,44.789165]]]}},{"type":"Feature","properties":{"sec":"14","frstdivid":"WY060560N0790W0SN140"},"geometry":{"type":"Polygon","coordinates":[[[-106.332381,44.818077],[-106.337099,44.818087],[-106.337449,44.818087],[-106.342218,44.818097],[-106.342517,44.818098],[-106.347584,44.818103],[-106.347585,44.819],[-106.347587,44.821723],[-106.347587,44.82262],[-106.347589,44.825343],[-106.34759,44.826235],[-106.347591,44.828963],[-106.347592,44.829854],[-106.347594,44.832583],[-106.347111,44.832583],[-106.342531,44.832576],[-106.337467,44.832569],[-106.332404,44.832562],[-106.327341,44.832555],[-106.32733,44.828934],[-106.327322,44.826147],[-106.32732,44.825312],[-106.327311,44.822658],[-106.327312,44.821691],[-106.327314,44.81807],[-106.331994,44.818076],[-106.332381,44.818077]]]}},{"type":"Feature","properties":{"sec":"35","frstdivid":"WY060560N0790W0SN350"},"geometry":{"type":"Polygon","coordinates":[[[-106.327314,44.78549],[-106.327324,44.78187],[-106.327332,44.778785],[-106.327334,44.778251],[-106.327341,44.775129],[-106.327544,44.775126],[-106.332433,44.77507],[-106.332582,44.775068],[-106.337526,44.775012],[-106.33762,44.775011],[-106.342619,44.774961],[-106.342666,44.77496],[-106.347712,44.77491],[-106.347686,44.778294],[-106.347657,44.781912],[-106.347643,44.78553],[-106.347628,44.789149],[-106.342545,44.789134],[-106.337463,44.789118],[-106.336888,44.789118],[-106.33238,44.789114],[-106.327297,44.78911],[-106.327314,44.78549]]]}},{"type":"Feature","properties":{"sec":"34","frstdivid":"WY060560N0790W0SN340"},"geometry":{"type":"Polygon","coordinates":[[[-106.36796,44.789137],[-106.362877,44.78914],[-106.357794,44.789143],[-106.352711,44.789146],[-106.347628,44.789149],[-106.347643,44.78553],[-106.347657,44.781912],[-106.347686,44.778294],[-106.347712,44.77491],[-106.352758,44.774835],[-106.357805,44.774761],[-106.362891,44.774706],[-106.367977,44.774652],[-106.367975,44.778273],[-106.367973,44.781893],[-106.367967,44.785515],[-106.36796,44.789137]]]}},{"type":"Feature","properties":{"sec":"25","frstdivid":"WY060560N0790W0SN250"},"geometry":{"type":"Polygon","coordinates":[[[-106.32603,44.803583],[-106.322234,44.803581],[-106.320951,44.80358],[-106.317153,44.803577],[-106.315869,44.803577],[-106.312069,44.803572],[-106.310879,44.803572],[-106.305801,44.803562],[-106.305806,44.80226],[-106.30581,44.799941],[-106.305815,44.798644],[-106.30582,44.797382],[-106.305897,44.796334],[-106.305898,44.796321],[-106.305993,44.795032],[-106.306089,44.793721],[-106.306162,44.792747],[-106.306165,44.792701],[-106.306259,44.791422],[-106.306363,44.790062],[-106.306437,44.789082],[-106.312051,44.789088],[-106.317133,44.789093],[-106.322215,44.789102],[-106.326722,44.78911],[-106.327297,44.78911],[-106.327299,44.792728],[-106.327299,44.796347],[-106.327299,44.797027],[-106.327306,44.799965],[-106.327308,44.80065],[-106.327315,44.803584],[-106.32603,44.803583]]]}},{"type":"Feature","properties":{"sec":"10","frstdivid":"WY060560N0790W0SN100"},"geometry":{"type":"Polygon","coordinates":[[[-106.367946,44.836236],[-106.367955,44.839858],[-106.367963,44.843481],[-106.367972,44.847104],[-106.362884,44.847095],[-106.357795,44.847086],[-106.352706,44.847076],[-106.347618,44.847067],[-106.34761,44.843446],[-106.347603,44.839825],[-106.347596,44.836204],[-106.34759,44.833473],[-106.347594,44.832583],[-106.352192,44.832586],[-106.35268,44.832586],[-106.357281,44.832589],[-106.357765,44.83259],[-106.362851,44.832601],[-106.367937,44.832613],[-106.367946,44.836236]]]}},{"type":"Feature","properties":{"sec":"12","frstdivid":"WY060560N0790W0SN120"},"geometry":{"type":"Polygon","coordinates":[[[-106.305458,44.839764],[-106.305459,44.839496],[-106.305461,44.838433],[-106.305461,44.836144],[-106.305463,44.835735],[-106.305465,44.834814],[-106.305466,44.832525],[-106.312082,44.83254],[-106.317168,44.832543],[-106.322255,44.832549],[-106.327341,44.832555],[-106.327339,44.83618],[-106.327338,44.839805],[-106.327336,44.84343],[-106.327335,44.847055],[-106.322248,44.847035],[-106.317161,44.847016],[-106.312074,44.847003],[-106.310532,44.847],[-106.305445,44.847001],[-106.305448,44.845668],[-106.305451,44.843381],[-106.305452,44.843124],[-106.305455,44.84205],[-106.305458,44.839764]]]}},{"type":"Feature","properties":{"sec":"26","frstdivid":"WY060560N0790W0SN260"},"geometry":{"type":"Polygon","coordinates":[[[-106.33238,44.789114],[-106.336888,44.789118],[-106.337463,44.789118],[-106.342545,44.789134],[-106.347628,44.789149],[-106.347625,44.792768],[-106.347623,44.796387],[-106.347621,44.800006],[-106.347618,44.803625],[-106.342542,44.803614],[-106.337466,44.803604],[-106.336177,44.803601],[-106.332391,44.803594],[-106.331103,44.803591],[-106.327315,44.803584],[-106.327308,44.80065],[-106.327306,44.799965],[-106.327299,44.797027],[-106.327299,44.796347],[-106.327299,44.792728],[-106.327297,44.78911],[-106.33238,44.789114]]]}},{"type":"Feature","properties":{"sec":"30","frstdivid":"WY060560N0790W0SN300"},"geometry":{"type":"Polygon","coordinates":[[[-106.423875,44.789176],[-106.42814,44.789178],[-106.428123,44.791894],[-106.428118,44.792799],[-106.428101,44.795497],[-106.428093,44.79642],[-106.428069,44.799173],[-106.428061,44.800042],[-106.428037,44.802848],[-106.42804,44.803663],[-106.423846,44.803662],[-106.418762,44.803661],[-106.413679,44.803658],[-106.408596,44.803655],[-106.408603,44.800032],[-106.408611,44.79641],[-106.408618,44.792787],[-106.408626,44.789165],[-106.413709,44.789169],[-106.418792,44.789174],[-106.423875,44.789176]]]}},{"type":"Feature","properties":{"sec":"22","frstdivid":"WY060560N0790W0SN220"},"geometry":{"type":"Polygon","coordinates":[[[-106.36792,44.814501],[-106.367925,44.818123],[-106.36284,44.818118],[-106.357755,44.818113],[-106.35267,44.818108],[-106.347584,44.818103],[-106.347593,44.814483],[-106.347601,44.810864],[-106.34761,44.807245],[-106.347618,44.803625],[-106.35269,44.803627],[-106.357762,44.803629],[-106.362835,44.80363],[-106.367907,44.803632],[-106.367911,44.807255],[-106.367916,44.810878],[-106.36792,44.814501]]]}},{"type":"Feature","properties":{"sec":"31","frstdivid":"WY060560N0790W0SN310"},"geometry":{"type":"Polygon","coordinates":[[[-106.418984,44.774068],[-106.424025,44.774009],[-106.428359,44.773957],[-106.428304,44.777541],[-106.428293,44.778314],[-106.428251,44.781124],[-106.42824,44.781935],[-106.428198,44.784707],[-106.428186,44.785556],[-106.428146,44.788291],[-106.42814,44.789178],[-106.423875,44.789176],[-106.418792,44.789174],[-106.413709,44.789169],[-106.408626,44.789165],[-106.40865,44.785544],[-106.408675,44.781922],[-106.408698,44.778299],[-106.408726,44.774198],[-106.413855,44.774133],[-106.418984,44.774068]]]}},{"type":"Feature","properties":{"sec":"16","frstdivid":"WY060560N0790W0SN160"},"geometry":{"type":"Polygon","coordinates":[[[-106.388253,44.828995],[-106.388257,44.832617],[-106.383177,44.832616],[-106.378097,44.832615],[-106.373017,44.832614],[-106.367937,44.832613],[-106.367934,44.82899],[-106.367931,44.825368],[-106.367928,44.821746],[-106.367925,44.818123],[-106.373004,44.818125],[-106.378083,44.818126],[-106.383161,44.818127],[-106.38824,44.818128],[-106.388244,44.82175],[-106.388249,44.825372],[-106.388253,44.828995]]]}},{"type":"Feature","properties":{"sec":"09","frstdivid":"WY060560N0790W0SN090"},"geometry":{"type":"Polygon","coordinates":[[[-106.388287,44.839859],[-106.388302,44.843481],[-106.388306,44.844387],[-106.388307,44.847102],[-106.385763,44.847102],[-106.383223,44.847102],[-106.37814,44.847103],[-106.373056,44.847103],[-106.367972,44.847104],[-106.367963,44.843481],[-106.367955,44.839858],[-106.367946,44.836236],[-106.367937,44.832613],[-106.373017,44.832614],[-106.378097,44.832615],[-106.383177,44.832616],[-106.388257,44.832617],[-106.388272,44.836238],[-106.388287,44.839859]]]}},{"type":"Feature","properties":{"sec":"24","frstdivid":"WY060560N0790W0SN240"},"geometry":{"type":"Polygon","coordinates":[[[-106.317153,44.803577],[-106.320951,44.80358],[-106.322234,44.803581],[-106.32603,44.803583],[-106.327315,44.803584],[-106.327314,44.804286],[-106.327319,44.807206],[-106.32732,44.808055],[-106.327318,44.810827],[-106.327318,44.811668],[-106.327316,44.814449],[-106.327315,44.8153],[-106.327314,44.81807],[-106.326813,44.818071],[-106.322227,44.818071],[-106.317141,44.818071],[-106.31664,44.818071],[-106.312075,44.818063],[-106.312055,44.818063],[-106.305475,44.818043],[-106.305476,44.817634],[-106.305478,44.816734],[-106.305476,44.814421],[-106.305476,44.814042],[-106.305478,44.813112],[-106.30548,44.811832],[-106.305525,44.8108],[-106.305543,44.810422],[-106.305584,44.809493],[-106.305682,44.807182],[-106.305699,44.806804],[-106.30574,44.805874],[-106.305798,44.804568],[-106.305801,44.803562],[-106.310879,44.803572],[-106.312069,44.803572],[-106.315869,44.803577],[-106.317153,44.803577]]]}},{"type":"Feature","properties":{"sec":"27","frstdivid":"WY060560N0790W0SN270"},"geometry":{"type":"Polygon","coordinates":[[[-106.36796,44.789137],[-106.367947,44.792761],[-106.367933,44.796385],[-106.36792,44.800008],[-106.367907,44.803632],[-106.362835,44.80363],[-106.357762,44.803629],[-106.35269,44.803627],[-106.347618,44.803625],[-106.347621,44.800006],[-106.347623,44.796387],[-106.347625,44.792768],[-106.347628,44.789149],[-106.352711,44.789146],[-106.357794,44.789143],[-106.362877,44.78914],[-106.36796,44.789137]]]}},{"type":"Feature","properties":{"sec":"23","frstdivid":"WY060560N0790W0SN230"},"geometry":{"type":"Polygon","coordinates":[[[-106.332391,44.803594],[-106.336177,44.803601],[-106.337466,44.803604],[-106.342542,44.803614],[-106.347618,44.803625],[-106.34761,44.807245],[-106.347601,44.810864],[-106.347593,44.814483],[-106.347584,44.818103],[-106.342517,44.818098],[-106.342218,44.818097],[-106.337449,44.818087],[-106.337099,44.818087],[-106.332381,44.818077],[-106.331994,44.818076],[-106.327314,44.81807],[-106.327315,44.8153],[-106.327316,44.814449],[-106.327318,44.811668],[-106.327318,44.810827],[-106.32732,44.808055],[-106.327319,44.807206],[-106.327314,44.804286],[-106.327315,44.803584],[-106.331103,44.803591],[-106.332391,44.803594]]]}},{"type":"Feature","properties":{"sec":"11","frstdivid":"WY060560N0790W0SN110"},"geometry":{"type":"Polygon","coordinates":[[[-106.337476,44.847061],[-106.332406,44.847058],[-106.327335,44.847055],[-106.327336,44.84343],[-106.327338,44.839805],[-106.327339,44.83618],[-106.327341,44.832555],[-106.332404,44.832562],[-106.337467,44.832569],[-106.342531,44.832576],[-106.347111,44.832583],[-106.347594,44.832583],[-106.34759,44.833473],[-106.347596,44.836204],[-106.347603,44.839825],[-106.34761,44.843446],[-106.347618,44.847067],[-106.342547,44.847064],[-106.337476,44.847061]]]}},{"type":"Feature","properties":{"sec":"07","frstdivid":"WY060560N0790W0SN070"},"geometry":{"type":"Polygon","coordinates":[[[-106.428051,44.832609],[-106.427955,44.835356],[-106.427923,44.836233],[-106.427826,44.838979],[-106.427827,44.839858],[-106.427831,44.8426],[-106.427832,44.843484],[-106.427836,44.846221],[-106.42805,44.847097],[-106.423992,44.847099],[-106.418902,44.847103],[-106.413811,44.847111],[-106.40872,44.847119],[-106.408708,44.843496],[-106.408695,44.839873],[-106.408683,44.83625],[-106.40867,44.832627],[-106.413756,44.832621],[-106.418842,44.832614],[-106.423928,44.832611],[-106.428051,44.832609]]]}},{"type":"Feature","properties":{"sec":"21","frstdivid":"WY060560N0790W0SN210"},"geometry":{"type":"Polygon","coordinates":[[[-106.378083,44.818126],[-106.373004,44.818125],[-106.367925,44.818123],[-106.36792,44.814501],[-106.367916,44.810878],[-106.367911,44.807255],[-106.367907,44.803632],[-106.372987,44.803634],[-106.378066,44.803636],[-106.383146,44.803638],[-106.388226,44.80364],[-106.388229,44.807262],[-106.388233,44.810884],[-106.388237,44.814506],[-106.38824,44.818128],[-106.383161,44.818127],[-106.378083,44.818126]]]}},{"type":"Feature","properties":{"sec":"17","frstdivid":"WY060560N0790W0SN170"},"geometry":{"type":"Polygon","coordinates":[[[-106.408649,44.821764],[-106.408656,44.825385],[-106.408663,44.829006],[-106.40867,44.832627],[-106.403567,44.832624],[-106.398463,44.832622],[-106.39336,44.832619],[-106.388257,44.832617],[-106.388253,44.828995],[-106.388249,44.825372],[-106.388244,44.82175],[-106.38824,44.818128],[-106.393341,44.818132],[-106.398441,44.818136],[-106.403541,44.81814],[-106.408642,44.818144],[-106.408649,44.821764]]]}},{"type":"Feature","properties":{"sec":"33","frstdivid":"WY060560N0790W0SN330"},"geometry":{"type":"Polygon","coordinates":[[[-106.373039,44.774584],[-106.378101,44.774516],[-106.383195,44.774455],[-106.388288,44.774394],[-106.38829,44.778291],[-106.388291,44.781911],[-106.388291,44.785532],[-106.388292,44.789153],[-106.383209,44.789149],[-106.378126,44.789145],[-106.373043,44.789141],[-106.36796,44.789137],[-106.367967,44.785515],[-106.367973,44.781893],[-106.367975,44.778273],[-106.367977,44.774652],[-106.373039,44.774584]]]}},{"type":"Feature","properties":{"sec":"28","frstdivid":"WY060560N0790W0SN280"},"geometry":{"type":"Polygon","coordinates":[[[-106.383146,44.803638],[-106.378066,44.803636],[-106.372987,44.803634],[-106.367907,44.803632],[-106.36792,44.800008],[-106.367933,44.796385],[-106.367947,44.792761],[-106.36796,44.789137],[-106.373043,44.789141],[-106.378126,44.789145],[-106.383209,44.789149],[-106.388292,44.789153],[-106.388275,44.792774],[-106.388259,44.796396],[-106.388242,44.800018],[-106.388226,44.80364],[-106.383146,44.803638]]]}},{"type":"Feature","properties":{"sec":"20","frstdivid":"WY060560N0790W0SN200"},"geometry":{"type":"Polygon","coordinates":[[[-106.408596,44.803655],[-106.408607,44.807277],[-106.408619,44.810899],[-106.40863,44.814521],[-106.408642,44.818144],[-106.403541,44.81814],[-106.398441,44.818136],[-106.393341,44.818132],[-106.38824,44.818128],[-106.388237,44.814506],[-106.388233,44.810884],[-106.388229,44.807262],[-106.388226,44.80364],[-106.393318,44.803644],[-106.398411,44.803647],[-106.403503,44.803651],[-106.408596,44.803655]]]}},{"type":"Feature","properties":{"sec":"08","frstdivid":"WY060560N0790W0SN080"},"geometry":{"type":"Polygon","coordinates":[[[-106.393411,44.847104],[-106.390851,44.847102],[-106.388307,44.847102],[-106.388306,44.844387],[-106.388302,44.843481],[-106.388287,44.839859],[-106.388272,44.836238],[-106.388257,44.832617],[-106.39336,44.832619],[-106.398463,44.832622],[-106.403567,44.832624],[-106.40867,44.832627],[-106.408683,44.83625],[-106.408695,44.839873],[-106.408708,44.843496],[-106.40872,44.847119],[-106.403617,44.847114],[-106.398514,44.847109],[-106.393411,44.847104]]]}},{"type":"Feature","properties":{"sec":"32","frstdivid":"WY060560N0790W0SN320"},"geometry":{"type":"Polygon","coordinates":[[[-106.393375,44.789156],[-106.388292,44.789153],[-106.388291,44.785532],[-106.388291,44.781911],[-106.38829,44.778291],[-106.388288,44.774394],[-106.393398,44.774345],[-106.398507,44.774296],[-106.403617,44.774247],[-106.408726,44.774198],[-106.408698,44.778299],[-106.408675,44.781922],[-106.40865,44.785544],[-106.408626,44.789165],[-106.403542,44.789162],[-106.398459,44.789159],[-106.393375,44.789156]]]}},{"type":"Feature","properties":{"sec":"36","frstdivid":"WY060560N0790W0SN360"},"geometry":{"type":"Polygon","coordinates":[[[-106.327334,44.778251],[-106.327332,44.778785],[-106.327324,44.78187],[-106.327314,44.78549],[-106.327297,44.78911],[-106.326722,44.78911],[-106.322215,44.789102],[-106.317133,44.789093],[-106.312051,44.789088],[-106.306437,44.789082],[-106.306438,44.789075],[-106.306535,44.787803],[-106.306711,44.785462],[-106.306808,44.784183],[-106.306918,44.782747],[-106.306987,44.781843],[-106.307084,44.780564],[-106.30726,44.778223],[-106.307357,44.776944],[-106.307473,44.775422],[-106.312387,44.77535],[-106.31244,44.775349],[-106.317301,44.775277],[-106.317407,44.775276],[-106.322374,44.775202],[-106.322423,44.775201],[-106.327341,44.775129],[-106.327334,44.778251]]]}},{"type":"Feature","properties":{"sec":"13","frstdivid":"WY060560N0790W0SN130"},"geometry":{"type":"Polygon","coordinates":[[[-106.31664,44.818071],[-106.317141,44.818071],[-106.322227,44.818071],[-106.326813,44.818071],[-106.327314,44.81807],[-106.327312,44.821691],[-106.327311,44.822658],[-106.32732,44.825312],[-106.327322,44.826147],[-106.32733,44.828934],[-106.327341,44.832555],[-106.322255,44.832549],[-106.317168,44.832543],[-106.312082,44.83254],[-106.305466,44.832525],[-106.305467,44.832116],[-106.305469,44.8312],[-106.30547,44.828904],[-106.305471,44.827585],[-106.305472,44.825284],[-106.305474,44.82397],[-106.305474,44.821664],[-106.305476,44.820355],[-106.305475,44.818043],[-106.312055,44.818063],[-106.312075,44.818063],[-106.31664,44.818071]]]}},{"type":"Feature","properties":{"sec":"15","frstdivid":"WY060560N0790W0SN150"},"geometry":{"type":"Polygon","coordinates":[[[-106.347587,44.821723],[-106.347585,44.819],[-106.347584,44.818103],[-106.35267,44.818108],[-106.357755,44.818113],[-106.36284,44.818118],[-106.367925,44.818123],[-106.367928,44.821746],[-106.367931,44.825368],[-106.367934,44.82899],[-106.367937,44.832613],[-106.362851,44.832601],[-106.357765,44.83259],[-106.357281,44.832589],[-106.35268,44.832586],[-106.352192,44.832586],[-106.347594,44.832583],[-106.347592,44.829854],[-106.347591,44.828963],[-106.34759,44.826235],[-106.347589,44.825343],[-106.347587,44.82262],[-106.347587,44.821723]]]}},{"type":"Feature","properties":{"sec":"18","frstdivid":"WY060560N0790W0SN180"},"geometry":{"type":"Polygon","coordinates":[[[-106.428088,44.820901],[-106.428087,44.821764],[-106.428086,44.824512],[-106.428085,44.825379],[-106.428084,44.828122],[-106.428083,44.828994],[-106.428083,44.831733],[-106.428051,44.832609],[-106.423928,44.832611],[-106.418842,44.832614],[-106.413756,44.832621],[-106.40867,44.832627],[-106.408663,44.829006],[-106.408656,44.825385],[-106.408649,44.821764],[-106.408642,44.818144],[-106.413729,44.818146],[-106.418816,44.818147],[-106.423902,44.818148],[-106.428088,44.818149],[-106.428088,44.820901]]]}},{"type":"Feature","properties":{"sec":"19","frstdivid":"WY060560N0790W0SN190"},"geometry":{"type":"Polygon","coordinates":[[[-106.408596,44.803655],[-106.413679,44.803658],[-106.418762,44.803661],[-106.423846,44.803662],[-106.42804,44.803663],[-106.42805,44.806459],[-106.428053,44.807284],[-106.428064,44.81007],[-106.428066,44.810906],[-106.428077,44.81368],[-106.42808,44.814527],[-106.42809,44.817291],[-106.428088,44.818149],[-106.423902,44.818148],[-106.418816,44.818147],[-106.413729,44.818146],[-106.408642,44.818144],[-106.40863,44.814521],[-106.408619,44.810899],[-106.408607,44.807277],[-106.408596,44.803655]]]}},{"type":"Feature","properties":{"sec":"05","frstdivid":"WY060560N0790W0SN050"},"geometry":{"type":"Polygon","coordinates":[[[-106.398454,44.862574],[-106.398225,44.86258],[-106.393339,44.862703],[-106.393232,44.862706],[-106.38824,44.862832],[-106.388224,44.862832],[-106.388225,44.861584],[-106.388241,44.857963],[-106.388256,44.854343],[-106.388285,44.850723],[-106.388307,44.848007],[-106.388307,44.847102],[-106.390851,44.847102],[-106.393411,44.847104],[-106.398514,44.847109],[-106.403617,44.847114],[-106.40872,44.847119],[-106.408706,44.85074],[-106.408691,44.854362],[-106.408686,44.857983],[-106.408678,44.862201],[-106.408205,44.862215],[-106.403566,44.862387],[-106.403215,44.862397],[-106.398454,44.862574]]]}},{"type":"Feature","properties":{"sec":"04","frstdivid":"WY060560N0790W0SN040"},"geometry":{"type":"Polygon","coordinates":[[[-106.388307,44.848007],[-106.388285,44.850723],[-106.388256,44.854343],[-106.388241,44.857963],[-106.388225,44.861584],[-106.388224,44.862832],[-106.383248,44.863002],[-106.38316,44.863004],[-106.378257,44.863171],[-106.378096,44.863176],[-106.373263,44.86329],[-106.37303,44.863297],[-106.368269,44.863411],[-106.367964,44.863419],[-106.367963,44.861587],[-106.367964,44.857967],[-106.367964,44.854346],[-106.367968,44.850725],[-106.367972,44.847104],[-106.373056,44.847103],[-106.37814,44.847103],[-106.383223,44.847102],[-106.385763,44.847102],[-106.388307,44.847102],[-106.388307,44.848007]]]}},{"type":"Feature","properties":{"sec":"01","frstdivid":"WY060560N0790W0SN010"},"geometry":{"type":"Polygon","coordinates":[[[-106.30544,44.865313],[-106.30544,44.863767],[-106.305441,44.861481],[-106.305441,44.860147],[-106.305442,44.857861],[-106.305443,44.856527],[-106.305443,44.854241],[-106.305444,44.852907],[-106.305445,44.850621],[-106.305445,44.849287],[-106.305443,44.848074],[-106.305445,44.847001],[-106.310532,44.847],[-106.312074,44.847003],[-106.317161,44.847016],[-106.322248,44.847035],[-106.327335,44.847055],[-106.327359,44.850677],[-106.327382,44.854299],[-106.327394,44.85792],[-106.327406,44.861542],[-106.327415,44.864621],[-106.326398,44.864653],[-106.323336,44.86477],[-106.322333,44.864801],[-106.318346,44.864964],[-106.317253,44.864995],[-106.313355,44.865099],[-106.31217,44.865132],[-106.30836,44.865234],[-106.30544,44.865313]]]}},{"type":"Feature","properties":{"sec":"06","frstdivid":"WY060560N0790W0SN060"},"geometry":{"type":"Polygon","coordinates":[[[-106.418902,44.847103],[-106.423992,44.847099],[-106.42805,44.847097],[-106.428775,44.850032],[-106.428936,44.85069],[-106.429716,44.853844],[-106.429823,44.854283],[-106.430657,44.857655],[-106.430711,44.857876],[-106.431612,44.861516],[-106.428169,44.861581],[-106.423924,44.861761],[-106.423181,44.861784],[-106.418846,44.861969],[-106.418193,44.861989],[-106.413762,44.862087],[-106.413199,44.862103],[-106.408678,44.862201],[-106.408686,44.857983],[-106.408691,44.854362],[-106.408706,44.85074],[-106.40872,44.847119],[-106.413811,44.847111],[-106.418902,44.847103]]]}},{"type":"Feature","properties":{"sec":"02","frstdivid":"WY060560N0790W0SN020"},"geometry":{"type":"Polygon","coordinates":[[[-106.33246,44.864498],[-106.328327,44.864596],[-106.327415,44.864621],[-106.327406,44.861542],[-106.327394,44.85792],[-106.327382,44.854299],[-106.327359,44.850677],[-106.327335,44.847055],[-106.332406,44.847058],[-106.337476,44.847061],[-106.342547,44.847064],[-106.347618,44.847067],[-106.347609,44.850688],[-106.347601,44.854309],[-106.347598,44.857929],[-106.347594,44.861549],[-106.347593,44.864047],[-106.343308,44.864189],[-106.34255,44.864211],[-106.338316,44.864352],[-106.337506,44.864374],[-106.333321,44.864474],[-106.33246,44.864498]]]}},{"type":"Feature","properties":{"sec":"03","frstdivid":"WY060560N0790W0SN030"},"geometry":{"type":"Polygon","coordinates":[[[-106.357795,44.847086],[-106.362884,44.847095],[-106.367972,44.847104],[-106.367968,44.850725],[-106.367964,44.854346],[-106.367964,44.857967],[-106.367963,44.861587],[-106.367964,44.863419],[-106.363278,44.863587],[-106.362872,44.863599],[-106.358287,44.863762],[-106.357781,44.863776],[-106.353293,44.863894],[-106.352687,44.863911],[-106.3483,44.864027],[-106.347593,44.864047],[-106.347594,44.861549],[-106.347598,44.857929],[-106.347601,44.854309],[-106.347609,44.850688],[-106.347618,44.847067],[-106.352706,44.847076],[-106.357795,44.847086]]]}}]}