{"type":"FeatureCollection","note":"BLM Public Land Survey System. Provided by the Bureau of Land Management as is. These data are neither legal documents nor land surveys and must not be used as such.","features":[{"type":"Feature","properties":{"sec":"25","frstdivid":"WY060580N0760W0SN250"},"geometry":{"type":"Polygon","coordinates":[[[-105.939938,44.978263],[-105.939939,44.974648],[-105.945052,44.974645],[-105.950165,44.974643],[-105.955278,44.97464],[-105.96039,44.974637],[-105.960382,44.978257],[-105.960374,44.981877],[-105.960365,44.985498],[-105.960357,44.989118],[-105.955251,44.989116],[-105.950145,44.989114],[-105.945038,44.989112],[-105.939932,44.98911],[-105.939934,44.985495],[-105.939936,44.981879],[-105.939938,44.978263]]]}},{"type":"Feature","properties":{"sec":"27","frstdivid":"WY060580N0760W0SN270"},"geometry":{"type":"Polygon","coordinates":[[[-105.996119,44.974636],[-106.001223,44.974636],[-106.00121,44.978257],[-106.001198,44.981877],[-106.001185,44.985497],[-106.001173,44.989117],[-105.996074,44.989117],[-105.990975,44.989116],[-105.985876,44.989116],[-105.980777,44.989115],[-105.980785,44.985495],[-105.980793,44.981875],[-105.980801,44.978255],[-105.980808,44.974635],[-105.985912,44.974635],[-105.991015,44.974636],[-105.996119,44.974636]]]}},{"type":"Feature","properties":{"sec":"34","frstdivid":"WY060580N0760W0SN340"},"geometry":{"type":"Polygon","coordinates":[[[-106.001203,44.960158],[-106.001205,44.963777],[-106.001205,44.965115],[-106.001209,44.967397],[-106.001215,44.971017],[-106.001217,44.972354],[-106.001223,44.974636],[-105.996119,44.974636],[-105.991015,44.974636],[-105.985912,44.974635],[-105.980808,44.974635],[-105.980805,44.971014],[-105.980803,44.967394],[-105.9808,44.963774],[-105.980798,44.961491],[-105.980799,44.960154],[-105.9859,44.960155],[-105.987721,44.960155],[-105.991001,44.960156],[-105.996102,44.960157],[-106.001203,44.960158]]]}},{"type":"Feature","properties":{"sec":"23","frstdivid":"WY060580N0760W0SN230"},"geometry":{"type":"Polygon","coordinates":[[[-105.979208,44.993581],[-105.975659,44.993589],[-105.974108,44.993593],[-105.97054,44.993601],[-105.969008,44.993604],[-105.968519,44.993606],[-105.96542,44.993599],[-105.963908,44.993596],[-105.9603,44.993588],[-105.960357,44.989118],[-105.965462,44.989117],[-105.970567,44.989116],[-105.975672,44.989116],[-105.980777,44.989115],[-105.980779,44.993577],[-105.979208,44.993581]]]}},{"type":"Feature","properties":{"sec":"22","frstdivid":"WY060580N0760W0SN220"},"geometry":{"type":"Polygon","coordinates":[[[-105.996078,44.993553],[-105.994566,44.993553],[-105.990978,44.993554],[-105.989447,44.993554],[-105.988681,44.993554],[-105.985878,44.993562],[-105.984327,44.993567],[-105.980779,44.993577],[-105.980777,44.989115],[-105.985876,44.989116],[-105.990975,44.989116],[-105.996074,44.989117],[-106.001173,44.989117],[-106.001177,44.993552],[-105.999685,44.993552],[-105.996078,44.993553]]]}},{"type":"Feature","properties":{"sec":"26","frstdivid":"WY060580N0760W0SN260"},"geometry":{"type":"Polygon","coordinates":[[[-105.980793,44.981875],[-105.980785,44.985495],[-105.980777,44.989115],[-105.975672,44.989116],[-105.970567,44.989116],[-105.965462,44.989117],[-105.960357,44.989118],[-105.960365,44.985498],[-105.960374,44.981877],[-105.960382,44.978257],[-105.96039,44.974637],[-105.965495,44.974637],[-105.970599,44.974636],[-105.975704,44.974635],[-105.980808,44.974635],[-105.980801,44.978255],[-105.980793,44.981875]]]}},{"type":"Feature","properties":{"sec":"28","frstdivid":"WY060580N0760W0SN280"},"geometry":{"type":"Polygon","coordinates":[[[-106.021559,44.989131],[-106.016463,44.989127],[-106.011366,44.989124],[-106.00627,44.989121],[-106.001173,44.989117],[-106.001185,44.985497],[-106.001198,44.981877],[-106.00121,44.978257],[-106.001223,44.974636],[-106.003043,44.974636],[-106.006318,44.974639],[-106.011413,44.974643],[-106.016509,44.974646],[-106.021604,44.97465],[-106.021607,44.975988],[-106.021599,44.97827],[-106.021586,44.98189],[-106.021572,44.98551],[-106.021559,44.989131]]]}},{"type":"Feature","properties":{"sec":"24","frstdivid":"WY060580N0760W0SN240"},"geometry":{"type":"Polygon","coordinates":[[[-105.93994,44.99135],[-105.939936,44.99023],[-105.939932,44.98911],[-105.945038,44.989112],[-105.950145,44.989114],[-105.955251,44.989116],[-105.960357,44.989118],[-105.9603,44.993588],[-105.958808,44.993586],[-105.955187,44.993582],[-105.953723,44.99358],[-105.950073,44.993576],[-105.948638,44.993574],[-105.948486,44.993574],[-105.94496,44.993581],[-105.943655,44.993583],[-105.939948,44.99359],[-105.939944,44.99247],[-105.93994,44.99135]]]}},{"type":"Feature","properties":{"sec":"36","frstdivid":"WY060580N0760W0SN360"},"geometry":{"type":"Polygon","coordinates":[[[-105.960389,44.971017],[-105.96039,44.972355],[-105.96039,44.974637],[-105.955278,44.97464],[-105.950165,44.974643],[-105.945052,44.974645],[-105.939939,44.974648],[-105.939944,44.971029],[-105.939947,44.968181],[-105.939948,44.96741],[-105.939948,44.964562],[-105.939949,44.963791],[-105.93995,44.960943],[-105.93995,44.960172],[-105.945059,44.960168],[-105.950167,44.960164],[-105.955276,44.96016],[-105.957105,44.960159],[-105.960384,44.960158],[-105.960386,44.963778],[-105.960388,44.967398],[-105.960389,44.971017]]]}},{"type":"Feature","properties":{"sec":"35","frstdivid":"WY060580N0760W0SN350"},"geometry":{"type":"Polygon","coordinates":[[[-105.960386,44.963778],[-105.960384,44.960158],[-105.965488,44.960157],[-105.970592,44.960156],[-105.975695,44.960155],[-105.977521,44.960154],[-105.980799,44.960154],[-105.980798,44.961491],[-105.9808,44.963774],[-105.980803,44.967394],[-105.980805,44.971014],[-105.980808,44.974635],[-105.975704,44.974635],[-105.970599,44.974636],[-105.965495,44.974637],[-105.96039,44.974637],[-105.96039,44.972355],[-105.960389,44.971017],[-105.960388,44.967398],[-105.960386,44.963778]]]}},{"type":"Feature","properties":{"sec":"21","frstdivid":"WY060580N0760W0SN210"},"geometry":{"type":"Polygon","coordinates":[[[-106.001173,44.989117],[-106.00627,44.989121],[-106.011366,44.989124],[-106.016463,44.989127],[-106.021559,44.989131],[-106.021555,44.993531],[-106.019699,44.993533],[-106.016461,44.993538],[-106.014992,44.993539],[-106.011366,44.993544],[-106.009889,44.993546],[-106.008946,44.993547],[-106.006272,44.993548],[-106.004787,44.993549],[-106.001177,44.993552],[-106.001173,44.989117]]]}},{"type":"Feature","properties":{"sec":"33","frstdivid":"WY060580N0760W0SN330"},"geometry":{"type":"Polygon","coordinates":[[[-106.021604,44.97103],[-106.021602,44.972368],[-106.021604,44.97465],[-106.016509,44.974646],[-106.011413,44.974643],[-106.006318,44.974639],[-106.003043,44.974636],[-106.001223,44.974636],[-106.001217,44.972354],[-106.001215,44.971017],[-106.001209,44.967397],[-106.001205,44.965115],[-106.001205,44.963777],[-106.001203,44.960158],[-106.006307,44.960161],[-106.011411,44.960164],[-106.016516,44.960168],[-106.02162,44.960171],[-106.021615,44.963791],[-106.021609,44.967411],[-106.021604,44.97103]]]}},{"type":"Feature","properties":{"sec":"32","frstdivid":"WY060580N0760W0SN320"},"geometry":{"type":"Polygon","coordinates":[[[-106.031833,44.960184],[-106.036939,44.960191],[-106.042046,44.960198],[-106.042026,44.963818],[-106.042019,44.965114],[-106.042018,44.967437],[-106.042017,44.968733],[-106.042018,44.971057],[-106.042018,44.972353],[-106.042017,44.974676],[-106.036914,44.97467],[-106.034127,44.974666],[-106.033653,44.974666],[-106.03181,44.974663],[-106.026707,44.974657],[-106.023927,44.974653],[-106.021604,44.97465],[-106.021602,44.972368],[-106.021604,44.97103],[-106.021609,44.967411],[-106.021615,44.963791],[-106.02162,44.960171],[-106.026726,44.960178],[-106.031833,44.960184]]]}},{"type":"Feature","properties":{"sec":"31","frstdivid":"WY060580N0760W0SN310"},"geometry":{"type":"Polygon","coordinates":[[[-106.074684,44.961675],[-106.074683,44.962263],[-106.074691,44.96384],[-106.0747,44.965295],[-106.074706,44.967459],[-106.074714,44.968915],[-106.074737,44.971079],[-106.07475,44.97224],[-106.074753,44.972526],[-106.07477,44.974699],[-106.072608,44.974699],[-106.069824,44.974697],[-106.067509,44.974696],[-106.064727,44.974694],[-106.06241,44.974693],[-106.057312,44.97469],[-106.054526,44.974689],[-106.052213,44.974687],[-106.049427,44.974685],[-106.047115,44.974682],[-106.044327,44.974679],[-106.042017,44.974676],[-106.042018,44.972353],[-106.042018,44.971057],[-106.042017,44.968733],[-106.042018,44.967437],[-106.042019,44.965114],[-106.042026,44.963818],[-106.042046,44.960198],[-106.047154,44.960203],[-106.052262,44.960209],[-106.057365,44.960211],[-106.062469,44.960214],[-106.067572,44.960217],[-106.072676,44.960219],[-106.074693,44.96022],[-106.074684,44.961675]]]}},{"type":"Feature","properties":{"sec":"20","frstdivid":"WY060580N0760W0SN200"},"geometry":{"type":"Polygon","coordinates":[[[-106.03998,44.993521],[-106.03687,44.993522],[-106.03491,44.993522],[-106.031765,44.993524],[-106.029839,44.993524],[-106.029047,44.993524],[-106.02666,44.993527],[-106.024769,44.993528],[-106.021555,44.993531],[-106.021559,44.989131],[-106.026664,44.989136],[-106.031769,44.989142],[-106.036874,44.989148],[-106.041979,44.989154],[-106.041974,44.993521],[-106.03998,44.993521]]]}},{"type":"Feature","properties":{"sec":"30","frstdivid":"WY060580N0760W0SN300"},"geometry":{"type":"Polygon","coordinates":[[[-106.074811,44.979748],[-106.074819,44.981939],[-106.074822,44.982218],[-106.074814,44.98336],[-106.074804,44.985559],[-106.074798,44.98698],[-106.074788,44.989179],[-106.072582,44.989178],[-106.067481,44.989175],[-106.062381,44.989172],[-106.057281,44.989169],[-106.05218,44.989166],[-106.04708,44.98916],[-106.041979,44.989154],[-106.04199,44.985535],[-106.042001,44.981915],[-106.042012,44.978296],[-106.04202,44.975972],[-106.042017,44.974676],[-106.044327,44.974679],[-106.047115,44.974682],[-106.049427,44.974685],[-106.052213,44.974687],[-106.054526,44.974689],[-106.057312,44.97469],[-106.06241,44.974693],[-106.064727,44.974694],[-106.067509,44.974696],[-106.069824,44.974697],[-106.072608,44.974699],[-106.07477,44.974699],[-106.074773,44.975566],[-106.07478,44.976137],[-106.074798,44.978319],[-106.074804,44.978893],[-106.074811,44.979748]]]}},{"type":"Feature","properties":{"sec":"29","frstdivid":"WY060580N0760W0SN290"},"geometry":{"type":"Polygon","coordinates":[[[-106.042012,44.978296],[-106.042001,44.981915],[-106.04199,44.985535],[-106.041979,44.989154],[-106.036874,44.989148],[-106.031769,44.989142],[-106.026664,44.989136],[-106.021559,44.989131],[-106.021572,44.98551],[-106.021586,44.98189],[-106.021599,44.97827],[-106.021607,44.975988],[-106.021604,44.97465],[-106.023927,44.974653],[-106.026707,44.974657],[-106.03181,44.974663],[-106.033653,44.974666],[-106.034127,44.974666],[-106.036914,44.97467],[-106.042017,44.974676],[-106.04202,44.975972],[-106.042012,44.978296]]]}},{"type":"Feature","properties":{"sec":"19","frstdivid":"WY060580N0760W0SN190"},"geometry":{"type":"Polygon","coordinates":[[[-106.041979,44.989154],[-106.04708,44.98916],[-106.05218,44.989166],[-106.057281,44.989169],[-106.062381,44.989172],[-106.067481,44.989175],[-106.072582,44.989178],[-106.074788,44.989179],[-106.074787,44.989479],[-106.07478,44.9906],[-106.074743,44.993498],[-106.07258,44.993495],[-106.070619,44.993492],[-106.069415,44.99349],[-106.067479,44.993494],[-106.065514,44.993498],[-106.062378,44.993502],[-106.060409,44.993506],[-106.057277,44.993512],[-106.055302,44.993517],[-106.052176,44.993523],[-106.050195,44.993527],[-106.049368,44.99353],[-106.047075,44.993527],[-106.045087,44.993525],[-106.041974,44.993521],[-106.041979,44.989154]]]}}]}