{"type":"FeatureCollection","note":"BLM Public Land Survey System. Provided by the Bureau of Land Management as is. These data are neither legal documents nor land surveys and must not be used as such.","features":[{"type":"Feature","properties":{"sec":"12","frstdivid":"WY060550N0810W0SN120"},"geometry":{"type":"Polygon","coordinates":[[[-106.565516,44.756024],[-106.565519,44.759701],[-106.565522,44.763379],[-106.560468,44.763352],[-106.555414,44.763326],[-106.550361,44.7633],[-106.545307,44.763274],[-106.545303,44.762813],[-106.54529,44.759606],[-106.545286,44.759155],[-106.545257,44.75594],[-106.545253,44.755509],[-106.545225,44.752274],[-106.545221,44.751864],[-106.545192,44.748607],[-106.550271,44.748623],[-106.555351,44.748638],[-106.560431,44.748653],[-106.565511,44.748669],[-106.565513,44.752346],[-106.565516,44.756024]]]}},{"type":"Feature","properties":{"sec":"32","frstdivid":"WY060550N0810W0SN320"},"geometry":{"type":"Polygon","coordinates":[[[-106.627179,44.701553],[-106.627188,44.70151],[-106.627325,44.700854],[-106.627868,44.698251],[-106.628001,44.697614],[-106.628019,44.697528],[-106.628292,44.696216],[-106.628768,44.693907],[-106.629113,44.692233],[-106.629249,44.691576],[-106.629461,44.690559],[-106.630205,44.686937],[-106.634941,44.687055],[-106.639677,44.687174],[-106.644412,44.687292],[-106.649148,44.68741],[-106.64856,44.691828],[-106.647972,44.696246],[-106.647384,44.700664],[-106.646796,44.705082],[-106.641687,44.705184],[-106.636578,44.705287],[-106.63147,44.70539],[-106.626361,44.705492],[-106.627104,44.701911],[-106.627179,44.701553]]]}},{"type":"Feature","properties":{"sec":"24","frstdivid":"WY060550N0810W0SN240"},"geometry":{"type":"Polygon","coordinates":[[[-106.565336,44.719251],[-106.565353,44.722928],[-106.56537,44.726606],[-106.565387,44.730283],[-106.565404,44.73396],[-106.560336,44.733956],[-106.555269,44.733952],[-106.550201,44.733948],[-106.545134,44.733944],[-106.545131,44.733638],[-106.545079,44.730279],[-106.545076,44.729994],[-106.545049,44.726614],[-106.545047,44.726347],[-106.54502,44.722948],[-106.545018,44.7227],[-106.544967,44.719283],[-106.550051,44.719265],[-106.555135,44.719248],[-106.560235,44.719249],[-106.565336,44.719251]]]}},{"type":"Feature","properties":{"sec":"01","frstdivid":"WY060550N0810W0SN010"},"geometry":{"type":"Polygon","coordinates":[[[-106.565742,44.767059],[-106.565961,44.770739],[-106.566184,44.774419],[-106.566403,44.778064],[-106.561159,44.778033],[-106.555915,44.778003],[-106.550671,44.777973],[-106.545427,44.777943],[-106.545422,44.777405],[-106.545388,44.774275],[-106.545383,44.773788],[-106.545361,44.770608],[-106.545357,44.770129],[-106.545334,44.766941],[-106.54533,44.766471],[-106.545307,44.763274],[-106.550361,44.7633],[-106.555414,44.763326],[-106.560468,44.763352],[-106.565522,44.763379],[-106.565742,44.767059]]]}},{"type":"Feature","properties":{"sec":"25","frstdivid":"WY060550N0810W0SN250"},"geometry":{"type":"Polygon","coordinates":[[[-106.544524,44.704547],[-106.54973,44.704612],[-106.554935,44.704677],[-106.56014,44.704739],[-106.560514,44.704743],[-106.565345,44.704796],[-106.565345,44.70841],[-106.565344,44.712023],[-106.56534,44.715637],[-106.565336,44.719251],[-106.560235,44.719249],[-106.555135,44.719248],[-106.550051,44.719265],[-106.544967,44.719283],[-106.544966,44.719052],[-106.544953,44.715673],[-106.544953,44.715405],[-106.544957,44.712063],[-106.54494,44.711771],[-106.54474,44.708305],[-106.544731,44.708139],[-106.544524,44.704547]]]}},{"type":"Feature","properties":{"sec":"29","frstdivid":"WY060550N0810W0SN290"},"geometry":{"type":"Polygon","coordinates":[[[-106.626224,44.708792],[-106.626361,44.705492],[-106.63147,44.70539],[-106.636578,44.705287],[-106.641687,44.705184],[-106.646796,44.705082],[-106.646716,44.70857],[-106.646637,44.712059],[-106.64665,44.715679],[-106.646663,44.719299],[-106.641521,44.719307],[-106.636379,44.719314],[-106.631237,44.719321],[-106.626095,44.719328],[-106.626091,44.715709],[-106.626086,44.712091],[-106.626224,44.708792]]]}},{"type":"Feature","properties":{"sec":"30","frstdivid":"WY060550N0810W0SN300"},"geometry":{"type":"Polygon","coordinates":[[[-106.666844,44.719381],[-106.661775,44.719373],[-106.65675,44.719364],[-106.651707,44.719332],[-106.646663,44.719299],[-106.64665,44.715679],[-106.646637,44.712059],[-106.646716,44.70857],[-106.646796,44.705082],[-106.65189,44.705069],[-106.656985,44.705057],[-106.662079,44.705041],[-106.667098,44.705026],[-106.666968,44.70856],[-106.666838,44.712093],[-106.666841,44.715737],[-106.666844,44.719381]]]}},{"type":"Feature","properties":{"sec":"05","frstdivid":"WY060550N0810W0SN050"},"geometry":{"type":"Polygon","coordinates":[[[-106.626819,44.762948],[-106.631913,44.76295],[-106.637007,44.762952],[-106.642101,44.762953],[-106.647195,44.762955],[-106.647225,44.766566],[-106.647254,44.770176],[-106.647281,44.773787],[-106.647309,44.777432],[-106.64222,44.777474],[-106.637132,44.777515],[-106.632043,44.777557],[-106.626954,44.777598],[-106.626922,44.773918],[-106.62689,44.770261],[-106.626854,44.766605],[-106.626819,44.762948]]]}},{"type":"Feature","properties":{"sec":"15","frstdivid":"WY060550N0810W0SN150"},"geometry":{"type":"Polygon","coordinates":[[[-106.606194,44.741255],[-106.606243,44.744866],[-106.606292,44.748478],[-106.60116,44.748461],[-106.596028,44.748443],[-106.590896,44.748426],[-106.585763,44.748409],[-106.585742,44.744801],[-106.58572,44.741192],[-106.585734,44.737595],[-106.585749,44.733998],[-106.590829,44.734036],[-106.59591,44.734075],[-106.60099,44.734114],[-106.606071,44.734153],[-106.606132,44.737704],[-106.606194,44.741255]]]}},{"type":"Feature","properties":{"sec":"28","frstdivid":"WY060550N0810W0SN280"},"geometry":{"type":"Polygon","coordinates":[[[-106.616039,44.704814],[-106.6212,44.70515],[-106.626361,44.705492],[-106.626224,44.708792],[-106.626086,44.712091],[-106.626091,44.715709],[-106.626095,44.719328],[-106.620986,44.719317],[-106.615877,44.719306],[-106.610758,44.719301],[-106.605639,44.719296],[-106.605707,44.715669],[-106.605775,44.712041],[-106.605821,44.708432],[-106.605866,44.704822],[-106.610952,44.704818],[-106.616039,44.704814]]]}},{"type":"Feature","properties":{"sec":"02","frstdivid":"WY060550N0810W0SN020"},"geometry":{"type":"Polygon","coordinates":[[[-106.58589,44.770235],[-106.585934,44.773869],[-106.585978,44.777482],[-106.581084,44.777627],[-106.576191,44.777773],[-106.571297,44.777918],[-106.566403,44.778064],[-106.566184,44.774419],[-106.565961,44.770739],[-106.565742,44.767059],[-106.565522,44.763379],[-106.570545,44.763224],[-106.575568,44.763068],[-106.580591,44.762913],[-106.585614,44.762758],[-106.585752,44.766496],[-106.58589,44.770235]]]}},{"type":"Feature","properties":{"sec":"09","frstdivid":"WY060550N0810W0SN090"},"geometry":{"type":"Polygon","coordinates":[[[-106.606485,44.762957],[-106.606437,44.759337],[-106.606389,44.755717],[-106.60634,44.752098],[-106.606292,44.748478],[-106.611408,44.748597],[-106.616525,44.748715],[-106.621641,44.748833],[-106.626757,44.748952],[-106.626772,44.752451],[-106.626788,44.75595],[-106.626803,44.759449],[-106.626819,44.762948],[-106.621735,44.76295],[-106.616652,44.762952],[-106.611568,44.762955],[-106.606485,44.762957]]]}},{"type":"Feature","properties":{"sec":"08","frstdivid":"WY060550N0810W0SN080"},"geometry":{"type":"Polygon","coordinates":[[[-106.647129,44.759312],[-106.647195,44.762955],[-106.642101,44.762953],[-106.637007,44.762952],[-106.631913,44.76295],[-106.626819,44.762948],[-106.626803,44.759449],[-106.626788,44.75595],[-106.626772,44.752451],[-106.626757,44.748952],[-106.6318,44.748809],[-106.636843,44.748667],[-106.641886,44.748524],[-106.64693,44.748382],[-106.646996,44.752025],[-106.647062,44.755668],[-106.647129,44.759312]]]}},{"type":"Feature","properties":{"sec":"31","frstdivid":"WY060550N0810W0SN310"},"geometry":{"type":"Polygon","coordinates":[[[-106.65189,44.705069],[-106.646796,44.705082],[-106.647384,44.700664],[-106.647972,44.696246],[-106.64856,44.691828],[-106.649148,44.68741],[-106.654214,44.687345],[-106.659279,44.68728],[-106.664448,44.687214],[-106.669412,44.68715],[-106.668834,44.691619],[-106.668255,44.696088],[-106.667676,44.700557],[-106.667098,44.705026],[-106.662079,44.705041],[-106.656985,44.705057],[-106.65189,44.705069]]]}},{"type":"Feature","properties":{"sec":"33","frstdivid":"WY060550N0810W0SN330"},"geometry":{"type":"Polygon","coordinates":[[[-106.62311,44.686751],[-106.625469,44.686813],[-106.630205,44.686937],[-106.629461,44.690559],[-106.629249,44.691576],[-106.629113,44.692233],[-106.628768,44.693907],[-106.628292,44.696216],[-106.628019,44.697528],[-106.628001,44.697614],[-106.627868,44.698251],[-106.627325,44.700854],[-106.627188,44.70151],[-106.627179,44.701553],[-106.627104,44.701911],[-106.626361,44.705492],[-106.6212,44.70515],[-106.616039,44.704814],[-106.610952,44.704818],[-106.605866,44.704822],[-106.605866,44.701253],[-106.605866,44.701204],[-106.605868,44.697672],[-106.605868,44.697587],[-106.605872,44.69397],[-106.605872,44.69376],[-106.605871,44.69021],[-106.605871,44.686451],[-106.60613,44.68645],[-106.610945,44.68644],[-106.611262,44.686439],[-106.615997,44.686564],[-106.616015,44.686565],[-106.620733,44.686689],[-106.621085,44.686698],[-106.62311,44.686751]]]}},{"type":"Feature","properties":{"sec":"34","frstdivid":"WY060550N0810W0SN340"},"geometry":{"type":"Polygon","coordinates":[[[-106.595865,44.686491],[-106.6008,44.686471],[-106.600997,44.686471],[-106.605871,44.686451],[-106.605871,44.69021],[-106.605872,44.69376],[-106.605872,44.69397],[-106.605868,44.697587],[-106.605868,44.697672],[-106.605866,44.701204],[-106.605866,44.701253],[-106.605866,44.704822],[-106.6008,44.70481],[-106.595867,44.704797],[-106.595735,44.704797],[-106.590736,44.7048],[-106.59067,44.7048],[-106.585606,44.704797],[-106.585603,44.701304],[-106.585603,44.701176],[-106.585601,44.697555],[-106.585601,44.697402],[-106.5856,44.693934],[-106.5856,44.69378],[-106.585593,44.690233],[-106.585586,44.686531],[-106.585726,44.686531],[-106.590657,44.68651],[-106.590733,44.686509],[-106.595728,44.686492],[-106.595865,44.686491]]]}},{"type":"Feature","properties":{"sec":"36","frstdivid":"WY060550N0810W0SN360"},"geometry":{"type":"Polygon","coordinates":[[[-106.550493,44.686611],[-106.554965,44.68661],[-106.55559,44.68661],[-106.560172,44.68661],[-106.560687,44.68661],[-106.56538,44.686594],[-106.565377,44.690267],[-106.565373,44.69394],[-106.56537,44.697559],[-106.565368,44.701065],[-106.565367,44.701177],[-106.565345,44.704796],[-106.560514,44.704743],[-106.56014,44.704739],[-106.554935,44.704677],[-106.54973,44.704612],[-106.544524,44.704547],[-106.544524,44.704507],[-106.544527,44.700929],[-106.544527,44.700871],[-106.544525,44.697311],[-106.544525,44.697301],[-106.544523,44.69373],[-106.544523,44.693712],[-106.544523,44.693692],[-106.544536,44.690159],[-106.544549,44.686588],[-106.545519,44.686591],[-106.549757,44.686608],[-106.550493,44.686611]]]}},{"type":"Feature","properties":{"sec":"35","frstdivid":"WY060550N0810W0SN350"},"geometry":{"type":"Polygon","coordinates":[[[-106.57571,44.704788],[-106.575476,44.704788],[-106.570528,44.704792],[-106.570411,44.704792],[-106.565345,44.704796],[-106.565367,44.701177],[-106.565368,44.701065],[-106.56537,44.697559],[-106.565373,44.69394],[-106.565377,44.690267],[-106.56538,44.686594],[-106.565694,44.686593],[-106.570431,44.68658],[-106.570702,44.686579],[-106.575483,44.686564],[-106.57571,44.686563],[-106.580535,44.686547],[-106.580718,44.686547],[-106.585586,44.686531],[-106.585593,44.690233],[-106.5856,44.69378],[-106.5856,44.693934],[-106.585601,44.697402],[-106.585601,44.697555],[-106.585603,44.701176],[-106.585603,44.701304],[-106.585606,44.704797],[-106.580719,44.704794],[-106.580541,44.704794],[-106.57571,44.704788]]]}},{"type":"Feature","properties":{"sec":"26","frstdivid":"WY060550N0810W0SN260"},"geometry":{"type":"Polygon","coordinates":[[[-106.580485,44.719347],[-106.575435,44.719315],[-106.570386,44.719283],[-106.565336,44.719251],[-106.56534,44.715637],[-106.565344,44.712023],[-106.565345,44.70841],[-106.565345,44.704796],[-106.570411,44.704792],[-106.570528,44.704792],[-106.575476,44.704788],[-106.57571,44.704788],[-106.580541,44.704794],[-106.580719,44.704794],[-106.585606,44.704797],[-106.585588,44.708443],[-106.58557,44.712089],[-106.585552,44.715734],[-106.585535,44.719379],[-106.580485,44.719347]]]}},{"type":"Feature","properties":{"sec":"04","frstdivid":"WY060550N0810W0SN040"},"geometry":{"type":"Polygon","coordinates":[[[-106.616652,44.762952],[-106.621735,44.76295],[-106.626819,44.762948],[-106.626854,44.766605],[-106.62689,44.770261],[-106.626922,44.773918],[-106.626954,44.777598],[-106.621813,44.777648],[-106.616672,44.777697],[-106.611542,44.777642],[-106.606411,44.777586],[-106.606446,44.773903],[-106.606482,44.770166],[-106.606483,44.766561],[-106.606485,44.762957],[-106.611568,44.762955],[-106.616652,44.762952]]]}},{"type":"Feature","properties":{"sec":"21","frstdivid":"WY060550N0810W0SN210"},"geometry":{"type":"Polygon","coordinates":[[[-106.626042,44.726619],[-106.626247,44.730358],[-106.626452,44.734096],[-106.621369,44.734119],[-106.616287,44.734141],[-106.611179,44.734147],[-106.606071,44.734153],[-106.605765,44.730324],[-106.60546,44.726496],[-106.60555,44.722896],[-106.605639,44.719296],[-106.610758,44.719301],[-106.615877,44.719306],[-106.620986,44.719317],[-106.626095,44.719328],[-106.626069,44.722973],[-106.626042,44.726619]]]}},{"type":"Feature","properties":{"sec":"20","frstdivid":"WY060550N0810W0SN200"},"geometry":{"type":"Polygon","coordinates":[[[-106.626095,44.719328],[-106.631237,44.719321],[-106.636379,44.719314],[-106.641521,44.719307],[-106.646663,44.719299],[-106.646617,44.722938],[-106.64657,44.726577],[-106.646486,44.730195],[-106.646402,44.733813],[-106.641415,44.733884],[-106.636427,44.733954],[-106.631439,44.734025],[-106.626452,44.734096],[-106.626247,44.730358],[-106.626042,44.726619],[-106.626069,44.722973],[-106.626095,44.719328]]]}},{"type":"Feature","properties":{"sec":"22","frstdivid":"WY060550N0810W0SN220"},"geometry":{"type":"Polygon","coordinates":[[[-106.606071,44.734153],[-106.60099,44.734114],[-106.59591,44.734075],[-106.590829,44.734036],[-106.585749,44.733998],[-106.585695,44.730343],[-106.585642,44.726688],[-106.585588,44.723033],[-106.585535,44.719379],[-106.590601,44.719376],[-106.595667,44.719377],[-106.600653,44.719336],[-106.605639,44.719296],[-106.60555,44.722896],[-106.60546,44.726496],[-106.605765,44.730324],[-106.606071,44.734153]]]}},{"type":"Feature","properties":{"sec":"19","frstdivid":"WY060550N0810W0SN190"},"geometry":{"type":"Polygon","coordinates":[[[-106.666798,44.729994],[-106.666776,44.7336],[-106.661746,44.733651],[-106.656632,44.733702],[-106.651517,44.733757],[-106.646402,44.733813],[-106.646486,44.730195],[-106.64657,44.726577],[-106.646617,44.722938],[-106.646663,44.719299],[-106.651707,44.719332],[-106.65675,44.719364],[-106.661775,44.719373],[-106.666844,44.719381],[-106.666832,44.722885],[-106.66682,44.726388],[-106.666798,44.729994]]]}},{"type":"Feature","properties":{"sec":"27","frstdivid":"WY060550N0810W0SN270"},"geometry":{"type":"Polygon","coordinates":[[[-106.585606,44.704797],[-106.59067,44.7048],[-106.590736,44.7048],[-106.595735,44.704797],[-106.595867,44.704797],[-106.6008,44.70481],[-106.605866,44.704822],[-106.605821,44.708432],[-106.605775,44.712041],[-106.605707,44.715669],[-106.605639,44.719296],[-106.600653,44.719336],[-106.595667,44.719377],[-106.590601,44.719376],[-106.585535,44.719379],[-106.585552,44.715734],[-106.58557,44.712089],[-106.585588,44.708443],[-106.585606,44.704797]]]}},{"type":"Feature","properties":{"sec":"23","frstdivid":"WY060550N0810W0SN230"},"geometry":{"type":"Polygon","coordinates":[[[-106.565387,44.730283],[-106.56537,44.726606],[-106.565353,44.722928],[-106.565336,44.719251],[-106.570386,44.719283],[-106.575435,44.719315],[-106.580485,44.719347],[-106.585535,44.719379],[-106.585588,44.723033],[-106.585642,44.726688],[-106.585695,44.730343],[-106.585749,44.733998],[-106.580662,44.733988],[-106.575576,44.733979],[-106.57049,44.73397],[-106.565404,44.73396],[-106.565387,44.730283]]]}},{"type":"Feature","properties":{"sec":"18","frstdivid":"WY060550N0810W0SN180"},"geometry":{"type":"Polygon","coordinates":[[[-106.646798,44.74474],[-106.646666,44.741097],[-106.646534,44.737455],[-106.646402,44.733813],[-106.651517,44.733757],[-106.656632,44.733702],[-106.661746,44.733651],[-106.666776,44.7336],[-106.666812,44.737243],[-106.666847,44.740886],[-106.666883,44.744529],[-106.666918,44.748171],[-106.662055,44.748217],[-106.657013,44.748264],[-106.651971,44.748323],[-106.64693,44.748382],[-106.646798,44.74474]]]}},{"type":"Feature","properties":{"sec":"14","frstdivid":"WY060550N0810W0SN140"},"geometry":{"type":"Polygon","coordinates":[[[-106.575635,44.74809],[-106.570573,44.74838],[-106.565511,44.748669],[-106.565484,44.744992],[-106.565457,44.741315],[-106.565431,44.737637],[-106.565404,44.73396],[-106.57049,44.73397],[-106.575576,44.733979],[-106.580662,44.733988],[-106.585749,44.733998],[-106.585734,44.737595],[-106.58572,44.741192],[-106.585742,44.744801],[-106.585763,44.748409],[-106.580699,44.74825],[-106.575635,44.74809]]]}},{"type":"Feature","properties":{"sec":"10","frstdivid":"WY060550N0810W0SN100"},"geometry":{"type":"Polygon","coordinates":[[[-106.606437,44.759337],[-106.606485,44.762957],[-106.601267,44.762907],[-106.596049,44.762857],[-106.590832,44.762808],[-106.585614,44.762758],[-106.585651,44.759171],[-106.585689,44.755584],[-106.585726,44.751996],[-106.585763,44.748409],[-106.590896,44.748426],[-106.596028,44.748443],[-106.60116,44.748461],[-106.606292,44.748478],[-106.60634,44.752098],[-106.606389,44.755717],[-106.606437,44.759337]]]}},{"type":"Feature","properties":{"sec":"06","frstdivid":"WY060550N0810W0SN060"},"geometry":{"type":"Polygon","coordinates":[[[-106.662283,44.762786],[-106.667028,44.762739],[-106.667058,44.766381],[-106.667089,44.770023],[-106.667119,44.773653],[-106.667149,44.777283],[-106.662454,44.777317],[-106.657406,44.777353],[-106.652358,44.777393],[-106.647309,44.777432],[-106.647281,44.773787],[-106.647254,44.770176],[-106.647225,44.766566],[-106.647195,44.762955],[-106.652224,44.762896],[-106.657254,44.762836],[-106.662283,44.762786]]]}},{"type":"Feature","properties":{"sec":"03","frstdivid":"WY060550N0810W0SN030"},"geometry":{"type":"Polygon","coordinates":[[[-106.606485,44.762957],[-106.606483,44.766561],[-106.606482,44.770166],[-106.606446,44.773903],[-106.606411,44.777586],[-106.60128,44.777527],[-106.596149,44.777467],[-106.591064,44.777474],[-106.585978,44.777482],[-106.585934,44.773869],[-106.58589,44.770235],[-106.585752,44.766496],[-106.585614,44.762758],[-106.590832,44.762808],[-106.596049,44.762857],[-106.601267,44.762907],[-106.606485,44.762957]]]}},{"type":"Feature","properties":{"sec":"11","frstdivid":"WY060550N0810W0SN110"},"geometry":{"type":"Polygon","coordinates":[[[-106.575635,44.74809],[-106.580699,44.74825],[-106.585763,44.748409],[-106.585726,44.751996],[-106.585689,44.755584],[-106.585651,44.759171],[-106.585614,44.762758],[-106.580591,44.762913],[-106.575568,44.763068],[-106.570545,44.763224],[-106.565522,44.763379],[-106.565519,44.759701],[-106.565516,44.756024],[-106.565513,44.752346],[-106.565511,44.748669],[-106.570573,44.74838],[-106.575635,44.74809]]]}},{"type":"Feature","properties":{"sec":"13","frstdivid":"WY060550N0810W0SN130"},"geometry":{"type":"Polygon","coordinates":[[[-106.555351,44.748638],[-106.550271,44.748623],[-106.545192,44.748607],[-106.545188,44.748218],[-106.545175,44.744941],[-106.545172,44.744573],[-106.545154,44.741275],[-106.545151,44.740927],[-106.545135,44.737609],[-106.545132,44.737304],[-106.545132,44.737283],[-106.545134,44.733944],[-106.550201,44.733948],[-106.555269,44.733952],[-106.560336,44.733956],[-106.565404,44.73396],[-106.565431,44.737637],[-106.565457,44.741315],[-106.565484,44.744992],[-106.565511,44.748669],[-106.560431,44.748653],[-106.555351,44.748638]]]}},{"type":"Feature","properties":{"sec":"16","frstdivid":"WY060550N0810W0SN160"},"geometry":{"type":"Polygon","coordinates":[[[-106.626757,44.748952],[-106.621641,44.748833],[-106.616525,44.748715],[-106.611408,44.748597],[-106.606292,44.748478],[-106.606243,44.744866],[-106.606194,44.741255],[-106.606132,44.737704],[-106.606071,44.734153],[-106.611179,44.734147],[-106.616287,44.734141],[-106.621369,44.734119],[-106.626452,44.734096],[-106.626528,44.73781],[-106.626604,44.741524],[-106.626681,44.745238],[-106.626757,44.748952]]]}},{"type":"Feature","properties":{"sec":"07","frstdivid":"WY060550N0810W0SN070"},"geometry":{"type":"Polygon","coordinates":[[[-106.666973,44.755455],[-106.667,44.759097],[-106.667028,44.762739],[-106.662283,44.762786],[-106.657254,44.762836],[-106.652224,44.762896],[-106.647195,44.762955],[-106.647129,44.759312],[-106.647062,44.755668],[-106.646996,44.752025],[-106.64693,44.748382],[-106.651971,44.748323],[-106.657013,44.748264],[-106.662055,44.748217],[-106.666918,44.748171],[-106.666945,44.751813],[-106.666973,44.755455]]]}},{"type":"Feature","properties":{"sec":"17","frstdivid":"WY060550N0810W0SN170"},"geometry":{"type":"Polygon","coordinates":[[[-106.626757,44.748952],[-106.626681,44.745238],[-106.626604,44.741524],[-106.626528,44.73781],[-106.626452,44.734096],[-106.631439,44.734025],[-106.636427,44.733954],[-106.641415,44.733884],[-106.646402,44.733813],[-106.646534,44.737455],[-106.646666,44.741097],[-106.646798,44.74474],[-106.64693,44.748382],[-106.641886,44.748524],[-106.636843,44.748667],[-106.6318,44.748809],[-106.626757,44.748952]]]}}]}