{"type":"FeatureCollection","note":"BLM Public Land Survey System. Provided by the Bureau of Land Management as is. These data are neither legal documents nor land surveys and must not be used as such.","features":[{"type":"Feature","properties":{"sec":"23","frstdivid":"MT200130N0330E0SN230"},"geometry":{"type":"Polygon","coordinates":[[[-107.488304,46.869291],[-107.488321,46.865668],[-107.493462,46.865678],[-107.498603,46.865687],[-107.503744,46.865697],[-107.508885,46.865706],[-107.508848,46.869336],[-107.508811,46.872965],[-107.508774,46.876594],[-107.508737,46.880223],[-107.503616,46.880207],[-107.498495,46.880191],[-107.493375,46.880175],[-107.488254,46.880158],[-107.488271,46.876536],[-107.488287,46.872913],[-107.488304,46.869291]]]}},{"type":"Feature","properties":{"sec":"31","frstdivid":"MT200130N0330E0SN310"},"geometry":{"type":"Polygon","coordinates":[[[-107.57136,46.847594],[-107.57208,46.84395],[-107.5728,46.840307],[-107.57352,46.836663],[-107.57483,46.836662],[-107.5788,46.83666],[-107.5801,46.83666],[-107.58408,46.836657],[-107.585378,46.836656],[-107.589357,46.836654],[-107.590655,46.836653],[-107.594635,46.836651],[-107.593787,46.840307],[-107.592939,46.843963],[-107.592091,46.84762],[-107.591243,46.851276],[-107.586093,46.851267],[-107.580942,46.851258],[-107.575791,46.851248],[-107.570639,46.851238],[-107.57136,46.847594]]]}},{"type":"Feature","properties":{"sec":"21","frstdivid":"MT200130N0330E0SN210"},"geometry":{"type":"Polygon","coordinates":[[[-107.529453,46.865746],[-107.534588,46.865756],[-107.539723,46.865767],[-107.544858,46.865777],[-107.549993,46.865787],[-107.549934,46.869427],[-107.549875,46.873066],[-107.549816,46.876706],[-107.549757,46.880346],[-107.544622,46.880331],[-107.539488,46.880316],[-107.534353,46.880302],[-107.529218,46.880287],[-107.529277,46.876652],[-107.529335,46.873017],[-107.529394,46.869381],[-107.529453,46.865746]]]}},{"type":"Feature","properties":{"sec":"14","frstdivid":"MT200130N0330E0SN140"},"geometry":{"type":"Polygon","coordinates":[[[-107.503566,46.894721],[-107.498451,46.894696],[-107.493335,46.89467],[-107.48822,46.894645],[-107.488228,46.891023],[-107.488237,46.887401],[-107.488245,46.88378],[-107.488254,46.880158],[-107.493375,46.880175],[-107.498495,46.880191],[-107.503616,46.880207],[-107.508737,46.880223],[-107.508723,46.883854],[-107.50871,46.887485],[-107.508696,46.891116],[-107.508682,46.894746],[-107.503566,46.894721]]]}},{"type":"Feature","properties":{"sec":"05","frstdivid":"MT200130N0330E0SN050"},"geometry":{"type":"Polygon","coordinates":[[[-107.569777,46.924171],[-107.564665,46.924142],[-107.559553,46.924113],[-107.554441,46.924085],[-107.54933,46.924056],[-107.549363,46.920388],[-107.549395,46.916748],[-107.549428,46.913108],[-107.549462,46.909467],[-107.554581,46.909495],[-107.559701,46.909523],[-107.56482,46.90955],[-107.56994,46.909578],[-107.569898,46.913222],[-107.569857,46.916866],[-107.569817,46.920508],[-107.569777,46.924171]]]}},{"type":"Feature","properties":{"sec":"29","frstdivid":"MT200130N0330E0SN290"},"geometry":{"type":"Polygon","coordinates":[[[-107.560353,46.851232],[-107.565496,46.851235],[-107.570639,46.851238],[-107.570605,46.854884],[-107.570571,46.85853],[-107.570537,46.862176],[-107.570503,46.865822],[-107.565375,46.865813],[-107.560248,46.865804],[-107.55512,46.865796],[-107.549993,46.865787],[-107.550012,46.862147],[-107.55003,46.858507],[-107.550048,46.854866],[-107.550066,46.851226],[-107.55521,46.851229],[-107.560353,46.851232]]]}},{"type":"Feature","properties":{"sec":"15","frstdivid":"MT200130N0330E0SN150"},"geometry":{"type":"Polygon","coordinates":[[[-107.508723,46.883854],[-107.508737,46.880223],[-107.513857,46.880239],[-107.518978,46.880255],[-107.524098,46.880271],[-107.529218,46.880287],[-107.529214,46.883924],[-107.52921,46.88756],[-107.529207,46.891197],[-107.529203,46.894833],[-107.524072,46.894811],[-107.518942,46.89479],[-107.513812,46.894768],[-107.508682,46.894746],[-107.508696,46.891116],[-107.50871,46.887485],[-107.508723,46.883854]]]}},{"type":"Feature","properties":{"sec":"20","frstdivid":"MT200130N0330E0SN200"},"geometry":{"type":"Polygon","coordinates":[[[-107.560028,46.880375],[-107.554893,46.88036],[-107.549757,46.880346],[-107.549816,46.876706],[-107.549875,46.873066],[-107.549934,46.869427],[-107.549993,46.865787],[-107.55512,46.865796],[-107.560248,46.865804],[-107.565375,46.865813],[-107.570503,46.865822],[-107.570452,46.869467],[-107.570401,46.873113],[-107.57035,46.876758],[-107.570299,46.880404],[-107.565164,46.880389],[-107.560028,46.880375]]]}},{"type":"Feature","properties":{"sec":"09","frstdivid":"MT200130N0330E0SN090"},"geometry":{"type":"Polygon","coordinates":[[[-107.54963,46.898549],[-107.549574,46.902188],[-107.549518,46.905828],[-107.549462,46.909467],[-107.544349,46.909443],[-107.539237,46.909418],[-107.534125,46.909394],[-107.529012,46.909369],[-107.52906,46.905735],[-107.529108,46.902101],[-107.529155,46.898467],[-107.529203,46.894833],[-107.534323,46.894852],[-107.539444,46.894871],[-107.544565,46.89489],[-107.549686,46.894909],[-107.54963,46.898549]]]}},{"type":"Feature","properties":{"sec":"32","frstdivid":"MT200130N0330E0SN320"},"geometry":{"type":"Polygon","coordinates":[[[-107.550066,46.851226],[-107.550663,46.847586],[-107.551259,46.843946],[-107.551855,46.840306],[-107.552451,46.836666],[-107.553751,46.836666],[-107.557722,46.836666],[-107.559019,46.836666],[-107.562993,46.836664],[-107.56429,46.836664],[-107.568256,46.836664],[-107.56956,46.836664],[-107.57352,46.836663],[-107.5728,46.840307],[-107.57208,46.84395],[-107.57136,46.847594],[-107.570639,46.851238],[-107.565496,46.851235],[-107.560353,46.851232],[-107.55521,46.851229],[-107.550066,46.851226]]]}},{"type":"Feature","properties":{"sec":"26","frstdivid":"MT200130N0330E0SN260"},"geometry":{"type":"Polygon","coordinates":[[[-107.503773,46.851194],[-107.508915,46.851199],[-107.508908,46.854826],[-107.5089,46.858453],[-107.508893,46.86208],[-107.508885,46.865706],[-107.503744,46.865697],[-107.498603,46.865687],[-107.493462,46.865678],[-107.488321,46.865668],[-107.488327,46.862046],[-107.488334,46.858424],[-107.48834,46.854802],[-107.488346,46.85118],[-107.493489,46.851184],[-107.498631,46.851189],[-107.503773,46.851194]]]}},{"type":"Feature","properties":{"sec":"34","frstdivid":"MT200130N0330E0SN340"},"geometry":{"type":"Polygon","coordinates":[[[-107.514061,46.851201],[-107.508915,46.851199],[-107.509223,46.847569],[-107.509531,46.843939],[-107.509839,46.840309],[-107.510147,46.836679],[-107.51143,46.836679],[-107.515456,46.836678],[-107.516705,46.836677],[-107.520766,46.836675],[-107.522015,46.836675],[-107.526043,46.836674],[-107.527324,46.836674],[-107.53132,46.836672],[-107.530864,46.840306],[-107.530409,46.84394],[-107.529953,46.847573],[-107.529498,46.851207],[-107.524352,46.851205],[-107.519206,46.851203],[-107.514061,46.851201]]]}},{"type":"Feature","properties":{"sec":"36","frstdivid":"MT200130N0330E0SN360"},"geometry":{"type":"Polygon","coordinates":[[[-107.46779,46.848406],[-107.467793,46.847548],[-107.467801,46.844787],[-107.467803,46.843929],[-107.46781,46.841158],[-107.467813,46.840312],[-107.46782,46.837529],[-107.467822,46.836694],[-107.473034,46.83669],[-107.47311,46.83669],[-107.478325,46.836686],[-107.478398,46.836686],[-107.483616,46.836686],[-107.483695,46.836686],[-107.488918,46.836687],[-107.488992,46.836687],[-107.48883,46.84031],[-107.488669,46.843933],[-107.488508,46.847556],[-107.488346,46.85118],[-107.483205,46.851177],[-107.478064,46.851173],[-107.472923,46.85117],[-107.467782,46.851167],[-107.46779,46.848406]]]}},{"type":"Feature","properties":{"sec":"25","frstdivid":"MT200130N0330E0SN250"},"geometry":{"type":"Polygon","coordinates":[[[-107.467772,46.854785],[-107.46778,46.852025],[-107.467782,46.851167],[-107.472923,46.85117],[-107.478064,46.851173],[-107.483205,46.851177],[-107.488346,46.85118],[-107.48834,46.854802],[-107.488334,46.858424],[-107.488327,46.862046],[-107.488321,46.865668],[-107.483176,46.86566],[-107.478031,46.865652],[-107.472887,46.865644],[-107.467742,46.865636],[-107.46775,46.86287],[-107.467752,46.86202],[-107.46776,46.859261],[-107.467762,46.858404],[-107.46777,46.855643],[-107.467772,46.854785]]]}},{"type":"Feature","properties":{"sec":"01","frstdivid":"MT200130N0330E0SN010"},"geometry":{"type":"Polygon","coordinates":[[[-107.477733,46.923605],[-107.472616,46.923573],[-107.467498,46.92354],[-107.467517,46.920686],[-107.467522,46.919922],[-107.467541,46.917065],[-107.467546,46.916305],[-107.467565,46.913447],[-107.46757,46.912685],[-107.467588,46.909915],[-107.467593,46.909064],[-107.472715,46.909087],[-107.477836,46.909109],[-107.482958,46.909132],[-107.48808,46.909154],[-107.488052,46.912778],[-107.488024,46.916401],[-107.487996,46.920024],[-107.487969,46.923671],[-107.482851,46.923638],[-107.477733,46.923605]]]}},{"type":"Feature","properties":{"sec":"19","frstdivid":"MT200130N0330E0SN190"},"geometry":{"type":"Polygon","coordinates":[[[-107.570452,46.869467],[-107.570503,46.865822],[-107.575639,46.865841],[-107.580776,46.86586],[-107.585912,46.865878],[-107.590996,46.865896],[-107.590934,46.869546],[-107.590873,46.873195],[-107.590812,46.876845],[-107.590751,46.880495],[-107.585694,46.880473],[-107.580562,46.88045],[-107.57543,46.880427],[-107.570299,46.880404],[-107.57035,46.876758],[-107.570401,46.873113],[-107.570452,46.869467]]]}},{"type":"Feature","properties":{"sec":"27","frstdivid":"MT200130N0330E0SN270"},"geometry":{"type":"Polygon","coordinates":[[[-107.529498,46.851207],[-107.529486,46.854842],[-107.529475,46.858477],[-107.529464,46.862111],[-107.529453,46.865746],[-107.524311,46.865736],[-107.519169,46.865726],[-107.514027,46.865716],[-107.508885,46.865706],[-107.508893,46.86208],[-107.5089,46.858453],[-107.508908,46.854826],[-107.508915,46.851199],[-107.514061,46.851201],[-107.519206,46.851203],[-107.524352,46.851205],[-107.529498,46.851207]]]}},{"type":"Feature","properties":{"sec":"24","frstdivid":"MT200130N0330E0SN240"},"geometry":{"type":"Polygon","coordinates":[[[-107.488304,46.869291],[-107.488287,46.872913],[-107.488271,46.876536],[-107.488254,46.880158],[-107.483116,46.88015],[-107.477978,46.880142],[-107.47284,46.880134],[-107.467702,46.880126],[-107.46771,46.877318],[-107.467713,46.876501],[-107.467721,46.873693],[-107.467723,46.872877],[-107.46773,46.870086],[-107.467733,46.869256],[-107.46774,46.866478],[-107.467742,46.865636],[-107.472887,46.865644],[-107.478031,46.865652],[-107.483176,46.86566],[-107.488321,46.865668],[-107.488304,46.869291]]]}},{"type":"Feature","properties":{"sec":"18","frstdivid":"MT200130N0330E0SN180"},"geometry":{"type":"Polygon","coordinates":[[[-107.590501,46.895096],[-107.58553,46.895069],[-107.580407,46.895042],[-107.575285,46.895014],[-107.570163,46.894987],[-107.570197,46.891341],[-107.570231,46.887695],[-107.570265,46.88405],[-107.570299,46.880404],[-107.57543,46.880427],[-107.580562,46.88045],[-107.585694,46.880473],[-107.590751,46.880495],[-107.590688,46.884145],[-107.590626,46.887795],[-107.590564,46.891445],[-107.590501,46.895096]]]}},{"type":"Feature","properties":{"sec":"35","frstdivid":"MT200130N0330E0SN350"},"geometry":{"type":"Polygon","coordinates":[[[-107.488992,46.836687],[-107.494222,46.836684],[-107.494291,46.836684],[-107.495608,46.836684],[-107.499591,46.836683],[-107.500882,46.836682],[-107.504869,46.836681],[-107.506156,46.836681],[-107.510147,46.836679],[-107.509839,46.840309],[-107.509531,46.843939],[-107.509223,46.847569],[-107.508915,46.851199],[-107.503773,46.851194],[-107.498631,46.851189],[-107.493489,46.851184],[-107.488346,46.85118],[-107.488508,46.847556],[-107.488669,46.843933],[-107.48883,46.84031],[-107.488992,46.836687]]]}},{"type":"Feature","properties":{"sec":"08","frstdivid":"MT200130N0330E0SN080"},"geometry":{"type":"Polygon","coordinates":[[[-107.54963,46.898549],[-107.549686,46.894909],[-107.554805,46.894929],[-107.559924,46.894948],[-107.565043,46.894967],[-107.570163,46.894987],[-107.570107,46.898635],[-107.570051,46.902282],[-107.569995,46.90593],[-107.56994,46.909578],[-107.56482,46.90955],[-107.559701,46.909523],[-107.554581,46.909495],[-107.549462,46.909467],[-107.549518,46.905828],[-107.549574,46.902188],[-107.54963,46.898549]]]}},{"type":"Feature","properties":{"sec":"17","frstdivid":"MT200130N0330E0SN170"},"geometry":{"type":"Polygon","coordinates":[[[-107.570299,46.880404],[-107.570265,46.88405],[-107.570231,46.887695],[-107.570197,46.891341],[-107.570163,46.894987],[-107.565043,46.894967],[-107.559924,46.894948],[-107.554805,46.894929],[-107.549686,46.894909],[-107.549704,46.891268],[-107.549721,46.887627],[-107.549739,46.883986],[-107.549757,46.880346],[-107.554893,46.88036],[-107.560028,46.880375],[-107.565164,46.880389],[-107.570299,46.880404]]]}},{"type":"Feature","properties":{"sec":"16","frstdivid":"MT200130N0330E0SN160"},"geometry":{"type":"Polygon","coordinates":[[[-107.549757,46.880346],[-107.549739,46.883986],[-107.549721,46.887627],[-107.549704,46.891268],[-107.549686,46.894909],[-107.544565,46.89489],[-107.539444,46.894871],[-107.534323,46.894852],[-107.529203,46.894833],[-107.529207,46.891197],[-107.52921,46.88756],[-107.529214,46.883924],[-107.529218,46.880287],[-107.534353,46.880302],[-107.539488,46.880316],[-107.544622,46.880331],[-107.549757,46.880346]]]}},{"type":"Feature","properties":{"sec":"30","frstdivid":"MT200130N0330E0SN300"},"geometry":{"type":"Polygon","coordinates":[[[-107.590996,46.865896],[-107.585912,46.865878],[-107.580776,46.86586],[-107.575639,46.865841],[-107.570503,46.865822],[-107.570537,46.862176],[-107.570571,46.85853],[-107.570605,46.854884],[-107.570639,46.851238],[-107.575791,46.851248],[-107.580942,46.851258],[-107.586093,46.851267],[-107.591243,46.851276],[-107.591181,46.854931],[-107.591119,46.858586],[-107.591057,46.862241],[-107.590996,46.865896]]]}},{"type":"Feature","properties":{"sec":"06","frstdivid":"MT200130N0330E0SN060"},"geometry":{"type":"Polygon","coordinates":[[[-107.574888,46.924199],[-107.569777,46.924171],[-107.569817,46.920508],[-107.569857,46.916866],[-107.569898,46.913222],[-107.56994,46.909578],[-107.575066,46.909605],[-107.580192,46.909631],[-107.585329,46.909658],[-107.590251,46.909683],[-107.590191,46.913333],[-107.590131,46.916983],[-107.590071,46.920633],[-107.590011,46.924283],[-107.585113,46.924255],[-107.579999,46.924227],[-107.574888,46.924199]]]}},{"type":"Feature","properties":{"sec":"13","frstdivid":"MT200130N0330E0SN130"},"geometry":{"type":"Polygon","coordinates":[[[-107.477944,46.89463],[-107.472806,46.894623],[-107.467668,46.894615],[-107.467674,46.891812],[-107.467676,46.89099],[-107.467682,46.888189],[-107.467684,46.887365],[-107.467691,46.884566],[-107.467693,46.883746],[-107.4677,46.880943],[-107.467702,46.880126],[-107.47284,46.880134],[-107.477978,46.880142],[-107.483116,46.88015],[-107.488254,46.880158],[-107.488245,46.88378],[-107.488237,46.887401],[-107.488228,46.891023],[-107.48822,46.894645],[-107.483082,46.894637],[-107.477944,46.89463]]]}},{"type":"Feature","properties":{"sec":"04","frstdivid":"MT200130N0330E0SN040"},"geometry":{"type":"Polygon","coordinates":[[[-107.528982,46.913004],[-107.529012,46.909369],[-107.534125,46.909394],[-107.539237,46.909418],[-107.544349,46.909443],[-107.549462,46.909467],[-107.549428,46.913108],[-107.549395,46.916748],[-107.549363,46.920388],[-107.54933,46.924056],[-107.54422,46.924024],[-107.53911,46.923993],[-107.534,46.923961],[-107.52889,46.923929],[-107.52892,46.920273],[-107.528951,46.916638],[-107.528982,46.913004]]]}},{"type":"Feature","properties":{"sec":"12","frstdivid":"MT200130N0330E0SN120"},"geometry":{"type":"Polygon","coordinates":[[[-107.48808,46.909154],[-107.482958,46.909132],[-107.477836,46.909109],[-107.472715,46.909087],[-107.467593,46.909064],[-107.467607,46.906295],[-107.467612,46.905443],[-107.467626,46.902675],[-107.46763,46.901823],[-107.467644,46.899055],[-107.467649,46.898219],[-107.467664,46.895434],[-107.467668,46.894615],[-107.472806,46.894623],[-107.477944,46.89463],[-107.483082,46.894637],[-107.48822,46.894645],[-107.488185,46.898272],[-107.48815,46.901899],[-107.488115,46.905527],[-107.48808,46.909154]]]}},{"type":"Feature","properties":{"sec":"22","frstdivid":"MT200130N0330E0SN220"},"geometry":{"type":"Polygon","coordinates":[[[-107.524098,46.880271],[-107.518978,46.880255],[-107.513857,46.880239],[-107.508737,46.880223],[-107.508774,46.876594],[-107.508811,46.872965],[-107.508848,46.869336],[-107.508885,46.865706],[-107.514027,46.865716],[-107.519169,46.865726],[-107.524311,46.865736],[-107.529453,46.865746],[-107.529394,46.869381],[-107.529335,46.873017],[-107.529277,46.876652],[-107.529218,46.880287],[-107.524098,46.880271]]]}},{"type":"Feature","properties":{"sec":"33","frstdivid":"MT200130N0330E0SN330"},"geometry":{"type":"Polygon","coordinates":[[[-107.532636,46.836672],[-107.536605,46.83667],[-107.537947,46.83667],[-107.54189,46.836669],[-107.543216,46.836668],[-107.54717,46.836668],[-107.548484,46.836668],[-107.552451,46.836666],[-107.551855,46.840306],[-107.551259,46.843946],[-107.550663,46.847586],[-107.550066,46.851226],[-107.544924,46.851221],[-107.539782,46.851217],[-107.53464,46.851212],[-107.529498,46.851207],[-107.529953,46.847573],[-107.530409,46.84394],[-107.530864,46.840306],[-107.53132,46.836672],[-107.532636,46.836672]]]}},{"type":"Feature","properties":{"sec":"02","frstdivid":"MT200130N0330E0SN020"},"geometry":{"type":"Polygon","coordinates":[[[-107.508432,46.923801],[-107.503316,46.923769],[-107.4982,46.923736],[-107.493084,46.923703],[-107.487969,46.923671],[-107.487996,46.920024],[-107.488024,46.916401],[-107.488052,46.912778],[-107.48808,46.909154],[-107.493194,46.909182],[-107.498309,46.90921],[-107.503424,46.909238],[-107.508539,46.909266],[-107.508512,46.912896],[-107.508485,46.916525],[-107.508459,46.920155],[-107.508432,46.923801]]]}},{"type":"Feature","properties":{"sec":"03","frstdivid":"MT200130N0330E0SN030"},"geometry":{"type":"Polygon","coordinates":[[[-107.523894,46.909344],[-107.529012,46.909369],[-107.528982,46.913004],[-107.528951,46.916638],[-107.52892,46.920273],[-107.52889,46.923929],[-107.523776,46.923897],[-107.518661,46.923865],[-107.513547,46.923833],[-107.508432,46.923801],[-107.508459,46.920155],[-107.508485,46.916525],[-107.508512,46.912896],[-107.508539,46.909266],[-107.513657,46.909292],[-107.518776,46.909318],[-107.523894,46.909344]]]}},{"type":"Feature","properties":{"sec":"07","frstdivid":"MT200130N0330E0SN070"},"geometry":{"type":"Polygon","coordinates":[[[-107.590251,46.909683],[-107.585329,46.909658],[-107.580192,46.909631],[-107.575066,46.909605],[-107.56994,46.909578],[-107.569995,46.90593],[-107.570051,46.902282],[-107.570107,46.898635],[-107.570163,46.894987],[-107.575285,46.895014],[-107.580407,46.895042],[-107.58553,46.895069],[-107.590501,46.895096],[-107.590439,46.898743],[-107.590376,46.90239],[-107.590313,46.906036],[-107.590251,46.909683]]]}},{"type":"Feature","properties":{"sec":"10","frstdivid":"MT200130N0330E0SN100"},"geometry":{"type":"Polygon","coordinates":[[[-107.518776,46.909318],[-107.513657,46.909292],[-107.508539,46.909266],[-107.508575,46.905636],[-107.508611,46.902006],[-107.508646,46.898376],[-107.508682,46.894746],[-107.513812,46.894768],[-107.518942,46.89479],[-107.524072,46.894811],[-107.529203,46.894833],[-107.529155,46.898467],[-107.529108,46.902101],[-107.52906,46.905735],[-107.529012,46.909369],[-107.523894,46.909344],[-107.518776,46.909318]]]}},{"type":"Feature","properties":{"sec":"11","frstdivid":"MT200130N0330E0SN110"},"geometry":{"type":"Polygon","coordinates":[[[-107.508646,46.898376],[-107.508611,46.902006],[-107.508575,46.905636],[-107.508539,46.909266],[-107.503424,46.909238],[-107.498309,46.90921],[-107.493194,46.909182],[-107.48808,46.909154],[-107.488115,46.905527],[-107.48815,46.901899],[-107.488185,46.898272],[-107.48822,46.894645],[-107.493335,46.89467],[-107.498451,46.894696],[-107.503566,46.894721],[-107.508682,46.894746],[-107.508646,46.898376]]]}},{"type":"Feature","properties":{"sec":"28","frstdivid":"MT200130N0330E0SN280"},"geometry":{"type":"Polygon","coordinates":[[[-107.550066,46.851226],[-107.550048,46.854866],[-107.55003,46.858507],[-107.550012,46.862147],[-107.549993,46.865787],[-107.544858,46.865777],[-107.539723,46.865767],[-107.534588,46.865756],[-107.529453,46.865746],[-107.529464,46.862111],[-107.529475,46.858477],[-107.529486,46.854842],[-107.529498,46.851207],[-107.53464,46.851212],[-107.539782,46.851217],[-107.544924,46.851221],[-107.550066,46.851226]]]}}]}