{"type":"FeatureCollection","note":"BLM Public Land Survey System. Provided by the Bureau of Land Management as is. These data are neither legal documents nor land surveys and must not be used as such.","features":[{"type":"Feature","properties":{"sec":"18","frstdivid":"MT200090S0250E0SN180"},"geometry":{"type":"Polygon","coordinates":[[[-108.698892,45.056279],[-108.698887,45.05265],[-108.698883,45.049021],[-108.698879,45.045393],[-108.703993,45.04537],[-108.709108,45.045346],[-108.714231,45.045324],[-108.719082,45.045303],[-108.719081,45.04535],[-108.719071,45.048936],[-108.71907,45.04897],[-108.719059,45.052569],[-108.719059,45.052591],[-108.719054,45.056202],[-108.719054,45.056213],[-108.719049,45.059835],[-108.714256,45.059852],[-108.709136,45.059871],[-108.704017,45.05989],[-108.698897,45.059908],[-108.698892,45.056279]]]}},{"type":"Feature","properties":{"sec":"09","frstdivid":"MT200090S0250E0SN090"},"geometry":{"type":"Polygon","coordinates":[[[-108.673306,45.07446],[-108.668191,45.074457],[-108.663062,45.074455],[-108.657934,45.074453],[-108.657933,45.070817],[-108.657931,45.067182],[-108.657929,45.063542],[-108.657926,45.059903],[-108.663053,45.059925],[-108.66818,45.059947],[-108.673293,45.059949],[-108.678406,45.059951],[-108.678412,45.063577],[-108.678419,45.067202],[-108.67842,45.070832],[-108.678422,45.074462],[-108.673306,45.07446]]]}},{"type":"Feature","properties":{"sec":"21","frstdivid":"MT200090S0250E0SN210"},"geometry":{"type":"Polygon","coordinates":[[[-108.663037,45.030897],[-108.668149,45.030874],[-108.673268,45.030865],[-108.678387,45.030855],[-108.678405,45.034546],[-108.678407,45.038173],[-108.678411,45.041805],[-108.678414,45.045436],[-108.673292,45.045425],[-108.66817,45.045413],[-108.663047,45.045401],[-108.657925,45.045389],[-108.657922,45.041757],[-108.657919,45.038125],[-108.657915,45.034521],[-108.657912,45.030899],[-108.663037,45.030897]]]}},{"type":"Feature","properties":{"sec":"33","frstdivid":"MT200090S0250E0SN330"},"geometry":{"type":"Polygon","coordinates":[[[-108.673244,45.016328],[-108.668129,45.016336],[-108.663035,45.01635],[-108.657898,45.016355],[-108.657895,45.012732],[-108.657892,45.00911],[-108.657888,45.00548],[-108.657884,45.000332],[-108.662683,45.000325],[-108.662996,45.000325],[-108.668107,45.000318],[-108.672931,45.000311],[-108.673218,45.000311],[-108.677649,45.000305],[-108.67833,45.000303],[-108.678339,45.005433],[-108.678346,45.009067],[-108.678353,45.012694],[-108.67836,45.01632],[-108.673244,45.016328]]]}},{"type":"Feature","properties":{"sec":"17","frstdivid":"MT200090S0250E0SN170"},"geometry":{"type":"Polygon","coordinates":[[[-108.688652,45.05993],[-108.683529,45.059941],[-108.678406,45.059951],[-108.678408,45.056322],[-108.67841,45.052694],[-108.678412,45.049065],[-108.678414,45.045436],[-108.68353,45.045425],[-108.688646,45.045414],[-108.693763,45.045404],[-108.698879,45.045393],[-108.698883,45.049021],[-108.698887,45.05265],[-108.698892,45.056279],[-108.698897,45.059908],[-108.693775,45.059919],[-108.688652,45.05993]]]}},{"type":"Feature","properties":{"sec":"15","frstdivid":"MT200090S0250E0SN150"},"geometry":{"type":"Polygon","coordinates":[[[-108.637461,45.0527],[-108.637463,45.049068],[-108.637464,45.045435],[-108.64257,45.045424],[-108.647676,45.045413],[-108.6528,45.045401],[-108.657925,45.045389],[-108.657925,45.049017],[-108.657925,45.052646],[-108.657926,45.056274],[-108.657926,45.059903],[-108.652809,45.059918],[-108.647693,45.059933],[-108.642577,45.059949],[-108.63746,45.059964],[-108.637461,45.056332],[-108.637461,45.0527]]]}},{"type":"Feature","properties":{"sec":"06","frstdivid":"MT200090S0250E0SN060"},"geometry":{"type":"Polygon","coordinates":[[[-108.714326,45.074383],[-108.719015,45.074371],[-108.719004,45.078011],[-108.718993,45.081652],[-108.718982,45.085277],[-108.718972,45.088903],[-108.714276,45.088911],[-108.709143,45.08892],[-108.704029,45.088925],[-108.698915,45.08893],[-108.698913,45.085302],[-108.698911,45.081674],[-108.698909,45.078049],[-108.698907,45.074424],[-108.704047,45.07441],[-108.709187,45.074397],[-108.714326,45.074383]]]}},{"type":"Feature","properties":{"sec":"05","frstdivid":"MT200090S0250E0SN050"},"geometry":{"type":"Polygon","coordinates":[[[-108.693778,45.074434],[-108.698907,45.074424],[-108.698909,45.078049],[-108.698911,45.081674],[-108.698913,45.085302],[-108.698915,45.08893],[-108.693792,45.088938],[-108.688669,45.088947],[-108.683545,45.088956],[-108.678422,45.088964],[-108.678423,45.08534],[-108.678423,45.081715],[-108.678423,45.078088],[-108.678422,45.074462],[-108.683536,45.074453],[-108.68865,45.074445],[-108.693778,45.074434]]]}},{"type":"Feature","properties":{"sec":"01","frstdivid":"MT200090S0250E0SN010"},"geometry":{"type":"Polygon","coordinates":[[[-108.611862,45.074478],[-108.616976,45.074478],[-108.616975,45.078109],[-108.616974,45.081741],[-108.616978,45.085372],[-108.616982,45.089004],[-108.61186,45.089006],[-108.606738,45.089008],[-108.60162,45.08901],[-108.596502,45.089013],[-108.596504,45.085379],[-108.596506,45.081745],[-108.596509,45.078107],[-108.596512,45.07447],[-108.60163,45.074474],[-108.606748,45.074477],[-108.611862,45.074478]]]}},{"type":"Feature","properties":{"sec":"27","frstdivid":"MT200090S0250E0SN270"},"geometry":{"type":"Polygon","coordinates":[[[-108.642533,45.016367],[-108.64765,45.016363],[-108.652774,45.016359],[-108.657898,45.016355],[-108.657902,45.019997],[-108.657905,45.023639],[-108.657908,45.027269],[-108.657912,45.030899],[-108.652787,45.030901],[-108.647663,45.030903],[-108.642551,45.030905],[-108.63744,45.030906],[-108.637433,45.027276],[-108.637427,45.023645],[-108.637421,45.020007],[-108.637415,45.01637],[-108.642533,45.016367]]]}},{"type":"Feature","properties":{"sec":"12","frstdivid":"MT200090S0250E0SN120"},"geometry":{"type":"Polygon","coordinates":[[[-108.596516,45.067224],[-108.596517,45.063592],[-108.596518,45.059959],[-108.601633,45.059953],[-108.606749,45.059948],[-108.61186,45.059944],[-108.616972,45.059941],[-108.616973,45.063576],[-108.616974,45.067211],[-108.616975,45.070845],[-108.616976,45.074478],[-108.611862,45.074478],[-108.606748,45.074477],[-108.60163,45.074474],[-108.596512,45.07447],[-108.596514,45.070847],[-108.596516,45.067224]]]}},{"type":"Feature","properties":{"sec":"16","frstdivid":"MT200090S0250E0SN160"},"geometry":{"type":"Polygon","coordinates":[[[-108.673293,45.059949],[-108.66818,45.059947],[-108.663053,45.059925],[-108.657926,45.059903],[-108.657926,45.056274],[-108.657925,45.052646],[-108.657925,45.049017],[-108.657925,45.045389],[-108.663047,45.045401],[-108.66817,45.045413],[-108.673292,45.045425],[-108.678414,45.045436],[-108.678412,45.049065],[-108.67841,45.052694],[-108.678408,45.056322],[-108.678406,45.059951],[-108.673293,45.059949]]]}},{"type":"Feature","properties":{"sec":"04","frstdivid":"MT200090S0250E0SN040"},"geometry":{"type":"Polygon","coordinates":[[[-108.66816,45.088971],[-108.663046,45.088975],[-108.657932,45.088978],[-108.657936,45.085351],[-108.65794,45.081725],[-108.657937,45.078089],[-108.657934,45.074453],[-108.663062,45.074455],[-108.668191,45.074457],[-108.673306,45.07446],[-108.678422,45.074462],[-108.678423,45.078088],[-108.678423,45.081715],[-108.678423,45.08534],[-108.678422,45.088964],[-108.673291,45.088968],[-108.66816,45.088971]]]}},{"type":"Feature","properties":{"sec":"14","frstdivid":"MT200090S0250E0SN140"},"geometry":{"type":"Polygon","coordinates":[[[-108.627221,45.059953],[-108.622097,45.059947],[-108.616972,45.059941],[-108.616974,45.056308],[-108.616975,45.052676],[-108.616976,45.050859],[-108.616977,45.049042],[-108.616978,45.047224],[-108.616978,45.045407],[-108.619536,45.045411],[-108.622094,45.045415],[-108.62721,45.045423],[-108.632337,45.045429],[-108.637464,45.045435],[-108.637463,45.049068],[-108.637461,45.0527],[-108.637461,45.056332],[-108.63746,45.059964],[-108.632341,45.059959],[-108.627221,45.059953]]]}},{"type":"Feature","properties":{"sec":"10","frstdivid":"MT200090S0250E0SN100"},"geometry":{"type":"Polygon","coordinates":[[[-108.647693,45.059933],[-108.652809,45.059918],[-108.657926,45.059903],[-108.657929,45.063542],[-108.657931,45.067182],[-108.657933,45.070817],[-108.657934,45.074453],[-108.652817,45.07446],[-108.647699,45.074466],[-108.642579,45.074475],[-108.637459,45.074483],[-108.63746,45.070852],[-108.637461,45.06722],[-108.637461,45.063592],[-108.63746,45.059964],[-108.642577,45.059949],[-108.647693,45.059933]]]}},{"type":"Feature","properties":{"sec":"07","frstdivid":"MT200090S0250E0SN070"},"geometry":{"type":"Polygon","coordinates":[[[-108.714256,45.059852],[-108.719049,45.059835],[-108.71904,45.063472],[-108.719031,45.067109],[-108.719023,45.07074],[-108.719015,45.074371],[-108.714326,45.074383],[-108.709187,45.074397],[-108.704047,45.07441],[-108.698907,45.074424],[-108.698904,45.070791],[-108.698902,45.067158],[-108.6989,45.063533],[-108.698897,45.059908],[-108.704017,45.05989],[-108.709136,45.059871],[-108.714256,45.059852]]]}},{"type":"Feature","properties":{"sec":"02","frstdivid":"MT200090S0250E0SN020"},"geometry":{"type":"Polygon","coordinates":[[[-108.637459,45.078116],[-108.637459,45.081748],[-108.637462,45.08537],[-108.637466,45.088992],[-108.632347,45.088995],[-108.627227,45.088998],[-108.622105,45.089001],[-108.616982,45.089004],[-108.616978,45.085372],[-108.616974,45.081741],[-108.616975,45.078109],[-108.616976,45.074478],[-108.6221,45.074482],[-108.627224,45.074486],[-108.632341,45.074485],[-108.637459,45.074483],[-108.637459,45.078116]]]}},{"type":"Feature","properties":{"sec":"13","frstdivid":"MT200090S0250E0SN130"},"geometry":{"type":"Polygon","coordinates":[[[-108.61186,45.059944],[-108.606749,45.059948],[-108.601633,45.059953],[-108.596518,45.059959],[-108.596516,45.056354],[-108.596516,45.056328],[-108.596514,45.05275],[-108.596514,45.052698],[-108.596513,45.04913],[-108.596513,45.049069],[-108.596512,45.047255],[-108.596511,45.045509],[-108.596511,45.045441],[-108.601635,45.045433],[-108.606759,45.045426],[-108.611869,45.045417],[-108.616978,45.045407],[-108.616978,45.047224],[-108.616977,45.049042],[-108.616976,45.050859],[-108.616975,45.052676],[-108.616974,45.056308],[-108.616972,45.059941],[-108.61186,45.059944]]]}},{"type":"Feature","properties":{"sec":"03","frstdivid":"MT200090S0250E0SN030"},"geometry":{"type":"Polygon","coordinates":[[[-108.647705,45.088987],[-108.642585,45.088989],[-108.637466,45.088992],[-108.637462,45.08537],[-108.637459,45.081748],[-108.637459,45.078116],[-108.637459,45.074483],[-108.642579,45.074475],[-108.647699,45.074466],[-108.652817,45.07446],[-108.657934,45.074453],[-108.657937,45.078089],[-108.65794,45.081725],[-108.657936,45.085351],[-108.657932,45.088978],[-108.652818,45.088982],[-108.647705,45.088987]]]}},{"type":"Feature","properties":{"sec":"11","frstdivid":"MT200090S0250E0SN110"},"geometry":{"type":"Polygon","coordinates":[[[-108.637461,45.063592],[-108.637461,45.06722],[-108.63746,45.070852],[-108.637459,45.074483],[-108.632341,45.074485],[-108.627224,45.074486],[-108.6221,45.074482],[-108.616976,45.074478],[-108.616975,45.070845],[-108.616974,45.067211],[-108.616973,45.063576],[-108.616972,45.059941],[-108.622097,45.059947],[-108.627221,45.059953],[-108.632341,45.059959],[-108.63746,45.059964],[-108.637461,45.063592]]]}},{"type":"Feature","properties":{"sec":"08","frstdivid":"MT200090S0250E0SN080"},"geometry":{"type":"Polygon","coordinates":[[[-108.698897,45.059908],[-108.6989,45.063533],[-108.698902,45.067158],[-108.698904,45.070791],[-108.698907,45.074424],[-108.693778,45.074434],[-108.68865,45.074445],[-108.683536,45.074453],[-108.678422,45.074462],[-108.67842,45.070832],[-108.678419,45.067202],[-108.678412,45.063577],[-108.678406,45.059951],[-108.683529,45.059941],[-108.688652,45.05993],[-108.693775,45.059919],[-108.698897,45.059908]]]}},{"type":"Feature","properties":{"sec":"34","frstdivid":"MT200090S0250E0SN340"},"geometry":{"type":"Polygon","coordinates":[[[-108.657898,45.016355],[-108.652774,45.016359],[-108.64765,45.016363],[-108.642533,45.016367],[-108.637415,45.01637],[-108.637409,45.012746],[-108.637403,45.009123],[-108.637397,45.005493],[-108.637388,45.00036],[-108.642278,45.000354],[-108.642512,45.000353],[-108.647636,45.000346],[-108.652479,45.000339],[-108.65276,45.000339],[-108.657175,45.000333],[-108.657884,45.000332],[-108.657888,45.00548],[-108.657892,45.00911],[-108.657895,45.012732],[-108.657898,45.016355]]]}},{"type":"Feature","properties":{"sec":"35","frstdivid":"MT200090S0250E0SN350"},"geometry":{"type":"Polygon","coordinates":[[[-108.636697,45.000361],[-108.637388,45.00036],[-108.637397,45.005493],[-108.637403,45.009123],[-108.637409,45.012746],[-108.637415,45.01637],[-108.632301,45.016373],[-108.627187,45.016376],[-108.622077,45.016379],[-108.616968,45.016382],[-108.616967,45.012757],[-108.616966,45.009132],[-108.616965,45.005501],[-108.616963,45.000387],[-108.621782,45.000382],[-108.622068,45.000381],[-108.627174,45.000374],[-108.629727,45.000371],[-108.632029,45.000368],[-108.632281,45.000367],[-108.636697,45.000361]]]}},{"type":"Feature","properties":{"sec":"24","frstdivid":"MT200090S0250E0SN240"},"geometry":{"type":"Polygon","coordinates":[[[-108.596522,45.041807],[-108.596532,45.038232],[-108.596532,45.038174],[-108.596534,45.036419],[-108.596537,45.034606],[-108.596537,45.034541],[-108.596539,45.032794],[-108.596528,45.030981],[-108.596528,45.030909],[-108.601644,45.030909],[-108.60676,45.03091],[-108.611867,45.03091],[-108.616973,45.030909],[-108.616975,45.034538],[-108.616984,45.038147],[-108.616981,45.041777],[-108.616978,45.045407],[-108.611869,45.045417],[-108.606759,45.045426],[-108.601635,45.045433],[-108.596511,45.045441],[-108.596516,45.04369],[-108.596516,45.043624],[-108.596521,45.041871],[-108.596522,45.041807]]]}},{"type":"Feature","properties":{"sec":"26","frstdivid":"MT200090S0250E0SN260"},"geometry":{"type":"Polygon","coordinates":[[[-108.622086,45.030909],[-108.616973,45.030909],[-108.616972,45.027278],[-108.616971,45.023647],[-108.61697,45.020014],[-108.616968,45.016382],[-108.622077,45.016379],[-108.627187,45.016376],[-108.632301,45.016373],[-108.637415,45.01637],[-108.637421,45.020007],[-108.637427,45.023645],[-108.637433,45.027276],[-108.63744,45.030906],[-108.632319,45.030907],[-108.627198,45.030908],[-108.622086,45.030909]]]}},{"type":"Feature","properties":{"sec":"25","frstdivid":"MT200090S0250E0SN250"},"geometry":{"type":"Polygon","coordinates":[[[-108.616973,45.030909],[-108.611867,45.03091],[-108.60676,45.03091],[-108.601644,45.030909],[-108.596528,45.030909],[-108.596532,45.027348],[-108.596532,45.027277],[-108.596536,45.023715],[-108.596536,45.023645],[-108.596538,45.021905],[-108.59654,45.020095],[-108.59654,45.020017],[-108.596544,45.016474],[-108.596544,45.016389],[-108.601653,45.016388],[-108.606761,45.016386],[-108.611865,45.016384],[-108.616968,45.016382],[-108.61697,45.020014],[-108.616971,45.023647],[-108.616972,45.027278],[-108.616973,45.030909]]]}},{"type":"Feature","properties":{"sec":"36","frstdivid":"MT200090S0250E0SN360"},"geometry":{"type":"Polygon","coordinates":[[[-108.596552,45.009138],[-108.596556,45.005631],[-108.596557,45.005506],[-108.59656,45.002015],[-108.596562,45.000411],[-108.601254,45.000407],[-108.601664,45.000406],[-108.606763,45.0004],[-108.611489,45.000394],[-108.611863,45.000394],[-108.616221,45.000388],[-108.616607,45.000388],[-108.616963,45.000387],[-108.616965,45.005501],[-108.616966,45.009132],[-108.616967,45.012757],[-108.616968,45.016382],[-108.611865,45.016384],[-108.606761,45.016386],[-108.601653,45.016388],[-108.596544,45.016389],[-108.596548,45.012861],[-108.596548,45.012763],[-108.596552,45.009248],[-108.596552,45.009138]]]}},{"type":"Feature","properties":{"sec":"23","frstdivid":"MT200090S0250E0SN230"},"geometry":{"type":"Polygon","coordinates":[[[-108.616978,45.045407],[-108.616981,45.041777],[-108.616984,45.038147],[-108.616975,45.034538],[-108.616973,45.030909],[-108.622086,45.030909],[-108.627198,45.030908],[-108.632319,45.030907],[-108.63744,45.030906],[-108.637446,45.034531],[-108.637455,45.038187],[-108.63746,45.041811],[-108.637464,45.045435],[-108.632337,45.045429],[-108.62721,45.045423],[-108.622094,45.045415],[-108.619536,45.045411],[-108.616978,45.045407]]]}},{"type":"Feature","properties":{"sec":"22","frstdivid":"MT200090S0250E0SN220"},"geometry":{"type":"Polygon","coordinates":[[[-108.637464,45.045435],[-108.63746,45.041811],[-108.637455,45.038187],[-108.637446,45.034531],[-108.63744,45.030906],[-108.642551,45.030905],[-108.647663,45.030903],[-108.652787,45.030901],[-108.657912,45.030899],[-108.657915,45.034521],[-108.657919,45.038125],[-108.657922,45.041757],[-108.657925,45.045389],[-108.6528,45.045401],[-108.647676,45.045413],[-108.64257,45.045424],[-108.637464,45.045435]]]}},{"type":"Feature","properties":{"sec":"29","frstdivid":"MT200090S0250E0SN290"},"geometry":{"type":"Polygon","coordinates":[[[-108.688611,45.030835],[-108.683499,45.030845],[-108.678387,45.030855],[-108.67838,45.027225],[-108.678373,45.023595],[-108.678366,45.019957],[-108.67836,45.01632],[-108.683468,45.016312],[-108.688576,45.016303],[-108.693683,45.016294],[-108.698791,45.016285],[-108.698802,45.019919],[-108.698813,45.023553],[-108.698824,45.027184],[-108.698835,45.030814],[-108.693723,45.030825],[-108.688611,45.030835]]]}},{"type":"Feature","properties":{"sec":"28","frstdivid":"MT200090S0250E0SN280"},"geometry":{"type":"Polygon","coordinates":[[[-108.67836,45.01632],[-108.678366,45.019957],[-108.678373,45.023595],[-108.67838,45.027225],[-108.678387,45.030855],[-108.673268,45.030865],[-108.668149,45.030874],[-108.663037,45.030897],[-108.657912,45.030899],[-108.657908,45.027269],[-108.657905,45.023639],[-108.657902,45.019997],[-108.657898,45.016355],[-108.663035,45.01635],[-108.668129,45.016336],[-108.673244,45.016328],[-108.67836,45.01632]]]}},{"type":"Feature","properties":{"sec":"19","frstdivid":"MT200090S0250E0SN190"},"geometry":{"type":"Polygon","coordinates":[[[-108.714231,45.045324],[-108.709108,45.045346],[-108.703993,45.04537],[-108.698879,45.045393],[-108.698874,45.041768],[-108.698868,45.038144],[-108.698857,45.034497],[-108.698835,45.030814],[-108.703966,45.030803],[-108.709098,45.030792],[-108.714235,45.03078],[-108.719103,45.030769],[-108.719103,45.030878],[-108.719096,45.034402],[-108.719096,45.034497],[-108.719089,45.038035],[-108.719089,45.038117],[-108.719085,45.041669],[-108.719085,45.041733],[-108.719082,45.045303],[-108.714231,45.045324]]]}},{"type":"Feature","properties":{"sec":"30","frstdivid":"MT200090S0250E0SN300"},"geometry":{"type":"Polygon","coordinates":[[[-108.703966,45.030803],[-108.698835,45.030814],[-108.698824,45.027184],[-108.698813,45.023553],[-108.698802,45.019919],[-108.698791,45.016285],[-108.703939,45.016275],[-108.709088,45.016265],[-108.714239,45.016256],[-108.719139,45.016246],[-108.719139,45.016391],[-108.719132,45.019877],[-108.719132,45.020013],[-108.719124,45.023508],[-108.719124,45.023635],[-108.719114,45.027139],[-108.719113,45.027257],[-108.719103,45.030769],[-108.714235,45.03078],[-108.709098,45.030792],[-108.703966,45.030803]]]}},{"type":"Feature","properties":{"sec":"31","frstdivid":"MT200090S0250E0SN310"},"geometry":{"type":"Polygon","coordinates":[[[-108.698769,45.009026],[-108.698758,45.005388],[-108.698743,45.000261],[-108.703527,45.00024],[-108.703909,45.000239],[-108.709076,45.000217],[-108.713856,45.000197],[-108.714244,45.000196],[-108.718697,45.000177],[-108.71913,45.000177],[-108.719184,45.001912],[-108.719173,45.005339],[-108.719173,45.005533],[-108.719162,45.008981],[-108.719161,45.009155],[-108.719151,45.012613],[-108.71915,45.012773],[-108.719139,45.016246],[-108.714239,45.016256],[-108.709088,45.016265],[-108.703939,45.016275],[-108.698791,45.016285],[-108.69878,45.012655],[-108.698769,45.009026]]]}},{"type":"Feature","properties":{"sec":"32","frstdivid":"MT200090S0250E0SN320"},"geometry":{"type":"Polygon","coordinates":[[[-108.698758,45.005388],[-108.698769,45.009026],[-108.69878,45.012655],[-108.698791,45.016285],[-108.693683,45.016294],[-108.688576,45.016303],[-108.683468,45.016312],[-108.67836,45.01632],[-108.678353,45.012694],[-108.678346,45.009067],[-108.678339,45.005433],[-108.67833,45.000303],[-108.683178,45.000293],[-108.683433,45.000293],[-108.688537,45.000283],[-108.693353,45.000273],[-108.69364,45.000273],[-108.698008,45.000264],[-108.698743,45.000261],[-108.698758,45.005388]]]}},{"type":"Feature","properties":{"sec":"20","frstdivid":"MT200090S0250E0SN200"},"geometry":{"type":"Polygon","coordinates":[[[-108.678387,45.030855],[-108.683499,45.030845],[-108.688611,45.030835],[-108.693723,45.030825],[-108.698835,45.030814],[-108.698857,45.034497],[-108.698868,45.038144],[-108.698874,45.041768],[-108.698879,45.045393],[-108.693763,45.045404],[-108.688646,45.045414],[-108.68353,45.045425],[-108.678414,45.045436],[-108.678411,45.041805],[-108.678407,45.038173],[-108.678405,45.034546],[-108.678387,45.030855]]]}}]}