{"type":"FeatureCollection","note":"BLM Public Land Survey System. Provided by the Bureau of Land Management as is. These data are neither legal documents nor land surveys and must not be used as such.","features":[{"type":"Feature","properties":{"sec":"02","frstdivid":"MT200010S0260E0SN020"},"geometry":{"type":"Polygon","coordinates":[[[-108.468865,45.768807],[-108.469385,45.768806],[-108.469602,45.768806],[-108.472512,45.768808],[-108.474046,45.768809],[-108.475881,45.76881],[-108.477702,45.769766],[-108.483972,45.769774],[-108.489141,45.769775],[-108.49431,45.769776],[-108.494311,45.773371],[-108.494313,45.776965],[-108.494313,45.780572],[-108.494314,45.784017],[-108.491564,45.783985],[-108.489139,45.783956],[-108.486389,45.783924],[-108.483963,45.783914],[-108.48121,45.783897],[-108.480152,45.78389],[-108.479748,45.78389],[-108.476924,45.78387],[-108.476651,45.78387],[-108.476031,45.78387],[-108.474431,45.783871],[-108.470821,45.783872],[-108.469164,45.783873],[-108.469146,45.781611],[-108.469135,45.780147],[-108.46912,45.778295],[-108.469106,45.776441],[-108.468985,45.772624],[-108.468865,45.768807]]]}},{"type":"Feature","properties":{"sec":"23","frstdivid":"MT200010S0260E0SN230"},"geometry":{"type":"Polygon","coordinates":[[[-108.468921,45.725379],[-108.47407,45.725366],[-108.479219,45.725353],[-108.484386,45.72536],[-108.489553,45.725366],[-108.489541,45.728965],[-108.489529,45.732564],[-108.489544,45.736178],[-108.489559,45.739793],[-108.484402,45.739809],[-108.479244,45.739825],[-108.474087,45.739841],[-108.46893,45.739857],[-108.468927,45.736237],[-108.468924,45.732618],[-108.468922,45.728998],[-108.468921,45.725379]]]}},{"type":"Feature","properties":{"sec":"17","frstdivid":"MT200010S0260E0SN170"},"geometry":{"type":"Polygon","coordinates":[[[-108.535746,45.740836],[-108.537933,45.740834],[-108.540909,45.74083],[-108.546067,45.74082],[-108.551213,45.740801],[-108.556359,45.740781],[-108.556343,45.744402],[-108.556327,45.748023],[-108.556311,45.751645],[-108.556295,45.755266],[-108.551152,45.755276],[-108.546009,45.755286],[-108.540865,45.755296],[-108.535722,45.755306],[-108.53573,45.751689],[-108.535737,45.748072],[-108.535743,45.744454],[-108.535748,45.741828],[-108.535746,45.740836]]]}},{"type":"Feature","properties":{"sec":"14","frstdivid":"MT200010S0260E0SN140"},"geometry":{"type":"Polygon","coordinates":[[[-108.468915,45.754333],[-108.468919,45.750714],[-108.468922,45.747095],[-108.468926,45.743476],[-108.46893,45.739857],[-108.474087,45.739841],[-108.479244,45.739825],[-108.484402,45.739809],[-108.489559,45.739793],[-108.48954,45.743407],[-108.489522,45.747021],[-108.489523,45.748002],[-108.493005,45.748089],[-108.493697,45.748148],[-108.494313,45.748397],[-108.494312,45.750916],[-108.494312,45.751226],[-108.494312,45.75166],[-108.494312,45.755279],[-108.489142,45.755279],[-108.485833,45.755279],[-108.48161,45.754309],[-108.479244,45.754313],[-108.47408,45.754323],[-108.468915,45.754333]]]}},{"type":"Feature","properties":{"sec":"33","frstdivid":"MT200010S0260E0SN330"},"geometry":{"type":"Polygon","coordinates":[[[-108.510278,45.703632],[-108.510285,45.700009],[-108.510291,45.696386],[-108.513645,45.696382],[-108.515461,45.69638],[-108.518815,45.696376],[-108.520631,45.696376],[-108.523985,45.696372],[-108.525801,45.69637],[-108.529155,45.696366],[-108.530971,45.696367],[-108.530966,45.699987],[-108.530962,45.703608],[-108.530957,45.707228],[-108.530952,45.710849],[-108.525779,45.710855],[-108.520607,45.710861],[-108.515434,45.710867],[-108.510261,45.710873],[-108.51027,45.707252],[-108.510278,45.703632]]]}},{"type":"Feature","properties":{"sec":"09","frstdivid":"MT200010S0260E0SN090"},"geometry":{"type":"Polygon","coordinates":[[[-108.530543,45.755306],[-108.535722,45.755306],[-108.535729,45.758925],[-108.535735,45.762545],[-108.535741,45.766164],[-108.535748,45.769784],[-108.530575,45.769791],[-108.525402,45.769798],[-108.520229,45.769804],[-108.515056,45.769811],[-108.515043,45.766185],[-108.51503,45.762558],[-108.515017,45.758932],[-108.515004,45.755305],[-108.520184,45.755306],[-108.525363,45.755306],[-108.530543,45.755306]]]}},{"type":"Feature","properties":{"sec":"10","frstdivid":"MT200010S0260E0SN100"},"geometry":{"type":"Polygon","coordinates":[[[-108.494312,45.755279],[-108.499485,45.755286],[-108.504658,45.755292],[-108.509831,45.755299],[-108.515004,45.755305],[-108.515017,45.758932],[-108.51503,45.762558],[-108.515043,45.766185],[-108.515056,45.769811],[-108.509858,45.769819],[-108.504659,45.769828],[-108.499485,45.769802],[-108.49431,45.769776],[-108.494311,45.766152],[-108.494311,45.762528],[-108.494311,45.758903],[-108.494312,45.755279]]]}},{"type":"Feature","properties":{"sec":"22","frstdivid":"MT200010S0260E0SN220"},"geometry":{"type":"Polygon","coordinates":[[[-108.489553,45.725366],[-108.494704,45.725379],[-108.499854,45.725392],[-108.505024,45.725373],[-108.510195,45.725354],[-108.510187,45.728957],[-108.510178,45.73256],[-108.510199,45.736174],[-108.510219,45.739788],[-108.505055,45.739789],[-108.49989,45.73979],[-108.494724,45.739791],[-108.489559,45.739793],[-108.489544,45.736178],[-108.489529,45.732564],[-108.489541,45.728965],[-108.489553,45.725366]]]}},{"type":"Feature","properties":{"sec":"26","frstdivid":"MT200010S0260E0SN260"},"geometry":{"type":"Polygon","coordinates":[[[-108.468927,45.710887],[-108.474092,45.710887],[-108.479258,45.710887],[-108.484401,45.710886],[-108.489545,45.710885],[-108.489551,45.714496],[-108.489557,45.718107],[-108.489555,45.721736],[-108.489553,45.725366],[-108.484386,45.72536],[-108.479219,45.725353],[-108.47407,45.725366],[-108.468921,45.725379],[-108.468913,45.72176],[-108.468903,45.718134],[-108.468915,45.714511],[-108.468927,45.710887]]]}},{"type":"Feature","properties":{"sec":"21","frstdivid":"MT200010S0260E0SN210"},"geometry":{"type":"Polygon","coordinates":[[[-108.510219,45.739788],[-108.510199,45.736174],[-108.510178,45.73256],[-108.510187,45.728957],[-108.510195,45.725354],[-108.515364,45.725347],[-108.520532,45.725339],[-108.525745,45.72533],[-108.530959,45.725321],[-108.530942,45.728956],[-108.530925,45.73259],[-108.530916,45.734552],[-108.535773,45.736517],[-108.535773,45.736713],[-108.535765,45.738954],[-108.535746,45.740836],[-108.533678,45.740836],[-108.528052,45.740827],[-108.524407,45.739786],[-108.520557,45.739787],[-108.515388,45.739787],[-108.510219,45.739788]]]}},{"type":"Feature","properties":{"sec":"03","frstdivid":"MT200010S0260E0SN030"},"geometry":{"type":"Polygon","coordinates":[[[-108.49431,45.769776],[-108.499485,45.769802],[-108.504659,45.769828],[-108.509858,45.769819],[-108.515056,45.769811],[-108.515077,45.773422],[-108.515097,45.777033],[-108.515107,45.780648],[-108.515116,45.784083],[-108.51227,45.784073],[-108.509917,45.784065],[-108.507094,45.784056],[-108.504718,45.784053],[-108.501916,45.784041],[-108.499516,45.784032],[-108.496739,45.78402],[-108.494314,45.784017],[-108.494313,45.780572],[-108.494313,45.776965],[-108.494311,45.773371],[-108.49431,45.769776]]]}},{"type":"Feature","properties":{"sec":"30","frstdivid":"MT200010S0260E0SN300"},"geometry":{"type":"Polygon","coordinates":[[[-108.561844,45.725303],[-108.556661,45.725315],[-108.551478,45.725326],[-108.551517,45.721719],[-108.551557,45.718112],[-108.551596,45.714506],[-108.551637,45.710899],[-108.556859,45.710899],[-108.561976,45.710896],[-108.567151,45.710888],[-108.57231,45.710887],[-108.575923,45.710886],[-108.575928,45.711697],[-108.575932,45.714505],[-108.575933,45.715315],[-108.575937,45.717486],[-108.575941,45.718538],[-108.575943,45.719173],[-108.575949,45.720861],[-108.57595,45.722534],[-108.575959,45.726189],[-108.572127,45.726208],[-108.567658,45.72529],[-108.567012,45.725292],[-108.561844,45.725303]]]}},{"type":"Feature","properties":{"sec":"11","frstdivid":"MT200010S0260E0SN110"},"geometry":{"type":"Polygon","coordinates":[[[-108.477702,45.769766],[-108.475881,45.76881],[-108.474046,45.768809],[-108.472512,45.768808],[-108.469602,45.768806],[-108.469385,45.768806],[-108.468865,45.768807],[-108.468877,45.765188],[-108.46889,45.76157],[-108.468903,45.757952],[-108.468915,45.754333],[-108.47408,45.754323],[-108.479244,45.754313],[-108.48161,45.754309],[-108.485833,45.755279],[-108.489142,45.755279],[-108.494312,45.755279],[-108.494311,45.758903],[-108.494311,45.762528],[-108.494311,45.766152],[-108.49431,45.769776],[-108.489141,45.769775],[-108.483972,45.769774],[-108.477702,45.769766]]]}},{"type":"Feature","properties":{"sec":"29","frstdivid":"MT200010S0260E0SN290"},"geometry":{"type":"Polygon","coordinates":[[[-108.530952,45.710849],[-108.536123,45.710861],[-108.541294,45.710874],[-108.546465,45.710887],[-108.551637,45.710899],[-108.551596,45.714506],[-108.551557,45.718112],[-108.551517,45.721719],[-108.551478,45.725326],[-108.546356,45.725334],[-108.541234,45.725342],[-108.536096,45.725332],[-108.530959,45.725321],[-108.530957,45.721703],[-108.530955,45.718085],[-108.530954,45.714467],[-108.530952,45.710849]]]}},{"type":"Feature","properties":{"sec":"35","frstdivid":"MT200010S0260E0SN350"},"geometry":{"type":"Polygon","coordinates":[[[-108.468955,45.700003],[-108.468964,45.696375],[-108.472313,45.696374],[-108.474129,45.696374],[-108.477477,45.696373],[-108.479293,45.696373],[-108.482642,45.696373],[-108.484457,45.696372],[-108.487806,45.696372],[-108.489621,45.696372],[-108.489602,45.7],[-108.489583,45.703629],[-108.489564,45.707257],[-108.489545,45.710885],[-108.484401,45.710886],[-108.479258,45.710887],[-108.474092,45.710887],[-108.468927,45.710887],[-108.468936,45.707259],[-108.468945,45.703631],[-108.468955,45.700003]]]}},{"type":"Feature","properties":{"sec":"20","frstdivid":"MT200010S0260E0SN200"},"geometry":{"type":"Polygon","coordinates":[[[-108.530959,45.725321],[-108.536096,45.725332],[-108.541234,45.725342],[-108.546356,45.725334],[-108.551478,45.725326],[-108.55149,45.728945],[-108.551497,45.731429],[-108.556351,45.733819],[-108.556355,45.737158],[-108.556359,45.740781],[-108.551213,45.740801],[-108.546067,45.74082],[-108.540909,45.74083],[-108.537933,45.740834],[-108.535746,45.740836],[-108.535765,45.738954],[-108.535773,45.736713],[-108.535773,45.736517],[-108.530916,45.734552],[-108.530925,45.73259],[-108.530942,45.728956],[-108.530959,45.725321]]]}},{"type":"Feature","properties":{"sec":"28","frstdivid":"MT200010S0260E0SN280"},"geometry":{"type":"Polygon","coordinates":[[[-108.510261,45.710873],[-108.515434,45.710867],[-108.520607,45.710861],[-108.525779,45.710855],[-108.530952,45.710849],[-108.530954,45.714467],[-108.530955,45.718085],[-108.530957,45.721703],[-108.530959,45.725321],[-108.525745,45.72533],[-108.520532,45.725339],[-108.515364,45.725347],[-108.510195,45.725354],[-108.510212,45.721734],[-108.510228,45.718114],[-108.510245,45.714493],[-108.510261,45.710873]]]}},{"type":"Feature","properties":{"sec":"18","frstdivid":"MT200010S0260E0SN180"},"geometry":{"type":"Polygon","coordinates":[[[-108.571829,45.740763],[-108.576094,45.74076],[-108.576108,45.744385],[-108.576122,45.748011],[-108.57615,45.75163],[-108.576178,45.75525],[-108.571786,45.755252],[-108.56662,45.755255],[-108.561458,45.75526],[-108.556295,45.755266],[-108.556311,45.751645],[-108.556327,45.748023],[-108.556343,45.744402],[-108.556359,45.740781],[-108.561513,45.740774],[-108.566668,45.740766],[-108.571829,45.740763]]]}},{"type":"Feature","properties":{"sec":"05","frstdivid":"MT200010S0260E0SN050"},"geometry":{"type":"Polygon","coordinates":[[[-108.535757,45.777023],[-108.535752,45.773404],[-108.535748,45.769784],[-108.5409,45.769777],[-108.546052,45.76977],[-108.551205,45.769762],[-108.556357,45.769755],[-108.556365,45.773374],[-108.556373,45.776994],[-108.556378,45.780613],[-108.556381,45.784096],[-108.553739,45.784095],[-108.55122,45.784093],[-108.548543,45.784091],[-108.546058,45.784091],[-108.543347,45.784091],[-108.54091,45.78409],[-108.53815,45.78409],[-108.535761,45.78409],[-108.535759,45.780643],[-108.535757,45.777023]]]}},{"type":"Feature","properties":{"sec":"34","frstdivid":"MT200010S0260E0SN340"},"geometry":{"type":"Polygon","coordinates":[[[-108.489564,45.707257],[-108.489583,45.703629],[-108.489602,45.7],[-108.489621,45.696372],[-108.492973,45.696375],[-108.494788,45.696376],[-108.49814,45.696379],[-108.499956,45.696379],[-108.503307,45.696382],[-108.505123,45.696383],[-108.508475,45.696386],[-108.510291,45.696386],[-108.510285,45.700009],[-108.510278,45.703632],[-108.51027,45.707252],[-108.510261,45.710873],[-108.505082,45.710876],[-108.499903,45.710879],[-108.494724,45.710882],[-108.489545,45.710885],[-108.489564,45.707257]]]}},{"type":"Feature","properties":{"sec":"32","frstdivid":"MT200010S0260E0SN320"},"geometry":{"type":"Polygon","coordinates":[[[-108.530971,45.696367],[-108.534328,45.696368],[-108.536144,45.696368],[-108.539501,45.696369],[-108.541317,45.696369],[-108.544674,45.69637],[-108.54649,45.696371],[-108.549847,45.696372],[-108.551663,45.696376],[-108.551643,45.700025],[-108.551623,45.703674],[-108.55163,45.707287],[-108.551637,45.710899],[-108.546465,45.710887],[-108.541294,45.710874],[-108.536123,45.710861],[-108.530952,45.710849],[-108.530957,45.707228],[-108.530962,45.703608],[-108.530966,45.699987],[-108.530971,45.696367]]]}},{"type":"Feature","properties":{"sec":"27","frstdivid":"MT200010S0260E0SN270"},"geometry":{"type":"Polygon","coordinates":[[[-108.489545,45.710885],[-108.494724,45.710882],[-108.499903,45.710879],[-108.505082,45.710876],[-108.510261,45.710873],[-108.510245,45.714493],[-108.510228,45.718114],[-108.510212,45.721734],[-108.510195,45.725354],[-108.505024,45.725373],[-108.499854,45.725392],[-108.494704,45.725379],[-108.489553,45.725366],[-108.489555,45.721736],[-108.489557,45.718107],[-108.489551,45.714496],[-108.489545,45.710885]]]}},{"type":"Feature","properties":{"sec":"36","frstdivid":"MT200010S0260E0SN360"},"geometry":{"type":"Polygon","coordinates":[[[-108.448293,45.696357],[-108.451643,45.696359],[-108.453459,45.69636],[-108.456811,45.696363],[-108.458627,45.696364],[-108.46198,45.696368],[-108.463795,45.69637],[-108.467149,45.696374],[-108.468964,45.696375],[-108.468955,45.700003],[-108.468945,45.703631],[-108.468936,45.707259],[-108.468927,45.710887],[-108.463761,45.710883],[-108.458596,45.710879],[-108.453453,45.710859],[-108.448309,45.710838],[-108.448305,45.707218],[-108.448301,45.703598],[-108.448296,45.699978],[-108.448293,45.696357]]]}},{"type":"Feature","properties":{"sec":"31","frstdivid":"MT200010S0260E0SN310"},"geometry":{"type":"Polygon","coordinates":[[[-108.551643,45.700025],[-108.551663,45.696376],[-108.555026,45.696379],[-108.556842,45.696381],[-108.560205,45.696384],[-108.562021,45.696384],[-108.565376,45.696383],[-108.567195,45.696382],[-108.570548,45.696382],[-108.57055,45.697211],[-108.572367,45.697214],[-108.575723,45.697223],[-108.575888,45.697224],[-108.575888,45.700016],[-108.575888,45.700856],[-108.575889,45.703638],[-108.575889,45.704487],[-108.575904,45.707262],[-108.575908,45.708092],[-108.575923,45.710886],[-108.57231,45.710887],[-108.567151,45.710888],[-108.561976,45.710896],[-108.556859,45.710899],[-108.551637,45.710899],[-108.55163,45.707287],[-108.551623,45.703674],[-108.551643,45.700025]]]}},{"type":"Feature","properties":{"sec":"25","frstdivid":"MT200010S0260E0SN250"},"geometry":{"type":"Polygon","coordinates":[[[-108.448309,45.710838],[-108.453453,45.710859],[-108.458596,45.710879],[-108.463761,45.710883],[-108.468927,45.710887],[-108.468915,45.714511],[-108.468903,45.718134],[-108.468913,45.72176],[-108.468921,45.725379],[-108.463768,45.725348],[-108.458627,45.725318],[-108.453491,45.725315],[-108.448356,45.725312],[-108.44834,45.721693],[-108.448325,45.718075],[-108.448325,45.718061],[-108.448317,45.714456],[-108.448309,45.710838]]]}},{"type":"Feature","properties":{"sec":"19","frstdivid":"MT200010S0260E0SN190"},"geometry":{"type":"Polygon","coordinates":[[[-108.556351,45.733819],[-108.551497,45.731429],[-108.55149,45.728945],[-108.551478,45.725326],[-108.556661,45.725315],[-108.561844,45.725303],[-108.567012,45.725292],[-108.567658,45.72529],[-108.572127,45.726208],[-108.575959,45.726189],[-108.575982,45.72985],[-108.576005,45.73351],[-108.57605,45.737135],[-108.576094,45.74076],[-108.571829,45.740763],[-108.566668,45.740766],[-108.561513,45.740774],[-108.556359,45.740781],[-108.556355,45.737158],[-108.556351,45.733819]]]}},{"type":"Feature","properties":{"sec":"12","frstdivid":"MT200010S0260E0SN120"},"geometry":{"type":"Polygon","coordinates":[[[-108.448432,45.768653],[-108.448406,45.765696],[-108.4484,45.765035],[-108.448374,45.76208],[-108.448373,45.761418],[-108.448375,45.758237],[-108.448375,45.757799],[-108.448377,45.754394],[-108.453512,45.754379],[-108.458646,45.754364],[-108.463781,45.754348],[-108.468915,45.754333],[-108.468903,45.757952],[-108.46889,45.76157],[-108.468877,45.765188],[-108.468865,45.768807],[-108.46383,45.769027],[-108.459069,45.769235],[-108.458796,45.769249],[-108.453614,45.76928],[-108.448433,45.769312],[-108.448432,45.768653]]]}},{"type":"Feature","properties":{"sec":"13","frstdivid":"MT200010S0260E0SN130"},"geometry":{"type":"Polygon","coordinates":[[[-108.448378,45.754181],[-108.448394,45.75074],[-108.448394,45.750594],[-108.44841,45.747086],[-108.44841,45.747007],[-108.448404,45.743459],[-108.448403,45.74342],[-108.448397,45.739833],[-108.453565,45.739836],[-108.458733,45.739839],[-108.463832,45.739848],[-108.46893,45.739857],[-108.468926,45.743476],[-108.468922,45.747095],[-108.468919,45.750714],[-108.468915,45.754333],[-108.463781,45.754348],[-108.458646,45.754364],[-108.453512,45.754379],[-108.448377,45.754394],[-108.448378,45.754181]]]}},{"type":"Feature","properties":{"sec":"16","frstdivid":"MT200010S0260E0SN160"},"geometry":{"type":"Polygon","coordinates":[[[-108.514995,45.749198],[-108.510219,45.743272],[-108.510219,45.739788],[-108.515388,45.739787],[-108.520557,45.739787],[-108.524407,45.739786],[-108.528052,45.740827],[-108.533678,45.740836],[-108.535746,45.740836],[-108.535748,45.741828],[-108.535743,45.744454],[-108.535737,45.748072],[-108.53573,45.751689],[-108.535722,45.755306],[-108.530543,45.755306],[-108.525363,45.755306],[-108.520184,45.755306],[-108.515004,45.755305],[-108.514998,45.751685],[-108.514995,45.749198]]]}},{"type":"Feature","properties":{"sec":"15","frstdivid":"MT200010S0260E0SN150"},"geometry":{"type":"Polygon","coordinates":[[[-108.489559,45.739793],[-108.494724,45.739791],[-108.49989,45.73979],[-108.505055,45.739789],[-108.510219,45.739788],[-108.510219,45.743272],[-108.514995,45.749198],[-108.514998,45.751685],[-108.515004,45.755305],[-108.509831,45.755299],[-108.504658,45.755292],[-108.499485,45.755286],[-108.494312,45.755279],[-108.494312,45.75166],[-108.494312,45.751226],[-108.494312,45.750916],[-108.494313,45.748397],[-108.493697,45.748148],[-108.493005,45.748089],[-108.489523,45.748002],[-108.489522,45.747021],[-108.48954,45.743407],[-108.489559,45.739793]]]}},{"type":"Feature","properties":{"sec":"08","frstdivid":"MT200010S0260E0SN080"},"geometry":{"type":"Polygon","coordinates":[[[-108.535722,45.755306],[-108.540865,45.755296],[-108.546009,45.755286],[-108.551152,45.755276],[-108.556295,45.755266],[-108.556311,45.758888],[-108.556326,45.762511],[-108.556341,45.766133],[-108.556357,45.769755],[-108.551205,45.769762],[-108.546052,45.76977],[-108.5409,45.769777],[-108.535748,45.769784],[-108.535741,45.766164],[-108.535735,45.762545],[-108.535729,45.758925],[-108.535722,45.755306]]]}},{"type":"Feature","properties":{"sec":"04","frstdivid":"MT200010S0260E0SN040"},"geometry":{"type":"Polygon","coordinates":[[[-108.515077,45.773422],[-108.515056,45.769811],[-108.520229,45.769804],[-108.525402,45.769798],[-108.530575,45.769791],[-108.535748,45.769784],[-108.535752,45.773404],[-108.535757,45.777023],[-108.535759,45.780643],[-108.535761,45.78409],[-108.532979,45.78409],[-108.530601,45.78409],[-108.527808,45.78409],[-108.525441,45.784089],[-108.522627,45.784087],[-108.520279,45.784085],[-108.517445,45.784083],[-108.515116,45.784083],[-108.515107,45.780648],[-108.515097,45.777033],[-108.515077,45.773422]]]}},{"type":"Feature","properties":{"sec":"01","frstdivid":"MT200010S0260E0SN010"},"geometry":{"type":"Polygon","coordinates":[[[-108.46383,45.769027],[-108.468865,45.768807],[-108.468985,45.772624],[-108.469106,45.776441],[-108.46912,45.778295],[-108.469135,45.780147],[-108.469146,45.781611],[-108.469164,45.783873],[-108.466977,45.783906],[-108.465612,45.783927],[-108.464022,45.783915],[-108.46044,45.78389],[-108.45974,45.783884],[-108.458879,45.783878],[-108.455268,45.78385],[-108.453716,45.783856],[-108.450089,45.783869],[-108.448552,45.783874],[-108.448528,45.780193],[-108.448527,45.779534],[-108.448511,45.776569],[-108.448511,45.77591],[-108.448476,45.77294],[-108.448468,45.772282],[-108.448433,45.769312],[-108.453614,45.76928],[-108.458796,45.769249],[-108.459069,45.769235],[-108.46383,45.769027]]]}},{"type":"Feature","properties":{"sec":"06","frstdivid":"MT200010S0260E0SN060"},"geometry":{"type":"Polygon","coordinates":[[[-108.556357,45.769755],[-108.561531,45.769753],[-108.566706,45.76975],[-108.571879,45.769749],[-108.576302,45.769748],[-108.576318,45.773368],[-108.576334,45.776988],[-108.576342,45.780607],[-108.576349,45.7841],[-108.574537,45.7841],[-108.571976,45.784101],[-108.569346,45.784101],[-108.566792,45.784101],[-108.56414,45.784099],[-108.561586,45.784098],[-108.558935,45.784097],[-108.556381,45.784096],[-108.556378,45.780613],[-108.556373,45.776994],[-108.556365,45.773374],[-108.556357,45.769755]]]}},{"type":"Feature","properties":{"sec":"24","frstdivid":"MT200010S0260E0SN240"},"geometry":{"type":"Polygon","coordinates":[[[-108.448362,45.732586],[-108.448362,45.732573],[-108.448359,45.728942],[-108.448356,45.725312],[-108.453491,45.725315],[-108.458627,45.725318],[-108.463768,45.725348],[-108.468921,45.725379],[-108.468922,45.728998],[-108.468924,45.732618],[-108.468927,45.736237],[-108.46893,45.739857],[-108.463832,45.739848],[-108.458733,45.739839],[-108.453565,45.739836],[-108.448397,45.739833],[-108.44838,45.736203],[-108.448362,45.732586]]]}},{"type":"Feature","properties":{"sec":"07","frstdivid":"MT200010S0260E0SN070"},"geometry":{"type":"Polygon","coordinates":[[[-108.556295,45.755266],[-108.561458,45.75526],[-108.56662,45.755255],[-108.571786,45.755252],[-108.576178,45.75525],[-108.576209,45.758874],[-108.57624,45.762499],[-108.576271,45.766123],[-108.576302,45.769748],[-108.571879,45.769749],[-108.566706,45.76975],[-108.561531,45.769753],[-108.556357,45.769755],[-108.556341,45.766133],[-108.556326,45.762511],[-108.556311,45.758888],[-108.556295,45.755266]]]}}]}