{"type":"FeatureCollection","note":"BLM Public Land Survey System. Provided by the Bureau of Land Management as is. These data are neither legal documents nor land surveys and must not be used as such.","features":[{"type":"Feature","properties":{"sec":"36","frstdivid":"WY060330N0800W0SN360"},"geometry":{"type":"Polygon","coordinates":[[[-106.381091,42.77677],[-106.382085,42.776766],[-106.386,42.776743],[-106.386913,42.776739],[-106.390971,42.776715],[-106.391741,42.776711],[-106.395943,42.776687],[-106.395921,42.780322],[-106.3959,42.783957],[-106.395878,42.787592],[-106.395857,42.791227],[-106.390948,42.791206],[-106.386039,42.791184],[-106.38117,42.791203],[-106.3763,42.791221],[-106.376265,42.787654],[-106.37623,42.784087],[-106.376206,42.780441],[-106.376182,42.776796],[-106.377257,42.776791],[-106.381091,42.77677]]]}},{"type":"Feature","properties":{"sec":"15","frstdivid":"WY060330N0800W0SN150"},"geometry":{"type":"Polygon","coordinates":[[[-106.43441,42.823337],[-106.434418,42.826924],[-106.434425,42.830511],[-106.434433,42.834099],[-106.42951,42.834177],[-106.424587,42.834256],[-106.419663,42.834334],[-106.41474,42.834413],[-106.414743,42.830797],[-106.414745,42.827982],[-106.414747,42.82718],[-106.414754,42.823894],[-106.414755,42.823564],[-106.414761,42.819948],[-106.419671,42.819898],[-106.424581,42.819848],[-106.429491,42.819799],[-106.434402,42.819749],[-106.43441,42.823337]]]}},{"type":"Feature","properties":{"sec":"02","frstdivid":"WY060330N0800W0SN020"},"geometry":{"type":"Polygon","coordinates":[[[-106.395094,42.863358],[-106.395187,42.859748],[-106.395281,42.856115],[-106.395172,42.852523],[-106.395062,42.848931],[-106.39999,42.84893],[-106.404918,42.84893],[-106.409828,42.848903],[-106.414739,42.848875],[-106.414735,42.852476],[-106.414731,42.856077],[-106.414872,42.859639],[-106.415013,42.863184],[-106.410133,42.86321],[-106.405253,42.863236],[-106.400173,42.863297],[-106.395094,42.863358]]]}},{"type":"Feature","properties":{"sec":"19","frstdivid":"WY060330N0800W0SN190"},"geometry":{"type":"Polygon","coordinates":[[[-106.488997,42.80506],[-106.49445,42.805041],[-106.494456,42.808678],[-106.494462,42.812316],[-106.494457,42.815855],[-106.494452,42.819394],[-106.488934,42.819473],[-106.483729,42.819548],[-106.478811,42.819557],[-106.473893,42.819566],[-106.47389,42.815959],[-106.473887,42.812353],[-106.473889,42.808734],[-106.47389,42.805115],[-106.478926,42.805096],[-106.483961,42.805077],[-106.488997,42.80506]]]}},{"type":"Feature","properties":{"sec":"06","frstdivid":"WY060330N0800W0SN060"},"geometry":{"type":"Polygon","coordinates":[[[-106.473922,42.855771],[-106.473876,42.852221],[-106.47383,42.848671],[-106.478915,42.848561],[-106.484,42.84845],[-106.489086,42.848338],[-106.494402,42.848222],[-106.494387,42.851837],[-106.494371,42.855452],[-106.494359,42.859067],[-106.494347,42.862682],[-106.489294,42.862717],[-106.484291,42.862751],[-106.479288,42.862785],[-106.474284,42.862818],[-106.474105,42.859331],[-106.473922,42.855771]]]}},{"type":"Feature","properties":{"sec":"33","frstdivid":"WY060330N0800W0SN330"},"geometry":{"type":"Polygon","coordinates":[[[-106.454717,42.776494],[-106.454945,42.776493],[-106.45505,42.780081],[-106.455155,42.783668],[-106.455145,42.787307],[-106.455135,42.790945],[-106.450202,42.791012],[-106.44527,42.791079],[-106.44038,42.791086],[-106.43549,42.791093],[-106.43547,42.787464],[-106.43545,42.783835],[-106.435317,42.780199],[-106.435184,42.776564],[-106.439551,42.776551],[-106.44013,42.776549],[-106.444607,42.776536],[-106.445077,42.776535],[-106.449662,42.776515],[-106.450011,42.776514],[-106.454717,42.776494]]]}},{"type":"Feature","properties":{"sec":"28","frstdivid":"WY060330N0800W0SN280"},"geometry":{"type":"Polygon","coordinates":[[[-106.449888,42.805392],[-106.445091,42.805446],[-106.442928,42.805472],[-106.441824,42.805486],[-106.440295,42.805504],[-106.435498,42.80556],[-106.435507,42.801945],[-106.435515,42.798331],[-106.435502,42.794712],[-106.43549,42.791093],[-106.44038,42.791086],[-106.44527,42.791079],[-106.450202,42.791012],[-106.455135,42.790945],[-106.455022,42.794543],[-106.45491,42.798142],[-106.45482,42.80101],[-106.454797,42.80174],[-106.454719,42.804235],[-106.454684,42.805339],[-106.449888,42.805392]]]}},{"type":"Feature","properties":{"sec":"25","frstdivid":"WY060330N0800W0SN250"},"geometry":{"type":"Polygon","coordinates":[[[-106.386074,42.805748],[-106.381215,42.805728],[-106.376355,42.805708],[-106.376344,42.802102],[-106.376332,42.798495],[-106.376316,42.794858],[-106.3763,42.791221],[-106.38117,42.791203],[-106.386039,42.791184],[-106.390948,42.791206],[-106.395857,42.791227],[-106.395849,42.794863],[-106.395842,42.798499],[-106.395818,42.802143],[-106.395793,42.805788],[-106.390934,42.805768],[-106.386074,42.805748]]]}},{"type":"Feature","properties":{"sec":"26","frstdivid":"WY060330N0800W0SN260"},"geometry":{"type":"Polygon","coordinates":[[[-106.415453,42.791056],[-106.415591,42.794655],[-106.415729,42.798255],[-106.415867,42.801854],[-106.416005,42.805453],[-106.411099,42.805519],[-106.406193,42.805585],[-106.400993,42.805687],[-106.395793,42.805788],[-106.395818,42.802143],[-106.395842,42.798499],[-106.395849,42.794863],[-106.395857,42.791227],[-106.400756,42.791185],[-106.405655,42.791142],[-106.410554,42.791099],[-106.415453,42.791056]]]}},{"type":"Feature","properties":{"sec":"29","frstdivid":"WY060330N0800W0SN290"},"geometry":{"type":"Polygon","coordinates":[[[-106.474144,42.795882],[-106.474055,42.796592],[-106.473896,42.797867],[-106.473893,42.801491],[-106.47389,42.805115],[-106.469088,42.805169],[-106.464592,42.805219],[-106.464287,42.805223],[-106.463102,42.805238],[-106.459485,42.805281],[-106.459395,42.805282],[-106.455254,42.805332],[-106.454684,42.805339],[-106.454719,42.804235],[-106.454797,42.80174],[-106.45482,42.80101],[-106.45491,42.798142],[-106.455022,42.794543],[-106.455135,42.790945],[-106.460042,42.790941],[-106.464949,42.790938],[-106.469856,42.790934],[-106.474764,42.790931],[-106.47433,42.794399],[-106.474144,42.795882]]]}},{"type":"Feature","properties":{"sec":"11","frstdivid":"WY060330N0800W0SN110"},"geometry":{"type":"Polygon","coordinates":[[[-106.400016,42.834481],[-106.404915,42.834455],[-106.409828,42.834434],[-106.41474,42.834413],[-106.414736,42.838028],[-106.414732,42.841644],[-106.414735,42.845259],[-106.414739,42.848875],[-106.409828,42.848903],[-106.404918,42.84893],[-106.39999,42.84893],[-106.395062,42.848931],[-106.395046,42.845353],[-106.395029,42.841775],[-106.395072,42.838141],[-106.395116,42.834507],[-106.400016,42.834481]]]}},{"type":"Feature","properties":{"sec":"04","frstdivid":"WY060330N0800W0SN040"},"geometry":{"type":"Polygon","coordinates":[[[-106.439464,42.863062],[-106.434529,42.863098],[-106.434494,42.85953],[-106.434459,42.855937],[-106.434419,42.852344],[-106.43438,42.848751],[-106.439306,42.848727],[-106.444232,42.848704],[-106.449158,42.84868],[-106.454084,42.848657],[-106.454132,42.852227],[-106.45418,42.855798],[-106.454225,42.859369],[-106.45427,42.862953],[-106.449335,42.862989],[-106.444399,42.863026],[-106.439464,42.863062]]]}},{"type":"Feature","properties":{"sec":"17","frstdivid":"WY060330N0800W0SN170"},"geometry":{"type":"Polygon","coordinates":[[[-106.46895,42.819581],[-106.473893,42.819566],[-106.47389,42.823183],[-106.473888,42.8268],[-106.473871,42.830426],[-106.473855,42.834052],[-106.468922,42.834081],[-106.463989,42.834111],[-106.459056,42.83414],[-106.454123,42.83417],[-106.454118,42.830548],[-106.454113,42.826926],[-106.454123,42.823327],[-106.454133,42.819729],[-106.45907,42.819663],[-106.464007,42.819597],[-106.46895,42.819581]]]}},{"type":"Feature","properties":{"sec":"23","frstdivid":"WY060330N0800W0SN230"},"geometry":{"type":"Polygon","coordinates":[[[-106.412305,42.819991],[-106.410001,42.820031],[-106.405241,42.820114],[-106.400481,42.820197],[-106.395722,42.820279],[-106.39574,42.816642],[-106.395759,42.813005],[-106.395776,42.809397],[-106.395793,42.805788],[-106.400993,42.805687],[-106.406193,42.805585],[-106.411099,42.805519],[-106.416005,42.805453],[-106.415396,42.809053],[-106.415181,42.810327],[-106.414942,42.811737],[-106.414787,42.812652],[-106.414774,42.8163],[-106.414761,42.819948],[-106.413227,42.819975],[-106.412305,42.819991]]]}},{"type":"Feature","properties":{"sec":"16","frstdivid":"WY060330N0800W0SN160"},"geometry":{"type":"Polygon","coordinates":[[[-106.434418,42.826924],[-106.43441,42.823337],[-106.434402,42.819749],[-106.439339,42.819729],[-106.444277,42.81971],[-106.449205,42.819719],[-106.454133,42.819729],[-106.454123,42.823327],[-106.454113,42.826926],[-106.454118,42.830548],[-106.454123,42.83417],[-106.449183,42.834174],[-106.444242,42.834177],[-106.439338,42.834138],[-106.434433,42.834099],[-106.434425,42.830511],[-106.434418,42.826924]]]}},{"type":"Feature","properties":{"sec":"20","frstdivid":"WY060330N0800W0SN200"},"geometry":{"type":"Polygon","coordinates":[[[-106.47389,42.805115],[-106.473889,42.808734],[-106.473887,42.812353],[-106.47389,42.815959],[-106.473893,42.819566],[-106.46895,42.819581],[-106.464007,42.819597],[-106.45907,42.819663],[-106.454133,42.819729],[-106.454271,42.816132],[-106.454409,42.812534],[-106.454546,42.808937],[-106.454684,42.805339],[-106.455254,42.805332],[-106.459395,42.805282],[-106.459485,42.805281],[-106.463102,42.805238],[-106.464287,42.805223],[-106.464592,42.805219],[-106.469088,42.805169],[-106.47389,42.805115]]]}},{"type":"Feature","properties":{"sec":"27","frstdivid":"WY060330N0800W0SN270"},"geometry":{"type":"Polygon","coordinates":[[[-106.430359,42.791102],[-106.43549,42.791093],[-106.435502,42.794712],[-106.435515,42.798331],[-106.435507,42.801945],[-106.435498,42.80556],[-106.430625,42.805533],[-106.425751,42.805506],[-106.420878,42.80548],[-106.416005,42.805453],[-106.415867,42.801854],[-106.415729,42.798255],[-106.415591,42.794655],[-106.415453,42.791056],[-106.420341,42.791084],[-106.425228,42.791111],[-106.430359,42.791102]]]}},{"type":"Feature","properties":{"sec":"21","frstdivid":"WY060330N0800W0SN210"},"geometry":{"type":"Polygon","coordinates":[[[-106.454546,42.808937],[-106.454409,42.812534],[-106.454271,42.816132],[-106.454133,42.819729],[-106.449205,42.819719],[-106.444277,42.81971],[-106.439339,42.819729],[-106.434402,42.819749],[-106.434393,42.816133],[-106.434384,42.812517],[-106.434788,42.809999],[-106.434941,42.809039],[-106.434975,42.808828],[-106.435498,42.80556],[-106.440295,42.805504],[-106.441824,42.805486],[-106.442928,42.805472],[-106.445091,42.805446],[-106.449888,42.805392],[-106.454684,42.805339],[-106.454546,42.808937]]]}},{"type":"Feature","properties":{"sec":"03","frstdivid":"WY060330N0800W0SN030"},"geometry":{"type":"Polygon","coordinates":[[[-106.434529,42.863098],[-106.429652,42.863119],[-106.424774,42.863141],[-106.419894,42.863162],[-106.415013,42.863184],[-106.414872,42.859639],[-106.414731,42.856077],[-106.414735,42.852476],[-106.414739,42.848875],[-106.419649,42.848844],[-106.424559,42.848813],[-106.42947,42.848782],[-106.43438,42.848751],[-106.434419,42.852344],[-106.434459,42.855937],[-106.434494,42.85953],[-106.434529,42.863098]]]}},{"type":"Feature","properties":{"sec":"35","frstdivid":"WY060330N0800W0SN350"},"geometry":{"type":"Polygon","coordinates":[[[-106.40089,42.776686],[-106.401397,42.776687],[-106.405838,42.776691],[-106.406225,42.776689],[-106.410642,42.776673],[-106.411054,42.776671],[-106.415446,42.776655],[-106.415448,42.780255],[-106.41545,42.783855],[-106.415451,42.787456],[-106.415453,42.791056],[-106.410554,42.791099],[-106.405655,42.791142],[-106.400756,42.791185],[-106.395857,42.791227],[-106.395878,42.787592],[-106.3959,42.783957],[-106.395921,42.780322],[-106.395943,42.776687],[-106.396569,42.776687],[-106.40089,42.776686]]]}},{"type":"Feature","properties":{"sec":"08","frstdivid":"WY060330N0800W0SN080"},"geometry":{"type":"Polygon","coordinates":[[[-106.473831,42.844993],[-106.47383,42.848671],[-106.468845,42.848554],[-106.463861,42.848437],[-106.458973,42.848547],[-106.454084,42.848657],[-106.454094,42.845035],[-106.454104,42.841413],[-106.454114,42.837792],[-106.454123,42.83417],[-106.459056,42.83414],[-106.463989,42.834111],[-106.468922,42.834081],[-106.473855,42.834052],[-106.473843,42.837683],[-106.473832,42.841314],[-106.473831,42.844993]]]}},{"type":"Feature","properties":{"sec":"32","frstdivid":"WY060330N0800W0SN320"},"geometry":{"type":"Polygon","coordinates":[[[-106.454945,42.776493],[-106.459772,42.776482],[-106.459883,42.776482],[-106.464223,42.776466],[-106.464821,42.776464],[-106.468674,42.776445],[-106.469764,42.776439],[-106.473124,42.776422],[-106.474707,42.776414],[-106.474721,42.780043],[-106.474735,42.783673],[-106.474749,42.787302],[-106.474764,42.790931],[-106.469856,42.790934],[-106.464949,42.790938],[-106.460042,42.790941],[-106.455135,42.790945],[-106.455145,42.787307],[-106.455155,42.783668],[-106.45505,42.780081],[-106.454945,42.776493]]]}},{"type":"Feature","properties":{"sec":"09","frstdivid":"WY060330N0800W0SN090"},"geometry":{"type":"Polygon","coordinates":[[[-106.454084,42.848657],[-106.449158,42.84868],[-106.444232,42.848704],[-106.439306,42.848727],[-106.43438,42.848751],[-106.434393,42.845088],[-106.434407,42.841425],[-106.43442,42.837762],[-106.434433,42.834099],[-106.439338,42.834138],[-106.444242,42.834177],[-106.449183,42.834174],[-106.454123,42.83417],[-106.454114,42.837792],[-106.454104,42.841413],[-106.454094,42.845035],[-106.454084,42.848657]]]}},{"type":"Feature","properties":{"sec":"01","frstdivid":"WY060330N0800W0SN010"},"geometry":{"type":"Polygon","coordinates":[[[-106.375741,42.859894],[-106.375766,42.856293],[-106.375788,42.852691],[-106.375811,42.84909],[-106.380537,42.849053],[-106.385263,42.849017],[-106.390163,42.848974],[-106.395062,42.848931],[-106.395172,42.852523],[-106.395281,42.856115],[-106.395187,42.859748],[-106.395094,42.863358],[-106.39025,42.863392],[-106.385406,42.863426],[-106.380561,42.863461],[-106.375717,42.863495],[-106.375741,42.859894]]]}},{"type":"Feature","properties":{"sec":"34","frstdivid":"WY060330N0800W0SN340"},"geometry":{"type":"Polygon","coordinates":[[[-106.415448,42.780255],[-106.415446,42.776655],[-106.415882,42.776653],[-106.42038,42.776627],[-106.420711,42.776625],[-106.425315,42.776606],[-106.425421,42.776605],[-106.430131,42.776585],[-106.430249,42.776585],[-106.434841,42.776565],[-106.435184,42.776564],[-106.435317,42.780199],[-106.43545,42.783835],[-106.43547,42.787464],[-106.43549,42.791093],[-106.430359,42.791102],[-106.425228,42.791111],[-106.420341,42.791084],[-106.415453,42.791056],[-106.415451,42.787456],[-106.41545,42.783855],[-106.415448,42.780255]]]}},{"type":"Feature","properties":{"sec":"14","frstdivid":"WY060330N0800W0SN140"},"geometry":{"type":"Polygon","coordinates":[[[-106.400481,42.820197],[-106.405241,42.820114],[-106.410001,42.820031],[-106.412305,42.819991],[-106.413227,42.819975],[-106.414761,42.819948],[-106.414755,42.823564],[-106.414754,42.823894],[-106.414747,42.82718],[-106.414745,42.827982],[-106.414743,42.830797],[-106.41474,42.834413],[-106.409828,42.834434],[-106.404915,42.834455],[-106.400016,42.834481],[-106.395116,42.834507],[-106.395267,42.83095],[-106.395386,42.82814],[-106.395419,42.827393],[-106.395467,42.826262],[-106.39557,42.823836],[-106.395722,42.820279],[-106.400481,42.820197]]]}},{"type":"Feature","properties":{"sec":"12","frstdivid":"WY060330N0800W0SN120"},"geometry":{"type":"Polygon","coordinates":[[[-106.385299,42.834583],[-106.390207,42.834545],[-106.395116,42.834507],[-106.395072,42.838141],[-106.395029,42.841775],[-106.395046,42.845353],[-106.395062,42.848931],[-106.390163,42.848974],[-106.385263,42.849017],[-106.380537,42.849053],[-106.375811,42.84909],[-106.375837,42.845489],[-106.375862,42.841888],[-106.375888,42.838287],[-106.375914,42.834685],[-106.380606,42.834634],[-106.385299,42.834583]]]}},{"type":"Feature","properties":{"sec":"30","frstdivid":"WY060330N0800W0SN300"},"geometry":{"type":"Polygon","coordinates":[[[-106.494424,42.797953],[-106.494437,42.801497],[-106.49445,42.805041],[-106.488997,42.80506],[-106.483961,42.805077],[-106.478926,42.805096],[-106.47389,42.805115],[-106.473893,42.801491],[-106.473896,42.797867],[-106.474055,42.796592],[-106.474144,42.795882],[-106.47433,42.794399],[-106.474764,42.790931],[-106.479729,42.790841],[-106.484694,42.790751],[-106.489456,42.79075],[-106.493207,42.790751],[-106.494414,42.790752],[-106.494414,42.791291],[-106.494419,42.794352],[-106.494424,42.797953]]]}},{"type":"Feature","properties":{"sec":"22","frstdivid":"WY060330N0800W0SN220"},"geometry":{"type":"Polygon","coordinates":[[[-106.434384,42.812517],[-106.434393,42.816133],[-106.434402,42.819749],[-106.429491,42.819799],[-106.424581,42.819848],[-106.419671,42.819898],[-106.414761,42.819948],[-106.414774,42.8163],[-106.414787,42.812652],[-106.414942,42.811737],[-106.415181,42.810327],[-106.415396,42.809053],[-106.416005,42.805453],[-106.420878,42.80548],[-106.425751,42.805506],[-106.430625,42.805533],[-106.435498,42.80556],[-106.434975,42.808828],[-106.434941,42.809039],[-106.434788,42.809999],[-106.434384,42.812517]]]}},{"type":"Feature","properties":{"sec":"05","frstdivid":"WY060330N0800W0SN050"},"geometry":{"type":"Polygon","coordinates":[[[-106.47383,42.848671],[-106.473876,42.852221],[-106.473922,42.855771],[-106.474105,42.859331],[-106.474284,42.862818],[-106.469281,42.862852],[-106.464277,42.862886],[-106.459273,42.86292],[-106.45427,42.862953],[-106.454225,42.859369],[-106.45418,42.855798],[-106.454132,42.852227],[-106.454084,42.848657],[-106.458973,42.848547],[-106.463861,42.848437],[-106.468845,42.848554],[-106.47383,42.848671]]]}},{"type":"Feature","properties":{"sec":"13","frstdivid":"WY060330N0800W0SN130"},"geometry":{"type":"Polygon","coordinates":[[[-106.395467,42.826262],[-106.395419,42.827393],[-106.395386,42.82814],[-106.395267,42.83095],[-106.395116,42.834507],[-106.390207,42.834545],[-106.385299,42.834583],[-106.380606,42.834634],[-106.375914,42.834685],[-106.376029,42.831056],[-106.376145,42.827427],[-106.376263,42.823803],[-106.376338,42.821519],[-106.376358,42.820907],[-106.376382,42.820179],[-106.381217,42.820204],[-106.386052,42.820229],[-106.390887,42.820254],[-106.395722,42.820279],[-106.39557,42.823836],[-106.395467,42.826262]]]}},{"type":"Feature","properties":{"sec":"31","frstdivid":"WY060330N0800W0SN310"},"geometry":{"type":"Polygon","coordinates":[[[-106.474707,42.776414],[-106.477574,42.776407],[-106.479649,42.776401],[-106.482038,42.776394],[-106.48459,42.776384],[-106.486979,42.776398],[-106.489475,42.776412],[-106.491919,42.776426],[-106.49436,42.776441],[-106.494375,42.780002],[-106.494391,42.783564],[-106.494403,42.787158],[-106.494412,42.789801],[-106.494414,42.790752],[-106.493207,42.790751],[-106.489456,42.79075],[-106.484694,42.790751],[-106.479729,42.790841],[-106.474764,42.790931],[-106.474749,42.787302],[-106.474735,42.783673],[-106.474721,42.780043],[-106.474707,42.776414]]]}},{"type":"Feature","properties":{"sec":"18","frstdivid":"WY060330N0800W0SN180"},"geometry":{"type":"Polygon","coordinates":[[[-106.478811,42.819557],[-106.483729,42.819548],[-106.488934,42.819473],[-106.494452,42.819394],[-106.494451,42.822933],[-106.494451,42.826472],[-106.49445,42.830011],[-106.49445,42.833549],[-106.489031,42.833727],[-106.483748,42.8339],[-106.478801,42.833976],[-106.473855,42.834052],[-106.473871,42.830426],[-106.473888,42.8268],[-106.47389,42.823183],[-106.473893,42.819566],[-106.478811,42.819557]]]}},{"type":"Feature","properties":{"sec":"24","frstdivid":"WY060330N0800W0SN240"},"geometry":{"type":"Polygon","coordinates":[[[-106.376382,42.820179],[-106.376381,42.819817],[-106.376375,42.816566],[-106.376369,42.812952],[-106.376362,42.80933],[-106.376355,42.805708],[-106.381215,42.805728],[-106.386074,42.805748],[-106.390934,42.805768],[-106.395793,42.805788],[-106.395776,42.809397],[-106.395759,42.813005],[-106.39574,42.816642],[-106.395722,42.820279],[-106.390887,42.820254],[-106.386052,42.820229],[-106.381217,42.820204],[-106.376382,42.820179]]]}},{"type":"Feature","properties":{"sec":"07","frstdivid":"WY060330N0800W0SN070"},"geometry":{"type":"Polygon","coordinates":[[[-106.473855,42.834052],[-106.478801,42.833976],[-106.483748,42.8339],[-106.489031,42.833727],[-106.49445,42.833549],[-106.494438,42.837217],[-106.494426,42.840886],[-106.494414,42.844554],[-106.494402,42.848222],[-106.489086,42.848338],[-106.484,42.84845],[-106.478915,42.848561],[-106.47383,42.848671],[-106.473831,42.844993],[-106.473832,42.841314],[-106.473843,42.837683],[-106.473855,42.834052]]]}},{"type":"Feature","properties":{"sec":"10","frstdivid":"WY060330N0800W0SN100"},"geometry":{"type":"Polygon","coordinates":[[[-106.419649,42.848844],[-106.414739,42.848875],[-106.414735,42.845259],[-106.414732,42.841644],[-106.414736,42.838028],[-106.41474,42.834413],[-106.419663,42.834334],[-106.424587,42.834256],[-106.42951,42.834177],[-106.434433,42.834099],[-106.43442,42.837762],[-106.434407,42.841425],[-106.434393,42.845088],[-106.43438,42.848751],[-106.42947,42.848782],[-106.424559,42.848813],[-106.419649,42.848844]]]}}]}