{"type":"FeatureCollection","note":"BLM Public Land Survey System. Provided by the Bureau of Land Management as is. These data are neither legal documents nor land surveys and must not be used as such.","features":[{"type":"Feature","properties":{"sec":"05","frstdivid":"WY060280N0730W0SN050"},"geometry":{"type":"Polygon","coordinates":[[[-105.630022,42.431325],[-105.627777,42.431304],[-105.62513,42.431279],[-105.622923,42.431259],[-105.620238,42.431233],[-105.618068,42.431214],[-105.615345,42.431187],[-105.615305,42.428409],[-105.615176,42.424698],[-105.615048,42.420986],[-105.619923,42.420969],[-105.624798,42.420953],[-105.629673,42.420936],[-105.634548,42.42092],[-105.634704,42.42467],[-105.63486,42.42842],[-105.634915,42.431354],[-105.632631,42.43135],[-105.630022,42.431325]]]}},{"type":"Feature","properties":{"sec":"04","frstdivid":"WY060280N0730W0SN040"},"geometry":{"type":"Polygon","coordinates":[[[-105.605294,42.420977],[-105.610171,42.420981],[-105.615048,42.420986],[-105.615176,42.424698],[-105.615305,42.428409],[-105.615345,42.431187],[-105.613213,42.431168],[-105.610451,42.431122],[-105.608378,42.431089],[-105.605557,42.431041],[-105.603543,42.43101],[-105.600662,42.430993],[-105.598603,42.430983],[-105.595766,42.430967],[-105.595738,42.428327],[-105.595639,42.424647],[-105.595541,42.420968],[-105.600417,42.420972],[-105.605294,42.420977]]]}},{"type":"Feature","properties":{"sec":"02","frstdivid":"WY060280N0730W0SN020"},"geometry":{"type":"Polygon","coordinates":[[[-105.55647,42.424677],[-105.556466,42.421054],[-105.558908,42.421053],[-105.561349,42.421051],[-105.566233,42.421048],[-105.571117,42.421045],[-105.576,42.421042],[-105.576064,42.424664],[-105.576128,42.428287],[-105.576143,42.430771],[-105.574387,42.430758],[-105.571226,42.430752],[-105.569356,42.43075],[-105.56631,42.430744],[-105.564326,42.430741],[-105.561393,42.430735],[-105.559563,42.430733],[-105.556476,42.430726],[-105.556475,42.428299],[-105.55647,42.424677]]]}},{"type":"Feature","properties":{"sec":"03","frstdivid":"WY060280N0730W0SN030"},"geometry":{"type":"Polygon","coordinates":[[[-105.595766,42.430967],[-105.593664,42.430957],[-105.59086,42.430927],[-105.588884,42.430909],[-105.585955,42.430877],[-105.584104,42.43086],[-105.581049,42.430825],[-105.579245,42.430807],[-105.576143,42.430771],[-105.576128,42.428287],[-105.576064,42.424664],[-105.576,42.421042],[-105.580885,42.421023],[-105.58577,42.421005],[-105.590656,42.420986],[-105.595541,42.420968],[-105.595639,42.424647],[-105.595738,42.428327],[-105.595766,42.430967]]]}},{"type":"Feature","properties":{"sec":"06","frstdivid":"WY060280N0730W0SN060"},"geometry":{"type":"Polygon","coordinates":[[[-105.639337,42.420827],[-105.644126,42.420734],[-105.648965,42.420687],[-105.652894,42.420655],[-105.652807,42.422549],[-105.652729,42.424264],[-105.652669,42.42558],[-105.652842,42.42787],[-105.652924,42.429038],[-105.653086,42.431197],[-105.651941,42.431188],[-105.649603,42.431232],[-105.647088,42.431279],[-105.644708,42.431324],[-105.642236,42.43137],[-105.639812,42.431365],[-105.637433,42.43136],[-105.634915,42.431354],[-105.63486,42.42842],[-105.634704,42.42467],[-105.634548,42.42092],[-105.639337,42.420827]]]}},{"type":"Feature","properties":{"sec":"01","frstdivid":"WY060280N0730W0SN010"},"geometry":{"type":"Polygon","coordinates":[[[-105.556466,42.421054],[-105.55647,42.424677],[-105.556475,42.428299],[-105.556476,42.430726],[-105.5548,42.430726],[-105.551581,42.430714],[-105.550041,42.430708],[-105.546686,42.430696],[-105.545282,42.43069],[-105.541791,42.430692],[-105.540492,42.430693],[-105.537555,42.430694],[-105.537529,42.428286],[-105.537521,42.427315],[-105.537492,42.424665],[-105.537486,42.423936],[-105.537454,42.421045],[-105.541804,42.421045],[-105.546691,42.421045],[-105.549135,42.421047],[-105.551578,42.42105],[-105.554022,42.421052],[-105.556466,42.421054]]]}}]}