{"type":"FeatureCollection","note":"BLM Public Land Survey System. Provided by the Bureau of Land Management as is. These data are neither legal documents nor land surveys and must not be used as such.","features":[{"type":"Feature","properties":{"sec":"28","frstdivid":"MT200130N0560E0SN280"},"geometry":{"type":"Polygon","coordinates":[[[-104.624673,46.860865],[-104.624661,46.85724],[-104.624649,46.853614],[-104.624637,46.849988],[-104.624625,46.846362],[-104.629897,46.846362],[-104.635169,46.846361],[-104.640452,46.846377],[-104.645736,46.846392],[-104.645736,46.849996],[-104.645736,46.853601],[-104.645739,46.857211],[-104.645742,46.860822],[-104.640475,46.860833],[-104.635208,46.860844],[-104.62994,46.860854],[-104.624673,46.860865]]]}},{"type":"Feature","properties":{"sec":"26","frstdivid":"MT200130N0560E0SN260"},"geometry":{"type":"Polygon","coordinates":[[[-104.582512,46.850004],[-104.582514,46.846382],[-104.587782,46.846382],[-104.59305,46.846383],[-104.598312,46.846378],[-104.603575,46.846373],[-104.603582,46.849996],[-104.60359,46.85362],[-104.603598,46.85724],[-104.603607,46.860859],[-104.598336,46.860857],[-104.593066,46.860855],[-104.587788,46.860853],[-104.582511,46.860852],[-104.582511,46.857238],[-104.582511,46.853625],[-104.582512,46.850004]]]}},{"type":"Feature","properties":{"sec":"32","frstdivid":"MT200130N0560E0SN320"},"geometry":{"type":"Polygon","coordinates":[[[-104.650986,46.831916],[-104.654672,46.831919],[-104.656265,46.83192],[-104.656723,46.83192],[-104.659927,46.831921],[-104.661537,46.831922],[-104.665182,46.831924],[-104.666809,46.831925],[-104.666831,46.835544],[-104.666853,46.839163],[-104.666864,46.842782],[-104.666875,46.846401],[-104.661588,46.846399],[-104.6563,46.846397],[-104.651018,46.846395],[-104.645736,46.846392],[-104.645724,46.842761],[-104.645713,46.839129],[-104.64571,46.83552],[-104.645708,46.831911],[-104.646122,46.831911],[-104.649417,46.831914],[-104.650986,46.831916]]]}},{"type":"Feature","properties":{"sec":"18","frstdivid":"MT200130N0560E0SN180"},"geometry":{"type":"Polygon","coordinates":[[[-104.682774,46.889837],[-104.677503,46.889828],[-104.672232,46.889818],[-104.666962,46.889809],[-104.666934,46.886183],[-104.666906,46.882557],[-104.666898,46.878938],[-104.66689,46.875319],[-104.672174,46.875331],[-104.677458,46.875343],[-104.682741,46.875361],[-104.68811,46.875379],[-104.688127,46.878996],[-104.688143,46.882613],[-104.68816,46.88623],[-104.688176,46.889847],[-104.682774,46.889837]]]}},{"type":"Feature","properties":{"sec":"21","frstdivid":"MT200130N0560E0SN210"},"geometry":{"type":"Polygon","coordinates":[[[-104.64581,46.875336],[-104.640538,46.875338],[-104.635266,46.87534],[-104.629996,46.875349],[-104.624725,46.875358],[-104.624704,46.871737],[-104.624684,46.868116],[-104.624678,46.864491],[-104.624673,46.860865],[-104.62994,46.860854],[-104.635208,46.860844],[-104.640475,46.860833],[-104.645742,46.860822],[-104.645767,46.864454],[-104.645792,46.868085],[-104.645801,46.871711],[-104.64581,46.875336]]]}},{"type":"Feature","properties":{"sec":"14","frstdivid":"MT200130N0560E0SN140"},"geometry":{"type":"Polygon","coordinates":[[[-104.598341,46.875346],[-104.60365,46.875357],[-104.603646,46.878978],[-104.603643,46.882599],[-104.60364,46.886217],[-104.603636,46.889834],[-104.598359,46.889828],[-104.593081,46.889822],[-104.587806,46.889813],[-104.58253,46.889804],[-104.582522,46.886181],[-104.582514,46.882557],[-104.582518,46.878942],[-104.582522,46.875327],[-104.587777,46.875331],[-104.593032,46.875336],[-104.598341,46.875346]]]}},{"type":"Feature","properties":{"sec":"16","frstdivid":"MT200130N0560E0SN160"},"geometry":{"type":"Polygon","coordinates":[[[-104.624725,46.875358],[-104.629996,46.875349],[-104.635266,46.87534],[-104.640538,46.875338],[-104.64581,46.875336],[-104.645828,46.878963],[-104.645846,46.88259],[-104.645874,46.886215],[-104.645901,46.88984],[-104.640618,46.889846],[-104.635335,46.889853],[-104.630054,46.889844],[-104.624772,46.889836],[-104.624747,46.886219],[-104.624722,46.882602],[-104.624724,46.87898],[-104.624725,46.875358]]]}},{"type":"Feature","properties":{"sec":"10","frstdivid":"MT200130N0560E0SN100"},"geometry":{"type":"Polygon","coordinates":[[[-104.608919,46.889835],[-104.614202,46.889835],[-104.619487,46.889836],[-104.624772,46.889836],[-104.624778,46.893457],[-104.624784,46.897079],[-104.624797,46.900702],[-104.624809,46.904325],[-104.619533,46.904321],[-104.614257,46.904318],[-104.608954,46.90432],[-104.60365,46.904323],[-104.603645,46.9007],[-104.60364,46.897077],[-104.603638,46.893456],[-104.603636,46.889834],[-104.608919,46.889835]]]}},{"type":"Feature","properties":{"sec":"11","frstdivid":"MT200130N0560E0SN110"},"geometry":{"type":"Polygon","coordinates":[[[-104.60365,46.904323],[-104.598372,46.904307],[-104.593094,46.90429],[-104.587807,46.90428],[-104.58252,46.904269],[-104.582519,46.900661],[-104.582518,46.897052],[-104.582524,46.893428],[-104.58253,46.889804],[-104.587806,46.889813],[-104.593081,46.889822],[-104.598359,46.889828],[-104.603636,46.889834],[-104.603638,46.893456],[-104.60364,46.897077],[-104.603645,46.9007],[-104.60365,46.904323]]]}},{"type":"Feature","properties":{"sec":"31","frstdivid":"MT200130N0560E0SN310"},"geometry":{"type":"Polygon","coordinates":[[[-104.667291,46.831924],[-104.670437,46.831923],[-104.672089,46.831923],[-104.675714,46.831922],[-104.677369,46.831921],[-104.677898,46.831939],[-104.680991,46.831942],[-104.682654,46.831943],[-104.686268,46.831946],[-104.687944,46.831948],[-104.687946,46.835561],[-104.687949,46.839175],[-104.687963,46.842789],[-104.687976,46.846402],[-104.682712,46.846403],[-104.677451,46.846404],[-104.672163,46.846402],[-104.666875,46.846401],[-104.666864,46.842782],[-104.666853,46.839163],[-104.666831,46.835544],[-104.666809,46.831925],[-104.667291,46.831924]]]}},{"type":"Feature","properties":{"sec":"23","frstdivid":"MT200130N0560E0SN230"},"geometry":{"type":"Polygon","coordinates":[[[-104.582516,46.868089],[-104.582514,46.864471],[-104.582511,46.860852],[-104.587788,46.860853],[-104.593066,46.860855],[-104.598336,46.860857],[-104.603607,46.860859],[-104.603615,46.864486],[-104.603624,46.868113],[-104.603637,46.871735],[-104.60365,46.875357],[-104.598341,46.875346],[-104.593032,46.875336],[-104.587777,46.875331],[-104.582522,46.875327],[-104.582519,46.871708],[-104.582516,46.868089]]]}},{"type":"Feature","properties":{"sec":"22","frstdivid":"MT200130N0560E0SN220"},"geometry":{"type":"Polygon","coordinates":[[[-104.619416,46.860855],[-104.624673,46.860865],[-104.624678,46.864491],[-104.624684,46.868116],[-104.624704,46.871737],[-104.624725,46.875358],[-104.61945,46.875353],[-104.614174,46.875348],[-104.608912,46.875352],[-104.60365,46.875357],[-104.603637,46.871735],[-104.603624,46.868113],[-104.603615,46.864486],[-104.603607,46.860859],[-104.608883,46.860852],[-104.61416,46.860845],[-104.619416,46.860855]]]}},{"type":"Feature","properties":{"sec":"24","frstdivid":"MT200130N0560E0SN240"},"geometry":{"type":"Polygon","coordinates":[[[-104.566688,46.860832],[-104.571971,46.860837],[-104.577241,46.860844],[-104.582511,46.860852],[-104.582514,46.864471],[-104.582516,46.868089],[-104.582519,46.871708],[-104.582522,46.875327],[-104.577231,46.875323],[-104.57194,46.875318],[-104.56665,46.875314],[-104.561359,46.87531],[-104.56138,46.871688],[-104.561402,46.868067],[-104.561403,46.864447],[-104.561404,46.860827],[-104.566688,46.860832]]]}},{"type":"Feature","properties":{"sec":"34","frstdivid":"MT200130N0560E0SN340"},"geometry":{"type":"Polygon","coordinates":[[[-104.603543,46.835505],[-104.603532,46.831883],[-104.603706,46.831883],[-104.607298,46.831884],[-104.608804,46.831885],[-104.612553,46.831886],[-104.614076,46.831887],[-104.614316,46.831885],[-104.617808,46.83188],[-104.619343,46.831878],[-104.623063,46.831873],[-104.624611,46.83187],[-104.624613,46.83549],[-104.624615,46.839109],[-104.62462,46.842736],[-104.624625,46.846362],[-104.619369,46.846362],[-104.614113,46.846362],[-104.608844,46.846368],[-104.603575,46.846373],[-104.603564,46.84275],[-104.603554,46.839128],[-104.603543,46.835505]]]}},{"type":"Feature","properties":{"sec":"17","frstdivid":"MT200130N0560E0SN170"},"geometry":{"type":"Polygon","coordinates":[[[-104.64581,46.875336],[-104.65108,46.875332],[-104.65635,46.875328],[-104.66162,46.875324],[-104.66689,46.875319],[-104.666898,46.878938],[-104.666906,46.882557],[-104.666934,46.886183],[-104.666962,46.889809],[-104.661696,46.889817],[-104.656431,46.889824],[-104.651166,46.889832],[-104.645901,46.88984],[-104.645874,46.886215],[-104.645846,46.88259],[-104.645828,46.878963],[-104.64581,46.875336]]]}},{"type":"Feature","properties":{"sec":"05","frstdivid":"MT200130N0560E0SN050"},"geometry":{"type":"Polygon","coordinates":[[[-104.651231,46.918839],[-104.645942,46.918839],[-104.645938,46.915197],[-104.645934,46.911574],[-104.64593,46.907951],[-104.645927,46.904327],[-104.651193,46.904323],[-104.656458,46.904319],[-104.661723,46.904314],[-104.666989,46.904309],[-104.667015,46.907926],[-104.66704,46.911542],[-104.667067,46.915165],[-104.667093,46.91884],[-104.661807,46.918839],[-104.656521,46.918839],[-104.651231,46.918839]]]}},{"type":"Feature","properties":{"sec":"01","frstdivid":"MT200130N0560E0SN010"},"geometry":{"type":"Polygon","coordinates":[[[-104.566659,46.904246],[-104.571952,46.904255],[-104.577236,46.904262],[-104.58252,46.904269],[-104.582531,46.907889],[-104.582543,46.911509],[-104.582522,46.915131],[-104.582501,46.918744],[-104.577217,46.918734],[-104.571933,46.918724],[-104.566642,46.918717],[-104.56135,46.91871],[-104.561355,46.915089],[-104.561361,46.911468],[-104.561363,46.907853],[-104.561366,46.904238],[-104.566659,46.904246]]]}},{"type":"Feature","properties":{"sec":"35","frstdivid":"MT200130N0560E0SN350"},"geometry":{"type":"Polygon","coordinates":[[[-104.582497,46.842763],[-104.58248,46.839144],[-104.582468,46.835514],[-104.582456,46.831885],[-104.582533,46.831885],[-104.586586,46.831885],[-104.587723,46.831886],[-104.591933,46.831887],[-104.592989,46.831887],[-104.593116,46.831887],[-104.59728,46.831885],[-104.598261,46.831885],[-104.602625,46.831883],[-104.603532,46.831883],[-104.603543,46.835505],[-104.603554,46.839128],[-104.603564,46.84275],[-104.603575,46.846373],[-104.598312,46.846378],[-104.59305,46.846383],[-104.587782,46.846382],[-104.582514,46.846382],[-104.582497,46.842763]]]}},{"type":"Feature","properties":{"sec":"30","frstdivid":"MT200130N0560E0SN300"},"geometry":{"type":"Polygon","coordinates":[[[-104.688059,46.860858],[-104.682702,46.860853],[-104.677419,46.860848],[-104.672139,46.860846],[-104.66686,46.860844],[-104.666864,46.857233],[-104.666868,46.853622],[-104.666871,46.850011],[-104.666875,46.846401],[-104.672163,46.846402],[-104.677451,46.846404],[-104.682712,46.846403],[-104.687976,46.846402],[-104.687993,46.850027],[-104.68801,46.853652],[-104.688035,46.857255],[-104.688059,46.860858]]]}},{"type":"Feature","properties":{"sec":"02","frstdivid":"MT200130N0560E0SN020"},"geometry":{"type":"Polygon","coordinates":[[[-104.58252,46.904269],[-104.587807,46.90428],[-104.593094,46.90429],[-104.598372,46.904307],[-104.60365,46.904323],[-104.603653,46.907944],[-104.603656,46.911565],[-104.603655,46.915186],[-104.603654,46.918779],[-104.598372,46.918771],[-104.593091,46.918762],[-104.587796,46.918753],[-104.582501,46.918744],[-104.582522,46.915131],[-104.582543,46.911509],[-104.582531,46.907889],[-104.58252,46.904269]]]}},{"type":"Feature","properties":{"sec":"27","frstdivid":"MT200130N0560E0SN270"},"geometry":{"type":"Polygon","coordinates":[[[-104.61416,46.860845],[-104.608883,46.860852],[-104.603607,46.860859],[-104.603598,46.85724],[-104.60359,46.85362],[-104.603582,46.849996],[-104.603575,46.846373],[-104.608844,46.846368],[-104.614113,46.846362],[-104.619369,46.846362],[-104.624625,46.846362],[-104.624637,46.849988],[-104.624649,46.853614],[-104.624661,46.85724],[-104.624673,46.860865],[-104.619416,46.860855],[-104.61416,46.860845]]]}},{"type":"Feature","properties":{"sec":"15","frstdivid":"MT200130N0560E0SN150"},"geometry":{"type":"Polygon","coordinates":[[[-104.624725,46.875358],[-104.624724,46.87898],[-104.624722,46.882602],[-104.624747,46.886219],[-104.624772,46.889836],[-104.619487,46.889836],[-104.614202,46.889835],[-104.608919,46.889835],[-104.603636,46.889834],[-104.60364,46.886217],[-104.603643,46.882599],[-104.603646,46.878978],[-104.60365,46.875357],[-104.608912,46.875352],[-104.614174,46.875348],[-104.61945,46.875353],[-104.624725,46.875358]]]}},{"type":"Feature","properties":{"sec":"12","frstdivid":"MT200130N0560E0SN120"},"geometry":{"type":"Polygon","coordinates":[[[-104.561366,46.900621],[-104.561366,46.897005],[-104.56137,46.893393],[-104.561374,46.88978],[-104.566666,46.889786],[-104.571958,46.889792],[-104.577244,46.889798],[-104.58253,46.889804],[-104.582524,46.893428],[-104.582518,46.897052],[-104.582519,46.900661],[-104.58252,46.904269],[-104.577236,46.904262],[-104.571952,46.904255],[-104.566659,46.904246],[-104.561366,46.904238],[-104.561366,46.900621]]]}},{"type":"Feature","properties":{"sec":"33","frstdivid":"MT200130N0560E0SN330"},"geometry":{"type":"Polygon","coordinates":[[[-104.64571,46.83552],[-104.645713,46.839129],[-104.645724,46.842761],[-104.645736,46.846392],[-104.640452,46.846377],[-104.635169,46.846361],[-104.629897,46.846362],[-104.624625,46.846362],[-104.62462,46.842736],[-104.624615,46.839109],[-104.624613,46.83549],[-104.624611,46.83187],[-104.624922,46.83187],[-104.628318,46.831876],[-104.629885,46.831879],[-104.633593,46.831885],[-104.63516,46.831888],[-104.635529,46.831889],[-104.638868,46.831896],[-104.640434,46.8319],[-104.644142,46.831908],[-104.645708,46.831911],[-104.64571,46.83552]]]}},{"type":"Feature","properties":{"sec":"13","frstdivid":"MT200130N0560E0SN130"},"geometry":{"type":"Polygon","coordinates":[[[-104.561367,46.882545],[-104.561363,46.878928],[-104.561359,46.87531],[-104.56665,46.875314],[-104.57194,46.875318],[-104.577231,46.875323],[-104.582522,46.875327],[-104.582518,46.878942],[-104.582514,46.882557],[-104.582522,46.886181],[-104.58253,46.889804],[-104.577244,46.889798],[-104.571958,46.889792],[-104.566666,46.889786],[-104.561374,46.88978],[-104.561371,46.886163],[-104.561367,46.882545]]]}},{"type":"Feature","properties":{"sec":"29","frstdivid":"MT200130N0560E0SN290"},"geometry":{"type":"Polygon","coordinates":[[[-104.661571,46.860838],[-104.656283,46.860833],[-104.651013,46.860827],[-104.645742,46.860822],[-104.645739,46.857211],[-104.645736,46.853601],[-104.645736,46.849996],[-104.645736,46.846392],[-104.651018,46.846395],[-104.6563,46.846397],[-104.661588,46.846399],[-104.666875,46.846401],[-104.666871,46.850011],[-104.666868,46.853622],[-104.666864,46.857233],[-104.66686,46.860844],[-104.661571,46.860838]]]}},{"type":"Feature","properties":{"sec":"07","frstdivid":"MT200130N0560E0SN070"},"geometry":{"type":"Polygon","coordinates":[[[-104.672232,46.889818],[-104.677503,46.889828],[-104.682774,46.889837],[-104.688176,46.889847],[-104.688193,46.893463],[-104.68821,46.897079],[-104.688226,46.90071],[-104.688241,46.904341],[-104.682831,46.904336],[-104.677551,46.90433],[-104.67227,46.90432],[-104.666989,46.904309],[-104.666981,46.900675],[-104.666973,46.89704],[-104.666968,46.893424],[-104.666962,46.889809],[-104.672232,46.889818]]]}},{"type":"Feature","properties":{"sec":"08","frstdivid":"MT200130N0560E0SN080"},"geometry":{"type":"Polygon","coordinates":[[[-104.661696,46.889817],[-104.666962,46.889809],[-104.666968,46.893424],[-104.666973,46.89704],[-104.666981,46.900675],[-104.666989,46.904309],[-104.661723,46.904314],[-104.656458,46.904319],[-104.651193,46.904323],[-104.645927,46.904327],[-104.645918,46.900709],[-104.645908,46.897091],[-104.645904,46.893465],[-104.645901,46.88984],[-104.651166,46.889832],[-104.656431,46.889824],[-104.661696,46.889817]]]}},{"type":"Feature","properties":{"sec":"19","frstdivid":"MT200130N0560E0SN190"},"geometry":{"type":"Polygon","coordinates":[[[-104.666875,46.871699],[-104.66686,46.868079],[-104.66686,46.864461],[-104.66686,46.860844],[-104.672139,46.860846],[-104.677419,46.860848],[-104.682702,46.860853],[-104.688059,46.860858],[-104.688077,46.86449],[-104.688095,46.868122],[-104.688103,46.871751],[-104.68811,46.875379],[-104.682741,46.875361],[-104.677458,46.875343],[-104.672174,46.875331],[-104.66689,46.875319],[-104.666875,46.871699]]]}},{"type":"Feature","properties":{"sec":"03","frstdivid":"MT200130N0560E0SN030"},"geometry":{"type":"Polygon","coordinates":[[[-104.603655,46.915186],[-104.603656,46.911565],[-104.603653,46.907944],[-104.60365,46.904323],[-104.608954,46.90432],[-104.614257,46.904318],[-104.619533,46.904321],[-104.624809,46.904325],[-104.624811,46.907946],[-104.624813,46.911567],[-104.6248,46.915184],[-104.624787,46.918816],[-104.619505,46.918802],[-104.614223,46.918788],[-104.608939,46.918784],[-104.603654,46.918779],[-104.603655,46.915186]]]}},{"type":"Feature","properties":{"sec":"25","frstdivid":"MT200130N0560E0SN250"},"geometry":{"type":"Polygon","coordinates":[[[-104.571971,46.860837],[-104.566688,46.860832],[-104.561404,46.860827],[-104.561399,46.857208],[-104.561395,46.853589],[-104.561385,46.849974],[-104.561376,46.84636],[-104.566649,46.846364],[-104.571922,46.846368],[-104.577218,46.846375],[-104.582514,46.846382],[-104.582512,46.850004],[-104.582511,46.853625],[-104.582511,46.857238],[-104.582511,46.860852],[-104.577241,46.860844],[-104.571971,46.860837]]]}},{"type":"Feature","properties":{"sec":"20","frstdivid":"MT200130N0560E0SN200"},"geometry":{"type":"Polygon","coordinates":[[[-104.656283,46.860833],[-104.661571,46.860838],[-104.66686,46.860844],[-104.66686,46.864461],[-104.66686,46.868079],[-104.666875,46.871699],[-104.66689,46.875319],[-104.66162,46.875324],[-104.65635,46.875328],[-104.65108,46.875332],[-104.64581,46.875336],[-104.645801,46.871711],[-104.645792,46.868085],[-104.645767,46.864454],[-104.645742,46.860822],[-104.651013,46.860827],[-104.656283,46.860833]]]}},{"type":"Feature","properties":{"sec":"06","frstdivid":"MT200130N0560E0SN060"},"geometry":{"type":"Polygon","coordinates":[[[-104.667093,46.91884],[-104.667067,46.915165],[-104.66704,46.911542],[-104.667015,46.907926],[-104.666989,46.904309],[-104.67227,46.90432],[-104.677551,46.90433],[-104.682831,46.904336],[-104.688241,46.904341],[-104.688257,46.907974],[-104.688272,46.911606],[-104.688288,46.915218],[-104.688304,46.918832],[-104.682931,46.918837],[-104.67765,46.918843],[-104.672372,46.918841],[-104.667093,46.91884]]]}},{"type":"Feature","properties":{"sec":"09","frstdivid":"MT200130N0560E0SN090"},"geometry":{"type":"Polygon","coordinates":[[[-104.630054,46.889844],[-104.635335,46.889853],[-104.640618,46.889846],[-104.645901,46.88984],[-104.645904,46.893465],[-104.645908,46.897091],[-104.645918,46.900709],[-104.645927,46.904327],[-104.640648,46.904328],[-104.635368,46.904328],[-104.630089,46.904327],[-104.624809,46.904325],[-104.624797,46.900702],[-104.624784,46.897079],[-104.624778,46.893457],[-104.624772,46.889836],[-104.630054,46.889844]]]}},{"type":"Feature","properties":{"sec":"36","frstdivid":"MT200130N0560E0SN360"},"geometry":{"type":"Polygon","coordinates":[[[-104.566649,46.846364],[-104.561376,46.84636],[-104.561375,46.842744],[-104.561375,46.839129],[-104.561373,46.835508],[-104.561371,46.831887],[-104.565586,46.831887],[-104.566666,46.831887],[-104.570836,46.831887],[-104.57196,46.831887],[-104.576087,46.831886],[-104.577208,46.831886],[-104.581336,46.831885],[-104.582456,46.831885],[-104.582468,46.835514],[-104.58248,46.839144],[-104.582497,46.842763],[-104.582514,46.846382],[-104.577218,46.846375],[-104.571922,46.846368],[-104.566649,46.846364]]]}},{"type":"Feature","properties":{"sec":"04","frstdivid":"MT200130N0560E0SN040"},"geometry":{"type":"Polygon","coordinates":[[[-104.624811,46.907946],[-104.624809,46.904325],[-104.630089,46.904327],[-104.635368,46.904328],[-104.640648,46.904328],[-104.645927,46.904327],[-104.64593,46.907951],[-104.645934,46.911574],[-104.645938,46.915197],[-104.645942,46.918839],[-104.640646,46.918836],[-104.635351,46.918833],[-104.630069,46.918824],[-104.624787,46.918816],[-104.6248,46.915184],[-104.624813,46.911567],[-104.624811,46.907946]]]}}]}