{"type":"FeatureCollection","note":"BLM Public Land Survey System. Provided by the Bureau of Land Management as is. These data are neither legal documents nor land surveys and must not be used as such.","features":[{"type":"Feature","properties":{"sec":"29","frstdivid":"MT200030N0430E0SN290"},"geometry":{"type":"Polygon","coordinates":[[[-106.399588,45.98885],[-106.399569,45.985231],[-106.399551,45.981612],[-106.399532,45.977993],[-106.404732,45.977931],[-106.409933,45.977868],[-106.415134,45.977806],[-106.420334,45.977743],[-106.420357,45.981085],[-106.420359,45.981384],[-106.420381,45.984717],[-106.420384,45.985025],[-106.420407,45.988349],[-106.420409,45.988666],[-106.420431,45.991982],[-106.420434,45.992308],[-106.415228,45.992348],[-106.410021,45.992388],[-106.404814,45.992429],[-106.399607,45.992469],[-106.399588,45.98885]]]}},{"type":"Feature","properties":{"sec":"13","frstdivid":"MT200030N0430E0SN130"},"geometry":{"type":"Polygon","coordinates":[[[-106.33196,46.006424],[-106.337147,46.006436],[-106.337138,46.010063],[-106.337128,46.013692],[-106.337118,46.017322],[-106.337109,46.020951],[-106.33193,46.020935],[-106.326752,46.02092],[-106.321573,46.020904],[-106.316394,46.020888],[-106.316394,46.018306],[-106.316394,46.017264],[-106.316394,46.014691],[-106.316395,46.01364],[-106.316395,46.011075],[-106.316395,46.010015],[-106.316395,46.007459],[-106.316397,46.006391],[-106.321584,46.006402],[-106.326772,46.006413],[-106.33196,46.006424]]]}},{"type":"Feature","properties":{"sec":"14","frstdivid":"MT200030N0430E0SN140"},"geometry":{"type":"Polygon","coordinates":[[[-106.352684,46.006471],[-106.357862,46.006483],[-106.357866,46.010108],[-106.35787,46.013737],[-106.357873,46.017366],[-106.357876,46.020994],[-106.352684,46.020983],[-106.347492,46.020972],[-106.342301,46.020962],[-106.337109,46.020951],[-106.337118,46.017322],[-106.337128,46.013692],[-106.337138,46.010063],[-106.337147,46.006436],[-106.342326,46.006447],[-106.347505,46.006459],[-106.352684,46.006471]]]}},{"type":"Feature","properties":{"sec":"03","frstdivid":"MT200030N0430E0SN030"},"geometry":{"type":"Polygon","coordinates":[[[-106.373525,46.035575],[-106.378739,46.035604],[-106.37882,46.039236],[-106.378902,46.042868],[-106.378983,46.046497],[-106.379065,46.050151],[-106.378717,46.050151],[-106.373842,46.050154],[-106.373522,46.050154],[-106.368619,46.050157],[-106.368327,46.050158],[-106.363422,46.050168],[-106.363132,46.050168],[-106.357936,46.050179],[-106.357922,46.046343],[-106.357908,46.042724],[-106.357896,46.039107],[-106.357884,46.035489],[-106.363098,46.035518],[-106.368311,46.035546],[-106.373525,46.035575]]]}},{"type":"Feature","properties":{"sec":"28","frstdivid":"MT200030N0430E0SN280"},"geometry":{"type":"Polygon","coordinates":[[[-106.394314,45.977884],[-106.399532,45.977993],[-106.399551,45.981612],[-106.399569,45.985231],[-106.399588,45.98885],[-106.399607,45.992469],[-106.394371,45.992371],[-106.389136,45.992273],[-106.3839,45.992174],[-106.378664,45.992076],[-106.378663,45.988447],[-106.378662,45.984817],[-106.378661,45.981188],[-106.378659,45.977558],[-106.383877,45.977667],[-106.389095,45.977776],[-106.394314,45.977884]]]}},{"type":"Feature","properties":{"sec":"26","frstdivid":"MT200030N0430E0SN260"},"geometry":{"type":"Polygon","coordinates":[[[-106.352708,45.977502],[-106.357894,45.977517],[-106.357887,45.981137],[-106.35788,45.984756],[-106.357872,45.988376],[-106.357865,45.991995],[-106.352686,45.991981],[-106.347507,45.991967],[-106.342328,45.991952],[-106.337149,45.991938],[-106.33715,45.988318],[-106.33715,45.984698],[-106.337151,45.981078],[-106.337151,45.977458],[-106.342337,45.977473],[-106.347523,45.977488],[-106.352708,45.977502]]]}},{"type":"Feature","properties":{"sec":"27","frstdivid":"MT200030N0430E0SN270"},"geometry":{"type":"Polygon","coordinates":[[[-106.378663,45.988447],[-106.378664,45.992076],[-106.373464,45.992056],[-106.373453,45.992056],[-106.368263,45.992036],[-106.363064,45.992016],[-106.357865,45.991995],[-106.357872,45.988376],[-106.35788,45.984756],[-106.357887,45.981137],[-106.357894,45.977517],[-106.363085,45.977528],[-106.368277,45.977538],[-106.373468,45.977548],[-106.378659,45.977558],[-106.378661,45.981188],[-106.378662,45.984817],[-106.378663,45.988447]]]}},{"type":"Feature","properties":{"sec":"16","frstdivid":"MT200030N0430E0SN160"},"geometry":{"type":"Polygon","coordinates":[[[-106.378805,46.0102],[-106.378828,46.006574],[-106.384018,46.006747],[-106.389208,46.006921],[-106.394393,46.006912],[-106.399578,46.006903],[-106.399576,46.010517],[-106.399571,46.014128],[-106.399566,46.017739],[-106.399561,46.021351],[-106.394354,46.021331],[-106.389147,46.021312],[-106.383939,46.021196],[-106.378732,46.021081],[-106.378756,46.017454],[-106.378781,46.013827],[-106.378805,46.0102]]]}},{"type":"Feature","properties":{"sec":"19","frstdivid":"MT200030N0430E0SN190"},"geometry":{"type":"Polygon","coordinates":[[[-106.441422,45.991958],[-106.441408,45.995567],[-106.441393,45.999177],[-106.441378,46.002787],[-106.441363,46.006397],[-106.436169,46.006395],[-106.430975,46.006394],[-106.42578,46.006393],[-106.420405,46.006392],[-106.420411,46.00326],[-106.420412,46.00279],[-106.420419,45.999609],[-106.420419,45.999187],[-106.420426,45.995959],[-106.420427,45.995584],[-106.420434,45.992308],[-106.420431,45.991982],[-106.42584,45.991978],[-106.431034,45.991974],[-106.436228,45.991966],[-106.441422,45.991958]]]}},{"type":"Feature","properties":{"sec":"15","frstdivid":"MT200030N0430E0SN150"},"geometry":{"type":"Polygon","coordinates":[[[-106.373442,46.006551],[-106.378828,46.006574],[-106.378805,46.0102],[-106.378781,46.013827],[-106.378756,46.017454],[-106.378732,46.021081],[-106.373518,46.021061],[-106.373499,46.021061],[-106.368304,46.021041],[-106.36309,46.021019],[-106.357876,46.020994],[-106.357873,46.017366],[-106.35787,46.013737],[-106.357866,46.010108],[-106.357862,46.006483],[-106.363056,46.006506],[-106.368249,46.006528],[-106.373442,46.006551]]]}},{"type":"Feature","properties":{"sec":"05","frstdivid":"MT200030N0430E0SN050"},"geometry":{"type":"Polygon","coordinates":[[[-106.415064,46.035868],[-106.420206,46.035897],[-106.4203,46.038903],[-106.420319,46.039504],[-106.420431,46.043113],[-106.420703,46.046665],[-106.420974,46.050188],[-106.415714,46.050178],[-106.410455,46.050169],[-106.405195,46.05016],[-106.399935,46.05015],[-106.399882,46.046569],[-106.399829,46.042964],[-106.399734,46.039373],[-106.399639,46.035782],[-106.404781,46.035811],[-106.409923,46.035839],[-106.415064,46.035868]]]}},{"type":"Feature","properties":{"sec":"09","frstdivid":"MT200030N0430E0SN090"},"geometry":{"type":"Polygon","coordinates":[[[-106.394354,46.021331],[-106.399561,46.021351],[-106.39958,46.024958],[-106.3996,46.028566],[-106.39962,46.032174],[-106.399639,46.035782],[-106.394392,46.0358],[-106.389144,46.035817],[-106.383941,46.03571],[-106.378739,46.035604],[-106.378737,46.031973],[-106.378735,46.028342],[-106.378734,46.024712],[-106.378732,46.021081],[-106.383939,46.021196],[-106.389147,46.021312],[-106.394354,46.021331]]]}},{"type":"Feature","properties":{"sec":"30","frstdivid":"MT200030N0430E0SN300"},"geometry":{"type":"Polygon","coordinates":[[[-106.431034,45.991974],[-106.42584,45.991978],[-106.420431,45.991982],[-106.420409,45.988666],[-106.420407,45.988349],[-106.420384,45.985025],[-106.420381,45.984717],[-106.420359,45.981384],[-106.420357,45.981085],[-106.420334,45.977743],[-106.420339,45.977452],[-106.425653,45.977451],[-106.425916,45.977451],[-106.430967,45.97745],[-106.431105,45.97745],[-106.436215,45.977449],[-106.436293,45.977449],[-106.441482,45.977448],[-106.441467,45.981085],[-106.441452,45.984723],[-106.441437,45.98834],[-106.441422,45.991958],[-106.436228,45.991966],[-106.431034,45.991974]]]}},{"type":"Feature","properties":{"sec":"36","frstdivid":"MT200030N0430E0SN360"},"geometry":{"type":"Polygon","coordinates":[[[-106.331972,45.962945],[-106.337162,45.962957],[-106.337159,45.966582],[-106.337157,45.970208],[-106.337154,45.973833],[-106.337151,45.977458],[-106.331965,45.977446],[-106.326778,45.977434],[-106.321591,45.977422],[-106.316405,45.97741],[-106.316403,45.974907],[-106.316402,45.973784],[-106.316399,45.971281],[-106.316401,45.970158],[-106.316402,45.967659],[-106.316402,45.966534],[-106.316401,45.96291],[-106.321591,45.962921],[-106.326781,45.962933],[-106.331972,45.962945]]]}},{"type":"Feature","properties":{"sec":"31","frstdivid":"MT200030N0430E0SN310"},"geometry":{"type":"Polygon","coordinates":[[[-106.436302,45.963062],[-106.441541,45.962974],[-106.441526,45.966592],[-106.441511,45.970211],[-106.441496,45.973829],[-106.441482,45.977448],[-106.436293,45.977449],[-106.436215,45.977449],[-106.431105,45.97745],[-106.430967,45.97745],[-106.425916,45.977451],[-106.425653,45.977451],[-106.420339,45.977452],[-106.420398,45.974099],[-106.420403,45.973843],[-106.420462,45.970455],[-106.420534,45.966819],[-106.420605,45.963184],[-106.42074,45.963184],[-106.425817,45.963168],[-106.425927,45.963167],[-106.431029,45.963151],[-106.431115,45.96315],[-106.436276,45.963063],[-106.436302,45.963062]]]}},{"type":"Feature","properties":{"sec":"35","frstdivid":"MT200030N0430E0SN350"},"geometry":{"type":"Polygon","coordinates":[[[-106.337154,45.973833],[-106.337157,45.970208],[-106.337159,45.966582],[-106.337162,45.962957],[-106.342352,45.962975],[-106.347542,45.962994],[-106.352731,45.963012],[-106.357921,45.963031],[-106.357914,45.966653],[-106.357907,45.970274],[-106.357901,45.973896],[-106.357894,45.977517],[-106.352708,45.977502],[-106.347523,45.977488],[-106.342337,45.977473],[-106.337151,45.977458],[-106.337154,45.973833]]]}},{"type":"Feature","properties":{"sec":"10","frstdivid":"MT200030N0430E0SN100"},"geometry":{"type":"Polygon","coordinates":[[[-106.373518,46.021061],[-106.378732,46.021081],[-106.378734,46.024712],[-106.378735,46.028342],[-106.378737,46.031973],[-106.378739,46.035604],[-106.373525,46.035575],[-106.368311,46.035546],[-106.363098,46.035518],[-106.357884,46.035489],[-106.357882,46.031867],[-106.357881,46.028245],[-106.357879,46.024621],[-106.357876,46.020994],[-106.36309,46.021019],[-106.368304,46.021041],[-106.373499,46.021061],[-106.373518,46.021061]]]}},{"type":"Feature","properties":{"sec":"23","frstdivid":"MT200030N0430E0SN230"},"geometry":{"type":"Polygon","coordinates":[[[-106.342328,45.991952],[-106.347507,45.991967],[-106.352686,45.991981],[-106.357865,45.991995],[-106.357864,45.995617],[-106.357864,45.999239],[-106.357863,46.002861],[-106.357862,46.006483],[-106.352684,46.006471],[-106.347505,46.006459],[-106.342326,46.006447],[-106.337147,46.006436],[-106.337148,46.002811],[-106.337148,45.999187],[-106.337149,45.995562],[-106.337149,45.991938],[-106.342328,45.991952]]]}},{"type":"Feature","properties":{"sec":"07","frstdivid":"MT200030N0430E0SN070"},"geometry":{"type":"Polygon","coordinates":[[[-106.436106,46.020861],[-106.441302,46.020862],[-106.441282,46.024471],[-106.441263,46.02808],[-106.441243,46.031689],[-106.441223,46.035299],[-106.436679,46.035297],[-106.436029,46.035296],[-106.431485,46.035294],[-106.430836,46.035294],[-106.425845,46.035292],[-106.425642,46.035292],[-106.420205,46.035289],[-106.420208,46.032348],[-106.420208,46.031682],[-106.420211,46.0288],[-106.420223,46.028074],[-106.420281,46.025152],[-106.420294,46.024467],[-106.420353,46.021504],[-106.420354,46.02086],[-106.425713,46.020861],[-106.430909,46.020861],[-106.436106,46.020861]]]}},{"type":"Feature","properties":{"sec":"17","frstdivid":"MT200030N0430E0SN170"},"geometry":{"type":"Polygon","coordinates":[[[-106.415208,46.0069],[-106.420405,46.006912],[-106.420395,46.010011],[-106.420393,46.010561],[-106.420381,46.013627],[-106.42038,46.014209],[-106.420368,46.017244],[-106.420365,46.017856],[-106.420354,46.02086],[-106.420353,46.021504],[-106.415153,46.021448],[-106.409953,46.021391],[-106.404757,46.021371],[-106.399561,46.021351],[-106.399566,46.017739],[-106.399571,46.014128],[-106.399576,46.010517],[-106.399578,46.006903],[-106.404795,46.006896],[-106.410011,46.006889],[-106.415208,46.0069]]]}},{"type":"Feature","properties":{"sec":"32","frstdivid":"MT200030N0430E0SN320"},"geometry":{"type":"Polygon","coordinates":[[[-106.415387,45.963205],[-106.420605,45.963184],[-106.420534,45.966819],[-106.420462,45.970455],[-106.420403,45.973843],[-106.420398,45.974099],[-106.420339,45.977452],[-106.420334,45.977743],[-106.415134,45.977806],[-106.409933,45.977868],[-106.404732,45.977931],[-106.399532,45.977993],[-106.399572,45.974319],[-106.399612,45.970646],[-106.399652,45.966972],[-106.399693,45.963298],[-106.404931,45.963262],[-106.410169,45.963226],[-106.415362,45.963205],[-106.415387,45.963205]]]}},{"type":"Feature","properties":{"sec":"12","frstdivid":"MT200030N0430E0SN120"},"geometry":{"type":"Polygon","coordinates":[[[-106.33193,46.020935],[-106.337109,46.020951],[-106.337103,46.024578],[-106.337098,46.028206],[-106.337092,46.031834],[-106.337087,46.035461],[-106.331911,46.035444],[-106.326735,46.035427],[-106.321559,46.03541],[-106.316383,46.035393],[-106.316384,46.032788],[-106.316385,46.031767],[-106.316387,46.029166],[-106.316389,46.028141],[-106.31639,46.025544],[-106.316391,46.024515],[-106.316393,46.021921],[-106.316394,46.020888],[-106.321573,46.020904],[-106.326752,46.02092],[-106.33193,46.020935]]]}},{"type":"Feature","properties":{"sec":"34","frstdivid":"MT200030N0430E0SN340"},"geometry":{"type":"Polygon","coordinates":[[[-106.37863,45.963084],[-106.378637,45.966703],[-106.378644,45.970321],[-106.378652,45.97394],[-106.378659,45.977558],[-106.373468,45.977548],[-106.368277,45.977538],[-106.363085,45.977528],[-106.357894,45.977517],[-106.357901,45.973896],[-106.357907,45.970274],[-106.357914,45.966653],[-106.357921,45.963031],[-106.363135,45.963046],[-106.363158,45.963046],[-106.368349,45.96306],[-106.373489,45.963072],[-106.37863,45.963084]]]}},{"type":"Feature","properties":{"sec":"01","frstdivid":"MT200030N0430E0SN010"},"geometry":{"type":"Polygon","coordinates":[[[-106.331911,46.035444],[-106.337087,46.035461],[-106.337103,46.039087],[-106.337119,46.042713],[-106.337138,46.046334],[-106.337159,46.050181],[-106.331961,46.050177],[-106.326763,46.050174],[-106.321565,46.050166],[-106.316367,46.050158],[-106.31637,46.047277],[-106.316371,46.046272],[-106.316375,46.043656],[-106.316377,46.042647],[-106.316379,46.040033],[-106.316379,46.03902],[-106.316381,46.03641],[-106.316383,46.035393],[-106.321559,46.03541],[-106.326735,46.035427],[-106.331911,46.035444]]]}},{"type":"Feature","properties":{"sec":"08","frstdivid":"MT200030N0430E0SN080"},"geometry":{"type":"Polygon","coordinates":[[[-106.420211,46.0288],[-106.420208,46.031682],[-106.420208,46.032348],[-106.420205,46.035289],[-106.420206,46.035897],[-106.415064,46.035868],[-106.409923,46.035839],[-106.404781,46.035811],[-106.399639,46.035782],[-106.39962,46.032174],[-106.3996,46.028566],[-106.39958,46.024958],[-106.399561,46.021351],[-106.404757,46.021371],[-106.409953,46.021391],[-106.415153,46.021448],[-106.420353,46.021504],[-106.420294,46.024467],[-106.420281,46.025152],[-106.420223,46.028074],[-106.420211,46.0288]]]}},{"type":"Feature","properties":{"sec":"04","frstdivid":"MT200030N0430E0SN040"},"geometry":{"type":"Polygon","coordinates":[[[-106.394392,46.0358],[-106.399639,46.035782],[-106.399734,46.039373],[-106.399829,46.042964],[-106.399882,46.046569],[-106.399935,46.05015],[-106.394711,46.050146],[-106.389487,46.050144],[-106.384276,46.050147],[-106.379065,46.050151],[-106.378983,46.046497],[-106.378902,46.042868],[-106.37882,46.039236],[-106.378739,46.035604],[-106.383941,46.03571],[-106.389144,46.035817],[-106.394392,46.0358]]]}},{"type":"Feature","properties":{"sec":"25","frstdivid":"MT200030N0430E0SN250"},"geometry":{"type":"Polygon","coordinates":[[[-106.326778,45.991927],[-106.321592,45.991921],[-106.316406,45.991916],[-106.316405,45.989345],[-106.316405,45.988289],[-106.316404,45.985741],[-106.316405,45.984663],[-106.316405,45.982137],[-106.316404,45.981036],[-106.316403,45.978532],[-106.316405,45.97741],[-106.321591,45.977422],[-106.326778,45.977434],[-106.331965,45.977446],[-106.337151,45.977458],[-106.337151,45.981078],[-106.33715,45.984698],[-106.33715,45.988318],[-106.337149,45.991938],[-106.331963,45.991932],[-106.326778,45.991927]]]}},{"type":"Feature","properties":{"sec":"21","frstdivid":"MT200030N0430E0SN210"},"geometry":{"type":"Polygon","coordinates":[[[-106.394371,45.992371],[-106.399607,45.992469],[-106.3996,45.996078],[-106.399593,45.999686],[-106.399586,46.003295],[-106.399578,46.006903],[-106.394393,46.006912],[-106.389208,46.006921],[-106.384018,46.006747],[-106.378828,46.006574],[-106.378787,46.002949],[-106.378746,45.999325],[-106.378705,45.995701],[-106.378664,45.992076],[-106.3839,45.992174],[-106.389136,45.992273],[-106.394371,45.992371]]]}},{"type":"Feature","properties":{"sec":"20","frstdivid":"MT200030N0430E0SN200"},"geometry":{"type":"Polygon","coordinates":[[[-106.415228,45.992348],[-106.420434,45.992308],[-106.420427,45.995584],[-106.420426,45.995959],[-106.420419,45.999187],[-106.420419,45.999609],[-106.420412,46.00279],[-106.420411,46.00326],[-106.420405,46.006392],[-106.420405,46.006912],[-106.415208,46.0069],[-106.410011,46.006889],[-106.404795,46.006896],[-106.399578,46.006903],[-106.399586,46.003295],[-106.399593,45.999686],[-106.3996,45.996078],[-106.399607,45.992469],[-106.404814,45.992429],[-106.410021,45.992388],[-106.415228,45.992348]]]}},{"type":"Feature","properties":{"sec":"24","frstdivid":"MT200030N0430E0SN240"},"geometry":{"type":"Polygon","coordinates":[[[-106.33196,46.006424],[-106.326772,46.006413],[-106.321584,46.006402],[-106.316397,46.006391],[-106.316398,46.003831],[-106.316399,46.002772],[-106.3164,46.000204],[-106.316401,45.999153],[-106.316403,45.996577],[-106.316403,45.995534],[-106.316405,45.992949],[-106.316406,45.991916],[-106.321592,45.991921],[-106.326778,45.991927],[-106.331963,45.991932],[-106.337149,45.991938],[-106.337149,45.995562],[-106.337148,45.999187],[-106.337148,46.002811],[-106.337147,46.006436],[-106.33196,46.006424]]]}},{"type":"Feature","properties":{"sec":"18","frstdivid":"MT200030N0430E0SN180"},"geometry":{"type":"Polygon","coordinates":[[[-106.436169,46.006395],[-106.441363,46.006397],[-106.44135,46.010015],[-106.441334,46.013631],[-106.441318,46.017246],[-106.441302,46.020862],[-106.436106,46.020861],[-106.430909,46.020861],[-106.425713,46.020861],[-106.420354,46.02086],[-106.420365,46.017856],[-106.420368,46.017244],[-106.42038,46.014209],[-106.420381,46.013627],[-106.420393,46.010561],[-106.420395,46.010011],[-106.420405,46.006912],[-106.420405,46.006392],[-106.42578,46.006393],[-106.430975,46.006394],[-106.436169,46.006395]]]}},{"type":"Feature","properties":{"sec":"22","frstdivid":"MT200030N0430E0SN220"},"geometry":{"type":"Polygon","coordinates":[[[-106.357865,45.991995],[-106.363064,45.992016],[-106.368263,45.992036],[-106.373453,45.992056],[-106.373464,45.992056],[-106.378664,45.992076],[-106.378705,45.995701],[-106.378746,45.999325],[-106.378787,46.002949],[-106.378828,46.006574],[-106.373442,46.006551],[-106.368249,46.006528],[-106.363056,46.006506],[-106.357862,46.006483],[-106.357863,46.002861],[-106.357864,45.999239],[-106.357864,45.995617],[-106.357865,45.991995]]]}},{"type":"Feature","properties":{"sec":"02","frstdivid":"MT200030N0430E0SN020"},"geometry":{"type":"Polygon","coordinates":[[[-106.352685,46.035484],[-106.357884,46.035489],[-106.357896,46.039107],[-106.357908,46.042724],[-106.357922,46.046343],[-106.357936,46.050179],[-106.352741,46.050179],[-106.347547,46.05018],[-106.342353,46.050181],[-106.337159,46.050181],[-106.337138,46.046334],[-106.337119,46.042713],[-106.337103,46.039087],[-106.337087,46.035461],[-106.342287,46.035471],[-106.347486,46.035479],[-106.352685,46.035484]]]}},{"type":"Feature","properties":{"sec":"06","frstdivid":"MT200030N0430E0SN060"},"geometry":{"type":"Polygon","coordinates":[[[-106.436679,46.035297],[-106.441223,46.035299],[-106.441205,46.038912],[-106.441188,46.042525],[-106.441187,46.042876],[-106.441174,46.046136],[-106.441172,46.046486],[-106.441155,46.050095],[-106.436602,46.050109],[-106.431397,46.050127],[-106.426186,46.050158],[-106.420974,46.050188],[-106.420703,46.046665],[-106.420431,46.043113],[-106.420319,46.039504],[-106.4203,46.038903],[-106.420206,46.035897],[-106.420205,46.035289],[-106.425642,46.035292],[-106.425845,46.035292],[-106.430836,46.035294],[-106.431485,46.035294],[-106.436029,46.035296],[-106.436679,46.035297]]]}},{"type":"Feature","properties":{"sec":"33","frstdivid":"MT200030N0430E0SN330"},"geometry":{"type":"Polygon","coordinates":[[[-106.37863,45.963084],[-106.383895,45.963138],[-106.389161,45.963191],[-106.394427,45.963245],[-106.399693,45.963298],[-106.399652,45.966972],[-106.399612,45.970646],[-106.399572,45.974319],[-106.399532,45.977993],[-106.394314,45.977884],[-106.389095,45.977776],[-106.383877,45.977667],[-106.378659,45.977558],[-106.378652,45.97394],[-106.378644,45.970321],[-106.378637,45.966703],[-106.37863,45.963084]]]}},{"type":"Feature","properties":{"sec":"11","frstdivid":"MT200030N0430E0SN110"},"geometry":{"type":"Polygon","coordinates":[[[-106.352684,46.020983],[-106.357876,46.020994],[-106.357879,46.024621],[-106.357881,46.028245],[-106.357882,46.031867],[-106.357884,46.035489],[-106.352685,46.035484],[-106.347486,46.035479],[-106.342287,46.035471],[-106.337087,46.035461],[-106.337092,46.031834],[-106.337098,46.028206],[-106.337103,46.024578],[-106.337109,46.020951],[-106.342301,46.020962],[-106.347492,46.020972],[-106.352684,46.020983]]]}}]}