{"type":"FeatureCollection","note":"BLM Public Land Survey System. Provided by the Bureau of Land Management as is. These data are neither legal documents nor land surveys and must not be used as such.","features":[{"type":"Feature","properties":{"sec":"33","frstdivid":"WY060340N0640W0SN330"},"geometry":{"type":"Polygon","coordinates":[[[-104.552684,42.886055],[-104.547769,42.886046],[-104.542855,42.886037],[-104.53794,42.886028],[-104.537898,42.882409],[-104.537856,42.87879],[-104.537889,42.87517],[-104.537923,42.87155],[-104.542874,42.871561],[-104.547825,42.871572],[-104.552776,42.871583],[-104.557727,42.871594],[-104.557695,42.875211],[-104.557663,42.878829],[-104.557631,42.882446],[-104.557599,42.886064],[-104.552684,42.886055]]]}},{"type":"Feature","properties":{"sec":"34","frstdivid":"WY060340N0640W0SN340"},"geometry":{"type":"Polygon","coordinates":[[[-104.528051,42.871569],[-104.532987,42.87156],[-104.537923,42.87155],[-104.537889,42.87517],[-104.537856,42.87879],[-104.537898,42.882409],[-104.53794,42.886028],[-104.53298,42.886039],[-104.528021,42.886051],[-104.523061,42.886063],[-104.518101,42.886075],[-104.51812,42.882453],[-104.51814,42.878832],[-104.518159,42.875211],[-104.518178,42.871589],[-104.523115,42.871579],[-104.528051,42.871569]]]}},{"type":"Feature","properties":{"sec":"32","frstdivid":"WY060340N0640W0SN320"},"geometry":{"type":"Polygon","coordinates":[[[-104.557663,42.878829],[-104.557695,42.875211],[-104.557727,42.871594],[-104.562704,42.871571],[-104.567681,42.871549],[-104.572658,42.871527],[-104.577635,42.871504],[-104.577593,42.875124],[-104.577552,42.878744],[-104.57751,42.882364],[-104.577468,42.885984],[-104.572501,42.886004],[-104.567534,42.886024],[-104.562566,42.886044],[-104.557599,42.886064],[-104.557631,42.882446],[-104.557663,42.878829]]]}},{"type":"Feature","properties":{"sec":"31","frstdivid":"WY060340N0640W0SN310"},"geometry":{"type":"Polygon","coordinates":[[[-104.597766,42.878699],[-104.597774,42.88232],[-104.597782,42.885941],[-104.592244,42.885947],[-104.587319,42.885951],[-104.582394,42.885968],[-104.577468,42.885984],[-104.57751,42.882364],[-104.577552,42.878744],[-104.577593,42.875124],[-104.577635,42.871504],[-104.582579,42.871486],[-104.587522,42.871469],[-104.592456,42.871464],[-104.59776,42.871458],[-104.597763,42.875079],[-104.597766,42.878699]]]}},{"type":"Feature","properties":{"sec":"18","frstdivid":"WY060340N0640W0SN180"},"geometry":{"type":"Polygon","coordinates":[[[-104.582698,42.929413],[-104.577771,42.929428],[-104.577756,42.925807],[-104.577742,42.922187],[-104.577727,42.918566],[-104.577713,42.914946],[-104.58264,42.914935],[-104.587566,42.914925],[-104.592492,42.914914],[-104.598084,42.914902],[-104.598145,42.918521],[-104.598207,42.922141],[-104.598269,42.92576],[-104.59833,42.92938],[-104.592553,42.92939],[-104.587626,42.929398],[-104.582698,42.929413]]]}},{"type":"Feature","properties":{"sec":"17","frstdivid":"WY060340N0640W0SN170"},"geometry":{"type":"Polygon","coordinates":[[[-104.562811,42.914989],[-104.567778,42.914975],[-104.572746,42.91496],[-104.577713,42.914946],[-104.577727,42.918566],[-104.577742,42.922187],[-104.577756,42.925807],[-104.577771,42.929428],[-104.572795,42.929439],[-104.56782,42.929451],[-104.562844,42.929462],[-104.557868,42.929474],[-104.557862,42.925857],[-104.557856,42.922239],[-104.55785,42.918621],[-104.557844,42.915004],[-104.562811,42.914989]]]}},{"type":"Feature","properties":{"sec":"20","frstdivid":"WY060340N0640W0SN200"},"geometry":{"type":"Polygon","coordinates":[[[-104.557844,42.915004],[-104.557775,42.911387],[-104.557705,42.90777],[-104.557636,42.904152],[-104.557567,42.900535],[-104.562509,42.900518],[-104.567451,42.900501],[-104.572393,42.900483],[-104.577335,42.900466],[-104.57743,42.904086],[-104.577524,42.907706],[-104.577619,42.911326],[-104.577713,42.914946],[-104.572746,42.91496],[-104.567778,42.914975],[-104.562811,42.914989],[-104.557844,42.915004]]]}},{"type":"Feature","properties":{"sec":"19","frstdivid":"WY060340N0640W0SN190"},"geometry":{"type":"Polygon","coordinates":[[[-104.592492,42.914914],[-104.587566,42.914925],[-104.58264,42.914935],[-104.577713,42.914946],[-104.577619,42.911326],[-104.577524,42.907706],[-104.57743,42.904086],[-104.577335,42.900466],[-104.58226,42.900455],[-104.587184,42.900444],[-104.592108,42.900434],[-104.597747,42.900422],[-104.597833,42.904042],[-104.59792,42.907662],[-104.598002,42.911282],[-104.598084,42.914902],[-104.592492,42.914914]]]}},{"type":"Feature","properties":{"sec":"30","frstdivid":"WY060340N0640W0SN300"},"geometry":{"type":"Polygon","coordinates":[[[-104.577335,42.900466],[-104.577369,42.896846],[-104.577402,42.893225],[-104.577435,42.889605],[-104.577468,42.885984],[-104.582394,42.885968],[-104.587319,42.885951],[-104.592244,42.885947],[-104.597782,42.885941],[-104.597767,42.889561],[-104.597753,42.893182],[-104.59775,42.896802],[-104.597747,42.900422],[-104.592108,42.900434],[-104.587184,42.900444],[-104.58226,42.900455],[-104.577335,42.900466]]]}},{"type":"Feature","properties":{"sec":"04","frstdivid":"WY060340N0640W0SN040"},"geometry":{"type":"Polygon","coordinates":[[[-104.538459,42.954803],[-104.538394,42.951182],[-104.53831,42.947562],[-104.538227,42.943942],[-104.543175,42.943943],[-104.548124,42.943944],[-104.553073,42.943944],[-104.558021,42.943945],[-104.558094,42.947564],[-104.558166,42.951183],[-104.558229,42.954802],[-104.558291,42.95833],[-104.553348,42.958316],[-104.548406,42.958303],[-104.543463,42.95829],[-104.538521,42.958276],[-104.538459,42.954803]]]}},{"type":"Feature","properties":{"sec":"11","frstdivid":"WY060340N0640W0SN110"},"geometry":{"type":"Polygon","coordinates":[[[-104.518522,42.943942],[-104.51358,42.943874],[-104.508638,42.943806],[-104.503696,42.943738],[-104.498754,42.94367],[-104.498746,42.940054],[-104.498739,42.936438],[-104.498732,42.932822],[-104.498724,42.929207],[-104.503687,42.929272],[-104.50865,42.929338],[-104.513613,42.929404],[-104.518576,42.92947],[-104.518562,42.933088],[-104.518549,42.936706],[-104.518535,42.940324],[-104.518522,42.943942]]]}},{"type":"Feature","properties":{"sec":"26","frstdivid":"WY060340N0640W0SN260"},"geometry":{"type":"Polygon","coordinates":[[[-104.503482,42.900339],[-104.498602,42.900273],[-104.498561,42.896656],[-104.49852,42.893038],[-104.498479,42.889421],[-104.498438,42.885803],[-104.503353,42.885871],[-104.508269,42.885939],[-104.513185,42.886007],[-104.518101,42.886075],[-104.518106,42.88969],[-104.518111,42.893306],[-104.518117,42.896922],[-104.518122,42.900537],[-104.513242,42.900471],[-104.508362,42.900405],[-104.503482,42.900339]]]}},{"type":"Feature","properties":{"sec":"12","frstdivid":"WY060340N0640W0SN120"},"geometry":{"type":"Polygon","coordinates":[[[-104.484055,42.943672],[-104.479156,42.943672],[-104.479121,42.940054],[-104.479086,42.936435],[-104.479052,42.932816],[-104.479017,42.929198],[-104.483944,42.9292],[-104.488871,42.929202],[-104.493798,42.929204],[-104.498724,42.929207],[-104.498732,42.932822],[-104.498739,42.936438],[-104.498746,42.940054],[-104.498754,42.94367],[-104.493854,42.943671],[-104.488955,42.943671],[-104.484055,42.943672]]]}},{"type":"Feature","properties":{"sec":"35","frstdivid":"WY060340N0640W0SN350"},"geometry":{"type":"Polygon","coordinates":[[[-104.518178,42.871589],[-104.518159,42.875211],[-104.51814,42.878832],[-104.51812,42.882453],[-104.518101,42.886075],[-104.513185,42.886007],[-104.508269,42.885939],[-104.503353,42.885871],[-104.498438,42.885803],[-104.498437,42.882186],[-104.498436,42.878568],[-104.498435,42.87495],[-104.498434,42.871332],[-104.50337,42.871396],[-104.508306,42.871461],[-104.513242,42.871525],[-104.518178,42.871589]]]}},{"type":"Feature","properties":{"sec":"09","frstdivid":"WY060340N0640W0SN090"},"geometry":{"type":"Polygon","coordinates":[[[-104.557907,42.933092],[-104.557945,42.936709],[-104.557983,42.940327],[-104.558021,42.943945],[-104.553073,42.943944],[-104.548124,42.943944],[-104.543175,42.943943],[-104.538227,42.943942],[-104.538218,42.940322],[-104.538209,42.936702],[-104.5382,42.933082],[-104.538191,42.929462],[-104.543111,42.929465],[-104.54803,42.929468],[-104.552949,42.929471],[-104.557868,42.929474],[-104.557907,42.933092]]]}},{"type":"Feature","properties":{"sec":"27","frstdivid":"WY060340N0640W0SN270"},"geometry":{"type":"Polygon","coordinates":[[[-104.537957,42.893265],[-104.537966,42.896884],[-104.537974,42.900502],[-104.533011,42.900511],[-104.528048,42.90052],[-104.523085,42.900529],[-104.518122,42.900537],[-104.518117,42.896922],[-104.518111,42.893306],[-104.518106,42.88969],[-104.518101,42.886075],[-104.523061,42.886063],[-104.528021,42.886051],[-104.53298,42.886039],[-104.53794,42.886028],[-104.537948,42.889646],[-104.537957,42.893265]]]}},{"type":"Feature","properties":{"sec":"28","frstdivid":"WY060340N0640W0SN280"},"geometry":{"type":"Polygon","coordinates":[[[-104.552669,42.900527],[-104.54777,42.900519],[-104.542872,42.900511],[-104.537974,42.900502],[-104.537966,42.896884],[-104.537957,42.893265],[-104.537948,42.889646],[-104.53794,42.886028],[-104.542855,42.886037],[-104.547769,42.886046],[-104.552684,42.886055],[-104.557599,42.886064],[-104.557591,42.889681],[-104.557583,42.893299],[-104.557575,42.896917],[-104.557567,42.900535],[-104.552669,42.900527]]]}},{"type":"Feature","properties":{"sec":"21","frstdivid":"WY060340N0640W0SN210"},"geometry":{"type":"Polygon","coordinates":[[[-104.557705,42.90777],[-104.557775,42.911387],[-104.557844,42.915004],[-104.552927,42.914998],[-104.548011,42.914993],[-104.543094,42.914987],[-104.538177,42.914981],[-104.538126,42.911362],[-104.538076,42.907742],[-104.538025,42.904122],[-104.537974,42.900502],[-104.542872,42.900511],[-104.54777,42.900519],[-104.552669,42.900527],[-104.557567,42.900535],[-104.557636,42.904152],[-104.557705,42.90777]]]}},{"type":"Feature","properties":{"sec":"10","frstdivid":"WY060340N0640W0SN100"},"geometry":{"type":"Polygon","coordinates":[[[-104.528384,42.929466],[-104.533287,42.929464],[-104.538191,42.929462],[-104.5382,42.933082],[-104.538209,42.936702],[-104.538218,42.940322],[-104.538227,42.943942],[-104.5333,42.943942],[-104.528374,42.943942],[-104.523448,42.943942],[-104.518522,42.943942],[-104.518535,42.940324],[-104.518549,42.936706],[-104.518562,42.933088],[-104.518576,42.92947],[-104.52348,42.929468],[-104.528384,42.929466]]]}},{"type":"Feature","properties":{"sec":"29","frstdivid":"WY060340N0640W0SN290"},"geometry":{"type":"Polygon","coordinates":[[[-104.562509,42.900518],[-104.557567,42.900535],[-104.557575,42.896917],[-104.557583,42.893299],[-104.557591,42.889681],[-104.557599,42.886064],[-104.562566,42.886044],[-104.567534,42.886024],[-104.572501,42.886004],[-104.577468,42.885984],[-104.577435,42.889605],[-104.577402,42.893225],[-104.577369,42.896846],[-104.577335,42.900466],[-104.572393,42.900483],[-104.567451,42.900501],[-104.562509,42.900518]]]}},{"type":"Feature","properties":{"sec":"22","frstdivid":"WY060340N0640W0SN220"},"geometry":{"type":"Polygon","coordinates":[[[-104.538126,42.911362],[-104.538177,42.914981],[-104.533234,42.914986],[-104.528291,42.914991],[-104.523348,42.914996],[-104.518405,42.915001],[-104.518334,42.911385],[-104.518263,42.907769],[-104.518193,42.904153],[-104.518122,42.900537],[-104.523085,42.900529],[-104.528048,42.90052],[-104.533011,42.900511],[-104.537974,42.900502],[-104.538025,42.904122],[-104.538076,42.907742],[-104.538126,42.911362]]]}},{"type":"Feature","properties":{"sec":"16","frstdivid":"WY060340N0640W0SN160"},"geometry":{"type":"Polygon","coordinates":[[[-104.54803,42.929468],[-104.543111,42.929465],[-104.538191,42.929462],[-104.538188,42.925842],[-104.538184,42.922222],[-104.538181,42.918602],[-104.538177,42.914981],[-104.543094,42.914987],[-104.548011,42.914993],[-104.552927,42.914998],[-104.557844,42.915004],[-104.55785,42.918621],[-104.557856,42.922239],[-104.557862,42.925857],[-104.557868,42.929474],[-104.552949,42.929471],[-104.54803,42.929468]]]}},{"type":"Feature","properties":{"sec":"15","frstdivid":"WY060340N0640W0SN150"},"geometry":{"type":"Polygon","coordinates":[[[-104.533287,42.929464],[-104.528384,42.929466],[-104.52348,42.929468],[-104.518576,42.92947],[-104.518533,42.925853],[-104.51849,42.922236],[-104.518447,42.918618],[-104.518405,42.915001],[-104.523348,42.914996],[-104.528291,42.914991],[-104.533234,42.914986],[-104.538177,42.914981],[-104.538181,42.918602],[-104.538184,42.922222],[-104.538188,42.925842],[-104.538191,42.929462],[-104.533287,42.929464]]]}},{"type":"Feature","properties":{"sec":"08","frstdivid":"WY060340N0640W0SN080"},"geometry":{"type":"Polygon","coordinates":[[[-104.56782,42.929451],[-104.572795,42.929439],[-104.577771,42.929428],[-104.577792,42.933048],[-104.577813,42.936669],[-104.577835,42.94029],[-104.577856,42.94391],[-104.572897,42.943919],[-104.567939,42.943928],[-104.56298,42.943936],[-104.558021,42.943945],[-104.557983,42.940327],[-104.557945,42.936709],[-104.557907,42.933092],[-104.557868,42.929474],[-104.562844,42.929462],[-104.56782,42.929451]]]}},{"type":"Feature","properties":{"sec":"05","frstdivid":"WY060340N0640W0SN050"},"geometry":{"type":"Polygon","coordinates":[[[-104.567939,42.943928],[-104.572897,42.943919],[-104.577856,42.94391],[-104.577913,42.947531],[-104.57797,42.951151],[-104.578017,42.954772],[-104.578064,42.958333],[-104.573121,42.958332],[-104.568178,42.958331],[-104.563234,42.95833],[-104.558291,42.95833],[-104.558229,42.954802],[-104.558166,42.951183],[-104.558094,42.947564],[-104.558021,42.943945],[-104.56298,42.943936],[-104.567939,42.943928]]]}},{"type":"Feature","properties":{"sec":"03","frstdivid":"WY060340N0640W0SN030"},"geometry":{"type":"Polygon","coordinates":[[[-104.518706,42.9548],[-104.518653,42.95118],[-104.518587,42.947561],[-104.518522,42.943942],[-104.523448,42.943942],[-104.528374,42.943942],[-104.5333,42.943942],[-104.538227,42.943942],[-104.53831,42.947562],[-104.538394,42.951182],[-104.538459,42.954803],[-104.538521,42.958276],[-104.53358,42.958273],[-104.528639,42.958269],[-104.523698,42.958266],[-104.518757,42.958262],[-104.518706,42.9548]]]}},{"type":"Feature","properties":{"sec":"07","frstdivid":"WY060340N0640W0SN070"},"geometry":{"type":"Polygon","coordinates":[[[-104.577813,42.936669],[-104.577792,42.933048],[-104.577771,42.929428],[-104.582698,42.929413],[-104.587626,42.929398],[-104.592553,42.92939],[-104.59833,42.92938],[-104.598305,42.932999],[-104.59828,42.936619],[-104.598254,42.940238],[-104.598229,42.943857],[-104.592644,42.943869],[-104.587715,42.943879],[-104.582786,42.943895],[-104.577856,42.94391],[-104.577835,42.94029],[-104.577813,42.936669]]]}},{"type":"Feature","properties":{"sec":"06","frstdivid":"WY060340N0640W0SN060"},"geometry":{"type":"Polygon","coordinates":[[[-104.59817,42.954717],[-104.598162,42.958338],[-104.592871,42.958331],[-104.587937,42.958323],[-104.583001,42.958328],[-104.578064,42.958333],[-104.578017,42.954772],[-104.57797,42.951151],[-104.577913,42.947531],[-104.577856,42.94391],[-104.582786,42.943895],[-104.587715,42.943879],[-104.592644,42.943869],[-104.598229,42.943857],[-104.598204,42.947477],[-104.598178,42.951097],[-104.59817,42.954717]]]}},{"type":"Feature","properties":{"sec":"23","frstdivid":"WY060340N0640W0SN230"},"geometry":{"type":"Polygon","coordinates":[[[-104.498602,42.900273],[-104.503482,42.900339],[-104.508362,42.900405],[-104.513242,42.900471],[-104.518122,42.900537],[-104.518193,42.904153],[-104.518263,42.907769],[-104.518334,42.911385],[-104.518405,42.915001],[-104.513493,42.914936],[-104.508582,42.914871],[-104.503671,42.914806],[-104.49876,42.914741],[-104.49872,42.911124],[-104.498681,42.907507],[-104.498641,42.90389],[-104.498602,42.900273]]]}},{"type":"Feature","properties":{"sec":"02","frstdivid":"WY060340N0640W0SN020"},"geometry":{"type":"Polygon","coordinates":[[[-104.498884,42.950905],[-104.498819,42.947288],[-104.498754,42.94367],[-104.503696,42.943738],[-104.508638,42.943806],[-104.51358,42.943874],[-104.518522,42.943942],[-104.518587,42.947561],[-104.518653,42.95118],[-104.518706,42.9548],[-104.518757,42.958262],[-104.513817,42.958235],[-104.508877,42.958208],[-104.503936,42.958181],[-104.498996,42.958154],[-104.49894,42.954524],[-104.498884,42.950905]]]}},{"type":"Feature","properties":{"sec":"14","frstdivid":"WY060340N0640W0SN140"},"geometry":{"type":"Polygon","coordinates":[[[-104.503671,42.914806],[-104.508582,42.914871],[-104.513493,42.914936],[-104.518405,42.915001],[-104.518447,42.918618],[-104.51849,42.922236],[-104.518533,42.925853],[-104.518576,42.92947],[-104.513613,42.929404],[-104.50865,42.929338],[-104.503687,42.929272],[-104.498724,42.929207],[-104.498733,42.92559],[-104.498742,42.921974],[-104.498751,42.918358],[-104.49876,42.914741],[-104.503671,42.914806]]]}},{"type":"Feature","properties":{"sec":"36","frstdivid":"WY060340N0640W0SN360"},"geometry":{"type":"Polygon","coordinates":[[[-104.498437,42.882186],[-104.498438,42.885803],[-104.493566,42.885793],[-104.488694,42.885783],[-104.483822,42.885773],[-104.478951,42.885763],[-104.478897,42.882148],[-104.478843,42.878533],[-104.47879,42.874918],[-104.478736,42.871303],[-104.483661,42.87131],[-104.488585,42.871317],[-104.49351,42.871325],[-104.498434,42.871332],[-104.498435,42.87495],[-104.498436,42.878568],[-104.498437,42.882186]]]}},{"type":"Feature","properties":{"sec":"01","frstdivid":"WY060340N0640W0SN010"},"geometry":{"type":"Polygon","coordinates":[[[-104.479262,42.954531],[-104.479241,42.950911],[-104.479198,42.947292],[-104.479156,42.943672],[-104.484055,42.943672],[-104.488955,42.943671],[-104.493854,42.943671],[-104.498754,42.94367],[-104.498819,42.947288],[-104.498884,42.950905],[-104.49894,42.954524],[-104.498996,42.958154],[-104.494068,42.958154],[-104.48914,42.958153],[-104.484212,42.958152],[-104.479284,42.958151],[-104.479262,42.954531]]]}},{"type":"Feature","properties":{"sec":"25","frstdivid":"WY060340N0640W0SN250"},"geometry":{"type":"Polygon","coordinates":[[[-104.488781,42.900258],[-104.48387,42.900251],[-104.47896,42.900244],[-104.478958,42.896624],[-104.478955,42.893003],[-104.478953,42.889383],[-104.478951,42.885763],[-104.483822,42.885773],[-104.488694,42.885783],[-104.493566,42.885793],[-104.498438,42.885803],[-104.498479,42.889421],[-104.49852,42.893038],[-104.498561,42.896656],[-104.498602,42.900273],[-104.493691,42.900266],[-104.488781,42.900258]]]}},{"type":"Feature","properties":{"sec":"13","frstdivid":"WY060340N0640W0SN130"},"geometry":{"type":"Polygon","coordinates":[[[-104.498742,42.921974],[-104.498733,42.92559],[-104.498724,42.929207],[-104.493798,42.929204],[-104.488871,42.929202],[-104.483944,42.9292],[-104.479017,42.929198],[-104.479019,42.925578],[-104.479021,42.921959],[-104.479023,42.91834],[-104.479025,42.914721],[-104.483959,42.914726],[-104.488892,42.914731],[-104.493826,42.914736],[-104.49876,42.914741],[-104.498751,42.918358],[-104.498742,42.921974]]]}},{"type":"Feature","properties":{"sec":"24","frstdivid":"WY060340N0640W0SN240"},"geometry":{"type":"Polygon","coordinates":[[[-104.479009,42.911101],[-104.478993,42.907482],[-104.478976,42.903863],[-104.47896,42.900244],[-104.48387,42.900251],[-104.488781,42.900258],[-104.493691,42.900266],[-104.498602,42.900273],[-104.498641,42.90389],[-104.498681,42.907507],[-104.49872,42.911124],[-104.49876,42.914741],[-104.493826,42.914736],[-104.488892,42.914731],[-104.483959,42.914726],[-104.479025,42.914721],[-104.479009,42.911101]]]}}]}