{"type":"FeatureCollection","note":"BLM Public Land Survey System. Provided by the Bureau of Land Management as is. These data are neither legal documents nor land surveys and must not be used as such.","features":[{"type":"Feature","properties":{"sec":"04","frstdivid":"WY060280N0830W0SN040"},"geometry":{"type":"Polygon","coordinates":[[[-106.770405,42.417754],[-106.775357,42.417755],[-106.780308,42.417756],[-106.78526,42.417758],[-106.785165,42.421378],[-106.78507,42.424999],[-106.785023,42.42862],[-106.784981,42.432009],[-106.780701,42.431978],[-106.780114,42.431974],[-106.77582,42.431943],[-106.775247,42.43194],[-106.770939,42.431915],[-106.77038,42.431912],[-106.766057,42.431887],[-106.765513,42.431881],[-106.765503,42.428378],[-106.765493,42.424805],[-106.765473,42.421279],[-106.765453,42.417752],[-106.770405,42.417754]]]}},{"type":"Feature","properties":{"sec":"03","frstdivid":"WY060280N0830W0SN030"},"geometry":{"type":"Polygon","coordinates":[[[-106.755895,42.417737],[-106.760674,42.417745],[-106.765453,42.417752],[-106.765473,42.421279],[-106.765493,42.424805],[-106.765503,42.428378],[-106.765513,42.431881],[-106.761175,42.431837],[-106.760638,42.431832],[-106.756293,42.431788],[-106.755764,42.431787],[-106.751418,42.431782],[-106.750889,42.431781],[-106.746543,42.431776],[-106.746015,42.431775],[-106.746065,42.428331],[-106.746119,42.424761],[-106.746228,42.421241],[-106.746337,42.417721],[-106.751116,42.417729],[-106.755895,42.417737]]]}},{"type":"Feature","properties":{"sec":"05","frstdivid":"WY060280N0830W0SN050"},"geometry":{"type":"Polygon","coordinates":[[[-106.78526,42.417758],[-106.790084,42.417837],[-106.794908,42.417916],[-106.799731,42.417995],[-106.804555,42.418075],[-106.80459,42.42166],[-106.804625,42.425245],[-106.804642,42.428848],[-106.804657,42.432157],[-106.800226,42.432121],[-106.799738,42.432118],[-106.795344,42.432082],[-106.794819,42.432079],[-106.790463,42.432047],[-106.7899,42.432044],[-106.785582,42.432012],[-106.784981,42.432009],[-106.785023,42.42862],[-106.78507,42.424999],[-106.785165,42.421378],[-106.78526,42.417758]]]}},{"type":"Feature","properties":{"sec":"06","frstdivid":"WY060280N0830W0SN060"},"geometry":{"type":"Polygon","coordinates":[[[-106.823136,42.42198],[-106.823125,42.425581],[-106.823275,42.429143],[-106.823411,42.432367],[-106.819758,42.432321],[-106.819261,42.432315],[-106.814842,42.432259],[-106.814393,42.432255],[-106.809974,42.432209],[-106.809525,42.432206],[-106.805107,42.43216],[-106.804657,42.432157],[-106.804642,42.428848],[-106.804625,42.425245],[-106.80459,42.42166],[-106.804555,42.418075],[-106.809412,42.41818],[-106.814268,42.418286],[-106.81914,42.418341],[-106.823147,42.418379],[-106.823136,42.42198]]]}},{"type":"Feature","properties":{"sec":"01","frstdivid":"WY060280N0830W0SN010"},"geometry":{"type":"Polygon","coordinates":[[[-106.726322,42.421237],[-106.72633,42.42473],[-106.726334,42.428287],[-106.726338,42.431739],[-106.722167,42.431728],[-106.721442,42.431726],[-106.717292,42.431716],[-106.716546,42.43171],[-106.712391,42.431634],[-106.711652,42.431628],[-106.707491,42.431552],[-106.706758,42.431543],[-106.706777,42.428231],[-106.706795,42.424877],[-106.706817,42.421259],[-106.706838,42.417642],[-106.711707,42.417668],[-106.716575,42.417693],[-106.721444,42.417718],[-106.726313,42.417743],[-106.726322,42.421237]]]}},{"type":"Feature","properties":{"sec":"02","frstdivid":"WY060280N0830W0SN020"},"geometry":{"type":"Polygon","coordinates":[[[-106.741331,42.417727],[-106.746337,42.417721],[-106.746228,42.421241],[-106.746119,42.424761],[-106.746065,42.428331],[-106.746015,42.431775],[-106.741668,42.431768],[-106.741096,42.431766],[-106.736792,42.43176],[-106.736177,42.431758],[-106.731917,42.43175],[-106.731257,42.431748],[-106.727042,42.431741],[-106.726338,42.431739],[-106.726334,42.428287],[-106.72633,42.42473],[-106.726322,42.421237],[-106.726313,42.417743],[-106.731319,42.417738],[-106.736325,42.417732],[-106.741331,42.417727]]]}}]}