{"type":"FeatureCollection","note":"BLM Public Land Survey System. Provided by the Bureau of Land Management as is. These data are neither legal documents nor land surveys and must not be used as such.","features":[{"type":"Feature","properties":{"sec":"32","frstdivid":"MT200030N0330E0SN320"},"geometry":{"type":"Polygon","coordinates":[[[-107.632725,45.956727],[-107.637912,45.956735],[-107.643099,45.956744],[-107.648285,45.956753],[-107.653472,45.956763],[-107.653463,45.960389],[-107.653455,45.964016],[-107.653449,45.967642],[-107.653444,45.971268],[-107.648258,45.97125],[-107.643073,45.971231],[-107.637887,45.971213],[-107.632701,45.971195],[-107.632706,45.967578],[-107.632712,45.963961],[-107.632718,45.960344],[-107.632725,45.956727]]]}},{"type":"Feature","properties":{"sec":"33","frstdivid":"MT200030N0330E0SN330"},"geometry":{"type":"Polygon","coordinates":[[[-107.611987,45.956693],[-107.617172,45.956701],[-107.622356,45.95671],[-107.627541,45.956718],[-107.632725,45.956727],[-107.632718,45.960344],[-107.632712,45.963961],[-107.632706,45.967578],[-107.632701,45.971195],[-107.627512,45.971189],[-107.622323,45.971183],[-107.617134,45.971178],[-107.611945,45.971172],[-107.611954,45.967552],[-107.611965,45.963932],[-107.611976,45.960313],[-107.611987,45.956693]]]}},{"type":"Feature","properties":{"sec":"31","frstdivid":"MT200030N0330E0SN310"},"geometry":{"type":"Polygon","coordinates":[[[-107.653472,45.956763],[-107.658657,45.956768],[-107.663842,45.956774],[-107.669028,45.956781],[-107.674473,45.956801],[-107.67446,45.960415],[-107.674451,45.964029],[-107.674443,45.967643],[-107.674437,45.971258],[-107.669014,45.971261],[-107.663825,45.971267],[-107.658635,45.971267],[-107.653444,45.971268],[-107.653449,45.967642],[-107.653455,45.964016],[-107.653463,45.960389],[-107.653472,45.956763]]]}},{"type":"Feature","properties":{"sec":"36","frstdivid":"MT200030N0330E0SN360"},"geometry":{"type":"Polygon","coordinates":[[[-107.549729,45.956612],[-107.554915,45.95662],[-107.560101,45.956635],[-107.56119,45.956635],[-107.565292,45.956645],[-107.565755,45.956645],[-107.570483,45.956647],[-107.570477,45.960269],[-107.570469,45.963891],[-107.570464,45.967512],[-107.570459,45.971134],[-107.565266,45.971132],[-107.560073,45.97113],[-107.554881,45.971124],[-107.549688,45.971109],[-107.5497,45.967484],[-107.549713,45.963859],[-107.549715,45.962716],[-107.549718,45.960383],[-107.549718,45.960233],[-107.549729,45.956612]]]}},{"type":"Feature","properties":{"sec":"35","frstdivid":"MT200030N0330E0SN350"},"geometry":{"type":"Polygon","coordinates":[[[-107.570483,45.956647],[-107.575674,45.956656],[-107.580866,45.956665],[-107.586057,45.956673],[-107.591249,45.956682],[-107.591239,45.960298],[-107.591228,45.963914],[-107.591218,45.96753],[-107.591209,45.971146],[-107.586022,45.971143],[-107.580834,45.97114],[-107.575647,45.971137],[-107.570459,45.971134],[-107.570464,45.967512],[-107.570469,45.963891],[-107.570477,45.960269],[-107.570483,45.956647]]]}},{"type":"Feature","properties":{"sec":"34","frstdivid":"MT200030N0330E0SN340"},"geometry":{"type":"Polygon","coordinates":[[[-107.591249,45.956682],[-107.596434,45.956684],[-107.601618,45.956687],[-107.606803,45.95669],[-107.611987,45.956693],[-107.611976,45.960313],[-107.611965,45.963932],[-107.611954,45.967552],[-107.611945,45.971172],[-107.606761,45.971166],[-107.601577,45.971159],[-107.596393,45.971153],[-107.591209,45.971146],[-107.591218,45.96753],[-107.591228,45.963914],[-107.591239,45.960298],[-107.591249,45.956682]]]}},{"type":"Feature","properties":{"sec":"16","frstdivid":"MT200030N0330E0SN160"},"geometry":{"type":"Polygon","coordinates":[[[-107.61186,46.000095],[-107.61706,46.000103],[-107.62226,46.000112],[-107.627459,46.00012],[-107.632659,46.000128],[-107.632654,46.003746],[-107.632649,46.007365],[-107.632645,46.010983],[-107.632641,46.014601],[-107.627434,46.014587],[-107.622227,46.014572],[-107.617021,46.014558],[-107.611814,46.014544],[-107.611825,46.010932],[-107.611837,46.00732],[-107.611848,46.003707],[-107.61186,46.000095]]]}},{"type":"Feature","properties":{"sec":"17","frstdivid":"MT200030N0330E0SN170"},"geometry":{"type":"Polygon","coordinates":[[[-107.632659,46.000128],[-107.637867,46.000137],[-107.643075,46.000146],[-107.648283,46.000155],[-107.653491,46.000164],[-107.653484,46.003783],[-107.653478,46.007401],[-107.653472,46.01102],[-107.653467,46.014638],[-107.648261,46.014629],[-107.643054,46.014619],[-107.637847,46.01461],[-107.632641,46.014601],[-107.632645,46.010983],[-107.632649,46.007365],[-107.632654,46.003746],[-107.632659,46.000128]]]}},{"type":"Feature","properties":{"sec":"29","frstdivid":"MT200030N0330E0SN290"},"geometry":{"type":"Polygon","coordinates":[[[-107.632701,45.971195],[-107.637887,45.971213],[-107.643073,45.971231],[-107.648258,45.97125],[-107.653444,45.971268],[-107.65345,45.974876],[-107.653457,45.978483],[-107.653464,45.98209],[-107.653471,45.985697],[-107.648274,45.985687],[-107.643078,45.985676],[-107.637881,45.985666],[-107.632685,45.985656],[-107.632688,45.982041],[-107.632692,45.978426],[-107.632696,45.97481],[-107.632701,45.971195]]]}},{"type":"Feature","properties":{"sec":"19","frstdivid":"MT200030N0330E0SN190"},"geometry":{"type":"Polygon","coordinates":[[[-107.653471,45.985697],[-107.658665,45.985702],[-107.663859,45.985707],[-107.66905,45.98571],[-107.674442,45.985711],[-107.674449,45.989321],[-107.674456,45.992932],[-107.674463,45.996542],[-107.674471,46.000152],[-107.669086,46.000167],[-107.66389,46.000171],[-107.658691,46.000168],[-107.653491,46.000164],[-107.653485,45.996547],[-107.65348,45.992931],[-107.653475,45.989314],[-107.653471,45.985697]]]}},{"type":"Feature","properties":{"sec":"21","frstdivid":"MT200030N0330E0SN210"},"geometry":{"type":"Polygon","coordinates":[[[-107.611898,45.985641],[-107.617095,45.985645],[-107.622291,45.985649],[-107.627488,45.985652],[-107.632685,45.985656],[-107.632678,45.989274],[-107.632671,45.992892],[-107.632665,45.99651],[-107.632659,46.000128],[-107.627459,46.00012],[-107.62226,46.000112],[-107.61706,46.000103],[-107.61186,46.000095],[-107.611869,45.996482],[-107.611879,45.992868],[-107.611888,45.989255],[-107.611898,45.985641]]]}},{"type":"Feature","properties":{"sec":"05","frstdivid":"MT200030N0330E0SN050"},"geometry":{"type":"Polygon","coordinates":[[[-107.632616,46.029075],[-107.637811,46.02908],[-107.643007,46.029085],[-107.648202,46.02909],[-107.653397,46.029095],[-107.653373,46.032707],[-107.653351,46.03632],[-107.653343,46.039934],[-107.653342,46.043503],[-107.648146,46.043497],[-107.64295,46.043492],[-107.637754,46.043486],[-107.632558,46.043481],[-107.632568,46.039934],[-107.63258,46.036316],[-107.632597,46.032695],[-107.632616,46.029075]]]}},{"type":"Feature","properties":{"sec":"28","frstdivid":"MT200030N0330E0SN280"},"geometry":{"type":"Polygon","coordinates":[[[-107.611945,45.971172],[-107.617134,45.971178],[-107.622323,45.971183],[-107.627512,45.971189],[-107.632701,45.971195],[-107.632696,45.97481],[-107.632692,45.978426],[-107.632688,45.982041],[-107.632685,45.985656],[-107.627488,45.985652],[-107.622291,45.985649],[-107.617095,45.985645],[-107.611898,45.985641],[-107.611909,45.982024],[-107.611921,45.978407],[-107.611932,45.974789],[-107.611945,45.971172]]]}},{"type":"Feature","properties":{"sec":"06","frstdivid":"MT200030N0330E0SN060"},"geometry":{"type":"Polygon","coordinates":[[[-107.653397,46.029095],[-107.6586,46.029093],[-107.663803,46.029091],[-107.669001,46.029087],[-107.674475,46.029086],[-107.674473,46.032713],[-107.674474,46.03634],[-107.674489,46.03997],[-107.67453,46.043601],[-107.66894,46.043539],[-107.663739,46.043521],[-107.65854,46.043511],[-107.653342,46.043503],[-107.653343,46.039934],[-107.653351,46.03632],[-107.653373,46.032707],[-107.653397,46.029095]]]}},{"type":"Feature","properties":{"sec":"08","frstdivid":"MT200030N0330E0SN080"},"geometry":{"type":"Polygon","coordinates":[[[-107.632641,46.014601],[-107.637847,46.01461],[-107.643054,46.014619],[-107.648261,46.014629],[-107.653467,46.014638],[-107.65345,46.018253],[-107.653432,46.021867],[-107.653414,46.025481],[-107.653397,46.029095],[-107.648202,46.02909],[-107.643007,46.029085],[-107.637811,46.02908],[-107.632616,46.029075],[-107.632622,46.025456],[-107.632628,46.021838],[-107.632634,46.018219],[-107.632641,46.014601]]]}},{"type":"Feature","properties":{"sec":"07","frstdivid":"MT200030N0330E0SN070"},"geometry":{"type":"Polygon","coordinates":[[[-107.653467,46.014638],[-107.658669,46.014638],[-107.663872,46.014637],[-107.669069,46.014627],[-107.674492,46.014582],[-107.674487,46.018208],[-107.674483,46.021834],[-107.674478,46.02546],[-107.674475,46.029086],[-107.669001,46.029087],[-107.663803,46.029091],[-107.6586,46.029093],[-107.653397,46.029095],[-107.653414,46.025481],[-107.653432,46.021867],[-107.65345,46.018253],[-107.653467,46.014638]]]}},{"type":"Feature","properties":{"sec":"20","frstdivid":"MT200030N0330E0SN200"},"geometry":{"type":"Polygon","coordinates":[[[-107.632685,45.985656],[-107.637881,45.985666],[-107.643078,45.985676],[-107.648274,45.985687],[-107.653471,45.985697],[-107.653475,45.989314],[-107.65348,45.992931],[-107.653485,45.996547],[-107.653491,46.000164],[-107.648283,46.000155],[-107.643075,46.000146],[-107.637867,46.000137],[-107.632659,46.000128],[-107.632665,45.99651],[-107.632671,45.992892],[-107.632678,45.989274],[-107.632685,45.985656]]]}},{"type":"Feature","properties":{"sec":"04","frstdivid":"MT200030N0330E0SN040"},"geometry":{"type":"Polygon","coordinates":[[[-107.611804,46.029012],[-107.617007,46.029027],[-107.62221,46.029043],[-107.627413,46.029059],[-107.632616,46.029075],[-107.632597,46.032695],[-107.63258,46.036316],[-107.632568,46.039934],[-107.632558,46.043481],[-107.627362,46.043472],[-107.622166,46.043463],[-107.616971,46.043454],[-107.611775,46.043445],[-107.611782,46.039856],[-107.611788,46.036241],[-107.611796,46.032626],[-107.611804,46.029012]]]}},{"type":"Feature","properties":{"sec":"18","frstdivid":"MT200030N0330E0SN180"},"geometry":{"type":"Polygon","coordinates":[[[-107.653491,46.000164],[-107.658691,46.000168],[-107.66389,46.000171],[-107.669086,46.000167],[-107.674471,46.000152],[-107.674474,46.00376],[-107.674479,46.007368],[-107.674484,46.010975],[-107.674492,46.014582],[-107.669069,46.014627],[-107.663872,46.014637],[-107.658669,46.014638],[-107.653467,46.014638],[-107.653472,46.01102],[-107.653478,46.007401],[-107.653484,46.003783],[-107.653491,46.000164]]]}},{"type":"Feature","properties":{"sec":"30","frstdivid":"MT200030N0330E0SN300"},"geometry":{"type":"Polygon","coordinates":[[[-107.653444,45.971268],[-107.658635,45.971267],[-107.663825,45.971267],[-107.669014,45.971261],[-107.674437,45.971258],[-107.674437,45.974871],[-107.674438,45.978484],[-107.67444,45.982097],[-107.674442,45.985711],[-107.66905,45.98571],[-107.663859,45.985707],[-107.658665,45.985702],[-107.653471,45.985697],[-107.653464,45.98209],[-107.653457,45.978483],[-107.65345,45.974876],[-107.653444,45.971268]]]}},{"type":"Feature","properties":{"sec":"09","frstdivid":"MT200030N0330E0SN090"},"geometry":{"type":"Polygon","coordinates":[[[-107.611814,46.014544],[-107.617021,46.014558],[-107.622227,46.014572],[-107.627434,46.014587],[-107.632641,46.014601],[-107.632634,46.018219],[-107.632628,46.021838],[-107.632622,46.025456],[-107.632616,46.029075],[-107.627413,46.029059],[-107.62221,46.029043],[-107.617007,46.029027],[-107.611804,46.029012],[-107.611806,46.025395],[-107.611809,46.021778],[-107.611812,46.018161],[-107.611814,46.014544]]]}},{"type":"Feature","properties":{"sec":"24","frstdivid":"MT200030N0330E0SN240"},"geometry":{"type":"Polygon","coordinates":[[[-107.54965,45.985575],[-107.554842,45.985585],[-107.560034,45.985592],[-107.565225,45.985596],[-107.570417,45.985601],[-107.570408,45.989217],[-107.5704,45.992833],[-107.570391,45.996448],[-107.570383,46.000064],[-107.565187,46.000061],[-107.559992,46.000059],[-107.554796,46.000057],[-107.5496,46.000054],[-107.549612,45.996434],[-107.549625,45.992814],[-107.549637,45.989194],[-107.54965,45.985575]]]}},{"type":"Feature","properties":{"sec":"15","frstdivid":"MT200030N0330E0SN150"},"geometry":{"type":"Polygon","coordinates":[[[-107.591119,46.00007],[-107.596305,46.000076],[-107.60149,46.000082],[-107.606675,46.000089],[-107.61186,46.000095],[-107.611848,46.003707],[-107.611837,46.00732],[-107.611825,46.010932],[-107.611814,46.014544],[-107.606632,46.014539],[-107.601449,46.014533],[-107.596266,46.014528],[-107.591084,46.014522],[-107.591093,46.010909],[-107.591102,46.007296],[-107.59111,46.003683],[-107.591119,46.00007]]]}},{"type":"Feature","properties":{"sec":"01","frstdivid":"MT200030N0330E0SN010"},"geometry":{"type":"Polygon","coordinates":[[[-107.549474,46.028936],[-107.554674,46.028929],[-107.559874,46.028929],[-107.565074,46.028934],[-107.570275,46.028942],[-107.570256,46.032553],[-107.570236,46.036164],[-107.570221,46.039777],[-107.570203,46.043369],[-107.565003,46.043364],[-107.559804,46.043363],[-107.554604,46.04337],[-107.549403,46.043403],[-107.549434,46.039783],[-107.549449,46.036163],[-107.549463,46.032549],[-107.549474,46.028936]]]}},{"type":"Feature","properties":{"sec":"02","frstdivid":"MT200030N0330E0SN020"},"geometry":{"type":"Polygon","coordinates":[[[-107.570275,46.028942],[-107.575461,46.028944],[-107.580648,46.028947],[-107.585835,46.02895],[-107.591022,46.028953],[-107.591011,46.032566],[-107.591,46.036179],[-107.590995,46.039794],[-107.590988,46.043409],[-107.585792,46.043398],[-107.580596,46.043388],[-107.575399,46.043378],[-107.570203,46.043369],[-107.570221,46.039777],[-107.570236,46.036164],[-107.570256,46.032553],[-107.570275,46.028942]]]}},{"type":"Feature","properties":{"sec":"13","frstdivid":"MT200030N0330E0SN130"},"geometry":{"type":"Polygon","coordinates":[[[-107.5496,46.000054],[-107.554796,46.000057],[-107.559992,46.000059],[-107.565187,46.000061],[-107.570383,46.000064],[-107.570374,46.003676],[-107.570366,46.007288],[-107.570357,46.0109],[-107.570348,46.014512],[-107.565146,46.014507],[-107.559943,46.014504],[-107.554741,46.014503],[-107.549538,46.014504],[-107.549554,46.010891],[-107.54957,46.007279],[-107.549585,46.003666],[-107.5496,46.000054]]]}},{"type":"Feature","properties":{"sec":"14","frstdivid":"MT200030N0330E0SN140"},"geometry":{"type":"Polygon","coordinates":[[[-107.570383,46.000064],[-107.575567,46.000065],[-107.580751,46.000066],[-107.585935,46.000068],[-107.591119,46.00007],[-107.59111,46.003683],[-107.591102,46.007296],[-107.591093,46.010909],[-107.591084,46.014522],[-107.5859,46.014519],[-107.580716,46.014516],[-107.575532,46.014514],[-107.570348,46.014512],[-107.570357,46.0109],[-107.570366,46.007288],[-107.570374,46.003676],[-107.570383,46.000064]]]}},{"type":"Feature","properties":{"sec":"26","frstdivid":"MT200030N0330E0SN260"},"geometry":{"type":"Polygon","coordinates":[[[-107.570459,45.971134],[-107.575647,45.971137],[-107.580834,45.97114],[-107.586022,45.971143],[-107.591209,45.971146],[-107.591197,45.974763],[-107.591185,45.978381],[-107.591173,45.981998],[-107.591161,45.985615],[-107.585975,45.985611],[-107.580789,45.985608],[-107.575603,45.985604],[-107.570417,45.985601],[-107.570427,45.981985],[-107.570438,45.978368],[-107.570448,45.974751],[-107.570459,45.971134]]]}},{"type":"Feature","properties":{"sec":"27","frstdivid":"MT200030N0330E0SN270"},"geometry":{"type":"Polygon","coordinates":[[[-107.591209,45.971146],[-107.596393,45.971153],[-107.601577,45.971159],[-107.606761,45.971166],[-107.611945,45.971172],[-107.611932,45.974789],[-107.611921,45.978407],[-107.611909,45.982024],[-107.611898,45.985641],[-107.606714,45.985635],[-107.601529,45.985628],[-107.596345,45.985621],[-107.591161,45.985615],[-107.591173,45.981998],[-107.591185,45.978381],[-107.591197,45.974763],[-107.591209,45.971146]]]}},{"type":"Feature","properties":{"sec":"22","frstdivid":"MT200030N0330E0SN220"},"geometry":{"type":"Polygon","coordinates":[[[-107.591161,45.985615],[-107.596345,45.985621],[-107.601529,45.985628],[-107.606714,45.985635],[-107.611898,45.985641],[-107.611888,45.989255],[-107.611879,45.992868],[-107.611869,45.996482],[-107.61186,46.000095],[-107.606675,46.000089],[-107.60149,46.000082],[-107.596305,46.000076],[-107.591119,46.00007],[-107.59113,45.996456],[-107.59114,45.992842],[-107.59115,45.989229],[-107.591161,45.985615]]]}},{"type":"Feature","properties":{"sec":"12","frstdivid":"MT200030N0330E0SN120"},"geometry":{"type":"Polygon","coordinates":[[[-107.549538,46.014504],[-107.554741,46.014503],[-107.559943,46.014504],[-107.565146,46.014507],[-107.570348,46.014512],[-107.57033,46.01812],[-107.570312,46.021727],[-107.570294,46.025335],[-107.570275,46.028942],[-107.565074,46.028934],[-107.559874,46.028929],[-107.554674,46.028929],[-107.549474,46.028936],[-107.549491,46.025327],[-107.549507,46.021719],[-107.549523,46.018111],[-107.549538,46.014504]]]}},{"type":"Feature","properties":{"sec":"25","frstdivid":"MT200030N0330E0SN250"},"geometry":{"type":"Polygon","coordinates":[[[-107.549688,45.971109],[-107.554881,45.971124],[-107.560073,45.97113],[-107.565266,45.971132],[-107.570459,45.971134],[-107.570448,45.974751],[-107.570438,45.978368],[-107.570427,45.981985],[-107.570417,45.985601],[-107.565225,45.985596],[-107.560034,45.985592],[-107.554842,45.985585],[-107.54965,45.985575],[-107.549659,45.981958],[-107.549669,45.978342],[-107.549678,45.974726],[-107.549688,45.971109]]]}},{"type":"Feature","properties":{"sec":"23","frstdivid":"MT200030N0330E0SN230"},"geometry":{"type":"Polygon","coordinates":[[[-107.570417,45.985601],[-107.575603,45.985604],[-107.580789,45.985608],[-107.585975,45.985611],[-107.591161,45.985615],[-107.59115,45.989229],[-107.59114,45.992842],[-107.59113,45.996456],[-107.591119,46.00007],[-107.585935,46.000068],[-107.580751,46.000066],[-107.575567,46.000065],[-107.570383,46.000064],[-107.570391,45.996448],[-107.5704,45.992833],[-107.570408,45.989217],[-107.570417,45.985601]]]}},{"type":"Feature","properties":{"sec":"11","frstdivid":"MT200030N0330E0SN110"},"geometry":{"type":"Polygon","coordinates":[[[-107.570348,46.014512],[-107.575532,46.014514],[-107.580716,46.014516],[-107.5859,46.014519],[-107.591084,46.014522],[-107.591069,46.01813],[-107.591053,46.021738],[-107.591038,46.025346],[-107.591022,46.028953],[-107.585835,46.02895],[-107.580648,46.028947],[-107.575461,46.028944],[-107.570275,46.028942],[-107.570294,46.025335],[-107.570312,46.021727],[-107.57033,46.01812],[-107.570348,46.014512]]]}},{"type":"Feature","properties":{"sec":"10","frstdivid":"MT200030N0330E0SN100"},"geometry":{"type":"Polygon","coordinates":[[[-107.591084,46.014522],[-107.596266,46.014528],[-107.601449,46.014533],[-107.606632,46.014539],[-107.611814,46.014544],[-107.611812,46.018161],[-107.611809,46.021778],[-107.611806,46.025395],[-107.611804,46.029012],[-107.606609,46.028997],[-107.601413,46.028982],[-107.596217,46.028968],[-107.591022,46.028953],[-107.591038,46.025346],[-107.591053,46.021738],[-107.591069,46.01813],[-107.591084,46.014522]]]}},{"type":"Feature","properties":{"sec":"03","frstdivid":"MT200030N0330E0SN030"},"geometry":{"type":"Polygon","coordinates":[[[-107.591022,46.028953],[-107.596217,46.028968],[-107.601413,46.028982],[-107.606609,46.028997],[-107.611804,46.029012],[-107.611796,46.032626],[-107.611788,46.036241],[-107.611782,46.039856],[-107.611775,46.043445],[-107.606578,46.043436],[-107.601382,46.043427],[-107.596185,46.043418],[-107.590988,46.043409],[-107.590995,46.039794],[-107.591,46.036179],[-107.591011,46.032566],[-107.591022,46.028953]]]}}]}