{"type":"FeatureCollection","note":"BLM Public Land Survey System. Provided by the Bureau of Land Management as is. These data are neither legal documents nor land surveys and must not be used as such.","features":[{"type":"Feature","properties":{"sec":"02","frstdivid":"MT200080N0560E0SN020"},"geometry":{"type":"Polygon","coordinates":[[[-104.691767,46.472421],[-104.697009,46.472421],[-104.697012,46.476039],[-104.697014,46.479656],[-104.697016,46.482163],[-104.695977,46.482162],[-104.691777,46.482156],[-104.690732,46.482155],[-104.686539,46.482149],[-104.685487,46.482147],[-104.6813,46.482141],[-104.680243,46.48214],[-104.676061,46.482134],[-104.676058,46.479647],[-104.676049,46.476034],[-104.676041,46.47242],[-104.681283,46.47242],[-104.686525,46.472421],[-104.691767,46.472421]]]}},{"type":"Feature","properties":{"sec":"06","frstdivid":"MT200080N0560E0SN060"},"geometry":{"type":"Polygon","coordinates":[[[-104.78031,46.476154],[-104.780294,46.479769],[-104.78029,46.482229],[-104.78008,46.482229],[-104.775729,46.482229],[-104.774819,46.482228],[-104.770471,46.482227],[-104.769553,46.482227],[-104.765205,46.482227],[-104.764288,46.482227],[-104.759939,46.482225],[-104.759935,46.479692],[-104.759934,46.476075],[-104.759932,46.472457],[-104.765181,46.472478],[-104.77043,46.472499],[-104.775673,46.47252],[-104.780327,46.472538],[-104.78031,46.476154]]]}},{"type":"Feature","properties":{"sec":"13","frstdivid":"MT200080N0560E0SN130"},"geometry":{"type":"Polygon","coordinates":[[[-104.670792,46.44349],[-104.676035,46.443488],[-104.676034,46.447105],[-104.676033,46.450723],[-104.676031,46.45434],[-104.67603,46.457957],[-104.67079,46.457963],[-104.66555,46.457968],[-104.660309,46.457973],[-104.655069,46.457978],[-104.655067,46.454357],[-104.655066,46.450737],[-104.655064,46.447116],[-104.655062,46.443495],[-104.660305,46.443494],[-104.665548,46.443492],[-104.670792,46.44349]]]}},{"type":"Feature","properties":{"sec":"10","frstdivid":"MT200080N0560E0SN100"},"geometry":{"type":"Polygon","coordinates":[[[-104.717963,46.461584],[-104.717958,46.465199],[-104.717954,46.468814],[-104.717949,46.472429],[-104.712714,46.472427],[-104.707479,46.472425],[-104.702244,46.472423],[-104.697009,46.472421],[-104.697009,46.468804],[-104.697009,46.465187],[-104.697008,46.461569],[-104.697008,46.457952],[-104.702248,46.457956],[-104.707488,46.45796],[-104.712728,46.457965],[-104.717968,46.457969],[-104.717963,46.461584]]]}},{"type":"Feature","properties":{"sec":"11","frstdivid":"MT200080N0560E0SN110"},"geometry":{"type":"Polygon","coordinates":[[[-104.697009,46.472421],[-104.691767,46.472421],[-104.686525,46.472421],[-104.681283,46.47242],[-104.676041,46.47242],[-104.676038,46.468804],[-104.676035,46.465189],[-104.676033,46.461573],[-104.67603,46.457957],[-104.681275,46.457956],[-104.686519,46.457955],[-104.691764,46.457953],[-104.694386,46.457953],[-104.695697,46.457952],[-104.697008,46.457952],[-104.697008,46.461569],[-104.697009,46.465187],[-104.697009,46.468804],[-104.697009,46.472421]]]}},{"type":"Feature","properties":{"sec":"01","frstdivid":"MT200080N0560E0SN010"},"geometry":{"type":"Polygon","coordinates":[[[-104.676049,46.476034],[-104.676058,46.479647],[-104.676061,46.482134],[-104.674998,46.482132],[-104.67079,46.482126],[-104.669754,46.482124],[-104.665519,46.482118],[-104.664511,46.482116],[-104.660249,46.48211],[-104.659267,46.482108],[-104.654978,46.482102],[-104.654984,46.479679],[-104.655009,46.476062],[-104.655034,46.472444],[-104.660285,46.472438],[-104.665537,46.472432],[-104.670789,46.472426],[-104.676041,46.47242],[-104.676049,46.476034]]]}},{"type":"Feature","properties":{"sec":"25","frstdivid":"MT200080N0560E0SN250"},"geometry":{"type":"Polygon","coordinates":[[[-104.670769,46.414549],[-104.676013,46.414553],[-104.676019,46.418169],[-104.676025,46.421785],[-104.676031,46.425401],[-104.676037,46.429017],[-104.670792,46.429017],[-104.665547,46.429017],[-104.660302,46.429017],[-104.655057,46.429017],[-104.655052,46.425397],[-104.655047,46.421777],[-104.655043,46.418157],[-104.655038,46.414538],[-104.660282,46.414541],[-104.665525,46.414545],[-104.670769,46.414549]]]}},{"type":"Feature","properties":{"sec":"07","frstdivid":"MT200080N0560E0SN070"},"geometry":{"type":"Polygon","coordinates":[[[-104.770385,46.458022],[-104.775621,46.458034],[-104.780281,46.458045],[-104.780292,46.461669],[-104.780304,46.465292],[-104.780315,46.468915],[-104.780327,46.472538],[-104.775673,46.47252],[-104.77043,46.472499],[-104.765181,46.472478],[-104.759932,46.472457],[-104.759928,46.468842],[-104.759923,46.465226],[-104.759918,46.461611],[-104.759913,46.457995],[-104.765149,46.458008],[-104.770385,46.458022]]]}},{"type":"Feature","properties":{"sec":"31","frstdivid":"MT200080N0560E0SN310"},"geometry":{"type":"Polygon","coordinates":[[[-104.765165,46.400112],[-104.770408,46.400115],[-104.775645,46.400116],[-104.780358,46.400117],[-104.78035,46.403742],[-104.780342,46.407367],[-104.780335,46.410992],[-104.780327,46.414617],[-104.77561,46.414607],[-104.770377,46.414596],[-104.765145,46.414587],[-104.759912,46.414578],[-104.759915,46.410961],[-104.759917,46.407344],[-104.75992,46.403726],[-104.759923,46.400109],[-104.765165,46.400112]]]}},{"type":"Feature","properties":{"sec":"04","frstdivid":"MT200080N0560E0SN040"},"geometry":{"type":"Polygon","coordinates":[[[-104.723163,46.482198],[-104.722197,46.482197],[-104.717925,46.482192],[-104.717926,46.479652],[-104.717938,46.47604],[-104.717949,46.472429],[-104.72319,46.472423],[-104.72843,46.472417],[-104.73367,46.472411],[-104.73891,46.472405],[-104.73891,46.476026],[-104.73891,46.479647],[-104.738912,46.482212],[-104.737951,46.482211],[-104.733657,46.48221],[-104.732683,46.482209],[-104.728401,46.482204],[-104.72744,46.482203],[-104.723163,46.482198]]]}},{"type":"Feature","properties":{"sec":"03","frstdivid":"MT200080N0560E0SN030"},"geometry":{"type":"Polygon","coordinates":[[[-104.702244,46.472423],[-104.707479,46.472425],[-104.712714,46.472427],[-104.717949,46.472429],[-104.717938,46.47604],[-104.717926,46.479652],[-104.717925,46.482192],[-104.716954,46.48219],[-104.712698,46.482185],[-104.71171,46.482183],[-104.707471,46.482178],[-104.706466,46.482176],[-104.702243,46.482171],[-104.701221,46.482169],[-104.697016,46.482163],[-104.697014,46.479656],[-104.697012,46.476039],[-104.697009,46.472421],[-104.702244,46.472423]]]}},{"type":"Feature","properties":{"sec":"34","frstdivid":"MT200080N0560E0SN340"},"geometry":{"type":"Polygon","coordinates":[[[-104.717928,46.40369],[-104.717918,46.40731],[-104.717907,46.41093],[-104.717897,46.414549],[-104.71267,46.414548],[-104.707443,46.414546],[-104.702215,46.414544],[-104.696988,46.414542],[-104.696986,46.410926],[-104.696984,46.407309],[-104.696981,46.403692],[-104.696979,46.400076],[-104.702219,46.400074],[-104.707459,46.400073],[-104.712698,46.400072],[-104.717938,46.400071],[-104.717928,46.40369]]]}},{"type":"Feature","properties":{"sec":"15","frstdivid":"MT200080N0560E0SN150"},"geometry":{"type":"Polygon","coordinates":[[[-104.697009,46.447099],[-104.69701,46.443482],[-104.702245,46.443485],[-104.70748,46.443488],[-104.712715,46.443491],[-104.71795,46.443494],[-104.717955,46.447113],[-104.717959,46.450732],[-104.717963,46.45435],[-104.717968,46.457969],[-104.712728,46.457965],[-104.707488,46.45796],[-104.702248,46.457956],[-104.697008,46.457952],[-104.697008,46.457048],[-104.697008,46.456143],[-104.697009,46.454334],[-104.697009,46.450717],[-104.697009,46.447099]]]}},{"type":"Feature","properties":{"sec":"16","frstdivid":"MT200080N0560E0SN160"},"geometry":{"type":"Polygon","coordinates":[[[-104.733674,46.443484],[-104.738916,46.443481],[-104.738916,46.447098],[-104.738916,46.450715],[-104.738916,46.454332],[-104.738916,46.457949],[-104.733679,46.457954],[-104.728442,46.457959],[-104.723205,46.457964],[-104.717968,46.457969],[-104.717963,46.45435],[-104.717959,46.450732],[-104.717955,46.447113],[-104.71795,46.443494],[-104.723192,46.443491],[-104.728433,46.443488],[-104.733674,46.443484]]]}},{"type":"Feature","properties":{"sec":"22","frstdivid":"MT200080N0560E0SN220"},"geometry":{"type":"Polygon","coordinates":[[[-104.71795,46.443494],[-104.712715,46.443491],[-104.70748,46.443488],[-104.702245,46.443485],[-104.69701,46.443482],[-104.697004,46.439863],[-104.696998,46.436245],[-104.696992,46.432627],[-104.696985,46.429009],[-104.702218,46.42901],[-104.70745,46.429011],[-104.712682,46.429012],[-104.717914,46.429013],[-104.717923,46.432633],[-104.717932,46.436253],[-104.717941,46.439874],[-104.71795,46.443494]]]}},{"type":"Feature","properties":{"sec":"30","frstdivid":"MT200080N0560E0SN300"},"geometry":{"type":"Polygon","coordinates":[[[-104.780327,46.414617],[-104.780319,46.418237],[-104.780312,46.421857],[-104.780304,46.425476],[-104.780296,46.429096],[-104.775624,46.429087],[-104.770389,46.429076],[-104.765153,46.429065],[-104.759917,46.429054],[-104.759916,46.425435],[-104.759914,46.421816],[-104.759913,46.418197],[-104.759912,46.414578],[-104.765145,46.414587],[-104.770377,46.414596],[-104.77561,46.414607],[-104.780327,46.414617]]]}},{"type":"Feature","properties":{"sec":"09","frstdivid":"MT200080N0560E0SN090"},"geometry":{"type":"Polygon","coordinates":[[[-104.72319,46.472423],[-104.717949,46.472429],[-104.717954,46.468814],[-104.717958,46.465199],[-104.717963,46.461584],[-104.717968,46.457969],[-104.723205,46.457964],[-104.728442,46.457959],[-104.733679,46.457954],[-104.738916,46.457949],[-104.738914,46.461563],[-104.738913,46.465177],[-104.738912,46.468791],[-104.73891,46.472405],[-104.73367,46.472411],[-104.72843,46.472417],[-104.72319,46.472423]]]}},{"type":"Feature","properties":{"sec":"29","frstdivid":"MT200080N0560E0SN290"},"geometry":{"type":"Polygon","coordinates":[[[-104.738924,46.425399],[-104.738928,46.421776],[-104.738932,46.418154],[-104.738935,46.414532],[-104.74418,46.414544],[-104.749424,46.414555],[-104.754668,46.414567],[-104.759912,46.414578],[-104.759913,46.418197],[-104.759914,46.421816],[-104.759916,46.425435],[-104.759917,46.429054],[-104.754668,46.429046],[-104.749419,46.429038],[-104.74417,46.429029],[-104.738921,46.429021],[-104.738924,46.425399]]]}},{"type":"Feature","properties":{"sec":"17","frstdivid":"MT200080N0560E0SN170"},"geometry":{"type":"Polygon","coordinates":[[[-104.738916,46.457949],[-104.738916,46.454332],[-104.738916,46.450715],[-104.738916,46.447098],[-104.738916,46.443481],[-104.744166,46.443492],[-104.749416,46.443502],[-104.754667,46.443513],[-104.759917,46.443523],[-104.759916,46.447141],[-104.759915,46.450759],[-104.759914,46.454377],[-104.759913,46.457995],[-104.754664,46.457984],[-104.749414,46.457972],[-104.744165,46.457961],[-104.738916,46.457949]]]}},{"type":"Feature","properties":{"sec":"18","frstdivid":"MT200080N0560E0SN180"},"geometry":{"type":"Polygon","coordinates":[[[-104.759915,46.450759],[-104.759916,46.447141],[-104.759917,46.443523],[-104.765155,46.443536],[-104.770393,46.443549],[-104.77563,46.443564],[-104.780277,46.443576],[-104.780278,46.447194],[-104.780279,46.450811],[-104.78028,46.454428],[-104.780281,46.458045],[-104.775621,46.458034],[-104.770385,46.458022],[-104.765149,46.458008],[-104.759913,46.457995],[-104.759914,46.454377],[-104.759915,46.450759]]]}},{"type":"Feature","properties":{"sec":"33","frstdivid":"MT200080N0560E0SN330"},"geometry":{"type":"Polygon","coordinates":[[[-104.733679,46.400082],[-104.738926,46.400086],[-104.738928,46.403697],[-104.73893,46.407309],[-104.738933,46.41092],[-104.738935,46.414532],[-104.733676,46.414536],[-104.728416,46.414541],[-104.723157,46.414545],[-104.717897,46.414549],[-104.717907,46.41093],[-104.717918,46.40731],[-104.717928,46.40369],[-104.717938,46.400071],[-104.723185,46.400074],[-104.728432,46.400078],[-104.733679,46.400082]]]}},{"type":"Feature","properties":{"sec":"19","frstdivid":"MT200080N0560E0SN190"},"geometry":{"type":"Polygon","coordinates":[[[-104.780282,46.439956],[-104.780277,46.443576],[-104.77563,46.443564],[-104.770393,46.443549],[-104.765155,46.443536],[-104.759917,46.443523],[-104.759917,46.439906],[-104.759917,46.436289],[-104.759917,46.432672],[-104.759917,46.429054],[-104.765153,46.429065],[-104.770389,46.429076],[-104.775624,46.429087],[-104.780296,46.429096],[-104.780291,46.432716],[-104.780287,46.436336],[-104.780282,46.439956]]]}},{"type":"Feature","properties":{"sec":"24","frstdivid":"MT200080N0560E0SN240"},"geometry":{"type":"Polygon","coordinates":[[[-104.670792,46.44349],[-104.665548,46.443492],[-104.660305,46.443494],[-104.655062,46.443495],[-104.655061,46.439876],[-104.655059,46.436256],[-104.655058,46.432637],[-104.655057,46.429017],[-104.660302,46.429017],[-104.665547,46.429017],[-104.670792,46.429017],[-104.676037,46.429017],[-104.676037,46.432634],[-104.676036,46.436252],[-104.676035,46.43987],[-104.676035,46.443488],[-104.670792,46.44349]]]}},{"type":"Feature","properties":{"sec":"23","frstdivid":"MT200080N0560E0SN230"},"geometry":{"type":"Polygon","coordinates":[[[-104.691748,46.429011],[-104.696985,46.429009],[-104.696992,46.432627],[-104.696998,46.436245],[-104.697004,46.439863],[-104.69701,46.443482],[-104.691766,46.443483],[-104.686522,46.443485],[-104.681279,46.443486],[-104.676035,46.443488],[-104.676035,46.43987],[-104.676036,46.436252],[-104.676037,46.432634],[-104.676037,46.429017],[-104.681274,46.429015],[-104.686511,46.429013],[-104.691748,46.429011]]]}},{"type":"Feature","properties":{"sec":"26","frstdivid":"MT200080N0560E0SN260"},"geometry":{"type":"Polygon","coordinates":[[[-104.676031,46.425401],[-104.676025,46.421785],[-104.676019,46.418169],[-104.676013,46.414553],[-104.681257,46.41455],[-104.6865,46.414548],[-104.691744,46.414545],[-104.696988,46.414542],[-104.696987,46.418159],[-104.696987,46.421776],[-104.696986,46.425392],[-104.696985,46.429009],[-104.691748,46.429011],[-104.686511,46.429013],[-104.681274,46.429015],[-104.676037,46.429017],[-104.676031,46.425401]]]}},{"type":"Feature","properties":{"sec":"12","frstdivid":"MT200080N0560E0SN120"},"geometry":{"type":"Polygon","coordinates":[[[-104.676038,46.468804],[-104.676041,46.47242],[-104.670789,46.472426],[-104.665537,46.472432],[-104.660285,46.472438],[-104.655034,46.472444],[-104.655042,46.468827],[-104.655051,46.465211],[-104.65506,46.461594],[-104.655069,46.457978],[-104.660309,46.457973],[-104.66555,46.457968],[-104.67079,46.457963],[-104.67603,46.457957],[-104.676033,46.461573],[-104.676035,46.465189],[-104.676038,46.468804]]]}},{"type":"Feature","properties":{"sec":"35","frstdivid":"MT200080N0560E0SN350"},"geometry":{"type":"Polygon","coordinates":[[[-104.676013,46.414553],[-104.676012,46.410936],[-104.676012,46.407319],[-104.676012,46.403702],[-104.676011,46.400085],[-104.681253,46.400082],[-104.686495,46.40008],[-104.691737,46.400078],[-104.696979,46.400076],[-104.696981,46.403692],[-104.696984,46.407309],[-104.696986,46.410926],[-104.696988,46.414542],[-104.691744,46.414545],[-104.6865,46.414548],[-104.681257,46.41455],[-104.676013,46.414553]]]}},{"type":"Feature","properties":{"sec":"08","frstdivid":"MT200080N0560E0SN080"},"geometry":{"type":"Polygon","coordinates":[[[-104.759913,46.457995],[-104.759918,46.461611],[-104.759923,46.465226],[-104.759928,46.468842],[-104.759932,46.472457],[-104.754677,46.472444],[-104.749421,46.472431],[-104.744166,46.472418],[-104.73891,46.472405],[-104.738912,46.468791],[-104.738913,46.465177],[-104.738914,46.461563],[-104.738916,46.457949],[-104.744165,46.457961],[-104.749414,46.457972],[-104.754664,46.457984],[-104.759913,46.457995]]]}},{"type":"Feature","properties":{"sec":"21","frstdivid":"MT200080N0560E0SN210"},"geometry":{"type":"Polygon","coordinates":[[[-104.717914,46.429013],[-104.723166,46.429015],[-104.728417,46.429017],[-104.733669,46.429019],[-104.738921,46.429021],[-104.73892,46.432636],[-104.738918,46.436251],[-104.738917,46.439866],[-104.738916,46.443481],[-104.733674,46.443484],[-104.728433,46.443488],[-104.723192,46.443491],[-104.71795,46.443494],[-104.717941,46.439874],[-104.717932,46.436253],[-104.717923,46.432633],[-104.717914,46.429013]]]}},{"type":"Feature","properties":{"sec":"28","frstdivid":"MT200080N0560E0SN280"},"geometry":{"type":"Polygon","coordinates":[[[-104.733676,46.414536],[-104.738935,46.414532],[-104.738932,46.418154],[-104.738928,46.421776],[-104.738924,46.425399],[-104.738921,46.429021],[-104.733669,46.429019],[-104.728417,46.429017],[-104.723166,46.429015],[-104.717914,46.429013],[-104.71791,46.425397],[-104.717906,46.421781],[-104.717901,46.418165],[-104.717897,46.414549],[-104.723157,46.414545],[-104.728416,46.414541],[-104.733676,46.414536]]]}},{"type":"Feature","properties":{"sec":"14","frstdivid":"MT200080N0560E0SN140"},"geometry":{"type":"Polygon","coordinates":[[[-104.676034,46.447105],[-104.676035,46.443488],[-104.681279,46.443486],[-104.686522,46.443485],[-104.691766,46.443483],[-104.69701,46.443482],[-104.697009,46.447099],[-104.697009,46.450717],[-104.697009,46.454334],[-104.697008,46.456143],[-104.697008,46.457048],[-104.697008,46.457952],[-104.695697,46.457952],[-104.694386,46.457953],[-104.691764,46.457953],[-104.686519,46.457955],[-104.681275,46.457956],[-104.67603,46.457957],[-104.676031,46.45434],[-104.676033,46.450723],[-104.676034,46.447105]]]}},{"type":"Feature","properties":{"sec":"27","frstdivid":"MT200080N0560E0SN270"},"geometry":{"type":"Polygon","coordinates":[[[-104.71791,46.425397],[-104.717914,46.429013],[-104.712682,46.429012],[-104.70745,46.429011],[-104.702218,46.42901],[-104.696985,46.429009],[-104.696986,46.425392],[-104.696987,46.421776],[-104.696987,46.418159],[-104.696988,46.414542],[-104.702215,46.414544],[-104.707443,46.414546],[-104.71267,46.414548],[-104.717897,46.414549],[-104.717901,46.418165],[-104.717906,46.421781],[-104.71791,46.425397]]]}},{"type":"Feature","properties":{"sec":"05","frstdivid":"MT200080N0560E0SN050"},"geometry":{"type":"Polygon","coordinates":[[[-104.754677,46.472444],[-104.759932,46.472457],[-104.759934,46.476075],[-104.759935,46.479692],[-104.759939,46.482225],[-104.75902,46.482224],[-104.754682,46.482223],[-104.753753,46.482223],[-104.749425,46.482219],[-104.748486,46.482218],[-104.744169,46.482216],[-104.743219,46.482215],[-104.738912,46.482212],[-104.73891,46.479647],[-104.73891,46.476026],[-104.73891,46.472405],[-104.744166,46.472418],[-104.749421,46.472431],[-104.754677,46.472444]]]}},{"type":"Feature","properties":{"sec":"20","frstdivid":"MT200080N0560E0SN200"},"geometry":{"type":"Polygon","coordinates":[[[-104.759917,46.439906],[-104.759917,46.443523],[-104.754667,46.443513],[-104.749416,46.443502],[-104.744166,46.443492],[-104.738916,46.443481],[-104.738917,46.439866],[-104.738918,46.436251],[-104.73892,46.432636],[-104.738921,46.429021],[-104.74417,46.429029],[-104.749419,46.429038],[-104.754668,46.429046],[-104.759917,46.429054],[-104.759917,46.432672],[-104.759917,46.436289],[-104.759917,46.439906]]]}},{"type":"Feature","properties":{"sec":"36","frstdivid":"MT200080N0560E0SN360"},"geometry":{"type":"Polygon","coordinates":[[[-104.655029,46.407302],[-104.655024,46.403684],[-104.65502,46.400066],[-104.660268,46.400071],[-104.665516,46.400075],[-104.670764,46.40008],[-104.676011,46.400085],[-104.676012,46.403702],[-104.676012,46.407319],[-104.676012,46.410936],[-104.676013,46.414553],[-104.670769,46.414549],[-104.665525,46.414545],[-104.660282,46.414541],[-104.655038,46.414538],[-104.655034,46.41092],[-104.655029,46.407302]]]}},{"type":"Feature","properties":{"sec":"32","frstdivid":"MT200080N0560E0SN320"},"geometry":{"type":"Polygon","coordinates":[[[-104.74418,46.414544],[-104.738935,46.414532],[-104.738933,46.41092],[-104.73893,46.407309],[-104.738928,46.403697],[-104.738926,46.400086],[-104.744175,46.400091],[-104.749424,46.400097],[-104.754674,46.400103],[-104.759923,46.400109],[-104.75992,46.403726],[-104.759917,46.407344],[-104.759915,46.410961],[-104.759912,46.414578],[-104.754668,46.414567],[-104.749424,46.414555],[-104.74418,46.414544]]]}}]}