{"type":"FeatureCollection","note":"BLM Public Land Survey System. Provided by the Bureau of Land Management as is. These data are neither legal documents nor land surveys and must not be used as such.","features":[{"type":"Feature","properties":{"sec":"14","frstdivid":"WY060310N0790W0SN140"},"geometry":{"type":"Polygon","coordinates":[[[-106.282932,42.6493],[-106.282994,42.653054],[-106.283056,42.656807],[-106.283075,42.660334],[-106.283094,42.663861],[-106.278151,42.66389],[-106.273207,42.663919],[-106.268263,42.663948],[-106.263319,42.663977],[-106.263374,42.660374],[-106.263428,42.65677],[-106.263102,42.653031],[-106.262775,42.649292],[-106.267814,42.649294],[-106.272854,42.649296],[-106.277893,42.649298],[-106.282932,42.6493]]]}},{"type":"Feature","properties":{"sec":"35","frstdivid":"WY060310N0790W0SN350"},"geometry":{"type":"Polygon","coordinates":[[[-106.263314,42.616589],[-106.263324,42.612992],[-106.263335,42.609396],[-106.263345,42.605799],[-106.268373,42.605644],[-106.2734,42.60549],[-106.278347,42.605426],[-106.283295,42.605363],[-106.283393,42.609009],[-106.283492,42.612655],[-106.283389,42.616259],[-106.283285,42.619863],[-106.27829,42.619943],[-106.273294,42.620024],[-106.268299,42.620105],[-106.263303,42.620185],[-106.263314,42.616589]]]}},{"type":"Feature","properties":{"sec":"34","frstdivid":"WY060310N0790W0SN340"},"geometry":{"type":"Polygon","coordinates":[[[-106.303115,42.619845],[-106.29812,42.619788],[-106.293125,42.619732],[-106.288205,42.619797],[-106.283285,42.619863],[-106.283389,42.616259],[-106.283492,42.612655],[-106.283393,42.609009],[-106.283295,42.605363],[-106.288244,42.605318],[-106.293193,42.605272],[-106.298143,42.605211],[-106.303094,42.605151],[-106.303099,42.608824],[-106.303104,42.612498],[-106.30311,42.616171],[-106.303115,42.619845]]]}},{"type":"Feature","properties":{"sec":"18","frstdivid":"WY060310N0790W0SN180"},"geometry":{"type":"Polygon","coordinates":[[[-106.36262,42.648194],[-106.362665,42.651867],[-106.362711,42.655539],[-106.362751,42.659066],[-106.36279,42.662593],[-106.358424,42.662715],[-106.353365,42.662855],[-106.348305,42.662995],[-106.343246,42.663136],[-106.34322,42.659493],[-106.343193,42.655849],[-106.343167,42.652206],[-106.34314,42.648563],[-106.348173,42.648468],[-106.353205,42.648373],[-106.358236,42.648277],[-106.36262,42.648194]]]}},{"type":"Feature","properties":{"sec":"19","frstdivid":"WY060310N0790W0SN190"},"geometry":{"type":"Polygon","coordinates":[[[-106.362684,42.63371],[-106.362668,42.637331],[-106.362652,42.640952],[-106.362636,42.644573],[-106.36262,42.648194],[-106.358236,42.648277],[-106.353205,42.648373],[-106.348173,42.648468],[-106.34314,42.648563],[-106.343144,42.644919],[-106.343147,42.641276],[-106.34315,42.637633],[-106.343153,42.633989],[-106.348187,42.633917],[-106.353221,42.633845],[-106.358254,42.633773],[-106.362684,42.63371]]]}},{"type":"Feature","properties":{"sec":"16","frstdivid":"WY060310N0790W0SN160"},"geometry":{"type":"Polygon","coordinates":[[[-106.312923,42.663512],[-106.307907,42.663719],[-106.302891,42.663926],[-106.302901,42.660254],[-106.302912,42.656581],[-106.302922,42.652908],[-106.302933,42.649235],[-106.307944,42.649067],[-106.312955,42.648899],[-106.317966,42.648731],[-106.322977,42.648563],[-106.322972,42.652197],[-106.322966,42.655831],[-106.32296,42.659464],[-106.322955,42.663098],[-106.317939,42.663305],[-106.312923,42.663512]]]}},{"type":"Feature","properties":{"sec":"20","frstdivid":"WY060310N0790W0SN200"},"geometry":{"type":"Polygon","coordinates":[[[-106.328018,42.648563],[-106.322977,42.648563],[-106.323,42.64493],[-106.323023,42.641296],[-106.323046,42.637663],[-106.323068,42.634029],[-106.32809,42.634019],[-106.333111,42.634009],[-106.338132,42.633999],[-106.343153,42.633989],[-106.34315,42.637633],[-106.343147,42.641276],[-106.343144,42.644919],[-106.34314,42.648563],[-106.3381,42.648563],[-106.333059,42.648563],[-106.328018,42.648563]]]}},{"type":"Feature","properties":{"sec":"26","frstdivid":"WY060310N0790W0SN260"},"geometry":{"type":"Polygon","coordinates":[[[-106.268788,42.634496],[-106.263926,42.634566],[-106.26377,42.630971],[-106.263614,42.627376],[-106.263459,42.623781],[-106.263303,42.620185],[-106.268299,42.620105],[-106.273294,42.620024],[-106.27829,42.619943],[-106.283285,42.619863],[-106.283292,42.623421],[-106.283298,42.626979],[-106.283336,42.630632],[-106.283374,42.634284],[-106.278512,42.634355],[-106.27365,42.634425],[-106.268788,42.634496]]]}},{"type":"Feature","properties":{"sec":"17","frstdivid":"WY060310N0790W0SN170"},"geometry":{"type":"Polygon","coordinates":[[[-106.343167,42.652206],[-106.343193,42.655849],[-106.34322,42.659493],[-106.343246,42.663136],[-106.338173,42.663126],[-106.3331,42.663117],[-106.328028,42.663107],[-106.322955,42.663098],[-106.32296,42.659464],[-106.322966,42.655831],[-106.322972,42.652197],[-106.322977,42.648563],[-106.328018,42.648563],[-106.333059,42.648563],[-106.3381,42.648563],[-106.34314,42.648563],[-106.343167,42.652206]]]}},{"type":"Feature","properties":{"sec":"13","frstdivid":"WY060310N0790W0SN130"},"geometry":{"type":"Polygon","coordinates":[[[-106.263374,42.660374],[-106.263319,42.663977],[-106.258338,42.664093],[-106.253357,42.664209],[-106.248376,42.664324],[-106.243395,42.66444],[-106.243412,42.660815],[-106.243428,42.657191],[-106.243409,42.653513],[-106.243391,42.649836],[-106.248237,42.6497],[-106.253083,42.649564],[-106.257929,42.649428],[-106.262775,42.649292],[-106.263102,42.653031],[-106.263428,42.65677],[-106.263374,42.660374]]]}},{"type":"Feature","properties":{"sec":"09","frstdivid":"WY060310N0790W0SN090"},"geometry":{"type":"Polygon","coordinates":[[[-106.312923,42.663512],[-106.317939,42.663305],[-106.322955,42.663098],[-106.3228,42.666731],[-106.322645,42.670364],[-106.32249,42.673997],[-106.322336,42.67763],[-106.317327,42.677944],[-106.312319,42.678258],[-106.307662,42.678339],[-106.303006,42.67842],[-106.302994,42.674789],[-106.302981,42.671157],[-106.302936,42.667542],[-106.302891,42.663926],[-106.307907,42.663719],[-106.312923,42.663512]]]}},{"type":"Feature","properties":{"sec":"28","frstdivid":"WY060310N0790W0SN280"},"geometry":{"type":"Polygon","coordinates":[[[-106.318071,42.634093],[-106.313074,42.634157],[-106.308133,42.634349],[-106.303192,42.634541],[-106.303173,42.630867],[-106.303153,42.627193],[-106.303134,42.623519],[-106.303115,42.619845],[-106.308094,42.619758],[-106.313073,42.61967],[-106.318053,42.619583],[-106.323032,42.619496],[-106.323041,42.623129],[-106.32305,42.626763],[-106.323059,42.630396],[-106.323068,42.634029],[-106.318071,42.634093]]]}},{"type":"Feature","properties":{"sec":"15","frstdivid":"WY060310N0790W0SN150"},"geometry":{"type":"Polygon","coordinates":[[[-106.283094,42.663861],[-106.283075,42.660334],[-106.283056,42.656807],[-106.282994,42.653054],[-106.282932,42.6493],[-106.287932,42.649284],[-106.292933,42.649268],[-106.297933,42.649251],[-106.302933,42.649235],[-106.302922,42.652908],[-106.302912,42.656581],[-106.302901,42.660254],[-106.302891,42.663926],[-106.297942,42.66391],[-106.292992,42.663894],[-106.288043,42.663877],[-106.283094,42.663861]]]}},{"type":"Feature","properties":{"sec":"29","frstdivid":"WY060310N0790W0SN290"},"geometry":{"type":"Polygon","coordinates":[[[-106.323041,42.623129],[-106.323032,42.619496],[-106.328041,42.619476],[-106.333051,42.619456],[-106.33806,42.619436],[-106.34307,42.619416],[-106.343091,42.623059],[-106.343112,42.626702],[-106.343132,42.630346],[-106.343153,42.633989],[-106.338132,42.633999],[-106.333111,42.634009],[-106.32809,42.634019],[-106.323068,42.634029],[-106.323059,42.630396],[-106.32305,42.626763],[-106.323041,42.623129]]]}},{"type":"Feature","properties":{"sec":"25","frstdivid":"WY060310N0790W0SN250"},"geometry":{"type":"Polygon","coordinates":[[[-106.253277,42.620514],[-106.25829,42.62035],[-106.263303,42.620185],[-106.263459,42.623781],[-106.263614,42.627376],[-106.26377,42.630971],[-106.263926,42.634566],[-106.258769,42.634707],[-106.253611,42.634847],[-106.248454,42.634987],[-106.243296,42.635128],[-106.243285,42.631556],[-106.243274,42.627985],[-106.243262,42.624414],[-106.243251,42.620843],[-106.248264,42.620678],[-106.253277,42.620514]]]}},{"type":"Feature","properties":{"sec":"03","frstdivid":"WY060310N0790W0SN030"},"geometry":{"type":"Polygon","coordinates":[[[-106.298106,42.678417],[-106.303006,42.67842],[-106.303055,42.68188],[-106.303103,42.685339],[-106.303152,42.688798],[-106.303202,42.692348],[-106.298221,42.692442],[-106.29324,42.692536],[-106.288262,42.692627],[-106.283284,42.692718],[-106.283245,42.689061],[-106.283207,42.685529],[-106.28317,42.681996],[-106.283132,42.678462],[-106.288169,42.678438],[-106.293205,42.678413],[-106.298106,42.678417]]]}},{"type":"Feature","properties":{"sec":"11","frstdivid":"WY060310N0790W0SN110"},"geometry":{"type":"Polygon","coordinates":[[[-106.283111,42.671173],[-106.283121,42.674818],[-106.283132,42.678462],[-106.278156,42.678448],[-106.273179,42.678434],[-106.268112,42.678413],[-106.263046,42.678392],[-106.263114,42.674788],[-106.263183,42.671185],[-106.263251,42.667581],[-106.263319,42.663977],[-106.268263,42.663948],[-106.273207,42.663919],[-106.278151,42.66389],[-106.283094,42.663861],[-106.283102,42.667517],[-106.283111,42.671173]]]}},{"type":"Feature","properties":{"sec":"30","frstdivid":"WY060310N0790W0SN300"},"geometry":{"type":"Polygon","coordinates":[[[-106.358097,42.619213],[-106.36256,42.619151],[-106.362591,42.622791],[-106.362622,42.626431],[-106.362653,42.630071],[-106.362684,42.63371],[-106.358254,42.633773],[-106.353221,42.633845],[-106.348187,42.633917],[-106.343153,42.633989],[-106.343132,42.630346],[-106.343112,42.626702],[-106.343091,42.623059],[-106.34307,42.619416],[-106.348079,42.619349],[-106.353088,42.619282],[-106.358097,42.619213]]]}},{"type":"Feature","properties":{"sec":"01","frstdivid":"WY060310N0790W0SN010"},"geometry":{"type":"Polygon","coordinates":[[[-106.243445,42.689204],[-106.243222,42.685559],[-106.242998,42.681914],[-106.242775,42.678268],[-106.247842,42.678299],[-106.25291,42.67833],[-106.257978,42.678361],[-106.263046,42.678392],[-106.263136,42.681995],[-106.263226,42.685598],[-106.263315,42.689202],[-106.263406,42.692873],[-106.258471,42.692868],[-106.253537,42.692863],[-106.248602,42.692856],[-106.243667,42.692849],[-106.243445,42.689204]]]}},{"type":"Feature","properties":{"sec":"21","frstdivid":"WY060310N0790W0SN210"},"geometry":{"type":"Polygon","coordinates":[[[-106.322977,42.648563],[-106.317966,42.648731],[-106.312955,42.648899],[-106.307944,42.649067],[-106.302933,42.649235],[-106.302998,42.645562],[-106.303062,42.641888],[-106.303127,42.638215],[-106.303192,42.634541],[-106.308133,42.634349],[-106.313074,42.634157],[-106.318071,42.634093],[-106.323068,42.634029],[-106.323046,42.637663],[-106.323023,42.641296],[-106.323,42.64493],[-106.322977,42.648563]]]}},{"type":"Feature","properties":{"sec":"10","frstdivid":"WY060310N0790W0SN100"},"geometry":{"type":"Polygon","coordinates":[[[-106.292992,42.663894],[-106.297942,42.66391],[-106.302891,42.663926],[-106.302936,42.667542],[-106.302981,42.671157],[-106.302994,42.674789],[-106.303006,42.67842],[-106.298106,42.678417],[-106.293205,42.678413],[-106.288169,42.678438],[-106.283132,42.678462],[-106.283121,42.674818],[-106.283111,42.671173],[-106.283102,42.667517],[-106.283094,42.663861],[-106.288043,42.663877],[-106.292992,42.663894]]]}},{"type":"Feature","properties":{"sec":"32","frstdivid":"WY060310N0790W0SN320"},"geometry":{"type":"Polygon","coordinates":[[[-106.342046,42.608484],[-106.342387,42.612128],[-106.342729,42.615772],[-106.34307,42.619416],[-106.33806,42.619436],[-106.333051,42.619456],[-106.328041,42.619476],[-106.323032,42.619496],[-106.322419,42.615862],[-106.321806,42.612228],[-106.322152,42.608611],[-106.322499,42.604993],[-106.3273,42.604955],[-106.332102,42.604917],[-106.336903,42.604878],[-106.341705,42.60484],[-106.342046,42.608484]]]}},{"type":"Feature","properties":{"sec":"02","frstdivid":"WY060310N0790W0SN020"},"geometry":{"type":"Polygon","coordinates":[[[-106.283207,42.685529],[-106.283245,42.689061],[-106.283284,42.692718],[-106.27828,42.692805],[-106.273276,42.692891],[-106.268341,42.692882],[-106.263406,42.692873],[-106.263315,42.689202],[-106.263226,42.685598],[-106.263136,42.681995],[-106.263046,42.678392],[-106.268112,42.678413],[-106.273179,42.678434],[-106.278156,42.678448],[-106.283132,42.678462],[-106.28317,42.681996],[-106.283207,42.685529]]]}},{"type":"Feature","properties":{"sec":"12","frstdivid":"WY060310N0790W0SN120"},"geometry":{"type":"Polygon","coordinates":[[[-106.263319,42.663977],[-106.263251,42.667581],[-106.263183,42.671185],[-106.263114,42.674788],[-106.263046,42.678392],[-106.257978,42.678361],[-106.25291,42.67833],[-106.247842,42.678299],[-106.242775,42.678268],[-106.24293,42.674811],[-106.243085,42.671354],[-106.24324,42.667897],[-106.243395,42.66444],[-106.248376,42.664324],[-106.253357,42.664209],[-106.258338,42.664093],[-106.263319,42.663977]]]}},{"type":"Feature","properties":{"sec":"23","frstdivid":"WY060310N0790W0SN230"},"geometry":{"type":"Polygon","coordinates":[[[-106.283153,42.641792],[-106.283043,42.645546],[-106.282932,42.6493],[-106.277893,42.649298],[-106.272854,42.649296],[-106.267814,42.649294],[-106.262775,42.649292],[-106.263063,42.64561],[-106.26335,42.641929],[-106.263638,42.638248],[-106.263926,42.634566],[-106.268788,42.634496],[-106.27365,42.634425],[-106.278512,42.634355],[-106.283374,42.634284],[-106.283264,42.638038],[-106.283153,42.641792]]]}},{"type":"Feature","properties":{"sec":"06","frstdivid":"WY060310N0790W0SN060"},"geometry":{"type":"Polygon","coordinates":[[[-106.358351,42.67727],[-106.362808,42.677143],[-106.362781,42.680801],[-106.362755,42.684458],[-106.362729,42.688116],[-106.362703,42.691773],[-106.35834,42.691821],[-106.35331,42.691875],[-106.348297,42.691926],[-106.343283,42.691978],[-106.343117,42.688454],[-106.342949,42.684872],[-106.342784,42.68129],[-106.342619,42.677709],[-106.347863,42.677564],[-106.353107,42.677419],[-106.358351,42.67727]]]}},{"type":"Feature","properties":{"sec":"31","frstdivid":"WY060310N0790W0SN310"},"geometry":{"type":"Polygon","coordinates":[[[-106.34307,42.619416],[-106.342729,42.615772],[-106.342387,42.612128],[-106.342046,42.608484],[-106.341705,42.60484],[-106.347019,42.604778],[-106.352334,42.604716],[-106.357649,42.604651],[-106.362406,42.604592],[-106.362444,42.608232],[-106.362483,42.611872],[-106.362521,42.615511],[-106.36256,42.619151],[-106.358097,42.619213],[-106.353088,42.619282],[-106.348079,42.619349],[-106.34307,42.619416]]]}},{"type":"Feature","properties":{"sec":"04","frstdivid":"WY060310N0790W0SN040"},"geometry":{"type":"Polygon","coordinates":[[[-106.318205,42.69219],[-106.313193,42.692193],[-106.308198,42.69227],[-106.303202,42.692348],[-106.303152,42.688798],[-106.303103,42.685339],[-106.303055,42.68188],[-106.303006,42.67842],[-106.307662,42.678339],[-106.312319,42.678258],[-106.317327,42.677944],[-106.322336,42.67763],[-106.322555,42.681264],[-106.322774,42.684898],[-106.322995,42.68853],[-106.323217,42.692186],[-106.318205,42.69219]]]}},{"type":"Feature","properties":{"sec":"07","frstdivid":"WY060310N0790W0SN070"},"geometry":{"type":"Polygon","coordinates":[[[-106.36279,42.662593],[-106.362828,42.666211],[-106.362866,42.669828],[-106.362837,42.673486],[-106.362808,42.677143],[-106.358351,42.67727],[-106.353107,42.677419],[-106.347863,42.677564],[-106.342619,42.677709],[-106.342776,42.674065],[-106.342933,42.670422],[-106.343089,42.666779],[-106.343246,42.663136],[-106.348305,42.662995],[-106.353365,42.662855],[-106.358424,42.662715],[-106.36279,42.662593]]]}},{"type":"Feature","properties":{"sec":"33","frstdivid":"WY060310N0790W0SN330"},"geometry":{"type":"Polygon","coordinates":[[[-106.322419,42.615862],[-106.323032,42.619496],[-106.318053,42.619583],[-106.313073,42.61967],[-106.308094,42.619758],[-106.303115,42.619845],[-106.30311,42.616171],[-106.303104,42.612498],[-106.303099,42.608824],[-106.303094,42.605151],[-106.307995,42.60511],[-106.312897,42.60507],[-106.317698,42.605031],[-106.322499,42.604993],[-106.322152,42.608611],[-106.321806,42.612228],[-106.322419,42.615862]]]}},{"type":"Feature","properties":{"sec":"24","frstdivid":"WY060310N0790W0SN240"},"geometry":{"type":"Polygon","coordinates":[[[-106.257929,42.649428],[-106.253083,42.649564],[-106.248237,42.6497],[-106.243391,42.649836],[-106.243367,42.646159],[-106.243343,42.642482],[-106.24332,42.638805],[-106.243296,42.635128],[-106.248454,42.634987],[-106.253611,42.634847],[-106.258769,42.634707],[-106.263926,42.634566],[-106.263638,42.638248],[-106.26335,42.641929],[-106.263063,42.64561],[-106.262775,42.649292],[-106.257929,42.649428]]]}},{"type":"Feature","properties":{"sec":"22","frstdivid":"WY060310N0790W0SN220"},"geometry":{"type":"Polygon","coordinates":[[[-106.282932,42.6493],[-106.283043,42.645546],[-106.283153,42.641792],[-106.283264,42.638038],[-106.283374,42.634284],[-106.288329,42.634348],[-106.293283,42.634413],[-106.298237,42.634477],[-106.303192,42.634541],[-106.303127,42.638215],[-106.303062,42.641888],[-106.302998,42.645562],[-106.302933,42.649235],[-106.297933,42.649251],[-106.292933,42.649268],[-106.287932,42.649284],[-106.282932,42.6493]]]}},{"type":"Feature","properties":{"sec":"08","frstdivid":"WY060310N0790W0SN080"},"geometry":{"type":"Polygon","coordinates":[[[-106.338173,42.663126],[-106.343246,42.663136],[-106.343089,42.666779],[-106.342933,42.670422],[-106.342776,42.674065],[-106.342619,42.677709],[-106.337548,42.677689],[-106.332477,42.677669],[-106.327406,42.67765],[-106.322336,42.67763],[-106.32249,42.673997],[-106.322645,42.670364],[-106.3228,42.666731],[-106.322955,42.663098],[-106.328028,42.663107],[-106.3331,42.663117],[-106.338173,42.663126]]]}},{"type":"Feature","properties":{"sec":"05","frstdivid":"WY060310N0790W0SN050"},"geometry":{"type":"Polygon","coordinates":[[[-106.343117,42.688454],[-106.343283,42.691978],[-106.338264,42.692033],[-106.333245,42.692088],[-106.328231,42.692137],[-106.323217,42.692186],[-106.322995,42.68853],[-106.322774,42.684898],[-106.322555,42.681264],[-106.322336,42.67763],[-106.327406,42.67765],[-106.332477,42.677669],[-106.337548,42.677689],[-106.342619,42.677709],[-106.342784,42.68129],[-106.342949,42.684872],[-106.343117,42.688454]]]}},{"type":"Feature","properties":{"sec":"36","frstdivid":"WY060310N0790W0SN360"},"geometry":{"type":"Polygon","coordinates":[[[-106.243251,42.620843],[-106.243248,42.617243],[-106.243244,42.613644],[-106.243241,42.610045],[-106.243237,42.606446],[-106.248264,42.606284],[-106.253291,42.606123],[-106.258318,42.605961],[-106.263345,42.605799],[-106.263335,42.609396],[-106.263324,42.612992],[-106.263314,42.616589],[-106.263303,42.620185],[-106.25829,42.62035],[-106.253277,42.620514],[-106.248264,42.620678],[-106.243251,42.620843]]]}},{"type":"Feature","properties":{"sec":"27","frstdivid":"WY060310N0790W0SN270"},"geometry":{"type":"Polygon","coordinates":[[[-106.303153,42.627193],[-106.303173,42.630867],[-106.303192,42.634541],[-106.298237,42.634477],[-106.293283,42.634413],[-106.288329,42.634348],[-106.283374,42.634284],[-106.283336,42.630632],[-106.283298,42.626979],[-106.283292,42.623421],[-106.283285,42.619863],[-106.288205,42.619797],[-106.293125,42.619732],[-106.29812,42.619788],[-106.303115,42.619845],[-106.303134,42.623519],[-106.303153,42.627193]]]}}]}