{"type":"FeatureCollection","note":"BLM Public Land Survey System. Provided by the Bureau of Land Management as is. These data are neither legal documents nor land surveys and must not be used as such.","features":[{"type":"Feature","properties":{"sec":"29","frstdivid":"WY060430N0760W0SN290"},"geometry":{"type":"Polygon","coordinates":[[[-106.008649,43.677889],[-106.008823,43.674081],[-106.008996,43.670274],[-106.00891,43.666696],[-106.008825,43.663118],[-106.013706,43.663184],[-106.018587,43.66325],[-106.023468,43.663213],[-106.028348,43.663176],[-106.028408,43.666798],[-106.028468,43.670419],[-106.028527,43.674041],[-106.028587,43.677663],[-106.023602,43.677719],[-106.018618,43.677776],[-106.013634,43.677833],[-106.008649,43.677889]]]}},{"type":"Feature","properties":{"sec":"34","frstdivid":"WY060430N0760W0SN340"},"geometry":{"type":"Polygon","coordinates":[[[-105.988153,43.648938],[-105.988231,43.652577],[-105.988309,43.656217],[-105.988386,43.659857],[-105.988464,43.663496],[-105.983374,43.663562],[-105.978284,43.663627],[-105.973194,43.663692],[-105.968104,43.663758],[-105.968113,43.660066],[-105.968122,43.656374],[-105.968131,43.652682],[-105.96814,43.64899],[-105.973143,43.648977],[-105.978147,43.648964],[-105.98315,43.648951],[-105.988153,43.648938]]]}},{"type":"Feature","properties":{"sec":"28","frstdivid":"WY060430N0760W0SN280"},"geometry":{"type":"Polygon","coordinates":[[[-105.993554,43.663402],[-105.998644,43.663307],[-106.003734,43.663212],[-106.008825,43.663118],[-106.00891,43.666696],[-106.008996,43.670274],[-106.008823,43.674081],[-106.008649,43.677889],[-106.003626,43.677998],[-105.998604,43.678108],[-105.993581,43.678217],[-105.988558,43.678326],[-105.988535,43.674618],[-105.988511,43.670911],[-105.988488,43.667204],[-105.988464,43.663496],[-105.993554,43.663402]]]}},{"type":"Feature","properties":{"sec":"35","frstdivid":"WY060430N0760W0SN350"},"geometry":{"type":"Polygon","coordinates":[[[-105.953131,43.649027],[-105.958134,43.649015],[-105.963137,43.649002],[-105.96814,43.64899],[-105.968131,43.652682],[-105.968122,43.656374],[-105.968113,43.660066],[-105.968104,43.663758],[-105.962934,43.663655],[-105.957764,43.663552],[-105.9526,43.663449],[-105.947437,43.663345],[-105.947611,43.659766],[-105.947785,43.656188],[-105.947957,43.652613],[-105.948128,43.649039],[-105.953131,43.649027]]]}},{"type":"Feature","properties":{"sec":"30","frstdivid":"WY060430N0760W0SN300"},"geometry":{"type":"Polygon","coordinates":[[[-106.033422,43.663224],[-106.038496,43.663272],[-106.043568,43.663322],[-106.048462,43.663371],[-106.048487,43.667055],[-106.048513,43.670739],[-106.048538,43.674424],[-106.048564,43.678108],[-106.043681,43.677998],[-106.038649,43.677885],[-106.033618,43.677774],[-106.028587,43.677663],[-106.028527,43.674041],[-106.028468,43.670419],[-106.028408,43.666798],[-106.028348,43.663176],[-106.033422,43.663224]]]}},{"type":"Feature","properties":{"sec":"16","frstdivid":"WY060430N0760W0SN160"},"geometry":{"type":"Polygon","coordinates":[[[-105.993625,43.707925],[-105.988616,43.707984],[-105.988538,43.704276],[-105.98846,43.700569],[-105.988382,43.696862],[-105.988304,43.693155],[-105.993346,43.69307],[-105.998389,43.692986],[-106.003431,43.692902],[-106.008474,43.692818],[-106.008518,43.69655],[-106.008563,43.700283],[-106.008608,43.704015],[-106.008653,43.707747],[-106.003644,43.707806],[-105.998635,43.707866],[-105.993625,43.707925]]]}},{"type":"Feature","properties":{"sec":"24","frstdivid":"WY060430N0760W0SN240"},"geometry":{"type":"Polygon","coordinates":[[[-105.93319,43.693364],[-105.928188,43.693452],[-105.92816,43.689762],[-105.928133,43.686072],[-105.928105,43.682382],[-105.928078,43.678691],[-105.933128,43.678574],[-105.938178,43.678456],[-105.943228,43.678338],[-105.948278,43.678221],[-105.948258,43.68194],[-105.948237,43.685659],[-105.948217,43.689378],[-105.948197,43.693098],[-105.943194,43.693186],[-105.938192,43.693275],[-105.93319,43.693364]]]}},{"type":"Feature","properties":{"sec":"27","frstdivid":"WY060430N0760W0SN270"},"geometry":{"type":"Polygon","coordinates":[[[-105.968404,43.674807],[-105.968304,43.671124],[-105.968204,43.667441],[-105.968104,43.663758],[-105.973194,43.663692],[-105.978284,43.663627],[-105.983374,43.663562],[-105.988464,43.663496],[-105.988488,43.667204],[-105.988511,43.670911],[-105.988535,43.674618],[-105.988558,43.678326],[-105.983545,43.678367],[-105.978531,43.678408],[-105.973518,43.678449],[-105.968505,43.67849],[-105.968404,43.674807]]]}},{"type":"Feature","properties":{"sec":"26","frstdivid":"WY060430N0760W0SN260"},"geometry":{"type":"Polygon","coordinates":[[[-105.957764,43.663552],[-105.962934,43.663655],[-105.968104,43.663758],[-105.968204,43.667441],[-105.968304,43.671124],[-105.968404,43.674807],[-105.968505,43.67849],[-105.963448,43.678422],[-105.958391,43.678355],[-105.953335,43.678288],[-105.948278,43.678221],[-105.948068,43.674502],[-105.947858,43.670783],[-105.947647,43.667064],[-105.947437,43.663345],[-105.9526,43.663449],[-105.957764,43.663552]]]}},{"type":"Feature","properties":{"sec":"19","frstdivid":"WY060430N0760W0SN190"},"geometry":{"type":"Polygon","coordinates":[[[-106.03372,43.692544],[-106.028685,43.692444],[-106.02866,43.688681],[-106.028635,43.684919],[-106.028611,43.681291],[-106.028587,43.677663],[-106.033618,43.677774],[-106.038649,43.677885],[-106.043681,43.677998],[-106.048564,43.678108],[-106.048591,43.681792],[-106.048618,43.685475],[-106.048644,43.689159],[-106.048671,43.692843],[-106.043792,43.692745],[-106.038756,43.692645],[-106.03372,43.692544]]]}},{"type":"Feature","properties":{"sec":"05","frstdivid":"WY060430N0760W0SN050"},"geometry":{"type":"Polygon","coordinates":[[[-106.008534,43.722677],[-106.013585,43.722639],[-106.018636,43.722601],[-106.023688,43.722563],[-106.028739,43.722525],[-106.028738,43.726284],[-106.028737,43.730042],[-106.028735,43.7338],[-106.028734,43.737523],[-106.023705,43.737535],[-106.018676,43.737547],[-106.013647,43.737558],[-106.008618,43.73757],[-106.008596,43.733878],[-106.008575,43.730145],[-106.008555,43.726411],[-106.008534,43.722677]]]}},{"type":"Feature","properties":{"sec":"18","frstdivid":"WY060430N0760W0SN180"},"geometry":{"type":"Polygon","coordinates":[[[-106.028704,43.699969],[-106.028695,43.696207],[-106.028685,43.692444],[-106.03372,43.692544],[-106.038756,43.692645],[-106.043792,43.692745],[-106.048671,43.692843],[-106.048679,43.696563],[-106.048686,43.700283],[-106.048693,43.704004],[-106.0487,43.707724],[-106.043814,43.707668],[-106.038783,43.70761],[-106.033753,43.707552],[-106.028724,43.707494],[-106.028714,43.703732],[-106.028704,43.699969]]]}},{"type":"Feature","properties":{"sec":"22","frstdivid":"WY060430N0760W0SN220"},"geometry":{"type":"Polygon","coordinates":[[[-105.983282,43.693172],[-105.978261,43.693189],[-105.97324,43.693206],[-105.968218,43.693223],[-105.96829,43.689539],[-105.968361,43.685856],[-105.968433,43.682173],[-105.968505,43.67849],[-105.973518,43.678449],[-105.978531,43.678408],[-105.983545,43.678367],[-105.988558,43.678326],[-105.988495,43.682033],[-105.988431,43.68574],[-105.988367,43.689447],[-105.988304,43.693155],[-105.983282,43.693172]]]}},{"type":"Feature","properties":{"sec":"36","frstdivid":"WY060430N0760W0SN360"},"geometry":{"type":"Polygon","coordinates":[[[-105.927958,43.66393],[-105.927932,43.66024],[-105.927906,43.65655],[-105.92788,43.65286],[-105.927854,43.64917],[-105.932923,43.649137],[-105.937991,43.649104],[-105.94306,43.649072],[-105.948128,43.649039],[-105.947957,43.652613],[-105.947785,43.656188],[-105.947611,43.659766],[-105.947437,43.663345],[-105.942567,43.663491],[-105.937697,43.663638],[-105.932828,43.663784],[-105.927958,43.66393]]]}},{"type":"Feature","properties":{"sec":"31","frstdivid":"WY060430N0760W0SN310"},"geometry":{"type":"Polygon","coordinates":[[[-106.033282,43.64878],[-106.038383,43.648729],[-106.043485,43.64868],[-106.048382,43.648633],[-106.048402,43.652317],[-106.048422,43.656002],[-106.048442,43.659686],[-106.048462,43.663371],[-106.043568,43.663322],[-106.038496,43.663272],[-106.033422,43.663224],[-106.028348,43.663176],[-106.028307,43.65959],[-106.028265,43.656004],[-106.028224,43.652418],[-106.028182,43.648832],[-106.033282,43.64878]]]}},{"type":"Feature","properties":{"sec":"21","frstdivid":"WY060430N0760W0SN210"},"geometry":{"type":"Polygon","coordinates":[[[-105.988495,43.682033],[-105.988558,43.678326],[-105.993581,43.678217],[-105.998604,43.678108],[-106.003626,43.677998],[-106.008649,43.677889],[-106.008605,43.681621],[-106.008561,43.685354],[-106.008518,43.689086],[-106.008474,43.692818],[-106.003431,43.692902],[-105.998389,43.692986],[-105.993346,43.69307],[-105.988304,43.693155],[-105.988367,43.689447],[-105.988431,43.68574],[-105.988495,43.682033]]]}},{"type":"Feature","properties":{"sec":"23","frstdivid":"WY060430N0760W0SN230"},"geometry":{"type":"Polygon","coordinates":[[[-105.953202,43.693129],[-105.948197,43.693098],[-105.948217,43.689378],[-105.948237,43.685659],[-105.948258,43.68194],[-105.948278,43.678221],[-105.953335,43.678288],[-105.958391,43.678355],[-105.963448,43.678422],[-105.968505,43.67849],[-105.968433,43.682173],[-105.968361,43.685856],[-105.96829,43.689539],[-105.968218,43.693223],[-105.963213,43.693191],[-105.958208,43.69316],[-105.953202,43.693129]]]}},{"type":"Feature","properties":{"sec":"32","frstdivid":"WY060430N0760W0SN320"},"geometry":{"type":"Polygon","coordinates":[[[-106.013171,43.648865],[-106.018175,43.648854],[-106.023178,43.648843],[-106.028182,43.648832],[-106.028224,43.652418],[-106.028265,43.656004],[-106.028307,43.65959],[-106.028348,43.663176],[-106.023468,43.663213],[-106.018587,43.66325],[-106.013706,43.663184],[-106.008825,43.663118],[-106.00866,43.659557],[-106.008496,43.655997],[-106.008331,43.652436],[-106.008167,43.648876],[-106.013171,43.648865]]]}},{"type":"Feature","properties":{"sec":"20","frstdivid":"WY060430N0760W0SN200"},"geometry":{"type":"Polygon","coordinates":[[[-106.028635,43.684919],[-106.02866,43.688681],[-106.028685,43.692444],[-106.023632,43.692538],[-106.018579,43.692631],[-106.013527,43.692725],[-106.008474,43.692818],[-106.008518,43.689086],[-106.008561,43.685354],[-106.008605,43.681621],[-106.008649,43.677889],[-106.013634,43.677833],[-106.018618,43.677776],[-106.023602,43.677719],[-106.028587,43.677663],[-106.028611,43.681291],[-106.028635,43.684919]]]}},{"type":"Feature","properties":{"sec":"33","frstdivid":"WY060430N0760W0SN330"},"geometry":{"type":"Polygon","coordinates":[[[-105.988386,43.659857],[-105.988309,43.656217],[-105.988231,43.652577],[-105.988153,43.648938],[-105.993157,43.648922],[-105.99816,43.648907],[-106.003164,43.648891],[-106.008167,43.648876],[-106.008331,43.652436],[-106.008496,43.655997],[-106.00866,43.659557],[-106.008825,43.663118],[-106.003734,43.663212],[-105.998644,43.663307],[-105.993554,43.663402],[-105.988464,43.663496],[-105.988386,43.659857]]]}},{"type":"Feature","properties":{"sec":"25","frstdivid":"WY060430N0760W0SN250"},"geometry":{"type":"Polygon","coordinates":[[[-105.928048,43.675001],[-105.928018,43.671311],[-105.927988,43.667621],[-105.927958,43.66393],[-105.932828,43.663784],[-105.937697,43.663638],[-105.942567,43.663491],[-105.947437,43.663345],[-105.947647,43.667064],[-105.947858,43.670783],[-105.948068,43.674502],[-105.948278,43.678221],[-105.943228,43.678338],[-105.938178,43.678456],[-105.933128,43.678574],[-105.928078,43.678691],[-105.928048,43.675001]]]}},{"type":"Feature","properties":{"sec":"04","frstdivid":"WY060430N0760W0SN040"},"geometry":{"type":"Polygon","coordinates":[[[-105.99353,43.737604],[-105.9885,43.737615],[-105.988472,43.733936],[-105.988444,43.730227],[-105.988418,43.72652],[-105.988392,43.722812],[-105.993428,43.722778],[-105.998463,43.722744],[-106.003499,43.722711],[-106.008534,43.722677],[-106.008555,43.726411],[-106.008575,43.730145],[-106.008596,43.733878],[-106.008618,43.73757],[-106.003588,43.737582],[-105.998559,43.737593],[-105.99353,43.737604]]]}},{"type":"Feature","properties":{"sec":"09","frstdivid":"WY060430N0760W0SN090"},"geometry":{"type":"Polygon","coordinates":[[[-105.988448,43.719105],[-105.988504,43.715398],[-105.98856,43.711691],[-105.988616,43.707984],[-105.993625,43.707925],[-105.998635,43.707866],[-106.003644,43.707806],[-106.008653,43.707747],[-106.008623,43.71148],[-106.008593,43.715212],[-106.008564,43.718945],[-106.008534,43.722677],[-106.003499,43.722711],[-105.998463,43.722744],[-105.993428,43.722778],[-105.988392,43.722812],[-105.988448,43.719105]]]}},{"type":"Feature","properties":{"sec":"07","frstdivid":"WY060430N0760W0SN070"},"geometry":{"type":"Polygon","coordinates":[[[-106.048704,43.711444],[-106.048707,43.715164],[-106.048711,43.718884],[-106.048714,43.722604],[-106.043814,43.722585],[-106.038788,43.722565],[-106.033764,43.722545],[-106.028739,43.722525],[-106.028735,43.718767],[-106.028731,43.71501],[-106.028728,43.711252],[-106.028724,43.707494],[-106.033753,43.707552],[-106.038783,43.70761],[-106.043814,43.707668],[-106.0487,43.707724],[-106.048704,43.711444]]]}},{"type":"Feature","properties":{"sec":"08","frstdivid":"WY060430N0760W0SN080"},"geometry":{"type":"Polygon","coordinates":[[[-106.028724,43.707494],[-106.028728,43.711252],[-106.028731,43.71501],[-106.028735,43.718767],[-106.028739,43.722525],[-106.023688,43.722563],[-106.018636,43.722601],[-106.013585,43.722639],[-106.008534,43.722677],[-106.008564,43.718945],[-106.008593,43.715212],[-106.008623,43.71148],[-106.008653,43.707747],[-106.01367,43.707684],[-106.018688,43.707621],[-106.023706,43.707558],[-106.028724,43.707494]]]}},{"type":"Feature","properties":{"sec":"06","frstdivid":"WY060430N0760W0SN060"},"geometry":{"type":"Polygon","coordinates":[[[-106.048736,43.733763],[-106.048743,43.737484],[-106.043823,43.737495],[-106.038793,43.737505],[-106.033764,43.737514],[-106.028734,43.737523],[-106.028735,43.7338],[-106.028737,43.730042],[-106.028738,43.726284],[-106.028739,43.722525],[-106.033764,43.722545],[-106.038788,43.722565],[-106.043814,43.722585],[-106.048714,43.722604],[-106.048722,43.726323],[-106.04873,43.730043],[-106.048736,43.733763]]]}},{"type":"Feature","properties":{"sec":"17","frstdivid":"WY060430N0760W0SN170"},"geometry":{"type":"Polygon","coordinates":[[[-106.018688,43.707621],[-106.01367,43.707684],[-106.008653,43.707747],[-106.008608,43.704015],[-106.008563,43.700283],[-106.008518,43.69655],[-106.008474,43.692818],[-106.013527,43.692725],[-106.018579,43.692631],[-106.023632,43.692538],[-106.028685,43.692444],[-106.028695,43.696207],[-106.028704,43.699969],[-106.028714,43.703732],[-106.028724,43.707494],[-106.023706,43.707558],[-106.018688,43.707621]]]}},{"type":"Feature","properties":{"sec":"10","frstdivid":"WY060430N0760W0SN100"},"geometry":{"type":"Polygon","coordinates":[[[-105.973255,43.722718],[-105.968209,43.722687],[-105.968311,43.719004],[-105.968412,43.715321],[-105.968513,43.711638],[-105.968614,43.707955],[-105.973615,43.707962],[-105.978615,43.707969],[-105.983616,43.707977],[-105.988616,43.707984],[-105.98856,43.711691],[-105.988504,43.715398],[-105.988448,43.719105],[-105.988392,43.722812],[-105.983346,43.72278],[-105.978301,43.722749],[-105.973255,43.722718]]]}},{"type":"Feature","properties":{"sec":"12","frstdivid":"WY060430N0760W0SN120"},"geometry":{"type":"Polygon","coordinates":[[[-105.948413,43.711693],[-105.948394,43.715413],[-105.948374,43.719132],[-105.948355,43.722851],[-105.943368,43.722882],[-105.938382,43.722913],[-105.933395,43.722944],[-105.928409,43.722975],[-105.928379,43.719285],[-105.928349,43.715594],[-105.92832,43.711904],[-105.92829,43.708214],[-105.933326,43.708154],[-105.938361,43.708094],[-105.943397,43.708034],[-105.948432,43.707974],[-105.948413,43.711693]]]}},{"type":"Feature","properties":{"sec":"13","frstdivid":"WY060430N0760W0SN130"},"geometry":{"type":"Polygon","coordinates":[[[-105.938361,43.708094],[-105.933326,43.708154],[-105.92829,43.708214],[-105.928264,43.704523],[-105.928239,43.700833],[-105.928213,43.697143],[-105.928188,43.693452],[-105.93319,43.693364],[-105.938192,43.693275],[-105.943194,43.693186],[-105.948197,43.693098],[-105.948256,43.696817],[-105.948314,43.700536],[-105.948373,43.704255],[-105.948432,43.707974],[-105.943397,43.708034],[-105.938361,43.708094]]]}},{"type":"Feature","properties":{"sec":"01","frstdivid":"WY060430N0760W0SN010"},"geometry":{"type":"Polygon","coordinates":[[[-105.943399,43.73773],[-105.938403,43.737741],[-105.933406,43.737753],[-105.92841,43.737764],[-105.928439,43.734066],[-105.928468,43.73037],[-105.928438,43.726672],[-105.928409,43.722975],[-105.933395,43.722944],[-105.938382,43.722913],[-105.943368,43.722882],[-105.948355,43.722851],[-105.948365,43.726572],[-105.948374,43.730293],[-105.948385,43.734014],[-105.948396,43.737719],[-105.943399,43.73773]]]}},{"type":"Feature","properties":{"sec":"03","frstdivid":"WY060430N0760W0SN030"},"geometry":{"type":"Polygon","coordinates":[[[-105.988418,43.72652],[-105.988444,43.730227],[-105.988472,43.733936],[-105.9885,43.737615],[-105.983471,43.737627],[-105.978441,43.737639],[-105.973411,43.737651],[-105.968381,43.737662],[-105.968337,43.733896],[-105.968294,43.730159],[-105.968252,43.726423],[-105.968209,43.722687],[-105.973255,43.722718],[-105.978301,43.722749],[-105.983346,43.72278],[-105.988392,43.722812],[-105.988418,43.72652]]]}},{"type":"Feature","properties":{"sec":"02","frstdivid":"WY060430N0760W0SN020"},"geometry":{"type":"Polygon","coordinates":[[[-105.953392,43.737705],[-105.948396,43.737719],[-105.948385,43.734014],[-105.948374,43.730293],[-105.948365,43.726572],[-105.948355,43.722851],[-105.953319,43.72281],[-105.958282,43.722769],[-105.963246,43.722728],[-105.968209,43.722687],[-105.968252,43.726423],[-105.968294,43.730159],[-105.968337,43.733896],[-105.968381,43.737662],[-105.963385,43.737676],[-105.958388,43.737691],[-105.953392,43.737705]]]}},{"type":"Feature","properties":{"sec":"11","frstdivid":"WY060430N0760W0SN110"},"geometry":{"type":"Polygon","coordinates":[[[-105.948374,43.719132],[-105.948394,43.715413],[-105.948413,43.711693],[-105.948432,43.707974],[-105.953478,43.707969],[-105.958523,43.707964],[-105.963569,43.707959],[-105.968614,43.707955],[-105.968513,43.711638],[-105.968412,43.715321],[-105.968311,43.719004],[-105.968209,43.722687],[-105.963246,43.722728],[-105.958282,43.722769],[-105.953319,43.72281],[-105.948355,43.722851],[-105.948374,43.719132]]]}},{"type":"Feature","properties":{"sec":"15","frstdivid":"WY060430N0760W0SN150"},"geometry":{"type":"Polygon","coordinates":[[[-105.988616,43.707984],[-105.983616,43.707977],[-105.978615,43.707969],[-105.973615,43.707962],[-105.968614,43.707955],[-105.968515,43.704272],[-105.968416,43.700589],[-105.968317,43.696906],[-105.968218,43.693223],[-105.97324,43.693206],[-105.978261,43.693189],[-105.983282,43.693172],[-105.988304,43.693155],[-105.988382,43.696862],[-105.98846,43.700569],[-105.988538,43.704276],[-105.988616,43.707984]]]}},{"type":"Feature","properties":{"sec":"14","frstdivid":"WY060430N0760W0SN140"},"geometry":{"type":"Polygon","coordinates":[[[-105.968515,43.704272],[-105.968614,43.707955],[-105.963569,43.707959],[-105.958523,43.707964],[-105.953478,43.707969],[-105.948432,43.707974],[-105.948373,43.704255],[-105.948314,43.700536],[-105.948256,43.696817],[-105.948197,43.693098],[-105.953202,43.693129],[-105.958208,43.69316],[-105.963213,43.693191],[-105.968218,43.693223],[-105.968317,43.696906],[-105.968416,43.700589],[-105.968515,43.704272]]]}}]}