{"type":"FeatureCollection","note":"BLM Public Land Survey System. Provided by the Bureau of Land Management as is. These data are neither legal documents nor land surveys and must not be used as such.","features":[{"type":"Feature","properties":{"sec":"01","frstdivid":"WY060290N0820W0SN010"},"geometry":{"type":"Polygon","coordinates":[[[-106.609771,42.50274],[-106.614649,42.502799],[-106.619527,42.502858],[-106.619537,42.506471],[-106.619546,42.510083],[-106.619565,42.513699],[-106.619583,42.517182],[-106.614695,42.51715],[-106.609808,42.517117],[-106.604921,42.517085],[-106.600034,42.517053],[-106.600031,42.513441],[-106.600028,42.509829],[-106.600022,42.506225],[-106.600015,42.502621],[-106.604893,42.502681],[-106.609771,42.50274]]]}},{"type":"Feature","properties":{"sec":"18","frstdivid":"WY060290N0820W0SN180"},"geometry":{"type":"Polygon","coordinates":[[[-106.707642,42.489328],[-106.702774,42.489232],[-106.697906,42.489136],[-106.697887,42.485545],[-106.697868,42.481954],[-106.697848,42.478363],[-106.697829,42.474771],[-106.702683,42.474925],[-106.707536,42.475079],[-106.712409,42.475163],[-106.717234,42.475244],[-106.717227,42.478792],[-106.717221,42.48234],[-106.717215,42.485888],[-106.717209,42.489435],[-106.712523,42.489384],[-106.707642,42.489328]]]}},{"type":"Feature","properties":{"sec":"32","frstdivid":"WY060290N0820W0SN320"},"geometry":{"type":"Polygon","coordinates":[[[-106.68304,42.431351],[-106.683286,42.431353],[-106.68793,42.431395],[-106.68815,42.431397],[-106.69282,42.431433],[-106.693034,42.431435],[-106.69771,42.431472],[-106.697678,42.43509],[-106.697646,42.438709],[-106.697614,42.442327],[-106.697582,42.445945],[-106.692722,42.445895],[-106.687861,42.445846],[-106.683001,42.445796],[-106.67814,42.445746],[-106.678143,42.442136],[-106.678145,42.438526],[-106.678148,42.434916],[-106.67815,42.431306],[-106.678423,42.431308],[-106.68304,42.431351]]]}},{"type":"Feature","properties":{"sec":"05","frstdivid":"WY060290N0820W0SN050"},"geometry":{"type":"Polygon","coordinates":[[[-106.687933,42.503252],[-106.692811,42.5033],[-106.697689,42.503349],[-106.697715,42.506931],[-106.697741,42.510513],[-106.69776,42.514114],[-106.697778,42.517612],[-106.692891,42.517588],[-106.688004,42.517565],[-106.683117,42.517541],[-106.678229,42.517518],[-106.678211,42.51395],[-106.678192,42.510343],[-106.678184,42.506749],[-106.678176,42.503155],[-106.683054,42.503204],[-106.687933,42.503252]]]}},{"type":"Feature","properties":{"sec":"19","frstdivid":"WY060290N0820W0SN190"},"geometry":{"type":"Polygon","coordinates":[[[-106.717249,42.464275],[-106.717244,42.467932],[-106.717239,42.471588],[-106.717234,42.475244],[-106.712409,42.475163],[-106.707536,42.475079],[-106.702683,42.474925],[-106.697829,42.474771],[-106.697798,42.471171],[-106.697766,42.467571],[-106.697735,42.463971],[-106.697704,42.460371],[-106.702582,42.460452],[-106.707461,42.460533],[-106.712346,42.460576],[-106.717255,42.460619],[-106.717249,42.464275]]]}},{"type":"Feature","properties":{"sec":"30","frstdivid":"WY060290N0820W0SN300"},"geometry":{"type":"Polygon","coordinates":[[[-106.697704,42.460371],[-106.697673,42.456765],[-106.697643,42.453158],[-106.697612,42.449552],[-106.697582,42.445945],[-106.702503,42.445996],[-106.707425,42.446047],[-106.71233,42.446078],[-106.717275,42.44611],[-106.71727,42.449708],[-106.717265,42.453306],[-106.71726,42.456963],[-106.717255,42.460619],[-106.712346,42.460576],[-106.707461,42.460533],[-106.702582,42.460452],[-106.697704,42.460371]]]}},{"type":"Feature","properties":{"sec":"12","frstdivid":"WY060290N0820W0SN120"},"geometry":{"type":"Polygon","coordinates":[[[-106.614785,42.488398],[-106.619665,42.488449],[-106.619631,42.492052],[-106.619596,42.495654],[-106.619562,42.499256],[-106.619527,42.502858],[-106.614649,42.502799],[-106.609771,42.50274],[-106.604893,42.502681],[-106.600015,42.502621],[-106.600047,42.499028],[-106.600079,42.495434],[-106.600111,42.49184],[-106.600143,42.488246],[-106.605023,42.488297],[-106.609904,42.488348],[-106.614785,42.488398]]]}},{"type":"Feature","properties":{"sec":"09","frstdivid":"WY060290N0820W0SN090"},"geometry":{"type":"Polygon","coordinates":[[[-106.678176,42.503155],[-106.673302,42.503137],[-106.668427,42.503119],[-106.663552,42.503101],[-106.658678,42.503082],[-106.658687,42.499491],[-106.658697,42.4959],[-106.658706,42.492309],[-106.658716,42.488718],[-106.663603,42.488759],[-106.66849,42.4888],[-106.673377,42.488841],[-106.678265,42.488881],[-106.678242,42.49245],[-106.67822,42.496018],[-106.678198,42.499587],[-106.678176,42.503155]]]}},{"type":"Feature","properties":{"sec":"28","frstdivid":"WY060290N0820W0SN280"},"geometry":{"type":"Polygon","coordinates":[[[-106.658474,42.445556],[-106.663391,42.445603],[-106.668307,42.445651],[-106.673224,42.445698],[-106.67814,42.445746],[-106.678166,42.449353],[-106.678192,42.452961],[-106.678218,42.456569],[-106.678244,42.460176],[-106.673325,42.460132],[-106.668406,42.460087],[-106.663487,42.460043],[-106.658568,42.459998],[-106.658544,42.456387],[-106.658521,42.452777],[-106.658498,42.449166],[-106.658474,42.445556]]]}},{"type":"Feature","properties":{"sec":"03","frstdivid":"WY060290N0820W0SN030"},"geometry":{"type":"Polygon","coordinates":[[[-106.644021,42.502965],[-106.648906,42.503004],[-106.653792,42.503043],[-106.658678,42.503082],[-106.658667,42.506688],[-106.658655,42.510293],[-106.658668,42.513906],[-106.65868,42.517411],[-106.653793,42.517384],[-106.648906,42.517357],[-106.644019,42.51733],[-106.639131,42.517303],[-106.639117,42.513745],[-106.639103,42.510133],[-106.639119,42.506529],[-106.639135,42.502926],[-106.644021,42.502965]]]}},{"type":"Feature","properties":{"sec":"25","frstdivid":"WY060290N0820W0SN250"},"geometry":{"type":"Polygon","coordinates":[[[-106.619602,42.448837],[-106.619634,42.452438],[-106.619666,42.456039],[-106.619699,42.459639],[-106.614799,42.459602],[-106.609899,42.459566],[-106.604999,42.459529],[-106.600099,42.459492],[-106.600066,42.455898],[-106.600032,42.452303],[-106.599998,42.448708],[-106.599964,42.445113],[-106.604865,42.445144],[-106.609767,42.445175],[-106.614668,42.445206],[-106.619569,42.445237],[-106.619602,42.448837]]]}},{"type":"Feature","properties":{"sec":"33","frstdivid":"WY060290N0820W0SN330"},"geometry":{"type":"Polygon","coordinates":[[[-106.673559,42.431265],[-106.67815,42.431306],[-106.678148,42.434916],[-106.678145,42.438526],[-106.678143,42.442136],[-106.67814,42.445746],[-106.673224,42.445698],[-106.668307,42.445651],[-106.663391,42.445603],[-106.658474,42.445556],[-106.658503,42.441948],[-106.658532,42.43834],[-106.658561,42.434733],[-106.65859,42.431125],[-106.659001,42.431129],[-106.66348,42.431172],[-106.663848,42.431175],[-106.66837,42.431218],[-106.668695,42.431221],[-106.67326,42.431262],[-106.673559,42.431265]]]}},{"type":"Feature","properties":{"sec":"36","frstdivid":"WY060290N0820W0SN360"},"geometry":{"type":"Polygon","coordinates":[[[-106.609767,42.445175],[-106.604865,42.445144],[-106.599964,42.445113],[-106.599983,42.441517],[-106.600003,42.437922],[-106.600022,42.434326],[-106.600041,42.43073],[-106.600949,42.430732],[-106.604923,42.430745],[-106.60586,42.430747],[-106.609805,42.43076],[-106.61077,42.430767],[-106.614694,42.430796],[-106.615526,42.430802],[-106.619584,42.430833],[-106.61958,42.434434],[-106.619577,42.438035],[-106.619573,42.441636],[-106.619569,42.445237],[-106.614668,42.445206],[-106.609767,42.445175]]]}},{"type":"Feature","properties":{"sec":"11","frstdivid":"WY060290N0820W0SN110"},"geometry":{"type":"Polygon","coordinates":[[[-106.619665,42.488449],[-106.62454,42.488492],[-106.629415,42.488535],[-106.63429,42.488577],[-106.639165,42.48862],[-106.639157,42.492196],[-106.63915,42.495773],[-106.639142,42.499349],[-106.639135,42.502926],[-106.634233,42.502909],[-106.629331,42.502892],[-106.624429,42.502875],[-106.619527,42.502858],[-106.619562,42.499256],[-106.619596,42.495654],[-106.619631,42.492052],[-106.619665,42.488449]]]}},{"type":"Feature","properties":{"sec":"20","frstdivid":"WY060290N0820W0SN200"},"geometry":{"type":"Polygon","coordinates":[[[-106.697766,42.467571],[-106.697798,42.471171],[-106.697829,42.474771],[-106.692977,42.474728],[-106.688124,42.474685],[-106.683272,42.474642],[-106.67842,42.474598],[-106.678376,42.470993],[-106.678332,42.467387],[-106.678288,42.463782],[-106.678244,42.460176],[-106.683109,42.460225],[-106.687974,42.460274],[-106.692839,42.460322],[-106.697704,42.460371],[-106.697735,42.463971],[-106.697766,42.467571]]]}},{"type":"Feature","properties":{"sec":"22","frstdivid":"WY060290N0820W0SN220"},"geometry":{"type":"Polygon","coordinates":[[[-106.658841,42.467177],[-106.658978,42.470767],[-106.659114,42.474356],[-106.654246,42.474303],[-106.649378,42.47425],[-106.64451,42.474197],[-106.639642,42.474144],[-106.639515,42.470548],[-106.639388,42.466952],[-106.639261,42.463356],[-106.639134,42.459759],[-106.643993,42.459819],[-106.648851,42.459879],[-106.653709,42.459938],[-106.658568,42.459998],[-106.658704,42.463588],[-106.658841,42.467177]]]}},{"type":"Feature","properties":{"sec":"24","frstdivid":"WY060290N0820W0SN240"},"geometry":{"type":"Polygon","coordinates":[[[-106.619996,42.474042],[-106.615088,42.473999],[-106.610181,42.473956],[-106.605274,42.473913],[-106.600366,42.47387],[-106.600299,42.470275],[-106.600233,42.466681],[-106.600166,42.463087],[-106.600099,42.459492],[-106.604999,42.459529],[-106.609899,42.459566],[-106.614799,42.459602],[-106.619699,42.459639],[-106.619773,42.46324],[-106.619847,42.466841],[-106.619922,42.470441],[-106.619996,42.474042]]]}},{"type":"Feature","properties":{"sec":"29","frstdivid":"WY060290N0820W0SN290"},"geometry":{"type":"Polygon","coordinates":[[[-106.692839,42.460322],[-106.687974,42.460274],[-106.683109,42.460225],[-106.678244,42.460176],[-106.678218,42.456569],[-106.678192,42.452961],[-106.678166,42.449353],[-106.67814,42.445746],[-106.683001,42.445796],[-106.687861,42.445846],[-106.692722,42.445895],[-106.697582,42.445945],[-106.697612,42.449552],[-106.697643,42.453158],[-106.697673,42.456765],[-106.697704,42.460371],[-106.692839,42.460322]]]}},{"type":"Feature","properties":{"sec":"34","frstdivid":"WY060290N0820W0SN340"},"geometry":{"type":"Polygon","coordinates":[[[-106.658532,42.43834],[-106.658503,42.441948],[-106.658474,42.445556],[-106.653621,42.445507],[-106.648767,42.445458],[-106.643914,42.445409],[-106.639061,42.445361],[-106.639087,42.441759],[-106.639112,42.438157],[-106.639138,42.434555],[-106.639164,42.430953],[-106.63955,42.430957],[-106.644033,42.431009],[-106.644428,42.431013],[-106.648902,42.431065],[-106.649306,42.431068],[-106.653746,42.431095],[-106.654153,42.431097],[-106.65859,42.431125],[-106.658561,42.434733],[-106.658532,42.43834]]]}},{"type":"Feature","properties":{"sec":"10","frstdivid":"WY060290N0820W0SN100"},"geometry":{"type":"Polygon","coordinates":[[[-106.658706,42.492309],[-106.658697,42.4959],[-106.658687,42.499491],[-106.658678,42.503082],[-106.653792,42.503043],[-106.648906,42.503004],[-106.644021,42.502965],[-106.639135,42.502926],[-106.639142,42.499349],[-106.63915,42.495773],[-106.639157,42.492196],[-106.639165,42.48862],[-106.644053,42.488644],[-106.64894,42.488669],[-106.653828,42.488694],[-106.658716,42.488718],[-106.658706,42.492309]]]}},{"type":"Feature","properties":{"sec":"14","frstdivid":"WY060290N0820W0SN140"},"geometry":{"type":"Polygon","coordinates":[[[-106.639165,42.48862],[-106.63429,42.488577],[-106.629415,42.488535],[-106.62454,42.488492],[-106.619665,42.488449],[-106.619748,42.484847],[-106.619831,42.481246],[-106.619913,42.477644],[-106.619996,42.474042],[-106.624907,42.474067],[-106.629819,42.474093],[-106.63473,42.474119],[-106.639642,42.474144],[-106.639523,42.477763],[-106.639403,42.481382],[-106.639284,42.485001],[-106.639165,42.48862]]]}},{"type":"Feature","properties":{"sec":"26","frstdivid":"WY060290N0820W0SN260"},"geometry":{"type":"Polygon","coordinates":[[[-106.639116,42.45616],[-106.639134,42.459759],[-106.634276,42.459729],[-106.629417,42.459699],[-106.624558,42.459669],[-106.619699,42.459639],[-106.619666,42.456039],[-106.619634,42.452438],[-106.619602,42.448837],[-106.619569,42.445237],[-106.624442,42.445268],[-106.629315,42.445299],[-106.634188,42.44533],[-106.639061,42.445361],[-106.639079,42.44896],[-106.639098,42.45256],[-106.639116,42.45616]]]}},{"type":"Feature","properties":{"sec":"07","frstdivid":"WY060290N0820W0SN070"},"geometry":{"type":"Polygon","coordinates":[[[-106.717209,42.489435],[-106.717201,42.492983],[-106.717194,42.496531],[-106.717153,42.500115],[-106.717112,42.5037],[-106.712312,42.503649],[-106.707429,42.503596],[-106.702559,42.503472],[-106.697689,42.503349],[-106.697743,42.499796],[-106.697797,42.496243],[-106.697852,42.492689],[-106.697906,42.489136],[-106.702774,42.489232],[-106.707642,42.489328],[-106.712523,42.489384],[-106.717209,42.489435]]]}},{"type":"Feature","properties":{"sec":"08","frstdivid":"WY060290N0820W0SN080"},"geometry":{"type":"Polygon","coordinates":[[[-106.688085,42.489009],[-106.692996,42.489073],[-106.697906,42.489136],[-106.697852,42.492689],[-106.697797,42.496243],[-106.697743,42.499796],[-106.697689,42.503349],[-106.692811,42.5033],[-106.687933,42.503252],[-106.683054,42.503204],[-106.678176,42.503155],[-106.678198,42.499587],[-106.67822,42.496018],[-106.678242,42.49245],[-106.678265,42.488881],[-106.683175,42.488945],[-106.688085,42.489009]]]}},{"type":"Feature","properties":{"sec":"17","frstdivid":"WY060290N0820W0SN170"},"geometry":{"type":"Polygon","coordinates":[[[-106.697848,42.478363],[-106.697868,42.481954],[-106.697887,42.485545],[-106.697906,42.489136],[-106.692996,42.489073],[-106.688085,42.489009],[-106.683175,42.488945],[-106.678265,42.488881],[-106.678303,42.485311],[-106.678342,42.48174],[-106.678381,42.478169],[-106.67842,42.474598],[-106.683272,42.474642],[-106.688124,42.474685],[-106.692977,42.474728],[-106.697829,42.474771],[-106.697848,42.478363]]]}},{"type":"Feature","properties":{"sec":"02","frstdivid":"WY060290N0820W0SN020"},"geometry":{"type":"Polygon","coordinates":[[[-106.639117,42.513745],[-106.639131,42.517303],[-106.634244,42.517273],[-106.629357,42.517243],[-106.62447,42.517212],[-106.619583,42.517182],[-106.619565,42.513699],[-106.619546,42.510083],[-106.619537,42.506471],[-106.619527,42.502858],[-106.624429,42.502875],[-106.629331,42.502892],[-106.634233,42.502909],[-106.639135,42.502926],[-106.639119,42.506529],[-106.639103,42.510133],[-106.639117,42.513745]]]}},{"type":"Feature","properties":{"sec":"21","frstdivid":"WY060290N0820W0SN210"},"geometry":{"type":"Polygon","coordinates":[[[-106.678376,42.470993],[-106.67842,42.474598],[-106.673593,42.474538],[-106.668767,42.474477],[-106.663941,42.474417],[-106.659114,42.474356],[-106.658978,42.470767],[-106.658841,42.467177],[-106.658704,42.463588],[-106.658568,42.459998],[-106.663487,42.460043],[-106.668406,42.460087],[-106.673325,42.460132],[-106.678244,42.460176],[-106.678288,42.463782],[-106.678332,42.467387],[-106.678376,42.470993]]]}},{"type":"Feature","properties":{"sec":"27","frstdivid":"WY060290N0820W0SN270"},"geometry":{"type":"Polygon","coordinates":[[[-106.648767,42.445458],[-106.653621,42.445507],[-106.658474,42.445556],[-106.658498,42.449166],[-106.658521,42.452777],[-106.658544,42.456387],[-106.658568,42.459998],[-106.653709,42.459938],[-106.648851,42.459879],[-106.643993,42.459819],[-106.639134,42.459759],[-106.639116,42.45616],[-106.639098,42.45256],[-106.639079,42.44896],[-106.639061,42.445361],[-106.643914,42.445409],[-106.648767,42.445458]]]}},{"type":"Feature","properties":{"sec":"16","frstdivid":"WY060290N0820W0SN160"},"geometry":{"type":"Polygon","coordinates":[[[-106.673593,42.474538],[-106.67842,42.474598],[-106.678381,42.478169],[-106.678342,42.48174],[-106.678303,42.485311],[-106.678265,42.488881],[-106.673377,42.488841],[-106.66849,42.4888],[-106.663603,42.488759],[-106.658716,42.488718],[-106.658816,42.485128],[-106.658915,42.481537],[-106.659015,42.477947],[-106.659114,42.474356],[-106.663941,42.474417],[-106.668767,42.474477],[-106.673593,42.474538]]]}},{"type":"Feature","properties":{"sec":"35","frstdivid":"WY060290N0820W0SN350"},"geometry":{"type":"Polygon","coordinates":[[[-106.634672,42.430926],[-106.639164,42.430953],[-106.639138,42.434555],[-106.639112,42.438157],[-106.639087,42.441759],[-106.639061,42.445361],[-106.634188,42.44533],[-106.629315,42.445299],[-106.624442,42.445268],[-106.619569,42.445237],[-106.619573,42.441636],[-106.619577,42.438035],[-106.61958,42.434434],[-106.619584,42.430833],[-106.620282,42.430836],[-106.624479,42.430863],[-106.625038,42.430866],[-106.629374,42.430894],[-106.629794,42.430896],[-106.634269,42.430924],[-106.634672,42.430926]]]}},{"type":"Feature","properties":{"sec":"15","frstdivid":"WY060290N0820W0SN150"},"geometry":{"type":"Polygon","coordinates":[[[-106.64894,42.488669],[-106.644053,42.488644],[-106.639165,42.48862],[-106.639284,42.485001],[-106.639403,42.481382],[-106.639523,42.477763],[-106.639642,42.474144],[-106.64451,42.474197],[-106.649378,42.47425],[-106.654246,42.474303],[-106.659114,42.474356],[-106.659015,42.477947],[-106.658915,42.481537],[-106.658816,42.485128],[-106.658716,42.488718],[-106.653828,42.488694],[-106.64894,42.488669]]]}},{"type":"Feature","properties":{"sec":"13","frstdivid":"WY060290N0820W0SN130"},"geometry":{"type":"Polygon","coordinates":[[[-106.600143,42.488246],[-106.600198,42.484652],[-106.600254,42.481058],[-106.60031,42.477464],[-106.600366,42.47387],[-106.605274,42.473913],[-106.610181,42.473956],[-106.615088,42.473999],[-106.619996,42.474042],[-106.619913,42.477644],[-106.619831,42.481246],[-106.619748,42.484847],[-106.619665,42.488449],[-106.614785,42.488398],[-106.609904,42.488348],[-106.605023,42.488297],[-106.600143,42.488246]]]}},{"type":"Feature","properties":{"sec":"04","frstdivid":"WY060290N0820W0SN040"},"geometry":{"type":"Polygon","coordinates":[[[-106.673302,42.503137],[-106.678176,42.503155],[-106.678184,42.506749],[-106.678192,42.510343],[-106.678211,42.51395],[-106.678229,42.517518],[-106.673342,42.517491],[-106.668455,42.517465],[-106.663568,42.517438],[-106.65868,42.517411],[-106.658668,42.513906],[-106.658655,42.510293],[-106.658667,42.506688],[-106.658678,42.503082],[-106.663552,42.503101],[-106.668427,42.503119],[-106.673302,42.503137]]]}},{"type":"Feature","properties":{"sec":"31","frstdivid":"WY060290N0820W0SN310"},"geometry":{"type":"Polygon","coordinates":[[[-106.711652,42.431628],[-106.712391,42.431634],[-106.716546,42.43171],[-106.717292,42.431716],[-106.717288,42.435314],[-106.717283,42.438913],[-106.717279,42.442511],[-106.717275,42.44611],[-106.71233,42.446078],[-106.707425,42.446047],[-106.702503,42.445996],[-106.697582,42.445945],[-106.697614,42.442327],[-106.697646,42.438709],[-106.697678,42.43509],[-106.69771,42.431472],[-106.697918,42.431474],[-106.7026,42.43151],[-106.702802,42.431512],[-106.706758,42.431543],[-106.707491,42.431552],[-106.711652,42.431628]]]}},{"type":"Feature","properties":{"sec":"23","frstdivid":"WY060290N0820W0SN230"},"geometry":{"type":"Polygon","coordinates":[[[-106.629417,42.459699],[-106.634276,42.459729],[-106.639134,42.459759],[-106.639261,42.463356],[-106.639388,42.466952],[-106.639515,42.470548],[-106.639642,42.474144],[-106.63473,42.474119],[-106.629819,42.474093],[-106.624907,42.474067],[-106.619996,42.474042],[-106.619922,42.470441],[-106.619847,42.466841],[-106.619773,42.46324],[-106.619699,42.459639],[-106.624558,42.459669],[-106.629417,42.459699]]]}},{"type":"Feature","properties":{"sec":"06","frstdivid":"WY060290N0820W0SN060"},"geometry":{"type":"Polygon","coordinates":[[[-106.717112,42.5037],[-106.717136,42.507204],[-106.71716,42.510708],[-106.717186,42.514212],[-106.717212,42.517717],[-106.712437,42.51769],[-106.707552,42.517662],[-106.702665,42.517637],[-106.697778,42.517612],[-106.69776,42.514114],[-106.697741,42.510513],[-106.697715,42.506931],[-106.697689,42.503349],[-106.702559,42.503472],[-106.707429,42.503596],[-106.712312,42.503649],[-106.717112,42.5037]]]}}]}