{"type":"FeatureCollection","note":"BLM Public Land Survey System. Provided by the Bureau of Land Management as is. These data are neither legal documents nor land surveys and must not be used as such.","features":[{"type":"Feature","properties":{"sec":"19","frstdivid":"MT200090S0320E0UP190"},"geometry":{"type":"Polygon","coordinates":[[[-107.846976,45.043133],[-107.826557,45.043133],[-107.826562,45.028657],[-107.846976,45.028657],[-107.846976,45.043133]]]}},{"type":"Feature","properties":{"sec":"PB 39","frstdivid":"MT200090S0320E0PB390"},"geometry":{"type":"Polygon","coordinates":[[[-107.826551,45.057609],[-107.826546,45.072084],[-107.806371,45.072145],[-107.806395,45.068508],[-107.8064,45.067598],[-107.806411,45.06487],[-107.806422,45.061233],[-107.806428,45.057596],[-107.826551,45.057609]]]}},{"type":"Feature","properties":{"sec":"29","frstdivid":"MT200090S0320E0UP290"},"geometry":{"type":"Polygon","coordinates":[[[-107.826568,45.014182],[-107.826562,45.028657],[-107.806148,45.028657],[-107.806159,45.014181],[-107.826568,45.014182]]]}},{"type":"Feature","properties":{"sec":"PB 40","frstdivid":"MT200090S0320E0PB400"},"geometry":{"type":"Polygon","coordinates":[[[-107.806436,45.053961],[-107.80644,45.050326],[-107.806441,45.046691],[-107.806437,45.043056],[-107.826557,45.043133],[-107.826551,45.057609],[-107.806428,45.057596],[-107.806436,45.053961]]]}},{"type":"Feature","properties":{"sec":"PB 50","frstdivid":"MT200090S0320E0PB500"},"geometry":{"type":"Polygon","coordinates":[[[-107.784867,45.000788],[-107.78575,45.014182],[-107.765342,45.014182],[-107.764224,45.000835],[-107.771992,45.00084],[-107.782625,45.000797],[-107.784867,45.000788]]]}},{"type":"Feature","properties":{"sec":"18","frstdivid":"MT200090S0320E0UP180"},"geometry":{"type":"Polygon","coordinates":[[[-107.846976,45.043133],[-107.846976,45.057609],[-107.826551,45.057609],[-107.826557,45.043133],[-107.846976,45.043133]]]}},{"type":"Feature","properties":{"sec":"02","frstdivid":"MT200090S0320E0SN020"},"geometry":{"type":"Polygon","coordinates":[[[-107.744774,45.071912],[-107.749912,45.071937],[-107.75505,45.07196],[-107.760188,45.071983],[-107.765326,45.072007],[-107.765345,45.075624],[-107.765366,45.079242],[-107.765393,45.08286],[-107.765449,45.086477],[-107.760331,45.086454],[-107.755214,45.086436],[-107.750097,45.086414],[-107.74498,45.086382],[-107.744926,45.082765],[-107.744871,45.079148],[-107.744821,45.07553],[-107.744774,45.071912]]]}},{"type":"Feature","properties":{"sec":"PB 46","frstdivid":"MT200090S0320E0PB460"},"geometry":{"type":"Polygon","coordinates":[[[-107.744907,45.028657],[-107.721691,45.028724],[-107.721683,45.028457],[-107.721678,45.027683],[-107.721538,45.024052],[-107.7214,45.020421],[-107.721284,45.016794],[-107.721208,45.014273],[-107.744933,45.014182],[-107.744907,45.028657]]]}},{"type":"Feature","properties":{"sec":"16","frstdivid":"MT200090S0320E0SN160"},"geometry":{"type":"Polygon","coordinates":[[[-107.785963,45.043091],[-107.791081,45.043088],[-107.7962,45.04308],[-107.801318,45.043071],[-107.806437,45.043056],[-107.806441,45.046691],[-107.80644,45.050326],[-107.806436,45.053961],[-107.806428,45.057596],[-107.801296,45.057598],[-107.796164,45.057598],[-107.791031,45.057596],[-107.785898,45.057592],[-107.785916,45.053967],[-107.785932,45.050342],[-107.785948,45.046716],[-107.785963,45.043091]]]}},{"type":"Feature","properties":{"sec":"04","frstdivid":"MT200090S0320E0SN040"},"geometry":{"type":"Polygon","coordinates":[[[-107.785869,45.079363],[-107.785856,45.075731],[-107.785843,45.072099],[-107.790976,45.072113],[-107.793542,45.072118],[-107.796107,45.072123],[-107.801239,45.072136],[-107.806371,45.072145],[-107.806367,45.075786],[-107.806351,45.079427],[-107.806326,45.083069],[-107.806265,45.08671],[-107.801169,45.08669],[-107.796073,45.086668],[-107.790977,45.086647],[-107.788432,45.086636],[-107.785887,45.086626],[-107.785878,45.082995],[-107.785869,45.079363]]]}},{"type":"Feature","properties":{"sec":"26","frstdivid":"MT200090S0320E0UP260"},"geometry":{"type":"Polygon","coordinates":[[[-107.744933,45.014182],[-107.765342,45.014182],[-107.76532,45.028657],[-107.744907,45.028657],[-107.744933,45.014182]]]}},{"type":"Feature","properties":{"sec":"30","frstdivid":"MT200090S0320E0UP300"},"geometry":{"type":"Polygon","coordinates":[[[-107.826568,45.014182],[-107.846977,45.014182],[-107.846976,45.028657],[-107.826562,45.028657],[-107.826568,45.014182]]]}},{"type":"Feature","properties":{"sec":"10","frstdivid":"MT200090S0320E0SN100"},"geometry":{"type":"Polygon","coordinates":[[[-107.76535,45.057486],[-107.770488,45.057514],[-107.775625,45.057542],[-107.780762,45.057568],[-107.785898,45.057592],[-107.785886,45.061219],[-107.785874,45.064845],[-107.785862,45.067566],[-107.785858,45.068472],[-107.785843,45.072099],[-107.780714,45.072077],[-107.775585,45.072053],[-107.770456,45.07203],[-107.765326,45.072007],[-107.765331,45.068377],[-107.765337,45.064746],[-107.765344,45.061116],[-107.76535,45.057486]]]}},{"type":"Feature","properties":{"sec":"PB 49","frstdivid":"MT200090S0320E0PB490"},"geometry":{"type":"Polygon","coordinates":[[[-107.78575,45.014182],[-107.784867,45.000788],[-107.793776,45.000688],[-107.80389,45.000687],[-107.806172,45.000688],[-107.806159,45.014181],[-107.78575,45.014182]]]}},{"type":"Feature","properties":{"sec":"PB 43","frstdivid":"MT200090S0320E0PB430"},"geometry":{"type":"Polygon","coordinates":[[[-107.785734,45.028657],[-107.785963,45.043091],[-107.780823,45.043068],[-107.775683,45.043042],[-107.770543,45.043014],[-107.765402,45.042984],[-107.76532,45.028657],[-107.785734,45.028657]]]}},{"type":"Feature","properties":{"sec":"14","frstdivid":"MT200090S0320E0SN140"},"geometry":{"type":"Polygon","coordinates":[[[-107.74452,45.042894],[-107.748436,45.042906],[-107.749741,45.04291],[-107.752351,45.042921],[-107.754962,45.042931],[-107.760182,45.042959],[-107.765402,45.042984],[-107.765388,45.046609],[-107.765375,45.050235],[-107.765363,45.05386],[-107.76535,45.057486],[-107.760168,45.057467],[-107.754986,45.057447],[-107.752395,45.05744],[-107.749804,45.057432],[-107.748509,45.05743],[-107.744623,45.057416],[-107.744596,45.053786],[-107.744569,45.050155],[-107.744544,45.046524],[-107.74452,45.042894]]]}},{"type":"Feature","properties":{"sec":"09","frstdivid":"MT200090S0320E0SN090"},"geometry":{"type":"Polygon","coordinates":[[[-107.785898,45.057592],[-107.791031,45.057596],[-107.796164,45.057598],[-107.801296,45.057598],[-107.806428,45.057596],[-107.806422,45.061233],[-107.806411,45.06487],[-107.8064,45.067598],[-107.806395,45.068508],[-107.806371,45.072145],[-107.801239,45.072136],[-107.796107,45.072123],[-107.793542,45.072118],[-107.790976,45.072113],[-107.785843,45.072099],[-107.785858,45.068472],[-107.785862,45.067566],[-107.785874,45.064845],[-107.785886,45.061219],[-107.785898,45.057592]]]}},{"type":"Feature","properties":{"sec":"13","frstdivid":"MT200090S0320E0SN130"},"geometry":{"type":"Polygon","coordinates":[[[-107.722268,45.056644],[-107.722231,45.053812],[-107.722221,45.053051],[-107.722184,45.050182],[-107.722187,45.049458],[-107.722154,45.046551],[-107.722146,45.045802],[-107.722113,45.042921],[-107.728571,45.042917],[-107.734176,45.042846],[-107.738055,45.042861],[-107.739348,45.042865],[-107.74452,45.042894],[-107.744544,45.046524],[-107.744569,45.050155],[-107.744596,45.053786],[-107.744623,45.057416],[-107.739486,45.057398],[-107.738202,45.057395],[-107.73435,45.057384],[-107.728813,45.057447],[-107.722272,45.057442],[-107.722268,45.056644]]]}},{"type":"Feature","properties":{"sec":"PB 42","frstdivid":"MT200090S0320E0PB420"},"geometry":{"type":"Polygon","coordinates":[[[-107.806148,45.028657],[-107.806437,45.043056],[-107.801318,45.043071],[-107.7962,45.04308],[-107.791081,45.043088],[-107.785963,45.043091],[-107.785734,45.028657],[-107.806148,45.028657]]]}},{"type":"Feature","properties":{"sec":"PB 51","frstdivid":"MT200090S0320E0PB510"},"geometry":{"type":"Polygon","coordinates":[[[-107.764224,45.000835],[-107.765342,45.014182],[-107.744933,45.014182],[-107.744401,45.00078],[-107.752451,45.000829],[-107.762283,45.000834],[-107.764224,45.000835]]]}},{"type":"Feature","properties":{"sec":"PB 48","frstdivid":"MT200090S0320E0PB480"},"geometry":{"type":"Polygon","coordinates":[[[-107.826575,45.000687],[-107.826568,45.014182],[-107.806159,45.014181],[-107.806172,45.000688],[-107.813876,45.000688],[-107.82425,45.000687],[-107.826575,45.000687]]]}},{"type":"Feature","properties":{"sec":"PB 37","frstdivid":"MT200090S0320E0PB370"},"geometry":{"type":"Polygon","coordinates":[[[-107.826546,45.072084],[-107.826622,45.086758],[-107.816444,45.086734],[-107.806265,45.08671],[-107.806326,45.083069],[-107.806351,45.079427],[-107.806367,45.075786],[-107.806371,45.072145],[-107.826546,45.072084]]]}},{"type":"Feature","properties":{"sec":"PB 44","frstdivid":"MT200090S0320E0PB440"},"geometry":{"type":"Polygon","coordinates":[[[-107.765402,45.042984],[-107.760182,45.042959],[-107.754962,45.042931],[-107.752351,45.042921],[-107.749741,45.04291],[-107.748436,45.042906],[-107.74452,45.042894],[-107.744907,45.028657],[-107.76532,45.028657],[-107.765402,45.042984]]]}},{"type":"Feature","properties":{"sec":"PB 38","frstdivid":"MT200090S0320E0PB380"},"geometry":{"type":"Polygon","coordinates":[[[-107.826546,45.072084],[-107.846976,45.072085],[-107.846978,45.086795],[-107.8368,45.086777],[-107.826622,45.086758],[-107.826546,45.072084]]]}},{"type":"Feature","properties":{"sec":"27","frstdivid":"MT200090S0320E0UP270"},"geometry":{"type":"Polygon","coordinates":[[[-107.78575,45.014182],[-107.785734,45.028657],[-107.76532,45.028657],[-107.765342,45.014182],[-107.78575,45.014182]]]}},{"type":"Feature","properties":{"sec":"PB 52","frstdivid":"MT200090S0320E0PB520"},"geometry":{"type":"Polygon","coordinates":[[[-107.732911,45.000816],[-107.742964,45.00077],[-107.744401,45.00078],[-107.744933,45.014182],[-107.721208,45.014273],[-107.721197,45.013943],[-107.721193,45.013168],[-107.721053,45.009525],[-107.720955,45.006658],[-107.720952,45.005884],[-107.720939,45.003036],[-107.720931,45.00081],[-107.723063,45.000811],[-107.732911,45.000816]]]}},{"type":"Feature","properties":{"sec":"PB 41","frstdivid":"MT200090S0320E0PB410"},"geometry":{"type":"Polygon","coordinates":[[[-107.826562,45.028657],[-107.826557,45.043133],[-107.806437,45.043056],[-107.806148,45.028657],[-107.826562,45.028657]]]}},{"type":"Feature","properties":{"sec":"01","frstdivid":"MT200090S0320E0SN010"},"geometry":{"type":"Polygon","coordinates":[[[-107.722574,45.075561],[-107.722573,45.075165],[-107.722543,45.071939],[-107.729056,45.07195],[-107.731596,45.071958],[-107.734534,45.071895],[-107.739654,45.071905],[-107.744774,45.071912],[-107.744821,45.07553],[-107.744871,45.079148],[-107.744926,45.082765],[-107.74498,45.086382],[-107.73987,45.086394],[-107.734761,45.086394],[-107.729337,45.086439],[-107.722963,45.086373],[-107.72277,45.082807],[-107.722769,45.082774],[-107.722618,45.079185],[-107.722617,45.079119],[-107.722574,45.075561]]]}},{"type":"Feature","properties":{"sec":"12","frstdivid":"MT200090S0320E0SN120"},"geometry":{"type":"Polygon","coordinates":[[[-107.722548,45.071211],[-107.722478,45.068314],[-107.722462,45.067571],[-107.722396,45.06469],[-107.722389,45.063932],[-107.722336,45.061066],[-107.722323,45.060288],[-107.722272,45.057442],[-107.728813,45.057447],[-107.73435,45.057384],[-107.738202,45.057395],[-107.739486,45.057398],[-107.744623,45.057416],[-107.744658,45.061041],[-107.744695,45.064665],[-107.744733,45.068289],[-107.744774,45.071912],[-107.739654,45.071905],[-107.734534,45.071895],[-107.731596,45.071958],[-107.729056,45.07195],[-107.722543,45.071939],[-107.722548,45.071211]]]}},{"type":"Feature","properties":{"sec":"PB 45","frstdivid":"MT200090S0320E0PB450"},"geometry":{"type":"Polygon","coordinates":[[[-107.721691,45.028724],[-107.744907,45.028657],[-107.74452,45.042894],[-107.739348,45.042865],[-107.738055,45.042861],[-107.734176,45.042846],[-107.728571,45.042917],[-107.722113,45.042921],[-107.722116,45.042146],[-107.721996,45.038529],[-107.721876,45.034912],[-107.721767,45.031296],[-107.721691,45.028724]]]}},{"type":"Feature","properties":{"sec":"03","frstdivid":"MT200090S0320E0SN030"},"geometry":{"type":"Polygon","coordinates":[[[-107.765345,45.075624],[-107.765326,45.072007],[-107.770456,45.07203],[-107.775585,45.072053],[-107.780714,45.072077],[-107.785843,45.072099],[-107.785856,45.075731],[-107.785869,45.079363],[-107.785878,45.082995],[-107.785887,45.086626],[-107.780777,45.086588],[-107.775667,45.086549],[-107.770558,45.086509],[-107.765449,45.086477],[-107.765393,45.08286],[-107.765366,45.079242],[-107.765345,45.075624]]]}},{"type":"Feature","properties":{"sec":"11","frstdivid":"MT200090S0320E0SN110"},"geometry":{"type":"Polygon","coordinates":[[[-107.744623,45.057416],[-107.748509,45.05743],[-107.749804,45.057432],[-107.752395,45.05744],[-107.754986,45.057447],[-107.760168,45.057467],[-107.76535,45.057486],[-107.765344,45.061116],[-107.765337,45.064746],[-107.765331,45.068377],[-107.765326,45.072007],[-107.760188,45.071983],[-107.75505,45.07196],[-107.749912,45.071937],[-107.744774,45.071912],[-107.744733,45.068289],[-107.744695,45.064665],[-107.744658,45.061041],[-107.744623,45.057416]]]}},{"type":"Feature","properties":{"sec":"07","frstdivid":"MT200090S0320E0UP070"},"geometry":{"type":"Polygon","coordinates":[[[-107.846976,45.057609],[-107.846976,45.072085],[-107.826546,45.072084],[-107.826551,45.057609],[-107.846976,45.057609]]]}},{"type":"Feature","properties":{"sec":"15","frstdivid":"MT200090S0320E0SN150"},"geometry":{"type":"Polygon","coordinates":[[[-107.765402,45.042984],[-107.770543,45.043014],[-107.775683,45.043042],[-107.780823,45.043068],[-107.785963,45.043091],[-107.785948,45.046716],[-107.785932,45.050342],[-107.785916,45.053967],[-107.785898,45.057592],[-107.780762,45.057568],[-107.775625,45.057542],[-107.770488,45.057514],[-107.76535,45.057486],[-107.765363,45.05386],[-107.765375,45.050235],[-107.765388,45.046609],[-107.765402,45.042984]]]}},{"type":"Feature","properties":{"sec":"28","frstdivid":"MT200090S0320E0UP280"},"geometry":{"type":"Polygon","coordinates":[[[-107.806159,45.014181],[-107.806148,45.028657],[-107.785734,45.028657],[-107.78575,45.014182],[-107.806159,45.014181]]]}},{"type":"Feature","properties":{"sec":"PB 47","frstdivid":"MT200090S0320E0PB470"},"geometry":{"type":"Polygon","coordinates":[[[-107.826575,45.000687],[-107.83449,45.000688],[-107.844946,45.00068],[-107.846977,45.000679],[-107.846977,45.014182],[-107.826568,45.014182],[-107.826575,45.000687]]]}}]}