{"type":"FeatureCollection","note":"BLM Public Land Survey System. Provided by the Bureau of Land Management as is. These data are neither legal documents nor land surveys and must not be used as such.","features":[{"type":"Feature","properties":{"sec":"07","frstdivid":"WY060390N0640W0SN070"},"geometry":{"type":"Polygon","coordinates":[[[-104.579276,43.378425],[-104.579226,43.374809],[-104.579176,43.371192],[-104.579127,43.367575],[-104.579077,43.363958],[-104.584042,43.363997],[-104.589008,43.364037],[-104.593972,43.364066],[-104.599288,43.364098],[-104.59932,43.367723],[-104.599352,43.371348],[-104.599384,43.374972],[-104.599415,43.378597],[-104.594173,43.378553],[-104.589208,43.378511],[-104.584242,43.378468],[-104.579276,43.378425]]]}},{"type":"Feature","properties":{"sec":"17","frstdivid":"WY060390N0640W0SN170"},"geometry":{"type":"Polygon","coordinates":[[[-104.559161,43.353072],[-104.55917,43.349455],[-104.56413,43.349462],[-104.569089,43.349469],[-104.574048,43.349476],[-104.579007,43.349483],[-104.579024,43.353102],[-104.579042,43.356721],[-104.579059,43.360339],[-104.579077,43.363958],[-104.57409,43.363949],[-104.569104,43.363941],[-104.564117,43.363932],[-104.559131,43.363924],[-104.559141,43.360307],[-104.559151,43.356689],[-104.559161,43.353072]]]}},{"type":"Feature","properties":{"sec":"11","frstdivid":"WY060390N0640W0SN110"},"geometry":{"type":"Polygon","coordinates":[[[-104.519489,43.367438],[-104.51954,43.371045],[-104.51959,43.374652],[-104.51964,43.378259],[-104.514727,43.378291],[-104.509813,43.378323],[-104.5049,43.378356],[-104.499986,43.378388],[-104.499928,43.37477],[-104.49987,43.371153],[-104.499811,43.367536],[-104.499753,43.363918],[-104.504675,43.363896],[-104.509596,43.363875],[-104.514517,43.363853],[-104.519439,43.363831],[-104.519489,43.367438]]]}},{"type":"Feature","properties":{"sec":"03","frstdivid":"WY060390N0640W0SN030"},"geometry":{"type":"Polygon","coordinates":[[[-104.51964,43.378259],[-104.524595,43.37829],[-104.52955,43.37832],[-104.534505,43.37835],[-104.53946,43.378381],[-104.539513,43.381988],[-104.539566,43.385595],[-104.539582,43.389209],[-104.539601,43.393031],[-104.534769,43.39292],[-104.529937,43.39281],[-104.524985,43.392827],[-104.520033,43.392843],[-104.519952,43.3891],[-104.519875,43.385484],[-104.519758,43.381872],[-104.51964,43.378259]]]}},{"type":"Feature","properties":{"sec":"06","frstdivid":"WY060390N0640W0SN060"},"geometry":{"type":"Polygon","coordinates":[[[-104.594173,43.378553],[-104.599415,43.378597],[-104.599476,43.38222],[-104.599536,43.385843],[-104.599566,43.389465],[-104.599596,43.393087],[-104.59425,43.393114],[-104.589228,43.39314],[-104.584207,43.393165],[-104.579185,43.39319],[-104.57918,43.389281],[-104.579171,43.385662],[-104.579223,43.382044],[-104.579276,43.378425],[-104.584242,43.378468],[-104.589208,43.378511],[-104.594173,43.378553]]]}},{"type":"Feature","properties":{"sec":"31","frstdivid":"WY060390N0640W0SN310"},"geometry":{"type":"Polygon","coordinates":[[[-104.578642,43.320558],[-104.578671,43.31694],[-104.5787,43.313323],[-104.578729,43.309705],[-104.578758,43.306087],[-104.583708,43.306107],[-104.588658,43.306128],[-104.593612,43.306131],[-104.599159,43.306136],[-104.599115,43.309762],[-104.599071,43.313387],[-104.599027,43.317013],[-104.598982,43.320638],[-104.593474,43.320622],[-104.588524,43.320607],[-104.583583,43.320583],[-104.578642,43.320558]]]}},{"type":"Feature","properties":{"sec":"26","frstdivid":"WY060390N0640W0SN260"},"geometry":{"type":"Polygon","coordinates":[[[-104.519298,43.32422],[-104.519315,43.327816],[-104.519333,43.331413],[-104.51935,43.33501],[-104.514447,43.335005],[-104.509544,43.335001],[-104.504641,43.334996],[-104.499738,43.334992],[-104.49971,43.331379],[-104.499682,43.327767],[-104.499654,43.324155],[-104.499626,43.320543],[-104.504539,43.320563],[-104.509453,43.320583],[-104.514367,43.320603],[-104.51928,43.320623],[-104.519298,43.32422]]]}},{"type":"Feature","properties":{"sec":"15","frstdivid":"WY060390N0640W0SN150"},"geometry":{"type":"Polygon","coordinates":[[[-104.539264,43.356705],[-104.539293,43.360317],[-104.539322,43.36393],[-104.534351,43.363905],[-104.529381,43.36388],[-104.52441,43.363856],[-104.519439,43.363831],[-104.5194,43.360223],[-104.519361,43.356615],[-104.519322,43.353007],[-104.519282,43.349399],[-104.524263,43.349419],[-104.529244,43.349439],[-104.534225,43.34946],[-104.539206,43.34948],[-104.539235,43.353092],[-104.539264,43.356705]]]}},{"type":"Feature","properties":{"sec":"18","frstdivid":"WY060390N0640W0SN180"},"geometry":{"type":"Polygon","coordinates":[[[-104.593886,43.349574],[-104.599357,43.349612],[-104.599339,43.353233],[-104.599322,43.356855],[-104.599305,43.360477],[-104.599288,43.364098],[-104.593972,43.364066],[-104.589008,43.364037],[-104.584042,43.363997],[-104.579077,43.363958],[-104.579059,43.360339],[-104.579042,43.356721],[-104.579024,43.353102],[-104.579007,43.349483],[-104.583966,43.349511],[-104.588926,43.349538],[-104.593886,43.349574]]]}},{"type":"Feature","properties":{"sec":"16","frstdivid":"WY060390N0640W0SN160"},"geometry":{"type":"Polygon","coordinates":[[[-104.554179,43.363925],[-104.549227,43.363927],[-104.544274,43.363928],[-104.539322,43.36393],[-104.539293,43.360317],[-104.539264,43.356705],[-104.539235,43.353092],[-104.539206,43.34948],[-104.544197,43.349474],[-104.549188,43.349467],[-104.554179,43.349461],[-104.55917,43.349455],[-104.559161,43.353072],[-104.559151,43.356689],[-104.559141,43.360307],[-104.559131,43.363924],[-104.554179,43.363925]]]}},{"type":"Feature","properties":{"sec":"10","frstdivid":"WY060390N0640W0SN100"},"geometry":{"type":"Polygon","coordinates":[[[-104.539322,43.36393],[-104.539357,43.367543],[-104.539391,43.371155],[-104.539426,43.374768],[-104.53946,43.378381],[-104.534505,43.37835],[-104.52955,43.37832],[-104.524595,43.37829],[-104.51964,43.378259],[-104.51959,43.374652],[-104.51954,43.371045],[-104.519489,43.367438],[-104.519439,43.363831],[-104.52441,43.363856],[-104.529381,43.36388],[-104.534351,43.363905],[-104.539322,43.36393]]]}},{"type":"Feature","properties":{"sec":"19","frstdivid":"WY060390N0640W0SN190"},"geometry":{"type":"Polygon","coordinates":[[[-104.599357,43.349612],[-104.593886,43.349574],[-104.588926,43.349538],[-104.583966,43.349511],[-104.579007,43.349483],[-104.579003,43.345867],[-104.579,43.34225],[-104.578997,43.338634],[-104.578993,43.335017],[-104.58395,43.335041],[-104.588907,43.335064],[-104.593865,43.335093],[-104.599299,43.335124],[-104.599314,43.338746],[-104.599328,43.342368],[-104.599342,43.34599],[-104.599357,43.349612]]]}},{"type":"Feature","properties":{"sec":"35","frstdivid":"WY060390N0640W0SN350"},"geometry":{"type":"Polygon","coordinates":[[[-104.509453,43.320583],[-104.504539,43.320563],[-104.499626,43.320543],[-104.49963,43.316929],[-104.499633,43.313315],[-104.499637,43.309701],[-104.49964,43.306087],[-104.504586,43.306126],[-104.509531,43.306164],[-104.514476,43.306203],[-104.519421,43.306242],[-104.519386,43.309837],[-104.519351,43.313433],[-104.519315,43.317028],[-104.51928,43.320623],[-104.514367,43.320603],[-104.509453,43.320583]]]}},{"type":"Feature","properties":{"sec":"23","frstdivid":"WY060390N0640W0SN230"},"geometry":{"type":"Polygon","coordinates":[[[-104.519299,43.345801],[-104.519282,43.349399],[-104.514388,43.349411],[-104.509493,43.349423],[-104.504599,43.349436],[-104.499704,43.349448],[-104.499713,43.345834],[-104.499721,43.34222],[-104.49973,43.338606],[-104.499738,43.334992],[-104.504641,43.334996],[-104.509544,43.335001],[-104.514447,43.335005],[-104.51935,43.33501],[-104.519333,43.338607],[-104.519316,43.342204],[-104.519299,43.345801]]]}},{"type":"Feature","properties":{"sec":"27","frstdivid":"WY060390N0640W0SN270"},"geometry":{"type":"Polygon","coordinates":[[[-104.539273,43.335033],[-104.534292,43.335027],[-104.529312,43.335021],[-104.524331,43.335016],[-104.51935,43.33501],[-104.519333,43.331413],[-104.519315,43.327816],[-104.519298,43.32422],[-104.51928,43.320623],[-104.524245,43.320614],[-104.52921,43.320606],[-104.534176,43.320597],[-104.539141,43.320588],[-104.539174,43.3242],[-104.539207,43.327811],[-104.53924,43.331422],[-104.539273,43.335033]]]}},{"type":"Feature","properties":{"sec":"22","frstdivid":"WY060390N0640W0SN220"},"geometry":{"type":"Polygon","coordinates":[[[-104.51935,43.33501],[-104.524331,43.335016],[-104.529312,43.335021],[-104.534292,43.335027],[-104.539273,43.335033],[-104.539256,43.338645],[-104.539239,43.342257],[-104.539223,43.345868],[-104.539206,43.34948],[-104.534225,43.34946],[-104.529244,43.349439],[-104.524263,43.349419],[-104.519282,43.349399],[-104.519299,43.345801],[-104.519316,43.342204],[-104.519333,43.338607],[-104.51935,43.33501]]]}},{"type":"Feature","properties":{"sec":"20","frstdivid":"WY060390N0640W0SN200"},"geometry":{"type":"Polygon","coordinates":[[[-104.574022,43.33501],[-104.578993,43.335017],[-104.578997,43.338634],[-104.579,43.34225],[-104.579003,43.345867],[-104.579007,43.349483],[-104.574048,43.349476],[-104.569089,43.349469],[-104.56413,43.349462],[-104.55917,43.349455],[-104.559154,43.345838],[-104.559138,43.342221],[-104.559122,43.338604],[-104.559106,43.334987],[-104.564078,43.334995],[-104.56905,43.335002],[-104.574022,43.33501]]]}},{"type":"Feature","properties":{"sec":"29","frstdivid":"WY060390N0640W0SN290"},"geometry":{"type":"Polygon","coordinates":[[[-104.558913,43.320516],[-104.563845,43.320527],[-104.568778,43.320537],[-104.57371,43.320548],[-104.578642,43.320558],[-104.57873,43.324173],[-104.578818,43.327788],[-104.578906,43.331403],[-104.578993,43.335017],[-104.574022,43.33501],[-104.56905,43.335002],[-104.564078,43.334995],[-104.559106,43.334987],[-104.559058,43.331369],[-104.55901,43.327751],[-104.558961,43.324134],[-104.558913,43.320516]]]}},{"type":"Feature","properties":{"sec":"33","frstdivid":"WY060390N0640W0SN330"},"geometry":{"type":"Polygon","coordinates":[[[-104.55397,43.320534],[-104.549027,43.320552],[-104.544084,43.32057],[-104.539141,43.320588],[-104.539156,43.316979],[-104.539172,43.313369],[-104.539187,43.30976],[-104.539202,43.30615],[-104.544147,43.306123],[-104.549092,43.306095],[-104.554037,43.306067],[-104.558982,43.306039],[-104.558965,43.309658],[-104.558947,43.313278],[-104.55893,43.316897],[-104.558913,43.320516],[-104.55397,43.320534]]]}},{"type":"Feature","properties":{"sec":"28","frstdivid":"WY060390N0640W0SN280"},"geometry":{"type":"Polygon","coordinates":[[[-104.558913,43.320516],[-104.558961,43.324134],[-104.55901,43.327751],[-104.559058,43.331369],[-104.559106,43.334987],[-104.554148,43.334999],[-104.549189,43.33501],[-104.544231,43.335022],[-104.539273,43.335033],[-104.53924,43.331422],[-104.539207,43.327811],[-104.539174,43.3242],[-104.539141,43.320588],[-104.544084,43.32057],[-104.549027,43.320552],[-104.55397,43.320534],[-104.558913,43.320516]]]}},{"type":"Feature","properties":{"sec":"30","frstdivid":"WY060390N0640W0SN300"},"geometry":{"type":"Polygon","coordinates":[[[-104.578906,43.331403],[-104.578818,43.327788],[-104.57873,43.324173],[-104.578642,43.320558],[-104.583583,43.320583],[-104.588524,43.320607],[-104.593474,43.320622],[-104.598982,43.320638],[-104.599062,43.32426],[-104.599141,43.327881],[-104.59922,43.331503],[-104.599299,43.335124],[-104.593865,43.335093],[-104.588907,43.335064],[-104.58395,43.335041],[-104.578993,43.335017],[-104.578906,43.331403]]]}},{"type":"Feature","properties":{"sec":"21","frstdivid":"WY060390N0640W0SN210"},"geometry":{"type":"Polygon","coordinates":[[[-104.559106,43.334987],[-104.559122,43.338604],[-104.559138,43.342221],[-104.559154,43.345838],[-104.55917,43.349455],[-104.554179,43.349461],[-104.549188,43.349467],[-104.544197,43.349474],[-104.539206,43.34948],[-104.539223,43.345868],[-104.539239,43.342257],[-104.539256,43.338645],[-104.539273,43.335033],[-104.544231,43.335022],[-104.549189,43.33501],[-104.554148,43.334999],[-104.559106,43.334987]]]}},{"type":"Feature","properties":{"sec":"34","frstdivid":"WY060390N0640W0SN340"},"geometry":{"type":"Polygon","coordinates":[[[-104.51928,43.320623],[-104.519315,43.317028],[-104.519351,43.313433],[-104.519386,43.309837],[-104.519421,43.306242],[-104.524366,43.306219],[-104.529312,43.306196],[-104.534257,43.306173],[-104.539202,43.30615],[-104.539187,43.30976],[-104.539172,43.313369],[-104.539156,43.316979],[-104.539141,43.320588],[-104.534176,43.320597],[-104.52921,43.320606],[-104.524245,43.320614],[-104.51928,43.320623]]]}},{"type":"Feature","properties":{"sec":"32","frstdivid":"WY060390N0640W0SN320"},"geometry":{"type":"Polygon","coordinates":[[[-104.558947,43.313278],[-104.558965,43.309658],[-104.558982,43.306039],[-104.563926,43.306051],[-104.56887,43.306063],[-104.573814,43.306075],[-104.578758,43.306087],[-104.578729,43.309705],[-104.5787,43.313323],[-104.578671,43.31694],[-104.578642,43.320558],[-104.57371,43.320548],[-104.568778,43.320537],[-104.563845,43.320527],[-104.558913,43.320516],[-104.55893,43.316897],[-104.558947,43.313278]]]}},{"type":"Feature","properties":{"sec":"05","frstdivid":"WY060390N0640W0SN050"},"geometry":{"type":"Polygon","coordinates":[[[-104.55936,43.38204],[-104.559395,43.378418],[-104.564365,43.37842],[-104.569335,43.378422],[-104.574305,43.378424],[-104.579276,43.378425],[-104.579223,43.382044],[-104.579171,43.385662],[-104.57918,43.389281],[-104.579185,43.39319],[-104.574208,43.393155],[-104.569232,43.39312],[-104.564255,43.393085],[-104.559278,43.39305],[-104.559303,43.389283],[-104.559326,43.385662],[-104.55936,43.38204]]]}},{"type":"Feature","properties":{"sec":"09","frstdivid":"WY060390N0640W0SN090"},"geometry":{"type":"Polygon","coordinates":[[[-104.539357,43.367543],[-104.539322,43.36393],[-104.544274,43.363928],[-104.549227,43.363927],[-104.554179,43.363925],[-104.559131,43.363924],[-104.559197,43.367547],[-104.559263,43.371171],[-104.559329,43.374794],[-104.559395,43.378418],[-104.554411,43.378408],[-104.549428,43.378399],[-104.544444,43.37839],[-104.53946,43.378381],[-104.539426,43.374768],[-104.539391,43.371155],[-104.539357,43.367543]]]}},{"type":"Feature","properties":{"sec":"08","frstdivid":"WY060390N0640W0SN080"},"geometry":{"type":"Polygon","coordinates":[[[-104.57409,43.363949],[-104.579077,43.363958],[-104.579127,43.367575],[-104.579176,43.371192],[-104.579226,43.374809],[-104.579276,43.378425],[-104.574305,43.378424],[-104.569335,43.378422],[-104.564365,43.37842],[-104.559395,43.378418],[-104.559329,43.374794],[-104.559263,43.371171],[-104.559197,43.367547],[-104.559131,43.363924],[-104.564117,43.363932],[-104.569104,43.363941],[-104.57409,43.363949]]]}},{"type":"Feature","properties":{"sec":"14","frstdivid":"WY060390N0640W0SN140"},"geometry":{"type":"Polygon","coordinates":[[[-104.499729,43.356683],[-104.499716,43.353066],[-104.499704,43.349448],[-104.504599,43.349436],[-104.509493,43.349423],[-104.514388,43.349411],[-104.519282,43.349399],[-104.519322,43.353007],[-104.519361,43.356615],[-104.5194,43.360223],[-104.519439,43.363831],[-104.514517,43.363853],[-104.509596,43.363875],[-104.504675,43.363896],[-104.499753,43.363918],[-104.499741,43.360301],[-104.499729,43.356683]]]}},{"type":"Feature","properties":{"sec":"04","frstdivid":"WY060390N0640W0SN040"},"geometry":{"type":"Polygon","coordinates":[[[-104.559326,43.385662],[-104.559303,43.389283],[-104.559278,43.39305],[-104.554363,43.393031],[-104.549448,43.393012],[-104.544525,43.393021],[-104.539601,43.393031],[-104.539582,43.389209],[-104.539566,43.385595],[-104.539513,43.381988],[-104.53946,43.378381],[-104.544444,43.37839],[-104.549428,43.378399],[-104.554411,43.378408],[-104.559395,43.378418],[-104.55936,43.38204],[-104.559326,43.385662]]]}},{"type":"Feature","properties":{"sec":"02","frstdivid":"WY060390N0640W0SN020"},"geometry":{"type":"Polygon","coordinates":[[[-104.519952,43.3891],[-104.520033,43.392843],[-104.515081,43.39286],[-104.510129,43.392877],[-104.505171,43.392889],[-104.500212,43.392901],[-104.500167,43.389245],[-104.500122,43.385626],[-104.500054,43.382007],[-104.499986,43.378388],[-104.5049,43.378356],[-104.509813,43.378323],[-104.514727,43.378291],[-104.51964,43.378259],[-104.519758,43.381872],[-104.519875,43.385484],[-104.519952,43.3891]]]}},{"type":"Feature","properties":{"sec":"01","frstdivid":"WY060390N0640W0SN010"},"geometry":{"type":"Polygon","coordinates":[[[-104.499986,43.378388],[-104.500054,43.382007],[-104.500122,43.385626],[-104.500167,43.389245],[-104.500212,43.392901],[-104.49524,43.392925],[-104.490268,43.392949],[-104.485296,43.392973],[-104.480325,43.392997],[-104.480339,43.389366],[-104.480353,43.385735],[-104.48038,43.382093],[-104.480407,43.378451],[-104.485302,43.378435],[-104.490197,43.378419],[-104.495091,43.378403],[-104.499986,43.378388]]]}},{"type":"Feature","properties":{"sec":"24","frstdivid":"WY060390N0640W0SN240"},"geometry":{"type":"Polygon","coordinates":[[[-104.499704,43.349448],[-104.494833,43.349385],[-104.489962,43.349322],[-104.485091,43.349259],[-104.480219,43.349196],[-104.480162,43.345616],[-104.480105,43.342036],[-104.480048,43.338455],[-104.47999,43.334875],[-104.484927,43.334904],[-104.489864,43.334933],[-104.494801,43.334962],[-104.499738,43.334992],[-104.49973,43.338606],[-104.499721,43.34222],[-104.499713,43.345834],[-104.499704,43.349448]]]}},{"type":"Feature","properties":{"sec":"36","frstdivid":"WY060390N0640W0SN360"},"geometry":{"type":"Polygon","coordinates":[[[-104.480026,43.32052],[-104.479982,43.316899],[-104.479938,43.313278],[-104.479894,43.309657],[-104.47985,43.306035],[-104.484798,43.306048],[-104.489745,43.306061],[-104.494693,43.306074],[-104.49964,43.306087],[-104.499637,43.309701],[-104.499633,43.313315],[-104.49963,43.316929],[-104.499626,43.320543],[-104.494726,43.320537],[-104.489826,43.320531],[-104.484926,43.320526],[-104.480026,43.32052]]]}},{"type":"Feature","properties":{"sec":"25","frstdivid":"WY060390N0640W0SN250"},"geometry":{"type":"Polygon","coordinates":[[[-104.484927,43.334904],[-104.47999,43.334875],[-104.479999,43.331286],[-104.480008,43.327697],[-104.480017,43.324109],[-104.480026,43.32052],[-104.484926,43.320526],[-104.489826,43.320531],[-104.494726,43.320537],[-104.499626,43.320543],[-104.499654,43.324155],[-104.499682,43.327767],[-104.49971,43.331379],[-104.499738,43.334992],[-104.494801,43.334962],[-104.489864,43.334933],[-104.484927,43.334904]]]}},{"type":"Feature","properties":{"sec":"12","frstdivid":"WY060390N0640W0SN120"},"geometry":{"type":"Polygon","coordinates":[[[-104.499986,43.378388],[-104.495091,43.378403],[-104.490197,43.378419],[-104.485302,43.378435],[-104.480407,43.378451],[-104.480319,43.374838],[-104.480231,43.371225],[-104.480143,43.367612],[-104.480055,43.363999],[-104.48498,43.363979],[-104.489904,43.363959],[-104.494829,43.363939],[-104.499753,43.363918],[-104.499811,43.367536],[-104.49987,43.371153],[-104.499928,43.37477],[-104.499986,43.378388]]]}},{"type":"Feature","properties":{"sec":"13","frstdivid":"WY060390N0640W0SN130"},"geometry":{"type":"Polygon","coordinates":[[[-104.485091,43.349259],[-104.489962,43.349322],[-104.494833,43.349385],[-104.499704,43.349448],[-104.499716,43.353066],[-104.499729,43.356683],[-104.499741,43.360301],[-104.499753,43.363918],[-104.494829,43.363939],[-104.489904,43.363959],[-104.48498,43.363979],[-104.480055,43.363999],[-104.480096,43.360299],[-104.480137,43.356598],[-104.480178,43.352897],[-104.480219,43.349196],[-104.485091,43.349259]]]}}]}