{"type":"FeatureCollection","note":"BLM Public Land Survey System. Provided by the Bureau of Land Management as is. These data are neither legal documents nor land surveys and must not be used as such.","features":[{"type":"Feature","properties":{"sec":"36","frstdivid":"MT200050S0320E0SN360"},"geometry":{"type":"Polygon","coordinates":[[[-107.700394,45.344747],[-107.70429,45.344715],[-107.705521,45.344712],[-107.709419,45.344697],[-107.710649,45.344694],[-107.714547,45.344683],[-107.715776,45.344682],[-107.719676,45.344674],[-107.720903,45.344673],[-107.720907,45.348315],[-107.720899,45.351938],[-107.720891,45.355561],[-107.720882,45.359184],[-107.715767,45.359202],[-107.710652,45.35922],[-107.708094,45.359227],[-107.705537,45.359233],[-107.70032,45.359256],[-107.700321,45.355629],[-107.700327,45.352002],[-107.700345,45.348375],[-107.700394,45.344747]]]}},{"type":"Feature","properties":{"sec":"32","frstdivid":"MT200050S0320E0SN320"},"geometry":{"type":"Polygon","coordinates":[[[-107.781734,45.344522],[-107.785944,45.344494],[-107.786858,45.344489],[-107.791091,45.344462],[-107.791983,45.344456],[-107.796238,45.344429],[-107.797125,45.344423],[-107.801376,45.344396],[-107.802267,45.34439],[-107.802304,45.348023],[-107.802342,45.351656],[-107.802382,45.355305],[-107.802422,45.358953],[-107.797283,45.358964],[-107.792146,45.358963],[-107.787031,45.35898],[-107.781916,45.358998],[-107.781864,45.355383],[-107.781813,45.351768],[-107.781774,45.348145],[-107.781734,45.344522]]]}},{"type":"Feature","properties":{"sec":"31","frstdivid":"MT200050S0320E0SN310"},"geometry":{"type":"Polygon","coordinates":[[[-107.802267,45.34439],[-107.806513,45.344367],[-107.807414,45.344363],[-107.811661,45.34434],[-107.812563,45.344335],[-107.816809,45.344313],[-107.81771,45.344308],[-107.821956,45.344285],[-107.822858,45.34428],[-107.822855,45.347923],[-107.822856,45.351566],[-107.822914,45.355227],[-107.822972,45.358887],[-107.817833,45.358909],[-107.812693,45.358922],[-107.807549,45.358937],[-107.802422,45.358953],[-107.802382,45.355305],[-107.802342,45.351656],[-107.802304,45.348023],[-107.802267,45.34439]]]}},{"type":"Feature","properties":{"sec":"34","frstdivid":"MT200050S0320E0SN340"},"geometry":{"type":"Polygon","coordinates":[[[-107.741485,45.344672],[-107.744849,45.344674],[-107.74614,45.344675],[-107.749956,45.344678],[-107.750795,45.344678],[-107.755063,45.34466],[-107.756476,45.344655],[-107.760171,45.344639],[-107.761074,45.344635],[-107.761155,45.348289],[-107.761233,45.351942],[-107.761286,45.355537],[-107.761339,45.359132],[-107.75692,45.359151],[-107.751782,45.359172],[-107.74921,45.359182],[-107.746639,45.359192],[-107.741495,45.359212],[-107.741496,45.355577],[-107.741496,45.351942],[-107.741494,45.348307],[-107.741485,45.344672]]]}},{"type":"Feature","properties":{"sec":"33","frstdivid":"MT200050S0320E0SN330"},"geometry":{"type":"Polygon","coordinates":[[[-107.761074,45.344635],[-107.76528,45.344618],[-107.766209,45.344614],[-107.770442,45.344596],[-107.771344,45.344592],[-107.775604,45.344563],[-107.776539,45.344557],[-107.780774,45.344528],[-107.781734,45.344522],[-107.781774,45.348145],[-107.781813,45.351768],[-107.781864,45.355383],[-107.781916,45.358998],[-107.776823,45.359059],[-107.771709,45.359132],[-107.766524,45.359132],[-107.761339,45.359132],[-107.761286,45.355537],[-107.761233,45.351942],[-107.761155,45.348289],[-107.761074,45.344635]]]}},{"type":"Feature","properties":{"sec":"35","frstdivid":"MT200050S0320E0SN350"},"geometry":{"type":"Polygon","coordinates":[[[-107.720903,45.344673],[-107.724295,45.344671],[-107.726038,45.344669],[-107.729436,45.344667],[-107.73118,45.344666],[-107.734576,45.344668],[-107.736333,45.344669],[-107.739713,45.344671],[-107.741485,45.344672],[-107.741494,45.348307],[-107.741496,45.351942],[-107.741496,45.355577],[-107.741495,45.359212],[-107.736342,45.359202],[-107.731189,45.359192],[-107.726036,45.359184],[-107.720882,45.359184],[-107.720891,45.355561],[-107.720899,45.351938],[-107.720907,45.348315],[-107.720903,45.344673]]]}},{"type":"Feature","properties":{"sec":"28","frstdivid":"MT200050S0320E0SN280"},"geometry":{"type":"Polygon","coordinates":[[[-107.761339,45.359132],[-107.766524,45.359132],[-107.771709,45.359132],[-107.776823,45.359059],[-107.781916,45.358998],[-107.781936,45.36262],[-107.781957,45.366243],[-107.781978,45.369862],[-107.781989,45.371671],[-107.782,45.373481],[-107.776903,45.373488],[-107.771765,45.373495],[-107.766627,45.373585],[-107.761556,45.373675],[-107.761469,45.37003],[-107.761382,45.366385],[-107.76136,45.362759],[-107.761339,45.359132]]]}},{"type":"Feature","properties":{"sec":"21","frstdivid":"MT200050S0320E0SN210"},"geometry":{"type":"Polygon","coordinates":[[[-107.761556,45.373675],[-107.766627,45.373585],[-107.771765,45.373495],[-107.776903,45.373488],[-107.782,45.373481],[-107.782056,45.37717],[-107.782112,45.380859],[-107.782149,45.384521],[-107.782185,45.388183],[-107.777068,45.388191],[-107.771952,45.388199],[-107.766835,45.388207],[-107.761719,45.388217],[-107.761678,45.384576],[-107.761637,45.380935],[-107.761596,45.377305],[-107.761556,45.373675]]]}},{"type":"Feature","properties":{"sec":"04","frstdivid":"MT200050S0320E0SN040"},"geometry":{"type":"MultiPolygon","coordinates":[[[[-107.761881,45.427184],[-107.761867,45.424646],[-107.761822,45.421004],[-107.76178,45.417363],[-107.766912,45.417354],[-107.772044,45.417347],[-107.777176,45.417343],[-107.782308,45.417337],[-107.782296,45.420995],[-107.782296,45.421176],[-107.779393,45.423932],[-107.778199,45.424617],[-107.777999,45.42473],[-107.777248,45.425115],[-107.776547,45.425474],[-107.775101,45.425845],[-107.773056,45.425945],[-107.772121,45.426061],[-107.771036,45.426196],[-107.769384,45.425701],[-107.768124,45.426323],[-107.767396,45.426499],[-107.766994,45.426705],[-107.766669,45.426871],[-107.765464,45.427181],[-107.761881,45.427184]]],[[[-107.779592,45.425657],[-107.781603,45.4244],[-107.781607,45.427777],[-107.78161,45.431361],[-107.776459,45.431361],[-107.772443,45.431362],[-107.77352,45.430489],[-107.776457,45.428159],[-107.776937,45.427777],[-107.779592,45.425657]]]]}},{"type":"Feature","properties":{"sec":"11","frstdivid":"MT200050S0320E0SN110"},"geometry":{"type":"Polygon","coordinates":[[[-107.720922,45.417127],[-107.720923,45.413502],[-107.720923,45.409877],[-107.720924,45.406247],[-107.720924,45.402616],[-107.726065,45.402613],[-107.731206,45.402611],[-107.736345,45.402616],[-107.74135,45.402623],[-107.741354,45.402915],[-107.74132,45.40624],[-107.741318,45.406523],[-107.741283,45.409857],[-107.741279,45.410131],[-107.741232,45.413479],[-107.741229,45.413753],[-107.74118,45.417374],[-107.736374,45.417411],[-107.736018,45.417414],[-107.731228,45.417451],[-107.730855,45.417454],[-107.726075,45.41749],[-107.725719,45.417492],[-107.720922,45.417528],[-107.720922,45.417127]]]}},{"type":"Feature","properties":{"sec":"06","frstdivid":"MT200050S0320E0SN060"},"geometry":{"type":"Polygon","coordinates":[[[-107.802323,45.416894],[-107.80748,45.416888],[-107.812637,45.416884],[-107.817791,45.416889],[-107.822946,45.416895],[-107.822959,45.420252],[-107.82296,45.42052],[-107.822977,45.423878],[-107.822975,45.424146],[-107.822973,45.427505],[-107.822971,45.427774],[-107.822976,45.431402],[-107.817805,45.431397],[-107.812634,45.431393],[-107.807462,45.431389],[-107.802291,45.431385],[-107.802296,45.427762],[-107.802303,45.424139],[-107.802312,45.420516],[-107.802323,45.416894]]]}},{"type":"Feature","properties":{"sec":"12","frstdivid":"MT200050S0320E0SN120"},"geometry":{"type":"Polygon","coordinates":[[[-107.700313,45.402714],[-107.705544,45.402676],[-107.710671,45.402652],[-107.715797,45.402633],[-107.720924,45.402616],[-107.720924,45.406247],[-107.720923,45.409877],[-107.720923,45.413502],[-107.720922,45.417127],[-107.715819,45.41713],[-107.715791,45.41713],[-107.71068,45.417136],[-107.710661,45.417136],[-107.70554,45.417152],[-107.70553,45.417152],[-107.7004,45.417199],[-107.700359,45.413577],[-107.700338,45.409956],[-107.700324,45.406335],[-107.700313,45.402714]]]}},{"type":"Feature","properties":{"sec":"05","frstdivid":"MT200050S0320E0SN050"},"geometry":{"type":"MultiPolygon","coordinates":[[[[-107.797185,45.416893],[-107.802323,45.416894],[-107.802312,45.420516],[-107.802303,45.424139],[-107.802296,45.427762],[-107.802291,45.431385],[-107.797121,45.431379],[-107.791951,45.431373],[-107.78678,45.431367],[-107.78161,45.431361],[-107.781607,45.427777],[-107.781603,45.4244],[-107.781973,45.424141],[-107.786814,45.420743],[-107.787133,45.420519],[-107.788061,45.419866],[-107.791963,45.417481],[-107.79292,45.416894],[-107.797185,45.416893]]],[[[-107.787461,45.417312],[-107.788696,45.417311],[-107.787463,45.417945],[-107.78643,45.418476],[-107.78353,45.419602],[-107.782438,45.420995],[-107.782296,45.421176],[-107.782296,45.420995],[-107.782308,45.417337],[-107.787461,45.417312]]]]}},{"type":"Feature","properties":{"sec":"01","frstdivid":"MT200050S0320E0SN010"},"geometry":{"type":"Polygon","coordinates":[[[-107.700355,45.424414],[-107.700365,45.420807],[-107.7004,45.417199],[-107.70553,45.417152],[-107.70554,45.417152],[-107.710661,45.417136],[-107.71068,45.417136],[-107.715791,45.41713],[-107.715819,45.41713],[-107.720922,45.417127],[-107.720922,45.417528],[-107.720583,45.417531],[-107.720664,45.420745],[-107.720674,45.42115],[-107.720753,45.424364],[-107.720764,45.424769],[-107.720868,45.427986],[-107.720881,45.428382],[-107.720993,45.432015],[-107.715824,45.432044],[-107.710707,45.432072],[-107.710681,45.432072],[-107.705536,45.432129],[-107.700391,45.432185],[-107.70036,45.42802],[-107.700355,45.424414]]]}},{"type":"Feature","properties":{"sec":"25","frstdivid":"MT200050S0320E0SN250"},"geometry":{"type":"Polygon","coordinates":[[[-107.70032,45.359256],[-107.705537,45.359233],[-107.708094,45.359227],[-107.710652,45.35922],[-107.715767,45.359202],[-107.720882,45.359184],[-107.720876,45.362804],[-107.720869,45.366424],[-107.720867,45.368234],[-107.720865,45.370044],[-107.720858,45.373665],[-107.7183,45.373674],[-107.715743,45.373683],[-107.710627,45.373706],[-107.70807,45.373715],[-107.705512,45.373724],[-107.702954,45.373733],[-107.700269,45.373752],[-107.700279,45.370128],[-107.700291,45.366504],[-107.700305,45.36288],[-107.70032,45.359256]]]}},{"type":"Feature","properties":{"sec":"17","frstdivid":"MT200050S0320E0SN170"},"geometry":{"type":"Polygon","coordinates":[[[-107.782185,45.388183],[-107.787313,45.388182],[-107.789878,45.388182],[-107.792442,45.388181],[-107.797571,45.388181],[-107.8027,45.38818],[-107.802712,45.391818],[-107.802727,45.395456],[-107.80274,45.39908],[-107.802752,45.402705],[-107.797629,45.402723],[-107.792506,45.40274],[-107.787384,45.402759],[-107.782261,45.402777],[-107.782245,45.399138],[-107.782228,45.3955],[-107.782206,45.391842],[-107.782185,45.388183]]]}},{"type":"Feature","properties":{"sec":"24","frstdivid":"MT200050S0320E0SN240"},"geometry":{"type":"Polygon","coordinates":[[[-107.700259,45.384617],[-107.70026,45.382806],[-107.700261,45.380995],[-107.700263,45.379184],[-107.700265,45.377374],[-107.700267,45.375563],[-107.700269,45.373752],[-107.702954,45.373733],[-107.705512,45.373724],[-107.70807,45.373715],[-107.710627,45.373706],[-107.715743,45.373683],[-107.7183,45.373674],[-107.720858,45.373665],[-107.720865,45.375474],[-107.720871,45.377284],[-107.720878,45.379094],[-107.720884,45.380904],[-107.720891,45.382713],[-107.720898,45.384523],[-107.720904,45.386332],[-107.720911,45.388142],[-107.718346,45.38815],[-107.715781,45.388159],[-107.710651,45.388182],[-107.705521,45.388206],[-107.702956,45.388216],[-107.700257,45.388238],[-107.700258,45.386427],[-107.700259,45.384617]]]}},{"type":"Feature","properties":{"sec":"08","frstdivid":"MT200050S0320E0SN080"},"geometry":{"type":"MultiPolygon","coordinates":[[[[-107.797629,45.402723],[-107.802752,45.402705],[-107.802776,45.406323],[-107.800826,45.407761],[-107.799538,45.408354],[-107.798768,45.409078],[-107.797977,45.410011],[-107.797643,45.410378],[-107.795352,45.412901],[-107.794369,45.413646],[-107.794129,45.413827],[-107.792532,45.414778],[-107.791391,45.415457],[-107.789322,45.416522],[-107.788696,45.417311],[-107.787461,45.417312],[-107.782308,45.417337],[-107.782294,45.413694],[-107.782278,45.410052],[-107.782269,45.406414],[-107.782261,45.402777],[-107.787384,45.402759],[-107.792506,45.40274],[-107.797629,45.402723]]],[[[-107.802109,45.409644],[-107.802325,45.409476],[-107.802325,45.409645],[-107.802322,45.413269],[-107.802323,45.416894],[-107.797185,45.416893],[-107.79292,45.416894],[-107.794758,45.415381],[-107.797182,45.413486],[-107.797464,45.413267],[-107.802109,45.409644]]]]}},{"type":"Feature","properties":{"sec":"15","frstdivid":"MT200050S0320E0SN150"},"geometry":{"type":"Polygon","coordinates":[[[-107.74135,45.402623],[-107.741303,45.399285],[-107.741299,45.39901],[-107.741252,45.395656],[-107.741248,45.395396],[-107.741202,45.392041],[-107.741199,45.391795],[-107.741152,45.388427],[-107.741476,45.388423],[-107.746298,45.388367],[-107.746609,45.388363],[-107.751444,45.388307],[-107.751742,45.388304],[-107.756581,45.388262],[-107.756875,45.388259],[-107.761719,45.388217],[-107.761737,45.391883],[-107.761755,45.39555],[-107.761773,45.399189],[-107.76179,45.402829],[-107.756681,45.402852],[-107.754127,45.402862],[-107.751572,45.402873],[-107.746463,45.402894],[-107.741354,45.402915],[-107.74135,45.402623]]]}},{"type":"Feature","properties":{"sec":"26","frstdivid":"MT200050S0320E0SN260"},"geometry":{"type":"Polygon","coordinates":[[[-107.720882,45.359184],[-107.726036,45.359184],[-107.731189,45.359192],[-107.736342,45.359202],[-107.741495,45.359212],[-107.741481,45.362835],[-107.741467,45.366458],[-107.741455,45.370082],[-107.741442,45.373705],[-107.736296,45.373692],[-107.73115,45.373681],[-107.726004,45.373671],[-107.720858,45.373665],[-107.720865,45.370044],[-107.720867,45.368234],[-107.720869,45.366424],[-107.720876,45.362804],[-107.720882,45.359184]]]}},{"type":"Feature","properties":{"sec":"30","frstdivid":"MT200050S0320E0SN300"},"geometry":{"type":"MultiPolygon","coordinates":[[[[-107.802519,45.366193],[-107.802472,45.362573],[-107.802422,45.358953],[-107.807549,45.358937],[-107.812693,45.358922],[-107.817833,45.358909],[-107.822972,45.358887],[-107.82297,45.362506],[-107.822968,45.365665],[-107.825405,45.367695],[-107.824344,45.368329],[-107.8237,45.368584],[-107.821737,45.366123],[-107.8209,45.368221],[-107.819672,45.369801],[-107.819665,45.36981],[-107.817888,45.370546],[-107.815914,45.371362],[-107.814301,45.372257],[-107.813683,45.373448],[-107.81281,45.373448],[-107.807678,45.373478],[-107.802546,45.373511],[-107.802533,45.369852],[-107.802519,45.366193]]],[[[-107.820434,45.373398],[-107.822883,45.372176],[-107.822883,45.373132],[-107.822883,45.373397],[-107.820434,45.373398]]]]}},{"type":"Feature","properties":{"sec":"10","frstdivid":"MT200050S0320E0SN100"},"geometry":{"type":"Polygon","coordinates":[[[-107.741354,45.402915],[-107.746463,45.402894],[-107.751572,45.402873],[-107.754127,45.402862],[-107.756681,45.402852],[-107.76179,45.402829],[-107.761784,45.406459],[-107.761778,45.41009],[-107.761779,45.413726],[-107.76178,45.417363],[-107.75663,45.417369],[-107.75148,45.417371],[-107.748905,45.417372],[-107.74633,45.417372],[-107.74118,45.417374],[-107.741229,45.413753],[-107.741232,45.413479],[-107.741279,45.410131],[-107.741283,45.409857],[-107.741318,45.406523],[-107.74132,45.40624],[-107.741354,45.402915]]]}},{"type":"Feature","properties":{"sec":"02","frstdivid":"MT200050S0320E0SN020"},"geometry":{"type":"Polygon","coordinates":[[[-107.720922,45.417528],[-107.725719,45.417492],[-107.726075,45.41749],[-107.730855,45.417454],[-107.731228,45.417451],[-107.736018,45.417414],[-107.736374,45.417411],[-107.74118,45.417374],[-107.741267,45.421028],[-107.741355,45.424682],[-107.7414,45.428306],[-107.741445,45.431953],[-107.736332,45.431969],[-107.731219,45.431984],[-107.726106,45.431999],[-107.720993,45.432015],[-107.720881,45.428382],[-107.720868,45.427986],[-107.720764,45.424769],[-107.720753,45.424364],[-107.720674,45.42115],[-107.720664,45.420745],[-107.720583,45.417531],[-107.720922,45.417528]]]}},{"type":"Feature","properties":{"sec":"20","frstdivid":"MT200050S0320E0SN200"},"geometry":{"type":"Polygon","coordinates":[[[-107.782,45.373481],[-107.784568,45.373482],[-107.785852,45.373483],[-107.787136,45.373484],[-107.792273,45.373488],[-107.797409,45.373494],[-107.802546,45.373511],[-107.802596,45.377178],[-107.802646,45.380846],[-107.802674,45.384513],[-107.8027,45.38818],[-107.797571,45.388181],[-107.792442,45.388181],[-107.789878,45.388182],[-107.787313,45.388182],[-107.782185,45.388183],[-107.782149,45.384521],[-107.782112,45.380859],[-107.782056,45.37717],[-107.782,45.373481]]]}},{"type":"Feature","properties":{"sec":"03","frstdivid":"MT200050S0320E0SN030"},"geometry":{"type":"Polygon","coordinates":[[[-107.74118,45.417374],[-107.74633,45.417372],[-107.748905,45.417372],[-107.75148,45.417371],[-107.75663,45.417369],[-107.76178,45.417363],[-107.761822,45.421004],[-107.761867,45.424646],[-107.761881,45.427184],[-107.759329,45.427195],[-107.759349,45.428282],[-107.759418,45.431921],[-107.756845,45.431925],[-107.75177,45.431934],[-107.746608,45.431943],[-107.741445,45.431953],[-107.7414,45.428306],[-107.741355,45.424682],[-107.741267,45.421028],[-107.74118,45.417374]]]}},{"type":"Feature","properties":{"sec":"27","frstdivid":"MT200050S0320E0SN270"},"geometry":{"type":"Polygon","coordinates":[[[-107.741495,45.359212],[-107.746639,45.359192],[-107.74921,45.359182],[-107.751782,45.359172],[-107.75692,45.359151],[-107.761339,45.359132],[-107.76136,45.362759],[-107.761382,45.366385],[-107.761469,45.37003],[-107.761556,45.373675],[-107.756878,45.373683],[-107.751737,45.373691],[-107.746589,45.373698],[-107.741442,45.373705],[-107.741455,45.370082],[-107.741467,45.366458],[-107.741481,45.362835],[-107.741495,45.359212]]]}},{"type":"Feature","properties":{"sec":"29","frstdivid":"MT200050S0320E0SN290"},"geometry":{"type":"Polygon","coordinates":[[[-107.781916,45.358998],[-107.787031,45.35898],[-107.792146,45.358963],[-107.797283,45.358964],[-107.802422,45.358953],[-107.802472,45.362573],[-107.802519,45.366193],[-107.802533,45.369852],[-107.802546,45.373511],[-107.797409,45.373494],[-107.792273,45.373488],[-107.787136,45.373484],[-107.785852,45.373483],[-107.784568,45.373482],[-107.782,45.373481],[-107.781989,45.371671],[-107.781978,45.369862],[-107.781957,45.366243],[-107.781936,45.36262],[-107.781916,45.358998]]]}},{"type":"Feature","properties":{"sec":"22","frstdivid":"MT200050S0320E0SN220"},"geometry":{"type":"Polygon","coordinates":[[[-107.741475,45.388193],[-107.741469,45.384572],[-107.741462,45.380951],[-107.741452,45.377328],[-107.741442,45.373705],[-107.746589,45.373698],[-107.751737,45.373691],[-107.756878,45.373683],[-107.761556,45.373675],[-107.761596,45.377305],[-107.761637,45.380935],[-107.761678,45.384576],[-107.761719,45.388217],[-107.756875,45.388259],[-107.756581,45.388262],[-107.751742,45.388304],[-107.751444,45.388307],[-107.746609,45.388363],[-107.746298,45.388367],[-107.741476,45.388423],[-107.741475,45.388193]]]}},{"type":"Feature","properties":{"sec":"16","frstdivid":"MT200050S0320E0SN160"},"geometry":{"type":"Polygon","coordinates":[[[-107.761719,45.388217],[-107.766835,45.388207],[-107.771952,45.388199],[-107.777068,45.388191],[-107.782185,45.388183],[-107.782206,45.391842],[-107.782228,45.3955],[-107.782245,45.399138],[-107.782261,45.402777],[-107.777143,45.402789],[-107.772025,45.402801],[-107.766908,45.402814],[-107.76179,45.402829],[-107.761773,45.399189],[-107.761755,45.39555],[-107.761737,45.391883],[-107.761719,45.388217]]]}},{"type":"Feature","properties":{"sec":"23","frstdivid":"MT200050S0320E0SN230"},"geometry":{"type":"Polygon","coordinates":[[[-107.720878,45.379094],[-107.720871,45.377284],[-107.720865,45.375474],[-107.720858,45.373665],[-107.726004,45.373671],[-107.73115,45.373681],[-107.736296,45.373692],[-107.741442,45.373705],[-107.741452,45.377328],[-107.741462,45.380951],[-107.741469,45.384572],[-107.741475,45.388193],[-107.736332,45.38818],[-107.736294,45.388179],[-107.731189,45.388166],[-107.731163,45.388166],[-107.72605,45.388153],[-107.726037,45.388153],[-107.720911,45.388142],[-107.720904,45.386332],[-107.720898,45.384523],[-107.720891,45.382713],[-107.720884,45.380904],[-107.720878,45.379094]]]}},{"type":"Feature","properties":{"sec":"07","frstdivid":"MT200050S0320E0SN070"},"geometry":{"type":"MultiPolygon","coordinates":[[[[-107.817732,45.40239],[-107.822904,45.402398],[-107.822912,45.405754],[-107.822913,45.406022],[-107.822925,45.409378],[-107.822925,45.409646],[-107.822934,45.413003],[-107.822935,45.413271],[-107.822946,45.416627],[-107.822946,45.416895],[-107.817791,45.416889],[-107.812637,45.416884],[-107.80748,45.416888],[-107.802323,45.416894],[-107.802322,45.413269],[-107.802325,45.409645],[-107.802325,45.409476],[-107.806659,45.406009],[-107.807072,45.40568],[-107.807441,45.405332],[-107.810568,45.402377],[-107.812561,45.402383],[-107.817732,45.40239]]],[[[-107.802752,45.402705],[-107.806743,45.4027],[-107.806609,45.403784],[-107.804814,45.405081],[-107.804215,45.405423],[-107.803661,45.4058],[-107.802776,45.406323],[-107.802752,45.402705]]]]}},{"type":"Feature","properties":{"sec":"14","frstdivid":"MT200050S0320E0SN140"},"geometry":{"type":"Polygon","coordinates":[[[-107.720914,45.39176],[-107.720911,45.388142],[-107.726037,45.388153],[-107.72605,45.388153],[-107.731163,45.388166],[-107.731189,45.388166],[-107.736294,45.388179],[-107.736332,45.38818],[-107.741475,45.388193],[-107.741476,45.388423],[-107.741152,45.388427],[-107.741199,45.391795],[-107.741202,45.392041],[-107.741248,45.395396],[-107.741252,45.395656],[-107.741299,45.39901],[-107.741303,45.399285],[-107.74135,45.402623],[-107.736345,45.402616],[-107.731206,45.402611],[-107.726065,45.402613],[-107.720924,45.402616],[-107.72092,45.398998],[-107.720917,45.395379],[-107.720914,45.39176]]]}},{"type":"Feature","properties":{"sec":"09","frstdivid":"MT200050S0320E0SN090"},"geometry":{"type":"Polygon","coordinates":[[[-107.76179,45.402829],[-107.766908,45.402814],[-107.772025,45.402801],[-107.777143,45.402789],[-107.782261,45.402777],[-107.782269,45.406414],[-107.782278,45.410052],[-107.782294,45.413694],[-107.782308,45.417337],[-107.777176,45.417343],[-107.772044,45.417347],[-107.766912,45.417354],[-107.76178,45.417363],[-107.761779,45.413726],[-107.761778,45.41009],[-107.761784,45.406459],[-107.76179,45.402829]]]}},{"type":"Feature","properties":{"sec":"18","frstdivid":"MT200050S0320E0SN180"},"geometry":{"type":"MultiPolygon","coordinates":[[[[-107.816136,45.388944],[-107.81608,45.387962],[-107.817812,45.387961],[-107.822933,45.387948],[-107.822925,45.391293],[-107.822925,45.391561],[-107.822917,45.394905],[-107.822917,45.395173],[-107.822911,45.398518],[-107.82291,45.398786],[-107.822904,45.40213],[-107.822904,45.402398],[-107.817732,45.40239],[-107.812561,45.402383],[-107.810568,45.402377],[-107.811306,45.40157],[-107.812561,45.400005],[-107.813512,45.398818],[-107.81384,45.398409],[-107.815487,45.395247],[-107.815615,45.395002],[-107.815759,45.392559],[-107.815859,45.391604],[-107.816136,45.388944]]],[[[-107.81608,45.387962],[-107.815623,45.388433],[-107.815548,45.388835],[-107.815022,45.390228],[-107.813768,45.391997],[-107.814341,45.394211],[-107.813441,45.39732],[-107.811266,45.399878],[-107.811288,45.400379],[-107.810844,45.400929],[-107.809878,45.401696],[-107.80986,45.401625],[-107.809906,45.401329],[-107.80978,45.400782],[-107.809074,45.399931],[-107.808724,45.399615],[-107.807453,45.398215],[-107.807172,45.398006],[-107.806741,45.397717],[-107.805943,45.397094],[-107.805866,45.396839],[-107.805435,45.395902],[-107.805165,45.395857],[-107.805595,45.394702],[-107.805875,45.394355],[-107.805924,45.39425],[-107.805858,45.394006],[-107.805634,45.393518],[-107.805428,45.39327],[-107.806459,45.392445],[-107.809569,45.390798],[-107.810027,45.389231],[-107.810149,45.388931],[-107.809864,45.388279],[-107.809482,45.386829],[-107.810291,45.385142],[-107.81058,45.384775],[-107.81119,45.38518],[-107.812345,45.386736],[-107.813247,45.387092],[-107.815577,45.387432],[-107.81608,45.387962]]],[[[-107.806743,45.4027],[-107.802752,45.402705],[-107.80274,45.39908],[-107.802727,45.395456],[-107.802712,45.391818],[-107.8027,45.38818],[-107.804344,45.388182],[-107.806131,45.390197],[-107.80622,45.39182],[-107.806241,45.3922],[-107.805338,45.393082],[-107.805056,45.39378],[-107.804869,45.393903],[-107.80437,45.394933],[-107.804165,45.395457],[-107.803905,45.397267],[-107.804472,45.398857],[-107.804576,45.399081],[-107.805194,45.400416],[-107.806152,45.401496],[-107.806743,45.4027]]]]}},{"type":"Feature","properties":{"sec":"13","frstdivid":"MT200050S0320E0SN130"},"geometry":{"type":"Polygon","coordinates":[[[-107.700257,45.388238],[-107.702956,45.388216],[-107.705521,45.388206],[-107.710651,45.388182],[-107.715781,45.388159],[-107.718346,45.38815],[-107.720911,45.388142],[-107.720914,45.39176],[-107.720917,45.395379],[-107.72092,45.398998],[-107.720924,45.402616],[-107.715797,45.402633],[-107.710671,45.402652],[-107.705544,45.402676],[-107.700313,45.402714],[-107.700298,45.399095],[-107.700283,45.395476],[-107.70027,45.391857],[-107.700257,45.388238]]]}},{"type":"Feature","properties":{"sec":"19","frstdivid":"MT200050S0320E0SN190"},"geometry":{"type":"MultiPolygon","coordinates":[[[[-107.820434,45.373398],[-107.822883,45.373397],[-107.822896,45.376769],[-107.822897,45.377036],[-107.822909,45.380406],[-107.822909,45.380674],[-107.822921,45.384043],[-107.822922,45.384311],[-107.822933,45.38768],[-107.822933,45.387948],[-107.817812,45.387961],[-107.81608,45.387962],[-107.815045,45.386298],[-107.813395,45.384449],[-107.813377,45.384342],[-107.813074,45.382465],[-107.813065,45.380869],[-107.813738,45.380723],[-107.814533,45.380551],[-107.815632,45.379792],[-107.815926,45.377808],[-107.816289,45.37707],[-107.817104,45.375412],[-107.817761,45.374728],[-107.818082,45.374393],[-107.819054,45.37375],[-107.820434,45.373398]]],[[[-107.81281,45.373448],[-107.813683,45.373448],[-107.81281,45.374326],[-107.809996,45.377157],[-107.807867,45.3793],[-107.80773,45.379492],[-107.806764,45.380841],[-107.80731,45.381226],[-107.8071,45.382671],[-107.806403,45.384037],[-107.804394,45.384319],[-107.803973,45.384513],[-107.803105,45.384913],[-107.803292,45.386728],[-107.804056,45.387881],[-107.804344,45.388182],[-107.8027,45.38818],[-107.802674,45.384513],[-107.802646,45.380846],[-107.802596,45.377178],[-107.802546,45.373511],[-107.807678,45.373478],[-107.81281,45.373448]]]]}}]}