{"type":"FeatureCollection","note":"BLM Public Land Survey System. Provided by the Bureau of Land Management as is. These data are neither legal documents nor land surveys and must not be used as such.","features":[{"type":"Feature","properties":{"sec":"12","frstdivid":"MT200120N0500E0SN120"},"geometry":{"type":"Polygon","coordinates":[[[-105.386276,46.814129],[-105.386249,46.817743],[-105.380978,46.817756],[-105.380807,46.817756],[-105.375708,46.817769],[-105.375536,46.817769],[-105.370437,46.817781],[-105.370266,46.817782],[-105.364995,46.817795],[-105.365043,46.814193],[-105.365092,46.810591],[-105.365128,46.806944],[-105.365138,46.805826],[-105.365161,46.80335],[-105.37269,46.803332],[-105.375802,46.803331],[-105.376332,46.803331],[-105.381067,46.803309],[-105.381595,46.803307],[-105.386331,46.803285],[-105.386317,46.806901],[-105.386304,46.810516],[-105.386276,46.814129]]]}},{"type":"Feature","properties":{"sec":"01","frstdivid":"MT200120N0500E0SN010"},"geometry":{"type":"Polygon","coordinates":[[[-105.38617,46.82858],[-105.38617,46.82877],[-105.38617,46.828781],[-105.386141,46.832446],[-105.382882,46.832449],[-105.380599,46.832451],[-105.377596,46.832454],[-105.375315,46.832456],[-105.372309,46.832459],[-105.370029,46.832461],[-105.367021,46.832463],[-105.364743,46.832466],[-105.36481,46.828829],[-105.364876,46.825245],[-105.364933,46.821648],[-105.364995,46.817795],[-105.370266,46.817782],[-105.370437,46.817781],[-105.375536,46.817769],[-105.375708,46.817769],[-105.380807,46.817756],[-105.380978,46.817756],[-105.386249,46.817743],[-105.386221,46.821355],[-105.386221,46.821418],[-105.386221,46.821556],[-105.386195,46.824968],[-105.386195,46.825094],[-105.386195,46.825168],[-105.38617,46.82858]]]}},{"type":"Feature","properties":{"sec":"33","frstdivid":"MT200120N0500E0SN330"},"geometry":{"type":"Polygon","coordinates":[[[-105.429074,46.745345],[-105.430772,46.745341],[-105.434376,46.745332],[-105.436814,46.745326],[-105.439678,46.745319],[-105.444982,46.745307],[-105.450286,46.745295],[-105.45024,46.748931],[-105.450193,46.752566],[-105.450116,46.756194],[-105.450039,46.759821],[-105.444765,46.759799],[-105.439492,46.759777],[-105.43423,46.759757],[-105.434217,46.759757],[-105.429491,46.759751],[-105.428964,46.759751],[-105.429018,46.756171],[-105.429072,46.752591],[-105.429073,46.748968],[-105.429074,46.745345]]]}},{"type":"Feature","properties":{"sec":"21","frstdivid":"MT200120N0500E0SN210"},"geometry":{"type":"Polygon","coordinates":[[[-105.4395,46.774223],[-105.439636,46.774223],[-105.444883,46.77423],[-105.444952,46.77423],[-105.450267,46.774237],[-105.450286,46.777864],[-105.450305,46.781491],[-105.450299,46.785107],[-105.450293,46.788723],[-105.445002,46.788732],[-105.43971,46.788742],[-105.434392,46.788739],[-105.429074,46.788736],[-105.429068,46.785109],[-105.429062,46.781483],[-105.429053,46.777842],[-105.429043,46.7742],[-105.434116,46.774211],[-105.43434,46.774211],[-105.4395,46.774223]]]}},{"type":"Feature","properties":{"sec":"29","frstdivid":"MT200120N0500E0SN290"},"geometry":{"type":"Polygon","coordinates":[[[-105.471305,46.770594],[-105.471311,46.774214],[-105.466129,46.77422],[-105.466097,46.77422],[-105.460884,46.774226],[-105.460842,46.774226],[-105.455575,46.774231],[-105.455554,46.774231],[-105.450267,46.774237],[-105.450198,46.770661],[-105.450198,46.770638],[-105.450129,46.767038],[-105.450084,46.76343],[-105.450039,46.759821],[-105.455371,46.759749],[-105.460704,46.759677],[-105.465985,46.759705],[-105.465995,46.759705],[-105.471287,46.759732],[-105.471293,46.763353],[-105.471299,46.766973],[-105.471305,46.770594]]]}},{"type":"Feature","properties":{"sec":"08","frstdivid":"MT200120N0500E0SN080"},"geometry":{"type":"Polygon","coordinates":[[[-105.47138,46.80683],[-105.471395,46.810451],[-105.471396,46.814064],[-105.471397,46.817677],[-105.465433,46.817694],[-105.460162,46.817708],[-105.454891,46.817734],[-105.449621,46.817761],[-105.449645,46.814143],[-105.44967,46.810526],[-105.44968,46.806908],[-105.449691,46.803217],[-105.450276,46.803217],[-105.454958,46.803215],[-105.455554,46.803215],[-105.460226,46.803213],[-105.460832,46.803213],[-105.465492,46.803211],[-105.466099,46.803211],[-105.471365,46.80321],[-105.47138,46.80683]]]}},{"type":"Feature","properties":{"sec":"09","frstdivid":"MT200120N0500E0SN090"},"geometry":{"type":"Polygon","coordinates":[[[-105.434424,46.80323],[-105.439107,46.803226],[-105.439721,46.803225],[-105.444399,46.803222],[-105.444998,46.803221],[-105.449691,46.803217],[-105.44968,46.806908],[-105.44967,46.810526],[-105.449645,46.814143],[-105.449621,46.817761],[-105.444342,46.817764],[-105.439063,46.817767],[-105.433783,46.81777],[-105.428504,46.817773],[-105.428512,46.814156],[-105.428519,46.810539],[-105.428521,46.806921],[-105.428523,46.803235],[-105.429127,46.803234],[-105.433815,46.80323],[-105.434424,46.80323]]]}},{"type":"Feature","properties":{"sec":"25","frstdivid":"MT200120N0500E0SN250"},"geometry":{"type":"Polygon","coordinates":[[[-105.365288,46.774663],[-105.365303,46.771018],[-105.365317,46.767372],[-105.365338,46.763719],[-105.365359,46.760066],[-105.370674,46.760058],[-105.37599,46.76005],[-105.381306,46.760041],[-105.386621,46.760033],[-105.386598,46.763686],[-105.386574,46.767339],[-105.38655,46.770989],[-105.386526,46.774639],[-105.381217,46.774645],[-105.375907,46.774651],[-105.370598,46.774657],[-105.365288,46.774663]]]}},{"type":"Feature","properties":{"sec":"15","frstdivid":"MT200120N0500E0SN150"},"geometry":{"type":"Polygon","coordinates":[[[-105.40797,46.799634],[-105.407972,46.798585],[-105.407692,46.795785],[-105.407697,46.792873],[-105.407705,46.789233],[-105.413009,46.789235],[-105.417516,46.789236],[-105.422364,46.788735],[-105.423802,46.788735],[-105.429074,46.788736],[-105.429087,46.79236],[-105.4291,46.795985],[-105.429114,46.799609],[-105.429127,46.803234],[-105.428523,46.803235],[-105.42383,46.803238],[-105.423239,46.803238],[-105.418532,46.803241],[-105.417955,46.803242],[-105.413247,46.803247],[-105.412671,46.803248],[-105.407961,46.803253],[-105.40797,46.799634]]]}},{"type":"Feature","properties":{"sec":"06","frstdivid":"MT200120N0500E0SN060"},"geometry":{"type":"Polygon","coordinates":[[[-105.492274,46.817604],[-105.492252,46.821229],[-105.49223,46.824853],[-105.492204,46.828477],[-105.492178,46.832257],[-105.488463,46.832262],[-105.486913,46.832264],[-105.483167,46.832269],[-105.481646,46.832273],[-105.477924,46.832284],[-105.476379,46.832288],[-105.472681,46.832298],[-105.471423,46.832301],[-105.471417,46.828589],[-105.471411,46.824951],[-105.471404,46.821314],[-105.471397,46.817677],[-105.476402,46.817668],[-105.476673,46.817667],[-105.481693,46.817657],[-105.481949,46.817657],[-105.486985,46.817631],[-105.487254,46.81763],[-105.492274,46.817604]]]}},{"type":"Feature","properties":{"sec":"20","frstdivid":"MT200120N0500E0SN200"},"geometry":{"type":"Polygon","coordinates":[[[-105.450299,46.785107],[-105.450305,46.781491],[-105.450286,46.777864],[-105.450267,46.774237],[-105.455554,46.774231],[-105.455575,46.774231],[-105.460842,46.774226],[-105.460884,46.774226],[-105.466097,46.77422],[-105.466129,46.77422],[-105.471311,46.774214],[-105.471317,46.77784],[-105.471323,46.781465],[-105.471329,46.785093],[-105.471335,46.788721],[-105.466074,46.788722],[-105.460814,46.788722],[-105.455554,46.788722],[-105.450293,46.788723],[-105.450299,46.785107]]]}},{"type":"Feature","properties":{"sec":"11","frstdivid":"MT200120N0500E0SN110"},"geometry":{"type":"Polygon","coordinates":[[[-105.386331,46.803285],[-105.386858,46.803283],[-105.391595,46.803271],[-105.392131,46.80327],[-105.396859,46.803259],[-105.397404,46.803257],[-105.402123,46.803255],[-105.402683,46.803255],[-105.407387,46.803253],[-105.407386,46.806925],[-105.407384,46.810541],[-105.40738,46.814154],[-105.407376,46.817767],[-105.402094,46.817761],[-105.396812,46.817755],[-105.391531,46.817749],[-105.386249,46.817743],[-105.386276,46.814129],[-105.386304,46.810516],[-105.386317,46.806901],[-105.386331,46.803285]]]}},{"type":"Feature","properties":{"sec":"19","frstdivid":"MT200120N0500E0SN190"},"geometry":{"type":"Polygon","coordinates":[[[-105.481887,46.788716],[-105.476611,46.788719],[-105.471335,46.788721],[-105.471329,46.785093],[-105.471323,46.781465],[-105.471317,46.77784],[-105.471311,46.774214],[-105.476597,46.774193],[-105.481882,46.774171],[-105.487169,46.77415],[-105.492216,46.774129],[-105.492219,46.777756],[-105.492223,46.781382],[-105.492226,46.785009],[-105.49223,46.788635],[-105.487206,46.788674],[-105.481887,46.788716]]]}},{"type":"Feature","properties":{"sec":"36","frstdivid":"MT200120N0500E0SN360"},"geometry":{"type":"Polygon","coordinates":[[[-105.386595,46.749071],[-105.386604,46.752725],[-105.386613,46.756379],[-105.386621,46.760033],[-105.381306,46.760041],[-105.37599,46.76005],[-105.370674,46.760058],[-105.365359,46.760066],[-105.365357,46.756421],[-105.365355,46.752777],[-105.365359,46.749128],[-105.36535,46.745479],[-105.370654,46.745463],[-105.375946,46.745448],[-105.381266,46.745433],[-105.386587,46.745417],[-105.386595,46.749071]]]}},{"type":"Feature","properties":{"sec":"30","frstdivid":"MT200120N0500E0SN300"},"geometry":{"type":"Polygon","coordinates":[[[-105.487223,46.759671],[-105.492213,46.759654],[-105.492214,46.763273],[-105.492214,46.766892],[-105.492215,46.77051],[-105.492216,46.774129],[-105.487169,46.77415],[-105.481882,46.774171],[-105.476597,46.774193],[-105.471311,46.774214],[-105.471305,46.770594],[-105.471299,46.766973],[-105.471293,46.763353],[-105.471287,46.759732],[-105.476601,46.759711],[-105.481914,46.759689],[-105.487223,46.759671]]]}},{"type":"Feature","properties":{"sec":"14","frstdivid":"MT200120N0500E0SN140"},"geometry":{"type":"Polygon","coordinates":[[[-105.402683,46.803255],[-105.402123,46.803255],[-105.397404,46.803257],[-105.396859,46.803259],[-105.392131,46.80327],[-105.391595,46.803271],[-105.386858,46.803283],[-105.386847,46.799723],[-105.386842,46.797856],[-105.386518,46.794229],[-105.386519,46.792846],[-105.38652,46.789209],[-105.391816,46.789215],[-105.397112,46.789221],[-105.402409,46.789227],[-105.407705,46.789233],[-105.407697,46.792873],[-105.407692,46.795785],[-105.407972,46.798585],[-105.40797,46.799634],[-105.407961,46.803253],[-105.407387,46.803253],[-105.402683,46.803255]]]}},{"type":"Feature","properties":{"sec":"27","frstdivid":"MT200120N0500E0SN270"},"geometry":{"type":"Polygon","coordinates":[[[-105.418463,46.774146],[-105.418139,46.774144],[-105.413193,46.774111],[-105.412836,46.774108],[-105.407533,46.774073],[-105.407616,46.770549],[-105.407699,46.767026],[-105.407761,46.763905],[-105.407771,46.763498],[-105.407855,46.76018],[-105.40786,46.759977],[-105.413138,46.759922],[-105.418417,46.759867],[-105.423691,46.759809],[-105.428964,46.759751],[-105.428958,46.760154],[-105.428906,46.763337],[-105.428864,46.765983],[-105.428848,46.766922],[-105.428791,46.770561],[-105.428762,46.77238],[-105.428733,46.774199],[-105.426084,46.774185],[-105.42476,46.774179],[-105.424098,46.774175],[-105.423753,46.774173],[-105.423436,46.774172],[-105.420787,46.774158],[-105.418463,46.774146]]]}},{"type":"Feature","properties":{"sec":"04","frstdivid":"MT200120N0500E0SN040"},"geometry":{"type":"Polygon","coordinates":[[[-105.428505,46.828627],[-105.428504,46.825009],[-105.428504,46.821391],[-105.428504,46.817773],[-105.433783,46.81777],[-105.439063,46.817767],[-105.444342,46.817764],[-105.449621,46.817761],[-105.449617,46.821384],[-105.449613,46.825007],[-105.449613,46.828628],[-105.449614,46.832349],[-105.446417,46.832354],[-105.444338,46.832357],[-105.441153,46.832362],[-105.439062,46.832366],[-105.435832,46.83237],[-105.433784,46.832373],[-105.430511,46.832377],[-105.428506,46.832381],[-105.428505,46.828627]]]}},{"type":"Feature","properties":{"sec":"28","frstdivid":"MT200120N0500E0SN280"},"geometry":{"type":"Polygon","coordinates":[[[-105.450198,46.770661],[-105.450267,46.774237],[-105.444952,46.77423],[-105.444883,46.77423],[-105.439636,46.774223],[-105.4395,46.774223],[-105.43434,46.774211],[-105.434116,46.774211],[-105.429043,46.7742],[-105.428733,46.774199],[-105.428762,46.77238],[-105.428791,46.770561],[-105.428848,46.766922],[-105.428864,46.765983],[-105.428906,46.763337],[-105.428958,46.760154],[-105.428964,46.759751],[-105.429491,46.759751],[-105.434217,46.759757],[-105.43423,46.759757],[-105.439492,46.759777],[-105.444765,46.759799],[-105.450039,46.759821],[-105.450084,46.76343],[-105.450129,46.767038],[-105.450198,46.770638],[-105.450198,46.770661]]]}},{"type":"Feature","properties":{"sec":"22","frstdivid":"MT200120N0500E0SN220"},"geometry":{"type":"Polygon","coordinates":[[[-105.407533,46.774073],[-105.412836,46.774108],[-105.413193,46.774111],[-105.418139,46.774144],[-105.418463,46.774146],[-105.420787,46.774158],[-105.423436,46.774172],[-105.423753,46.774173],[-105.424098,46.774175],[-105.42476,46.774179],[-105.426084,46.774185],[-105.428733,46.774199],[-105.429043,46.7742],[-105.429053,46.777842],[-105.429062,46.781483],[-105.429068,46.785109],[-105.429074,46.788736],[-105.423802,46.788735],[-105.422364,46.788735],[-105.417516,46.789236],[-105.413009,46.789235],[-105.407705,46.789233],[-105.407663,46.785462],[-105.407621,46.781691],[-105.407583,46.778404],[-105.407578,46.777928],[-105.407538,46.774462],[-105.407533,46.774073]]]}},{"type":"Feature","properties":{"sec":"13","frstdivid":"MT200120N0500E0SN130"},"geometry":{"type":"Polygon","coordinates":[[[-105.386847,46.799723],[-105.386858,46.803283],[-105.386331,46.803285],[-105.381595,46.803307],[-105.381067,46.803309],[-105.376332,46.803331],[-105.375802,46.803331],[-105.37269,46.803332],[-105.365161,46.80335],[-105.36516,46.800184],[-105.365153,46.79654],[-105.365188,46.792896],[-105.365219,46.789251],[-105.370544,46.789241],[-105.375869,46.78923],[-105.381195,46.78922],[-105.38652,46.789209],[-105.386519,46.792846],[-105.386518,46.794229],[-105.386842,46.797856],[-105.386847,46.799723]]]}},{"type":"Feature","properties":{"sec":"18","frstdivid":"MT200120N0500E0SN180"},"geometry":{"type":"Polygon","coordinates":[[[-105.482009,46.803069],[-105.476687,46.803139],[-105.471365,46.80321],[-105.471358,46.799593],[-105.47135,46.795976],[-105.471342,46.792349],[-105.471335,46.788721],[-105.476611,46.788719],[-105.481887,46.788716],[-105.487206,46.788674],[-105.49223,46.788635],[-105.492239,46.792234],[-105.492248,46.795833],[-105.492257,46.799432],[-105.492266,46.803031],[-105.487262,46.80305],[-105.482009,46.803069]]]}},{"type":"Feature","properties":{"sec":"07","frstdivid":"MT200120N0500E0SN070"},"geometry":{"type":"Polygon","coordinates":[[[-105.487254,46.81763],[-105.486985,46.817631],[-105.481949,46.817657],[-105.481693,46.817657],[-105.476673,46.817667],[-105.476402,46.817668],[-105.471397,46.817677],[-105.471396,46.814064],[-105.471395,46.810451],[-105.47138,46.80683],[-105.471365,46.80321],[-105.476687,46.803139],[-105.482009,46.803069],[-105.487262,46.80305],[-105.492266,46.803031],[-105.492268,46.806674],[-105.49227,46.810318],[-105.492272,46.813961],[-105.492274,46.817604],[-105.487254,46.81763]]]}},{"type":"Feature","properties":{"sec":"26","frstdivid":"MT200120N0500E0SN260"},"geometry":{"type":"Polygon","coordinates":[[[-105.386574,46.767339],[-105.386598,46.763686],[-105.386621,46.760033],[-105.391934,46.760019],[-105.397247,46.760005],[-105.402553,46.759991],[-105.40786,46.759977],[-105.407855,46.76018],[-105.407771,46.763498],[-105.407761,46.763905],[-105.407699,46.767026],[-105.407616,46.770549],[-105.407533,46.774073],[-105.406988,46.774123],[-105.402364,46.774551],[-105.401282,46.774652],[-105.397172,46.774648],[-105.391849,46.774643],[-105.386526,46.774639],[-105.38655,46.770989],[-105.386574,46.767339]]]}},{"type":"Feature","properties":{"sec":"34","frstdivid":"MT200120N0500E0SN340"},"geometry":{"type":"Polygon","coordinates":[[[-105.41846,46.745358],[-105.423767,46.745352],[-105.429074,46.745345],[-105.429073,46.748968],[-105.429072,46.752591],[-105.429018,46.756171],[-105.428964,46.759751],[-105.423691,46.759809],[-105.418417,46.759867],[-105.413138,46.759922],[-105.40786,46.759977],[-105.407855,46.756326],[-105.407851,46.752674],[-105.407848,46.749023],[-105.407846,46.745371],[-105.413153,46.745365],[-105.41846,46.745358]]]}},{"type":"Feature","properties":{"sec":"17","frstdivid":"MT200120N0500E0SN170"},"geometry":{"type":"Polygon","coordinates":[[[-105.455554,46.803215],[-105.454958,46.803215],[-105.450276,46.803217],[-105.45028,46.799593],[-105.450285,46.79597],[-105.450289,46.792346],[-105.450293,46.788723],[-105.455554,46.788722],[-105.460814,46.788722],[-105.466074,46.788722],[-105.471335,46.788721],[-105.471342,46.792349],[-105.47135,46.795976],[-105.471358,46.799593],[-105.471365,46.80321],[-105.466099,46.803211],[-105.465492,46.803211],[-105.460832,46.803213],[-105.460226,46.803213],[-105.455554,46.803215]]]}},{"type":"Feature","properties":{"sec":"35","frstdivid":"MT200120N0500E0SN350"},"geometry":{"type":"Polygon","coordinates":[[[-105.386595,46.749071],[-105.386587,46.745417],[-105.391907,46.745402],[-105.397227,46.745387],[-105.402536,46.745379],[-105.407846,46.745371],[-105.407848,46.749023],[-105.407851,46.752674],[-105.407855,46.756326],[-105.40786,46.759977],[-105.402553,46.759991],[-105.397247,46.760005],[-105.391934,46.760019],[-105.386621,46.760033],[-105.386613,46.756379],[-105.386604,46.752725],[-105.386595,46.749071]]]}},{"type":"Feature","properties":{"sec":"05","frstdivid":"MT200120N0500E0SN050"},"geometry":{"type":"Polygon","coordinates":[[[-105.449617,46.821384],[-105.449621,46.817761],[-105.454891,46.817734],[-105.460162,46.817708],[-105.465433,46.817694],[-105.471397,46.817677],[-105.471404,46.821314],[-105.471411,46.824951],[-105.471417,46.828589],[-105.471423,46.832301],[-105.467438,46.832311],[-105.465379,46.832317],[-105.462195,46.832325],[-105.460124,46.832328],[-105.456937,46.832335],[-105.454869,46.832339],[-105.451679,46.832345],[-105.449614,46.832349],[-105.449613,46.828628],[-105.449613,46.825007],[-105.449617,46.821384]]]}},{"type":"Feature","properties":{"sec":"03","frstdivid":"MT200120N0500E0SN030"},"geometry":{"type":"Polygon","coordinates":[[[-105.414589,46.832405],[-105.412647,46.832409],[-105.409315,46.832417],[-105.407361,46.83242],[-105.407363,46.82861],[-105.407365,46.824994],[-105.40737,46.821381],[-105.407376,46.817767],[-105.412658,46.817769],[-105.41794,46.81777],[-105.423222,46.817772],[-105.428504,46.817773],[-105.428504,46.821391],[-105.428504,46.825009],[-105.428505,46.828627],[-105.428506,46.832381],[-105.425187,46.832386],[-105.42322,46.832389],[-105.419864,46.832394],[-105.417933,46.832398],[-105.414589,46.832405]]]}},{"type":"Feature","properties":{"sec":"24","frstdivid":"MT200120N0500E0SN240"},"geometry":{"type":"Polygon","coordinates":[[[-105.375907,46.774651],[-105.381217,46.774645],[-105.386526,46.774639],[-105.386525,46.778281],[-105.386523,46.781924],[-105.386522,46.785567],[-105.38652,46.789209],[-105.381195,46.78922],[-105.375869,46.78923],[-105.370544,46.789241],[-105.365219,46.789251],[-105.365226,46.785609],[-105.365229,46.781966],[-105.365261,46.778315],[-105.365288,46.774663],[-105.370598,46.774657],[-105.375907,46.774651]]]}},{"type":"Feature","properties":{"sec":"31","frstdivid":"MT200120N0500E0SN310"},"geometry":{"type":"Polygon","coordinates":[[[-105.481992,46.745189],[-105.487298,46.745173],[-105.492191,46.745157],[-105.492198,46.748784],[-105.492205,46.752411],[-105.492209,46.756032],[-105.492213,46.759654],[-105.487223,46.759671],[-105.481914,46.759689],[-105.476601,46.759711],[-105.471287,46.759732],[-105.471297,46.756106],[-105.471307,46.752479],[-105.47134,46.748856],[-105.471373,46.745234],[-105.476683,46.745211],[-105.481992,46.745189]]]}},{"type":"Feature","properties":{"sec":"32","frstdivid":"MT200120N0500E0SN320"},"geometry":{"type":"Polygon","coordinates":[[[-105.465995,46.759705],[-105.465985,46.759705],[-105.460704,46.759677],[-105.455371,46.759749],[-105.450039,46.759821],[-105.450116,46.756194],[-105.450193,46.752566],[-105.45024,46.748931],[-105.450286,46.745295],[-105.455523,46.745282],[-105.46076,46.74527],[-105.466067,46.745252],[-105.471373,46.745234],[-105.47134,46.748856],[-105.471307,46.752479],[-105.471297,46.756106],[-105.471287,46.759732],[-105.465995,46.759705]]]}},{"type":"Feature","properties":{"sec":"02","frstdivid":"MT200120N0500E0SN020"},"geometry":{"type":"Polygon","coordinates":[[[-105.38617,46.82858],[-105.386195,46.825168],[-105.386195,46.825094],[-105.386195,46.824968],[-105.386221,46.821556],[-105.386221,46.821418],[-105.386221,46.821355],[-105.386249,46.817743],[-105.391531,46.817749],[-105.396812,46.817755],[-105.402094,46.817761],[-105.407376,46.817767],[-105.40737,46.821381],[-105.407365,46.824994],[-105.407363,46.82861],[-105.407361,46.83242],[-105.404029,46.832425],[-105.402056,46.832427],[-105.398743,46.832432],[-105.39675,46.832434],[-105.393456,46.832438],[-105.391445,46.83244],[-105.388168,46.832443],[-105.386141,46.832446],[-105.38617,46.828781],[-105.38617,46.82877],[-105.38617,46.82858]]]}},{"type":"Feature","properties":{"sec":"23","frstdivid":"MT200120N0500E0SN230"},"geometry":{"type":"Polygon","coordinates":[[[-105.407578,46.777928],[-105.407583,46.778404],[-105.407621,46.781691],[-105.407663,46.785462],[-105.407705,46.789233],[-105.402409,46.789227],[-105.397112,46.789221],[-105.391816,46.789215],[-105.38652,46.789209],[-105.386522,46.785567],[-105.386523,46.781924],[-105.386525,46.778281],[-105.386526,46.774639],[-105.391849,46.774643],[-105.397172,46.774648],[-105.401282,46.774652],[-105.402364,46.774551],[-105.406988,46.774123],[-105.407533,46.774073],[-105.407538,46.774462],[-105.407578,46.777928]]]}},{"type":"Feature","properties":{"sec":"16","frstdivid":"MT200120N0500E0SN160"},"geometry":{"type":"Polygon","coordinates":[[[-105.429087,46.79236],[-105.429074,46.788736],[-105.434392,46.788739],[-105.43971,46.788742],[-105.445002,46.788732],[-105.450293,46.788723],[-105.450289,46.792346],[-105.450285,46.79597],[-105.45028,46.799593],[-105.450276,46.803217],[-105.449691,46.803217],[-105.444998,46.803221],[-105.444399,46.803222],[-105.439721,46.803225],[-105.439107,46.803226],[-105.434424,46.80323],[-105.433815,46.80323],[-105.429127,46.803234],[-105.429114,46.799609],[-105.4291,46.795985],[-105.429087,46.79236]]]}},{"type":"Feature","properties":{"sec":"10","frstdivid":"MT200120N0500E0SN100"},"geometry":{"type":"Polygon","coordinates":[[[-105.428523,46.803235],[-105.428521,46.806921],[-105.428519,46.810539],[-105.428512,46.814156],[-105.428504,46.817773],[-105.423222,46.817772],[-105.41794,46.81777],[-105.412658,46.817769],[-105.407376,46.817767],[-105.40738,46.814154],[-105.407384,46.810541],[-105.407386,46.806925],[-105.407387,46.803253],[-105.407961,46.803253],[-105.412671,46.803248],[-105.413247,46.803247],[-105.417955,46.803242],[-105.418532,46.803241],[-105.423239,46.803238],[-105.42383,46.803238],[-105.428523,46.803235]]]}}]}