{"type":"FeatureCollection","note":"BLM Public Land Survey System. Provided by the Bureau of Land Management as is. These data are neither legal documents nor land surveys and must not be used as such.","features":[{"type":"Feature","properties":{"sec":"30","frstdivid":"WY060520N0730W0SN300"},"geometry":{"type":"Polygon","coordinates":[[[-105.679791,44.448894],[-105.684574,44.448915],[-105.689356,44.448935],[-105.694556,44.448958],[-105.694553,44.452552],[-105.694551,44.456146],[-105.694548,44.459741],[-105.694545,44.463335],[-105.689111,44.463295],[-105.684204,44.463259],[-105.679296,44.463223],[-105.674388,44.463186],[-105.674543,44.459608],[-105.674698,44.456029],[-105.674853,44.452451],[-105.675008,44.448873],[-105.679791,44.448894]]]}},{"type":"Feature","properties":{"sec":"22","frstdivid":"WY060520N0730W0SN220"},"geometry":{"type":"Polygon","coordinates":[[[-105.613137,44.474885],[-105.613179,44.47136],[-105.61322,44.467835],[-105.613262,44.464311],[-105.618417,44.464231],[-105.623571,44.464152],[-105.628725,44.464072],[-105.63388,44.463993],[-105.633818,44.467554],[-105.633757,44.471114],[-105.633695,44.474675],[-105.633634,44.478236],[-105.628515,44.478285],[-105.623396,44.478334],[-105.618246,44.478372],[-105.613095,44.47841],[-105.613137,44.474885]]]}},{"type":"Feature","properties":{"sec":"11","frstdivid":"WY060520N0730W0SN110"},"geometry":{"type":"Polygon","coordinates":[[[-105.613049,44.500128],[-105.613101,44.503748],[-105.613153,44.507368],[-105.608026,44.507486],[-105.602898,44.507604],[-105.59777,44.507722],[-105.592642,44.50784],[-105.592617,44.504169],[-105.592592,44.500498],[-105.592567,44.496826],[-105.592541,44.493155],[-105.597642,44.493088],[-105.602743,44.493022],[-105.607844,44.492955],[-105.612944,44.492889],[-105.612997,44.496509],[-105.613049,44.500128]]]}},{"type":"Feature","properties":{"sec":"18","frstdivid":"WY060520N0730W0SN180"},"geometry":{"type":"Polygon","coordinates":[[[-105.694516,44.478238],[-105.69451,44.481872],[-105.694504,44.485505],[-105.694498,44.489139],[-105.694492,44.492772],[-105.689017,44.492619],[-105.684171,44.492483],[-105.679316,44.492516],[-105.674461,44.492549],[-105.674425,44.488879],[-105.674389,44.485209],[-105.674353,44.481539],[-105.674316,44.477868],[-105.679277,44.478088],[-105.684237,44.478308],[-105.689093,44.478275],[-105.694516,44.478238]]]}},{"type":"Feature","properties":{"sec":"02","frstdivid":"WY060520N0730W0SN020"},"geometry":{"type":"Polygon","coordinates":[[[-105.594833,44.524],[-105.594683,44.524001],[-105.589654,44.524039],[-105.590404,44.519975],[-105.59115,44.515931],[-105.591896,44.511886],[-105.592642,44.50784],[-105.59777,44.507722],[-105.602898,44.507604],[-105.608026,44.507486],[-105.613153,44.507368],[-105.612462,44.511462],[-105.611771,44.515556],[-105.61108,44.519649],[-105.610368,44.523863],[-105.610118,44.523866],[-105.60519,44.523924],[-105.605026,44.523926],[-105.600011,44.523962],[-105.599854,44.523964],[-105.594833,44.524]]]}},{"type":"Feature","properties":{"sec":"26","frstdivid":"WY060520N0730W0SN260"},"geometry":{"type":"Polygon","coordinates":[[[-105.613267,44.460787],[-105.613262,44.464311],[-105.608133,44.464303],[-105.603004,44.464296],[-105.597875,44.464289],[-105.592746,44.464282],[-105.59279,44.460711],[-105.592834,44.45714],[-105.592887,44.453561],[-105.59294,44.449981],[-105.597969,44.449941],[-105.602998,44.449901],[-105.60814,44.450006],[-105.613282,44.450111],[-105.613277,44.453687],[-105.613272,44.457263],[-105.613267,44.460787]]]}},{"type":"Feature","properties":{"sec":"03","frstdivid":"WY060520N0730W0SN030"},"geometry":{"type":"Polygon","coordinates":[[[-105.633523,44.507424],[-105.632817,44.511711],[-105.632111,44.515998],[-105.631412,44.519713],[-105.630678,44.523607],[-105.63061,44.523607],[-105.6256,44.523642],[-105.625477,44.523643],[-105.620523,44.523722],[-105.620343,44.523725],[-105.615446,44.523803],[-105.61521,44.523807],[-105.610368,44.523863],[-105.61108,44.519649],[-105.611771,44.515556],[-105.612462,44.511462],[-105.613153,44.507368],[-105.618246,44.507382],[-105.623338,44.507396],[-105.628431,44.50741],[-105.633523,44.507424]]]}},{"type":"Feature","properties":{"sec":"06","frstdivid":"WY060520N0730W0SN060"},"geometry":{"type":"Polygon","coordinates":[[[-105.673187,44.519035],[-105.674236,44.51456],[-105.674271,44.510903],[-105.674305,44.507247],[-105.679171,44.507108],[-105.684038,44.506968],[-105.688905,44.506828],[-105.694447,44.506669],[-105.693998,44.510944],[-105.693549,44.515219],[-105.6931,44.519493],[-105.692633,44.523937],[-105.691597,44.523925],[-105.686903,44.52387],[-105.686661,44.523867],[-105.681967,44.523813],[-105.681725,44.52381],[-105.67703,44.523756],[-105.676789,44.523753],[-105.672094,44.523697],[-105.673187,44.519035]]]}},{"type":"Feature","properties":{"sec":"10","frstdivid":"WY060520N0730W0SN100"},"geometry":{"type":"Polygon","coordinates":[[[-105.618246,44.507382],[-105.613153,44.507368],[-105.613101,44.503748],[-105.613049,44.500128],[-105.612997,44.496509],[-105.612944,44.492889],[-105.618071,44.492865],[-105.623198,44.492841],[-105.628325,44.492818],[-105.633452,44.492794],[-105.633418,44.496438],[-105.633383,44.500082],[-105.633453,44.503753],[-105.633523,44.507424],[-105.628431,44.50741],[-105.623338,44.507396],[-105.618246,44.507382]]]}},{"type":"Feature","properties":{"sec":"21","frstdivid":"WY060520N0730W0SN210"},"geometry":{"type":"Polygon","coordinates":[[[-105.648991,44.478103],[-105.643872,44.478148],[-105.638753,44.478192],[-105.633634,44.478236],[-105.633695,44.474675],[-105.633757,44.471114],[-105.633818,44.467554],[-105.63388,44.463993],[-105.638917,44.46394],[-105.643955,44.463886],[-105.648993,44.463832],[-105.65403,44.463779],[-105.65405,44.467349],[-105.65407,44.470919],[-105.65409,44.474489],[-105.65411,44.478059],[-105.648991,44.478103]]]}},{"type":"Feature","properties":{"sec":"36","frstdivid":"WY060520N0730W0SN360"},"geometry":{"type":"Polygon","coordinates":[[[-105.59294,44.449981],[-105.586522,44.45016],[-105.580104,44.45034],[-105.573685,44.450483],[-105.567267,44.450627],[-105.568682,44.446889],[-105.570097,44.443152],[-105.571512,44.439415],[-105.572926,44.435678],[-105.577976,44.435679],[-105.583025,44.43568],[-105.588075,44.435681],[-105.593124,44.435682],[-105.593078,44.439257],[-105.593032,44.442831],[-105.592986,44.446406],[-105.59294,44.449981]]]}},{"type":"Feature","properties":{"sec":"24","frstdivid":"WY060520N0730W0SN240"},"geometry":{"type":"Polygon","coordinates":[[[-105.586376,44.464544],[-105.592746,44.464282],[-105.592715,44.467772],[-105.592685,44.471263],[-105.592675,44.472852],[-105.592674,44.472928],[-105.592662,44.474911],[-105.592639,44.47856],[-105.586308,44.478953],[-105.579977,44.479346],[-105.573646,44.479739],[-105.567315,44.480132],[-105.567278,44.476402],[-105.567238,44.472682],[-105.567254,44.469],[-105.56726,44.465352],[-105.573637,44.465068],[-105.580003,44.464817],[-105.586376,44.464544]]]}},{"type":"Feature","properties":{"sec":"12","frstdivid":"WY060520N0730W0SN120"},"geometry":{"type":"Polygon","coordinates":[[[-105.56731,44.509693],[-105.567308,44.505978],[-105.567307,44.502263],[-105.567316,44.498562],[-105.567325,44.494861],[-105.573629,44.494434],[-105.579933,44.494008],[-105.586237,44.493581],[-105.592541,44.493155],[-105.592567,44.496826],[-105.592592,44.500498],[-105.592617,44.504169],[-105.592642,44.50784],[-105.586309,44.508303],[-105.579976,44.508766],[-105.573643,44.50923],[-105.56731,44.509693]]]}},{"type":"Feature","properties":{"sec":"23","frstdivid":"WY060520N0730W0SN230"},"geometry":{"type":"Polygon","coordinates":[[[-105.608133,44.464303],[-105.613262,44.464311],[-105.61322,44.467835],[-105.613179,44.47136],[-105.613137,44.474885],[-105.613095,44.47841],[-105.607981,44.478448],[-105.602867,44.478485],[-105.597753,44.478523],[-105.592639,44.47856],[-105.592662,44.474911],[-105.592685,44.471263],[-105.592715,44.467772],[-105.592746,44.464282],[-105.597875,44.464289],[-105.603004,44.464296],[-105.608133,44.464303]]]}},{"type":"Feature","properties":{"sec":"25","frstdivid":"WY060520N0730W0SN250"},"geometry":{"type":"Polygon","coordinates":[[[-105.586522,44.45016],[-105.59294,44.449981],[-105.592887,44.453561],[-105.592834,44.45714],[-105.59279,44.460711],[-105.592746,44.464282],[-105.586376,44.464544],[-105.580003,44.464817],[-105.573637,44.465068],[-105.56726,44.465352],[-105.56728,44.461659],[-105.567288,44.458],[-105.56728,44.454308],[-105.567267,44.450627],[-105.573685,44.450483],[-105.580104,44.45034],[-105.586522,44.45016]]]}},{"type":"Feature","properties":{"sec":"08","frstdivid":"WY060520N0730W0SN080"},"geometry":{"type":"Polygon","coordinates":[[[-105.674305,44.507247],[-105.669177,44.507264],[-105.664049,44.507282],[-105.658966,44.5073],[-105.653882,44.507317],[-105.653825,44.503691],[-105.653767,44.500065],[-105.653709,44.496439],[-105.653651,44.492813],[-105.658883,44.492807],[-105.664115,44.492801],[-105.669288,44.492675],[-105.674461,44.492549],[-105.674421,44.496204],[-105.674381,44.499859],[-105.674343,44.503553],[-105.674305,44.507247]]]}},{"type":"Feature","properties":{"sec":"29","frstdivid":"WY060520N0730W0SN290"},"geometry":{"type":"Polygon","coordinates":[[[-105.674543,44.459608],[-105.674388,44.463186],[-105.669299,44.463334],[-105.664209,44.463483],[-105.65912,44.463631],[-105.65403,44.463779],[-105.654135,44.460209],[-105.654239,44.456638],[-105.654344,44.453068],[-105.654449,44.449498],[-105.659588,44.449342],[-105.664728,44.449185],[-105.669868,44.449029],[-105.675008,44.448873],[-105.674853,44.452451],[-105.674698,44.456029],[-105.674543,44.459608]]]}},{"type":"Feature","properties":{"sec":"01","frstdivid":"WY060520N0730W0SN010"},"geometry":{"type":"Polygon","coordinates":[[[-105.579407,44.524194],[-105.578532,44.524214],[-105.574325,44.52431],[-105.572971,44.524317],[-105.568816,44.524339],[-105.567408,44.524347],[-105.567381,44.520684],[-105.567353,44.517021],[-105.567331,44.513357],[-105.56731,44.509693],[-105.573643,44.50923],[-105.579976,44.508766],[-105.586309,44.508303],[-105.592642,44.50784],[-105.591896,44.511886],[-105.59115,44.515931],[-105.590404,44.519975],[-105.589654,44.524039],[-105.589586,44.52404],[-105.584488,44.524079],[-105.584092,44.524088],[-105.579407,44.524194]]]}},{"type":"Feature","properties":{"sec":"05","frstdivid":"WY060520N0730W0SN050"},"geometry":{"type":"Polygon","coordinates":[[[-105.667089,44.523638],[-105.666917,44.523636],[-105.662084,44.523579],[-105.66198,44.523578],[-105.657079,44.52352],[-105.657044,44.52352],[-105.652073,44.523531],[-105.652917,44.51904],[-105.653741,44.51465],[-105.653812,44.510984],[-105.653882,44.507317],[-105.658966,44.5073],[-105.664049,44.507282],[-105.669177,44.507264],[-105.674305,44.507247],[-105.674271,44.510903],[-105.674236,44.51456],[-105.673187,44.519035],[-105.672094,44.523697],[-105.671853,44.523694],[-105.667089,44.523638]]]}},{"type":"Feature","properties":{"sec":"35","frstdivid":"WY060520N0730W0SN350"},"geometry":{"type":"Polygon","coordinates":[[[-105.593124,44.435682],[-105.598139,44.435739],[-105.603154,44.435795],[-105.608376,44.435803],[-105.613599,44.435811],[-105.61352,44.439386],[-105.613441,44.442961],[-105.613361,44.446536],[-105.613282,44.450111],[-105.60814,44.450006],[-105.602998,44.449901],[-105.597969,44.449941],[-105.59294,44.449981],[-105.592986,44.446406],[-105.593032,44.442831],[-105.593078,44.439257],[-105.593124,44.435682]]]}},{"type":"Feature","properties":{"sec":"34","frstdivid":"WY060520N0730W0SN340"},"geometry":{"type":"Polygon","coordinates":[[[-105.613282,44.450111],[-105.613361,44.446536],[-105.613441,44.442961],[-105.61352,44.439386],[-105.613599,44.435811],[-105.618622,44.435735],[-105.623645,44.435659],[-105.628668,44.435583],[-105.633691,44.435507],[-105.633751,44.439068],[-105.63381,44.442628],[-105.63387,44.446189],[-105.63393,44.449749],[-105.628768,44.44984],[-105.623606,44.44993],[-105.618444,44.450021],[-105.613282,44.450111]]]}},{"type":"Feature","properties":{"sec":"19","frstdivid":"WY060520N0730W0SN190"},"geometry":{"type":"Polygon","coordinates":[[[-105.694545,44.463335],[-105.694538,44.467061],[-105.69453,44.470787],[-105.694523,44.474512],[-105.694516,44.478238],[-105.689093,44.478275],[-105.684237,44.478308],[-105.679277,44.478088],[-105.674316,44.477868],[-105.674334,44.474198],[-105.674352,44.470527],[-105.67437,44.466857],[-105.674388,44.463186],[-105.679296,44.463223],[-105.684204,44.463259],[-105.689111,44.463295],[-105.694545,44.463335]]]}},{"type":"Feature","properties":{"sec":"27","frstdivid":"WY060520N0730W0SN270"},"geometry":{"type":"Polygon","coordinates":[[[-105.633917,44.45331],[-105.633905,44.456871],[-105.633892,44.460432],[-105.63388,44.463993],[-105.628725,44.464072],[-105.623571,44.464152],[-105.618417,44.464231],[-105.613262,44.464311],[-105.613267,44.460787],[-105.613272,44.457263],[-105.613277,44.453687],[-105.613282,44.450111],[-105.618444,44.450021],[-105.623606,44.44993],[-105.628768,44.44984],[-105.63393,44.449749],[-105.633917,44.45331]]]}},{"type":"Feature","properties":{"sec":"33","frstdivid":"WY060520N0730W0SN330"},"geometry":{"type":"Polygon","coordinates":[[[-105.63381,44.442628],[-105.633751,44.439068],[-105.633691,44.435507],[-105.638683,44.435435],[-105.643674,44.435363],[-105.648666,44.43529],[-105.653657,44.435218],[-105.653855,44.438788],[-105.654053,44.442358],[-105.654251,44.445928],[-105.654449,44.449498],[-105.649319,44.449561],[-105.644189,44.449624],[-105.639059,44.449687],[-105.63393,44.449749],[-105.63387,44.446189],[-105.63381,44.442628]]]}},{"type":"Feature","properties":{"sec":"32","frstdivid":"WY060520N0730W0SN320"},"geometry":{"type":"Polygon","coordinates":[[[-105.658587,44.43506],[-105.663516,44.434903],[-105.668387,44.434795],[-105.673257,44.434687],[-105.673694,44.438233],[-105.674132,44.44178],[-105.67457,44.445326],[-105.675008,44.448873],[-105.669868,44.449029],[-105.664728,44.449185],[-105.659588,44.449342],[-105.654449,44.449498],[-105.654251,44.445928],[-105.654053,44.442358],[-105.653855,44.438788],[-105.653657,44.435218],[-105.658587,44.43506]]]}},{"type":"Feature","properties":{"sec":"31","frstdivid":"WY060520N0730W0SN310"},"geometry":{"type":"Polygon","coordinates":[[[-105.694556,44.448958],[-105.689356,44.448935],[-105.684574,44.448915],[-105.679791,44.448894],[-105.675008,44.448873],[-105.67457,44.445326],[-105.674132,44.44178],[-105.673694,44.438233],[-105.673257,44.434687],[-105.678341,44.434643],[-105.683426,44.434599],[-105.68851,44.434556],[-105.694069,44.434508],[-105.694191,44.438121],[-105.694313,44.441733],[-105.694434,44.445345],[-105.694556,44.448958]]]}},{"type":"Feature","properties":{"sec":"28","frstdivid":"WY060520N0730W0SN280"},"geometry":{"type":"Polygon","coordinates":[[[-105.63388,44.463993],[-105.633892,44.460432],[-105.633905,44.456871],[-105.633917,44.45331],[-105.63393,44.449749],[-105.639059,44.449687],[-105.644189,44.449624],[-105.649319,44.449561],[-105.654449,44.449498],[-105.654344,44.453068],[-105.654239,44.456638],[-105.654135,44.460209],[-105.65403,44.463779],[-105.648993,44.463832],[-105.643955,44.463886],[-105.638917,44.46394],[-105.63388,44.463993]]]}},{"type":"Feature","properties":{"sec":"20","frstdivid":"WY060520N0730W0SN200"},"geometry":{"type":"Polygon","coordinates":[[[-105.664358,44.478003],[-105.659234,44.478031],[-105.65411,44.478059],[-105.65409,44.474489],[-105.65407,44.470919],[-105.65405,44.467349],[-105.65403,44.463779],[-105.65912,44.463631],[-105.664209,44.463483],[-105.669299,44.463334],[-105.674388,44.463186],[-105.67437,44.466857],[-105.674352,44.470527],[-105.674334,44.474198],[-105.674316,44.477868],[-105.669337,44.477936],[-105.664358,44.478003]]]}},{"type":"Feature","properties":{"sec":"13","frstdivid":"WY060520N0730W0SN130"},"geometry":{"type":"Polygon","coordinates":[[[-105.567325,44.494861],[-105.567332,44.491153],[-105.567338,44.487446],[-105.567327,44.483789],[-105.567315,44.480132],[-105.573646,44.479739],[-105.579977,44.479346],[-105.586308,44.478953],[-105.592639,44.47856],[-105.592614,44.482209],[-105.59259,44.485857],[-105.592566,44.489506],[-105.592541,44.493155],[-105.586237,44.493581],[-105.579933,44.494008],[-105.573629,44.494434],[-105.567325,44.494861]]]}},{"type":"Feature","properties":{"sec":"17","frstdivid":"WY060520N0730W0SN170"},"geometry":{"type":"Polygon","coordinates":[[[-105.654027,44.481721],[-105.65411,44.478059],[-105.659234,44.478031],[-105.664358,44.478003],[-105.669337,44.477936],[-105.674316,44.477868],[-105.674353,44.481539],[-105.674389,44.485209],[-105.674425,44.488879],[-105.674461,44.492549],[-105.669288,44.492675],[-105.664115,44.492801],[-105.658883,44.492807],[-105.653651,44.492813],[-105.653798,44.489098],[-105.653945,44.485383],[-105.654027,44.481721]]]}},{"type":"Feature","properties":{"sec":"07","frstdivid":"WY060520N0730W0SN070"},"geometry":{"type":"Polygon","coordinates":[[[-105.694455,44.499386],[-105.694451,44.503027],[-105.694447,44.506669],[-105.688905,44.506828],[-105.684038,44.506968],[-105.679171,44.507108],[-105.674305,44.507247],[-105.674343,44.503553],[-105.674381,44.499859],[-105.674421,44.496204],[-105.674461,44.492549],[-105.679316,44.492516],[-105.684171,44.492483],[-105.689017,44.492619],[-105.694492,44.492772],[-105.694474,44.496079],[-105.694455,44.499386]]]}},{"type":"Feature","properties":{"sec":"16","frstdivid":"WY060520N0730W0SN160"},"geometry":{"type":"Polygon","coordinates":[[[-105.65411,44.478059],[-105.654027,44.481721],[-105.653945,44.485383],[-105.653798,44.489098],[-105.653651,44.492813],[-105.648601,44.492809],[-105.643552,44.492804],[-105.638502,44.492799],[-105.633452,44.492794],[-105.633497,44.489154],[-105.633543,44.485515],[-105.633588,44.481875],[-105.633634,44.478236],[-105.638753,44.478192],[-105.643872,44.478148],[-105.648991,44.478103],[-105.65411,44.478059]]]}},{"type":"Feature","properties":{"sec":"14","frstdivid":"WY060520N0730W0SN140"},"geometry":{"type":"Polygon","coordinates":[[[-105.613095,44.47841],[-105.613071,44.48203],[-105.613046,44.48565],[-105.612995,44.489269],[-105.612944,44.492889],[-105.607844,44.492955],[-105.602743,44.493022],[-105.597642,44.493088],[-105.592541,44.493155],[-105.592566,44.489506],[-105.59259,44.485857],[-105.592614,44.482209],[-105.592639,44.47856],[-105.597753,44.478523],[-105.602867,44.478485],[-105.607981,44.478448],[-105.613095,44.47841]]]}},{"type":"Feature","properties":{"sec":"15","frstdivid":"WY060520N0730W0SN150"},"geometry":{"type":"Polygon","coordinates":[[[-105.612995,44.489269],[-105.613046,44.48565],[-105.613071,44.48203],[-105.613095,44.47841],[-105.618246,44.478372],[-105.623396,44.478334],[-105.628515,44.478285],[-105.633634,44.478236],[-105.633588,44.481875],[-105.633543,44.485515],[-105.633497,44.489154],[-105.633452,44.492794],[-105.628325,44.492818],[-105.623198,44.492841],[-105.618071,44.492865],[-105.612944,44.492889],[-105.612995,44.489269]]]}},{"type":"Feature","properties":{"sec":"04","frstdivid":"WY060520N0730W0SN040"},"geometry":{"type":"Polygon","coordinates":[[[-105.653741,44.51465],[-105.652917,44.51904],[-105.652073,44.523531],[-105.651719,44.523532],[-105.646724,44.523545],[-105.646393,44.523546],[-105.641375,44.523559],[-105.641068,44.523559],[-105.636027,44.523572],[-105.635743,44.523573],[-105.630678,44.523607],[-105.631412,44.519713],[-105.632111,44.515998],[-105.632817,44.511711],[-105.633523,44.507424],[-105.638613,44.507398],[-105.643703,44.507371],[-105.648792,44.507344],[-105.653882,44.507317],[-105.653812,44.510984],[-105.653741,44.51465]]]}},{"type":"Feature","properties":{"sec":"09","frstdivid":"WY060520N0730W0SN090"},"geometry":{"type":"Polygon","coordinates":[[[-105.653825,44.503691],[-105.653882,44.507317],[-105.648792,44.507344],[-105.643703,44.507371],[-105.638613,44.507398],[-105.633523,44.507424],[-105.633453,44.503753],[-105.633383,44.500082],[-105.633418,44.496438],[-105.633452,44.492794],[-105.638502,44.492799],[-105.643552,44.492804],[-105.648601,44.492809],[-105.653651,44.492813],[-105.653709,44.496439],[-105.653767,44.500065],[-105.653825,44.503691]]]}}]}