{"type":"FeatureCollection","note":"BLM Public Land Survey System. Provided by the Bureau of Land Management as is. These data are neither legal documents nor land surveys and must not be used as such.","features":[{"type":"Feature","properties":{"sec":"19","frstdivid":"WY060300N0800W0SN190"},"geometry":{"type":"Polygon","coordinates":[[[-106.48336,42.545711],[-106.483359,42.549304],[-106.483358,42.552897],[-106.483328,42.556504],[-106.483299,42.560112],[-106.478369,42.560429],[-106.474102,42.560704],[-106.469833,42.560978],[-106.465565,42.561254],[-106.461297,42.56153],[-106.460621,42.557809],[-106.459944,42.554087],[-106.459268,42.550366],[-106.458591,42.546644],[-106.463375,42.546463],[-106.468158,42.546281],[-106.472942,42.546102],[-106.477725,42.545923],[-106.48336,42.545711]]]}},{"type":"Feature","properties":{"sec":"25","frstdivid":"WY060300N0800W0SN250"},"geometry":{"type":"Polygon","coordinates":[[[-106.372318,42.531707],[-106.377138,42.531675],[-106.381959,42.53165],[-106.381902,42.535367],[-106.381846,42.539085],[-106.381793,42.542803],[-106.381745,42.546522],[-106.376926,42.546533],[-106.372107,42.546566],[-106.367277,42.546562],[-106.362447,42.546592],[-106.362507,42.542885],[-106.36256,42.539178],[-106.362617,42.535468],[-106.362676,42.531757],[-106.367497,42.531727],[-106.372318,42.531707]]]}},{"type":"Feature","properties":{"sec":"24","frstdivid":"WY060300N0800W0SN240"},"geometry":{"type":"Polygon","coordinates":[[[-106.372168,42.56139],[-106.3672,42.5614],[-106.362232,42.561414],[-106.362284,42.55771],[-106.362336,42.554007],[-106.362365,42.550283],[-106.362447,42.546592],[-106.367277,42.546562],[-106.372107,42.546566],[-106.376926,42.546533],[-106.381745,42.546522],[-106.381821,42.55024],[-106.381942,42.553958],[-106.382016,42.55767],[-106.382107,42.561382],[-106.377137,42.561385],[-106.372168,42.56139]]]}},{"type":"Feature","properties":{"sec":"34","frstdivid":"WY060300N0800W0SN340"},"geometry":{"type":"Polygon","coordinates":[[[-106.420678,42.528018],[-106.420452,42.531734],[-106.415643,42.531726],[-106.410835,42.531718],[-106.406026,42.53171],[-106.401218,42.531702],[-106.40154,42.527979],[-106.401864,42.524256],[-106.402187,42.520533],[-106.402511,42.51681],[-106.407223,42.516825],[-106.411935,42.516839],[-106.416647,42.516853],[-106.421359,42.516868],[-106.421132,42.520584],[-106.420905,42.524301],[-106.420678,42.528018]]]}},{"type":"Feature","properties":{"sec":"32","frstdivid":"WY060300N0800W0SN320"},"geometry":{"type":"Polygon","coordinates":[[[-106.440303,42.516888],[-106.445041,42.516884],[-106.44978,42.516879],[-106.454518,42.516875],[-106.459257,42.516871],[-106.459143,42.520592],[-106.459028,42.524314],[-106.458914,42.528036],[-106.4588,42.531758],[-106.454003,42.531762],[-106.449207,42.531765],[-106.44441,42.531769],[-106.439614,42.531773],[-106.439786,42.528052],[-106.439958,42.524331],[-106.44013,42.520609],[-106.440303,42.516888]]]}},{"type":"Feature","properties":{"sec":"30","frstdivid":"WY060300N0800W0SN300"},"geometry":{"type":"Polygon","coordinates":[[[-106.483473,42.531306],[-106.483449,42.534911],[-106.483425,42.538515],[-106.483392,42.542113],[-106.48336,42.545711],[-106.477725,42.545923],[-106.472942,42.546102],[-106.468158,42.546281],[-106.463375,42.546463],[-106.458591,42.546644],[-106.458643,42.542923],[-106.458695,42.539201],[-106.458748,42.53548],[-106.4588,42.531758],[-106.463596,42.531672],[-106.468392,42.531586],[-106.473187,42.531497],[-106.477984,42.531408],[-106.483473,42.531306]]]}},{"type":"Feature","properties":{"sec":"26","frstdivid":"WY060300N0800W0SN260"},"geometry":{"type":"Polygon","coordinates":[[[-106.391588,42.531673],[-106.396403,42.531687],[-106.401218,42.531702],[-106.401167,42.535424],[-106.401118,42.539147],[-106.40107,42.542869],[-106.401024,42.546591],[-106.396204,42.54657],[-106.391384,42.54655],[-106.386564,42.546532],[-106.381745,42.546522],[-106.381793,42.542803],[-106.381846,42.539085],[-106.381902,42.535367],[-106.381959,42.53165],[-106.386774,42.53166],[-106.391588,42.531673]]]}},{"type":"Feature","properties":{"sec":"35","frstdivid":"WY060300N0800W0SN350"},"geometry":{"type":"Polygon","coordinates":[[[-106.391588,42.531673],[-106.386774,42.53166],[-106.381959,42.53165],[-106.382185,42.527932],[-106.382412,42.524214],[-106.382639,42.520496],[-106.382867,42.516779],[-106.387778,42.516787],[-106.392689,42.516794],[-106.3976,42.516802],[-106.402511,42.51681],[-106.402187,42.520533],[-106.401864,42.524256],[-106.40154,42.527979],[-106.401218,42.531702],[-106.396403,42.531687],[-106.391588,42.531673]]]}},{"type":"Feature","properties":{"sec":"27","frstdivid":"WY060300N0800W0SN270"},"geometry":{"type":"Polygon","coordinates":[[[-106.42033,42.542884],[-106.420289,42.546601],[-106.415473,42.546599],[-106.410657,42.546596],[-106.40584,42.546594],[-106.401024,42.546591],[-106.40107,42.542869],[-106.401118,42.539147],[-106.401167,42.535424],[-106.401218,42.531702],[-106.406026,42.53171],[-106.410835,42.531718],[-106.415643,42.531726],[-106.420452,42.531734],[-106.420411,42.535451],[-106.420371,42.539168],[-106.42033,42.542884]]]}},{"type":"Feature","properties":{"sec":"21","frstdivid":"WY060300N0800W0SN210"},"geometry":{"type":"Polygon","coordinates":[[[-106.431745,42.561504],[-106.426803,42.561485],[-106.421861,42.561467],[-106.421468,42.55775],[-106.421075,42.554034],[-106.420682,42.550318],[-106.420289,42.546601],[-106.425073,42.546615],[-106.429856,42.54663],[-106.43464,42.546644],[-106.439423,42.546658],[-106.439975,42.550379],[-106.440526,42.5541],[-106.441077,42.557821],[-106.441629,42.561542],[-106.436687,42.561523],[-106.431745,42.561504]]]}},{"type":"Feature","properties":{"sec":"31","frstdivid":"WY060300N0800W0SN310"},"geometry":{"type":"Polygon","coordinates":[[[-106.483464,42.516947],[-106.483466,42.520536],[-106.483469,42.524125],[-106.483471,42.527716],[-106.483473,42.531306],[-106.477984,42.531408],[-106.473187,42.531497],[-106.468392,42.531586],[-106.463596,42.531672],[-106.4588,42.531758],[-106.458914,42.528036],[-106.459028,42.524314],[-106.459143,42.520592],[-106.459257,42.516871],[-106.463991,42.51689],[-106.468725,42.51691],[-106.473456,42.516921],[-106.478189,42.516933],[-106.483464,42.516947]]]}},{"type":"Feature","properties":{"sec":"28","frstdivid":"WY060300N0800W0SN280"},"geometry":{"type":"Polygon","coordinates":[[[-106.439566,42.535494],[-106.439518,42.539215],[-106.439471,42.542937],[-106.439423,42.546658],[-106.43464,42.546644],[-106.429856,42.54663],[-106.425073,42.546615],[-106.420289,42.546601],[-106.42033,42.542884],[-106.420371,42.539168],[-106.420411,42.535451],[-106.420452,42.531734],[-106.425242,42.531744],[-106.430033,42.531753],[-106.434823,42.531763],[-106.439614,42.531773],[-106.439566,42.535494]]]}},{"type":"Feature","properties":{"sec":"22","frstdivid":"WY060300N0800W0SN220"},"geometry":{"type":"Polygon","coordinates":[[[-106.401867,42.561483],[-106.401657,42.55776],[-106.401452,42.554037],[-106.40123,42.550314],[-106.401024,42.546591],[-106.40584,42.546594],[-106.410657,42.546596],[-106.415473,42.546599],[-106.420289,42.546601],[-106.420682,42.550318],[-106.421075,42.554034],[-106.421468,42.55775],[-106.421861,42.561467],[-106.416862,42.561471],[-106.411863,42.561475],[-106.406865,42.561479],[-106.401867,42.561483]]]}},{"type":"Feature","properties":{"sec":"33","frstdivid":"WY060300N0800W0SN330"},"geometry":{"type":"Polygon","coordinates":[[[-106.426095,42.516873],[-106.430831,42.516878],[-106.435567,42.516883],[-106.440303,42.516888],[-106.44013,42.520609],[-106.439958,42.524331],[-106.439786,42.528052],[-106.439614,42.531773],[-106.434823,42.531763],[-106.430033,42.531753],[-106.425242,42.531744],[-106.420452,42.531734],[-106.420678,42.528018],[-106.420905,42.524301],[-106.421132,42.520584],[-106.421359,42.516868],[-106.426095,42.516873]]]}},{"type":"Feature","properties":{"sec":"36","frstdivid":"WY060300N0800W0SN360"},"geometry":{"type":"Polygon","coordinates":[[[-106.372318,42.531707],[-106.367497,42.531727],[-106.362676,42.531757],[-106.362727,42.528048],[-106.362778,42.524338],[-106.36283,42.520629],[-106.362882,42.516919],[-106.367878,42.516884],[-106.372875,42.516849],[-106.377871,42.516814],[-106.382867,42.516779],[-106.382639,42.520496],[-106.382412,42.524214],[-106.382185,42.527932],[-106.381959,42.53165],[-106.377138,42.531675],[-106.372318,42.531707]]]}},{"type":"Feature","properties":{"sec":"23","frstdivid":"WY060300N0800W0SN230"},"geometry":{"type":"Polygon","coordinates":[[[-106.40123,42.550314],[-106.401452,42.554037],[-106.401657,42.55776],[-106.401867,42.561483],[-106.396927,42.561454],[-106.391986,42.561426],[-106.387047,42.5614],[-106.382107,42.561382],[-106.382016,42.55767],[-106.381942,42.553958],[-106.381821,42.55024],[-106.381745,42.546522],[-106.386564,42.546532],[-106.391384,42.54655],[-106.396204,42.54657],[-106.401024,42.546591],[-106.40123,42.550314]]]}},{"type":"Feature","properties":{"sec":"20","frstdivid":"WY060300N0800W0SN200"},"geometry":{"type":"Polygon","coordinates":[[[-106.458591,42.546644],[-106.459268,42.550366],[-106.459944,42.554087],[-106.460621,42.557809],[-106.461297,42.56153],[-106.456423,42.56152],[-106.451549,42.561509],[-106.446589,42.561525],[-106.441629,42.561542],[-106.441077,42.557821],[-106.440526,42.5541],[-106.439975,42.550379],[-106.439423,42.546658],[-106.444215,42.546655],[-106.449007,42.546651],[-106.453799,42.546648],[-106.458591,42.546644]]]}},{"type":"Feature","properties":{"sec":"29","frstdivid":"WY060300N0800W0SN290"},"geometry":{"type":"Polygon","coordinates":[[[-106.449207,42.531765],[-106.454003,42.531762],[-106.4588,42.531758],[-106.458748,42.53548],[-106.458695,42.539201],[-106.458643,42.542923],[-106.458591,42.546644],[-106.453799,42.546648],[-106.449007,42.546651],[-106.444215,42.546655],[-106.439423,42.546658],[-106.439471,42.542937],[-106.439518,42.539215],[-106.439566,42.535494],[-106.439614,42.531773],[-106.44441,42.531769],[-106.449207,42.531765]]]}},{"type":"Feature","properties":{"sec":"11","frstdivid":"WY060300N0800W0SN110"},"geometry":{"type":"Polygon","coordinates":[[[-106.387153,42.575718],[-106.392119,42.575816],[-106.397084,42.575914],[-106.40205,42.576013],[-106.401999,42.579646],[-106.401948,42.583278],[-106.401897,42.586911],[-106.401846,42.590543],[-106.396933,42.590374],[-106.39202,42.590205],[-106.387107,42.590036],[-106.382194,42.589867],[-106.382192,42.586306],[-106.38219,42.582745],[-106.382188,42.579184],[-106.382187,42.575623],[-106.387153,42.575718]]]}},{"type":"Feature","properties":{"sec":"08","frstdivid":"WY060300N0800W0SN080"},"geometry":{"type":"Polygon","coordinates":[[[-106.441298,42.579552],[-106.441442,42.576069],[-106.446029,42.575957],[-106.450616,42.575845],[-106.455202,42.575732],[-106.459789,42.57562],[-106.459705,42.579142],[-106.459621,42.582664],[-106.459537,42.586186],[-106.459453,42.589708],[-106.454806,42.589782],[-106.450159,42.589856],[-106.445512,42.589929],[-106.440865,42.590003],[-106.441009,42.586519],[-106.441154,42.583036],[-106.441298,42.579552]]]}},{"type":"Feature","properties":{"sec":"02","frstdivid":"WY060300N0800W0SN020"},"geometry":{"type":"Polygon","coordinates":[[[-106.386908,42.604353],[-106.382007,42.604402],[-106.382056,42.600555],[-106.382102,42.596992],[-106.382148,42.593429],[-106.382194,42.589867],[-106.387107,42.590036],[-106.39202,42.590205],[-106.396933,42.590374],[-106.401846,42.590543],[-106.401787,42.593917],[-106.401729,42.597291],[-106.401671,42.600663],[-106.40161,42.604206],[-106.396709,42.604255],[-106.391808,42.604304],[-106.386908,42.604353]]]}},{"type":"Feature","properties":{"sec":"04","frstdivid":"WY060300N0800W0SN040"},"geometry":{"type":"Polygon","coordinates":[[[-106.440865,42.590003],[-106.440992,42.593487],[-106.44112,42.596971],[-106.441247,42.600455],[-106.441377,42.603995],[-106.436389,42.603986],[-106.431401,42.603978],[-106.426457,42.604029],[-106.421512,42.60408],[-106.421498,42.600594],[-106.421484,42.597226],[-106.421468,42.593859],[-106.421451,42.590491],[-106.426522,42.590548],[-106.431593,42.590604],[-106.436229,42.590304],[-106.440865,42.590003]]]}},{"type":"Feature","properties":{"sec":"01","frstdivid":"WY060300N0800W0SN010"},"geometry":{"type":"Polygon","coordinates":[[[-106.367306,42.604545],[-106.362406,42.604592],[-106.362373,42.600997],[-106.36234,42.597403],[-106.362373,42.593835],[-106.362405,42.590267],[-106.367352,42.590167],[-106.372299,42.590067],[-106.377246,42.589967],[-106.382194,42.589867],[-106.382148,42.593429],[-106.382102,42.596992],[-106.382056,42.600555],[-106.382007,42.604402],[-106.377107,42.60445],[-106.372206,42.604498],[-106.367306,42.604545]]]}},{"type":"Feature","properties":{"sec":"07","frstdivid":"WY060300N0800W0SN070"},"geometry":{"type":"Polygon","coordinates":[[[-106.459789,42.57562],[-106.464368,42.575421],[-106.468947,42.575221],[-106.473525,42.575021],[-106.478105,42.57482],[-106.483245,42.574595],[-106.483208,42.578209],[-106.483172,42.581823],[-106.483132,42.585438],[-106.483091,42.589053],[-106.47802,42.589194],[-106.47338,42.589324],[-106.468737,42.589453],[-106.464095,42.589581],[-106.459453,42.589708],[-106.459537,42.586186],[-106.459621,42.582664],[-106.459705,42.579142],[-106.459789,42.57562]]]}},{"type":"Feature","properties":{"sec":"03","frstdivid":"WY060300N0800W0SN030"},"geometry":{"type":"Polygon","coordinates":[[[-106.40161,42.604206],[-106.401671,42.600663],[-106.401729,42.597291],[-106.401787,42.593917],[-106.401846,42.590543],[-106.406747,42.59053],[-106.411649,42.590517],[-106.41655,42.590504],[-106.421451,42.590491],[-106.421468,42.593859],[-106.421484,42.597226],[-106.421498,42.600594],[-106.421512,42.60408],[-106.416537,42.604112],[-106.411561,42.604143],[-106.406585,42.604175],[-106.40161,42.604206]]]}},{"type":"Feature","properties":{"sec":"18","frstdivid":"WY060300N0800W0SN180"},"geometry":{"type":"Polygon","coordinates":[[[-106.474102,42.560704],[-106.478369,42.560429],[-106.483299,42.560112],[-106.483288,42.563734],[-106.483276,42.567356],[-106.48326,42.570975],[-106.483245,42.574595],[-106.478105,42.57482],[-106.473525,42.575021],[-106.468947,42.575221],[-106.464368,42.575421],[-106.459789,42.57562],[-106.460166,42.572098],[-106.460543,42.568575],[-106.46092,42.565053],[-106.461297,42.56153],[-106.465565,42.561254],[-106.469833,42.560978],[-106.474102,42.560704]]]}},{"type":"Feature","properties":{"sec":"05","frstdivid":"WY060300N0800W0SN050"},"geometry":{"type":"Polygon","coordinates":[[[-106.440992,42.593487],[-106.440865,42.590003],[-106.445512,42.589929],[-106.450159,42.589856],[-106.454806,42.589782],[-106.459453,42.589708],[-106.459933,42.593231],[-106.460413,42.596755],[-106.460892,42.600278],[-106.461371,42.603801],[-106.456365,42.603855],[-106.451359,42.603909],[-106.446368,42.603952],[-106.441377,42.603995],[-106.441247,42.600455],[-106.44112,42.596971],[-106.440992,42.593487]]]}},{"type":"Feature","properties":{"sec":"16","frstdivid":"WY060300N0800W0SN160"},"geometry":{"type":"Polygon","coordinates":[[[-106.436525,42.576046],[-106.431607,42.576024],[-106.42669,42.576002],[-106.421773,42.57598],[-106.421795,42.572351],[-106.421817,42.568723],[-106.421839,42.565095],[-106.421861,42.561467],[-106.426803,42.561485],[-106.431745,42.561504],[-106.436687,42.561523],[-106.441629,42.561542],[-106.441582,42.565174],[-106.441535,42.568805],[-106.441489,42.572437],[-106.441442,42.576069],[-106.436525,42.576046]]]}},{"type":"Feature","properties":{"sec":"13","frstdivid":"WY060300N0800W0SN130"},"geometry":{"type":"Polygon","coordinates":[[[-106.382187,42.575623],[-106.377206,42.575685],[-106.372225,42.575746],[-106.367243,42.57581],[-106.362262,42.575875],[-106.362299,42.572233],[-106.362337,42.56859],[-106.362282,42.565002],[-106.362232,42.561414],[-106.3672,42.5614],[-106.372168,42.56139],[-106.377137,42.561385],[-106.382107,42.561382],[-106.382125,42.564942],[-106.382144,42.568502],[-106.382165,42.572063],[-106.382187,42.575623]]]}},{"type":"Feature","properties":{"sec":"14","frstdivid":"WY060300N0800W0SN140"},"geometry":{"type":"Polygon","coordinates":[[[-106.401867,42.561483],[-106.401912,42.565115],[-106.401957,42.568748],[-106.402003,42.572381],[-106.40205,42.576013],[-106.397084,42.575914],[-106.392119,42.575816],[-106.387153,42.575718],[-106.382187,42.575623],[-106.382165,42.572063],[-106.382144,42.568502],[-106.382125,42.564942],[-106.382107,42.561382],[-106.387047,42.5614],[-106.391986,42.561426],[-106.396927,42.561454],[-106.401867,42.561483]]]}},{"type":"Feature","properties":{"sec":"15","frstdivid":"WY060300N0800W0SN150"},"geometry":{"type":"Polygon","coordinates":[[[-106.40698,42.576005],[-106.40205,42.576013],[-106.402003,42.572381],[-106.401957,42.568748],[-106.401912,42.565115],[-106.401867,42.561483],[-106.406865,42.561479],[-106.411863,42.561475],[-106.416862,42.561471],[-106.421861,42.561467],[-106.421839,42.565095],[-106.421817,42.568723],[-106.421795,42.572351],[-106.421773,42.57598],[-106.416842,42.575988],[-106.411911,42.575996],[-106.40698,42.576005]]]}},{"type":"Feature","properties":{"sec":"12","frstdivid":"WY060300N0800W0SN120"},"geometry":{"type":"Polygon","coordinates":[[[-106.362432,42.586643],[-106.362459,42.583018],[-106.362361,42.579447],[-106.362262,42.575875],[-106.367243,42.57581],[-106.372225,42.575746],[-106.377206,42.575685],[-106.382187,42.575623],[-106.382188,42.579184],[-106.38219,42.582745],[-106.382192,42.586306],[-106.382194,42.589867],[-106.377246,42.589967],[-106.372299,42.590067],[-106.367352,42.590167],[-106.362405,42.590267],[-106.362432,42.586643]]]}},{"type":"Feature","properties":{"sec":"10","frstdivid":"WY060300N0800W0SN100"},"geometry":{"type":"Polygon","coordinates":[[[-106.41655,42.590504],[-106.411649,42.590517],[-106.406747,42.59053],[-106.401846,42.590543],[-106.401897,42.586911],[-106.401948,42.583278],[-106.401999,42.579646],[-106.40205,42.576013],[-106.40698,42.576005],[-106.411911,42.575996],[-106.416842,42.575988],[-106.421773,42.57598],[-106.421692,42.579607],[-106.421612,42.583235],[-106.421531,42.586863],[-106.421451,42.590491],[-106.41655,42.590504]]]}},{"type":"Feature","properties":{"sec":"09","frstdivid":"WY060300N0800W0SN090"},"geometry":{"type":"Polygon","coordinates":[[[-106.441298,42.579552],[-106.441154,42.583036],[-106.441009,42.586519],[-106.440865,42.590003],[-106.436229,42.590304],[-106.431593,42.590604],[-106.426522,42.590548],[-106.421451,42.590491],[-106.421531,42.586863],[-106.421612,42.583235],[-106.421692,42.579607],[-106.421773,42.57598],[-106.42669,42.576002],[-106.431607,42.576024],[-106.436525,42.576046],[-106.441442,42.576069],[-106.441298,42.579552]]]}},{"type":"Feature","properties":{"sec":"06","frstdivid":"WY060300N0800W0SN060"},"geometry":{"type":"Polygon","coordinates":[[[-106.475146,42.603647],[-106.471348,42.603707],[-106.466359,42.603754],[-106.461371,42.603801],[-106.460892,42.600278],[-106.460413,42.596755],[-106.459933,42.593231],[-106.459453,42.589708],[-106.464095,42.589581],[-106.468737,42.589453],[-106.47338,42.589324],[-106.47802,42.589194],[-106.483091,42.589053],[-106.483059,42.592668],[-106.483026,42.596283],[-106.483,42.599903],[-106.482975,42.603523],[-106.478944,42.603587],[-106.475146,42.603647]]]}},{"type":"Feature","properties":{"sec":"17","frstdivid":"WY060300N0800W0SN170"},"geometry":{"type":"Polygon","coordinates":[[[-106.460543,42.568575],[-106.460166,42.572098],[-106.459789,42.57562],[-106.455202,42.575732],[-106.450616,42.575845],[-106.446029,42.575957],[-106.441442,42.576069],[-106.441489,42.572437],[-106.441535,42.568805],[-106.441582,42.565174],[-106.441629,42.561542],[-106.446589,42.561525],[-106.451549,42.561509],[-106.456423,42.56152],[-106.461297,42.56153],[-106.46092,42.565053],[-106.460543,42.568575]]]}}]}