{"type":"FeatureCollection","note":"BLM Public Land Survey System. Provided by the Bureau of Land Management as is. These data are neither legal documents nor land surveys and must not be used as such.","features":[{"type":"Feature","properties":{"sec":"07","frstdivid":"WY060460N0640W0SN070"},"geometry":{"type":"Polygon","coordinates":[[[-104.598992,43.979862],[-104.598969,43.983505],[-104.598947,43.987148],[-104.598924,43.99079],[-104.594369,43.990729],[-104.58924,43.990659],[-104.584111,43.990588],[-104.578982,43.990518],[-104.578981,43.986877],[-104.57898,43.983237],[-104.578978,43.979596],[-104.578977,43.975955],[-104.584107,43.976024],[-104.589238,43.976092],[-104.594368,43.976159],[-104.599015,43.97622],[-104.598992,43.979862]]]}},{"type":"Feature","properties":{"sec":"08","frstdivid":"WY060460N0640W0SN080"},"geometry":{"type":"Polygon","coordinates":[[[-104.563625,43.975733],[-104.568742,43.975807],[-104.573859,43.975881],[-104.578977,43.975955],[-104.578978,43.979596],[-104.57898,43.983237],[-104.578981,43.986877],[-104.578982,43.990518],[-104.573873,43.99044],[-104.568764,43.990363],[-104.563654,43.990285],[-104.558545,43.990207],[-104.558536,43.98657],[-104.558526,43.982933],[-104.558517,43.979296],[-104.558507,43.975659],[-104.563625,43.975733]]]}},{"type":"Feature","properties":{"sec":"18","frstdivid":"WY060460N0640W0SN180"},"geometry":{"type":"Polygon","coordinates":[[[-104.599015,43.97622],[-104.594368,43.976159],[-104.589238,43.976092],[-104.584107,43.976024],[-104.578977,43.975955],[-104.578958,43.972314],[-104.578939,43.968673],[-104.578921,43.965032],[-104.578902,43.961391],[-104.584031,43.961459],[-104.58916,43.961526],[-104.594289,43.961595],[-104.598984,43.961658],[-104.598992,43.965298],[-104.599,43.968939],[-104.599007,43.972579],[-104.599015,43.97622]]]}},{"type":"Feature","properties":{"sec":"06","frstdivid":"WY060460N0640W0SN060"},"geometry":{"type":"Polygon","coordinates":[[[-104.578989,44.001439],[-104.578988,43.997799],[-104.578985,43.994158],[-104.578982,43.990518],[-104.584111,43.990588],[-104.58924,43.990659],[-104.594369,43.990729],[-104.598924,43.99079],[-104.598921,43.994449],[-104.598917,43.998107],[-104.59891,44.001766],[-104.598902,44.005424],[-104.594342,44.005342],[-104.589225,44.005249],[-104.584107,44.005155],[-104.57899,44.005061],[-104.578989,44.001439]]]}},{"type":"Feature","properties":{"sec":"20","frstdivid":"WY060460N0640W0SN200"},"geometry":{"type":"Polygon","coordinates":[[[-104.558397,43.953835],[-104.558423,43.950198],[-104.55845,43.946561],[-104.563546,43.946627],[-104.568642,43.946694],[-104.573738,43.946761],[-104.578834,43.946827],[-104.578851,43.950468],[-104.578868,43.954109],[-104.578885,43.95775],[-104.578902,43.961391],[-104.573762,43.961321],[-104.568623,43.961251],[-104.563483,43.96118],[-104.558343,43.96111],[-104.55837,43.957473],[-104.558397,43.953835]]]}},{"type":"Feature","properties":{"sec":"19","frstdivid":"WY060460N0640W0SN190"},"geometry":{"type":"Polygon","coordinates":[[[-104.578902,43.961391],[-104.578885,43.95775],[-104.578868,43.954109],[-104.578851,43.950468],[-104.578834,43.946827],[-104.583941,43.946894],[-104.589049,43.946961],[-104.594157,43.94703],[-104.598956,43.947095],[-104.598963,43.950735],[-104.59897,43.954376],[-104.598977,43.958017],[-104.598984,43.961658],[-104.594289,43.961595],[-104.58916,43.961526],[-104.584031,43.961459],[-104.578902,43.961391]]]}},{"type":"Feature","properties":{"sec":"30","frstdivid":"WY060460N0640W0SN300"},"geometry":{"type":"Polygon","coordinates":[[[-104.578985,43.935906],[-104.579035,43.932265],[-104.584137,43.932327],[-104.589239,43.93239],[-104.59434,43.932455],[-104.599141,43.932517],[-104.599095,43.936161],[-104.599049,43.939806],[-104.599002,43.94345],[-104.598956,43.947095],[-104.594157,43.94703],[-104.589049,43.946961],[-104.583941,43.946894],[-104.578834,43.946827],[-104.578884,43.943187],[-104.578934,43.939546],[-104.578985,43.935906]]]}},{"type":"Feature","properties":{"sec":"17","frstdivid":"WY060460N0640W0SN170"},"geometry":{"type":"Polygon","coordinates":[[[-104.578939,43.968673],[-104.578958,43.972314],[-104.578977,43.975955],[-104.573859,43.975881],[-104.568742,43.975807],[-104.563625,43.975733],[-104.558507,43.975659],[-104.558466,43.972021],[-104.558425,43.968384],[-104.558384,43.964747],[-104.558343,43.96111],[-104.563483,43.96118],[-104.568623,43.961251],[-104.573762,43.961321],[-104.578902,43.961391],[-104.578921,43.965032],[-104.578939,43.968673]]]}},{"type":"Feature","properties":{"sec":"29","frstdivid":"WY060460N0640W0SN290"},"geometry":{"type":"Polygon","coordinates":[[[-104.579035,43.932265],[-104.578985,43.935906],[-104.578934,43.939546],[-104.578884,43.943187],[-104.578834,43.946827],[-104.573738,43.946761],[-104.568642,43.946694],[-104.563546,43.946627],[-104.55845,43.946561],[-104.5585,43.942924],[-104.55855,43.939286],[-104.5586,43.935649],[-104.558649,43.932012],[-104.563746,43.932075],[-104.568842,43.932138],[-104.573939,43.932202],[-104.579035,43.932265]]]}},{"type":"Feature","properties":{"sec":"05","frstdivid":"WY060460N0640W0SN050"},"geometry":{"type":"Polygon","coordinates":[[[-104.563633,44.004804],[-104.558514,44.004718],[-104.558522,44.001119],[-104.55853,43.997482],[-104.558538,43.993845],[-104.558545,43.990207],[-104.563654,43.990285],[-104.568764,43.990363],[-104.573873,43.99044],[-104.578982,43.990518],[-104.578985,43.994158],[-104.578988,43.997799],[-104.578989,44.001439],[-104.57899,44.005061],[-104.573871,44.004975],[-104.568752,44.00489],[-104.563633,44.004804]]]}},{"type":"Feature","properties":{"sec":"32","frstdivid":"WY060460N0640W0SN320"},"geometry":{"type":"Polygon","coordinates":[[[-104.579145,43.917703],[-104.579118,43.921344],[-104.57909,43.924984],[-104.579063,43.928625],[-104.579035,43.932265],[-104.573939,43.932202],[-104.568842,43.932138],[-104.563746,43.932075],[-104.558649,43.932012],[-104.558684,43.928374],[-104.558719,43.924737],[-104.558753,43.9211],[-104.558788,43.917462],[-104.563877,43.917522],[-104.568966,43.917583],[-104.574056,43.917643],[-104.579145,43.917703]]]}},{"type":"Feature","properties":{"sec":"31","frstdivid":"WY060460N0640W0SN310"},"geometry":{"type":"Polygon","coordinates":[[[-104.584234,43.917759],[-104.589322,43.917815],[-104.59441,43.917875],[-104.599258,43.917932],[-104.599246,43.921581],[-104.599235,43.925229],[-104.599188,43.928873],[-104.599141,43.932517],[-104.59434,43.932455],[-104.589239,43.93239],[-104.584137,43.932327],[-104.579035,43.932265],[-104.579063,43.928625],[-104.57909,43.924984],[-104.579118,43.921344],[-104.579145,43.917703],[-104.584234,43.917759]]]}},{"type":"Feature","properties":{"sec":"21","frstdivid":"WY060460N0640W0SN210"},"geometry":{"type":"Polygon","coordinates":[[[-104.558423,43.950198],[-104.558397,43.953835],[-104.55837,43.957473],[-104.558343,43.96111],[-104.553226,43.961042],[-104.54811,43.960973],[-104.542993,43.960904],[-104.537876,43.960836],[-104.537889,43.957201],[-104.537903,43.953567],[-104.537917,43.949932],[-104.53793,43.946298],[-104.54306,43.946364],[-104.54819,43.946429],[-104.55332,43.946495],[-104.55845,43.946561],[-104.558423,43.950198]]]}},{"type":"Feature","properties":{"sec":"12","frstdivid":"WY060460N0640W0SN120"},"geometry":{"type":"Polygon","coordinates":[[[-104.476443,43.977971],[-104.476449,43.974339],[-104.481585,43.974425],[-104.486721,43.974511],[-104.491856,43.974597],[-104.496992,43.974683],[-104.496963,43.978305],[-104.496933,43.981927],[-104.496904,43.985549],[-104.496875,43.989171],[-104.491767,43.989093],[-104.486659,43.989014],[-104.481551,43.988936],[-104.476444,43.988858],[-104.47644,43.985231],[-104.476436,43.981604],[-104.476443,43.977971]]]}},{"type":"Feature","properties":{"sec":"27","frstdivid":"WY060460N0640W0SN270"},"geometry":{"type":"Polygon","coordinates":[[[-104.528051,43.931625],[-104.533165,43.931693],[-104.538279,43.93176],[-104.538192,43.935395],[-104.538105,43.939029],[-104.538017,43.942663],[-104.53793,43.946298],[-104.532796,43.946222],[-104.527662,43.946145],[-104.522528,43.946069],[-104.517393,43.945993],[-104.517501,43.942367],[-104.517608,43.938741],[-104.517715,43.935115],[-104.517823,43.931489],[-104.522937,43.931557],[-104.528051,43.931625]]]}},{"type":"Feature","properties":{"sec":"02","frstdivid":"WY060460N0640W0SN020"},"geometry":{"type":"Polygon","coordinates":[[[-104.507328,44.003859],[-104.50221,44.003776],[-104.497091,44.003693],[-104.497036,44.000036],[-104.496982,43.996415],[-104.496928,43.992793],[-104.496875,43.989171],[-104.502023,43.989254],[-104.507171,43.989337],[-104.512319,43.989419],[-104.517467,43.989502],[-104.517491,43.993128],[-104.517516,43.996753],[-104.51754,44.000379],[-104.517565,44.004026],[-104.512447,44.003942],[-104.507328,44.003859]]]}},{"type":"Feature","properties":{"sec":"23","frstdivid":"WY060460N0640W0SN230"},"geometry":{"type":"Polygon","coordinates":[[[-104.512192,43.960421],[-104.507083,43.960346],[-104.501975,43.960271],[-104.496866,43.960195],[-104.496913,43.956574],[-104.496961,43.952952],[-104.497008,43.94933],[-104.497056,43.945708],[-104.50214,43.94578],[-104.507225,43.945851],[-104.512309,43.945922],[-104.517393,43.945993],[-104.51737,43.949619],[-104.517347,43.953245],[-104.517324,43.95687],[-104.517301,43.960496],[-104.512192,43.960421]]]}},{"type":"Feature","properties":{"sec":"22","frstdivid":"WY060460N0640W0SN220"},"geometry":{"type":"Polygon","coordinates":[[[-104.532796,43.946222],[-104.53793,43.946298],[-104.537917,43.949932],[-104.537903,43.953567],[-104.537889,43.957201],[-104.537876,43.960836],[-104.532732,43.960751],[-104.527588,43.960666],[-104.522445,43.960581],[-104.517301,43.960496],[-104.517324,43.95687],[-104.517347,43.953245],[-104.51737,43.949619],[-104.517393,43.945993],[-104.522528,43.946069],[-104.527662,43.946145],[-104.532796,43.946222]]]}},{"type":"Feature","properties":{"sec":"16","frstdivid":"WY060460N0640W0SN160"},"geometry":{"type":"Polygon","coordinates":[[[-104.553226,43.961042],[-104.558343,43.96111],[-104.558384,43.964747],[-104.558425,43.968384],[-104.558466,43.972021],[-104.558507,43.975659],[-104.5534,43.975587],[-104.548293,43.975516],[-104.543185,43.975444],[-104.538078,43.975373],[-104.538027,43.971739],[-104.537977,43.968104],[-104.537926,43.96447],[-104.537876,43.960836],[-104.542993,43.960904],[-104.54811,43.960973],[-104.553226,43.961042]]]}},{"type":"Feature","properties":{"sec":"14","frstdivid":"WY060460N0640W0SN140"},"geometry":{"type":"Polygon","coordinates":[[[-104.496866,43.960195],[-104.501975,43.960271],[-104.507083,43.960346],[-104.512192,43.960421],[-104.517301,43.960496],[-104.517345,43.964122],[-104.517388,43.967748],[-104.517432,43.971373],[-104.517475,43.974999],[-104.512355,43.97492],[-104.507234,43.974841],[-104.502113,43.974762],[-104.496992,43.974683],[-104.49696,43.971061],[-104.496929,43.967439],[-104.496897,43.963817],[-104.496866,43.960195]]]}},{"type":"Feature","properties":{"sec":"15","frstdivid":"WY060460N0640W0SN150"},"geometry":{"type":"Polygon","coordinates":[[[-104.517301,43.960496],[-104.522445,43.960581],[-104.527588,43.960666],[-104.532732,43.960751],[-104.537876,43.960836],[-104.537926,43.96447],[-104.537977,43.968104],[-104.538027,43.971739],[-104.538078,43.975373],[-104.532927,43.975279],[-104.527777,43.975186],[-104.522626,43.975092],[-104.517475,43.974999],[-104.517432,43.971373],[-104.517388,43.967748],[-104.517345,43.964122],[-104.517301,43.960496]]]}},{"type":"Feature","properties":{"sec":"26","frstdivid":"WY060460N0640W0SN260"},"geometry":{"type":"Polygon","coordinates":[[[-104.50763,43.931355],[-104.512726,43.931422],[-104.517823,43.931489],[-104.517715,43.935115],[-104.517608,43.938741],[-104.517501,43.942367],[-104.517393,43.945993],[-104.512309,43.945922],[-104.507225,43.945851],[-104.50214,43.94578],[-104.497056,43.945708],[-104.497151,43.942087],[-104.497246,43.938465],[-104.497342,43.934843],[-104.497437,43.931222],[-104.502533,43.931289],[-104.50763,43.931355]]]}},{"type":"Feature","properties":{"sec":"36","frstdivid":"WY060460N0640W0SN360"},"geometry":{"type":"Polygon","coordinates":[[[-104.492622,43.91667],[-104.497712,43.916735],[-104.497643,43.920357],[-104.497574,43.923978],[-104.497506,43.9276],[-104.497437,43.931222],[-104.492326,43.931141],[-104.487215,43.931061],[-104.482104,43.93098],[-104.476993,43.930899],[-104.477083,43.927292],[-104.477173,43.923685],[-104.477262,43.920079],[-104.477352,43.916473],[-104.482442,43.916539],[-104.487532,43.916604],[-104.492622,43.91667]]]}},{"type":"Feature","properties":{"sec":"34","frstdivid":"WY060460N0640W0SN340"},"geometry":{"type":"Polygon","coordinates":[[[-104.517823,43.931489],[-104.517885,43.927864],[-104.517947,43.924238],[-104.518009,43.920613],[-104.518071,43.916987],[-104.523161,43.917046],[-104.52825,43.917105],[-104.53334,43.917164],[-104.53843,43.917222],[-104.538392,43.920857],[-104.538354,43.924491],[-104.538317,43.928126],[-104.538279,43.93176],[-104.533165,43.931693],[-104.528051,43.931625],[-104.522937,43.931557],[-104.517823,43.931489]]]}},{"type":"Feature","properties":{"sec":"13","frstdivid":"WY060460N0640W0SN130"},"geometry":{"type":"Polygon","coordinates":[[[-104.476444,43.970706],[-104.476439,43.967073],[-104.476434,43.96344],[-104.476428,43.959807],[-104.481538,43.959904],[-104.486647,43.960001],[-104.491757,43.960098],[-104.496866,43.960195],[-104.496897,43.963817],[-104.496929,43.967439],[-104.49696,43.971061],[-104.496992,43.974683],[-104.491856,43.974597],[-104.486721,43.974511],[-104.481585,43.974425],[-104.476449,43.974339],[-104.476444,43.970706]]]}},{"type":"Feature","properties":{"sec":"25","frstdivid":"WY060460N0640W0SN250"},"geometry":{"type":"Polygon","coordinates":[[[-104.491942,43.945618],[-104.486827,43.945528],[-104.481713,43.945438],[-104.476599,43.945348],[-104.476697,43.941734],[-104.476796,43.938121],[-104.476895,43.93451],[-104.476993,43.930899],[-104.482104,43.93098],[-104.487215,43.931061],[-104.492326,43.931141],[-104.497437,43.931222],[-104.497342,43.934843],[-104.497246,43.938465],[-104.497151,43.942087],[-104.497056,43.945708],[-104.491942,43.945618]]]}},{"type":"Feature","properties":{"sec":"09","frstdivid":"WY060460N0640W0SN090"},"geometry":{"type":"Polygon","coordinates":[[[-104.548316,43.990059],[-104.543201,43.989985],[-104.538087,43.989911],[-104.538085,43.986276],[-104.538082,43.982642],[-104.53808,43.979007],[-104.538078,43.975373],[-104.543185,43.975444],[-104.548293,43.975516],[-104.5534,43.975587],[-104.558507,43.975659],[-104.558517,43.979296],[-104.558526,43.982933],[-104.558536,43.98657],[-104.558545,43.990207],[-104.55343,43.990133],[-104.548316,43.990059]]]}},{"type":"Feature","properties":{"sec":"03","frstdivid":"WY060460N0640W0SN030"},"geometry":{"type":"Polygon","coordinates":[[[-104.51754,44.000379],[-104.517516,43.996753],[-104.517491,43.993128],[-104.517467,43.989502],[-104.522622,43.989604],[-104.527777,43.989706],[-104.532932,43.989808],[-104.538087,43.989911],[-104.538076,43.993545],[-104.538065,43.99718],[-104.538052,44.000814],[-104.538039,44.004378],[-104.53292,44.00429],[-104.527802,44.004202],[-104.522684,44.004114],[-104.517565,44.004026],[-104.51754,44.000379]]]}},{"type":"Feature","properties":{"sec":"35","frstdivid":"WY060460N0640W0SN350"},"geometry":{"type":"Polygon","coordinates":[[[-104.517947,43.924238],[-104.517885,43.927864],[-104.517823,43.931489],[-104.512726,43.931422],[-104.50763,43.931355],[-104.502533,43.931289],[-104.497437,43.931222],[-104.497506,43.9276],[-104.497574,43.923978],[-104.497643,43.920357],[-104.497712,43.916735],[-104.502801,43.916798],[-104.507891,43.916861],[-104.512981,43.916924],[-104.518071,43.916987],[-104.518009,43.920613],[-104.517947,43.924238]]]}},{"type":"Feature","properties":{"sec":"10","frstdivid":"WY060460N0640W0SN100"},"geometry":{"type":"Polygon","coordinates":[[[-104.53808,43.979007],[-104.538082,43.982642],[-104.538085,43.986276],[-104.538087,43.989911],[-104.532932,43.989808],[-104.527777,43.989706],[-104.522622,43.989604],[-104.517467,43.989502],[-104.517469,43.985876],[-104.517471,43.98225],[-104.517473,43.978625],[-104.517475,43.974999],[-104.522626,43.975092],[-104.527777,43.975186],[-104.532927,43.975279],[-104.538078,43.975373],[-104.53808,43.979007]]]}},{"type":"Feature","properties":{"sec":"11","frstdivid":"WY060460N0640W0SN110"},"geometry":{"type":"Polygon","coordinates":[[[-104.502023,43.989254],[-104.496875,43.989171],[-104.496904,43.985549],[-104.496933,43.981927],[-104.496963,43.978305],[-104.496992,43.974683],[-104.502113,43.974762],[-104.507234,43.974841],[-104.512355,43.97492],[-104.517475,43.974999],[-104.517473,43.978625],[-104.517471,43.98225],[-104.517469,43.985876],[-104.517467,43.989502],[-104.512319,43.989419],[-104.507171,43.989337],[-104.502023,43.989254]]]}},{"type":"Feature","properties":{"sec":"28","frstdivid":"WY060460N0640W0SN280"},"geometry":{"type":"Polygon","coordinates":[[[-104.538192,43.935395],[-104.538279,43.93176],[-104.543372,43.931823],[-104.548464,43.931886],[-104.553557,43.931949],[-104.558649,43.932012],[-104.5586,43.935649],[-104.55855,43.939286],[-104.5585,43.942924],[-104.55845,43.946561],[-104.55332,43.946495],[-104.54819,43.946429],[-104.54306,43.946364],[-104.53793,43.946298],[-104.538017,43.942663],[-104.538105,43.939029],[-104.538192,43.935395]]]}},{"type":"Feature","properties":{"sec":"33","frstdivid":"WY060460N0640W0SN330"},"geometry":{"type":"Polygon","coordinates":[[[-104.558649,43.932012],[-104.553557,43.931949],[-104.548464,43.931886],[-104.543372,43.931823],[-104.538279,43.93176],[-104.538317,43.928126],[-104.538354,43.924491],[-104.538392,43.920857],[-104.53843,43.917222],[-104.543519,43.917282],[-104.548609,43.917342],[-104.553698,43.917402],[-104.558788,43.917462],[-104.558753,43.9211],[-104.558719,43.924737],[-104.558684,43.928374],[-104.558649,43.932012]]]}},{"type":"Feature","properties":{"sec":"01","frstdivid":"WY060460N0640W0SN010"},"geometry":{"type":"Polygon","coordinates":[[[-104.486854,44.003521],[-104.481735,44.003435],[-104.476617,44.00335],[-104.476554,43.999719],[-104.476492,43.996088],[-104.476468,43.992473],[-104.476444,43.988858],[-104.481551,43.988936],[-104.486659,43.989014],[-104.491767,43.989093],[-104.496875,43.989171],[-104.496928,43.992793],[-104.496982,43.996415],[-104.497036,44.000036],[-104.497091,44.003693],[-104.491973,44.003607],[-104.486854,44.003521]]]}},{"type":"Feature","properties":{"sec":"24","frstdivid":"WY060460N0640W0SN240"},"geometry":{"type":"Polygon","coordinates":[[[-104.491757,43.960098],[-104.486647,43.960001],[-104.481538,43.959904],[-104.476428,43.959807],[-104.476422,43.956175],[-104.476416,43.952543],[-104.476507,43.948945],[-104.476599,43.945348],[-104.481713,43.945438],[-104.486827,43.945528],[-104.491942,43.945618],[-104.497056,43.945708],[-104.497008,43.94933],[-104.496961,43.952952],[-104.496913,43.956574],[-104.496866,43.960195],[-104.491757,43.960098]]]}},{"type":"Feature","properties":{"sec":"04","frstdivid":"WY060460N0640W0SN040"},"geometry":{"type":"Polygon","coordinates":[[[-104.548276,44.004548],[-104.543157,44.004463],[-104.538039,44.004378],[-104.538052,44.000814],[-104.538065,43.99718],[-104.538076,43.993545],[-104.538087,43.989911],[-104.543201,43.989985],[-104.548316,43.990059],[-104.55343,43.990133],[-104.558545,43.990207],[-104.558538,43.993845],[-104.55853,43.997482],[-104.558522,44.001119],[-104.558514,44.004718],[-104.553395,44.004633],[-104.548276,44.004548]]]}}]}