{"type":"FeatureCollection","note":"BLM Public Land Survey System. Provided by the Bureau of Land Management as is. These data are neither legal documents nor land surveys and must not be used as such.","features":[{"type":"Feature","properties":{"sec":"32","frstdivid":"MT200120N0570E0SN320"},"geometry":{"type":"Polygon","coordinates":[[[-104.570628,46.742888],[-104.575911,46.742895],[-104.581189,46.742902],[-104.586468,46.742909],[-104.586483,46.746531],[-104.586499,46.750153],[-104.586515,46.753775],[-104.586531,46.757397],[-104.581248,46.757386],[-104.575964,46.757375],[-104.570671,46.757369],[-104.565379,46.757363],[-104.565369,46.753712],[-104.565359,46.750061],[-104.565353,46.74647],[-104.565346,46.74288],[-104.570628,46.742888]]]}},{"type":"Feature","properties":{"sec":"06","frstdivid":"MT200120N0570E0SN060"},"geometry":{"type":"Polygon","coordinates":[[[-104.593116,46.831887],[-104.592989,46.831887],[-104.591933,46.831887],[-104.587723,46.831886],[-104.586586,46.831885],[-104.586575,46.829859],[-104.586555,46.826232],[-104.586535,46.822605],[-104.586617,46.818975],[-104.586699,46.815345],[-104.591981,46.815372],[-104.597263,46.8154],[-104.602545,46.815428],[-104.607268,46.815454],[-104.607276,46.819077],[-104.607285,46.8227],[-104.60729,46.826325],[-104.607295,46.82995],[-104.607298,46.831884],[-104.603706,46.831883],[-104.603532,46.831883],[-104.602625,46.831883],[-104.598261,46.831885],[-104.59728,46.831885],[-104.593116,46.831887]]]}},{"type":"Feature","properties":{"sec":"29","frstdivid":"MT200120N0570E0SN290"},"geometry":{"type":"Polygon","coordinates":[[[-104.586544,46.768284],[-104.586552,46.771912],[-104.581265,46.771869],[-104.575978,46.771825],[-104.570695,46.77182],[-104.565413,46.771814],[-104.565407,46.768194],[-104.5654,46.764574],[-104.565389,46.760969],[-104.565379,46.757363],[-104.570671,46.757369],[-104.575964,46.757375],[-104.581248,46.757386],[-104.586531,46.757397],[-104.586533,46.761026],[-104.586535,46.764655],[-104.586544,46.768284]]]}},{"type":"Feature","properties":{"sec":"04","frstdivid":"MT200120N0570E0SN040"},"geometry":{"type":"Polygon","coordinates":[[[-104.565586,46.831887],[-104.561371,46.831887],[-104.560314,46.831887],[-104.555041,46.831885],[-104.554614,46.831884],[-104.55078,46.831883],[-104.54977,46.831882],[-104.549337,46.831882],[-104.544498,46.83188],[-104.544491,46.829731],[-104.544477,46.826065],[-104.544464,46.822399],[-104.544454,46.81878],[-104.544444,46.815161],[-104.549718,46.81517],[-104.554992,46.81518],[-104.560268,46.815231],[-104.565544,46.815282],[-104.565553,46.818908],[-104.565562,46.822533],[-104.565571,46.826156],[-104.56558,46.82978],[-104.565586,46.831887]]]}},{"type":"Feature","properties":{"sec":"13","frstdivid":"MT200120N0570E0SN130"},"geometry":{"type":"Polygon","coordinates":[[[-104.486232,46.786206],[-104.491515,46.786224],[-104.49678,46.786242],[-104.502046,46.78626],[-104.502049,46.789885],[-104.502052,46.79351],[-104.502056,46.797121],[-104.502059,46.800733],[-104.496772,46.800723],[-104.491484,46.800713],[-104.486207,46.800701],[-104.48093,46.800688],[-104.480935,46.797063],[-104.48094,46.793438],[-104.480945,46.789813],[-104.48095,46.786188],[-104.486232,46.786206]]]}},{"type":"Feature","properties":{"sec":"14","frstdivid":"MT200120N0570E0SN140"},"geometry":{"type":"Polygon","coordinates":[[[-104.502059,46.800733],[-104.502056,46.797121],[-104.502052,46.79351],[-104.502049,46.789885],[-104.502046,46.78626],[-104.507359,46.78627],[-104.512672,46.786281],[-104.517959,46.786288],[-104.523245,46.786295],[-104.523258,46.789923],[-104.52327,46.79355],[-104.523281,46.797143],[-104.523292,46.800736],[-104.51799,46.800751],[-104.512689,46.800767],[-104.507374,46.80075],[-104.502059,46.800733]]]}},{"type":"Feature","properties":{"sec":"33","frstdivid":"MT200120N0570E0SN330"},"geometry":{"type":"Polygon","coordinates":[[[-104.544268,46.75368],[-104.544262,46.750069],[-104.544257,46.746457],[-104.544251,46.742846],[-104.549529,46.742856],[-104.554807,46.742866],[-104.560076,46.742873],[-104.565346,46.74288],[-104.565353,46.74647],[-104.565359,46.750061],[-104.565369,46.753712],[-104.565379,46.757363],[-104.560096,46.75735],[-104.554814,46.757336],[-104.549544,46.757314],[-104.544274,46.757292],[-104.544268,46.75368]]]}},{"type":"Feature","properties":{"sec":"34","frstdivid":"MT200120N0570E0SN340"},"geometry":{"type":"Polygon","coordinates":[[[-104.544268,46.75368],[-104.544274,46.757292],[-104.538998,46.7573],[-104.533723,46.757307],[-104.528458,46.75731],[-104.523193,46.757312],[-104.523186,46.753692],[-104.523178,46.750072],[-104.523171,46.746451],[-104.523163,46.742831],[-104.528427,46.742837],[-104.53369,46.742843],[-104.538971,46.742845],[-104.544251,46.742846],[-104.544257,46.746457],[-104.544262,46.750069],[-104.544268,46.75368]]]}},{"type":"Feature","properties":{"sec":"11","frstdivid":"MT200120N0570E0SN110"},"geometry":{"type":"Polygon","coordinates":[[[-104.502069,46.80435],[-104.502059,46.800733],[-104.507374,46.80075],[-104.512689,46.800767],[-104.51799,46.800751],[-104.523292,46.800736],[-104.523299,46.804388],[-104.523306,46.80804],[-104.523311,46.811662],[-104.523316,46.815283],[-104.518009,46.815265],[-104.512701,46.815246],[-104.507393,46.815226],[-104.502084,46.815205],[-104.502082,46.811586],[-104.502079,46.807966],[-104.502069,46.80435]]]}},{"type":"Feature","properties":{"sec":"05","frstdivid":"MT200120N0570E0SN050"},"geometry":{"type":"Polygon","coordinates":[[[-104.565544,46.815282],[-104.570854,46.815295],[-104.576163,46.815308],[-104.581431,46.815327],[-104.586699,46.815345],[-104.586617,46.818975],[-104.586535,46.822605],[-104.586555,46.826232],[-104.586575,46.829859],[-104.586586,46.831885],[-104.582533,46.831885],[-104.582456,46.831885],[-104.581336,46.831885],[-104.577208,46.831886],[-104.576087,46.831886],[-104.57196,46.831887],[-104.570836,46.831887],[-104.566666,46.831887],[-104.565586,46.831887],[-104.56558,46.82978],[-104.565571,46.826156],[-104.565562,46.822533],[-104.565553,46.818908],[-104.565544,46.815282]]]}},{"type":"Feature","properties":{"sec":"26","frstdivid":"MT200120N0570E0SN260"},"geometry":{"type":"Polygon","coordinates":[[[-104.517914,46.757301],[-104.523193,46.757312],[-104.523199,46.760934],[-104.523204,46.764555],[-104.523208,46.768183],[-104.523212,46.771812],[-104.517924,46.771796],[-104.512636,46.771781],[-104.507347,46.771765],[-104.502059,46.771749],[-104.502065,46.768107],[-104.502071,46.764464],[-104.502075,46.760866],[-104.502078,46.757267],[-104.507357,46.757279],[-104.512636,46.75729],[-104.517914,46.757301]]]}},{"type":"Feature","properties":{"sec":"22","frstdivid":"MT200120N0570E0SN220"},"geometry":{"type":"Polygon","coordinates":[[[-104.54432,46.782609],[-104.544329,46.786225],[-104.539058,46.786242],[-104.533787,46.78626],[-104.528516,46.786278],[-104.523245,46.786295],[-104.523238,46.782677],[-104.52323,46.779058],[-104.523221,46.775435],[-104.523212,46.771812],[-104.528483,46.771802],[-104.533754,46.771792],[-104.539024,46.771776],[-104.544294,46.771761],[-104.544302,46.775377],[-104.544311,46.778993],[-104.54432,46.782609]]]}},{"type":"Feature","properties":{"sec":"19","frstdivid":"MT200120N0570E0SN190"},"geometry":{"type":"Polygon","coordinates":[[[-104.607182,46.782804],[-104.60719,46.78643],[-104.602449,46.786432],[-104.597168,46.786435],[-104.591885,46.78642],[-104.586601,46.786404],[-104.586592,46.78278],[-104.586583,46.779155],[-104.586567,46.775534],[-104.586552,46.771912],[-104.591841,46.771915],[-104.59713,46.771917],[-104.602395,46.771918],[-104.607154,46.771919],[-104.607164,46.775548],[-104.607173,46.779178],[-104.607182,46.782804]]]}},{"type":"Feature","properties":{"sec":"31","frstdivid":"MT200120N0570E0SN310"},"geometry":{"type":"Polygon","coordinates":[[[-104.586468,46.742909],[-104.591734,46.742916],[-104.597001,46.742924],[-104.602267,46.742931],[-104.607087,46.742938],[-104.607094,46.746561],[-104.607102,46.750184],[-104.607111,46.75381],[-104.60712,46.757435],[-104.602345,46.757426],[-104.597095,46.757417],[-104.591813,46.757407],[-104.586531,46.757397],[-104.586515,46.753775],[-104.586499,46.750153],[-104.586483,46.746531],[-104.586468,46.742909]]]}},{"type":"Feature","properties":{"sec":"07","frstdivid":"MT200120N0570E0SN070"},"geometry":{"type":"Polygon","coordinates":[[[-104.602486,46.800937],[-104.607234,46.800947],[-104.607243,46.804574],[-104.607251,46.8082],[-104.607259,46.811827],[-104.607268,46.815454],[-104.602545,46.815428],[-104.597263,46.8154],[-104.591981,46.815372],[-104.586699,46.815345],[-104.58669,46.811719],[-104.586681,46.808094],[-104.586671,46.804498],[-104.58666,46.800902],[-104.591934,46.800914],[-104.597207,46.800926],[-104.602486,46.800937]]]}},{"type":"Feature","properties":{"sec":"36","frstdivid":"MT200120N0570E0SN360"},"geometry":{"type":"Polygon","coordinates":[[[-104.480991,46.742785],[-104.486268,46.742785],[-104.491545,46.742784],[-104.496817,46.742797],[-104.502089,46.742809],[-104.502068,46.746433],[-104.502048,46.750057],[-104.502063,46.753662],[-104.502078,46.757267],[-104.49681,46.757265],[-104.491542,46.757263],[-104.486262,46.757258],[-104.480981,46.757253],[-104.480985,46.753635],[-104.480989,46.750016],[-104.48099,46.746401],[-104.480991,46.742785]]]}},{"type":"Feature","properties":{"sec":"15","frstdivid":"MT200120N0570E0SN150"},"geometry":{"type":"Polygon","coordinates":[[[-104.539058,46.786242],[-104.544329,46.786225],[-104.544337,46.789839],[-104.544345,46.793453],[-104.544353,46.797068],[-104.544361,46.800682],[-104.539072,46.800691],[-104.533783,46.8007],[-104.528537,46.800718],[-104.523292,46.800736],[-104.523281,46.797143],[-104.52327,46.79355],[-104.523258,46.789923],[-104.523245,46.786295],[-104.528516,46.786278],[-104.533787,46.78626],[-104.539058,46.786242]]]}},{"type":"Feature","properties":{"sec":"17","frstdivid":"MT200120N0570E0SN170"},"geometry":{"type":"Polygon","coordinates":[[[-104.581312,46.786374],[-104.586601,46.786404],[-104.586612,46.790028],[-104.586623,46.793652],[-104.586642,46.797277],[-104.58666,46.800902],[-104.581412,46.800786],[-104.576164,46.80067],[-104.570832,46.800713],[-104.5655,46.800756],[-104.565487,46.797137],[-104.565473,46.793519],[-104.565464,46.789899],[-104.565456,46.786279],[-104.570739,46.786312],[-104.576022,46.786344],[-104.581312,46.786374]]]}},{"type":"Feature","properties":{"sec":"02","frstdivid":"MT200120N0570E0SN020"},"geometry":{"type":"Polygon","coordinates":[[[-104.517953,46.831866],[-104.517658,46.831865],[-104.512658,46.831858],[-104.512388,46.831858],[-104.508363,46.831852],[-104.507364,46.831851],[-104.507119,46.83185],[-104.502069,46.831841],[-104.502076,46.82969],[-104.502087,46.82607],[-104.502098,46.822449],[-104.502091,46.818827],[-104.502084,46.815205],[-104.507393,46.815226],[-104.512701,46.815246],[-104.518009,46.815265],[-104.523316,46.815283],[-104.523327,46.818906],[-104.523337,46.822529],[-104.523302,46.826149],[-104.523268,46.82977],[-104.523247,46.83187],[-104.522939,46.83187],[-104.51896,46.831867],[-104.517953,46.831866]]]}},{"type":"Feature","properties":{"sec":"24","frstdivid":"MT200120N0570E0SN240"},"geometry":{"type":"Polygon","coordinates":[[[-104.49678,46.786242],[-104.491515,46.786224],[-104.486232,46.786206],[-104.48095,46.786188],[-104.480957,46.782579],[-104.480965,46.778969],[-104.480968,46.77535],[-104.48097,46.771732],[-104.486238,46.771738],[-104.491505,46.771745],[-104.496782,46.771747],[-104.502059,46.771749],[-104.502055,46.775377],[-104.502052,46.779005],[-104.502049,46.782632],[-104.502046,46.78626],[-104.49678,46.786242]]]}},{"type":"Feature","properties":{"sec":"08","frstdivid":"MT200120N0570E0SN080"},"geometry":{"type":"Polygon","coordinates":[[[-104.58669,46.811719],[-104.586699,46.815345],[-104.581431,46.815327],[-104.576163,46.815308],[-104.570854,46.815295],[-104.565544,46.815282],[-104.565533,46.811651],[-104.565522,46.808019],[-104.565511,46.804388],[-104.5655,46.800756],[-104.570832,46.800713],[-104.576164,46.80067],[-104.581412,46.800786],[-104.58666,46.800902],[-104.586671,46.804498],[-104.586681,46.808094],[-104.58669,46.811719]]]}},{"type":"Feature","properties":{"sec":"25","frstdivid":"MT200120N0570E0SN250"},"geometry":{"type":"Polygon","coordinates":[[[-104.491542,46.757263],[-104.49681,46.757265],[-104.502078,46.757267],[-104.502075,46.760866],[-104.502071,46.764464],[-104.502065,46.768107],[-104.502059,46.771749],[-104.496782,46.771747],[-104.491505,46.771745],[-104.486238,46.771738],[-104.48097,46.771732],[-104.480974,46.768108],[-104.480977,46.764483],[-104.480979,46.760868],[-104.480981,46.757253],[-104.486262,46.757258],[-104.491542,46.757263]]]}},{"type":"Feature","properties":{"sec":"09","frstdivid":"MT200120N0570E0SN090"},"geometry":{"type":"Polygon","coordinates":[[[-104.549718,46.81517],[-104.544444,46.815161],[-104.544423,46.811541],[-104.544402,46.807921],[-104.544382,46.804302],[-104.544361,46.800682],[-104.549646,46.800701],[-104.554931,46.800719],[-104.560216,46.800738],[-104.5655,46.800756],[-104.565511,46.804388],[-104.565522,46.808019],[-104.565533,46.811651],[-104.565544,46.815282],[-104.560268,46.815231],[-104.554992,46.81518],[-104.549718,46.81517]]]}},{"type":"Feature","properties":{"sec":"03","frstdivid":"MT200120N0570E0SN030"},"geometry":{"type":"Polygon","coordinates":[[[-104.544477,46.826065],[-104.544491,46.829731],[-104.544498,46.83188],[-104.544065,46.83188],[-104.540179,46.831879],[-104.539186,46.831878],[-104.538792,46.831878],[-104.533874,46.831877],[-104.533506,46.831876],[-104.529584,46.831875],[-104.528561,46.831874],[-104.528221,46.831874],[-104.523247,46.83187],[-104.523268,46.82977],[-104.523302,46.826149],[-104.523337,46.822529],[-104.523327,46.818906],[-104.523316,46.815283],[-104.528598,46.815254],[-104.53388,46.815225],[-104.539162,46.815193],[-104.544444,46.815161],[-104.544454,46.81878],[-104.544464,46.822399],[-104.544477,46.826065]]]}},{"type":"Feature","properties":{"sec":"20","frstdivid":"MT200120N0570E0SN200"},"geometry":{"type":"Polygon","coordinates":[[[-104.586601,46.786404],[-104.581312,46.786374],[-104.576022,46.786344],[-104.570739,46.786312],[-104.565456,46.786279],[-104.565445,46.782663],[-104.565434,46.779047],[-104.565424,46.77543],[-104.565413,46.771814],[-104.570695,46.77182],[-104.575978,46.771825],[-104.581265,46.771869],[-104.586552,46.771912],[-104.586567,46.775534],[-104.586583,46.779155],[-104.586592,46.78278],[-104.586601,46.786404]]]}},{"type":"Feature","properties":{"sec":"35","frstdivid":"MT200120N0570E0SN350"},"geometry":{"type":"Polygon","coordinates":[[[-104.523163,46.742831],[-104.523171,46.746451],[-104.523178,46.750072],[-104.523186,46.753692],[-104.523193,46.757312],[-104.517914,46.757301],[-104.512636,46.75729],[-104.507357,46.757279],[-104.502078,46.757267],[-104.502063,46.753662],[-104.502048,46.750057],[-104.502068,46.746433],[-104.502089,46.742809],[-104.507355,46.742816],[-104.512621,46.742823],[-104.517892,46.742827],[-104.523163,46.742831]]]}},{"type":"Feature","properties":{"sec":"23","frstdivid":"MT200120N0570E0SN230"},"geometry":{"type":"Polygon","coordinates":[[[-104.523245,46.786295],[-104.517959,46.786288],[-104.512672,46.786281],[-104.507359,46.78627],[-104.502046,46.78626],[-104.502049,46.782632],[-104.502052,46.779005],[-104.502055,46.775377],[-104.502059,46.771749],[-104.507347,46.771765],[-104.512636,46.771781],[-104.517924,46.771796],[-104.523212,46.771812],[-104.523221,46.775435],[-104.52323,46.779058],[-104.523238,46.782677],[-104.523245,46.786295]]]}},{"type":"Feature","properties":{"sec":"30","frstdivid":"MT200120N0570E0SN300"},"geometry":{"type":"Polygon","coordinates":[[[-104.602345,46.757426],[-104.60712,46.757435],[-104.607128,46.761057],[-104.607135,46.76468],[-104.607145,46.768299],[-104.607154,46.771919],[-104.602395,46.771918],[-104.59713,46.771917],[-104.591841,46.771915],[-104.586552,46.771912],[-104.586544,46.768284],[-104.586535,46.764655],[-104.586533,46.761026],[-104.586531,46.757397],[-104.591813,46.757407],[-104.597095,46.757417],[-104.602345,46.757426]]]}},{"type":"Feature","properties":{"sec":"27","frstdivid":"MT200120N0570E0SN270"},"geometry":{"type":"Polygon","coordinates":[[[-104.528483,46.771802],[-104.523212,46.771812],[-104.523208,46.768183],[-104.523204,46.764555],[-104.523199,46.760934],[-104.523193,46.757312],[-104.528458,46.75731],[-104.533723,46.757307],[-104.538998,46.7573],[-104.544274,46.757292],[-104.544279,46.760909],[-104.544284,46.764526],[-104.544289,46.768144],[-104.544294,46.771761],[-104.539024,46.771776],[-104.533754,46.771792],[-104.528483,46.771802]]]}},{"type":"Feature","properties":{"sec":"28","frstdivid":"MT200120N0570E0SN280"},"geometry":{"type":"Polygon","coordinates":[[[-104.565379,46.757363],[-104.565389,46.760969],[-104.5654,46.764574],[-104.565407,46.768194],[-104.565413,46.771814],[-104.560133,46.771801],[-104.554853,46.771787],[-104.549573,46.771774],[-104.544294,46.771761],[-104.544289,46.768144],[-104.544284,46.764526],[-104.544279,46.760909],[-104.544274,46.757292],[-104.549544,46.757314],[-104.554814,46.757336],[-104.560096,46.75735],[-104.565379,46.757363]]]}},{"type":"Feature","properties":{"sec":"01","frstdivid":"MT200120N0570E0SN010"},"geometry":{"type":"Polygon","coordinates":[[[-104.502091,46.818827],[-104.502098,46.822449],[-104.502087,46.82607],[-104.502076,46.82969],[-104.502069,46.831841],[-104.501839,46.831841],[-104.497723,46.831833],[-104.496774,46.831832],[-104.49656,46.831832],[-104.491478,46.831821],[-104.491284,46.83182],[-104.487125,46.831811],[-104.48618,46.831809],[-104.486008,46.831808],[-104.480883,46.8318],[-104.480885,46.82966],[-104.480888,46.826036],[-104.480891,46.822412],[-104.480897,46.818793],[-104.480902,46.815173],[-104.486194,46.815183],[-104.491485,46.815192],[-104.496785,46.815199],[-104.502084,46.815205],[-104.502091,46.818827]]]}},{"type":"Feature","properties":{"sec":"18","frstdivid":"MT200120N0570E0SN180"},"geometry":{"type":"Polygon","coordinates":[[[-104.602486,46.800937],[-104.597207,46.800926],[-104.591934,46.800914],[-104.58666,46.800902],[-104.586642,46.797277],[-104.586623,46.793652],[-104.586612,46.790028],[-104.586601,46.786404],[-104.591885,46.78642],[-104.597168,46.786435],[-104.602449,46.786432],[-104.60719,46.78643],[-104.607205,46.790061],[-104.60722,46.793693],[-104.607227,46.79732],[-104.607234,46.800947],[-104.602486,46.800937]]]}},{"type":"Feature","properties":{"sec":"10","frstdivid":"MT200120N0570E0SN100"},"geometry":{"type":"Polygon","coordinates":[[[-104.539072,46.800691],[-104.544361,46.800682],[-104.544382,46.804302],[-104.544402,46.807921],[-104.544423,46.811541],[-104.544444,46.815161],[-104.539162,46.815193],[-104.53388,46.815225],[-104.528598,46.815254],[-104.523316,46.815283],[-104.523311,46.811662],[-104.523306,46.80804],[-104.523299,46.804388],[-104.523292,46.800736],[-104.528537,46.800718],[-104.533783,46.8007],[-104.539072,46.800691]]]}},{"type":"Feature","properties":{"sec":"21","frstdivid":"MT200120N0570E0SN210"},"geometry":{"type":"Polygon","coordinates":[[[-104.565456,46.786279],[-104.560177,46.786262],[-104.554899,46.786245],[-104.549614,46.786235],[-104.544329,46.786225],[-104.54432,46.782609],[-104.544311,46.778993],[-104.544302,46.775377],[-104.544294,46.771761],[-104.549573,46.771774],[-104.554853,46.771787],[-104.560133,46.771801],[-104.565413,46.771814],[-104.565424,46.77543],[-104.565434,46.779047],[-104.565445,46.782663],[-104.565456,46.786279]]]}},{"type":"Feature","properties":{"sec":"12","frstdivid":"MT200120N0570E0SN120"},"geometry":{"type":"Polygon","coordinates":[[[-104.486194,46.815183],[-104.480902,46.815173],[-104.480909,46.811552],[-104.480916,46.80793],[-104.480923,46.804309],[-104.48093,46.800688],[-104.486207,46.800701],[-104.491484,46.800713],[-104.496772,46.800723],[-104.502059,46.800733],[-104.502069,46.80435],[-104.502079,46.807966],[-104.502082,46.811586],[-104.502084,46.815205],[-104.496785,46.815199],[-104.491485,46.815192],[-104.486194,46.815183]]]}},{"type":"Feature","properties":{"sec":"16","frstdivid":"MT200120N0570E0SN160"},"geometry":{"type":"Polygon","coordinates":[[[-104.565487,46.797137],[-104.5655,46.800756],[-104.560216,46.800738],[-104.554931,46.800719],[-104.549646,46.800701],[-104.544361,46.800682],[-104.544353,46.797068],[-104.544345,46.793453],[-104.544337,46.789839],[-104.544329,46.786225],[-104.549614,46.786235],[-104.554899,46.786245],[-104.560177,46.786262],[-104.565456,46.786279],[-104.565464,46.789899],[-104.565473,46.793519],[-104.565487,46.797137]]]}}]}