{"type":"FeatureCollection","note":"BLM Public Land Survey System. Provided by the Bureau of Land Management as is. These data are neither legal documents nor land surveys and must not be used as such.","features":[{"type":"Feature","properties":{"sec":"35","frstdivid":"MT200010S0380E0SN350"},"geometry":{"type":"Polygon","coordinates":[[[-106.994678,45.702104],[-106.999848,45.702123],[-107.005019,45.702143],[-107.010187,45.702159],[-107.016161,45.702176],[-107.019129,45.702165],[-107.019105,45.705868],[-107.019106,45.709479],[-107.019108,45.71309],[-107.019109,45.716702],[-107.015843,45.716708],[-107.010065,45.716684],[-107.004906,45.716663],[-106.999752,45.716641],[-106.994598,45.716618],[-106.994615,45.713006],[-106.994631,45.709394],[-106.994648,45.705782],[-106.994678,45.702104]]]}},{"type":"Feature","properties":{"sec":"17","frstdivid":"MT200010S0380E0SN170"},"geometry":{"type":"Polygon","coordinates":[[[-107.060356,45.756453],[-107.060356,45.756001],[-107.060352,45.752835],[-107.060349,45.750122],[-107.060349,45.749218],[-107.060345,45.7456],[-107.065498,45.74558],[-107.070652,45.745559],[-107.075805,45.745538],[-107.080959,45.745517],[-107.080959,45.746114],[-107.080957,45.749137],[-107.080957,45.749734],[-107.080957,45.750042],[-107.080957,45.752758],[-107.080957,45.753355],[-107.080956,45.755926],[-107.080956,45.756378],[-107.080956,45.756975],[-107.080954,45.759999],[-107.075806,45.760017],[-107.070658,45.760036],[-107.065509,45.760053],[-107.060361,45.76007],[-107.060356,45.756453]]]}},{"type":"Feature","properties":{"sec":"05","frstdivid":"MT200010S0380E0SN050"},"geometry":{"type":"Polygon","coordinates":[[[-107.060383,45.781776],[-107.060371,45.778158],[-107.060364,45.77454],[-107.065515,45.774522],[-107.070666,45.774503],[-107.075817,45.774483],[-107.080967,45.774462],[-107.080969,45.775058],[-107.080989,45.778076],[-107.080992,45.778672],[-107.081038,45.781691],[-107.081074,45.783104],[-107.080839,45.783105],[-107.078245,45.783105],[-107.075894,45.783105],[-107.073058,45.783103],[-107.070723,45.783104],[-107.067872,45.783102],[-107.065553,45.783101],[-107.062687,45.783098],[-107.060385,45.783098],[-107.060383,45.781776]]]}},{"type":"Feature","properties":{"sec":"14","frstdivid":"MT200010S0380E0SN140"},"geometry":{"type":"Polygon","coordinates":[[[-106.994497,45.745594],[-106.999658,45.745617],[-107.004818,45.74564],[-107.009982,45.745661],[-107.015355,45.745683],[-107.019118,45.745677],[-107.019121,45.74933],[-107.019123,45.752982],[-107.019126,45.756634],[-107.019129,45.760287],[-107.015143,45.76032],[-107.009863,45.760281],[-107.004706,45.760244],[-106.99956,45.760191],[-106.994415,45.760138],[-106.994435,45.756502],[-106.994456,45.752866],[-106.994476,45.74923],[-106.994497,45.745594]]]}},{"type":"Feature","properties":{"sec":"10","frstdivid":"MT200010S0380E0SN100"},"geometry":{"type":"Polygon","coordinates":[[[-107.019129,45.760287],[-107.024266,45.760259],[-107.029403,45.760232],[-107.03454,45.760205],[-107.039676,45.760178],[-107.039675,45.76379],[-107.039674,45.765596],[-107.039672,45.767403],[-107.039671,45.768168],[-107.039668,45.771016],[-107.039665,45.77463],[-107.034528,45.774637],[-107.029392,45.774642],[-107.024255,45.774649],[-107.019119,45.774657],[-107.019115,45.771041],[-107.019113,45.768176],[-107.019114,45.767426],[-107.019122,45.763856],[-107.019129,45.760287]]]}},{"type":"Feature","properties":{"sec":"15","frstdivid":"MT200010S0380E0SN150"},"geometry":{"type":"Polygon","coordinates":[[[-107.019118,45.745677],[-107.024257,45.745676],[-107.029395,45.745675],[-107.034534,45.745674],[-107.039672,45.745673],[-107.039673,45.749299],[-107.039674,45.752925],[-107.039675,45.756552],[-107.039676,45.760178],[-107.03454,45.760205],[-107.029403,45.760232],[-107.024266,45.760259],[-107.019129,45.760287],[-107.019126,45.756634],[-107.019123,45.752982],[-107.019121,45.74933],[-107.019118,45.745677]]]}},{"type":"Feature","properties":{"sec":"21","frstdivid":"MT200010S0380E0SN210"},"geometry":{"type":"Polygon","coordinates":[[[-107.039672,45.731182],[-107.044841,45.731169],[-107.05001,45.731155],[-107.055179,45.731141],[-107.060348,45.731127],[-107.060347,45.731579],[-107.060347,45.734745],[-107.060346,45.738363],[-107.060346,45.739268],[-107.060346,45.741982],[-107.060345,45.7456],[-107.055177,45.745619],[-107.050009,45.745637],[-107.044841,45.745655],[-107.039672,45.745673],[-107.039672,45.74205],[-107.039672,45.738427],[-107.039672,45.734805],[-107.039672,45.731182]]]}},{"type":"Feature","properties":{"sec":"11","frstdivid":"MT200010S0380E0SN110"},"geometry":{"type":"Polygon","coordinates":[[[-106.994415,45.760138],[-106.99956,45.760191],[-107.004706,45.760244],[-107.009863,45.760281],[-107.015143,45.76032],[-107.019129,45.760287],[-107.019122,45.763856],[-107.019114,45.767426],[-107.019113,45.768176],[-107.019115,45.771041],[-107.019119,45.774657],[-107.014926,45.774667],[-107.014927,45.774577],[-107.009821,45.774559],[-107.004661,45.77454],[-106.999511,45.774521],[-106.99436,45.774502],[-106.994373,45.770911],[-106.994387,45.76732],[-106.994401,45.763729],[-106.994415,45.760138]]]}},{"type":"Feature","properties":{"sec":"28","frstdivid":"MT200010S0380E0SN280"},"geometry":{"type":"Polygon","coordinates":[[[-107.039674,45.716675],[-107.044844,45.716669],[-107.050014,45.716662],[-107.055184,45.716655],[-107.060354,45.716647],[-107.060353,45.718457],[-107.060352,45.720267],[-107.060351,45.722982],[-107.060351,45.723887],[-107.060349,45.727507],[-107.060348,45.731127],[-107.055179,45.731141],[-107.05001,45.731155],[-107.044841,45.731169],[-107.039672,45.731182],[-107.039673,45.727555],[-107.039673,45.723929],[-107.039673,45.720302],[-107.039674,45.716675]]]}},{"type":"Feature","properties":{"sec":"34","frstdivid":"MT200010S0380E0SN340"},"geometry":{"type":"Polygon","coordinates":[[[-107.034561,45.7021],[-107.037134,45.702091],[-107.039706,45.702082],[-107.039674,45.705815],[-107.039674,45.709435],[-107.039674,45.713055],[-107.039674,45.716675],[-107.034533,45.716682],[-107.029392,45.716688],[-107.02425,45.716695],[-107.019109,45.716702],[-107.019108,45.71309],[-107.019106,45.709479],[-107.019105,45.705868],[-107.019129,45.702165],[-107.024273,45.702141],[-107.029417,45.70212],[-107.034561,45.7021]]]}},{"type":"Feature","properties":{"sec":"20","frstdivid":"MT200010S0380E0SN200"},"geometry":{"type":"Polygon","coordinates":[[[-107.060346,45.739268],[-107.060346,45.738363],[-107.060347,45.734745],[-107.060347,45.731579],[-107.060348,45.731127],[-107.065499,45.731106],[-107.07065,45.731084],[-107.075801,45.731062],[-107.080952,45.73104],[-107.080952,45.731637],[-107.080954,45.73466],[-107.080954,45.735257],[-107.080955,45.738279],[-107.080955,45.738876],[-107.080956,45.739183],[-107.080957,45.741898],[-107.080957,45.742495],[-107.080959,45.745517],[-107.075805,45.745538],[-107.070652,45.745559],[-107.065498,45.74558],[-107.060345,45.7456],[-107.060346,45.741982],[-107.060346,45.739268]]]}},{"type":"Feature","properties":{"sec":"26","frstdivid":"MT200010S0380E0SN260"},"geometry":{"type":"Polygon","coordinates":[[[-107.010065,45.716684],[-107.015843,45.716708],[-107.019109,45.716702],[-107.019113,45.720325],[-107.019117,45.723949],[-107.019121,45.727572],[-107.019124,45.731196],[-107.015605,45.731206],[-107.01003,45.731179],[-107.004868,45.731155],[-106.999709,45.731126],[-106.99455,45.731098],[-106.994562,45.727478],[-106.994574,45.723858],[-106.994586,45.720238],[-106.994598,45.716618],[-106.999752,45.716641],[-107.004906,45.716663],[-107.010065,45.716684]]]}},{"type":"Feature","properties":{"sec":"32","frstdivid":"MT200010S0380E0SN320"},"geometry":{"type":"Polygon","coordinates":[[[-107.060334,45.709399],[-107.060324,45.705776],[-107.060351,45.702025],[-107.065517,45.702015],[-107.070682,45.702005],[-107.075848,45.701998],[-107.081014,45.701994],[-107.080974,45.702703],[-107.080968,45.705722],[-107.080967,45.706319],[-107.080962,45.709339],[-107.080962,45.709935],[-107.080957,45.712954],[-107.080956,45.713551],[-107.080952,45.71657],[-107.075802,45.71659],[-107.070653,45.716609],[-107.065503,45.716628],[-107.062928,45.716638],[-107.060354,45.716647],[-107.060344,45.713023],[-107.060334,45.709399]]]}},{"type":"Feature","properties":{"sec":"16","frstdivid":"MT200010S0380E0SN160"},"geometry":{"type":"Polygon","coordinates":[[[-107.039672,45.745673],[-107.044841,45.745655],[-107.050009,45.745637],[-107.055177,45.745619],[-107.060345,45.7456],[-107.060349,45.749218],[-107.060349,45.750122],[-107.060352,45.752835],[-107.060356,45.756001],[-107.060356,45.756453],[-107.060361,45.76007],[-107.05519,45.760098],[-107.050019,45.760125],[-107.044848,45.760152],[-107.039676,45.760178],[-107.039675,45.756552],[-107.039674,45.752925],[-107.039673,45.749299],[-107.039672,45.745673]]]}},{"type":"Feature","properties":{"sec":"09","frstdivid":"MT200010S0380E0SN090"},"geometry":{"type":"Polygon","coordinates":[[[-107.039676,45.760178],[-107.044848,45.760152],[-107.050019,45.760125],[-107.05519,45.760098],[-107.060361,45.76007],[-107.060361,45.760975],[-107.060362,45.76369],[-107.060363,45.76731],[-107.060363,45.768151],[-107.060363,45.770925],[-107.060364,45.77454],[-107.055189,45.774563],[-107.050014,45.774586],[-107.04484,45.774608],[-107.039665,45.77463],[-107.039668,45.771016],[-107.039671,45.768168],[-107.039672,45.767403],[-107.039674,45.765596],[-107.039675,45.76379],[-107.039676,45.760178]]]}},{"type":"Feature","properties":{"sec":"29","frstdivid":"MT200010S0380E0SN290"},"geometry":{"type":"Polygon","coordinates":[[[-107.060349,45.727507],[-107.060351,45.723887],[-107.060351,45.722982],[-107.060352,45.720267],[-107.060353,45.718457],[-107.060354,45.716647],[-107.062928,45.716638],[-107.065503,45.716628],[-107.070653,45.716609],[-107.075802,45.71659],[-107.080952,45.71657],[-107.080952,45.717167],[-107.080952,45.718379],[-107.080952,45.720188],[-107.080952,45.720785],[-107.080952,45.722901],[-107.080952,45.723805],[-107.080952,45.724402],[-107.080952,45.726211],[-107.080952,45.727423],[-107.080952,45.72802],[-107.080952,45.73104],[-107.075801,45.731062],[-107.07065,45.731084],[-107.065499,45.731106],[-107.060348,45.731127],[-107.060349,45.727507]]]}},{"type":"Feature","properties":{"sec":"08","frstdivid":"MT200010S0380E0SN080"},"geometry":{"type":"Polygon","coordinates":[[[-107.060363,45.768151],[-107.060363,45.76731],[-107.060362,45.76369],[-107.060361,45.760975],[-107.060361,45.76007],[-107.065509,45.760053],[-107.070658,45.760036],[-107.075806,45.760017],[-107.080954,45.759999],[-107.080955,45.760595],[-107.080955,45.760903],[-107.080954,45.763615],[-107.080953,45.764212],[-107.080952,45.767232],[-107.080953,45.767828],[-107.080953,45.768136],[-107.080958,45.770847],[-107.080959,45.771443],[-107.080967,45.774462],[-107.075817,45.774483],[-107.070666,45.774503],[-107.065515,45.774522],[-107.060364,45.77454],[-107.060363,45.770925],[-107.060363,45.768151]]]}},{"type":"Feature","properties":{"sec":"02","frstdivid":"MT200010S0380E0SN020"},"geometry":{"type":"Polygon","coordinates":[[[-106.99436,45.774502],[-106.999511,45.774521],[-107.004661,45.77454],[-107.009821,45.774559],[-107.014927,45.774577],[-107.014926,45.774667],[-107.019119,45.774657],[-107.019103,45.778275],[-107.019085,45.781894],[-107.019084,45.783065],[-107.016067,45.783063],[-107.014832,45.783063],[-107.011473,45.783067],[-107.009854,45.783069],[-107.006306,45.783071],[-107.004689,45.783072],[-107.00114,45.783073],[-106.999526,45.783074],[-106.995977,45.783075],[-106.994363,45.783075],[-106.99436,45.781718],[-106.994359,45.77811],[-106.99436,45.774502]]]}},{"type":"Feature","properties":{"sec":"03","frstdivid":"MT200010S0380E0SN030"},"geometry":{"type":"Polygon","coordinates":[[[-107.019119,45.774657],[-107.024255,45.774649],[-107.029392,45.774642],[-107.034528,45.774637],[-107.039665,45.77463],[-107.039655,45.778242],[-107.039629,45.781855],[-107.039615,45.783092],[-107.036691,45.783089],[-107.034458,45.783086],[-107.031503,45.783082],[-107.029321,45.783079],[-107.026361,45.783074],[-107.024204,45.783071],[-107.021215,45.783067],[-107.019084,45.783065],[-107.019085,45.781894],[-107.019103,45.778275],[-107.019119,45.774657]]]}},{"type":"Feature","properties":{"sec":"23","frstdivid":"MT200010S0380E0SN230"},"geometry":{"type":"Polygon","coordinates":[[[-106.99455,45.731098],[-106.999709,45.731126],[-107.004868,45.731155],[-107.01003,45.731179],[-107.015605,45.731206],[-107.019124,45.731196],[-107.019123,45.734816],[-107.019121,45.738437],[-107.01912,45.742057],[-107.019118,45.745677],[-107.015355,45.745683],[-107.009982,45.745661],[-107.004818,45.74564],[-106.999658,45.745617],[-106.994497,45.745594],[-106.994511,45.74197],[-106.994524,45.738346],[-106.994537,45.734722],[-106.99455,45.731098]]]}},{"type":"Feature","properties":{"sec":"04","frstdivid":"MT200010S0380E0SN040"},"geometry":{"type":"Polygon","coordinates":[[[-107.039665,45.77463],[-107.04484,45.774608],[-107.050014,45.774586],[-107.055189,45.774563],[-107.060364,45.77454],[-107.060371,45.778158],[-107.060383,45.781776],[-107.060385,45.783098],[-107.057459,45.783099],[-107.055168,45.783099],[-107.05223,45.7831],[-107.049951,45.783099],[-107.047052,45.783097],[-107.044784,45.783095],[-107.041873,45.783093],[-107.039615,45.783092],[-107.039629,45.781855],[-107.039655,45.778242],[-107.039665,45.77463]]]}},{"type":"Feature","properties":{"sec":"27","frstdivid":"MT200010S0380E0SN270"},"geometry":{"type":"Polygon","coordinates":[[[-107.019109,45.716702],[-107.02425,45.716695],[-107.029392,45.716688],[-107.034533,45.716682],[-107.039674,45.716675],[-107.039673,45.720302],[-107.039673,45.723929],[-107.039673,45.727555],[-107.039672,45.731182],[-107.034535,45.731185],[-107.029398,45.731189],[-107.024261,45.731192],[-107.019124,45.731196],[-107.019121,45.727572],[-107.019117,45.723949],[-107.019113,45.720325],[-107.019109,45.716702]]]}},{"type":"Feature","properties":{"sec":"22","frstdivid":"MT200010S0380E0SN220"},"geometry":{"type":"Polygon","coordinates":[[[-107.019124,45.731196],[-107.024261,45.731192],[-107.029398,45.731189],[-107.034535,45.731185],[-107.039672,45.731182],[-107.039672,45.734805],[-107.039672,45.738427],[-107.039672,45.74205],[-107.039672,45.745673],[-107.034534,45.745674],[-107.029395,45.745675],[-107.024257,45.745676],[-107.019118,45.745677],[-107.01912,45.742057],[-107.019121,45.738437],[-107.019123,45.734816],[-107.019124,45.731196]]]}},{"type":"Feature","properties":{"sec":"33","frstdivid":"MT200010S0380E0SN330"},"geometry":{"type":"Polygon","coordinates":[[[-107.039706,45.702082],[-107.044868,45.702067],[-107.050029,45.702053],[-107.05519,45.702039],[-107.060351,45.702025],[-107.060324,45.705776],[-107.060334,45.709399],[-107.060344,45.713023],[-107.060354,45.716647],[-107.055184,45.716655],[-107.050014,45.716662],[-107.044844,45.716669],[-107.039674,45.716675],[-107.039674,45.713055],[-107.039674,45.709435],[-107.039674,45.705815],[-107.039706,45.702082]]]}},{"type":"Feature","properties":{"sec":"24","frstdivid":"MT200010S0380E0SN240"},"geometry":{"type":"Polygon","coordinates":[[[-106.973932,45.730982],[-106.979086,45.731012],[-106.984241,45.731042],[-106.989396,45.73107],[-106.99455,45.731098],[-106.994537,45.734722],[-106.994524,45.738346],[-106.994511,45.74197],[-106.994497,45.745594],[-106.989343,45.745568],[-106.984188,45.745541],[-106.979034,45.745515],[-106.97388,45.745488],[-106.973893,45.741862],[-106.973906,45.738235],[-106.973919,45.734608],[-106.973932,45.730982]]]}},{"type":"Feature","properties":{"sec":"36","frstdivid":"MT200010S0380E0SN360"},"geometry":{"type":"Polygon","coordinates":[[[-106.97401,45.702027],[-106.979177,45.702039],[-106.984344,45.702058],[-106.989511,45.70208],[-106.994678,45.702104],[-106.994648,45.705782],[-106.994631,45.709394],[-106.994615,45.713006],[-106.994598,45.716618],[-106.989439,45.716593],[-106.984281,45.716567],[-106.979122,45.71654],[-106.973964,45.716509],[-106.973975,45.712888],[-106.973987,45.709268],[-106.973998,45.705647],[-106.97401,45.702027]]]}},{"type":"Feature","properties":{"sec":"13","frstdivid":"MT200010S0380E0SN130"},"geometry":{"type":"Polygon","coordinates":[[[-106.97388,45.745488],[-106.979034,45.745515],[-106.984188,45.745541],[-106.989343,45.745568],[-106.994497,45.745594],[-106.994476,45.74923],[-106.994456,45.752866],[-106.994435,45.756502],[-106.994415,45.760138],[-106.989272,45.760098],[-106.984129,45.760057],[-106.978987,45.760018],[-106.973844,45.75998],[-106.973853,45.756357],[-106.973862,45.752734],[-106.973871,45.749111],[-106.97388,45.745488]]]}},{"type":"Feature","properties":{"sec":"01","frstdivid":"MT200010S0380E0SN010"},"geometry":{"type":"Polygon","coordinates":[[[-106.973784,45.781648],[-106.973788,45.778038],[-106.973792,45.774429],[-106.978934,45.774444],[-106.984076,45.774462],[-106.989218,45.774481],[-106.99436,45.774502],[-106.994359,45.77811],[-106.99436,45.781718],[-106.994363,45.783075],[-106.990814,45.783077],[-106.989218,45.783078],[-106.985652,45.78308],[-106.984074,45.783081],[-106.980489,45.783085],[-106.978929,45.783087],[-106.975325,45.783095],[-106.973784,45.783097],[-106.973784,45.781648]]]}},{"type":"Feature","properties":{"sec":"12","frstdivid":"MT200010S0380E0SN120"},"geometry":{"type":"Polygon","coordinates":[[[-106.973844,45.75998],[-106.978987,45.760018],[-106.984129,45.760057],[-106.989272,45.760098],[-106.994415,45.760138],[-106.994401,45.763729],[-106.994387,45.76732],[-106.994373,45.770911],[-106.99436,45.774502],[-106.989218,45.774481],[-106.984076,45.774462],[-106.978934,45.774444],[-106.973792,45.774429],[-106.973805,45.770816],[-106.973818,45.767204],[-106.973831,45.763592],[-106.973844,45.75998]]]}},{"type":"Feature","properties":{"sec":"25","frstdivid":"MT200010S0380E0SN250"},"geometry":{"type":"Polygon","coordinates":[[[-106.994598,45.716618],[-106.994586,45.720238],[-106.994574,45.723858],[-106.994562,45.727478],[-106.99455,45.731098],[-106.989396,45.73107],[-106.984241,45.731042],[-106.979086,45.731012],[-106.973932,45.730982],[-106.97394,45.727364],[-106.973948,45.723745],[-106.973956,45.720127],[-106.973964,45.716509],[-106.979122,45.71654],[-106.984281,45.716567],[-106.989439,45.716593],[-106.994598,45.716618]]]}}]}