{"type":"FeatureCollection","note":"BLM Public Land Survey System. Provided by the Bureau of Land Management as is. These data are neither legal documents nor land surveys and must not be used as such.","features":[{"type":"Feature","properties":{"sec":"28","frstdivid":"MT200050N0570E0SN280"},"geometry":{"type":"Polygon","coordinates":[[[-104.572999,46.154274],[-104.573006,46.150655],[-104.578223,46.150653],[-104.58344,46.150652],[-104.588656,46.15065],[-104.593873,46.150648],[-104.593871,46.154268],[-104.59387,46.157887],[-104.593868,46.161506],[-104.593866,46.165125],[-104.588644,46.165127],[-104.583423,46.165128],[-104.578202,46.16513],[-104.572981,46.165131],[-104.572987,46.161512],[-104.572993,46.157893],[-104.572999,46.154274]]]}},{"type":"Feature","properties":{"sec":"08","frstdivid":"MT200050N0570E0SN080"},"geometry":{"type":"Polygon","coordinates":[[[-104.614752,46.197691],[-104.614761,46.201314],[-104.61477,46.204937],[-104.614779,46.208559],[-104.609555,46.208563],[-104.60433,46.208567],[-104.599106,46.208571],[-104.593881,46.208574],[-104.593883,46.204955],[-104.593884,46.201336],[-104.593885,46.197716],[-104.593887,46.194097],[-104.599101,46.19409],[-104.604315,46.194083],[-104.609529,46.194075],[-104.614743,46.194068],[-104.614752,46.197691]]]}},{"type":"Feature","properties":{"sec":"23","frstdivid":"MT200050N0570E0SN230"},"geometry":{"type":"Polygon","coordinates":[[[-104.531272,46.165164],[-104.536481,46.165158],[-104.541689,46.165152],[-104.546898,46.165146],[-104.552107,46.165139],[-104.552101,46.168761],[-104.552096,46.172382],[-104.55209,46.176003],[-104.552084,46.179625],[-104.546877,46.179627],[-104.541669,46.179629],[-104.536462,46.179631],[-104.531254,46.179633],[-104.531259,46.176016],[-104.531263,46.172398],[-104.531268,46.168781],[-104.531272,46.165164]]]}},{"type":"Feature","properties":{"sec":"09","frstdivid":"MT200050N0570E0SN090"},"geometry":{"type":"Polygon","coordinates":[[[-104.572975,46.201329],[-104.572972,46.197708],[-104.572969,46.194088],[-104.578199,46.19409],[-104.583428,46.194092],[-104.588657,46.194095],[-104.593887,46.194097],[-104.593885,46.197716],[-104.593884,46.201336],[-104.593883,46.204955],[-104.593881,46.208574],[-104.588656,46.208573],[-104.583431,46.208572],[-104.578206,46.208571],[-104.572981,46.20857],[-104.572978,46.20495],[-104.572975,46.201329]]]}},{"type":"Feature","properties":{"sec":"04","frstdivid":"MT200050N0570E0SN040"},"geometry":{"type":"Polygon","coordinates":[[[-104.593912,46.212192],[-104.593942,46.21581],[-104.593973,46.219429],[-104.594005,46.223084],[-104.588779,46.223082],[-104.583552,46.22308],[-104.578326,46.223078],[-104.5731,46.223077],[-104.57307,46.219428],[-104.573042,46.215809],[-104.573011,46.21219],[-104.572981,46.20857],[-104.578206,46.208571],[-104.583431,46.208572],[-104.588656,46.208573],[-104.593881,46.208574],[-104.593912,46.212192]]]}},{"type":"Feature","properties":{"sec":"11","frstdivid":"MT200050N0570E0SN110"},"geometry":{"type":"Polygon","coordinates":[[[-104.536434,46.208584],[-104.53122,46.208581],[-104.531219,46.204962],[-104.531217,46.201343],[-104.531216,46.197723],[-104.531215,46.194104],[-104.536429,46.194105],[-104.541643,46.194107],[-104.546857,46.194109],[-104.55207,46.19411],[-104.552072,46.19773],[-104.552073,46.201351],[-104.552075,46.204971],[-104.552076,46.208591],[-104.546862,46.208589],[-104.541648,46.208586],[-104.536434,46.208584]]]}},{"type":"Feature","properties":{"sec":"34","frstdivid":"MT200050N0570E0SN340"},"geometry":{"type":"Polygon","coordinates":[[[-104.562566,46.150657],[-104.557346,46.150658],[-104.552126,46.150659],[-104.552131,46.147039],[-104.552135,46.14342],[-104.55214,46.139801],[-104.552145,46.136181],[-104.552681,46.136181],[-104.557362,46.136179],[-104.557911,46.136179],[-104.562579,46.136178],[-104.563128,46.136178],[-104.567796,46.136177],[-104.568344,46.136177],[-104.573012,46.136176],[-104.573011,46.139796],[-104.573009,46.143416],[-104.573007,46.147035],[-104.573006,46.150655],[-104.567786,46.150656],[-104.562566,46.150657]]]}},{"type":"Feature","properties":{"sec":"03","frstdivid":"MT200050N0570E0SN030"},"geometry":{"type":"Polygon","coordinates":[[[-104.567755,46.208576],[-104.572981,46.20857],[-104.573011,46.21219],[-104.573042,46.215809],[-104.57307,46.219428],[-104.5731,46.223077],[-104.567878,46.223077],[-104.562657,46.223078],[-104.557436,46.223078],[-104.552214,46.223079],[-104.552179,46.219449],[-104.552145,46.215829],[-104.552111,46.21221],[-104.552076,46.208591],[-104.557302,46.208586],[-104.562529,46.208581],[-104.567755,46.208576]]]}},{"type":"Feature","properties":{"sec":"32","frstdivid":"MT200050N0570E0SN320"},"geometry":{"type":"Polygon","coordinates":[[[-104.593947,46.136168],[-104.599098,46.136165],[-104.599164,46.136165],[-104.604317,46.136165],[-104.604364,46.136165],[-104.609535,46.136164],[-104.609564,46.136164],[-104.614753,46.136164],[-104.614748,46.139784],[-104.614743,46.143404],[-104.614738,46.147023],[-104.614733,46.150643],[-104.609518,46.150644],[-104.604303,46.150646],[-104.599088,46.150647],[-104.593873,46.150648],[-104.593875,46.147028],[-104.593876,46.143408],[-104.593878,46.139788],[-104.593879,46.136168],[-104.593947,46.136168]]]}},{"type":"Feature","properties":{"sec":"14","frstdivid":"MT200050N0570E0SN140"},"geometry":{"type":"Polygon","coordinates":[[[-104.552074,46.190489],[-104.55207,46.19411],[-104.546857,46.194109],[-104.541643,46.194107],[-104.536429,46.194105],[-104.531215,46.194104],[-104.531225,46.190486],[-104.531235,46.186868],[-104.531244,46.183251],[-104.531254,46.179633],[-104.536462,46.179631],[-104.541669,46.179629],[-104.546877,46.179627],[-104.552084,46.179625],[-104.552081,46.183246],[-104.552077,46.186867],[-104.552074,46.190489]]]}},{"type":"Feature","properties":{"sec":"22","frstdivid":"MT200050N0570E0SN220"},"geometry":{"type":"Polygon","coordinates":[[[-104.552107,46.165139],[-104.557325,46.165137],[-104.562544,46.165135],[-104.567762,46.165133],[-104.572981,46.165131],[-104.572976,46.16875],[-104.572972,46.172369],[-104.572968,46.175987],[-104.572964,46.179606],[-104.567744,46.179611],[-104.562524,46.179615],[-104.557304,46.17962],[-104.552084,46.179625],[-104.55209,46.176003],[-104.552096,46.172382],[-104.552101,46.168761],[-104.552107,46.165139]]]}},{"type":"Feature","properties":{"sec":"30","frstdivid":"MT200050N0570E0SN300"},"geometry":{"type":"Polygon","coordinates":[[[-104.630363,46.150642],[-104.635573,46.15064],[-104.635566,46.154267],[-104.63556,46.157894],[-104.635554,46.161521],[-104.635548,46.165148],[-104.630344,46.16514],[-104.625135,46.165133],[-104.619925,46.165125],[-104.614716,46.165118],[-104.61472,46.161499],[-104.614725,46.157881],[-104.614729,46.154262],[-104.614733,46.150643],[-104.619944,46.150643],[-104.625154,46.150643],[-104.630363,46.150642]]]}},{"type":"Feature","properties":{"sec":"21","frstdivid":"MT200050N0570E0SN210"},"geometry":{"type":"Polygon","coordinates":[[[-104.572964,46.179606],[-104.572968,46.175987],[-104.572972,46.172369],[-104.572976,46.16875],[-104.572981,46.165131],[-104.578202,46.16513],[-104.583423,46.165128],[-104.588644,46.165127],[-104.593866,46.165125],[-104.593866,46.168747],[-104.593866,46.172368],[-104.593866,46.175989],[-104.593866,46.17961],[-104.58864,46.179609],[-104.583415,46.179608],[-104.57819,46.179607],[-104.572964,46.179606]]]}},{"type":"Feature","properties":{"sec":"35","frstdivid":"MT200050N0570E0SN350"},"geometry":{"type":"Polygon","coordinates":[[[-104.547452,46.136183],[-104.552145,46.136181],[-104.55214,46.139801],[-104.552135,46.14342],[-104.552131,46.147039],[-104.552126,46.150659],[-104.546914,46.150665],[-104.541702,46.150671],[-104.53649,46.150677],[-104.531277,46.150684],[-104.53128,46.147061],[-104.531282,46.143439],[-104.531284,46.139817],[-104.531286,46.136195],[-104.531781,46.136194],[-104.5365,46.136188],[-104.536996,46.136187],[-104.541715,46.136185],[-104.542224,46.136185],[-104.54693,46.136183],[-104.547452,46.136183]]]}},{"type":"Feature","properties":{"sec":"26","frstdivid":"MT200050N0570E0SN260"},"geometry":{"type":"Polygon","coordinates":[[[-104.546914,46.150665],[-104.552126,46.150659],[-104.552121,46.154279],[-104.552116,46.157899],[-104.552112,46.161519],[-104.552107,46.165139],[-104.546898,46.165146],[-104.541689,46.165152],[-104.536481,46.165158],[-104.531272,46.165164],[-104.531273,46.161544],[-104.531275,46.157924],[-104.531276,46.154304],[-104.531277,46.150684],[-104.53649,46.150677],[-104.541702,46.150671],[-104.546914,46.150665]]]}},{"type":"Feature","properties":{"sec":"31","frstdivid":"MT200050N0570E0SN310"},"geometry":{"type":"Polygon","coordinates":[[[-104.635545,46.13616],[-104.635636,46.13616],[-104.63562,46.13978],[-104.635604,46.1434],[-104.635588,46.14702],[-104.635573,46.15064],[-104.630363,46.150642],[-104.625154,46.150643],[-104.619944,46.150643],[-104.614733,46.150643],[-104.614738,46.147023],[-104.614743,46.143404],[-104.614748,46.139784],[-104.614753,46.136164],[-104.614766,46.136164],[-104.619967,46.136163],[-104.619974,46.136163],[-104.62516,46.136162],[-104.625196,46.136162],[-104.630352,46.136161],[-104.630416,46.136161],[-104.635545,46.13616]]]}},{"type":"Feature","properties":{"sec":"16","frstdivid":"MT200050N0570E0SN160"},"geometry":{"type":"Polygon","coordinates":[[[-104.593866,46.17961],[-104.593871,46.183232],[-104.593876,46.186854],[-104.593881,46.190475],[-104.593887,46.194097],[-104.588657,46.194095],[-104.583428,46.194092],[-104.578199,46.19409],[-104.572969,46.194088],[-104.572968,46.190467],[-104.572967,46.186847],[-104.572965,46.183227],[-104.572964,46.179606],[-104.57819,46.179607],[-104.583415,46.179608],[-104.58864,46.179609],[-104.593866,46.17961]]]}},{"type":"Feature","properties":{"sec":"10","frstdivid":"MT200050N0570E0SN100"},"geometry":{"type":"Polygon","coordinates":[[[-104.552076,46.208591],[-104.552075,46.204971],[-104.552073,46.201351],[-104.552072,46.19773],[-104.55207,46.19411],[-104.557295,46.194105],[-104.56252,46.194099],[-104.567745,46.194093],[-104.572969,46.194088],[-104.572972,46.197708],[-104.572975,46.201329],[-104.572978,46.20495],[-104.572981,46.20857],[-104.567755,46.208576],[-104.562529,46.208581],[-104.557302,46.208586],[-104.552076,46.208591]]]}},{"type":"Feature","properties":{"sec":"07","frstdivid":"MT200050N0570E0SN070"},"geometry":{"type":"Polygon","coordinates":[[[-104.63042,46.208556],[-104.625207,46.20856],[-104.619993,46.208559],[-104.614779,46.208559],[-104.61477,46.204937],[-104.614761,46.201314],[-104.614752,46.197691],[-104.614743,46.194068],[-104.619957,46.194076],[-104.625171,46.194084],[-104.630384,46.194092],[-104.635516,46.1941],[-104.635517,46.197714],[-104.635517,46.201327],[-104.635518,46.20494],[-104.635519,46.208553],[-104.63042,46.208556]]]}},{"type":"Feature","properties":{"sec":"12","frstdivid":"MT200050N0570E0SN120"},"geometry":{"type":"Polygon","coordinates":[[[-104.531219,46.204962],[-104.53122,46.208581],[-104.526016,46.208592],[-104.520811,46.208602],[-104.515607,46.208612],[-104.510403,46.208623],[-104.510403,46.205007],[-104.510402,46.201391],[-104.510402,46.197775],[-104.510402,46.194159],[-104.515605,46.194145],[-104.520808,46.194132],[-104.526011,46.194118],[-104.531215,46.194104],[-104.531216,46.197723],[-104.531217,46.201343],[-104.531219,46.204962]]]}},{"type":"Feature","properties":{"sec":"19","frstdivid":"MT200050N0570E0SN190"},"geometry":{"type":"Polygon","coordinates":[[[-104.630344,46.16514],[-104.635548,46.165148],[-104.635542,46.16877],[-104.635537,46.172392],[-104.635531,46.176014],[-104.635525,46.179636],[-104.630359,46.179624],[-104.625148,46.179612],[-104.619937,46.179602],[-104.614726,46.179591],[-104.614724,46.175973],[-104.614721,46.172354],[-104.614718,46.168736],[-104.614716,46.165118],[-104.619925,46.165125],[-104.625135,46.165133],[-104.630344,46.16514]]]}},{"type":"Feature","properties":{"sec":"33","frstdivid":"MT200050N0570E0SN330"},"geometry":{"type":"Polygon","coordinates":[[[-104.573007,46.147035],[-104.573009,46.143416],[-104.573011,46.139796],[-104.573012,46.136176],[-104.573559,46.136176],[-104.578229,46.136175],[-104.578299,46.136175],[-104.583446,46.136173],[-104.583515,46.136173],[-104.588663,46.13617],[-104.58873,46.13617],[-104.593879,46.136168],[-104.593878,46.139788],[-104.593876,46.143408],[-104.593875,46.147028],[-104.593873,46.150648],[-104.588656,46.15065],[-104.58344,46.150652],[-104.578223,46.150653],[-104.573006,46.150655],[-104.573007,46.147035]]]}},{"type":"Feature","properties":{"sec":"18","frstdivid":"MT200050N0570E0SN180"},"geometry":{"type":"Polygon","coordinates":[[[-104.61473,46.18321],[-104.614726,46.179591],[-104.619937,46.179602],[-104.625148,46.179612],[-104.630359,46.179624],[-104.635525,46.179636],[-104.635523,46.183252],[-104.63552,46.186868],[-104.635518,46.190484],[-104.635516,46.1941],[-104.630384,46.194092],[-104.625171,46.194084],[-104.619957,46.194076],[-104.614743,46.194068],[-104.614738,46.190449],[-104.614734,46.186829],[-104.61473,46.18321]]]}},{"type":"Feature","properties":{"sec":"24","frstdivid":"MT200050N0570E0SN240"},"geometry":{"type":"Polygon","coordinates":[[[-104.526059,46.16517],[-104.531272,46.165164],[-104.531268,46.168781],[-104.531263,46.172398],[-104.531259,46.176016],[-104.531254,46.179633],[-104.526045,46.179644],[-104.520835,46.179655],[-104.515626,46.179666],[-104.510417,46.179677],[-104.510418,46.176055],[-104.510419,46.172433],[-104.51042,46.168811],[-104.510421,46.16519],[-104.515634,46.165183],[-104.520847,46.165177],[-104.526059,46.16517]]]}},{"type":"Feature","properties":{"sec":"01","frstdivid":"MT200050N0570E0SN010"},"geometry":{"type":"Polygon","coordinates":[[[-104.510406,46.212243],[-104.510403,46.208623],[-104.515607,46.208612],[-104.520811,46.208602],[-104.526016,46.208592],[-104.53122,46.208581],[-104.531245,46.212201],[-104.531271,46.21582],[-104.531298,46.21944],[-104.531325,46.223084],[-104.526098,46.223089],[-104.52087,46.223094],[-104.515643,46.223099],[-104.510415,46.223104],[-104.510412,46.219484],[-104.510409,46.215863],[-104.510406,46.212243]]]}},{"type":"Feature","properties":{"sec":"27","frstdivid":"MT200050N0570E0SN270"},"geometry":{"type":"Polygon","coordinates":[[[-104.557325,46.165137],[-104.552107,46.165139],[-104.552112,46.161519],[-104.552116,46.157899],[-104.552121,46.154279],[-104.552126,46.150659],[-104.557346,46.150658],[-104.562566,46.150657],[-104.567786,46.150656],[-104.573006,46.150655],[-104.572999,46.154274],[-104.572993,46.157893],[-104.572987,46.161512],[-104.572981,46.165131],[-104.567762,46.165133],[-104.562544,46.165135],[-104.557325,46.165137]]]}},{"type":"Feature","properties":{"sec":"29","frstdivid":"MT200050N0570E0SN290"},"geometry":{"type":"Polygon","coordinates":[[[-104.593873,46.150648],[-104.599088,46.150647],[-104.604303,46.150646],[-104.609518,46.150644],[-104.614733,46.150643],[-104.614729,46.154262],[-104.614725,46.157881],[-104.61472,46.161499],[-104.614716,46.165118],[-104.609503,46.16512],[-104.604291,46.165122],[-104.599078,46.165124],[-104.593866,46.165125],[-104.593868,46.161506],[-104.59387,46.157887],[-104.593871,46.154268],[-104.593873,46.150648]]]}},{"type":"Feature","properties":{"sec":"15","frstdivid":"MT200050N0570E0SN150"},"geometry":{"type":"Polygon","coordinates":[[[-104.572968,46.190467],[-104.572969,46.194088],[-104.567745,46.194093],[-104.56252,46.194099],[-104.557295,46.194105],[-104.55207,46.19411],[-104.552074,46.190489],[-104.552077,46.186867],[-104.552081,46.183246],[-104.552084,46.179625],[-104.557304,46.17962],[-104.562524,46.179615],[-104.567744,46.179611],[-104.572964,46.179606],[-104.572965,46.183227],[-104.572967,46.186847],[-104.572968,46.190467]]]}},{"type":"Feature","properties":{"sec":"17","frstdivid":"MT200050N0570E0SN170"},"geometry":{"type":"Polygon","coordinates":[[[-104.599081,46.179606],[-104.604296,46.179601],[-104.609511,46.179596],[-104.614726,46.179591],[-104.61473,46.18321],[-104.614734,46.186829],[-104.614738,46.190449],[-104.614743,46.194068],[-104.609529,46.194075],[-104.604315,46.194083],[-104.599101,46.19409],[-104.593887,46.194097],[-104.593881,46.190475],[-104.593876,46.186854],[-104.593871,46.183232],[-104.593866,46.17961],[-104.599081,46.179606]]]}},{"type":"Feature","properties":{"sec":"20","frstdivid":"MT200050N0570E0SN200"},"geometry":{"type":"Polygon","coordinates":[[[-104.609511,46.179596],[-104.604296,46.179601],[-104.599081,46.179606],[-104.593866,46.17961],[-104.593866,46.175989],[-104.593866,46.172368],[-104.593866,46.168747],[-104.593866,46.165125],[-104.599078,46.165124],[-104.604291,46.165122],[-104.609503,46.16512],[-104.614716,46.165118],[-104.614718,46.168736],[-104.614721,46.172354],[-104.614724,46.175973],[-104.614726,46.179591],[-104.609511,46.179596]]]}},{"type":"Feature","properties":{"sec":"02","frstdivid":"MT200050N0570E0SN020"},"geometry":{"type":"Polygon","coordinates":[[[-104.552179,46.219449],[-104.552214,46.223079],[-104.546992,46.22308],[-104.54177,46.223081],[-104.536548,46.223083],[-104.531325,46.223084],[-104.531298,46.21944],[-104.531271,46.21582],[-104.531245,46.212201],[-104.53122,46.208581],[-104.536434,46.208584],[-104.541648,46.208586],[-104.546862,46.208589],[-104.552076,46.208591],[-104.552111,46.21221],[-104.552145,46.215829],[-104.552179,46.219449]]]}},{"type":"Feature","properties":{"sec":"36","frstdivid":"MT200050N0570E0SN360"},"geometry":{"type":"Polygon","coordinates":[[[-104.526566,46.136197],[-104.531286,46.136195],[-104.531284,46.139817],[-104.531282,46.143439],[-104.53128,46.147061],[-104.531277,46.150684],[-104.526064,46.150691],[-104.52085,46.150698],[-104.515636,46.150705],[-104.510422,46.150711],[-104.510425,46.147086],[-104.510428,46.143461],[-104.510431,46.139836],[-104.510434,46.13621],[-104.510902,46.13621],[-104.515647,46.136204],[-104.516137,46.136203],[-104.52086,46.136201],[-104.521351,46.1362],[-104.526073,46.136197],[-104.526566,46.136197]]]}},{"type":"Feature","properties":{"sec":"06","frstdivid":"MT200050N0570E0SN060"},"geometry":{"type":"Polygon","coordinates":[[[-104.63042,46.208556],[-104.635519,46.208553],[-104.635523,46.212177],[-104.635528,46.215801],[-104.635532,46.219425],[-104.635536,46.223048],[-104.630565,46.223052],[-104.625347,46.223056],[-104.620124,46.22306],[-104.614902,46.223064],[-104.614872,46.219416],[-104.614843,46.215797],[-104.614811,46.212178],[-104.614779,46.208559],[-104.619993,46.208559],[-104.625207,46.20856],[-104.63042,46.208556]]]}},{"type":"Feature","properties":{"sec":"05","frstdivid":"MT200050N0570E0SN050"},"geometry":{"type":"Polygon","coordinates":[[[-104.609555,46.208563],[-104.614779,46.208559],[-104.614811,46.212178],[-104.614843,46.215797],[-104.614872,46.219416],[-104.614902,46.223064],[-104.609677,46.223069],[-104.604453,46.223074],[-104.599229,46.223079],[-104.594005,46.223084],[-104.593973,46.219429],[-104.593942,46.21581],[-104.593912,46.212192],[-104.593881,46.208574],[-104.599106,46.208571],[-104.60433,46.208567],[-104.609555,46.208563]]]}},{"type":"Feature","properties":{"sec":"13","frstdivid":"MT200050N0570E0SN130"},"geometry":{"type":"Polygon","coordinates":[[[-104.520835,46.179655],[-104.526045,46.179644],[-104.531254,46.179633],[-104.531244,46.183251],[-104.531235,46.186868],[-104.531225,46.190486],[-104.531215,46.194104],[-104.526011,46.194118],[-104.520808,46.194132],[-104.515605,46.194145],[-104.510402,46.194159],[-104.510405,46.190539],[-104.510409,46.186918],[-104.510413,46.183298],[-104.510417,46.179677],[-104.515626,46.179666],[-104.520835,46.179655]]]}},{"type":"Feature","properties":{"sec":"25","frstdivid":"MT200050N0570E0SN250"},"geometry":{"type":"Polygon","coordinates":[[[-104.510421,46.16519],[-104.510422,46.16157],[-104.510422,46.157951],[-104.510422,46.154331],[-104.510422,46.150711],[-104.515636,46.150705],[-104.52085,46.150698],[-104.526064,46.150691],[-104.531277,46.150684],[-104.531276,46.154304],[-104.531275,46.157924],[-104.531273,46.161544],[-104.531272,46.165164],[-104.526059,46.16517],[-104.520847,46.165177],[-104.515634,46.165183],[-104.510421,46.16519]]]}}]}