{"type":"FeatureCollection","note":"BLM Public Land Survey System. Provided by the Bureau of Land Management as is. These data are neither legal documents nor land surveys and must not be used as such.","features":[{"type":"Feature","properties":{"sec":"29","frstdivid":"WY060570N0660W0SN290"},"geometry":{"type":"Polygon","coordinates":[[[-104.809436,44.909579],[-104.804339,44.909581],[-104.80434,44.905962],[-104.80434,44.902342],[-104.804341,44.898722],[-104.804341,44.895103],[-104.809437,44.895101],[-104.814532,44.895098],[-104.819627,44.895096],[-104.824722,44.895093],[-104.824723,44.898713],[-104.824724,44.902334],[-104.824724,44.905954],[-104.824725,44.909574],[-104.819629,44.909576],[-104.814532,44.909577],[-104.809436,44.909579]]]}},{"type":"Feature","properties":{"sec":"19","frstdivid":"WY060570N0660W0SN190"},"geometry":{"type":"Polygon","coordinates":[[[-104.824726,44.920435],[-104.824726,44.916814],[-104.824725,44.913194],[-104.824725,44.909574],[-104.82982,44.909571],[-104.834915,44.909567],[-104.840009,44.909566],[-104.842556,44.909566],[-104.845052,44.909566],[-104.845043,44.913185],[-104.845035,44.916805],[-104.845026,44.920424],[-104.845017,44.924043],[-104.840011,44.924046],[-104.834917,44.92405],[-104.829822,44.924052],[-104.824727,44.924055],[-104.824726,44.920435]]]}},{"type":"Feature","properties":{"sec":"32","frstdivid":"WY060570N0660W0SN320"},"geometry":{"type":"Polygon","coordinates":[[[-104.824728,44.887853],[-104.824725,44.891473],[-104.824722,44.895093],[-104.819627,44.895096],[-104.814532,44.895098],[-104.809437,44.895101],[-104.804341,44.895103],[-104.804348,44.891483],[-104.804354,44.887863],[-104.80436,44.884243],[-104.804366,44.880624],[-104.805662,44.880623],[-104.809458,44.88062],[-104.810772,44.88062],[-104.81455,44.880618],[-104.815864,44.880618],[-104.819642,44.880616],[-104.820955,44.880615],[-104.824734,44.880614],[-104.824731,44.884234],[-104.824728,44.887853]]]}},{"type":"Feature","properties":{"sec":"31","frstdivid":"WY060570N0660W0SN310"},"geometry":{"type":"Polygon","coordinates":[[[-104.829814,44.895092],[-104.824722,44.895093],[-104.824725,44.891473],[-104.824728,44.887853],[-104.824731,44.884234],[-104.824734,44.880614],[-104.826047,44.880613],[-104.829826,44.880609],[-104.830251,44.880608],[-104.830918,44.880608],[-104.834917,44.880608],[-104.835344,44.880608],[-104.840009,44.880608],[-104.840437,44.880608],[-104.845101,44.880608],[-104.8451,44.884228],[-104.845098,44.887847],[-104.845098,44.889284],[-104.845096,44.891467],[-104.845093,44.895087],[-104.839998,44.895089],[-104.834906,44.89509],[-104.829814,44.895092]]]}},{"type":"Feature","properties":{"sec":"18","frstdivid":"WY060570N0660W0SN180"},"geometry":{"type":"Polygon","coordinates":[[[-104.834917,44.92405],[-104.840011,44.924046],[-104.845017,44.924043],[-104.845013,44.927663],[-104.845008,44.931282],[-104.845004,44.934902],[-104.844999,44.938521],[-104.840025,44.938526],[-104.834929,44.938531],[-104.829833,44.938533],[-104.824736,44.938535],[-104.824734,44.934915],[-104.824731,44.931295],[-104.824729,44.927675],[-104.824727,44.924055],[-104.829822,44.924052],[-104.834917,44.92405]]]}},{"type":"Feature","properties":{"sec":"08","frstdivid":"WY060570N0660W0SN080"},"geometry":{"type":"Polygon","coordinates":[[[-104.809441,44.953018],[-104.804344,44.953019],[-104.804347,44.949399],[-104.80435,44.945779],[-104.804353,44.942159],[-104.804356,44.938539],[-104.809451,44.938538],[-104.814546,44.938537],[-104.819641,44.938536],[-104.824736,44.938535],[-104.824735,44.942155],[-104.824735,44.945774],[-104.824734,44.949394],[-104.824733,44.953014],[-104.819636,44.953015],[-104.814539,44.953016],[-104.809441,44.953018]]]}},{"type":"Feature","properties":{"sec":"07","frstdivid":"WY060570N0660W0SN070"},"geometry":{"type":"Polygon","coordinates":[[[-104.844999,44.938521],[-104.844995,44.94214],[-104.844991,44.94576],[-104.844986,44.949379],[-104.844982,44.952999],[-104.840027,44.953004],[-104.834929,44.953009],[-104.829831,44.953011],[-104.824733,44.953014],[-104.824734,44.949394],[-104.824735,44.945774],[-104.824735,44.942155],[-104.824736,44.938535],[-104.829833,44.938533],[-104.834929,44.938531],[-104.840025,44.938526],[-104.844999,44.938521]]]}},{"type":"Feature","properties":{"sec":"17","frstdivid":"WY060570N0660W0SN170"},"geometry":{"type":"Polygon","coordinates":[[[-104.814537,44.924058],[-104.819632,44.924056],[-104.824727,44.924055],[-104.824729,44.927675],[-104.824731,44.931295],[-104.824734,44.934915],[-104.824736,44.938535],[-104.819641,44.938536],[-104.814546,44.938537],[-104.809451,44.938538],[-104.804356,44.938539],[-104.804354,44.93492],[-104.804352,44.9313],[-104.80435,44.92768],[-104.804347,44.92406],[-104.809442,44.924059],[-104.814537,44.924058]]]}},{"type":"Feature","properties":{"sec":"30","frstdivid":"WY060570N0660W0SN300"},"geometry":{"type":"Polygon","coordinates":[[[-104.845062,44.905946],[-104.845057,44.907756],[-104.845052,44.909566],[-104.842556,44.909566],[-104.840009,44.909566],[-104.834915,44.909567],[-104.82982,44.909571],[-104.824725,44.909574],[-104.824724,44.905954],[-104.824724,44.902334],[-104.824723,44.898713],[-104.824722,44.895093],[-104.829814,44.895092],[-104.834906,44.89509],[-104.839998,44.895089],[-104.845093,44.895087],[-104.845083,44.898707],[-104.845073,44.902326],[-104.845062,44.905946]]]}},{"type":"Feature","properties":{"sec":"20","frstdivid":"WY060570N0660W0SN200"},"geometry":{"type":"Polygon","coordinates":[[[-104.804343,44.916821],[-104.804341,44.913201],[-104.804339,44.909581],[-104.809436,44.909579],[-104.814532,44.909577],[-104.819629,44.909576],[-104.824725,44.909574],[-104.824725,44.913194],[-104.824726,44.916814],[-104.824726,44.920435],[-104.824727,44.924055],[-104.819632,44.924056],[-104.814537,44.924058],[-104.809442,44.924059],[-104.804347,44.92406],[-104.804345,44.920441],[-104.804343,44.916821]]]}},{"type":"Feature","properties":{"sec":"05","frstdivid":"WY060570N0660W0SN050"},"geometry":{"type":"Polygon","coordinates":[[[-104.804349,44.960258],[-104.804346,44.956638],[-104.804344,44.953019],[-104.809441,44.953018],[-104.814539,44.953016],[-104.819636,44.953015],[-104.824733,44.953014],[-104.824736,44.956633],[-104.824738,44.960253],[-104.824747,44.963872],[-104.824756,44.967491],[-104.819656,44.967493],[-104.814556,44.967495],[-104.809457,44.967496],[-104.804357,44.967497],[-104.804353,44.963878],[-104.804349,44.960258]]]}},{"type":"Feature","properties":{"sec":"06","frstdivid":"WY060570N0660W0SN060"},"geometry":{"type":"Polygon","coordinates":[[[-104.840053,44.967481],[-104.834954,44.967485],[-104.829855,44.967488],[-104.824756,44.967491],[-104.824747,44.963872],[-104.824738,44.960253],[-104.824736,44.956633],[-104.824733,44.953014],[-104.829831,44.953011],[-104.834929,44.953009],[-104.840027,44.953004],[-104.844982,44.952999],[-104.844975,44.956619],[-104.844968,44.960238],[-104.844965,44.963858],[-104.844961,44.967477],[-104.840053,44.967481]]]}}]}