{"type":"FeatureCollection","note":"BLM Public Land Survey System. Provided by the Bureau of Land Management as is. These data are neither legal documents nor land surveys and must not be used as such.","features":[{"type":"Feature","properties":{"sec":"06","frstdivid":"WY060310N0660W0SN060"},"geometry":{"type":"Polygon","coordinates":[[[-104.818921,42.697496],[-104.81398,42.697494],[-104.81398,42.693935],[-104.81398,42.690301],[-104.813964,42.686654],[-104.813948,42.683007],[-104.818874,42.682981],[-104.823799,42.682955],[-104.828716,42.682946],[-104.833189,42.682938],[-104.833205,42.686585],[-104.833221,42.690232],[-104.833229,42.693866],[-104.833238,42.6975],[-104.828803,42.697499],[-104.823862,42.697497],[-104.818921,42.697496]]]}}]}