{"type":"FeatureCollection","note":"BLM Public Land Survey System. Provided by the Bureau of Land Management as is. These data are neither legal documents nor land surveys and must not be used as such.","features":[{"type":"Feature","properties":{"sec":"03","frstdivid":"WY060570N0960W0SN030"},"geometry":{"type":"Polygon","coordinates":[[[-108.42232,44.956895],[-108.417228,44.956883],[-108.412136,44.956872],[-108.41219,44.953232],[-108.412242,44.949625],[-108.412213,44.946014],[-108.412184,44.942403],[-108.417271,44.942418],[-108.422358,44.942434],[-108.424884,44.942455],[-108.427411,44.942477],[-108.432463,44.942519],[-108.432483,44.946153],[-108.432503,44.949786],[-108.432493,44.953327],[-108.432484,44.956923],[-108.427402,44.956908],[-108.42232,44.956895]]]}},{"type":"Feature","properties":{"sec":"04","frstdivid":"WY060570N0960W0SN040"},"geometry":{"type":"Polygon","coordinates":[[[-108.432483,44.946153],[-108.432463,44.942519],[-108.437548,44.942498],[-108.442633,44.942476],[-108.445175,44.942466],[-108.447718,44.942455],[-108.452802,44.942434],[-108.452806,44.946058],[-108.452809,44.949681],[-108.452811,44.953305],[-108.452812,44.955118],[-108.452813,44.956983],[-108.447731,44.95697],[-108.442649,44.956954],[-108.437566,44.956939],[-108.432484,44.956923],[-108.432493,44.953327],[-108.432503,44.949786],[-108.432483,44.946153]]]}},{"type":"Feature","properties":{"sec":"11","frstdivid":"WY060570N0960W0SN110"},"geometry":{"type":"Polygon","coordinates":[[[-108.401879,44.927895],[-108.406958,44.92791],[-108.412036,44.927926],[-108.412073,44.931545],[-108.41211,44.935164],[-108.412147,44.938784],[-108.412184,44.942403],[-108.40709,44.942386],[-108.401997,44.94237],[-108.396904,44.942354],[-108.39181,44.942338],[-108.391788,44.938719],[-108.391766,44.9351],[-108.391744,44.931482],[-108.391721,44.927863],[-108.3968,44.927879],[-108.401879,44.927895]]]}},{"type":"Feature","properties":{"sec":"14","frstdivid":"WY060570N0960W0SN140"},"geometry":{"type":"Polygon","coordinates":[[[-108.406958,44.92791],[-108.401879,44.927895],[-108.3968,44.927879],[-108.391721,44.927863],[-108.391725,44.924245],[-108.391728,44.920627],[-108.391731,44.917009],[-108.391734,44.913391],[-108.396815,44.913404],[-108.401895,44.913418],[-108.406976,44.913431],[-108.412056,44.913444],[-108.412051,44.917065],[-108.412046,44.920685],[-108.412041,44.924306],[-108.412036,44.927926],[-108.406958,44.92791]]]}},{"type":"Feature","properties":{"sec":"10","frstdivid":"WY060570N0960W0SN100"},"geometry":{"type":"Polygon","coordinates":[[[-108.41714,44.927945],[-108.422243,44.927964],[-108.427347,44.927983],[-108.43245,44.928002],[-108.432453,44.931632],[-108.432457,44.935261],[-108.43246,44.93889],[-108.432463,44.942519],[-108.427411,44.942477],[-108.424884,44.942455],[-108.422358,44.942434],[-108.417271,44.942418],[-108.412184,44.942403],[-108.412147,44.938784],[-108.41211,44.935164],[-108.412073,44.931545],[-108.412036,44.927926],[-108.41714,44.927945]]]}},{"type":"Feature","properties":{"sec":"15","frstdivid":"WY060570N0960W0SN150"},"geometry":{"type":"Polygon","coordinates":[[[-108.41714,44.927945],[-108.412036,44.927926],[-108.412041,44.924306],[-108.412046,44.920685],[-108.412051,44.917065],[-108.412056,44.913444],[-108.417163,44.913456],[-108.422269,44.913468],[-108.427376,44.91348],[-108.432482,44.913492],[-108.432474,44.91712],[-108.432466,44.920747],[-108.432458,44.924375],[-108.43245,44.928002],[-108.427347,44.927983],[-108.422243,44.927964],[-108.41714,44.927945]]]}},{"type":"Feature","properties":{"sec":"18","frstdivid":"WY060570N0960W0SN180"},"geometry":{"type":"Polygon","coordinates":[[[-108.499004,44.920654],[-108.499016,44.922221],[-108.499041,44.924281],[-108.499057,44.925844],[-108.499082,44.927891],[-108.49361,44.927897],[-108.488515,44.927902],[-108.483421,44.927907],[-108.478326,44.927917],[-108.473231,44.927927],[-108.473222,44.924308],[-108.473213,44.920689],[-108.473203,44.91707],[-108.473194,44.913451],[-108.478287,44.913441],[-108.48338,44.91343],[-108.488474,44.913425],[-108.493567,44.91342],[-108.498964,44.913414],[-108.498961,44.914939],[-108.498968,44.915856],[-108.498977,44.917022],[-108.498989,44.91858],[-108.499004,44.920654]]]}},{"type":"Feature","properties":{"sec":"02","frstdivid":"WY060570N0960W0SN020"},"geometry":{"type":"Polygon","coordinates":[[[-108.39181,44.942338],[-108.396904,44.942354],[-108.401997,44.94237],[-108.40709,44.942386],[-108.412184,44.942403],[-108.412213,44.946014],[-108.412242,44.949625],[-108.41219,44.953232],[-108.412136,44.956872],[-108.407049,44.956858],[-108.401962,44.956843],[-108.396875,44.956829],[-108.391788,44.956814],[-108.391788,44.953197],[-108.391787,44.949577],[-108.391799,44.945958],[-108.39181,44.942338]]]}},{"type":"Feature","properties":{"sec":"17","frstdivid":"WY060570N0960W0SN170"},"geometry":{"type":"Polygon","coordinates":[[[-108.463052,44.92794],[-108.457962,44.927946],[-108.452873,44.927953],[-108.452875,44.924332],[-108.452878,44.920711],[-108.45288,44.91709],[-108.452883,44.91347],[-108.457961,44.913465],[-108.463038,44.91346],[-108.468116,44.913456],[-108.473194,44.913451],[-108.473203,44.91707],[-108.473213,44.920689],[-108.473222,44.924308],[-108.473231,44.927927],[-108.468142,44.927934],[-108.463052,44.92794]]]}},{"type":"Feature","properties":{"sec":"06","frstdivid":"WY060570N0960W0SN060"},"geometry":{"type":"Polygon","coordinates":[[[-108.499147,44.949641],[-108.499158,44.951194],[-108.499172,44.953262],[-108.499182,44.954815],[-108.499197,44.95693],[-108.493535,44.956935],[-108.488438,44.956939],[-108.483342,44.956943],[-108.478246,44.956951],[-108.47315,44.956959],[-108.473156,44.953265],[-108.473162,44.949646],[-108.473162,44.946026],[-108.473162,44.942406],[-108.478259,44.942404],[-108.483355,44.942402],[-108.488452,44.942401],[-108.493548,44.9424],[-108.499095,44.942399],[-108.499109,44.943952],[-108.499123,44.94602],[-108.499133,44.947573],[-108.499147,44.949641]]]}},{"type":"Feature","properties":{"sec":"08","frstdivid":"WY060570N0960W0SN080"},"geometry":{"type":"Polygon","coordinates":[[[-108.457962,44.927946],[-108.463052,44.92794],[-108.468142,44.927934],[-108.473231,44.927927],[-108.473214,44.931547],[-108.473197,44.935167],[-108.473179,44.938786],[-108.473162,44.942406],[-108.468072,44.942413],[-108.462982,44.94242],[-108.457892,44.942427],[-108.452802,44.942434],[-108.45282,44.938814],[-108.452838,44.935193],[-108.452855,44.931573],[-108.452873,44.927953],[-108.457962,44.927946]]]}},{"type":"Feature","properties":{"sec":"05","frstdivid":"WY060570N0960W0SN050"},"geometry":{"type":"Polygon","coordinates":[[[-108.452802,44.942434],[-108.457892,44.942427],[-108.462982,44.94242],[-108.468072,44.942413],[-108.473162,44.942406],[-108.473162,44.946026],[-108.473162,44.949646],[-108.473156,44.953265],[-108.47315,44.956959],[-108.468063,44.956986],[-108.462977,44.957012],[-108.457895,44.956998],[-108.452813,44.956983],[-108.452812,44.955118],[-108.452811,44.953305],[-108.452809,44.949681],[-108.452806,44.946058],[-108.452802,44.942434]]]}},{"type":"Feature","properties":{"sec":"09","frstdivid":"WY060570N0960W0SN090"},"geometry":{"type":"Polygon","coordinates":[[[-108.452855,44.931573],[-108.452838,44.935193],[-108.45282,44.938814],[-108.452802,44.942434],[-108.447718,44.942455],[-108.445175,44.942466],[-108.442633,44.942476],[-108.437548,44.942498],[-108.432463,44.942519],[-108.43246,44.93889],[-108.432457,44.935261],[-108.432453,44.931632],[-108.43245,44.928002],[-108.437556,44.92799],[-108.442661,44.927978],[-108.447767,44.927965],[-108.452873,44.927953],[-108.452855,44.931573]]]}},{"type":"Feature","properties":{"sec":"16","frstdivid":"WY060570N0960W0SN160"},"geometry":{"type":"Polygon","coordinates":[[[-108.452883,44.91347],[-108.45288,44.91709],[-108.452878,44.920711],[-108.452875,44.924332],[-108.452873,44.927953],[-108.447767,44.927965],[-108.442661,44.927978],[-108.437556,44.92799],[-108.43245,44.928002],[-108.432458,44.924375],[-108.432466,44.920747],[-108.432474,44.91712],[-108.432482,44.913492],[-108.437582,44.913487],[-108.442682,44.913481],[-108.447783,44.913475],[-108.452883,44.91347]]]}},{"type":"Feature","properties":{"sec":"07","frstdivid":"WY060570N0960W0SN070"},"geometry":{"type":"Polygon","coordinates":[[[-108.499089,44.935145],[-108.499092,44.936709],[-108.499092,44.938772],[-108.499095,44.940331],[-108.499095,44.942399],[-108.493548,44.9424],[-108.488452,44.942401],[-108.483355,44.942402],[-108.478259,44.942404],[-108.473162,44.942406],[-108.473179,44.938786],[-108.473197,44.935167],[-108.473214,44.931547],[-108.473231,44.927927],[-108.478326,44.927917],[-108.483421,44.927907],[-108.488515,44.927902],[-108.49361,44.927897],[-108.499082,44.927891],[-108.499085,44.929466],[-108.499086,44.931518],[-108.499088,44.933088],[-108.499089,44.935145]]]}},{"type":"Feature","properties":{"sec":"01","frstdivid":"WY060570N0960W0SN010"},"geometry":{"type":"Polygon","coordinates":[[[-108.386702,44.942325],[-108.39181,44.942338],[-108.391799,44.945958],[-108.391787,44.949577],[-108.391788,44.953197],[-108.391788,44.956814],[-108.386688,44.956796],[-108.381587,44.956778],[-108.376486,44.956759],[-108.371385,44.956741],[-108.371385,44.953133],[-108.371384,44.949524],[-108.371382,44.947714],[-108.371381,44.945905],[-108.371379,44.944095],[-108.371377,44.942285],[-108.376486,44.942299],[-108.381594,44.942312],[-108.386702,44.942325]]]}},{"type":"Feature","properties":{"sec":"12","frstdivid":"WY060570N0960W0SN120"},"geometry":{"type":"Polygon","coordinates":[[[-108.391744,44.931482],[-108.391766,44.9351],[-108.391788,44.938719],[-108.39181,44.942338],[-108.386702,44.942325],[-108.381594,44.942312],[-108.376486,44.942299],[-108.371377,44.942285],[-108.371361,44.938668],[-108.371353,44.936859],[-108.371345,44.93505],[-108.37134,44.931435],[-108.371334,44.927819],[-108.376431,44.92783],[-108.381528,44.927841],[-108.386625,44.927852],[-108.391721,44.927863],[-108.391744,44.931482]]]}},{"type":"Feature","properties":{"sec":"13","frstdivid":"WY060570N0960W0SN130"},"geometry":{"type":"Polygon","coordinates":[[[-108.386625,44.927852],[-108.381528,44.927841],[-108.376431,44.92783],[-108.371334,44.927819],[-108.371329,44.924203],[-108.371323,44.920587],[-108.37132,44.916971],[-108.371317,44.913354],[-108.376421,44.913363],[-108.381526,44.913372],[-108.38663,44.913382],[-108.391734,44.913391],[-108.391731,44.917009],[-108.391728,44.920627],[-108.391725,44.924245],[-108.391721,44.927863],[-108.386625,44.927852]]]}}]}