{"type":"FeatureCollection","note":"BLM Public Land Survey System. Provided by the Bureau of Land Management as is. These data are neither legal documents nor land surveys and must not be used as such.","features":[{"type":"Feature","properties":{"sec":"17","frstdivid":"WY060500N0700W0SN170"},"geometry":{"type":"Polygon","coordinates":[[[-105.307788,44.313994],[-105.307638,44.317678],[-105.307488,44.321362],[-105.302049,44.321539],[-105.296609,44.321716],[-105.29117,44.321894],[-105.285731,44.322071],[-105.285725,44.318447],[-105.28572,44.314823],[-105.285714,44.311199],[-105.285709,44.307576],[-105.291304,44.307338],[-105.296898,44.3071],[-105.302493,44.306863],[-105.308088,44.306625],[-105.307938,44.310309],[-105.307788,44.313994]]]}},{"type":"Feature","properties":{"sec":"34","frstdivid":"WY060500N0700W0SN340"},"geometry":{"type":"Polygon","coordinates":[[[-105.266776,44.274001],[-105.266897,44.27776],[-105.261833,44.277868],[-105.256769,44.277975],[-105.251705,44.278082],[-105.246641,44.278189],[-105.246623,44.274452],[-105.246604,44.270716],[-105.246585,44.266979],[-105.246567,44.263243],[-105.251627,44.263184],[-105.256688,44.263126],[-105.261727,44.263064],[-105.266766,44.263003],[-105.266711,44.266623],[-105.266655,44.270243],[-105.266776,44.274001]]]}},{"type":"Feature","properties":{"sec":"28","frstdivid":"WY060500N0700W0SN280"},"geometry":{"type":"Polygon","coordinates":[[[-105.287327,44.284683],[-105.287404,44.288499],[-105.287481,44.292316],[-105.282408,44.292294],[-105.277334,44.292271],[-105.272265,44.292316],[-105.267195,44.29236],[-105.267132,44.28871],[-105.267068,44.285059],[-105.266983,44.281409],[-105.266897,44.27776],[-105.271968,44.277652],[-105.277038,44.277544],[-105.282108,44.277436],[-105.287178,44.277328],[-105.287253,44.281005],[-105.287327,44.284683]]]}},{"type":"Feature","properties":{"sec":"13","frstdivid":"WY060500N0700W0SN130"},"geometry":{"type":"Polygon","coordinates":[[[-105.216301,44.322442],[-105.211233,44.322458],[-105.206166,44.322474],[-105.206128,44.318801],[-105.20609,44.315131],[-105.206054,44.311459],[-105.206017,44.307786],[-105.211123,44.30777],[-105.21623,44.307753],[-105.221336,44.307736],[-105.226443,44.307718],[-105.226466,44.311391],[-105.226489,44.315065],[-105.226518,44.318738],[-105.226547,44.322411],[-105.221424,44.322427],[-105.216301,44.322442]]]}},{"type":"Feature","properties":{"sec":"30","frstdivid":"WY060500N0700W0SN300"},"geometry":{"type":"Polygon","coordinates":[[[-105.312557,44.27723],[-105.317616,44.277165],[-105.322675,44.2771],[-105.327509,44.277038],[-105.327605,44.280654],[-105.3277,44.28427],[-105.327765,44.287918],[-105.327831,44.291567],[-105.323114,44.291617],[-105.318075,44.291671],[-105.312935,44.291765],[-105.307795,44.291858],[-105.308037,44.288168],[-105.308273,44.284477],[-105.307885,44.280884],[-105.307498,44.277295],[-105.312557,44.27723]]]}},{"type":"Feature","properties":{"sec":"33","frstdivid":"WY060500N0700W0SN330"},"geometry":{"type":"Polygon","coordinates":[[[-105.286906,44.266467],[-105.287054,44.270123],[-105.287116,44.273724],[-105.287178,44.277328],[-105.282108,44.277436],[-105.277038,44.277544],[-105.271968,44.277652],[-105.266897,44.27776],[-105.266776,44.274001],[-105.266655,44.270243],[-105.266711,44.266623],[-105.266766,44.263003],[-105.271764,44.262955],[-105.276762,44.262908],[-105.28176,44.26286],[-105.286759,44.262812],[-105.286906,44.266467]]]}},{"type":"Feature","properties":{"sec":"31","frstdivid":"WY060500N0700W0SN310"},"geometry":{"type":"Polygon","coordinates":[[[-105.306897,44.262659],[-105.312018,44.262618],[-105.317138,44.262577],[-105.322258,44.262537],[-105.32722,44.262498],[-105.327292,44.266132],[-105.327365,44.269766],[-105.327437,44.273402],[-105.327509,44.277038],[-105.322675,44.2771],[-105.317616,44.277165],[-105.312557,44.27723],[-105.307498,44.277295],[-105.307348,44.273636],[-105.307198,44.269978],[-105.307048,44.266318],[-105.306897,44.262659]]]}},{"type":"Feature","properties":{"sec":"36","frstdivid":"WY060500N0700W0SN360"},"geometry":{"type":"Polygon","coordinates":[[[-105.221012,44.278247],[-105.215875,44.278301],[-105.210738,44.278355],[-105.205601,44.278409],[-105.205645,44.274734],[-105.20569,44.27106],[-105.205735,44.267386],[-105.20578,44.263711],[-105.210872,44.26362],[-105.215964,44.263529],[-105.221056,44.26347],[-105.226148,44.263411],[-105.226148,44.267106],[-105.226149,44.270802],[-105.226149,44.274497],[-105.22615,44.278193],[-105.221012,44.278247]]]}},{"type":"Feature","properties":{"sec":"32","frstdivid":"WY060500N0700W0SN320"},"geometry":{"type":"Polygon","coordinates":[[[-105.287116,44.273724],[-105.287054,44.270123],[-105.286906,44.266467],[-105.286759,44.262812],[-105.291793,44.262774],[-105.296828,44.262736],[-105.301863,44.262698],[-105.306897,44.262659],[-105.307048,44.266318],[-105.307198,44.269978],[-105.307348,44.273636],[-105.307498,44.277295],[-105.302418,44.277304],[-105.297338,44.277313],[-105.292258,44.27732],[-105.287178,44.277328],[-105.287116,44.273724]]]}},{"type":"Feature","properties":{"sec":"35","frstdivid":"WY060500N0700W0SN350"},"geometry":{"type":"Polygon","coordinates":[[[-105.246585,44.266979],[-105.246604,44.270716],[-105.246623,44.274452],[-105.246641,44.278189],[-105.241518,44.27819],[-105.236395,44.278191],[-105.231272,44.278192],[-105.22615,44.278193],[-105.226149,44.274497],[-105.226149,44.270802],[-105.226148,44.267106],[-105.226148,44.263411],[-105.231252,44.263366],[-105.236357,44.263321],[-105.241462,44.263282],[-105.246567,44.263243],[-105.246585,44.266979]]]}},{"type":"Feature","properties":{"sec":"14","frstdivid":"WY060500N0700W0SN140"},"geometry":{"type":"Polygon","coordinates":[[[-105.245289,44.308083],[-105.245359,44.311724],[-105.24543,44.315366],[-105.245541,44.318912],[-105.245653,44.322459],[-105.240876,44.322447],[-105.2361,44.322435],[-105.231323,44.322423],[-105.226547,44.322411],[-105.226518,44.318738],[-105.226489,44.315065],[-105.226466,44.311391],[-105.226443,44.307718],[-105.231154,44.307808],[-105.235866,44.307898],[-105.240578,44.30799],[-105.245289,44.308083]]]}},{"type":"Feature","properties":{"sec":"16","frstdivid":"WY060500N0700W0SN160"},"geometry":{"type":"Polygon","coordinates":[[[-105.28572,44.314823],[-105.285725,44.318447],[-105.285731,44.322071],[-105.2807,44.322169],[-105.275672,44.322264],[-105.270642,44.32236],[-105.265611,44.322453],[-105.265596,44.318789],[-105.26558,44.315126],[-105.265565,44.311462],[-105.26555,44.307798],[-105.270649,44.307745],[-105.275749,44.307691],[-105.280729,44.307633],[-105.285709,44.307576],[-105.285714,44.311199],[-105.28572,44.314823]]]}},{"type":"Feature","properties":{"sec":"23","frstdivid":"WY060500N0700W0SN230"},"geometry":{"type":"Polygon","coordinates":[[[-105.246445,44.296864],[-105.246059,44.300604],[-105.245674,44.304343],[-105.245289,44.308083],[-105.240578,44.30799],[-105.235866,44.307898],[-105.231154,44.307808],[-105.226443,44.307718],[-105.226432,44.30403],[-105.226421,44.300342],[-105.22641,44.296654],[-105.226399,44.292966],[-105.231507,44.293006],[-105.236614,44.293046],[-105.241722,44.293085],[-105.24683,44.293125],[-105.246445,44.296864]]]}},{"type":"Feature","properties":{"sec":"20","frstdivid":"WY060500N0700W0SN200"},"geometry":{"type":"Polygon","coordinates":[[[-105.307868,44.295549],[-105.30794,44.299241],[-105.308014,44.302933],[-105.308088,44.306625],[-105.302493,44.306863],[-105.296898,44.3071],[-105.291304,44.307338],[-105.285709,44.307576],[-105.286155,44.303763],[-105.286601,44.29995],[-105.287041,44.296133],[-105.287481,44.292316],[-105.29256,44.292202],[-105.297638,44.292087],[-105.302717,44.291973],[-105.307795,44.291858],[-105.307868,44.295549]]]}},{"type":"Feature","properties":{"sec":"19","frstdivid":"WY060500N0700W0SN190"},"geometry":{"type":"Polygon","coordinates":[[[-105.327831,44.291567],[-105.327871,44.295174],[-105.327913,44.298805],[-105.327981,44.302445],[-105.328049,44.306085],[-105.323332,44.306212],[-105.318173,44.306352],[-105.313131,44.306489],[-105.308088,44.306625],[-105.308014,44.302933],[-105.30794,44.299241],[-105.307868,44.295549],[-105.307795,44.291858],[-105.312935,44.291765],[-105.318075,44.291671],[-105.323114,44.291617],[-105.327831,44.291567]]]}},{"type":"Feature","properties":{"sec":"29","frstdivid":"WY060500N0700W0SN290"},"geometry":{"type":"Polygon","coordinates":[[[-105.287481,44.292316],[-105.287404,44.288499],[-105.287327,44.284683],[-105.287253,44.281005],[-105.287178,44.277328],[-105.292258,44.27732],[-105.297338,44.277313],[-105.302418,44.277304],[-105.307498,44.277295],[-105.307885,44.280884],[-105.308273,44.284477],[-105.308037,44.288168],[-105.307795,44.291858],[-105.302717,44.291973],[-105.297638,44.292087],[-105.29256,44.292202],[-105.287481,44.292316]]]}},{"type":"Feature","properties":{"sec":"26","frstdivid":"WY060500N0700W0SN260"},"geometry":{"type":"Polygon","coordinates":[[[-105.236614,44.293046],[-105.231507,44.293006],[-105.226399,44.292966],[-105.226337,44.289273],[-105.226274,44.28558],[-105.226212,44.281886],[-105.22615,44.278193],[-105.231272,44.278192],[-105.236395,44.278191],[-105.241518,44.27819],[-105.246641,44.278189],[-105.246688,44.281923],[-105.246735,44.285657],[-105.246783,44.289391],[-105.24683,44.293125],[-105.241722,44.293085],[-105.236614,44.293046]]]}},{"type":"Feature","properties":{"sec":"15","frstdivid":"WY060500N0700W0SN150"},"geometry":{"type":"Polygon","coordinates":[[[-105.245541,44.318912],[-105.24543,44.315366],[-105.245359,44.311724],[-105.245289,44.308083],[-105.250354,44.308015],[-105.25542,44.307947],[-105.260485,44.307873],[-105.26555,44.307798],[-105.265565,44.311462],[-105.26558,44.315126],[-105.265596,44.318789],[-105.265611,44.322453],[-105.260627,44.322455],[-105.255629,44.322456],[-105.250642,44.322458],[-105.245653,44.322459],[-105.245541,44.318912]]]}},{"type":"Feature","properties":{"sec":"25","frstdivid":"WY060500N0700W0SN250"},"geometry":{"type":"Polygon","coordinates":[[[-105.221012,44.278247],[-105.22615,44.278193],[-105.226212,44.281886],[-105.226274,44.28558],[-105.226337,44.289273],[-105.226399,44.292966],[-105.221283,44.292998],[-105.216166,44.29303],[-105.21105,44.293062],[-105.205933,44.293093],[-105.20585,44.289422],[-105.205767,44.285751],[-105.205684,44.28208],[-105.205601,44.278409],[-105.210738,44.278355],[-105.215875,44.278301],[-105.221012,44.278247]]]}},{"type":"Feature","properties":{"sec":"22","frstdivid":"WY060500N0700W0SN220"},"geometry":{"type":"Polygon","coordinates":[[[-105.24683,44.293125],[-105.25192,44.292933],[-105.257011,44.292742],[-105.262102,44.29255],[-105.267195,44.29236],[-105.266782,44.296222],[-105.266369,44.300083],[-105.265959,44.30394],[-105.26555,44.307798],[-105.260485,44.307873],[-105.25542,44.307947],[-105.250354,44.308015],[-105.245289,44.308083],[-105.245674,44.304343],[-105.246059,44.300604],[-105.246445,44.296864],[-105.24683,44.293125]]]}},{"type":"Feature","properties":{"sec":"27","frstdivid":"WY060500N0700W0SN270"},"geometry":{"type":"Polygon","coordinates":[[[-105.267068,44.285059],[-105.267132,44.28871],[-105.267195,44.29236],[-105.262102,44.29255],[-105.257011,44.292742],[-105.25192,44.292933],[-105.24683,44.293125],[-105.246783,44.289391],[-105.246735,44.285657],[-105.246688,44.281923],[-105.246641,44.278189],[-105.251705,44.278082],[-105.256769,44.277975],[-105.261833,44.277868],[-105.266897,44.27776],[-105.266983,44.281409],[-105.267068,44.285059]]]}},{"type":"Feature","properties":{"sec":"24","frstdivid":"WY060500N0700W0SN240"},"geometry":{"type":"Polygon","coordinates":[[[-105.205933,44.293093],[-105.21105,44.293062],[-105.216166,44.29303],[-105.221283,44.292998],[-105.226399,44.292966],[-105.22641,44.296654],[-105.226421,44.300342],[-105.226432,44.30403],[-105.226443,44.307718],[-105.221336,44.307736],[-105.21623,44.307753],[-105.211123,44.30777],[-105.206017,44.307786],[-105.205996,44.304113],[-105.205975,44.30044],[-105.205954,44.296767],[-105.205933,44.293093]]]}},{"type":"Feature","properties":{"sec":"18","frstdivid":"WY060500N0700W0SN180"},"geometry":{"type":"Polygon","coordinates":[[[-105.318201,44.320969],[-105.312845,44.321166],[-105.307488,44.321362],[-105.307638,44.317678],[-105.307788,44.313994],[-105.307938,44.310309],[-105.308088,44.306625],[-105.313131,44.306489],[-105.318173,44.306352],[-105.323332,44.306212],[-105.328049,44.306085],[-105.328127,44.309713],[-105.328204,44.313342],[-105.328281,44.31697],[-105.328359,44.320599],[-105.323558,44.320774],[-105.318201,44.320969]]]}},{"type":"Feature","properties":{"sec":"21","frstdivid":"WY060500N0700W0SN210"},"geometry":{"type":"Polygon","coordinates":[[[-105.267195,44.29236],[-105.272265,44.292316],[-105.277334,44.292271],[-105.282408,44.292294],[-105.287481,44.292316],[-105.287041,44.296133],[-105.286601,44.29995],[-105.286155,44.303763],[-105.285709,44.307576],[-105.280729,44.307633],[-105.275749,44.307691],[-105.270649,44.307745],[-105.26555,44.307798],[-105.265959,44.30394],[-105.266369,44.300083],[-105.266782,44.296222],[-105.267195,44.29236]]]}},{"type":"Feature","properties":{"sec":"01","frstdivid":"WY060500N0700W0SN010"},"geometry":{"type":"Polygon","coordinates":[[[-105.216068,44.337102],[-105.220961,44.337059],[-105.225854,44.337015],[-105.225857,44.340666],[-105.22586,44.344317],[-105.225861,44.347967],[-105.225862,44.351537],[-105.220816,44.351526],[-105.215771,44.351516],[-105.210725,44.351507],[-105.20568,44.351501],[-105.205834,44.347923],[-105.205984,44.344346],[-105.206133,44.340769],[-105.206281,44.337191],[-105.211174,44.337146],[-105.216068,44.337102]]]}},{"type":"Feature","properties":{"sec":"07","frstdivid":"WY060500N0700W0SN070"},"geometry":{"type":"Polygon","coordinates":[[[-105.323951,44.335263],[-105.318581,44.335443],[-105.31321,44.335622],[-105.30784,44.335801],[-105.307752,44.332212],[-105.307663,44.328623],[-105.307576,44.324992],[-105.307488,44.321362],[-105.312845,44.321166],[-105.318201,44.320969],[-105.323558,44.320774],[-105.328359,44.320599],[-105.328433,44.324256],[-105.328508,44.327912],[-105.32858,44.331509],[-105.328652,44.335106],[-105.323951,44.335263]]]}},{"type":"Feature","properties":{"sec":"02","frstdivid":"WY060500N0700W0SN020"},"geometry":{"type":"Polygon","coordinates":[[[-105.245785,44.336875],[-105.245857,44.340592],[-105.245929,44.344308],[-105.245995,44.348024],[-105.246058,44.35158],[-105.241009,44.351569],[-105.23596,44.351558],[-105.230911,44.351547],[-105.225862,44.351537],[-105.225861,44.347967],[-105.22586,44.344317],[-105.225857,44.340666],[-105.225854,44.337015],[-105.230774,44.336926],[-105.235694,44.336837],[-105.240739,44.336856],[-105.245785,44.336875]]]}},{"type":"Feature","properties":{"sec":"09","frstdivid":"WY060500N0700W0SN090"},"geometry":{"type":"Polygon","coordinates":[[[-105.286245,44.332849],[-105.28616,44.336458],[-105.281175,44.336502],[-105.27619,44.336547],[-105.2711,44.336633],[-105.266007,44.33672],[-105.265908,44.333154],[-105.265809,44.329588],[-105.26571,44.32602],[-105.265611,44.322453],[-105.270642,44.32236],[-105.275672,44.322264],[-105.2807,44.322169],[-105.285731,44.322071],[-105.28603,44.325656],[-105.286329,44.32924],[-105.286245,44.332849]]]}},{"type":"Feature","properties":{"sec":"11","frstdivid":"WY060500N0700W0SN110"},"geometry":{"type":"Polygon","coordinates":[[[-105.230774,44.336926],[-105.225854,44.337015],[-105.226027,44.333364],[-105.2262,44.329713],[-105.226374,44.326062],[-105.226547,44.322411],[-105.231323,44.322423],[-105.2361,44.322435],[-105.240876,44.322447],[-105.245653,44.322459],[-105.245686,44.326063],[-105.245719,44.329667],[-105.245752,44.333271],[-105.245785,44.336875],[-105.240739,44.336856],[-105.235694,44.336837],[-105.230774,44.336926]]]}},{"type":"Feature","properties":{"sec":"06","frstdivid":"WY060500N0700W0SN060"},"geometry":{"type":"Polygon","coordinates":[[[-105.328843,44.342349],[-105.32894,44.34597],[-105.329037,44.349591],[-105.32414,44.349683],[-105.318428,44.34979],[-105.312717,44.349895],[-105.307005,44.350001],[-105.307213,44.346472],[-105.307422,44.342915],[-105.307631,44.339358],[-105.30784,44.335801],[-105.31321,44.335622],[-105.318581,44.335443],[-105.323951,44.335263],[-105.328652,44.335106],[-105.328747,44.338727],[-105.328843,44.342349]]]}},{"type":"Feature","properties":{"sec":"04","frstdivid":"WY060500N0700W0SN040"},"geometry":{"type":"Polygon","coordinates":[[[-105.269871,44.350463],[-105.265109,44.350519],[-105.265326,44.347175],[-105.265553,44.34369],[-105.26578,44.340205],[-105.266007,44.33672],[-105.2711,44.336633],[-105.27619,44.336547],[-105.281175,44.336502],[-105.28616,44.336458],[-105.285657,44.339967],[-105.285154,44.343477],[-105.284651,44.346986],[-105.284158,44.350433],[-105.279395,44.350421],[-105.274633,44.350408],[-105.269871,44.350463]]]}},{"type":"Feature","properties":{"sec":"12","frstdivid":"WY060500N0700W0SN120"},"geometry":{"type":"Polygon","coordinates":[[[-105.225854,44.337015],[-105.220961,44.337059],[-105.216068,44.337102],[-105.211174,44.337146],[-105.206281,44.337191],[-105.206243,44.333591],[-105.206205,44.32999],[-105.206185,44.326239],[-105.206166,44.322474],[-105.211233,44.322458],[-105.216301,44.322442],[-105.221424,44.322427],[-105.226547,44.322411],[-105.226374,44.326062],[-105.2262,44.329713],[-105.226027,44.333364],[-105.225854,44.337015]]]}},{"type":"Feature","properties":{"sec":"03","frstdivid":"WY060500N0700W0SN030"},"geometry":{"type":"Polygon","coordinates":[[[-105.266007,44.33672],[-105.26578,44.340205],[-105.265553,44.34369],[-105.265326,44.347175],[-105.265109,44.350519],[-105.260346,44.350784],[-105.255584,44.351049],[-105.250821,44.351314],[-105.246058,44.35158],[-105.245995,44.348024],[-105.245929,44.344308],[-105.245857,44.340592],[-105.245785,44.336875],[-105.250841,44.336837],[-105.255896,44.336798],[-105.260952,44.336759],[-105.266007,44.33672]]]}},{"type":"Feature","properties":{"sec":"10","frstdivid":"WY060500N0700W0SN100"},"geometry":{"type":"Polygon","coordinates":[[[-105.245719,44.329667],[-105.245686,44.326063],[-105.245653,44.322459],[-105.250642,44.322458],[-105.255629,44.322456],[-105.260627,44.322455],[-105.265611,44.322453],[-105.26571,44.32602],[-105.265809,44.329588],[-105.265908,44.333154],[-105.266007,44.33672],[-105.260952,44.336759],[-105.255896,44.336798],[-105.250841,44.336837],[-105.245785,44.336875],[-105.245752,44.333271],[-105.245719,44.329667]]]}},{"type":"Feature","properties":{"sec":"08","frstdivid":"WY060500N0700W0SN080"},"geometry":{"type":"Polygon","coordinates":[[[-105.286245,44.332849],[-105.286329,44.32924],[-105.28603,44.325656],[-105.285731,44.322071],[-105.29117,44.321894],[-105.296609,44.321716],[-105.302049,44.321539],[-105.307488,44.321362],[-105.307576,44.324992],[-105.307663,44.328623],[-105.307752,44.332212],[-105.30784,44.335801],[-105.302126,44.335974],[-105.296412,44.336147],[-105.291286,44.336302],[-105.28616,44.336458],[-105.286245,44.332849]]]}},{"type":"Feature","properties":{"sec":"05","frstdivid":"WY060500N0700W0SN050"},"geometry":{"type":"Polygon","coordinates":[[[-105.28987,44.350325],[-105.284158,44.350433],[-105.284651,44.346986],[-105.285154,44.343477],[-105.285657,44.339967],[-105.28616,44.336458],[-105.291286,44.336302],[-105.296412,44.336147],[-105.302126,44.335974],[-105.30784,44.335801],[-105.307631,44.339358],[-105.307422,44.342915],[-105.307213,44.346472],[-105.307005,44.350001],[-105.301293,44.350109],[-105.295581,44.350217],[-105.28987,44.350325]]]}}]}