{"type":"FeatureCollection","note":"BLM Public Land Survey System. Provided by the Bureau of Land Management as is. These data are neither legal documents nor land surveys and must not be used as such.","features":[{"type":"Feature","properties":{"sec":"17","frstdivid":"MT200100N0370E0SN170"},"geometry":{"type":"Polygon","coordinates":[[[-107.106178,46.616751],[-107.106187,46.620369],[-107.106197,46.623988],[-107.106206,46.627607],[-107.100968,46.62762],[-107.095729,46.627633],[-107.090491,46.627646],[-107.085253,46.627658],[-107.085238,46.624039],[-107.085224,46.62042],[-107.085209,46.6168],[-107.085195,46.613181],[-107.090438,46.613169],[-107.095681,46.613156],[-107.100925,46.613144],[-107.106168,46.613132],[-107.106178,46.616751]]]}},{"type":"Feature","properties":{"sec":"26","frstdivid":"MT200100N0370E0SN260"},"geometry":{"type":"Polygon","coordinates":[[[-107.021943,46.591503],[-107.021941,46.587881],[-107.021938,46.584259],[-107.027197,46.584256],[-107.032455,46.584252],[-107.037713,46.584249],[-107.042972,46.584245],[-107.042979,46.587865],[-107.042987,46.591484],[-107.042994,46.595104],[-107.043002,46.598723],[-107.037738,46.598729],[-107.032474,46.598735],[-107.027211,46.59874],[-107.021947,46.598746],[-107.021945,46.595124],[-107.021943,46.591503]]]}},{"type":"Feature","properties":{"sec":"32","frstdivid":"MT200100N0370E0SN320"},"geometry":{"type":"Polygon","coordinates":[[[-107.090303,46.569723],[-107.095562,46.569713],[-107.100822,46.569704],[-107.106082,46.569695],[-107.106091,46.573315],[-107.1061,46.576936],[-107.10611,46.580556],[-107.106119,46.584176],[-107.100862,46.584186],[-107.095606,46.584196],[-107.090349,46.584206],[-107.085093,46.584216],[-107.08508,46.580595],[-107.085068,46.576974],[-107.085055,46.573353],[-107.085043,46.569732],[-107.090303,46.569723]]]}},{"type":"Feature","properties":{"sec":"27","frstdivid":"MT200100N0370E0SN270"},"geometry":{"type":"Polygon","coordinates":[[[-107.042979,46.587865],[-107.042972,46.584245],[-107.048236,46.584237],[-107.053501,46.584229],[-107.058765,46.584222],[-107.064029,46.584214],[-107.064037,46.587835],[-107.064044,46.591456],[-107.064051,46.595077],[-107.064059,46.598698],[-107.058794,46.598704],[-107.05353,46.598711],[-107.048266,46.598717],[-107.043002,46.598723],[-107.042994,46.595104],[-107.042987,46.591484],[-107.042979,46.587865]]]}},{"type":"Feature","properties":{"sec":"19","frstdivid":"MT200100N0370E0SN190"},"geometry":{"type":"Polygon","coordinates":[[[-107.116678,46.613147],[-107.111423,46.613139],[-107.106168,46.613132],[-107.106161,46.609513],[-107.106153,46.605894],[-107.106146,46.602275],[-107.106138,46.598656],[-107.111392,46.598658],[-107.116645,46.598661],[-107.121897,46.598665],[-107.126577,46.598668],[-107.126574,46.602291],[-107.126571,46.605915],[-107.126568,46.609538],[-107.126565,46.613162],[-107.121931,46.613155],[-107.116678,46.613147]]]}},{"type":"Feature","properties":{"sec":"06","frstdivid":"MT200100N0370E0SN060"},"geometry":{"type":"Polygon","coordinates":[[[-107.106284,46.652949],[-107.106273,46.649329],[-107.10626,46.64571],[-107.106247,46.64209],[-107.111504,46.642101],[-107.116762,46.642112],[-107.122019,46.642122],[-107.126534,46.642131],[-107.126533,46.645751],[-107.126532,46.64937],[-107.126532,46.65299],[-107.126532,46.656609],[-107.122077,46.656607],[-107.116818,46.656605],[-107.111556,46.656605],[-107.106294,46.656604],[-107.106284,46.652949]]]}},{"type":"Feature","properties":{"sec":"07","frstdivid":"MT200100N0370E0SN070"},"geometry":{"type":"Polygon","coordinates":[[[-107.126534,46.642131],[-107.122019,46.642122],[-107.116762,46.642112],[-107.111504,46.642101],[-107.106247,46.64209],[-107.106236,46.63847],[-107.106226,46.634849],[-107.106216,46.631228],[-107.106206,46.627607],[-107.111463,46.627619],[-107.11672,46.62763],[-107.121975,46.627644],[-107.126542,46.627656],[-107.12654,46.631274],[-107.126538,46.634893],[-107.126536,46.638512],[-107.126534,46.642131]]]}},{"type":"Feature","properties":{"sec":"10","frstdivid":"MT200100N0370E0SN100"},"geometry":{"type":"Polygon","coordinates":[[[-107.048348,46.627679],[-107.053619,46.62767],[-107.05889,46.627661],[-107.064161,46.627652],[-107.064165,46.631272],[-107.064169,46.634893],[-107.064173,46.638513],[-107.064177,46.642133],[-107.058914,46.64214],[-107.05365,46.642148],[-107.048387,46.642155],[-107.043123,46.642163],[-107.043111,46.638544],[-107.0431,46.634925],[-107.043088,46.631307],[-107.043077,46.627688],[-107.048348,46.627679]]]}},{"type":"Feature","properties":{"sec":"01","frstdivid":"MT200100N0370E0SN010"},"geometry":{"type":"Polygon","coordinates":[[[-107.022042,46.656638],[-107.016777,46.656643],[-107.011513,46.656649],[-107.006249,46.656655],[-107.000984,46.65666],[-107.000986,46.653041],[-107.000988,46.649421],[-107.000992,46.6458],[-107.000996,46.64218],[-107.00626,46.642189],[-107.011525,46.642199],[-107.016789,46.642208],[-107.022053,46.642218],[-107.022051,46.645839],[-107.022049,46.649459],[-107.022045,46.653079],[-107.022042,46.656638]]]}},{"type":"Feature","properties":{"sec":"25","frstdivid":"MT200100N0370E0SN250"},"geometry":{"type":"Polygon","coordinates":[[[-107.011415,46.598753],[-107.00615,46.598757],[-107.000884,46.598761],[-107.000889,46.595136],[-107.000894,46.591512],[-107.0009,46.587888],[-107.000905,46.584263],[-107.006163,46.584262],[-107.011422,46.584261],[-107.01668,46.58426],[-107.021938,46.584259],[-107.021941,46.587881],[-107.021943,46.591503],[-107.021945,46.595124],[-107.021947,46.598746],[-107.016681,46.59875],[-107.011415,46.598753]]]}},{"type":"Feature","properties":{"sec":"16","frstdivid":"MT200100N0370E0SN160"},"geometry":{"type":"Polygon","coordinates":[[[-107.085195,46.613181],[-107.085209,46.6168],[-107.085224,46.62042],[-107.085238,46.624039],[-107.085253,46.627658],[-107.07998,46.627657],[-107.074707,46.627655],[-107.069434,46.627654],[-107.064161,46.627652],[-107.064145,46.624032],[-107.06413,46.620413],[-107.064114,46.616793],[-107.064098,46.613174],[-107.069373,46.613175],[-107.074647,46.613177],[-107.079921,46.613179],[-107.085195,46.613181]]]}},{"type":"Feature","properties":{"sec":"24","frstdivid":"MT200100N0370E0SN240"},"geometry":{"type":"Polygon","coordinates":[[[-107.000919,46.609615],[-107.000907,46.605997],[-107.000896,46.602379],[-107.000884,46.598761],[-107.00615,46.598757],[-107.011415,46.598753],[-107.016681,46.59875],[-107.021947,46.598746],[-107.021956,46.602367],[-107.021965,46.605989],[-107.021974,46.60961],[-107.021984,46.613232],[-107.01672,46.613232],[-107.011457,46.613232],[-107.006194,46.613232],[-107.000931,46.613233],[-107.000919,46.609615]]]}},{"type":"Feature","properties":{"sec":"15","frstdivid":"MT200100N0370E0SN150"},"geometry":{"type":"Polygon","coordinates":[[[-107.048348,46.627679],[-107.043077,46.627688],[-107.043069,46.624069],[-107.043061,46.620449],[-107.043054,46.616829],[-107.043046,46.61321],[-107.048309,46.613201],[-107.053572,46.613192],[-107.058835,46.613183],[-107.064098,46.613174],[-107.064114,46.616793],[-107.06413,46.620413],[-107.064145,46.624032],[-107.064161,46.627652],[-107.05889,46.627661],[-107.053619,46.62767],[-107.048348,46.627679]]]}},{"type":"Feature","properties":{"sec":"22","frstdivid":"MT200100N0370E0SN220"},"geometry":{"type":"Polygon","coordinates":[[[-107.058835,46.613183],[-107.053572,46.613192],[-107.048309,46.613201],[-107.043046,46.61321],[-107.043035,46.609588],[-107.043024,46.605967],[-107.043013,46.602345],[-107.043002,46.598723],[-107.048266,46.598717],[-107.05353,46.598711],[-107.058794,46.598704],[-107.064059,46.598698],[-107.064069,46.602317],[-107.064078,46.605936],[-107.064088,46.609555],[-107.064098,46.613174],[-107.058835,46.613183]]]}},{"type":"Feature","properties":{"sec":"03","frstdivid":"MT200100N0370E0SN030"},"geometry":{"type":"Polygon","coordinates":[[[-107.064177,46.642133],[-107.064176,46.645753],[-107.064175,46.649373],[-107.064175,46.652992],[-107.064175,46.656629],[-107.058908,46.656632],[-107.05364,46.656636],[-107.048373,46.656639],[-107.043105,46.656642],[-107.04311,46.653018],[-107.043115,46.649399],[-107.043119,46.645781],[-107.043123,46.642163],[-107.048387,46.642155],[-107.05365,46.642148],[-107.058914,46.64214],[-107.064177,46.642133]]]}},{"type":"Feature","properties":{"sec":"23","frstdivid":"MT200100N0370E0SN230"},"geometry":{"type":"Polygon","coordinates":[[[-107.027211,46.59874],[-107.032474,46.598735],[-107.037738,46.598729],[-107.043002,46.598723],[-107.043013,46.602345],[-107.043024,46.605967],[-107.043035,46.609588],[-107.043046,46.61321],[-107.037781,46.613215],[-107.032515,46.613221],[-107.027249,46.613226],[-107.021984,46.613232],[-107.021974,46.60961],[-107.021965,46.605989],[-107.021956,46.602367],[-107.021947,46.598746],[-107.027211,46.59874]]]}},{"type":"Feature","properties":{"sec":"04","frstdivid":"MT200100N0370E0SN040"},"geometry":{"type":"Polygon","coordinates":[[[-107.064177,46.642133],[-107.069455,46.642133],[-107.074732,46.642134],[-107.08001,46.642134],[-107.085287,46.642134],[-107.085274,46.645752],[-107.085261,46.64937],[-107.085247,46.652988],[-107.085233,46.656623],[-107.079968,46.656625],[-107.074704,46.656626],[-107.06944,46.656628],[-107.064175,46.656629],[-107.064175,46.652992],[-107.064175,46.649373],[-107.064176,46.645753],[-107.064177,46.642133]]]}},{"type":"Feature","properties":{"sec":"35","frstdivid":"MT200100N0370E0SN350"},"geometry":{"type":"Polygon","coordinates":[[[-107.021934,46.577016],[-107.021932,46.573395],[-107.02193,46.569773],[-107.027187,46.56977],[-107.032443,46.569767],[-107.0377,46.569764],[-107.042956,46.569761],[-107.04296,46.573382],[-107.042964,46.577003],[-107.042968,46.580624],[-107.042972,46.584245],[-107.037713,46.584249],[-107.032455,46.584252],[-107.027197,46.584256],[-107.021938,46.584259],[-107.021936,46.580638],[-107.021934,46.577016]]]}},{"type":"Feature","properties":{"sec":"34","frstdivid":"MT200100N0370E0SN340"},"geometry":{"type":"Polygon","coordinates":[[[-107.048219,46.569755],[-107.053481,46.569749],[-107.058744,46.569742],[-107.064006,46.569736],[-107.064012,46.573356],[-107.064018,46.576975],[-107.064024,46.580594],[-107.064029,46.584214],[-107.058765,46.584222],[-107.053501,46.584229],[-107.048236,46.584237],[-107.042972,46.584245],[-107.042968,46.580624],[-107.042964,46.577003],[-107.04296,46.573382],[-107.042956,46.569761],[-107.048219,46.569755]]]}},{"type":"Feature","properties":{"sec":"20","frstdivid":"MT200100N0370E0SN200"},"geometry":{"type":"Polygon","coordinates":[[[-107.106138,46.598656],[-107.106146,46.602275],[-107.106153,46.605894],[-107.106161,46.609513],[-107.106168,46.613132],[-107.100925,46.613144],[-107.095681,46.613156],[-107.090438,46.613169],[-107.085195,46.613181],[-107.085182,46.609561],[-107.085169,46.605941],[-107.085156,46.602321],[-107.085143,46.598701],[-107.090392,46.59869],[-107.095641,46.598678],[-107.100889,46.598667],[-107.106138,46.598656]]]}},{"type":"Feature","properties":{"sec":"13","frstdivid":"MT200100N0370E0SN130"},"geometry":{"type":"Polygon","coordinates":[[[-107.000931,46.613233],[-107.006194,46.613232],[-107.011457,46.613232],[-107.01672,46.613232],[-107.021984,46.613232],[-107.021991,46.616855],[-107.021999,46.620478],[-107.022007,46.624101],[-107.022015,46.627724],[-107.016751,46.627719],[-107.011487,46.627714],[-107.006223,46.62771],[-107.000959,46.627705],[-107.000952,46.624087],[-107.000945,46.620469],[-107.000938,46.616851],[-107.000931,46.613233]]]}},{"type":"Feature","properties":{"sec":"09","frstdivid":"MT200100N0370E0SN090"},"geometry":{"type":"Polygon","coordinates":[[[-107.074707,46.627655],[-107.07998,46.627657],[-107.085253,46.627658],[-107.085261,46.631277],[-107.08527,46.634896],[-107.085279,46.638515],[-107.085287,46.642134],[-107.08001,46.642134],[-107.074732,46.642134],[-107.069455,46.642133],[-107.064177,46.642133],[-107.064173,46.638513],[-107.064169,46.634893],[-107.064165,46.631272],[-107.064161,46.627652],[-107.069434,46.627654],[-107.074707,46.627655]]]}},{"type":"Feature","properties":{"sec":"05","frstdivid":"MT200100N0370E0SN050"},"geometry":{"type":"Polygon","coordinates":[[[-107.085274,46.645752],[-107.085287,46.642134],[-107.090527,46.642123],[-107.095767,46.642112],[-107.101007,46.642101],[-107.106247,46.64209],[-107.10626,46.64571],[-107.106273,46.649329],[-107.106284,46.652949],[-107.106294,46.656604],[-107.101029,46.656609],[-107.095764,46.656614],[-107.090498,46.656618],[-107.085233,46.656623],[-107.085247,46.652988],[-107.085261,46.64937],[-107.085274,46.645752]]]}},{"type":"Feature","properties":{"sec":"29","frstdivid":"MT200100N0370E0SN290"},"geometry":{"type":"Polygon","coordinates":[[[-107.095641,46.598678],[-107.090392,46.59869],[-107.085143,46.598701],[-107.08513,46.59508],[-107.085118,46.591459],[-107.085105,46.587838],[-107.085093,46.584216],[-107.090349,46.584206],[-107.095606,46.584196],[-107.100862,46.584186],[-107.106119,46.584176],[-107.106124,46.587796],[-107.106128,46.591416],[-107.106133,46.595036],[-107.106138,46.598656],[-107.100889,46.598667],[-107.095641,46.598678]]]}},{"type":"Feature","properties":{"sec":"08","frstdivid":"MT200100N0370E0SN080"},"geometry":{"type":"Polygon","coordinates":[[[-107.095729,46.627633],[-107.100968,46.62762],[-107.106206,46.627607],[-107.106216,46.631228],[-107.106226,46.634849],[-107.106236,46.63847],[-107.106247,46.64209],[-107.101007,46.642101],[-107.095767,46.642112],[-107.090527,46.642123],[-107.085287,46.642134],[-107.085279,46.638515],[-107.08527,46.634896],[-107.085261,46.631277],[-107.085253,46.627658],[-107.090491,46.627646],[-107.095729,46.627633]]]}},{"type":"Feature","properties":{"sec":"30","frstdivid":"MT200100N0370E0SN300"},"geometry":{"type":"Polygon","coordinates":[[[-107.116624,46.584173],[-107.121876,46.584173],[-107.126591,46.584173],[-107.126587,46.587797],[-107.126584,46.591421],[-107.12658,46.595044],[-107.126577,46.598668],[-107.121897,46.598665],[-107.116645,46.598661],[-107.111392,46.598658],[-107.106138,46.598656],[-107.106133,46.595036],[-107.106128,46.591416],[-107.106124,46.587796],[-107.106119,46.584176],[-107.111372,46.584175],[-107.116624,46.584173]]]}},{"type":"Feature","properties":{"sec":"18","frstdivid":"MT200100N0370E0SN180"},"geometry":{"type":"Polygon","coordinates":[[[-107.126548,46.624032],[-107.126542,46.627656],[-107.121975,46.627644],[-107.11672,46.62763],[-107.111463,46.627619],[-107.106206,46.627607],[-107.106197,46.623988],[-107.106187,46.620369],[-107.106178,46.616751],[-107.106168,46.613132],[-107.111423,46.613139],[-107.116678,46.613147],[-107.121931,46.613155],[-107.126565,46.613162],[-107.126559,46.616785],[-107.126553,46.620409],[-107.126548,46.624032]]]}},{"type":"Feature","properties":{"sec":"14","frstdivid":"MT200100N0370E0SN140"},"geometry":{"type":"Polygon","coordinates":[[[-107.022007,46.624101],[-107.021999,46.620478],[-107.021991,46.616855],[-107.021984,46.613232],[-107.027249,46.613226],[-107.032515,46.613221],[-107.037781,46.613215],[-107.043046,46.61321],[-107.043054,46.616829],[-107.043061,46.620449],[-107.043069,46.624069],[-107.043077,46.627688],[-107.037811,46.627697],[-107.032546,46.627706],[-107.02728,46.627715],[-107.022015,46.627724],[-107.022007,46.624101]]]}},{"type":"Feature","properties":{"sec":"02","frstdivid":"MT200100N0370E0SN020"},"geometry":{"type":"Polygon","coordinates":[[[-107.04311,46.653018],[-107.043105,46.656642],[-107.03784,46.656641],[-107.032574,46.65664],[-107.027308,46.656639],[-107.022042,46.656638],[-107.022045,46.653079],[-107.022049,46.649459],[-107.022051,46.645839],[-107.022053,46.642218],[-107.027321,46.642204],[-107.032588,46.64219],[-107.037856,46.642176],[-107.043123,46.642163],[-107.043119,46.645781],[-107.043115,46.649399],[-107.04311,46.653018]]]}},{"type":"Feature","properties":{"sec":"28","frstdivid":"MT200100N0370E0SN280"},"geometry":{"type":"Polygon","coordinates":[[[-107.064029,46.584214],[-107.069295,46.584214],[-107.074561,46.584215],[-107.079827,46.584216],[-107.085093,46.584216],[-107.085105,46.587838],[-107.085118,46.591459],[-107.08513,46.59508],[-107.085143,46.598701],[-107.079872,46.5987],[-107.074601,46.598699],[-107.06933,46.598699],[-107.064059,46.598698],[-107.064051,46.595077],[-107.064044,46.591456],[-107.064037,46.587835],[-107.064029,46.584214]]]}},{"type":"Feature","properties":{"sec":"31","frstdivid":"MT200100N0370E0SN310"},"geometry":{"type":"Polygon","coordinates":[[[-107.126656,46.569678],[-107.12664,46.573302],[-107.126624,46.576926],[-107.126607,46.58055],[-107.126591,46.584173],[-107.121876,46.584173],[-107.116624,46.584173],[-107.111372,46.584175],[-107.106119,46.584176],[-107.10611,46.580556],[-107.1061,46.576936],[-107.106091,46.573315],[-107.106082,46.569695],[-107.111338,46.569689],[-107.116594,46.569683],[-107.121846,46.56968],[-107.126656,46.569678]]]}},{"type":"Feature","properties":{"sec":"33","frstdivid":"MT200100N0370E0SN330"},"geometry":{"type":"Polygon","coordinates":[[[-107.069295,46.584214],[-107.064029,46.584214],[-107.064024,46.580594],[-107.064018,46.576975],[-107.064012,46.573356],[-107.064006,46.569736],[-107.069266,46.569735],[-107.074525,46.569734],[-107.079784,46.569733],[-107.085043,46.569732],[-107.085055,46.573353],[-107.085068,46.576974],[-107.08508,46.580595],[-107.085093,46.584216],[-107.079827,46.584216],[-107.074561,46.584215],[-107.069295,46.584214]]]}},{"type":"Feature","properties":{"sec":"36","frstdivid":"MT200100N0370E0SN360"},"geometry":{"type":"Polygon","coordinates":[[[-107.00096,46.569766],[-107.006203,46.569767],[-107.011445,46.569769],[-107.016688,46.569771],[-107.02193,46.569773],[-107.021932,46.573395],[-107.021934,46.577016],[-107.021936,46.580638],[-107.021938,46.584259],[-107.01668,46.58426],[-107.011422,46.584261],[-107.006163,46.584262],[-107.000905,46.584263],[-107.000917,46.580636],[-107.000929,46.577009],[-107.000945,46.573387],[-107.00096,46.569766]]]}},{"type":"Feature","properties":{"sec":"12","frstdivid":"MT200100N0370E0SN120"},"geometry":{"type":"Polygon","coordinates":[[[-107.000996,46.64218],[-107.000987,46.638561],[-107.000978,46.634942],[-107.000968,46.631324],[-107.000959,46.627705],[-107.006223,46.62771],[-107.011487,46.627714],[-107.016751,46.627719],[-107.022015,46.627724],[-107.022024,46.631347],[-107.022034,46.634971],[-107.022044,46.638594],[-107.022053,46.642218],[-107.016789,46.642208],[-107.011525,46.642199],[-107.00626,46.642189],[-107.000996,46.64218]]]}},{"type":"Feature","properties":{"sec":"11","frstdivid":"MT200100N0370E0SN110"},"geometry":{"type":"Polygon","coordinates":[[[-107.022015,46.627724],[-107.02728,46.627715],[-107.032546,46.627706],[-107.037811,46.627697],[-107.043077,46.627688],[-107.043088,46.631307],[-107.0431,46.634925],[-107.043111,46.638544],[-107.043123,46.642163],[-107.037856,46.642176],[-107.032588,46.64219],[-107.027321,46.642204],[-107.022053,46.642218],[-107.022044,46.638594],[-107.022034,46.634971],[-107.022024,46.631347],[-107.022015,46.627724]]]}},{"type":"Feature","properties":{"sec":"21","frstdivid":"MT200100N0370E0SN210"},"geometry":{"type":"Polygon","coordinates":[[[-107.085195,46.613181],[-107.079921,46.613179],[-107.074647,46.613177],[-107.069373,46.613175],[-107.064098,46.613174],[-107.064088,46.609555],[-107.064078,46.605936],[-107.064069,46.602317],[-107.064059,46.598698],[-107.06933,46.598699],[-107.074601,46.598699],[-107.079872,46.5987],[-107.085143,46.598701],[-107.085156,46.602321],[-107.085169,46.605941],[-107.085182,46.609561],[-107.085195,46.613181]]]}}]}