{"type":"FeatureCollection","note":"BLM Public Land Survey System. Provided by the Bureau of Land Management as is. These data are neither legal documents nor land surveys and must not be used as such.","features":[{"type":"Feature","properties":{"sec":"21","frstdivid":"MT200090N0480E0SN210"},"geometry":{"type":"Polygon","coordinates":[[[-105.696828,46.512969],[-105.702084,46.512979],[-105.702048,46.516609],[-105.702012,46.52024],[-105.701977,46.523871],[-105.701941,46.527501],[-105.696703,46.527489],[-105.691466,46.527477],[-105.686228,46.527465],[-105.680991,46.527453],[-105.681008,46.523825],[-105.681025,46.520196],[-105.681042,46.516567],[-105.681059,46.512939],[-105.686315,46.512949],[-105.691572,46.512959],[-105.696828,46.512969]]]}},{"type":"Feature","properties":{"sec":"09","frstdivid":"MT200090N0480E0SN090"},"geometry":{"type":"Polygon","coordinates":[[[-105.700581,46.541984],[-105.701893,46.541984],[-105.701882,46.545609],[-105.701871,46.549234],[-105.70186,46.552859],[-105.701849,46.556484],[-105.696616,46.556473],[-105.691383,46.556462],[-105.68615,46.556452],[-105.680917,46.556441],[-105.680925,46.552819],[-105.680933,46.549197],[-105.680935,46.546053],[-105.680934,46.545578],[-105.680929,46.542924],[-105.68093,46.54196],[-105.686172,46.541974],[-105.688538,46.541981],[-105.691413,46.541981],[-105.696653,46.541983],[-105.700581,46.541984]]]}},{"type":"Feature","properties":{"sec":"01","frstdivid":"MT200090N0480E0SN010"},"geometry":{"type":"Polygon","coordinates":[[[-105.637541,46.556442],[-105.639015,46.556446],[-105.639077,46.559161],[-105.639078,46.560096],[-105.639081,46.563747],[-105.639083,46.567333],[-105.639085,46.570985],[-105.633829,46.570974],[-105.628572,46.570964],[-105.623316,46.570953],[-105.61806,46.570942],[-105.618064,46.567324],[-105.618069,46.563883],[-105.618069,46.563706],[-105.618066,46.560088],[-105.618066,46.559915],[-105.618066,46.559872],[-105.618067,46.556469],[-105.623304,46.556459],[-105.628541,46.556449],[-105.633782,46.556444],[-105.637541,46.556442]]]}},{"type":"Feature","properties":{"sec":"22","frstdivid":"MT200090N0480E0SN220"},"geometry":{"type":"Polygon","coordinates":[[[-105.675823,46.512941],[-105.681059,46.512939],[-105.681042,46.516567],[-105.681025,46.520196],[-105.681008,46.523825],[-105.680991,46.527453],[-105.675763,46.527458],[-105.670535,46.527462],[-105.665306,46.527466],[-105.660078,46.52747],[-105.660088,46.52384],[-105.660097,46.520209],[-105.660107,46.516579],[-105.660116,46.512948],[-105.665352,46.512946],[-105.670588,46.512943],[-105.675823,46.512941]]]}},{"type":"Feature","properties":{"sec":"34","frstdivid":"MT200090N0480E0SN340"},"geometry":{"type":"Polygon","coordinates":[[[-105.676839,46.483923],[-105.681071,46.483917],[-105.68107,46.487541],[-105.681069,46.491164],[-105.681069,46.494788],[-105.681068,46.498412],[-105.675832,46.49842],[-105.670596,46.498429],[-105.66536,46.498437],[-105.660124,46.498445],[-105.660135,46.49482],[-105.660145,46.491196],[-105.660156,46.487571],[-105.660166,46.483947],[-105.661156,46.483946],[-105.665396,46.48394],[-105.666384,46.483939],[-105.670625,46.483934],[-105.671611,46.483932],[-105.675848,46.483925],[-105.676839,46.483923]]]}},{"type":"Feature","properties":{"sec":"30","frstdivid":"MT200090N0480E0SN300"},"geometry":{"type":"Polygon","coordinates":[[[-105.741218,46.498531],[-105.743986,46.498476],[-105.74397,46.501765],[-105.74397,46.501788],[-105.743967,46.502108],[-105.743929,46.505737],[-105.743888,46.509366],[-105.743848,46.512996],[-105.741426,46.512987],[-105.739474,46.51298],[-105.739395,46.51298],[-105.73924,46.512979],[-105.738573,46.512977],[-105.738084,46.512975],[-105.737667,46.512974],[-105.737588,46.512973],[-105.736376,46.512969],[-105.734405,46.512962],[-105.733893,46.51296],[-105.733605,46.512963],[-105.729832,46.512993],[-105.72834,46.512987],[-105.723075,46.512969],[-105.723099,46.509352],[-105.723124,46.505734],[-105.723148,46.502114],[-105.723171,46.498494],[-105.728425,46.498507],[-105.73368,46.49852],[-105.734825,46.498521],[-105.738928,46.498527],[-105.741218,46.498531]]]}},{"type":"Feature","properties":{"sec":"13","frstdivid":"MT200090N0480E0SN130"},"geometry":{"type":"Polygon","coordinates":[[[-105.633854,46.527437],[-105.639098,46.527442],[-105.639084,46.53107],[-105.63907,46.534699],[-105.639057,46.538327],[-105.639043,46.541956],[-105.633807,46.541949],[-105.628571,46.541941],[-105.623335,46.541934],[-105.618099,46.541927],[-105.618106,46.5383],[-105.618113,46.534674],[-105.618118,46.531049],[-105.618123,46.527424],[-105.623367,46.527429],[-105.628611,46.527433],[-105.633854,46.527437]]]}},{"type":"Feature","properties":{"sec":"20","frstdivid":"MT200090N0480E0SN200"},"geometry":{"type":"Polygon","coordinates":[[[-105.717827,46.51297],[-105.723075,46.512969],[-105.723028,46.516599],[-105.722982,46.52023],[-105.722936,46.523861],[-105.72289,46.527491],[-105.717653,46.527494],[-105.712415,46.527496],[-105.707178,46.527499],[-105.701941,46.527501],[-105.701977,46.523871],[-105.702012,46.52024],[-105.702048,46.516609],[-105.702084,46.512979],[-105.707332,46.512975],[-105.712579,46.512971],[-105.717827,46.51297]]]}},{"type":"Feature","properties":{"sec":"25","frstdivid":"MT200090N0480E0SN250"},"geometry":{"type":"Polygon","coordinates":[[[-105.633956,46.498451],[-105.639186,46.498446],[-105.639179,46.502071],[-105.639173,46.505696],[-105.639166,46.50932],[-105.63916,46.512945],[-105.633922,46.512949],[-105.628685,46.512954],[-105.623447,46.512958],[-105.618209,46.512962],[-105.618215,46.509336],[-105.618221,46.50571],[-105.618243,46.502089],[-105.618266,46.498467],[-105.623496,46.498462],[-105.628726,46.498457],[-105.633956,46.498451]]]}},{"type":"Feature","properties":{"sec":"32","frstdivid":"MT200090N0480E0SN320"},"geometry":{"type":"Polygon","coordinates":[[[-105.718745,46.483945],[-105.723046,46.483955],[-105.723078,46.48759],[-105.723109,46.491224],[-105.72314,46.494859],[-105.723171,46.498494],[-105.717899,46.498482],[-105.712626,46.49847],[-105.707353,46.498458],[-105.70208,46.498445],[-105.702058,46.494808],[-105.702036,46.491171],[-105.702014,46.487533],[-105.701992,46.483896],[-105.703051,46.4839],[-105.707253,46.483916],[-105.70829,46.48392],[-105.712514,46.483932],[-105.713521,46.483934],[-105.71778,46.483945],[-105.718745,46.483945]]]}},{"type":"Feature","properties":{"sec":"36","frstdivid":"MT200090N0480E0SN360"},"geometry":{"type":"Polygon","coordinates":[[[-105.638822,46.483968],[-105.639199,46.483968],[-105.639195,46.487588],[-105.639192,46.491207],[-105.639189,46.494827],[-105.639186,46.498446],[-105.633956,46.498451],[-105.628726,46.498457],[-105.623496,46.498462],[-105.618266,46.498467],[-105.618239,46.494844],[-105.618212,46.491221],[-105.618185,46.487598],[-105.618158,46.483975],[-105.623152,46.483971],[-105.623419,46.483971],[-105.628415,46.483966],[-105.628681,46.483966],[-105.633678,46.483964],[-105.63394,46.483964],[-105.638822,46.483968]]]}},{"type":"Feature","properties":{"sec":"05","frstdivid":"MT200090N0480E0SN050"},"geometry":{"type":"Polygon","coordinates":[[[-105.717448,46.556568],[-105.722648,46.556596],[-105.722751,46.560224],[-105.722855,46.563852],[-105.72295,46.567475],[-105.723045,46.571081],[-105.7178,46.571068],[-105.712556,46.571056],[-105.707312,46.571043],[-105.702068,46.571031],[-105.702013,46.567349],[-105.701958,46.563728],[-105.701904,46.560106],[-105.701849,46.556484],[-105.707049,46.556512],[-105.712249,46.55654],[-105.717448,46.556568]]]}},{"type":"Feature","properties":{"sec":"08","frstdivid":"MT200090N0480E0SN080"},"geometry":{"type":"Polygon","coordinates":[[[-105.717547,46.542023],[-105.722765,46.542037],[-105.722736,46.545676],[-105.722706,46.549316],[-105.722677,46.552956],[-105.722648,46.556596],[-105.717448,46.556568],[-105.712249,46.55654],[-105.707049,46.556512],[-105.701849,46.556484],[-105.70186,46.552859],[-105.701871,46.549234],[-105.701882,46.545609],[-105.701893,46.541984],[-105.707111,46.541997],[-105.712329,46.54201],[-105.717547,46.542023]]]}},{"type":"Feature","properties":{"sec":"03","frstdivid":"MT200090N0480E0SN030"},"geometry":{"type":"Polygon","coordinates":[[[-105.675686,46.556445],[-105.680917,46.556441],[-105.680958,46.560059],[-105.680999,46.563677],[-105.681042,46.567296],[-105.681086,46.571016],[-105.675837,46.571009],[-105.670588,46.571003],[-105.66534,46.570997],[-105.660091,46.57099],[-105.660062,46.567307],[-105.660033,46.563689],[-105.660013,46.560072],[-105.659993,46.556455],[-105.665224,46.556451],[-105.670455,46.556448],[-105.675686,46.556445]]]}},{"type":"Feature","properties":{"sec":"27","frstdivid":"MT200090N0480E0SN270"},"geometry":{"type":"Polygon","coordinates":[[[-105.675832,46.49842],[-105.681068,46.498412],[-105.681066,46.502044],[-105.681064,46.505675],[-105.681061,46.509307],[-105.681059,46.512939],[-105.675823,46.512941],[-105.670588,46.512943],[-105.665352,46.512946],[-105.660116,46.512948],[-105.660118,46.509322],[-105.66012,46.505697],[-105.660122,46.502071],[-105.660124,46.498445],[-105.66536,46.498437],[-105.670596,46.498429],[-105.675832,46.49842]]]}},{"type":"Feature","properties":{"sec":"14","frstdivid":"MT200090N0480E0SN140"},"geometry":{"type":"Polygon","coordinates":[[[-105.654833,46.527463],[-105.660078,46.52747],[-105.660056,46.531097],[-105.660034,46.534723],[-105.660012,46.53835],[-105.65999,46.541976],[-105.654753,46.541971],[-105.649517,46.541966],[-105.64428,46.541961],[-105.639043,46.541956],[-105.639057,46.538327],[-105.63907,46.534699],[-105.639084,46.53107],[-105.639098,46.527442],[-105.644343,46.527449],[-105.649588,46.527456],[-105.654833,46.527463]]]}},{"type":"Feature","properties":{"sec":"19","frstdivid":"MT200090N0480E0SN190"},"geometry":{"type":"Polygon","coordinates":[[[-105.741426,46.512987],[-105.743848,46.512996],[-105.743841,46.516628],[-105.743834,46.52026],[-105.743827,46.523893],[-105.74382,46.527525],[-105.738574,46.527517],[-105.733354,46.527509],[-105.731374,46.527508],[-105.728122,46.527501],[-105.723744,46.527491],[-105.72289,46.527491],[-105.722936,46.523861],[-105.722982,46.52023],[-105.723028,46.516599],[-105.723075,46.512969],[-105.72834,46.512987],[-105.729832,46.512993],[-105.733605,46.512963],[-105.733893,46.51296],[-105.734405,46.512962],[-105.736376,46.512969],[-105.737588,46.512973],[-105.737667,46.512974],[-105.738084,46.512975],[-105.738573,46.512977],[-105.73924,46.512979],[-105.739395,46.51298],[-105.739474,46.51298],[-105.741426,46.512987]]]}},{"type":"Feature","properties":{"sec":"04","frstdivid":"MT200090N0480E0SN040"},"geometry":{"type":"Polygon","coordinates":[[[-105.696616,46.556473],[-105.701849,46.556484],[-105.701904,46.560106],[-105.701958,46.563728],[-105.702013,46.567349],[-105.702068,46.571031],[-105.696823,46.571027],[-105.691577,46.571023],[-105.686332,46.571019],[-105.681086,46.571016],[-105.681042,46.567296],[-105.680999,46.563677],[-105.680958,46.560059],[-105.680917,46.556441],[-105.68615,46.556452],[-105.691383,46.556462],[-105.696616,46.556473]]]}},{"type":"Feature","properties":{"sec":"28","frstdivid":"MT200090N0480E0SN280"},"geometry":{"type":"Polygon","coordinates":[[[-105.696827,46.498437],[-105.70208,46.498445],[-105.702081,46.502079],[-105.702082,46.505712],[-105.702083,46.509345],[-105.702084,46.512979],[-105.696828,46.512969],[-105.691572,46.512959],[-105.686315,46.512949],[-105.681059,46.512939],[-105.681061,46.509307],[-105.681064,46.505675],[-105.681066,46.502044],[-105.681068,46.498412],[-105.686321,46.49842],[-105.691574,46.498429],[-105.696827,46.498437]]]}},{"type":"Feature","properties":{"sec":"35","frstdivid":"MT200090N0480E0SN350"},"geometry":{"type":"Polygon","coordinates":[[[-105.65494,46.48395],[-105.660166,46.483947],[-105.660156,46.487571],[-105.660145,46.491196],[-105.660135,46.49482],[-105.660124,46.498445],[-105.654889,46.498445],[-105.649655,46.498445],[-105.64442,46.498446],[-105.639186,46.498446],[-105.639189,46.494827],[-105.639192,46.491207],[-105.639195,46.487588],[-105.639199,46.483968],[-105.643967,46.483962],[-105.644456,46.483962],[-105.649113,46.483956],[-105.649713,46.483956],[-105.654256,46.483951],[-105.65494,46.48395]]]}},{"type":"Feature","properties":{"sec":"07","frstdivid":"MT200090N0480E0SN070"},"geometry":{"type":"Polygon","coordinates":[[[-105.738441,46.542054],[-105.743757,46.542052],[-105.743735,46.545684],[-105.743713,46.549317],[-105.743692,46.55295],[-105.74367,46.556583],[-105.738309,46.556588],[-105.733079,46.556593],[-105.727863,46.556595],[-105.722648,46.556596],[-105.722677,46.552956],[-105.722706,46.549316],[-105.722736,46.545676],[-105.722765,46.542037],[-105.727987,46.542046],[-105.733208,46.542056],[-105.738441,46.542054]]]}},{"type":"Feature","properties":{"sec":"18","frstdivid":"MT200090N0480E0SN180"},"geometry":{"type":"Polygon","coordinates":[[[-105.738574,46.527517],[-105.74382,46.527525],[-105.743805,46.531157],[-105.743789,46.534788],[-105.743773,46.53842],[-105.743757,46.542052],[-105.738441,46.542054],[-105.733208,46.542056],[-105.727987,46.542046],[-105.722765,46.542037],[-105.722808,46.538397],[-105.722851,46.534757],[-105.722863,46.532119],[-105.722869,46.531124],[-105.72289,46.527925],[-105.72289,46.527491],[-105.723744,46.527491],[-105.728122,46.527501],[-105.731374,46.527508],[-105.733354,46.527509],[-105.738574,46.527517]]]}},{"type":"Feature","properties":{"sec":"31","frstdivid":"MT200090N0480E0SN310"},"geometry":{"type":"Polygon","coordinates":[[[-105.739705,46.483951],[-105.743998,46.483948],[-105.744007,46.487585],[-105.744015,46.491221],[-105.744011,46.493489],[-105.74401,46.493541],[-105.744004,46.494848],[-105.743986,46.498476],[-105.741218,46.498531],[-105.738928,46.498527],[-105.734825,46.498521],[-105.73368,46.49852],[-105.728425,46.498507],[-105.723171,46.498494],[-105.72314,46.494859],[-105.723109,46.491224],[-105.723078,46.48759],[-105.723046,46.483955],[-105.723996,46.483955],[-105.728285,46.483954],[-105.729241,46.483953],[-105.733524,46.483953],[-105.734473,46.483952],[-105.738761,46.483951],[-105.739705,46.483951]]]}},{"type":"Feature","properties":{"sec":"29","frstdivid":"MT200090N0480E0SN290"},"geometry":{"type":"Polygon","coordinates":[[[-105.717899,46.498482],[-105.723171,46.498494],[-105.723148,46.502114],[-105.723124,46.505734],[-105.723099,46.509352],[-105.723075,46.512969],[-105.717827,46.51297],[-105.712579,46.512971],[-105.707332,46.512975],[-105.702084,46.512979],[-105.702083,46.509345],[-105.702082,46.505712],[-105.702081,46.502079],[-105.70208,46.498445],[-105.707353,46.498458],[-105.712626,46.49847],[-105.717899,46.498482]]]}},{"type":"Feature","properties":{"sec":"16","frstdivid":"MT200090N0480E0SN160"},"geometry":{"type":"Polygon","coordinates":[[[-105.696703,46.527489],[-105.701941,46.527501],[-105.701917,46.531123],[-105.701893,46.534745],[-105.70189,46.536479],[-105.701891,46.538365],[-105.701893,46.541339],[-105.701893,46.541984],[-105.700581,46.541984],[-105.696653,46.541983],[-105.691413,46.541981],[-105.688538,46.541981],[-105.686172,46.541974],[-105.68093,46.54196],[-105.680945,46.538333],[-105.68096,46.534706],[-105.680976,46.53108],[-105.680991,46.527453],[-105.686228,46.527465],[-105.691466,46.527477],[-105.696703,46.527489]]]}},{"type":"Feature","properties":{"sec":"02","frstdivid":"MT200090N0480E0SN020"},"geometry":{"type":"Polygon","coordinates":[[[-105.65476,46.556455],[-105.659993,46.556455],[-105.660013,46.560072],[-105.660033,46.563689],[-105.660062,46.567307],[-105.660091,46.57099],[-105.657348,46.570993],[-105.654842,46.57099],[-105.653929,46.570989],[-105.649593,46.570992],[-105.644339,46.570989],[-105.639085,46.570985],[-105.639083,46.567333],[-105.639081,46.563747],[-105.639078,46.560096],[-105.639077,46.559161],[-105.639015,46.556446],[-105.644271,46.556452],[-105.64682,46.556455],[-105.649527,46.556455],[-105.65476,46.556455]]]}},{"type":"Feature","properties":{"sec":"24","frstdivid":"MT200090N0480E0SN240"},"geometry":{"type":"Polygon","coordinates":[[[-105.633922,46.512949],[-105.63916,46.512945],[-105.639144,46.516569],[-105.639129,46.520193],[-105.639113,46.523818],[-105.639098,46.527442],[-105.633854,46.527437],[-105.628611,46.527433],[-105.623367,46.527429],[-105.618123,46.527424],[-105.618137,46.523809],[-105.618151,46.520194],[-105.61818,46.516578],[-105.618209,46.512962],[-105.623447,46.512958],[-105.628685,46.512954],[-105.633922,46.512949]]]}},{"type":"Feature","properties":{"sec":"23","frstdivid":"MT200090N0480E0SN230"},"geometry":{"type":"Polygon","coordinates":[[[-105.654877,46.512947],[-105.660116,46.512948],[-105.660107,46.516579],[-105.660097,46.520209],[-105.660088,46.52384],[-105.660078,46.52747],[-105.654833,46.527463],[-105.649588,46.527456],[-105.644343,46.527449],[-105.639098,46.527442],[-105.639113,46.523818],[-105.639129,46.520193],[-105.639144,46.516569],[-105.63916,46.512945],[-105.644399,46.512946],[-105.649638,46.512947],[-105.654877,46.512947]]]}},{"type":"Feature","properties":{"sec":"17","frstdivid":"MT200090N0480E0SN170"},"geometry":{"type":"Polygon","coordinates":[[[-105.717653,46.527494],[-105.72289,46.527491],[-105.72289,46.527925],[-105.722869,46.531124],[-105.722863,46.532119],[-105.722851,46.534757],[-105.722808,46.538397],[-105.722765,46.542037],[-105.717547,46.542023],[-105.712329,46.54201],[-105.707111,46.541997],[-105.701893,46.541984],[-105.701893,46.541339],[-105.701891,46.538365],[-105.70189,46.536479],[-105.701893,46.534745],[-105.701917,46.531123],[-105.701941,46.527501],[-105.707178,46.527499],[-105.712415,46.527496],[-105.717653,46.527494]]]}},{"type":"Feature","properties":{"sec":"11","frstdivid":"MT200090N0480E0SN110"},"geometry":{"type":"Polygon","coordinates":[[[-105.654753,46.541971],[-105.65999,46.541976],[-105.659988,46.545597],[-105.659987,46.549217],[-105.659986,46.550697],[-105.65999,46.552836],[-105.659993,46.554137],[-105.659993,46.556455],[-105.65476,46.556455],[-105.649527,46.556455],[-105.64682,46.556455],[-105.644271,46.556452],[-105.639015,46.556446],[-105.63901,46.555742],[-105.639014,46.552826],[-105.639019,46.549205],[-105.639031,46.54558],[-105.639043,46.541956],[-105.64428,46.541961],[-105.649517,46.541966],[-105.654753,46.541971]]]}},{"type":"Feature","properties":{"sec":"15","frstdivid":"MT200090N0480E0SN150"},"geometry":{"type":"Polygon","coordinates":[[[-105.675763,46.527458],[-105.680991,46.527453],[-105.680976,46.53108],[-105.68096,46.534706],[-105.680945,46.538333],[-105.68093,46.54196],[-105.675695,46.541964],[-105.67046,46.541968],[-105.665225,46.541972],[-105.65999,46.541976],[-105.660012,46.53835],[-105.660034,46.534723],[-105.660056,46.531097],[-105.660078,46.52747],[-105.665306,46.527466],[-105.670535,46.527462],[-105.675763,46.527458]]]}},{"type":"Feature","properties":{"sec":"26","frstdivid":"MT200090N0480E0SN260"},"geometry":{"type":"Polygon","coordinates":[[[-105.654889,46.498445],[-105.660124,46.498445],[-105.660122,46.502071],[-105.66012,46.505697],[-105.660118,46.509322],[-105.660116,46.512948],[-105.654877,46.512947],[-105.649638,46.512947],[-105.644399,46.512946],[-105.63916,46.512945],[-105.639166,46.50932],[-105.639173,46.505696],[-105.639179,46.502071],[-105.639186,46.498446],[-105.64442,46.498446],[-105.649655,46.498445],[-105.654889,46.498445]]]}},{"type":"Feature","properties":{"sec":"06","frstdivid":"MT200090N0480E0SN060"},"geometry":{"type":"Polygon","coordinates":[[[-105.738309,46.556588],[-105.74367,46.556583],[-105.743648,46.560219],[-105.743626,46.563856],[-105.743603,46.567492],[-105.743573,46.571125],[-105.738794,46.571124],[-105.733545,46.571118],[-105.728295,46.571099],[-105.723045,46.571081],[-105.72295,46.567475],[-105.722855,46.563852],[-105.722751,46.560224],[-105.722648,46.556596],[-105.727863,46.556595],[-105.733079,46.556593],[-105.738309,46.556588]]]}},{"type":"Feature","properties":{"sec":"10","frstdivid":"MT200090N0480E0SN100"},"geometry":{"type":"Polygon","coordinates":[[[-105.675695,46.541964],[-105.68093,46.54196],[-105.680929,46.542924],[-105.680934,46.545578],[-105.680935,46.546053],[-105.680933,46.549197],[-105.680925,46.552819],[-105.680917,46.556441],[-105.675686,46.556445],[-105.670455,46.556448],[-105.665224,46.556451],[-105.659993,46.556455],[-105.659993,46.554137],[-105.65999,46.552836],[-105.659986,46.550697],[-105.659987,46.549217],[-105.659988,46.545597],[-105.65999,46.541976],[-105.665225,46.541972],[-105.67046,46.541968],[-105.675695,46.541964]]]}},{"type":"Feature","properties":{"sec":"12","frstdivid":"MT200090N0480E0SN120"},"geometry":{"type":"Polygon","coordinates":[[[-105.633807,46.541949],[-105.639043,46.541956],[-105.639031,46.54558],[-105.639019,46.549205],[-105.639014,46.552826],[-105.63901,46.555742],[-105.639015,46.556446],[-105.637541,46.556442],[-105.633782,46.556444],[-105.628541,46.556449],[-105.623304,46.556459],[-105.618067,46.556469],[-105.618075,46.552834],[-105.618083,46.549198],[-105.618091,46.545563],[-105.618099,46.541927],[-105.623335,46.541934],[-105.628571,46.541941],[-105.633807,46.541949]]]}},{"type":"Feature","properties":{"sec":"33","frstdivid":"MT200090N0480E0SN330"},"geometry":{"type":"Polygon","coordinates":[[[-105.697806,46.483872],[-105.701992,46.483896],[-105.702014,46.487533],[-105.702036,46.491171],[-105.702058,46.494808],[-105.70208,46.498445],[-105.696827,46.498437],[-105.691574,46.498429],[-105.686321,46.49842],[-105.681068,46.498412],[-105.681069,46.494788],[-105.681069,46.491164],[-105.68107,46.487541],[-105.681071,46.483917],[-105.682081,46.483914],[-105.686291,46.4839],[-105.687323,46.483897],[-105.691511,46.483888],[-105.692568,46.483886],[-105.696751,46.483877],[-105.697806,46.483872]]]}}]}