{"type":"FeatureCollection","note":"BLM Public Land Survey System. Provided by the Bureau of Land Management as is. These data are neither legal documents nor land surveys and must not be used as such.","features":[{"type":"Feature","properties":{"sec":"11","frstdivid":"MT200010N0430E0SN110"},"geometry":{"type":"Polygon","coordinates":[[[-106.35293,45.846479],[-106.358331,45.846484],[-106.358331,45.847252],[-106.358329,45.850094],[-106.358329,45.850926],[-106.358328,45.853704],[-106.358328,45.8546],[-106.358327,45.857313],[-106.358328,45.85822],[-106.358328,45.860923],[-106.353142,45.860924],[-106.352934,45.860924],[-106.347956,45.860925],[-106.347749,45.860925],[-106.34277,45.860926],[-106.342563,45.860926],[-106.337377,45.860927],[-106.337379,45.85731],[-106.337381,45.853693],[-106.337383,45.850076],[-106.337386,45.846458],[-106.342568,45.846467],[-106.34775,45.846475],[-106.35293,45.846479]]]}},{"type":"Feature","properties":{"sec":"17","frstdivid":"MT200010N0430E0SN170"},"geometry":{"type":"Polygon","coordinates":[[[-106.405097,45.846941],[-106.399898,45.846924],[-106.399907,45.843266],[-106.399917,45.839608],[-106.399926,45.83595],[-106.399936,45.832292],[-106.405151,45.832267],[-106.410365,45.832242],[-106.41558,45.832217],[-106.420795,45.832191],[-106.42077,45.835891],[-106.420745,45.839591],[-106.42072,45.843291],[-106.420695,45.846991],[-106.415496,45.846974],[-106.410297,45.846958],[-106.405097,45.846941]]]}},{"type":"Feature","properties":{"sec":"06","frstdivid":"MT200010N0430E0SN060"},"geometry":{"type":"Polygon","coordinates":[[[-106.420556,45.864942],[-106.42059,45.861302],[-106.425779,45.861253],[-106.430968,45.861205],[-106.436152,45.861183],[-106.441521,45.86116],[-106.441505,45.86479],[-106.441489,45.868421],[-106.441473,45.872052],[-106.441457,45.875683],[-106.436018,45.875691],[-106.430838,45.875699],[-106.425658,45.875701],[-106.420479,45.875703],[-106.4205,45.872211],[-106.420522,45.868582],[-106.420556,45.864942]]]}},{"type":"Feature","properties":{"sec":"12","frstdivid":"MT200010N0430E0SN120"},"geometry":{"type":"Polygon","coordinates":[[[-106.337377,45.860927],[-106.332191,45.860923],[-106.327006,45.860919],[-106.32182,45.860915],[-106.316635,45.860911],[-106.316632,45.857634],[-106.316631,45.857295],[-106.316628,45.853982],[-106.316628,45.853678],[-106.316625,45.850345],[-106.316624,45.850062],[-106.316621,45.846708],[-106.316621,45.846446],[-106.321812,45.846449],[-106.327003,45.846452],[-106.332194,45.846455],[-106.337386,45.846458],[-106.337383,45.850076],[-106.337381,45.853693],[-106.337379,45.85731],[-106.337377,45.860927]]]}},{"type":"Feature","properties":{"sec":"20","frstdivid":"MT200010N0430E0SN200"},"geometry":{"type":"Polygon","coordinates":[[[-106.415626,45.817584],[-106.420857,45.817573],[-106.420842,45.821227],[-106.420826,45.824882],[-106.42081,45.828537],[-106.420795,45.832191],[-106.41558,45.832217],[-106.410365,45.832242],[-106.405151,45.832267],[-106.399936,45.832292],[-106.399935,45.828624],[-106.399934,45.824955],[-106.399934,45.821286],[-106.399933,45.817617],[-106.405164,45.817606],[-106.410395,45.817595],[-106.415626,45.817584]]]}},{"type":"Feature","properties":{"sec":"13","frstdivid":"MT200010N0430E0SN130"},"geometry":{"type":"Polygon","coordinates":[[[-106.316617,45.843078],[-106.316617,45.842825],[-106.316613,45.839448],[-106.316613,45.839204],[-106.31661,45.835814],[-106.316609,45.835583],[-106.316606,45.832179],[-106.316606,45.831962],[-106.321797,45.831961],[-106.326988,45.83196],[-106.33218,45.831959],[-106.337371,45.831958],[-106.337375,45.835583],[-106.337378,45.839208],[-106.337382,45.842833],[-106.337386,45.846458],[-106.332194,45.846455],[-106.327003,45.846452],[-106.321812,45.846449],[-106.316621,45.846446],[-106.316617,45.843078]]]}},{"type":"Feature","properties":{"sec":"07","frstdivid":"MT200010N0430E0SN070"},"geometry":{"type":"Polygon","coordinates":[[[-106.436256,45.846695],[-106.441586,45.846636],[-106.44157,45.850267],[-106.441554,45.853898],[-106.441537,45.857529],[-106.441521,45.86116],[-106.436152,45.861183],[-106.430968,45.861205],[-106.425779,45.861253],[-106.42059,45.861302],[-106.420617,45.857724],[-106.420643,45.854146],[-106.420669,45.850569],[-106.420695,45.846991],[-106.425884,45.846871],[-106.431073,45.846751],[-106.436256,45.846695]]]}},{"type":"Feature","properties":{"sec":"08","frstdivid":"MT200010N0430E0SN080"},"geometry":{"type":"Polygon","coordinates":[[[-106.420695,45.846991],[-106.420669,45.850569],[-106.420643,45.854146],[-106.420617,45.857724],[-106.42059,45.861302],[-106.415407,45.861321],[-106.410223,45.861341],[-106.405039,45.86136],[-106.399855,45.86138],[-106.399866,45.857766],[-106.399877,45.854152],[-106.399887,45.850538],[-106.399898,45.846924],[-106.405097,45.846941],[-106.410297,45.846958],[-106.415496,45.846974],[-106.420695,45.846991]]]}},{"type":"Feature","properties":{"sec":"14","frstdivid":"MT200010N0430E0SN140"},"geometry":{"type":"Polygon","coordinates":[[[-106.337375,45.835583],[-106.337371,45.831958],[-106.342549,45.831956],[-106.347727,45.831954],[-106.352905,45.831952],[-106.358346,45.831951],[-106.358346,45.83257],[-106.358342,45.835585],[-106.358342,45.836241],[-106.358338,45.839218],[-106.358338,45.839911],[-106.358335,45.842851],[-106.358335,45.843581],[-106.358331,45.846484],[-106.35293,45.846479],[-106.34775,45.846475],[-106.342568,45.846467],[-106.337386,45.846458],[-106.337382,45.842833],[-106.337378,45.839208],[-106.337375,45.835583]]]}},{"type":"Feature","properties":{"sec":"02","frstdivid":"MT200010N0430E0SN020"},"geometry":{"type":"Polygon","coordinates":[[[-106.347913,45.875609],[-106.347775,45.875609],[-106.34273,45.875609],[-106.342593,45.875609],[-106.337411,45.875609],[-106.337404,45.872427],[-106.337402,45.871782],[-106.337396,45.869141],[-106.337393,45.868164],[-106.337387,45.865523],[-106.337384,45.864546],[-106.337377,45.860927],[-106.342563,45.860926],[-106.34277,45.860926],[-106.347749,45.860925],[-106.347956,45.860925],[-106.352934,45.860924],[-106.353142,45.860924],[-106.358328,45.860923],[-106.358328,45.861839],[-106.358315,45.865462],[-106.358315,45.865465],[-106.358302,45.869091],[-106.35829,45.872385],[-106.358278,45.875575],[-106.358141,45.875576],[-106.353095,45.875592],[-106.352958,45.875593],[-106.347913,45.875609]]]}},{"type":"Feature","properties":{"sec":"27","frstdivid":"MT200010N0430E0SN270"},"geometry":{"type":"Polygon","coordinates":[[[-106.373807,45.803009],[-106.378947,45.802944],[-106.378984,45.806642],[-106.37902,45.810341],[-106.379057,45.81404],[-106.379093,45.817739],[-106.373911,45.817776],[-106.36873,45.817812],[-106.363548,45.817848],[-106.358366,45.817885],[-106.358366,45.817501],[-106.358371,45.814215],[-106.358371,45.813879],[-106.358376,45.810546],[-106.358376,45.810257],[-106.358381,45.806876],[-106.358381,45.806635],[-106.358386,45.803206],[-106.363526,45.803141],[-106.368667,45.803075],[-106.373807,45.803009]]]}},{"type":"Feature","properties":{"sec":"16","frstdivid":"MT200010N0430E0SN160"},"geometry":{"type":"Polygon","coordinates":[[[-106.399907,45.843266],[-106.399898,45.846924],[-106.394699,45.846965],[-106.389501,45.847006],[-106.384303,45.847047],[-106.379104,45.847088],[-106.379109,45.843424],[-106.379113,45.83976],[-106.379118,45.836096],[-106.379123,45.832432],[-106.384326,45.832397],[-106.389529,45.832362],[-106.394733,45.832327],[-106.399936,45.832292],[-106.399926,45.83595],[-106.399917,45.839608],[-106.399907,45.843266]]]}},{"type":"Feature","properties":{"sec":"29","frstdivid":"MT200010N0430E0SN290"},"geometry":{"type":"Polygon","coordinates":[[[-106.415583,45.802898],[-106.420835,45.80291],[-106.42084,45.806575],[-106.420846,45.810241],[-106.420852,45.813907],[-106.420857,45.817573],[-106.415626,45.817584],[-106.410395,45.817595],[-106.405164,45.817606],[-106.399933,45.817617],[-106.399906,45.813929],[-106.39988,45.810241],[-106.399854,45.806552],[-106.399827,45.802864],[-106.405079,45.802875],[-106.410331,45.802887],[-106.415583,45.802898]]]}},{"type":"Feature","properties":{"sec":"26","frstdivid":"MT200010N0430E0SN260"},"geometry":{"type":"Polygon","coordinates":[[[-106.353189,45.803012],[-106.358386,45.803013],[-106.358386,45.803206],[-106.358381,45.806635],[-106.358381,45.806876],[-106.358376,45.810257],[-106.358376,45.810546],[-106.358371,45.813879],[-106.358371,45.814215],[-106.358366,45.817501],[-106.352872,45.817498],[-106.347697,45.817496],[-106.342523,45.817491],[-106.337349,45.817486],[-106.337351,45.813866],[-106.337352,45.810247],[-106.337353,45.806628],[-106.337355,45.803008],[-106.342527,45.803009],[-106.342819,45.803009],[-106.3477,45.80301],[-106.347992,45.80301],[-106.352872,45.803012],[-106.353189,45.803012]]]}},{"type":"Feature","properties":{"sec":"34","frstdivid":"MT200010N0430E0SN340"},"geometry":{"type":"Polygon","coordinates":[[[-106.378292,45.78852],[-106.379332,45.788518],[-106.379236,45.792125],[-106.37914,45.795731],[-106.379043,45.799337],[-106.378947,45.802944],[-106.373807,45.803009],[-106.368667,45.803075],[-106.363526,45.803141],[-106.358386,45.803206],[-106.358386,45.803013],[-106.358391,45.799539],[-106.358391,45.799491],[-106.358397,45.795872],[-106.358411,45.792205],[-106.358425,45.788539],[-106.362697,45.788535],[-106.363654,45.788534],[-106.367895,45.78853],[-106.368883,45.788528],[-106.373093,45.788525],[-106.374107,45.788524],[-106.378292,45.78852]]]}},{"type":"Feature","properties":{"sec":"19","frstdivid":"MT200010N0430E0SN190"},"geometry":{"type":"Polygon","coordinates":[[[-106.420826,45.824882],[-106.420842,45.821227],[-106.420857,45.817573],[-106.426068,45.817577],[-106.431278,45.817581],[-106.436471,45.817587],[-106.441709,45.817592],[-106.441694,45.821223],[-106.441679,45.824854],[-106.441663,45.828485],[-106.441648,45.832116],[-106.436375,45.832126],[-106.431188,45.832135],[-106.425991,45.832163],[-106.420795,45.832191],[-106.42081,45.828537],[-106.420826,45.824882]]]}},{"type":"Feature","properties":{"sec":"36","frstdivid":"MT200010N0430E0SN360"},"geometry":{"type":"Polygon","coordinates":[[[-106.316588,45.80296],[-106.316617,45.799422],[-106.316617,45.799375],[-106.316646,45.795789],[-106.316627,45.792161],[-106.316608,45.788533],[-106.317645,45.788533],[-106.321816,45.788535],[-106.322881,45.788535],[-106.327025,45.788537],[-106.328116,45.788537],[-106.332193,45.788536],[-106.333348,45.788536],[-106.337362,45.788536],[-106.33736,45.792154],[-106.33736,45.792202],[-106.337358,45.795772],[-106.337358,45.795868],[-106.337357,45.79939],[-106.337357,45.799486],[-106.337355,45.803008],[-106.332163,45.802996],[-106.326972,45.802984],[-106.32178,45.802972],[-106.316588,45.80296]]]}},{"type":"Feature","properties":{"sec":"05","frstdivid":"MT200010N0430E0SN050"},"geometry":{"type":"Polygon","coordinates":[[[-106.4205,45.872211],[-106.420479,45.875703],[-106.415301,45.875694],[-106.410124,45.875684],[-106.404946,45.875675],[-106.399768,45.875666],[-106.399788,45.872214],[-106.399809,45.868599],[-106.399832,45.86499],[-106.399855,45.86138],[-106.405039,45.86136],[-106.410223,45.861341],[-106.415407,45.861321],[-106.42059,45.861302],[-106.420556,45.864942],[-106.420522,45.868582],[-106.4205,45.872211]]]}},{"type":"Feature","properties":{"sec":"21","frstdivid":"MT200010N0430E0SN210"},"geometry":{"type":"Polygon","coordinates":[[[-106.394723,45.817648],[-106.399933,45.817617],[-106.399934,45.821286],[-106.399934,45.824955],[-106.399935,45.828624],[-106.399936,45.832292],[-106.394733,45.832327],[-106.389529,45.832362],[-106.384326,45.832397],[-106.379123,45.832432],[-106.379115,45.828759],[-106.379108,45.825085],[-106.379101,45.821412],[-106.379093,45.817739],[-106.384303,45.817709],[-106.389513,45.817678],[-106.394723,45.817648]]]}},{"type":"Feature","properties":{"sec":"32","frstdivid":"MT200010N0430E0SN320"},"geometry":{"type":"Polygon","coordinates":[[[-106.419708,45.788516],[-106.421016,45.788516],[-106.420971,45.792114],[-106.420926,45.795713],[-106.42088,45.799311],[-106.420835,45.80291],[-106.415583,45.802898],[-106.410331,45.802887],[-106.405079,45.802875],[-106.399827,45.802864],[-106.399924,45.799271],[-106.40002,45.795678],[-106.400116,45.792084],[-106.400213,45.788491],[-106.404161,45.788496],[-106.405414,45.788498],[-106.409343,45.788503],[-106.410615,45.788504],[-106.414526,45.788509],[-106.415815,45.788511],[-106.419708,45.788516]]]}},{"type":"Feature","properties":{"sec":"22","frstdivid":"MT200010N0430E0SN220"},"geometry":{"type":"Polygon","coordinates":[[[-106.358366,45.817885],[-106.363548,45.817848],[-106.36873,45.817812],[-106.373911,45.817776],[-106.379093,45.817739],[-106.379101,45.821412],[-106.379108,45.825085],[-106.379115,45.828759],[-106.379123,45.832432],[-106.373929,45.832466],[-106.368735,45.832501],[-106.36354,45.832536],[-106.358346,45.83257],[-106.358346,45.831951],[-106.358351,45.828899],[-106.358351,45.828339],[-106.358356,45.825228],[-106.358356,45.824726],[-106.358361,45.821556],[-106.358361,45.821114],[-106.358366,45.817885]]]}},{"type":"Feature","properties":{"sec":"10","frstdivid":"MT200010N0430E0SN100"},"geometry":{"type":"Polygon","coordinates":[[[-106.373911,45.847129],[-106.379104,45.847088],[-106.379102,45.850693],[-106.379099,45.854297],[-106.379096,45.857902],[-106.379094,45.861507],[-106.373903,45.86159],[-106.368711,45.861673],[-106.36352,45.861756],[-106.358328,45.861839],[-106.358328,45.860923],[-106.358328,45.85822],[-106.358327,45.857313],[-106.358328,45.8546],[-106.358328,45.853704],[-106.358329,45.850926],[-106.358329,45.850094],[-106.358331,45.847252],[-106.363524,45.847211],[-106.368718,45.84717],[-106.373911,45.847129]]]}},{"type":"Feature","properties":{"sec":"03","frstdivid":"MT200010N0430E0SN030"},"geometry":{"type":"Polygon","coordinates":[[[-106.37385,45.875612],[-106.368643,45.875596],[-106.363461,45.875586],[-106.363459,45.875586],[-106.358278,45.875575],[-106.35829,45.872385],[-106.358302,45.869091],[-106.358315,45.865465],[-106.358315,45.865462],[-106.358328,45.861839],[-106.36352,45.861756],[-106.368711,45.861673],[-106.373903,45.86159],[-106.379094,45.861507],[-106.379085,45.865051],[-106.379075,45.868595],[-106.379066,45.872176],[-106.379056,45.875628],[-106.37385,45.875612]]]}},{"type":"Feature","properties":{"sec":"09","frstdivid":"MT200010N0430E0SN090"},"geometry":{"type":"Polygon","coordinates":[[[-106.394699,45.846965],[-106.399898,45.846924],[-106.399887,45.850538],[-106.399877,45.854152],[-106.399866,45.857766],[-106.399855,45.86138],[-106.394665,45.861412],[-106.389475,45.861443],[-106.384284,45.861475],[-106.379094,45.861507],[-106.379096,45.857902],[-106.379099,45.854297],[-106.379102,45.850693],[-106.379104,45.847088],[-106.384303,45.847047],[-106.389501,45.847006],[-106.394699,45.846965]]]}},{"type":"Feature","properties":{"sec":"18","frstdivid":"MT200010N0430E0SN180"},"geometry":{"type":"Polygon","coordinates":[[[-106.441648,45.832116],[-106.441633,45.835746],[-106.441617,45.839376],[-106.441602,45.843006],[-106.441586,45.846636],[-106.436256,45.846695],[-106.431073,45.846751],[-106.425884,45.846871],[-106.420695,45.846991],[-106.42072,45.843291],[-106.420745,45.839591],[-106.42077,45.835891],[-106.420795,45.832191],[-106.425991,45.832163],[-106.431188,45.832135],[-106.436375,45.832126],[-106.441648,45.832116]]]}},{"type":"Feature","properties":{"sec":"33","frstdivid":"MT200010N0430E0SN330"},"geometry":{"type":"Polygon","coordinates":[[[-106.379332,45.788518],[-106.383463,45.788513],[-106.384569,45.788512],[-106.388635,45.788507],[-106.389805,45.788505],[-106.393807,45.7885],[-106.395009,45.788498],[-106.398978,45.788493],[-106.400213,45.788491],[-106.400116,45.792084],[-106.40002,45.795678],[-106.399924,45.799271],[-106.399827,45.802864],[-106.394607,45.802884],[-106.389387,45.802904],[-106.384167,45.802924],[-106.378947,45.802944],[-106.379043,45.799337],[-106.37914,45.795731],[-106.379236,45.792125],[-106.379332,45.788518]]]}},{"type":"Feature","properties":{"sec":"35","frstdivid":"MT200010N0430E0SN350"},"geometry":{"type":"Polygon","coordinates":[[[-106.357499,45.788539],[-106.358425,45.788539],[-106.358411,45.792205],[-106.358397,45.795872],[-106.358391,45.799491],[-106.358391,45.799539],[-106.358386,45.803013],[-106.353189,45.803012],[-106.352872,45.803012],[-106.347992,45.80301],[-106.3477,45.80301],[-106.342819,45.803009],[-106.342527,45.803009],[-106.337355,45.803008],[-106.337357,45.799486],[-106.337357,45.79939],[-106.337358,45.795868],[-106.337358,45.795772],[-106.33736,45.792202],[-106.33736,45.792154],[-106.337362,45.788536],[-106.338581,45.788536],[-106.34285,45.788537],[-106.343493,45.788537],[-106.348025,45.788537],[-106.348404,45.788537],[-106.353225,45.788538],[-106.353316,45.788538],[-106.357499,45.788539]]]}},{"type":"Feature","properties":{"sec":"23","frstdivid":"MT200010N0430E0SN230"},"geometry":{"type":"Polygon","coordinates":[[[-106.358361,45.821556],[-106.358356,45.824726],[-106.358356,45.825228],[-106.358351,45.828339],[-106.358351,45.828899],[-106.358346,45.831951],[-106.352905,45.831952],[-106.347727,45.831954],[-106.342549,45.831956],[-106.337371,45.831958],[-106.337366,45.82834],[-106.33736,45.824722],[-106.337355,45.821104],[-106.337349,45.817486],[-106.342523,45.817491],[-106.347697,45.817496],[-106.352872,45.817498],[-106.358366,45.817501],[-106.358366,45.817885],[-106.358361,45.821114],[-106.358361,45.821556]]]}},{"type":"Feature","properties":{"sec":"28","frstdivid":"MT200010N0430E0SN280"},"geometry":{"type":"Polygon","coordinates":[[[-106.384167,45.802924],[-106.389387,45.802904],[-106.394607,45.802884],[-106.399827,45.802864],[-106.399854,45.806552],[-106.39988,45.810241],[-106.399906,45.813929],[-106.399933,45.817617],[-106.394723,45.817648],[-106.389513,45.817678],[-106.384303,45.817709],[-106.379093,45.817739],[-106.379057,45.81404],[-106.37902,45.810341],[-106.378984,45.806642],[-106.378947,45.802944],[-106.384167,45.802924]]]}},{"type":"Feature","properties":{"sec":"15","frstdivid":"MT200010N0430E0SN150"},"geometry":{"type":"Polygon","coordinates":[[[-106.358338,45.839218],[-106.358342,45.836241],[-106.358342,45.835585],[-106.358346,45.83257],[-106.36354,45.832536],[-106.368735,45.832501],[-106.373929,45.832466],[-106.379123,45.832432],[-106.379118,45.836096],[-106.379113,45.83976],[-106.379109,45.843424],[-106.379104,45.847088],[-106.373911,45.847129],[-106.368718,45.84717],[-106.363524,45.847211],[-106.358331,45.847252],[-106.358331,45.846484],[-106.358335,45.843581],[-106.358335,45.842851],[-106.358338,45.839911],[-106.358338,45.839218]]]}},{"type":"Feature","properties":{"sec":"31","frstdivid":"MT200010N0430E0SN310"},"geometry":{"type":"Polygon","coordinates":[[[-106.440494,45.788542],[-106.441832,45.788542],[-106.441816,45.792173],[-106.4418,45.795805],[-106.441784,45.799436],[-106.441769,45.803067],[-106.43652,45.803038],[-106.431313,45.803011],[-106.426074,45.80296],[-106.420835,45.80291],[-106.42088,45.799311],[-106.420926,45.795713],[-106.420971,45.792114],[-106.421016,45.788516],[-106.424905,45.788522],[-106.42622,45.788524],[-106.430101,45.788529],[-106.431424,45.788529],[-106.435298,45.788535],[-106.436628,45.788537],[-106.440494,45.788542]]]}},{"type":"Feature","properties":{"sec":"24","frstdivid":"MT200010N0430E0SN240"},"geometry":{"type":"Polygon","coordinates":[[[-106.332162,45.817482],[-106.337349,45.817486],[-106.337355,45.821104],[-106.33736,45.824722],[-106.337366,45.82834],[-106.337371,45.831958],[-106.33218,45.831959],[-106.326988,45.83196],[-106.321797,45.831961],[-106.316606,45.831962],[-106.316604,45.828536],[-106.316604,45.828339],[-106.316602,45.824894],[-106.316602,45.824716],[-106.316601,45.821254],[-106.316601,45.821093],[-106.316599,45.817615],[-106.316599,45.81747],[-106.321787,45.817474],[-106.326974,45.817478],[-106.332162,45.817482]]]}},{"type":"Feature","properties":{"sec":"01","frstdivid":"MT200010N0430E0SN010"},"geometry":{"type":"Polygon","coordinates":[[[-106.337402,45.871782],[-106.337404,45.872427],[-106.337411,45.875609],[-106.332215,45.875607],[-106.32702,45.875606],[-106.321825,45.875604],[-106.316629,45.875603],[-106.31663,45.872189],[-106.31663,45.87177],[-106.316631,45.868552],[-106.316631,45.86815],[-106.316633,45.864919],[-106.316633,45.864531],[-106.316635,45.861286],[-106.316635,45.860911],[-106.32182,45.860915],[-106.327006,45.860919],[-106.332191,45.860923],[-106.337377,45.860927],[-106.337384,45.864546],[-106.337387,45.865523],[-106.337393,45.868164],[-106.337396,45.869141],[-106.337402,45.871782]]]}},{"type":"Feature","properties":{"sec":"30","frstdivid":"MT200010N0430E0SN300"},"geometry":{"type":"Polygon","coordinates":[[[-106.43652,45.803038],[-106.441769,45.803067],[-106.441754,45.806698],[-106.441739,45.810329],[-106.441724,45.813961],[-106.441709,45.817592],[-106.436471,45.817587],[-106.431278,45.817581],[-106.426068,45.817577],[-106.420857,45.817573],[-106.420852,45.813907],[-106.420846,45.810241],[-106.42084,45.806575],[-106.420835,45.80291],[-106.426074,45.80296],[-106.431313,45.803011],[-106.43652,45.803038]]]}},{"type":"Feature","properties":{"sec":"25","frstdivid":"MT200010N0430E0SN250"},"geometry":{"type":"Polygon","coordinates":[[[-106.316593,45.810215],[-106.31659,45.806695],[-106.31659,45.806588],[-106.316587,45.803055],[-106.316588,45.80296],[-106.32178,45.802972],[-106.326972,45.802984],[-106.332163,45.802996],[-106.337355,45.803008],[-106.337353,45.806628],[-106.337352,45.810247],[-106.337351,45.813866],[-106.337349,45.817486],[-106.332162,45.817482],[-106.326974,45.817478],[-106.321787,45.817474],[-106.316599,45.81747],[-106.316596,45.813975],[-106.316596,45.813843],[-106.316593,45.810335],[-106.316593,45.810215]]]}},{"type":"Feature","properties":{"sec":"04","frstdivid":"MT200010N0430E0SN040"},"geometry":{"type":"Polygon","coordinates":[[[-106.379094,45.861507],[-106.384284,45.861475],[-106.389475,45.861443],[-106.394665,45.861412],[-106.399855,45.86138],[-106.399832,45.86499],[-106.399809,45.868599],[-106.399788,45.872214],[-106.399768,45.875666],[-106.39459,45.875657],[-106.389412,45.875647],[-106.384234,45.875638],[-106.379056,45.875628],[-106.379066,45.872176],[-106.379075,45.868595],[-106.379085,45.865051],[-106.379094,45.861507]]]}}]}