{"type":"FeatureCollection","note":"BLM Public Land Survey System. Provided by the Bureau of Land Management as is. These data are neither legal documents nor land surveys and must not be used as such.","features":[{"type":"Feature","properties":{"sec":"30","frstdivid":"WY060310N0670W0SN300"},"geometry":{"type":"Polygon","coordinates":[[[-104.931636,42.638151],[-104.931708,42.634521],[-104.93178,42.63089],[-104.931852,42.62726],[-104.931924,42.623629],[-104.936834,42.623492],[-104.941745,42.623355],[-104.946656,42.623218],[-104.950115,42.623122],[-104.950081,42.626797],[-104.950047,42.630471],[-104.950013,42.634146],[-104.949979,42.63782],[-104.946354,42.637863],[-104.941448,42.637932],[-104.936542,42.638042],[-104.931636,42.638151]]]}},{"type":"Feature","properties":{"sec":"08","frstdivid":"WY060310N0670W0SN080"},"geometry":{"type":"Polygon","coordinates":[[[-104.912037,42.667601],[-104.91694,42.667514],[-104.921842,42.667427],[-104.926744,42.66734],[-104.931647,42.667253],[-104.931602,42.670898],[-104.931557,42.674543],[-104.931513,42.678187],[-104.931468,42.681832],[-104.926589,42.681893],[-104.92171,42.681953],[-104.916831,42.682013],[-104.911952,42.682073],[-104.91223,42.678459],[-104.912509,42.674846],[-104.912273,42.671223],[-104.912037,42.667601]]]}},{"type":"Feature","properties":{"sec":"17","frstdivid":"WY060310N0670W0SN170"},"geometry":{"type":"Polygon","coordinates":[[[-104.912037,42.667601],[-104.912034,42.663971],[-104.91203,42.660341],[-104.912026,42.656711],[-104.912023,42.653081],[-104.91685,42.652984],[-104.921677,42.652887],[-104.926504,42.65279],[-104.931331,42.652692],[-104.93141,42.656332],[-104.931489,42.659973],[-104.931568,42.663613],[-104.931647,42.667253],[-104.926744,42.66734],[-104.921842,42.667427],[-104.91694,42.667514],[-104.912037,42.667601]]]}},{"type":"Feature","properties":{"sec":"06","frstdivid":"WY060310N0670W0SN060"},"geometry":{"type":"Polygon","coordinates":[[[-104.936072,42.696287],[-104.931216,42.696213],[-104.93126,42.69272],[-104.931306,42.689094],[-104.931387,42.685463],[-104.931468,42.681832],[-104.936368,42.681831],[-104.941268,42.68183],[-104.946172,42.681823],[-104.950144,42.681816],[-104.950059,42.685475],[-104.949974,42.689133],[-104.949931,42.692773],[-104.949888,42.696412],[-104.94581,42.696392],[-104.940928,42.696361],[-104.936072,42.696287]]]}},{"type":"Feature","properties":{"sec":"04","frstdivid":"WY060310N0670W0SN040"},"geometry":{"type":"Polygon","coordinates":[[[-104.892594,42.696716],[-104.892516,42.69307],[-104.892438,42.689448],[-104.892395,42.685822],[-104.892351,42.682197],[-104.897251,42.682166],[-104.902152,42.682135],[-104.907052,42.682104],[-104.911952,42.682073],[-104.911934,42.685693],[-104.911917,42.689312],[-104.911914,42.692932],[-104.911912,42.696561],[-104.907083,42.6966],[-104.902253,42.696639],[-104.897424,42.696677],[-104.892594,42.696716]]]}},{"type":"Feature","properties":{"sec":"18","frstdivid":"WY060310N0670W0SN180"},"geometry":{"type":"Polygon","coordinates":[[[-104.936193,42.652584],[-104.941054,42.652475],[-104.945938,42.652412],[-104.949673,42.652371],[-104.949811,42.656061],[-104.94995,42.659751],[-104.950088,42.663441],[-104.950227,42.667131],[-104.946352,42.667137],[-104.941449,42.667152],[-104.936548,42.667202],[-104.931647,42.667253],[-104.931568,42.663613],[-104.931489,42.659973],[-104.93141,42.656332],[-104.931331,42.652692],[-104.936193,42.652584]]]}},{"type":"Feature","properties":{"sec":"09","frstdivid":"WY060310N0670W0SN090"},"geometry":{"type":"Polygon","coordinates":[[[-104.912273,42.671223],[-104.912509,42.674846],[-104.91223,42.678459],[-104.911952,42.682073],[-104.907052,42.682104],[-104.902152,42.682135],[-104.897251,42.682166],[-104.892351,42.682197],[-104.892377,42.678566],[-104.892404,42.674935],[-104.89243,42.671305],[-104.892456,42.667674],[-104.897351,42.667656],[-104.902246,42.667638],[-104.907142,42.667619],[-104.912037,42.667601],[-104.912273,42.671223]]]}},{"type":"Feature","properties":{"sec":"21","frstdivid":"WY060310N0670W0SN210"},"geometry":{"type":"Polygon","coordinates":[[[-104.912071,42.642178],[-104.912174,42.645822],[-104.912098,42.649451],[-104.912023,42.653081],[-104.907111,42.6531],[-104.9022,42.65312],[-104.897289,42.653139],[-104.892378,42.653159],[-104.892364,42.649531],[-104.892349,42.645903],[-104.892334,42.642275],[-104.892319,42.638647],[-104.897232,42.638618],[-104.902144,42.63859],[-104.907056,42.638562],[-104.911968,42.638534],[-104.912071,42.642178]]]}},{"type":"Feature","properties":{"sec":"31","frstdivid":"WY060310N0670W0SN310"},"geometry":{"type":"Polygon","coordinates":[[[-104.950115,42.623122],[-104.946656,42.623218],[-104.941745,42.623355],[-104.936834,42.623492],[-104.931924,42.623629],[-104.931919,42.619972],[-104.931915,42.616315],[-104.931842,42.612559],[-104.931768,42.608802],[-104.93666,42.608773],[-104.941552,42.608743],[-104.946444,42.608713],[-104.950028,42.608691],[-104.950049,42.612299],[-104.950071,42.615907],[-104.950093,42.619515],[-104.950115,42.623122]]]}},{"type":"Feature","properties":{"sec":"32","frstdivid":"WY060310N0670W0SN320"},"geometry":{"type":"Polygon","coordinates":[[[-104.931915,42.616315],[-104.931919,42.619972],[-104.931924,42.623629],[-104.926976,42.623694],[-104.922028,42.623759],[-104.917063,42.623813],[-104.912098,42.623868],[-104.912118,42.620224],[-104.912137,42.61658],[-104.912157,42.612936],[-104.912177,42.609292],[-104.917142,42.609165],[-104.922107,42.609037],[-104.926937,42.608919],[-104.931768,42.608802],[-104.931842,42.612559],[-104.931915,42.616315]]]}},{"type":"Feature","properties":{"sec":"20","frstdivid":"WY060310N0670W0SN200"},"geometry":{"type":"Polygon","coordinates":[[[-104.931407,42.649057],[-104.931331,42.652692],[-104.926504,42.65279],[-104.921677,42.652887],[-104.91685,42.652984],[-104.912023,42.653081],[-104.912098,42.649451],[-104.912174,42.645822],[-104.912071,42.642178],[-104.911968,42.638534],[-104.916885,42.638438],[-104.921802,42.638342],[-104.926719,42.638247],[-104.931636,42.638151],[-104.93156,42.641787],[-104.931483,42.645422],[-104.931407,42.649057]]]}},{"type":"Feature","properties":{"sec":"28","frstdivid":"WY060310N0670W0SN280"},"geometry":{"type":"Polygon","coordinates":[[[-104.907056,42.638562],[-104.902144,42.63859],[-104.897232,42.638618],[-104.892319,42.638647],[-104.892342,42.63502],[-104.892364,42.631394],[-104.892386,42.627768],[-104.892408,42.624142],[-104.89733,42.624073],[-104.902253,42.624005],[-104.907176,42.623936],[-104.912098,42.623868],[-104.912066,42.627534],[-104.912033,42.631201],[-104.912001,42.634867],[-104.911968,42.638534],[-104.907056,42.638562]]]}},{"type":"Feature","properties":{"sec":"19","frstdivid":"WY060310N0670W0SN190"},"geometry":{"type":"Polygon","coordinates":[[[-104.941054,42.652475],[-104.936193,42.652584],[-104.931331,42.652692],[-104.931407,42.649057],[-104.931483,42.645422],[-104.93156,42.641787],[-104.931636,42.638151],[-104.936542,42.638042],[-104.941448,42.637932],[-104.946354,42.637863],[-104.949979,42.63782],[-104.949902,42.641458],[-104.949826,42.645095],[-104.949749,42.648733],[-104.949673,42.652371],[-104.945938,42.652412],[-104.941054,42.652475]]]}},{"type":"Feature","properties":{"sec":"29","frstdivid":"WY060310N0670W0SN290"},"geometry":{"type":"Polygon","coordinates":[[[-104.931636,42.638151],[-104.926719,42.638247],[-104.921802,42.638342],[-104.916885,42.638438],[-104.911968,42.638534],[-104.912001,42.634867],[-104.912033,42.631201],[-104.912066,42.627534],[-104.912098,42.623868],[-104.917063,42.623813],[-104.922028,42.623759],[-104.926976,42.623694],[-104.931924,42.623629],[-104.931852,42.62726],[-104.93178,42.63089],[-104.931708,42.634521],[-104.931636,42.638151]]]}},{"type":"Feature","properties":{"sec":"16","frstdivid":"WY060310N0670W0SN160"},"geometry":{"type":"Polygon","coordinates":[[[-104.892417,42.660416],[-104.892398,42.656788],[-104.892378,42.653159],[-104.897289,42.653139],[-104.9022,42.65312],[-104.907111,42.6531],[-104.912023,42.653081],[-104.912026,42.656711],[-104.91203,42.660341],[-104.912034,42.663971],[-104.912037,42.667601],[-104.907142,42.667619],[-104.902246,42.667638],[-104.897351,42.667656],[-104.892456,42.667674],[-104.892436,42.664045],[-104.892417,42.660416]]]}},{"type":"Feature","properties":{"sec":"05","frstdivid":"WY060310N0670W0SN050"},"geometry":{"type":"Polygon","coordinates":[[[-104.911912,42.696561],[-104.911914,42.692932],[-104.911917,42.689312],[-104.911934,42.685693],[-104.911952,42.682073],[-104.916831,42.682013],[-104.92171,42.681953],[-104.926589,42.681893],[-104.931468,42.681832],[-104.931387,42.685463],[-104.931306,42.689094],[-104.93126,42.69272],[-104.931216,42.696213],[-104.92639,42.6963],[-104.921564,42.696387],[-104.916738,42.696474],[-104.911912,42.696561]]]}},{"type":"Feature","properties":{"sec":"33","frstdivid":"WY060310N0670W0SN330"},"geometry":{"type":"Polygon","coordinates":[[[-104.902253,42.624005],[-104.89733,42.624073],[-104.892408,42.624142],[-104.89242,42.620488],[-104.892432,42.616835],[-104.892444,42.613182],[-104.892457,42.609529],[-104.897387,42.60947],[-104.902317,42.609411],[-104.907247,42.609352],[-104.912177,42.609292],[-104.912157,42.612936],[-104.912137,42.61658],[-104.912118,42.620224],[-104.912098,42.623868],[-104.907176,42.623936],[-104.902253,42.624005]]]}},{"type":"Feature","properties":{"sec":"07","frstdivid":"WY060310N0670W0SN070"},"geometry":{"type":"Polygon","coordinates":[[[-104.950185,42.674474],[-104.950165,42.678145],[-104.950144,42.681816],[-104.946172,42.681823],[-104.941268,42.68183],[-104.936368,42.681831],[-104.931468,42.681832],[-104.931513,42.678187],[-104.931557,42.674543],[-104.931602,42.670898],[-104.931647,42.667253],[-104.936548,42.667202],[-104.941449,42.667152],[-104.946352,42.667137],[-104.950227,42.667131],[-104.950206,42.670802],[-104.950185,42.674474]]]}},{"type":"Feature","properties":{"sec":"01","frstdivid":"WY060310N0670W0SN010"},"geometry":{"type":"Polygon","coordinates":[[[-104.848101,42.697244],[-104.843146,42.697329],[-104.838192,42.697415],[-104.833238,42.6975],[-104.833229,42.693866],[-104.833221,42.690232],[-104.833205,42.686585],[-104.833189,42.682938],[-104.838163,42.682852],[-104.843136,42.682766],[-104.84811,42.682681],[-104.853084,42.682595],[-104.85308,42.686214],[-104.853077,42.689834],[-104.853066,42.693454],[-104.853055,42.697159],[-104.848101,42.697244]]]}},{"type":"Feature","properties":{"sec":"27","frstdivid":"WY060310N0670W0SN270"},"geometry":{"type":"Polygon","coordinates":[[[-104.892364,42.631394],[-104.892342,42.63502],[-104.892319,42.638647],[-104.88741,42.638646],[-104.882501,42.638644],[-104.877591,42.638643],[-104.872682,42.638642],[-104.872706,42.634999],[-104.87273,42.631357],[-104.872754,42.627714],[-104.872778,42.624072],[-104.877686,42.624089],[-104.882593,42.624107],[-104.8875,42.624124],[-104.892408,42.624142],[-104.892386,42.627768],[-104.892364,42.631394]]]}},{"type":"Feature","properties":{"sec":"02","frstdivid":"WY060310N0670W0SN020"},"geometry":{"type":"Polygon","coordinates":[[[-104.862943,42.696982],[-104.857999,42.697071],[-104.853055,42.697159],[-104.853066,42.693454],[-104.853077,42.689834],[-104.85308,42.686214],[-104.853084,42.682595],[-104.857999,42.682506],[-104.862915,42.682417],[-104.867831,42.682328],[-104.872747,42.68224],[-104.872768,42.685862],[-104.872788,42.689485],[-104.872809,42.693107],[-104.872831,42.696805],[-104.867887,42.696893],[-104.862943,42.696982]]]}},{"type":"Feature","properties":{"sec":"34","frstdivid":"WY060310N0670W0SN340"},"geometry":{"type":"Polygon","coordinates":[[[-104.887566,42.609518],[-104.892457,42.609529],[-104.892444,42.613182],[-104.892432,42.616835],[-104.89242,42.620488],[-104.892408,42.624142],[-104.8875,42.624124],[-104.882593,42.624107],[-104.877686,42.624089],[-104.872778,42.624072],[-104.872807,42.620425],[-104.872836,42.616778],[-104.872865,42.613131],[-104.872894,42.609484],[-104.877785,42.609495],[-104.882675,42.609506],[-104.887566,42.609518]]]}},{"type":"Feature","properties":{"sec":"13","frstdivid":"WY060310N0670W0SN130"},"geometry":{"type":"Polygon","coordinates":[[[-104.833445,42.657359],[-104.833472,42.653712],[-104.83838,42.653672],[-104.843287,42.653632],[-104.848195,42.653592],[-104.853102,42.653552],[-104.853142,42.657196],[-104.853182,42.660839],[-104.853222,42.664483],[-104.853262,42.668126],[-104.848287,42.668169],[-104.843312,42.668212],[-104.838337,42.668255],[-104.833362,42.668299],[-104.83339,42.664652],[-104.833417,42.661005],[-104.833445,42.657359]]]}},{"type":"Feature","properties":{"sec":"11","frstdivid":"WY060310N0670W0SN110"},"geometry":{"type":"Polygon","coordinates":[[[-104.853218,42.671743],[-104.853262,42.668126],[-104.858157,42.668026],[-104.863051,42.667925],[-104.867945,42.667825],[-104.87284,42.667724],[-104.872817,42.671353],[-104.872793,42.674982],[-104.87277,42.678611],[-104.872747,42.68224],[-104.867831,42.682328],[-104.862915,42.682417],[-104.857999,42.682506],[-104.853084,42.682595],[-104.853128,42.678977],[-104.853173,42.67536],[-104.853218,42.671743]]]}},{"type":"Feature","properties":{"sec":"15","frstdivid":"WY060310N0670W0SN150"},"geometry":{"type":"Polygon","coordinates":[[[-104.872778,42.656824],[-104.872758,42.65319],[-104.877663,42.653182],[-104.882568,42.653175],[-104.887473,42.653167],[-104.892378,42.653159],[-104.892398,42.656788],[-104.892417,42.660416],[-104.892436,42.664045],[-104.892456,42.667674],[-104.887552,42.667687],[-104.882648,42.667699],[-104.877744,42.667712],[-104.87284,42.667724],[-104.872819,42.664091],[-104.872799,42.660457],[-104.872778,42.656824]]]}},{"type":"Feature","properties":{"sec":"36","frstdivid":"WY060310N0670W0SN360"},"geometry":{"type":"Polygon","coordinates":[[[-104.848187,42.624389],[-104.843255,42.624424],[-104.838323,42.624459],[-104.833392,42.624495],[-104.833444,42.62083],[-104.833496,42.617165],[-104.833549,42.613501],[-104.833601,42.609836],[-104.838534,42.609818],[-104.843466,42.609801],[-104.848399,42.609783],[-104.853332,42.609765],[-104.853279,42.613412],[-104.853225,42.617059],[-104.853172,42.620706],[-104.853118,42.624353],[-104.848187,42.624389]]]}},{"type":"Feature","properties":{"sec":"35","frstdivid":"WY060310N0670W0SN350"},"geometry":{"type":"Polygon","coordinates":[[[-104.872778,42.624072],[-104.867863,42.624142],[-104.862948,42.624213],[-104.858033,42.624283],[-104.853118,42.624353],[-104.853172,42.620706],[-104.853225,42.617059],[-104.853279,42.613412],[-104.853332,42.609765],[-104.858223,42.609695],[-104.863113,42.609625],[-104.868003,42.609554],[-104.872894,42.609484],[-104.872865,42.613131],[-104.872836,42.616778],[-104.872807,42.620425],[-104.872778,42.624072]]]}},{"type":"Feature","properties":{"sec":"03","frstdivid":"WY060310N0670W0SN030"},"geometry":{"type":"Polygon","coordinates":[[[-104.892594,42.696716],[-104.887654,42.696738],[-104.882713,42.69676],[-104.877772,42.696783],[-104.872831,42.696805],[-104.872809,42.693107],[-104.872788,42.689485],[-104.872768,42.685862],[-104.872747,42.68224],[-104.877648,42.682229],[-104.882549,42.682218],[-104.88745,42.682207],[-104.892351,42.682197],[-104.892395,42.685822],[-104.892438,42.689448],[-104.892516,42.69307],[-104.892594,42.696716]]]}},{"type":"Feature","properties":{"sec":"25","frstdivid":"WY060310N0670W0SN250"},"geometry":{"type":"Polygon","coordinates":[[[-104.833392,42.624495],[-104.838323,42.624459],[-104.843255,42.624424],[-104.848187,42.624389],[-104.853118,42.624353],[-104.853104,42.628001],[-104.853089,42.631649],[-104.853075,42.635296],[-104.853061,42.638944],[-104.848154,42.638987],[-104.843248,42.639031],[-104.838342,42.639074],[-104.833436,42.639117],[-104.833425,42.635462],[-104.833414,42.631806],[-104.833403,42.62815],[-104.833392,42.624495]]]}},{"type":"Feature","properties":{"sec":"22","frstdivid":"WY060310N0670W0SN220"},"geometry":{"type":"Polygon","coordinates":[[[-104.882501,42.638644],[-104.88741,42.638646],[-104.892319,42.638647],[-104.892334,42.642275],[-104.892349,42.645903],[-104.892364,42.649531],[-104.892378,42.653159],[-104.887473,42.653167],[-104.882568,42.653175],[-104.877663,42.653182],[-104.872758,42.65319],[-104.872739,42.649553],[-104.87272,42.645916],[-104.872701,42.642279],[-104.872682,42.638642],[-104.877591,42.638643],[-104.882501,42.638644]]]}},{"type":"Feature","properties":{"sec":"23","frstdivid":"WY060310N0670W0SN230"},"geometry":{"type":"Polygon","coordinates":[[[-104.862871,42.638793],[-104.867777,42.638717],[-104.872682,42.638642],[-104.872701,42.642279],[-104.87272,42.645916],[-104.872739,42.649553],[-104.872758,42.65319],[-104.867844,42.653281],[-104.86293,42.653371],[-104.858016,42.653462],[-104.853102,42.653552],[-104.853092,42.6499],[-104.853081,42.646248],[-104.853071,42.642596],[-104.853061,42.638944],[-104.857966,42.638869],[-104.862871,42.638793]]]}},{"type":"Feature","properties":{"sec":"24","frstdivid":"WY060310N0670W0SN240"},"geometry":{"type":"Polygon","coordinates":[[[-104.833463,42.650064],[-104.833454,42.646415],[-104.833445,42.642766],[-104.833436,42.639117],[-104.838342,42.639074],[-104.843248,42.639031],[-104.848154,42.638987],[-104.853061,42.638944],[-104.853071,42.642596],[-104.853081,42.646248],[-104.853092,42.6499],[-104.853102,42.653552],[-104.848195,42.653592],[-104.843287,42.653632],[-104.83838,42.653672],[-104.833472,42.653712],[-104.833463,42.650064]]]}},{"type":"Feature","properties":{"sec":"26","frstdivid":"WY060310N0670W0SN260"},"geometry":{"type":"Polygon","coordinates":[[[-104.87273,42.631357],[-104.872706,42.634999],[-104.872682,42.638642],[-104.867777,42.638717],[-104.862871,42.638793],[-104.857966,42.638869],[-104.853061,42.638944],[-104.853075,42.635296],[-104.853089,42.631649],[-104.853104,42.628001],[-104.853118,42.624353],[-104.858033,42.624283],[-104.862948,42.624213],[-104.867863,42.624142],[-104.872778,42.624072],[-104.872754,42.627714],[-104.87273,42.631357]]]}},{"type":"Feature","properties":{"sec":"10","frstdivid":"WY060310N0670W0SN100"},"geometry":{"type":"Polygon","coordinates":[[[-104.892404,42.674935],[-104.892377,42.678566],[-104.892351,42.682197],[-104.88745,42.682207],[-104.882549,42.682218],[-104.877648,42.682229],[-104.872747,42.68224],[-104.87277,42.678611],[-104.872793,42.674982],[-104.872817,42.671353],[-104.87284,42.667724],[-104.877744,42.667712],[-104.882648,42.667699],[-104.887552,42.667687],[-104.892456,42.667674],[-104.89243,42.671305],[-104.892404,42.674935]]]}},{"type":"Feature","properties":{"sec":"12","frstdivid":"WY060310N0670W0SN120"},"geometry":{"type":"Polygon","coordinates":[[[-104.853128,42.678977],[-104.853084,42.682595],[-104.84811,42.682681],[-104.843136,42.682766],[-104.838163,42.682852],[-104.833189,42.682938],[-104.833232,42.679278],[-104.833276,42.675618],[-104.833319,42.671959],[-104.833362,42.668299],[-104.838337,42.668255],[-104.843312,42.668212],[-104.848287,42.668169],[-104.853262,42.668126],[-104.853218,42.671743],[-104.853173,42.67536],[-104.853128,42.678977]]]}},{"type":"Feature","properties":{"sec":"14","frstdivid":"WY060310N0670W0SN140"},"geometry":{"type":"Polygon","coordinates":[[[-104.858157,42.668026],[-104.853262,42.668126],[-104.853222,42.664483],[-104.853182,42.660839],[-104.853142,42.657196],[-104.853102,42.653552],[-104.858016,42.653462],[-104.86293,42.653371],[-104.867844,42.653281],[-104.872758,42.65319],[-104.872778,42.656824],[-104.872799,42.660457],[-104.872819,42.664091],[-104.87284,42.667724],[-104.867945,42.667825],[-104.863051,42.667925],[-104.858157,42.668026]]]}}]}