{"type":"FeatureCollection","note":"BLM Public Land Survey System. Provided by the Bureau of Land Management as is. These data are neither legal documents nor land surveys and must not be used as such.","features":[{"type":"Feature","properties":{"sec":"32","frstdivid":"MT200030N0370E0SN320"},"geometry":{"type":"Polygon","coordinates":[[[-107.135026,45.956792],[-107.140213,45.956787],[-107.1454,45.956782],[-107.150587,45.956778],[-107.155775,45.956775],[-107.155779,45.960533],[-107.155775,45.964157],[-107.155772,45.967782],[-107.15577,45.971407],[-107.150583,45.97141],[-107.145396,45.971412],[-107.140208,45.971415],[-107.135021,45.971418],[-107.135026,45.967799],[-107.13503,45.96418],[-107.135033,45.960561],[-107.135026,45.956792]]]}},{"type":"Feature","properties":{"sec":"35","frstdivid":"MT200030N0370E0SN350"},"geometry":{"type":"Polygon","coordinates":[[[-107.072672,45.956808],[-107.077869,45.956803],[-107.083066,45.956802],[-107.088262,45.956803],[-107.093458,45.956805],[-107.093475,45.960595],[-107.093485,45.964215],[-107.093492,45.967834],[-107.093495,45.971454],[-107.088298,45.971448],[-107.0831,45.971443],[-107.077903,45.971439],[-107.072705,45.971436],[-107.072705,45.967819],[-107.072701,45.964202],[-107.07269,45.960585],[-107.072672,45.956808]]]}},{"type":"Feature","properties":{"sec":"36","frstdivid":"MT200030N0370E0SN360"},"geometry":{"type":"Polygon","coordinates":[[[-107.051882,45.957015],[-107.05708,45.956894],[-107.062278,45.956844],[-107.067475,45.95682],[-107.072672,45.956808],[-107.07269,45.960585],[-107.072701,45.964202],[-107.072705,45.967819],[-107.072705,45.971436],[-107.067519,45.971446],[-107.062334,45.971458],[-107.057148,45.971474],[-107.051962,45.971494],[-107.051956,45.967874],[-107.051947,45.964253],[-107.051926,45.960634],[-107.051882,45.957015]]]}},{"type":"Feature","properties":{"sec":"33","frstdivid":"MT200030N0370E0SN330"},"geometry":{"type":"Polygon","coordinates":[[[-107.114265,45.956811],[-107.119455,45.956806],[-107.124645,45.956801],[-107.129835,45.956796],[-107.135026,45.956792],[-107.135033,45.960561],[-107.13503,45.96418],[-107.135026,45.967799],[-107.135021,45.971418],[-107.129835,45.971425],[-107.124649,45.971433],[-107.119463,45.97144],[-107.114277,45.971448],[-107.114278,45.967829],[-107.114278,45.96421],[-107.114276,45.960591],[-107.114265,45.956811]]]}},{"type":"Feature","properties":{"sec":"31","frstdivid":"MT200030N0370E0SN310"},"geometry":{"type":"Polygon","coordinates":[[[-107.155775,45.956775],[-107.160971,45.956778],[-107.166168,45.956784],[-107.171366,45.956799],[-107.176378,45.956838],[-107.176353,45.960456],[-107.176336,45.964074],[-107.176323,45.967692],[-107.176312,45.971309],[-107.171342,45.971339],[-107.166152,45.971365],[-107.160961,45.971387],[-107.15577,45.971407],[-107.155772,45.967782],[-107.155775,45.964157],[-107.155779,45.960533],[-107.155775,45.956775]]]}},{"type":"Feature","properties":{"sec":"34","frstdivid":"MT200030N0370E0SN340"},"geometry":{"type":"Polygon","coordinates":[[[-107.093458,45.956805],[-107.09866,45.956806],[-107.103862,45.956807],[-107.109063,45.956809],[-107.114265,45.956811],[-107.114276,45.960591],[-107.114278,45.96421],[-107.114278,45.967829],[-107.114277,45.971448],[-107.109081,45.97145],[-107.103886,45.971451],[-107.098691,45.971452],[-107.093495,45.971454],[-107.093492,45.967834],[-107.093485,45.964215],[-107.093475,45.960595],[-107.093458,45.956805]]]}},{"type":"Feature","properties":{"sec":"22","frstdivid":"MT200030N0370E0SN220"},"geometry":{"type":"Polygon","coordinates":[[[-107.093494,45.985943],[-107.098684,45.985938],[-107.103874,45.985934],[-107.109064,45.985929],[-107.114253,45.985925],[-107.114253,45.989548],[-107.114254,45.993171],[-107.114255,45.996794],[-107.114257,46.000417],[-107.109069,46.000417],[-107.10388,46.000417],[-107.098692,46.000418],[-107.093504,46.000418],[-107.0935,45.996799],[-107.093498,45.993181],[-107.093496,45.989562],[-107.093494,45.985943]]]}},{"type":"Feature","properties":{"sec":"10","frstdivid":"MT200030N0370E0SN100"},"geometry":{"type":"Polygon","coordinates":[[[-107.093572,46.014904],[-107.098748,46.014898],[-107.103924,46.014893],[-107.109101,46.014887],[-107.114277,46.014882],[-107.114293,46.018499],[-107.114309,46.022115],[-107.114329,46.025732],[-107.114351,46.029349],[-107.109168,46.029355],[-107.103986,46.029361],[-107.098804,46.029367],[-107.093622,46.029373],[-107.0936,46.025756],[-107.093586,46.022139],[-107.093578,46.018521],[-107.093572,46.014904]]]}},{"type":"Feature","properties":{"sec":"26","frstdivid":"MT200030N0370E0SN260"},"geometry":{"type":"Polygon","coordinates":[[[-107.072705,45.971436],[-107.077903,45.971439],[-107.0831,45.971443],[-107.088298,45.971448],[-107.093495,45.971454],[-107.093495,45.975076],[-107.093495,45.978698],[-107.093495,45.982321],[-107.093494,45.985943],[-107.088304,45.985938],[-107.083114,45.985933],[-107.077924,45.985929],[-107.072734,45.985927],[-107.072727,45.982305],[-107.07272,45.978682],[-107.072713,45.975059],[-107.072705,45.971436]]]}},{"type":"Feature","properties":{"sec":"08","frstdivid":"MT200030N0370E0SN080"},"geometry":{"type":"Polygon","coordinates":[[[-107.135021,46.014836],[-107.140215,46.014833],[-107.145409,46.014829],[-107.150604,46.014826],[-107.155798,46.014823],[-107.15581,46.018443],[-107.155821,46.022063],[-107.155828,46.025682],[-107.15583,46.029302],[-107.150641,46.029305],[-107.145451,46.029308],[-107.140261,46.029311],[-107.135071,46.029314],[-107.135059,46.025695],[-107.135046,46.022075],[-107.135033,46.018456],[-107.135021,46.014836]]]}},{"type":"Feature","properties":{"sec":"28","frstdivid":"MT200030N0370E0SN280"},"geometry":{"type":"Polygon","coordinates":[[[-107.114277,45.971448],[-107.119463,45.97144],[-107.124649,45.971433],[-107.129835,45.971425],[-107.135021,45.971418],[-107.135018,45.975041],[-107.135015,45.978665],[-107.135012,45.982289],[-107.13501,45.985912],[-107.129821,45.985915],[-107.124632,45.985919],[-107.119443,45.985922],[-107.114253,45.985925],[-107.114259,45.982306],[-107.114265,45.978687],[-107.114271,45.975067],[-107.114277,45.971448]]]}},{"type":"Feature","properties":{"sec":"16","frstdivid":"MT200030N0370E0SN160"},"geometry":{"type":"Polygon","coordinates":[[[-107.114257,46.000417],[-107.119439,46.000406],[-107.124621,46.000395],[-107.129803,46.000385],[-107.134986,46.000374],[-107.134993,46.00399],[-107.135002,46.007605],[-107.135011,46.011221],[-107.135021,46.014836],[-107.129835,46.014847],[-107.124649,46.014859],[-107.119463,46.01487],[-107.114277,46.014882],[-107.114271,46.011266],[-107.114266,46.007649],[-107.114261,46.004033],[-107.114257,46.000417]]]}},{"type":"Feature","properties":{"sec":"24","frstdivid":"MT200030N0370E0SN240"},"geometry":{"type":"Polygon","coordinates":[[[-107.05196,45.985982],[-107.057154,45.985968],[-107.062347,45.985953],[-107.06754,45.985939],[-107.072734,45.985927],[-107.072741,45.98955],[-107.072749,45.993173],[-107.072758,45.996795],[-107.072768,46.000418],[-107.067565,46.00043],[-107.062363,46.000444],[-107.05716,46.000457],[-107.051958,46.000467],[-107.051958,45.996845],[-107.051958,45.993224],[-107.051959,45.989603],[-107.05196,45.985982]]]}},{"type":"Feature","properties":{"sec":"17","frstdivid":"MT200030N0370E0SN170"},"geometry":{"type":"Polygon","coordinates":[[[-107.134986,46.000374],[-107.140179,46.000365],[-107.145373,46.000357],[-107.150566,46.000348],[-107.15576,46.00034],[-107.155768,46.003961],[-107.155778,46.007581],[-107.155788,46.011202],[-107.155798,46.014823],[-107.150604,46.014826],[-107.145409,46.014829],[-107.140215,46.014833],[-107.135021,46.014836],[-107.135011,46.011221],[-107.135002,46.007605],[-107.134993,46.00399],[-107.134986,46.000374]]]}},{"type":"Feature","properties":{"sec":"29","frstdivid":"MT200030N0370E0SN290"},"geometry":{"type":"Polygon","coordinates":[[[-107.135021,45.971418],[-107.140208,45.971415],[-107.145396,45.971412],[-107.150583,45.97141],[-107.15577,45.971407],[-107.155763,45.975023],[-107.155756,45.978639],[-107.155751,45.982254],[-107.155746,45.98587],[-107.150562,45.985881],[-107.145378,45.985891],[-107.140194,45.985902],[-107.13501,45.985912],[-107.135012,45.982289],[-107.135015,45.978665],[-107.135018,45.975041],[-107.135021,45.971418]]]}},{"type":"Feature","properties":{"sec":"07","frstdivid":"MT200030N0370E0SN070"},"geometry":{"type":"Polygon","coordinates":[[[-107.155798,46.014823],[-107.16099,46.014813],[-107.166182,46.014803],[-107.171374,46.014797],[-107.176332,46.014793],[-107.176336,46.018419],[-107.176338,46.022045],[-107.176333,46.025671],[-107.176306,46.029297],[-107.171404,46.029289],[-107.166215,46.029289],[-107.161023,46.029295],[-107.15583,46.029302],[-107.155828,46.025682],[-107.155821,46.022063],[-107.15581,46.018443],[-107.155798,46.014823]]]}},{"type":"Feature","properties":{"sec":"05","frstdivid":"MT200030N0370E0SN050"},"geometry":{"type":"Polygon","coordinates":[[[-107.135071,46.029314],[-107.140261,46.029311],[-107.145451,46.029308],[-107.150641,46.029305],[-107.15583,46.029302],[-107.155888,46.032921],[-107.15594,46.036539],[-107.155987,46.040157],[-107.156029,46.043736],[-107.15083,46.043736],[-107.145631,46.043737],[-107.140433,46.043737],[-107.135235,46.043738],[-107.135198,46.040168],[-107.135157,46.03655],[-107.135114,46.032932],[-107.135071,46.029314]]]}},{"type":"Feature","properties":{"sec":"06","frstdivid":"MT200030N0370E0SN060"},"geometry":{"type":"Polygon","coordinates":[[[-107.15583,46.029302],[-107.161023,46.029295],[-107.166215,46.029289],[-107.171404,46.029289],[-107.176306,46.029297],[-107.176372,46.03291],[-107.176415,46.036523],[-107.176445,46.040137],[-107.176467,46.043752],[-107.171617,46.043745],[-107.166419,46.043741],[-107.161224,46.043738],[-107.156029,46.043736],[-107.155987,46.040157],[-107.15594,46.036539],[-107.155888,46.032921],[-107.15583,46.029302]]]}},{"type":"Feature","properties":{"sec":"18","frstdivid":"MT200030N0370E0SN180"},"geometry":{"type":"Polygon","coordinates":[[[-107.15576,46.00034],[-107.160951,46.000328],[-107.166143,46.000316],[-107.171334,46.000303],[-107.176312,46.000292],[-107.176316,46.003917],[-107.176321,46.007542],[-107.176327,46.011167],[-107.176332,46.014793],[-107.171374,46.014797],[-107.166182,46.014803],[-107.16099,46.014813],[-107.155798,46.014823],[-107.155788,46.011202],[-107.155778,46.007581],[-107.155768,46.003961],[-107.15576,46.00034]]]}},{"type":"Feature","properties":{"sec":"30","frstdivid":"MT200030N0370E0SN300"},"geometry":{"type":"Polygon","coordinates":[[[-107.15577,45.971407],[-107.160961,45.971387],[-107.166152,45.971365],[-107.171342,45.971339],[-107.176312,45.971309],[-107.176308,45.974931],[-107.176305,45.978553],[-107.176304,45.982174],[-107.176303,45.985796],[-107.171316,45.985816],[-107.166126,45.985836],[-107.160936,45.985854],[-107.155746,45.98587],[-107.155751,45.982254],[-107.155756,45.978639],[-107.155763,45.975023],[-107.15577,45.971407]]]}},{"type":"Feature","properties":{"sec":"03","frstdivid":"MT200030N0370E0SN030"},"geometry":{"type":"Polygon","coordinates":[[[-107.093622,46.029373],[-107.098804,46.029367],[-107.103986,46.029361],[-107.109168,46.029355],[-107.114351,46.029349],[-107.114369,46.032967],[-107.114389,46.036585],[-107.114409,46.040202],[-107.114427,46.043754],[-107.109233,46.043761],[-107.104039,46.043768],[-107.098845,46.043774],[-107.093651,46.043781],[-107.093639,46.040235],[-107.093629,46.036616],[-107.093622,46.032994],[-107.093622,46.029373]]]}},{"type":"Feature","properties":{"sec":"12","frstdivid":"MT200030N0370E0SN120"},"geometry":{"type":"Polygon","coordinates":[[[-107.052019,46.014964],[-107.05721,46.014953],[-107.062401,46.014939],[-107.067591,46.014923],[-107.072782,46.014906],[-107.072797,46.018527],[-107.072814,46.022148],[-107.072841,46.025768],[-107.072895,46.029388],[-107.067697,46.029416],[-107.062499,46.029437],[-107.057302,46.029454],[-107.052105,46.029468],[-107.052073,46.025842],[-107.052049,46.022216],[-107.052031,46.01859],[-107.052019,46.014964]]]}},{"type":"Feature","properties":{"sec":"23","frstdivid":"MT200030N0370E0SN230"},"geometry":{"type":"Polygon","coordinates":[[[-107.072734,45.985927],[-107.077924,45.985929],[-107.083114,45.985933],[-107.088304,45.985938],[-107.093494,45.985943],[-107.093496,45.989562],[-107.093498,45.993181],[-107.0935,45.996799],[-107.093504,46.000418],[-107.08832,46.000417],[-107.083136,46.000417],[-107.077952,46.000417],[-107.072768,46.000418],[-107.072758,45.996795],[-107.072749,45.993173],[-107.072741,45.98955],[-107.072734,45.985927]]]}},{"type":"Feature","properties":{"sec":"27","frstdivid":"MT200030N0370E0SN270"},"geometry":{"type":"Polygon","coordinates":[[[-107.093495,45.971454],[-107.098691,45.971452],[-107.103886,45.971451],[-107.109081,45.97145],[-107.114277,45.971448],[-107.114271,45.975067],[-107.114265,45.978687],[-107.114259,45.982306],[-107.114253,45.985925],[-107.109064,45.985929],[-107.103874,45.985934],[-107.098684,45.985938],[-107.093494,45.985943],[-107.093495,45.982321],[-107.093495,45.978698],[-107.093495,45.975076],[-107.093495,45.971454]]]}},{"type":"Feature","properties":{"sec":"11","frstdivid":"MT200030N0370E0SN110"},"geometry":{"type":"Polygon","coordinates":[[[-107.072782,46.014906],[-107.07798,46.014906],[-107.083177,46.014906],[-107.088375,46.014905],[-107.093572,46.014904],[-107.093578,46.018521],[-107.093586,46.022139],[-107.0936,46.025756],[-107.093622,46.029373],[-107.08844,46.02938],[-107.083258,46.029385],[-107.078076,46.02939],[-107.072895,46.029388],[-107.072841,46.025768],[-107.072814,46.022148],[-107.072797,46.018527],[-107.072782,46.014906]]]}},{"type":"Feature","properties":{"sec":"14","frstdivid":"MT200030N0370E0SN140"},"geometry":{"type":"Polygon","coordinates":[[[-107.072768,46.000418],[-107.077952,46.000417],[-107.083136,46.000417],[-107.08832,46.000417],[-107.093504,46.000418],[-107.093519,46.00404],[-107.093536,46.007661],[-107.093554,46.011282],[-107.093572,46.014904],[-107.088375,46.014905],[-107.083177,46.014906],[-107.07798,46.014906],[-107.072782,46.014906],[-107.072777,46.011285],[-107.072772,46.007662],[-107.072769,46.00404],[-107.072768,46.000418]]]}},{"type":"Feature","properties":{"sec":"09","frstdivid":"MT200030N0370E0SN090"},"geometry":{"type":"Polygon","coordinates":[[[-107.114277,46.014882],[-107.119463,46.01487],[-107.124649,46.014859],[-107.129835,46.014847],[-107.135021,46.014836],[-107.135033,46.018456],[-107.135046,46.022075],[-107.135059,46.025695],[-107.135071,46.029314],[-107.129891,46.029323],[-107.124711,46.029332],[-107.119531,46.02934],[-107.114351,46.029349],[-107.114329,46.025732],[-107.114309,46.022115],[-107.114293,46.018499],[-107.114277,46.014882]]]}},{"type":"Feature","properties":{"sec":"20","frstdivid":"MT200030N0370E0SN200"},"geometry":{"type":"Polygon","coordinates":[[[-107.13501,45.985912],[-107.140194,45.985902],[-107.145378,45.985891],[-107.150562,45.985881],[-107.155746,45.98587],[-107.155748,45.989488],[-107.155751,45.993105],[-107.155755,45.996723],[-107.15576,46.00034],[-107.150566,46.000348],[-107.145373,46.000357],[-107.140179,46.000365],[-107.134986,46.000374],[-107.13499,45.996759],[-107.134996,45.993143],[-107.135002,45.989528],[-107.13501,45.985912]]]}},{"type":"Feature","properties":{"sec":"15","frstdivid":"MT200030N0370E0SN150"},"geometry":{"type":"Polygon","coordinates":[[[-107.093504,46.000418],[-107.098692,46.000418],[-107.10388,46.000417],[-107.109069,46.000417],[-107.114257,46.000417],[-107.114261,46.004033],[-107.114266,46.007649],[-107.114271,46.011266],[-107.114277,46.014882],[-107.109101,46.014887],[-107.103924,46.014893],[-107.098748,46.014898],[-107.093572,46.014904],[-107.093554,46.011282],[-107.093536,46.007661],[-107.093519,46.00404],[-107.093504,46.000418]]]}},{"type":"Feature","properties":{"sec":"21","frstdivid":"MT200030N0370E0SN210"},"geometry":{"type":"Polygon","coordinates":[[[-107.114253,45.985925],[-107.119443,45.985922],[-107.124632,45.985919],[-107.129821,45.985915],[-107.13501,45.985912],[-107.135002,45.989528],[-107.134996,45.993143],[-107.13499,45.996759],[-107.134986,46.000374],[-107.129803,46.000385],[-107.124621,46.000395],[-107.119439,46.000406],[-107.114257,46.000417],[-107.114255,45.996794],[-107.114254,45.993171],[-107.114253,45.989548],[-107.114253,45.985925]]]}},{"type":"Feature","properties":{"sec":"13","frstdivid":"MT200030N0370E0SN130"},"geometry":{"type":"Polygon","coordinates":[[[-107.051958,46.000467],[-107.05716,46.000457],[-107.062363,46.000444],[-107.067565,46.00043],[-107.072768,46.000418],[-107.072769,46.00404],[-107.072772,46.007662],[-107.072777,46.011285],[-107.072782,46.014906],[-107.067591,46.014923],[-107.062401,46.014939],[-107.05721,46.014953],[-107.052019,46.014964],[-107.052,46.011339],[-107.051983,46.007715],[-107.05197,46.004091],[-107.051958,46.000467]]]}},{"type":"Feature","properties":{"sec":"02","frstdivid":"MT200030N0370E0SN020"},"geometry":{"type":"Polygon","coordinates":[[[-107.072895,46.029388],[-107.078076,46.02939],[-107.083258,46.029385],[-107.08844,46.02938],[-107.093622,46.029373],[-107.093622,46.032994],[-107.093629,46.036616],[-107.093639,46.040235],[-107.093651,46.043781],[-107.088461,46.043799],[-107.083272,46.043816],[-107.078083,46.043832],[-107.072894,46.043846],[-107.072881,46.04024],[-107.072871,46.036623],[-107.07287,46.033006],[-107.072895,46.029388]]]}},{"type":"Feature","properties":{"sec":"19","frstdivid":"MT200030N0370E0SN190"},"geometry":{"type":"Polygon","coordinates":[[[-107.155746,45.98587],[-107.160936,45.985854],[-107.166126,45.985836],[-107.171316,45.985816],[-107.176303,45.985796],[-107.176304,45.98942],[-107.176306,45.993044],[-107.176308,45.996668],[-107.176312,46.000292],[-107.171334,46.000303],[-107.166143,46.000316],[-107.160951,46.000328],[-107.15576,46.00034],[-107.155755,45.996723],[-107.155751,45.993105],[-107.155748,45.989488],[-107.155746,45.98587]]]}},{"type":"Feature","properties":{"sec":"01","frstdivid":"MT200030N0370E0SN010"},"geometry":{"type":"Polygon","coordinates":[[[-107.052105,46.029468],[-107.057302,46.029454],[-107.062499,46.029437],[-107.067697,46.029416],[-107.072895,46.029388],[-107.07287,46.033006],[-107.072871,46.036623],[-107.072881,46.04024],[-107.072894,46.043846],[-107.067697,46.043881],[-107.062501,46.043913],[-107.057304,46.043942],[-107.052106,46.043966],[-107.052101,46.040342],[-107.052097,46.036717],[-107.052098,46.033093],[-107.052105,46.029468]]]}},{"type":"Feature","properties":{"sec":"04","frstdivid":"MT200030N0370E0SN040"},"geometry":{"type":"Polygon","coordinates":[[[-107.114351,46.029349],[-107.119531,46.02934],[-107.124711,46.029332],[-107.129891,46.029323],[-107.135071,46.029314],[-107.135114,46.032932],[-107.135157,46.03655],[-107.135198,46.040168],[-107.135235,46.043738],[-107.130033,46.043742],[-107.124831,46.043746],[-107.119629,46.04375],[-107.114427,46.043754],[-107.114409,46.040202],[-107.114389,46.036585],[-107.114369,46.032967],[-107.114351,46.029349]]]}},{"type":"Feature","properties":{"sec":"25","frstdivid":"MT200030N0370E0SN250"},"geometry":{"type":"Polygon","coordinates":[[[-107.051962,45.971494],[-107.057148,45.971474],[-107.062334,45.971458],[-107.067519,45.971446],[-107.072705,45.971436],[-107.072713,45.975059],[-107.07272,45.978682],[-107.072727,45.982305],[-107.072734,45.985927],[-107.06754,45.985939],[-107.062347,45.985953],[-107.057154,45.985968],[-107.05196,45.985982],[-107.051961,45.98236],[-107.051962,45.978738],[-107.051963,45.975116],[-107.051962,45.971494]]]}}]}