{"type":"FeatureCollection","note":"BLM Public Land Survey System. Provided by the Bureau of Land Management as is. These data are neither legal documents nor land surveys and must not be used as such.","features":[{"type":"Feature","properties":{"sec":"29","frstdivid":"WY060360N0890W0SN290"},"geometry":{"type":"Polygon","coordinates":[[[-107.537153,43.071706],[-107.532207,43.071674],[-107.527261,43.071641],[-107.522315,43.071609],[-107.52232,43.067972],[-107.522325,43.064335],[-107.52233,43.060699],[-107.522335,43.057062],[-107.52729,43.057087],[-107.532245,43.057111],[-107.537206,43.057167],[-107.542167,43.057223],[-107.54215,43.060852],[-107.542133,43.064481],[-107.542116,43.06811],[-107.542098,43.071739],[-107.537153,43.071706]]]}},{"type":"Feature","properties":{"sec":"31","frstdivid":"WY060360N0890W0SN310"},"geometry":{"type":"Polygon","coordinates":[[[-107.561389,43.050061],[-107.561361,43.05369],[-107.561332,43.05732],[-107.557029,43.0573],[-107.552081,43.057277],[-107.547124,43.05725],[-107.542167,43.057223],[-107.542159,43.0536],[-107.542151,43.049977],[-107.542148,43.04635],[-107.542144,43.042723],[-107.547125,43.042766],[-107.552106,43.04281],[-107.557091,43.042805],[-107.561447,43.042802],[-107.561418,43.046432],[-107.561389,43.050061]]]}},{"type":"Feature","properties":{"sec":"16","frstdivid":"WY060360N0890W0SN160"},"geometry":{"type":"Polygon","coordinates":[[[-107.522267,43.093356],[-107.522253,43.096974],[-107.522239,43.100591],[-107.517295,43.100574],[-107.512351,43.100556],[-107.507408,43.100539],[-107.502464,43.100522],[-107.502461,43.096905],[-107.502458,43.093289],[-107.502455,43.089673],[-107.502452,43.086056],[-107.507413,43.086073],[-107.512373,43.086089],[-107.517334,43.086105],[-107.522294,43.086122],[-107.522281,43.089739],[-107.522267,43.093356]]]}},{"type":"Feature","properties":{"sec":"27","frstdivid":"WY060360N0890W0SN270"},"geometry":{"type":"Polygon","coordinates":[[[-107.482658,43.071548],[-107.482662,43.067925],[-107.482667,43.064303],[-107.482671,43.06068],[-107.482675,43.057057],[-107.48763,43.05705],[-107.492585,43.057042],[-107.49754,43.057035],[-107.502495,43.057027],[-107.502494,43.060656],[-107.502493,43.064285],[-107.502492,43.067915],[-107.50249,43.071544],[-107.497532,43.071545],[-107.492574,43.071546],[-107.487616,43.071547],[-107.482658,43.071548]]]}},{"type":"Feature","properties":{"sec":"26","frstdivid":"WY060360N0890W0SN260"},"geometry":{"type":"Polygon","coordinates":[[[-107.462802,43.067853],[-107.462799,43.064232],[-107.462796,43.06061],[-107.462792,43.056988],[-107.467763,43.057006],[-107.472734,43.057023],[-107.477704,43.05704],[-107.482675,43.057057],[-107.482671,43.06068],[-107.482667,43.064303],[-107.482662,43.067925],[-107.482658,43.071548],[-107.477695,43.07153],[-107.472732,43.071511],[-107.467769,43.071493],[-107.462805,43.071475],[-107.462802,43.067853]]]}},{"type":"Feature","properties":{"sec":"19","frstdivid":"WY060360N0890W0SN190"},"geometry":{"type":"Polygon","coordinates":[[[-107.561254,43.071818],[-107.561236,43.075438],[-107.561218,43.079059],[-107.5612,43.08268],[-107.561182,43.086301],[-107.556855,43.086286],[-107.551914,43.086268],[-107.546974,43.086252],[-107.542033,43.086236],[-107.542049,43.082612],[-107.542066,43.078987],[-107.542082,43.075363],[-107.542098,43.071739],[-107.54704,43.071759],[-107.551982,43.071779],[-107.556922,43.0718],[-107.561254,43.071818]]]}},{"type":"Feature","properties":{"sec":"09","frstdivid":"WY060360N0890W0SN090"},"geometry":{"type":"Polygon","coordinates":[[[-107.522251,43.111461],[-107.522256,43.115085],[-107.517305,43.11507],[-107.512354,43.115055],[-107.507404,43.115039],[-107.502453,43.115024],[-107.502456,43.111399],[-107.502458,43.107773],[-107.502461,43.104147],[-107.502464,43.100522],[-107.507408,43.100539],[-107.512351,43.100556],[-107.517295,43.100574],[-107.522239,43.100591],[-107.522243,43.104215],[-107.522247,43.107838],[-107.522251,43.111461]]]}},{"type":"Feature","properties":{"sec":"10","frstdivid":"WY060360N0890W0SN100"},"geometry":{"type":"Polygon","coordinates":[[[-107.482664,43.107732],[-107.482669,43.104115],[-107.482673,43.100497],[-107.487627,43.10051],[-107.492582,43.100522],[-107.497523,43.100522],[-107.502464,43.100522],[-107.502461,43.104147],[-107.502458,43.107773],[-107.502456,43.111399],[-107.502453,43.115024],[-107.497507,43.115012],[-107.492561,43.114999],[-107.487608,43.114983],[-107.482656,43.114966],[-107.48266,43.111349],[-107.482664,43.107732]]]}},{"type":"Feature","properties":{"sec":"33","frstdivid":"WY060360N0890W0SN330"},"geometry":{"type":"Polygon","coordinates":[[[-107.502511,43.042517],[-107.50747,43.042536],[-107.51243,43.042556],[-107.517374,43.04256],[-107.522318,43.042563],[-107.522287,43.046186],[-107.522256,43.049808],[-107.522295,43.053435],[-107.522335,43.057062],[-107.517375,43.057053],[-107.512415,43.057045],[-107.507455,43.057036],[-107.502495,43.057027],[-107.502499,43.053399],[-107.502503,43.049772],[-107.502507,43.046144],[-107.502511,43.042517]]]}},{"type":"Feature","properties":{"sec":"32","frstdivid":"WY060360N0890W0SN320"},"geometry":{"type":"Polygon","coordinates":[[[-107.542159,43.0536],[-107.542167,43.057223],[-107.537206,43.057167],[-107.532245,43.057111],[-107.52729,43.057087],[-107.522335,43.057062],[-107.522295,43.053435],[-107.522256,43.049808],[-107.522287,43.046186],[-107.522318,43.042563],[-107.527282,43.042586],[-107.532246,43.042608],[-107.537195,43.042666],[-107.542144,43.042723],[-107.542148,43.04635],[-107.542151,43.049977],[-107.542159,43.0536]]]}},{"type":"Feature","properties":{"sec":"05","frstdivid":"WY060360N0890W0SN050"},"geometry":{"type":"Polygon","coordinates":[[[-107.522277,43.12595],[-107.522271,43.122329],[-107.522263,43.118707],[-107.522256,43.115085],[-107.52721,43.115103],[-107.532164,43.115121],[-107.537119,43.11514],[-107.542073,43.115158],[-107.542102,43.118774],[-107.54213,43.122391],[-107.542147,43.126009],[-107.542152,43.12787],[-107.541939,43.12787],[-107.537184,43.127878],[-107.536991,43.127878],[-107.532216,43.127889],[-107.532043,43.127889],[-107.527248,43.127899],[-107.527094,43.1279],[-107.522279,43.127907],[-107.522277,43.12595]]]}},{"type":"Feature","properties":{"sec":"21","frstdivid":"WY060360N0890W0SN210"},"geometry":{"type":"Polygon","coordinates":[[[-107.522305,43.078865],[-107.5223,43.082493],[-107.522294,43.086122],[-107.517334,43.086105],[-107.512373,43.086089],[-107.507413,43.086073],[-107.502452,43.086056],[-107.502462,43.082428],[-107.502471,43.0788],[-107.502481,43.075172],[-107.50249,43.071544],[-107.507449,43.071552],[-107.512408,43.071561],[-107.517362,43.071585],[-107.522315,43.071609],[-107.52231,43.075237],[-107.522305,43.078865]]]}},{"type":"Feature","properties":{"sec":"08","frstdivid":"WY060360N0890W0SN080"},"geometry":{"type":"Polygon","coordinates":[[[-107.522239,43.100591],[-107.527185,43.10061],[-107.532131,43.100629],[-107.537077,43.100648],[-107.542023,43.100667],[-107.542035,43.10429],[-107.542048,43.107912],[-107.542061,43.111535],[-107.542073,43.115158],[-107.537119,43.11514],[-107.532164,43.115121],[-107.52721,43.115103],[-107.522256,43.115085],[-107.522251,43.111461],[-107.522247,43.107838],[-107.522243,43.104215],[-107.522239,43.100591]]]}},{"type":"Feature","properties":{"sec":"28","frstdivid":"WY060360N0890W0SN280"},"geometry":{"type":"Polygon","coordinates":[[[-107.502494,43.060656],[-107.502495,43.057027],[-107.507455,43.057036],[-107.512415,43.057045],[-107.517375,43.057053],[-107.522335,43.057062],[-107.52233,43.060699],[-107.522325,43.064335],[-107.52232,43.067972],[-107.522315,43.071609],[-107.517362,43.071585],[-107.512408,43.071561],[-107.507449,43.071552],[-107.50249,43.071544],[-107.502492,43.067915],[-107.502493,43.064285],[-107.502494,43.060656]]]}},{"type":"Feature","properties":{"sec":"30","frstdivid":"WY060360N0890W0SN300"},"geometry":{"type":"Polygon","coordinates":[[[-107.561254,43.071818],[-107.556922,43.0718],[-107.551982,43.071779],[-107.54704,43.071759],[-107.542098,43.071739],[-107.542116,43.06811],[-107.542133,43.064481],[-107.54215,43.060852],[-107.542167,43.057223],[-107.547124,43.05725],[-107.552081,43.057277],[-107.557029,43.0573],[-107.561332,43.05732],[-107.561312,43.060944],[-107.561293,43.064569],[-107.561273,43.068193],[-107.561254,43.071818]]]}},{"type":"Feature","properties":{"sec":"07","frstdivid":"WY060360N0890W0SN070"},"geometry":{"type":"Polygon","coordinates":[[[-107.542023,43.100667],[-107.546967,43.100699],[-107.551912,43.100731],[-107.556854,43.100757],[-107.561169,43.100778],[-107.561169,43.100928],[-107.561175,43.104395],[-107.561175,43.104549],[-107.561181,43.108012],[-107.561181,43.10817],[-107.561187,43.111629],[-107.561187,43.111791],[-107.561193,43.115247],[-107.556882,43.115228],[-107.551943,43.115206],[-107.547008,43.115182],[-107.542073,43.115158],[-107.542061,43.111535],[-107.542048,43.107912],[-107.542035,43.10429],[-107.542023,43.100667]]]}},{"type":"Feature","properties":{"sec":"18","frstdivid":"WY060360N0890W0SN180"},"geometry":{"type":"Polygon","coordinates":[[[-107.561175,43.09354],[-107.561175,43.09362],[-107.561172,43.097159],[-107.561172,43.097274],[-107.561169,43.100778],[-107.556854,43.100757],[-107.551912,43.100731],[-107.546967,43.100699],[-107.542023,43.100667],[-107.542025,43.097059],[-107.542028,43.093451],[-107.54203,43.089844],[-107.542033,43.086236],[-107.546974,43.086252],[-107.551914,43.086268],[-107.556855,43.086286],[-107.561182,43.086301],[-107.561179,43.08992],[-107.561179,43.089961],[-107.561175,43.09354]]]}},{"type":"Feature","properties":{"sec":"20","frstdivid":"WY060360N0890W0SN200"},"geometry":{"type":"Polygon","coordinates":[[[-107.537153,43.071706],[-107.542098,43.071739],[-107.542082,43.075363],[-107.542066,43.078987],[-107.542049,43.082612],[-107.542033,43.086236],[-107.537098,43.086207],[-107.532164,43.086179],[-107.527229,43.08615],[-107.522294,43.086122],[-107.5223,43.082493],[-107.522305,43.078865],[-107.52231,43.075237],[-107.522315,43.071609],[-107.527261,43.071641],[-107.532207,43.071674],[-107.537153,43.071706]]]}},{"type":"Feature","properties":{"sec":"17","frstdivid":"WY060360N0890W0SN170"},"geometry":{"type":"Polygon","coordinates":[[[-107.542025,43.097059],[-107.542023,43.100667],[-107.537077,43.100648],[-107.532131,43.100629],[-107.527185,43.10061],[-107.522239,43.100591],[-107.522253,43.096974],[-107.522267,43.093356],[-107.522281,43.089739],[-107.522294,43.086122],[-107.527229,43.08615],[-107.532164,43.086179],[-107.537098,43.086207],[-107.542033,43.086236],[-107.54203,43.089844],[-107.542028,43.093451],[-107.542025,43.097059]]]}},{"type":"Feature","properties":{"sec":"04","frstdivid":"WY060360N0890W0SN040"},"geometry":{"type":"Polygon","coordinates":[[[-107.512379,43.127923],[-107.512242,43.127923],[-107.507429,43.127931],[-107.507291,43.127931],[-107.502478,43.127942],[-107.502476,43.125896],[-107.50247,43.122273],[-107.502462,43.118649],[-107.502453,43.115024],[-107.507404,43.115039],[-107.512354,43.115055],[-107.517305,43.11507],[-107.522256,43.115085],[-107.522263,43.118707],[-107.522271,43.122329],[-107.522277,43.12595],[-107.522279,43.127907],[-107.522143,43.127907],[-107.517329,43.127915],[-107.517193,43.127915],[-107.512379,43.127923]]]}},{"type":"Feature","properties":{"sec":"06","frstdivid":"WY060360N0890W0SN060"},"geometry":{"type":"Polygon","coordinates":[[[-107.557,43.127855],[-107.556785,43.127854],[-107.552051,43.127858],[-107.551836,43.127858],[-107.547102,43.127862],[-107.546886,43.127862],[-107.542152,43.12787],[-107.542147,43.126009],[-107.54213,43.122391],[-107.542102,43.118774],[-107.542073,43.115158],[-107.547008,43.115182],[-107.551943,43.115206],[-107.556882,43.115228],[-107.561193,43.115247],[-107.561194,43.115411],[-107.561241,43.118867],[-107.561241,43.119031],[-107.561288,43.122487],[-107.561288,43.122651],[-107.561305,43.12474],[-107.561307,43.12611],[-107.561309,43.127859],[-107.557,43.127855]]]}},{"type":"Feature","properties":{"sec":"34","frstdivid":"WY060360N0890W0SN340"},"geometry":{"type":"Polygon","coordinates":[[[-107.502495,43.057027],[-107.49754,43.057035],[-107.492585,43.057042],[-107.48763,43.05705],[-107.482675,43.057057],[-107.482653,43.053428],[-107.48263,43.049799],[-107.482608,43.046169],[-107.482585,43.04254],[-107.487567,43.042534],[-107.492548,43.042528],[-107.49753,43.042522],[-107.502511,43.042517],[-107.502507,43.046144],[-107.502503,43.049772],[-107.502499,43.053399],[-107.502495,43.057027]]]}},{"type":"Feature","properties":{"sec":"13","frstdivid":"WY060360N0890W0SN130"},"geometry":{"type":"Polygon","coordinates":[[[-107.442993,43.09312],[-107.442995,43.091989],[-107.442996,43.089493],[-107.442998,43.08839],[-107.442999,43.085866],[-107.447936,43.085875],[-107.452873,43.085884],[-107.457815,43.085924],[-107.462756,43.085964],[-107.462764,43.089589],[-107.462771,43.093214],[-107.462779,43.096839],[-107.462787,43.100464],[-107.457837,43.100442],[-107.452887,43.100419],[-107.447937,43.100397],[-107.442987,43.100375],[-107.442989,43.099188],[-107.44299,43.096748],[-107.442992,43.095588],[-107.442993,43.09312]]]}},{"type":"Feature","properties":{"sec":"02","frstdivid":"WY060360N0890W0SN020"},"geometry":{"type":"Polygon","coordinates":[[[-107.48264,43.122204],[-107.482638,43.125823],[-107.482637,43.127979],[-107.482576,43.127979],[-107.477664,43.127993],[-107.47759,43.127993],[-107.47269,43.127985],[-107.472649,43.127985],[-107.467716,43.127977],[-107.467708,43.127977],[-107.462764,43.127982],[-107.462742,43.127982],[-107.462743,43.125799],[-107.462748,43.122179],[-107.462758,43.118559],[-107.462769,43.114939],[-107.467741,43.114946],[-107.472712,43.114953],[-107.477684,43.114959],[-107.482656,43.114966],[-107.482648,43.118585],[-107.48264,43.122204]]]}},{"type":"Feature","properties":{"sec":"12","frstdivid":"WY060360N0890W0SN120"},"geometry":{"type":"Polygon","coordinates":[[[-107.452887,43.100419],[-107.457837,43.100442],[-107.462787,43.100464],[-107.462782,43.104083],[-107.462778,43.107702],[-107.462773,43.11132],[-107.462769,43.114939],[-107.457822,43.114923],[-107.452876,43.114906],[-107.44793,43.11489],[-107.442984,43.114874],[-107.442986,43.113587],[-107.442986,43.111249],[-107.442987,43.109987],[-107.442986,43.107625],[-107.442988,43.106387],[-107.442987,43.104],[-107.442988,43.102787],[-107.442987,43.100375],[-107.447937,43.100397],[-107.452887,43.100419]]]}},{"type":"Feature","properties":{"sec":"22","frstdivid":"WY060360N0890W0SN220"},"geometry":{"type":"Polygon","coordinates":[[[-107.497492,43.086051],[-107.492532,43.086046],[-107.487572,43.086041],[-107.482612,43.086036],[-107.482613,43.082415],[-107.482615,43.078794],[-107.482637,43.075171],[-107.482658,43.071548],[-107.487616,43.071547],[-107.492574,43.071546],[-107.497532,43.071545],[-107.50249,43.071544],[-107.502481,43.075172],[-107.502471,43.0788],[-107.502462,43.082428],[-107.502452,43.086056],[-107.497492,43.086051]]]}},{"type":"Feature","properties":{"sec":"11","frstdivid":"WY060360N0890W0SN110"},"geometry":{"type":"Polygon","coordinates":[[[-107.482673,43.100497],[-107.482669,43.104115],[-107.482664,43.107732],[-107.48266,43.111349],[-107.482656,43.114966],[-107.477684,43.114959],[-107.472712,43.114953],[-107.467741,43.114946],[-107.462769,43.114939],[-107.462773,43.11132],[-107.462778,43.107702],[-107.462782,43.104083],[-107.462787,43.100464],[-107.467758,43.100489],[-107.47273,43.100515],[-107.477701,43.100506],[-107.482673,43.100497]]]}},{"type":"Feature","properties":{"sec":"24","frstdivid":"WY060360N0890W0SN240"},"geometry":{"type":"Polygon","coordinates":[[[-107.447975,43.071394],[-107.452918,43.071421],[-107.457862,43.071448],[-107.462805,43.071475],[-107.462793,43.075097],[-107.462781,43.078719],[-107.462768,43.082342],[-107.462756,43.085964],[-107.457815,43.085924],[-107.452873,43.085884],[-107.447936,43.085875],[-107.442999,43.085866],[-107.443002,43.08479],[-107.443007,43.082241],[-107.44301,43.081191],[-107.443015,43.078616],[-107.443018,43.077593],[-107.443023,43.074992],[-107.443026,43.073994],[-107.443031,43.071367],[-107.447975,43.071394]]]}},{"type":"Feature","properties":{"sec":"36","frstdivid":"WY060360N0890W0SN360"},"geometry":{"type":"Polygon","coordinates":[[[-107.447997,43.056899],[-107.443065,43.056869],[-107.443065,43.056002],[-107.443066,43.053238],[-107.443067,43.052404],[-107.443068,43.049607],[-107.443067,43.048805],[-107.44306,43.045987],[-107.443059,43.045207],[-107.443052,43.042367],[-107.447975,43.042398],[-107.452898,43.042428],[-107.457822,43.042459],[-107.462745,43.042489],[-107.462757,43.046114],[-107.462769,43.049739],[-107.46278,43.053363],[-107.462792,43.056988],[-107.45786,43.056958],[-107.452928,43.056929],[-107.447997,43.056899]]]}},{"type":"Feature","properties":{"sec":"35","frstdivid":"WY060360N0890W0SN350"},"geometry":{"type":"Polygon","coordinates":[[[-107.46278,43.053363],[-107.462769,43.049739],[-107.462757,43.046114],[-107.462745,43.042489],[-107.46768,43.042502],[-107.472615,43.042514],[-107.4776,43.042527],[-107.482585,43.04254],[-107.482608,43.046169],[-107.48263,43.049799],[-107.482653,43.053428],[-107.482675,43.057057],[-107.477704,43.05704],[-107.472734,43.057023],[-107.467763,43.057006],[-107.462792,43.056988],[-107.46278,43.053363]]]}},{"type":"Feature","properties":{"sec":"01","frstdivid":"WY060360N0890W0SN010"},"geometry":{"type":"Polygon","coordinates":[[[-107.447916,43.127987],[-107.447895,43.127987],[-107.442974,43.127989],[-107.442977,43.125741],[-107.44298,43.124387],[-107.442982,43.122114],[-107.442984,43.120785],[-107.442983,43.118494],[-107.442984,43.117186],[-107.442984,43.114874],[-107.44793,43.11489],[-107.452876,43.114906],[-107.457822,43.114923],[-107.462769,43.114939],[-107.462758,43.118559],[-107.462748,43.122179],[-107.462743,43.125799],[-107.462742,43.127982],[-107.457821,43.127988],[-107.4578,43.127988],[-107.452858,43.127988],[-107.447916,43.127987]]]}},{"type":"Feature","properties":{"sec":"23","frstdivid":"WY060360N0890W0SN230"},"geometry":{"type":"Polygon","coordinates":[[[-107.462768,43.082342],[-107.462781,43.078719],[-107.462793,43.075097],[-107.462805,43.071475],[-107.467769,43.071493],[-107.472732,43.071511],[-107.477695,43.07153],[-107.482658,43.071548],[-107.482637,43.075171],[-107.482615,43.078794],[-107.482613,43.082415],[-107.482612,43.086036],[-107.477648,43.086018],[-107.472684,43.086],[-107.46772,43.085982],[-107.462756,43.085964],[-107.462768,43.082342]]]}},{"type":"Feature","properties":{"sec":"14","frstdivid":"WY060360N0890W0SN140"},"geometry":{"type":"Polygon","coordinates":[[[-107.482642,43.093267],[-107.482657,43.096882],[-107.482673,43.100497],[-107.477701,43.100506],[-107.47273,43.100515],[-107.467758,43.100489],[-107.462787,43.100464],[-107.462779,43.096839],[-107.462771,43.093214],[-107.462764,43.089589],[-107.462756,43.085964],[-107.46772,43.085982],[-107.472684,43.086],[-107.477648,43.086018],[-107.482612,43.086036],[-107.482627,43.089651],[-107.482642,43.093267]]]}},{"type":"Feature","properties":{"sec":"25","frstdivid":"WY060360N0890W0SN250"},"geometry":{"type":"Polygon","coordinates":[[[-107.443065,43.056869],[-107.447997,43.056899],[-107.452928,43.056929],[-107.45786,43.056958],[-107.462792,43.056988],[-107.462796,43.06061],[-107.462799,43.064232],[-107.462802,43.067853],[-107.462805,43.071475],[-107.457862,43.071448],[-107.452918,43.071421],[-107.447975,43.071394],[-107.443031,43.071367],[-107.443034,43.070395],[-107.443039,43.067743],[-107.443042,43.066797],[-107.443048,43.064118],[-107.443051,43.063199],[-107.443056,43.060494],[-107.443059,43.0596],[-107.443065,43.056869]]]}},{"type":"Feature","properties":{"sec":"15","frstdivid":"WY060360N0890W0SN150"},"geometry":{"type":"Polygon","coordinates":[[[-107.482612,43.086036],[-107.487572,43.086041],[-107.492532,43.086046],[-107.497492,43.086051],[-107.502452,43.086056],[-107.502455,43.089673],[-107.502458,43.093289],[-107.502461,43.096905],[-107.502464,43.100522],[-107.497523,43.100522],[-107.492582,43.100522],[-107.487627,43.10051],[-107.482673,43.100497],[-107.482657,43.096882],[-107.482642,43.093267],[-107.482627,43.089651],[-107.482612,43.086036]]]}},{"type":"Feature","properties":{"sec":"03","frstdivid":"WY060360N0890W0SN030"},"geometry":{"type":"Polygon","coordinates":[[[-107.492561,43.114999],[-107.497507,43.115012],[-107.502453,43.115024],[-107.502462,43.118649],[-107.50247,43.122273],[-107.502476,43.125896],[-107.502478,43.127942],[-107.502342,43.127942],[-107.497518,43.127953],[-107.497394,43.127953],[-107.492558,43.127959],[-107.492477,43.12796],[-107.487598,43.127966],[-107.487561,43.127966],[-107.482637,43.127979],[-107.482638,43.125823],[-107.48264,43.122204],[-107.482648,43.118585],[-107.482656,43.114966],[-107.487608,43.114983],[-107.492561,43.114999]]]}}]}