{"type":"FeatureCollection","note":"BLM Public Land Survey System. Provided by the Bureau of Land Management as is. These data are neither legal documents nor land surveys and must not be used as such.","features":[{"type":"Feature","properties":{"sec":"35","frstdivid":"WY060420N0610W0SN350"},"geometry":{"type":"Polygon","coordinates":[[[-104.161879,43.568179],[-104.161936,43.571801],[-104.161994,43.575424],[-104.162051,43.579046],[-104.162108,43.582668],[-104.157158,43.582677],[-104.152207,43.582686],[-104.147256,43.582695],[-104.142306,43.582704],[-104.142258,43.579079],[-104.142211,43.575455],[-104.142163,43.57183],[-104.142116,43.568205],[-104.147057,43.568198],[-104.151998,43.568192],[-104.156938,43.568185],[-104.161879,43.568179]]]}},{"type":"Feature","properties":{"sec":"16","frstdivid":"WY060420N0610W0SN160"},"geometry":{"type":"Polygon","coordinates":[[[-104.202184,43.615395],[-104.202244,43.619035],[-104.202303,43.622674],[-104.202362,43.626314],[-104.197265,43.62633],[-104.192168,43.626346],[-104.18707,43.626362],[-104.181973,43.626377],[-104.182053,43.622731],[-104.182133,43.619084],[-104.182213,43.615438],[-104.182293,43.611791],[-104.187251,43.611782],[-104.192209,43.611773],[-104.197167,43.611764],[-104.202125,43.611756],[-104.202184,43.615395]]]}},{"type":"Feature","properties":{"sec":"20","frstdivid":"WY060420N0610W0SN200"},"geometry":{"type":"Polygon","coordinates":[[[-104.221924,43.597379],[-104.221938,43.601023],[-104.221952,43.604668],[-104.221966,43.608313],[-104.22198,43.611958],[-104.217016,43.611907],[-104.212053,43.611857],[-104.207089,43.611806],[-104.202125,43.611756],[-104.202099,43.608111],[-104.202072,43.604467],[-104.202046,43.600823],[-104.202019,43.597179],[-104.206996,43.597229],[-104.211972,43.597279],[-104.216948,43.597329],[-104.221924,43.597379]]]}},{"type":"Feature","properties":{"sec":"22","frstdivid":"WY060420N0610W0SN220"},"geometry":{"type":"Polygon","coordinates":[[[-104.162247,43.600778],[-104.162167,43.597157],[-104.167148,43.597171],[-104.172128,43.597185],[-104.177109,43.597199],[-104.182089,43.597213],[-104.18214,43.600858],[-104.182191,43.604502],[-104.182242,43.608147],[-104.182293,43.611791],[-104.177341,43.611754],[-104.172389,43.611716],[-104.167437,43.611679],[-104.162485,43.611642],[-104.162406,43.60802],[-104.162326,43.604399],[-104.162247,43.600778]]]}},{"type":"Feature","properties":{"sec":"36","frstdivid":"WY060420N0610W0SN360"},"geometry":{"type":"Polygon","coordinates":[[[-104.137324,43.582732],[-104.132341,43.582759],[-104.127359,43.582787],[-104.122377,43.582814],[-104.122392,43.579203],[-104.122406,43.575592],[-104.122421,43.571981],[-104.122435,43.56837],[-104.127355,43.568329],[-104.132276,43.568287],[-104.137196,43.568246],[-104.142116,43.568205],[-104.142163,43.57183],[-104.142211,43.575455],[-104.142258,43.579079],[-104.142306,43.582704],[-104.137324,43.582732]]]}},{"type":"Feature","properties":{"sec":"03","frstdivid":"WY060420N0610W0SN030"},"geometry":{"type":"Polygon","coordinates":[[[-104.182123,43.648082],[-104.182112,43.651701],[-104.182101,43.655357],[-104.177113,43.655313],[-104.172126,43.655268],[-104.167138,43.655223],[-104.16215,43.655178],[-104.162168,43.651574],[-104.162186,43.647951],[-104.1622,43.644326],[-104.162214,43.640702],[-104.167195,43.640737],[-104.172176,43.640772],[-104.177157,43.640807],[-104.182137,43.640843],[-104.18213,43.644462],[-104.182123,43.648082]]]}},{"type":"Feature","properties":{"sec":"23","frstdivid":"WY060420N0610W0SN230"},"geometry":{"type":"Polygon","coordinates":[[[-104.157189,43.597167],[-104.162167,43.597157],[-104.162247,43.600778],[-104.162326,43.604399],[-104.162406,43.60802],[-104.162485,43.611642],[-104.157468,43.611653],[-104.152451,43.611665],[-104.147434,43.611677],[-104.142417,43.611689],[-104.142376,43.608066],[-104.142336,43.604443],[-104.142295,43.60082],[-104.142255,43.597198],[-104.147233,43.597187],[-104.152211,43.597177],[-104.157189,43.597167]]]}},{"type":"Feature","properties":{"sec":"13","frstdivid":"WY060420N0610W0SN130"},"geometry":{"type":"Polygon","coordinates":[[[-104.127249,43.626164],[-104.122262,43.626158],[-104.122283,43.622543],[-104.122304,43.618929],[-104.122325,43.615315],[-104.122346,43.611701],[-104.127364,43.611698],[-104.132381,43.611695],[-104.137399,43.611692],[-104.142417,43.611689],[-104.142365,43.615313],[-104.142314,43.618937],[-104.142263,43.622561],[-104.142212,43.626185],[-104.137225,43.626178],[-104.132237,43.626171],[-104.127249,43.626164]]]}},{"type":"Feature","properties":{"sec":"34","frstdivid":"WY060420N0610W0SN340"},"geometry":{"type":"Polygon","coordinates":[[[-104.181848,43.571719],[-104.181914,43.57536],[-104.181979,43.579002],[-104.182045,43.582643],[-104.177061,43.582649],[-104.172077,43.582655],[-104.167092,43.582662],[-104.162108,43.582668],[-104.162051,43.579046],[-104.161994,43.575424],[-104.161936,43.571801],[-104.161879,43.568179],[-104.166855,43.568154],[-104.171831,43.568128],[-104.176807,43.568103],[-104.181782,43.568078],[-104.181848,43.571719]]]}},{"type":"Feature","properties":{"sec":"32","frstdivid":"WY060420N0610W0SN320"},"geometry":{"type":"Polygon","coordinates":[[[-104.221709,43.575522],[-104.221769,43.579166],[-104.221828,43.58281],[-104.216863,43.582754],[-104.211898,43.582698],[-104.206933,43.582642],[-104.201967,43.582586],[-104.201894,43.578933],[-104.201822,43.57528],[-104.201749,43.571627],[-104.201676,43.567974],[-104.206654,43.568039],[-104.211632,43.568104],[-104.216611,43.568169],[-104.221589,43.568234],[-104.221649,43.571878],[-104.221709,43.575522]]]}},{"type":"Feature","properties":{"sec":"33","frstdivid":"WY060420N0610W0SN330"},"geometry":{"type":"Polygon","coordinates":[[[-104.201676,43.567974],[-104.201749,43.571627],[-104.201822,43.57528],[-104.201894,43.578933],[-104.201967,43.582586],[-104.196987,43.5826],[-104.192006,43.582614],[-104.187026,43.582629],[-104.182045,43.582643],[-104.181979,43.579002],[-104.181914,43.57536],[-104.181848,43.571719],[-104.181782,43.568078],[-104.186756,43.568052],[-104.191729,43.568026],[-104.196702,43.568],[-104.201676,43.567974]]]}},{"type":"Feature","properties":{"sec":"31","frstdivid":"WY060420N0610W0SN310"},"geometry":{"type":"Polygon","coordinates":[[[-104.231787,43.582858],[-104.226808,43.582834],[-104.221828,43.58281],[-104.221769,43.579166],[-104.221709,43.575522],[-104.221649,43.571878],[-104.221589,43.568234],[-104.226568,43.568268],[-104.231547,43.568302],[-104.236527,43.568313],[-104.241555,43.568325],[-104.241588,43.571962],[-104.24162,43.575599],[-104.241652,43.579235],[-104.241684,43.582872],[-104.236767,43.582865],[-104.231787,43.582858]]]}},{"type":"Feature","properties":{"sec":"27","frstdivid":"WY060420N0610W0SN270"},"geometry":{"type":"Polygon","coordinates":[[[-104.162167,43.597157],[-104.162153,43.593534],[-104.162138,43.589912],[-104.162123,43.58629],[-104.162108,43.582668],[-104.167092,43.582662],[-104.172077,43.582655],[-104.177061,43.582649],[-104.182045,43.582643],[-104.182056,43.586285],[-104.182067,43.589928],[-104.182078,43.593571],[-104.182089,43.597213],[-104.177109,43.597199],[-104.172128,43.597185],[-104.167148,43.597171],[-104.162167,43.597157]]]}},{"type":"Feature","properties":{"sec":"17","frstdivid":"WY060420N0610W0SN170"},"geometry":{"type":"Polygon","coordinates":[[[-104.222047,43.622906],[-104.222069,43.626555],[-104.217143,43.626495],[-104.212216,43.626435],[-104.207289,43.626374],[-104.202362,43.626314],[-104.202303,43.622674],[-104.202244,43.619035],[-104.202184,43.615395],[-104.202125,43.611756],[-104.207089,43.611806],[-104.212053,43.611857],[-104.217016,43.611907],[-104.22198,43.611958],[-104.222002,43.615607],[-104.222025,43.619256],[-104.222047,43.622906]]]}},{"type":"Feature","properties":{"sec":"14","frstdivid":"WY060420N0610W0SN140"},"geometry":{"type":"Polygon","coordinates":[[[-104.162178,43.622545],[-104.162075,43.626179],[-104.15711,43.62618],[-104.152144,43.626182],[-104.147178,43.626183],[-104.142212,43.626185],[-104.142263,43.622561],[-104.142314,43.618937],[-104.142365,43.615313],[-104.142417,43.611689],[-104.147434,43.611677],[-104.152451,43.611665],[-104.157468,43.611653],[-104.162485,43.611642],[-104.162383,43.615276],[-104.16228,43.61891],[-104.162178,43.622545]]]}},{"type":"Feature","properties":{"sec":"01","frstdivid":"WY060420N0610W0SN010"},"geometry":{"type":"Polygon","coordinates":[[[-104.142231,43.647922],[-104.142223,43.651543],[-104.142215,43.655135],[-104.137234,43.655134],[-104.132253,43.655133],[-104.127272,43.655132],[-104.122291,43.655132],[-104.122295,43.651511],[-104.122299,43.64789],[-104.122308,43.644268],[-104.122316,43.640646],[-104.127297,43.640655],[-104.132278,43.640663],[-104.137258,43.640671],[-104.142239,43.640679],[-104.142235,43.644301],[-104.142231,43.647922]]]}},{"type":"Feature","properties":{"sec":"02","frstdivid":"WY060420N0610W0SN020"},"geometry":{"type":"Polygon","coordinates":[[[-104.142215,43.655135],[-104.142223,43.651543],[-104.142231,43.647922],[-104.142235,43.644301],[-104.142239,43.640679],[-104.147233,43.640685],[-104.152227,43.64069],[-104.15722,43.640696],[-104.162214,43.640702],[-104.1622,43.644326],[-104.162186,43.647951],[-104.162168,43.651574],[-104.16215,43.655178],[-104.157167,43.655167],[-104.152183,43.655157],[-104.147199,43.655146],[-104.142215,43.655135]]]}},{"type":"Feature","properties":{"sec":"06","frstdivid":"WY060420N0610W0SN060"},"geometry":{"type":"Polygon","coordinates":[[[-104.22205,43.652089],[-104.222029,43.648458],[-104.221973,43.644815],[-104.221918,43.641172],[-104.226894,43.641153],[-104.23187,43.641134],[-104.23685,43.641131],[-104.2416,43.641129],[-104.241588,43.644759],[-104.241576,43.648389],[-104.24157,43.652014],[-104.241564,43.655639],[-104.236799,43.655652],[-104.231859,43.655666],[-104.226966,43.655718],[-104.222072,43.65577],[-104.22205,43.652089]]]}},{"type":"Feature","properties":{"sec":"30","frstdivid":"WY060420N0610W0SN300"},"geometry":{"type":"Polygon","coordinates":[[[-104.241707,43.586512],[-104.24173,43.590152],[-104.241752,43.593792],[-104.241775,43.597433],[-104.236852,43.597422],[-104.231874,43.597411],[-104.226899,43.597395],[-104.221924,43.597379],[-104.2219,43.593737],[-104.221876,43.590094],[-104.221852,43.586452],[-104.221828,43.58281],[-104.226808,43.582834],[-104.231787,43.582858],[-104.236767,43.582865],[-104.241684,43.582872],[-104.241707,43.586512]]]}},{"type":"Feature","properties":{"sec":"19","frstdivid":"WY060420N0610W0SN190"},"geometry":{"type":"Polygon","coordinates":[[[-104.221966,43.608313],[-104.221952,43.604668],[-104.221938,43.601023],[-104.221924,43.597379],[-104.226899,43.597395],[-104.231874,43.597411],[-104.236852,43.597422],[-104.241775,43.597433],[-104.241779,43.601074],[-104.241783,43.604715],[-104.241786,43.608356],[-104.24179,43.611997],[-104.236915,43.611986],[-104.231935,43.611976],[-104.226957,43.611967],[-104.22198,43.611958],[-104.221966,43.608313]]]}},{"type":"Feature","properties":{"sec":"21","frstdivid":"WY060420N0610W0SN210"},"geometry":{"type":"Polygon","coordinates":[[[-104.18214,43.600858],[-104.182089,43.597213],[-104.187071,43.597205],[-104.192054,43.597196],[-104.197037,43.597188],[-104.202019,43.597179],[-104.202046,43.600823],[-104.202072,43.604467],[-104.202099,43.608111],[-104.202125,43.611756],[-104.197167,43.611764],[-104.192209,43.611773],[-104.187251,43.611782],[-104.182293,43.611791],[-104.182242,43.608147],[-104.182191,43.604502],[-104.18214,43.600858]]]}},{"type":"Feature","properties":{"sec":"12","frstdivid":"WY060420N0610W0SN120"},"geometry":{"type":"Polygon","coordinates":[[[-104.142226,43.633432],[-104.142232,43.637056],[-104.142239,43.640679],[-104.137258,43.640671],[-104.132278,43.640663],[-104.127297,43.640655],[-104.122316,43.640646],[-104.122303,43.637024],[-104.122289,43.633402],[-104.122275,43.62978],[-104.122262,43.626158],[-104.127249,43.626164],[-104.132237,43.626171],[-104.137225,43.626178],[-104.142212,43.626185],[-104.142219,43.629808],[-104.142226,43.633432]]]}},{"type":"Feature","properties":{"sec":"09","frstdivid":"WY060420N0610W0SN090"},"geometry":{"type":"Polygon","coordinates":[[[-104.187118,43.640854],[-104.182137,43.640843],[-104.182096,43.637226],[-104.182055,43.63361],[-104.182014,43.629994],[-104.181973,43.626377],[-104.18707,43.626362],[-104.192168,43.626346],[-104.197265,43.62633],[-104.202362,43.626314],[-104.202287,43.629957],[-104.202211,43.633601],[-104.202135,43.637244],[-104.20206,43.640887],[-104.197079,43.640876],[-104.192099,43.640865],[-104.187118,43.640854]]]}},{"type":"Feature","properties":{"sec":"26","frstdivid":"WY060420N0610W0SN260"},"geometry":{"type":"Polygon","coordinates":[[[-104.162123,43.58629],[-104.162138,43.589912],[-104.162153,43.593534],[-104.162167,43.597157],[-104.157189,43.597167],[-104.152211,43.597177],[-104.147233,43.597187],[-104.142255,43.597198],[-104.142268,43.593574],[-104.14228,43.589951],[-104.142293,43.586328],[-104.142306,43.582704],[-104.147256,43.582695],[-104.152207,43.582686],[-104.157158,43.582677],[-104.162108,43.582668],[-104.162123,43.58629]]]}},{"type":"Feature","properties":{"sec":"04","frstdivid":"WY060420N0610W0SN040"},"geometry":{"type":"Polygon","coordinates":[[[-104.20206,43.640887],[-104.202067,43.644516],[-104.202074,43.648145],[-104.202074,43.65177],[-104.202074,43.655409],[-104.197081,43.655396],[-104.192087,43.655383],[-104.187094,43.65537],[-104.182101,43.655357],[-104.182112,43.651701],[-104.182123,43.648082],[-104.18213,43.644462],[-104.182137,43.640843],[-104.187118,43.640854],[-104.192099,43.640865],[-104.197079,43.640876],[-104.20206,43.640887]]]}},{"type":"Feature","properties":{"sec":"08","frstdivid":"WY060420N0610W0SN080"},"geometry":{"type":"Polygon","coordinates":[[[-104.221994,43.633864],[-104.221956,43.637518],[-104.221918,43.641172],[-104.216953,43.641101],[-104.211989,43.64103],[-104.207024,43.640958],[-104.20206,43.640887],[-104.202135,43.637244],[-104.202211,43.633601],[-104.202287,43.629957],[-104.202362,43.626314],[-104.207289,43.626374],[-104.212216,43.626435],[-104.217143,43.626495],[-104.222069,43.626555],[-104.222032,43.63021],[-104.221994,43.633864]]]}},{"type":"Feature","properties":{"sec":"28","frstdivid":"WY060420N0610W0SN280"},"geometry":{"type":"Polygon","coordinates":[[[-104.201967,43.582586],[-104.20198,43.586234],[-104.201993,43.589883],[-104.202006,43.593531],[-104.202019,43.597179],[-104.197037,43.597188],[-104.192054,43.597196],[-104.187071,43.597205],[-104.182089,43.597213],[-104.182078,43.593571],[-104.182067,43.589928],[-104.182056,43.586285],[-104.182045,43.582643],[-104.187026,43.582629],[-104.192006,43.582614],[-104.196987,43.5826],[-104.201967,43.582586]]]}},{"type":"Feature","properties":{"sec":"05","frstdivid":"WY060420N0610W0SN050"},"geometry":{"type":"Polygon","coordinates":[[[-104.221918,43.641172],[-104.221973,43.644815],[-104.222029,43.648458],[-104.22205,43.652089],[-104.222072,43.65577],[-104.217073,43.65568],[-104.212073,43.655589],[-104.207073,43.655499],[-104.202074,43.655409],[-104.202074,43.65177],[-104.202074,43.648145],[-104.202067,43.644516],[-104.20206,43.640887],[-104.207024,43.640958],[-104.211989,43.64103],[-104.216953,43.641101],[-104.221918,43.641172]]]}},{"type":"Feature","properties":{"sec":"18","frstdivid":"WY060420N0610W0SN180"},"geometry":{"type":"Polygon","coordinates":[[[-104.24179,43.611997],[-104.241784,43.615638],[-104.241778,43.619279],[-104.241772,43.622921],[-104.241766,43.626562],[-104.236964,43.626559],[-104.231992,43.626555],[-104.227031,43.626555],[-104.222069,43.626555],[-104.222047,43.622906],[-104.222025,43.619256],[-104.222002,43.615607],[-104.22198,43.611958],[-104.226957,43.611967],[-104.231935,43.611976],[-104.236915,43.611986],[-104.24179,43.611997]]]}},{"type":"Feature","properties":{"sec":"11","frstdivid":"WY060420N0610W0SN110"},"geometry":{"type":"Polygon","coordinates":[[[-104.15722,43.640696],[-104.152227,43.64069],[-104.147233,43.640685],[-104.142239,43.640679],[-104.142232,43.637056],[-104.142226,43.633432],[-104.142219,43.629808],[-104.142212,43.626185],[-104.147178,43.626183],[-104.152144,43.626182],[-104.15711,43.62618],[-104.162075,43.626179],[-104.16211,43.62981],[-104.162145,43.63344],[-104.162179,43.637071],[-104.162214,43.640702],[-104.15722,43.640696]]]}},{"type":"Feature","properties":{"sec":"10","frstdivid":"WY060420N0610W0SN100"},"geometry":{"type":"Polygon","coordinates":[[[-104.177157,43.640807],[-104.172176,43.640772],[-104.167195,43.640737],[-104.162214,43.640702],[-104.162179,43.637071],[-104.162145,43.63344],[-104.16211,43.62981],[-104.162075,43.626179],[-104.16705,43.626229],[-104.172024,43.626278],[-104.176999,43.626328],[-104.181973,43.626377],[-104.182014,43.629994],[-104.182055,43.63361],[-104.182096,43.637226],[-104.182137,43.640843],[-104.177157,43.640807]]]}},{"type":"Feature","properties":{"sec":"07","frstdivid":"WY060420N0610W0SN070"},"geometry":{"type":"Polygon","coordinates":[[[-104.241641,43.637487],[-104.2416,43.641129],[-104.23685,43.641131],[-104.23187,43.641134],[-104.226894,43.641153],[-104.221918,43.641172],[-104.221956,43.637518],[-104.221994,43.633864],[-104.222032,43.63021],[-104.222069,43.626555],[-104.227031,43.626555],[-104.231992,43.626555],[-104.236964,43.626559],[-104.241766,43.626562],[-104.241724,43.630204],[-104.241683,43.633846],[-104.241641,43.637487]]]}},{"type":"Feature","properties":{"sec":"25","frstdivid":"WY060420N0610W0SN250"},"geometry":{"type":"Polygon","coordinates":[[[-104.122377,43.582814],[-104.127359,43.582787],[-104.132341,43.582759],[-104.137324,43.582732],[-104.142306,43.582704],[-104.142293,43.586328],[-104.14228,43.589951],[-104.142268,43.593574],[-104.142255,43.597198],[-104.137298,43.597212],[-104.13234,43.597227],[-104.127383,43.597242],[-104.122426,43.597257],[-104.122413,43.593646],[-104.122401,43.590035],[-104.122389,43.586425],[-104.122377,43.582814]]]}},{"type":"Feature","properties":{"sec":"29","frstdivid":"WY060420N0610W0SN290"},"geometry":{"type":"Polygon","coordinates":[[[-104.201967,43.582586],[-104.206933,43.582642],[-104.211898,43.582698],[-104.216863,43.582754],[-104.221828,43.58281],[-104.221852,43.586452],[-104.221876,43.590094],[-104.2219,43.593737],[-104.221924,43.597379],[-104.216948,43.597329],[-104.211972,43.597279],[-104.206996,43.597229],[-104.202019,43.597179],[-104.202006,43.593531],[-104.201993,43.589883],[-104.20198,43.586234],[-104.201967,43.582586]]]}},{"type":"Feature","properties":{"sec":"24","frstdivid":"WY060420N0610W0SN240"},"geometry":{"type":"Polygon","coordinates":[[[-104.137298,43.597212],[-104.142255,43.597198],[-104.142295,43.60082],[-104.142336,43.604443],[-104.142376,43.608066],[-104.142417,43.611689],[-104.137399,43.611692],[-104.132381,43.611695],[-104.127364,43.611698],[-104.122346,43.611701],[-104.122366,43.60809],[-104.122386,43.604479],[-104.122406,43.600868],[-104.122426,43.597257],[-104.127383,43.597242],[-104.13234,43.597227],[-104.137298,43.597212]]]}},{"type":"Feature","properties":{"sec":"15","frstdivid":"WY060420N0610W0SN150"},"geometry":{"type":"Polygon","coordinates":[[[-104.182213,43.615438],[-104.182133,43.619084],[-104.182053,43.622731],[-104.181973,43.626377],[-104.176999,43.626328],[-104.172024,43.626278],[-104.16705,43.626229],[-104.162075,43.626179],[-104.162178,43.622545],[-104.16228,43.61891],[-104.162383,43.615276],[-104.162485,43.611642],[-104.167437,43.611679],[-104.172389,43.611716],[-104.177341,43.611754],[-104.182293,43.611791],[-104.182213,43.615438]]]}}]}