{"type":"FeatureCollection","note":"BLM Public Land Survey System. Provided by the Bureau of Land Management as is. These data are neither legal documents nor land surveys and must not be used as such.","features":[{"type":"Feature","properties":{"sec":"32","frstdivid":"MT200070N0360E0SN320"},"geometry":{"type":"Polygon","coordinates":[[[-107.23693,46.308112],[-107.242169,46.308111],[-107.247408,46.308109],[-107.252638,46.308108],[-107.254146,46.308108],[-107.257868,46.308109],[-107.257852,46.311715],[-107.257851,46.311855],[-107.257869,46.315329],[-107.257886,46.318948],[-107.257904,46.322567],[-107.25266,46.322586],[-107.247417,46.322605],[-107.242173,46.322624],[-107.236929,46.322643],[-107.236922,46.319024],[-107.236916,46.316382],[-107.236921,46.315384],[-107.236934,46.312728],[-107.236933,46.31173],[-107.23693,46.308112]]]}},{"type":"Feature","properties":{"sec":"31","frstdivid":"MT200070N0360E0SN310"},"geometry":{"type":"Polygon","coordinates":[[[-107.257852,46.311715],[-107.257868,46.308109],[-107.263022,46.308109],[-107.263075,46.308109],[-107.268176,46.308109],[-107.2683,46.30811],[-107.27333,46.30811],[-107.273529,46.30811],[-107.275349,46.30811],[-107.278517,46.308122],[-107.278526,46.311737],[-107.278536,46.315351],[-107.278541,46.318962],[-107.278546,46.322573],[-107.273593,46.322572],[-107.268363,46.32257],[-107.263133,46.322569],[-107.257904,46.322567],[-107.257886,46.318948],[-107.257869,46.315329],[-107.257851,46.311855],[-107.257852,46.311715]]]}},{"type":"Feature","properties":{"sec":"33","frstdivid":"MT200070N0360E0SN330"},"geometry":{"type":"Polygon","coordinates":[[[-107.215978,46.308111],[-107.221216,46.308111],[-107.226454,46.308112],[-107.231692,46.308112],[-107.23693,46.308112],[-107.236933,46.31173],[-107.236934,46.312728],[-107.236921,46.315384],[-107.236916,46.316382],[-107.236922,46.319024],[-107.236929,46.322643],[-107.231699,46.322661],[-107.226469,46.322679],[-107.221239,46.322697],[-107.216009,46.322715],[-107.216004,46.319096],[-107.216004,46.318915],[-107.216014,46.316535],[-107.216012,46.315359],[-107.215995,46.311735],[-107.215978,46.308111]]]}},{"type":"Feature","properties":{"sec":"34","frstdivid":"MT200070N0360E0SN340"},"geometry":{"type":"Polygon","coordinates":[[[-107.195172,46.320226],[-107.195172,46.31908],[-107.195173,46.316887],[-107.195144,46.315343],[-107.195128,46.314462],[-107.195128,46.311698],[-107.195128,46.308086],[-107.200341,46.308092],[-107.205553,46.308099],[-107.210766,46.308105],[-107.215978,46.308111],[-107.215995,46.311735],[-107.216012,46.315359],[-107.216014,46.316535],[-107.216004,46.318915],[-107.216004,46.319096],[-107.216009,46.322715],[-107.2108,46.322732],[-107.205591,46.32275],[-107.200382,46.322767],[-107.195173,46.322784],[-107.195171,46.32252],[-107.195172,46.320226]]]}},{"type":"Feature","properties":{"sec":"35","frstdivid":"MT200070N0360E0SN350"},"geometry":{"type":"Polygon","coordinates":[[[-107.174273,46.311707],[-107.174265,46.308083],[-107.179481,46.308084],[-107.184697,46.308085],[-107.189913,46.308085],[-107.195128,46.308086],[-107.195128,46.311698],[-107.195128,46.314462],[-107.195144,46.315343],[-107.195173,46.316887],[-107.195172,46.31908],[-107.195172,46.320226],[-107.195171,46.32252],[-107.195173,46.322784],[-107.190905,46.322784],[-107.189954,46.322785],[-107.188664,46.322784],[-107.188508,46.322785],[-107.186363,46.322785],[-107.184729,46.322786],[-107.182135,46.322787],[-107.179502,46.322787],[-107.179188,46.322787],[-107.175472,46.322788],[-107.174507,46.322789],[-107.174274,46.322789],[-107.174274,46.322043],[-107.174289,46.320131],[-107.174288,46.31906],[-107.174282,46.315331],[-107.174273,46.311707]]]}},{"type":"Feature","properties":{"sec":"36","frstdivid":"MT200070N0360E0SN360"},"geometry":{"type":"Polygon","coordinates":[[[-107.169043,46.308083],[-107.174265,46.308083],[-107.174273,46.311707],[-107.174282,46.315331],[-107.174288,46.31906],[-107.174289,46.320131],[-107.174274,46.322043],[-107.174274,46.322789],[-107.170144,46.322851],[-107.169048,46.322868],[-107.163822,46.322945],[-107.16216,46.32297],[-107.158591,46.323024],[-107.153369,46.323103],[-107.153356,46.319479],[-107.153352,46.318266],[-107.153345,46.315935],[-107.153345,46.315894],[-107.153347,46.315406],[-107.15336,46.311745],[-107.153372,46.308069],[-107.158578,46.308076],[-107.158597,46.308076],[-107.163821,46.308083],[-107.164237,46.308083],[-107.164239,46.308083],[-107.169043,46.308083]]]}},{"type":"Feature","properties":{"sec":"16","frstdivid":"MT200070N0360E0SN160"},"geometry":{"type":"Polygon","coordinates":[[[-107.216137,46.355309],[-107.216138,46.351678],[-107.221389,46.351671],[-107.226639,46.351665],[-107.23188,46.351664],[-107.23712,46.351662],[-107.237133,46.355278],[-107.237146,46.358894],[-107.237159,46.362509],[-107.237172,46.366125],[-107.231914,46.366145],[-107.226656,46.366165],[-107.221398,46.366185],[-107.21614,46.366205],[-107.216138,46.362573],[-107.216136,46.35894],[-107.216137,46.355309]]]}},{"type":"Feature","properties":{"sec":"17","frstdivid":"MT200070N0360E0SN170"},"geometry":{"type":"Polygon","coordinates":[[[-107.23712,46.351662],[-107.242342,46.351655],[-107.247564,46.351648],[-107.252806,46.351614],[-107.258049,46.351579],[-107.258071,46.355214],[-107.258092,46.358849],[-107.258114,46.362485],[-107.258136,46.36612],[-107.252895,46.366121],[-107.247654,46.366123],[-107.242413,46.366124],[-107.237172,46.366125],[-107.237159,46.362509],[-107.237146,46.358894],[-107.237133,46.355278],[-107.23712,46.351662]]]}},{"type":"Feature","properties":{"sec":"08","frstdivid":"MT200070N0360E0SN080"},"geometry":{"type":"Polygon","coordinates":[[[-107.237172,46.366125],[-107.242413,46.366124],[-107.247654,46.366123],[-107.252895,46.366121],[-107.258136,46.36612],[-107.258139,46.369754],[-107.258142,46.373389],[-107.258146,46.377024],[-107.258149,46.380658],[-107.252905,46.380677],[-107.247662,46.380696],[-107.242418,46.380714],[-107.237175,46.380733],[-107.237174,46.377081],[-107.237174,46.373429],[-107.237173,46.369777],[-107.237172,46.366125]]]}},{"type":"Feature","properties":{"sec":"21","frstdivid":"MT200070N0360E0SN210"},"geometry":{"type":"Polygon","coordinates":[[[-107.216031,46.337177],[-107.221264,46.337162],[-107.226498,46.337148],[-107.231731,46.337133],[-107.236964,46.337118],[-107.237003,46.340754],[-107.237042,46.34439],[-107.237081,46.348026],[-107.23712,46.351662],[-107.23188,46.351664],[-107.226639,46.351665],[-107.221389,46.351671],[-107.216138,46.351678],[-107.216111,46.348053],[-107.216085,46.344427],[-107.216058,46.340802],[-107.216031,46.337177]]]}},{"type":"Feature","properties":{"sec":"10","frstdivid":"MT200070N0360E0SN100"},"geometry":{"type":"Polygon","coordinates":[[[-107.195307,46.36993],[-107.195334,46.366285],[-107.200536,46.366265],[-107.205737,46.366245],[-107.210939,46.366225],[-107.21614,46.366205],[-107.216139,46.369861],[-107.216137,46.373517],[-107.216135,46.377172],[-107.216133,46.380828],[-107.210906,46.380837],[-107.205679,46.380846],[-107.200453,46.380856],[-107.195226,46.380865],[-107.195253,46.37722],[-107.19528,46.373575],[-107.195307,46.36993]]]}},{"type":"Feature","properties":{"sec":"05","frstdivid":"MT200070N0360E0SN050"},"geometry":{"type":"Polygon","coordinates":[[[-107.23733,46.391666],[-107.237278,46.388032],[-107.237227,46.384382],[-107.237175,46.380733],[-107.242418,46.380714],[-107.247662,46.380696],[-107.252905,46.380677],[-107.258149,46.380658],[-107.258219,46.384309],[-107.258288,46.38796],[-107.258334,46.391595],[-107.25838,46.395207],[-107.253131,46.395229],[-107.247881,46.395251],[-107.242631,46.395274],[-107.237382,46.395296],[-107.23733,46.391666]]]}},{"type":"Feature","properties":{"sec":"06","frstdivid":"MT200070N0360E0SN060"},"geometry":{"type":"Polygon","coordinates":[[[-107.27872,46.387845],[-107.278704,46.391475],[-107.278688,46.395105],[-107.274094,46.395127],[-107.274071,46.395127],[-107.268859,46.395153],[-107.26362,46.39518],[-107.25838,46.395207],[-107.258334,46.391595],[-107.258288,46.38796],[-107.258219,46.384309],[-107.258149,46.380658],[-107.263415,46.380635],[-107.26868,46.380611],[-107.273946,46.380587],[-107.278785,46.380565],[-107.278753,46.384205],[-107.27872,46.387845]]]}},{"type":"Feature","properties":{"sec":"22","frstdivid":"MT200070N0360E0SN220"},"geometry":{"type":"Polygon","coordinates":[[[-107.195232,46.337208],[-107.200432,46.3372],[-107.205632,46.337193],[-107.210831,46.337185],[-107.216031,46.337177],[-107.216058,46.340802],[-107.216085,46.344427],[-107.216111,46.348053],[-107.216138,46.351678],[-107.210919,46.351689],[-107.205701,46.351701],[-107.200482,46.351712],[-107.195263,46.351724],[-107.195255,46.3481],[-107.195247,46.344476],[-107.19524,46.340842],[-107.195232,46.337208]]]}},{"type":"Feature","properties":{"sec":"27","frstdivid":"MT200070N0360E0SN270"},"geometry":{"type":"Polygon","coordinates":[[[-107.195211,46.330004],[-107.195192,46.326394],[-107.195173,46.322784],[-107.200382,46.322767],[-107.205591,46.32275],[-107.2108,46.322732],[-107.216009,46.322715],[-107.216014,46.326331],[-107.21602,46.329946],[-107.216025,46.333562],[-107.216031,46.337177],[-107.210831,46.337185],[-107.205632,46.337193],[-107.200432,46.3372],[-107.195232,46.337208],[-107.195222,46.333606],[-107.195211,46.330004]]]}},{"type":"Feature","properties":{"sec":"28","frstdivid":"MT200070N0360E0SN280"},"geometry":{"type":"Polygon","coordinates":[[[-107.21602,46.329946],[-107.216014,46.326331],[-107.216009,46.322715],[-107.221239,46.322697],[-107.226469,46.322679],[-107.231699,46.322661],[-107.236929,46.322643],[-107.236938,46.326262],[-107.236947,46.329881],[-107.236956,46.333499],[-107.236964,46.337118],[-107.231731,46.337133],[-107.226498,46.337148],[-107.221264,46.337162],[-107.216031,46.337177],[-107.216025,46.333562],[-107.21602,46.329946]]]}},{"type":"Feature","properties":{"sec":"15","frstdivid":"MT200070N0360E0SN150"},"geometry":{"type":"Polygon","coordinates":[[[-107.216137,46.355309],[-107.216136,46.35894],[-107.216138,46.362573],[-107.21614,46.366205],[-107.210939,46.366225],[-107.205737,46.366245],[-107.200536,46.366265],[-107.195334,46.366285],[-107.195316,46.362645],[-107.195298,46.359004],[-107.195281,46.355364],[-107.195263,46.351724],[-107.200482,46.351712],[-107.205701,46.351701],[-107.210919,46.351689],[-107.216138,46.351678],[-107.216137,46.355309]]]}},{"type":"Feature","properties":{"sec":"02","frstdivid":"MT200070N0360E0SN020"},"geometry":{"type":"Polygon","coordinates":[[[-107.179659,46.395529],[-107.174415,46.39555],[-107.174406,46.391823],[-107.174397,46.388199],[-107.174384,46.384569],[-107.174371,46.380939],[-107.179585,46.38092],[-107.184798,46.380902],[-107.190012,46.380883],[-107.195226,46.380865],[-107.195261,46.384499],[-107.195297,46.388133],[-107.195344,46.39176],[-107.195392,46.395468],[-107.190148,46.395489],[-107.184904,46.395509],[-107.179659,46.395529]]]}},{"type":"Feature","properties":{"sec":"03","frstdivid":"MT200070N0360E0SN030"},"geometry":{"type":"Polygon","coordinates":[[[-107.195261,46.384499],[-107.195226,46.380865],[-107.200453,46.380856],[-107.205679,46.380846],[-107.210906,46.380837],[-107.216133,46.380828],[-107.216197,46.384457],[-107.216262,46.388086],[-107.216323,46.391709],[-107.216386,46.39538],[-107.211131,46.395402],[-107.205876,46.395424],[-107.200634,46.395446],[-107.195392,46.395468],[-107.195344,46.39176],[-107.195297,46.388133],[-107.195261,46.384499]]]}},{"type":"Feature","properties":{"sec":"14","frstdivid":"MT200070N0360E0SN140"},"geometry":{"type":"Polygon","coordinates":[[[-107.174365,46.362753],[-107.174354,46.359116],[-107.174343,46.35548],[-107.174331,46.351843],[-107.179564,46.351814],[-107.184797,46.351784],[-107.19003,46.351754],[-107.195263,46.351724],[-107.195281,46.355364],[-107.195298,46.359004],[-107.195316,46.362645],[-107.195334,46.366285],[-107.190095,46.366311],[-107.184855,46.366337],[-107.179616,46.366363],[-107.174377,46.366389],[-107.174365,46.362753]]]}},{"type":"Feature","properties":{"sec":"11","frstdivid":"MT200070N0360E0SN110"},"geometry":{"type":"Polygon","coordinates":[[[-107.19528,46.373575],[-107.195253,46.37722],[-107.195226,46.380865],[-107.190012,46.380883],[-107.184798,46.380902],[-107.179585,46.38092],[-107.174371,46.380939],[-107.174373,46.377302],[-107.174374,46.373664],[-107.174375,46.370027],[-107.174377,46.366389],[-107.179616,46.366363],[-107.184855,46.366337],[-107.190095,46.366311],[-107.195334,46.366285],[-107.195307,46.36993],[-107.19528,46.373575]]]}},{"type":"Feature","properties":{"sec":"07","frstdivid":"MT200070N0360E0SN070"},"geometry":{"type":"Polygon","coordinates":[[[-107.258139,46.369754],[-107.258136,46.36612],[-107.263382,46.366106],[-107.268629,46.366093],[-107.273875,46.366078],[-107.278722,46.366065],[-107.278738,46.36969],[-107.278754,46.373315],[-107.278769,46.37694],[-107.278785,46.380565],[-107.273946,46.380587],[-107.26868,46.380611],[-107.263415,46.380635],[-107.258149,46.380658],[-107.258146,46.377024],[-107.258142,46.373389],[-107.258139,46.369754]]]}},{"type":"Feature","properties":{"sec":"29","frstdivid":"MT200070N0360E0SN290"},"geometry":{"type":"Polygon","coordinates":[[[-107.236929,46.322643],[-107.242173,46.322624],[-107.247417,46.322605],[-107.25266,46.322586],[-107.257904,46.322567],[-107.257923,46.326186],[-107.257943,46.329805],[-107.257962,46.333424],[-107.257982,46.337043],[-107.252727,46.337062],[-107.247473,46.33708],[-107.242219,46.337099],[-107.236964,46.337118],[-107.236956,46.333499],[-107.236947,46.329881],[-107.236938,46.326262],[-107.236929,46.322643]]]}},{"type":"Feature","properties":{"sec":"26","frstdivid":"MT200070N0360E0SN260"},"geometry":{"type":"Polygon","coordinates":[[[-107.174274,46.322789],[-107.174507,46.322789],[-107.175472,46.322788],[-107.179188,46.322787],[-107.179502,46.322787],[-107.182135,46.322787],[-107.184729,46.322786],[-107.186363,46.322785],[-107.188508,46.322785],[-107.188664,46.322784],[-107.189954,46.322785],[-107.190905,46.322784],[-107.195173,46.322784],[-107.195192,46.326394],[-107.195211,46.330004],[-107.195222,46.333606],[-107.195232,46.337208],[-107.19,46.337222],[-107.184767,46.337236],[-107.179535,46.337251],[-107.174303,46.337265],[-107.174296,46.333646],[-107.174289,46.330026],[-107.174282,46.326408],[-107.174279,46.324567],[-107.174277,46.324041],[-107.174275,46.323015],[-107.174274,46.322789]]]}},{"type":"Feature","properties":{"sec":"23","frstdivid":"MT200070N0360E0SN230"},"geometry":{"type":"Polygon","coordinates":[[[-107.174303,46.337265],[-107.179535,46.337251],[-107.184767,46.337236],[-107.19,46.337222],[-107.195232,46.337208],[-107.19524,46.340842],[-107.195247,46.344476],[-107.195255,46.3481],[-107.195263,46.351724],[-107.19003,46.351754],[-107.184797,46.351784],[-107.179564,46.351814],[-107.174331,46.351843],[-107.174324,46.348199],[-107.174317,46.344554],[-107.17431,46.340909],[-107.174303,46.337265]]]}},{"type":"Feature","properties":{"sec":"18","frstdivid":"MT200070N0360E0SN180"},"geometry":{"type":"Polygon","coordinates":[[[-107.258049,46.351579],[-107.263287,46.351577],[-107.268525,46.351575],[-107.273763,46.351572],[-107.27866,46.351569],[-107.278676,46.355193],[-107.278691,46.358817],[-107.278706,46.362441],[-107.278722,46.366065],[-107.273875,46.366078],[-107.268629,46.366093],[-107.263382,46.366106],[-107.258136,46.36612],[-107.258114,46.362485],[-107.258092,46.358849],[-107.258071,46.355214],[-107.258049,46.351579]]]}},{"type":"Feature","properties":{"sec":"09","frstdivid":"MT200070N0360E0SN090"},"geometry":{"type":"Polygon","coordinates":[[[-107.216133,46.380828],[-107.216135,46.377172],[-107.216137,46.373517],[-107.216139,46.369861],[-107.21614,46.366205],[-107.221398,46.366185],[-107.226656,46.366165],[-107.231914,46.366145],[-107.237172,46.366125],[-107.237173,46.369777],[-107.237174,46.373429],[-107.237174,46.377081],[-107.237175,46.380733],[-107.231914,46.380757],[-107.226654,46.380781],[-107.221393,46.380804],[-107.216133,46.380828]]]}},{"type":"Feature","properties":{"sec":"30","frstdivid":"MT200070N0360E0SN300"},"geometry":{"type":"Polygon","coordinates":[[[-107.257904,46.322567],[-107.263133,46.322569],[-107.268363,46.32257],[-107.273593,46.322572],[-107.278546,46.322573],[-107.278561,46.326196],[-107.278577,46.329819],[-107.278592,46.333447],[-107.278608,46.337074],[-107.273827,46.337067],[-107.268549,46.337059],[-107.263265,46.337051],[-107.257982,46.337043],[-107.257962,46.333424],[-107.257943,46.329805],[-107.257923,46.326186],[-107.257904,46.322567]]]}},{"type":"Feature","properties":{"sec":"19","frstdivid":"MT200070N0360E0SN190"},"geometry":{"type":"Polygon","coordinates":[[[-107.268525,46.351575],[-107.263287,46.351577],[-107.258049,46.351579],[-107.258032,46.347945],[-107.258015,46.344311],[-107.257998,46.340677],[-107.257982,46.337043],[-107.263265,46.337051],[-107.268549,46.337059],[-107.273827,46.337067],[-107.278608,46.337074],[-107.278621,46.340698],[-107.278634,46.344322],[-107.278647,46.347945],[-107.27866,46.351569],[-107.273763,46.351572],[-107.268525,46.351575]]]}},{"type":"Feature","properties":{"sec":"04","frstdivid":"MT200070N0360E0SN040"},"geometry":{"type":"Polygon","coordinates":[[[-107.216133,46.380828],[-107.221393,46.380804],[-107.226654,46.380781],[-107.231914,46.380757],[-107.237175,46.380733],[-107.237227,46.384382],[-107.237278,46.388032],[-107.23733,46.391666],[-107.237382,46.395296],[-107.232133,46.395317],[-107.226884,46.395338],[-107.221635,46.395359],[-107.216386,46.39538],[-107.216323,46.391709],[-107.216262,46.388086],[-107.216197,46.384457],[-107.216133,46.380828]]]}},{"type":"Feature","properties":{"sec":"20","frstdivid":"MT200070N0360E0SN200"},"geometry":{"type":"Polygon","coordinates":[[[-107.257982,46.337043],[-107.257998,46.340677],[-107.258015,46.344311],[-107.258032,46.347945],[-107.258049,46.351579],[-107.252806,46.351614],[-107.247564,46.351648],[-107.242342,46.351655],[-107.23712,46.351662],[-107.237081,46.348026],[-107.237042,46.34439],[-107.237003,46.340754],[-107.236964,46.337118],[-107.242219,46.337099],[-107.247473,46.33708],[-107.252727,46.337062],[-107.257982,46.337043]]]}},{"type":"Feature","properties":{"sec":"25","frstdivid":"MT200070N0360E0SN250"},"geometry":{"type":"Polygon","coordinates":[[[-107.153369,46.323103],[-107.158591,46.323024],[-107.16216,46.32297],[-107.163822,46.322945],[-107.169048,46.322868],[-107.170144,46.322851],[-107.174274,46.322789],[-107.174275,46.323015],[-107.174277,46.324041],[-107.174279,46.324567],[-107.174282,46.326408],[-107.174289,46.330026],[-107.174296,46.333646],[-107.174303,46.337265],[-107.16908,46.337284],[-107.163856,46.337304],[-107.158633,46.337324],[-107.15341,46.337344],[-107.153399,46.333783],[-107.153389,46.330223],[-107.153379,46.326663],[-107.153369,46.323103]]]}},{"type":"Feature","properties":{"sec":"12","frstdivid":"MT200070N0360E0SN120"},"geometry":{"type":"Polygon","coordinates":[[[-107.153448,46.366609],[-107.15868,46.366554],[-107.163912,46.366499],[-107.169144,46.366444],[-107.174377,46.366389],[-107.174375,46.370027],[-107.174374,46.373664],[-107.174373,46.377302],[-107.174371,46.380939],[-107.169143,46.380981],[-107.163915,46.381024],[-107.158687,46.381066],[-107.153459,46.381108],[-107.153456,46.377483],[-107.153454,46.373858],[-107.153451,46.370234],[-107.153448,46.366609]]]}},{"type":"Feature","properties":{"sec":"24","frstdivid":"MT200070N0360E0SN240"},"geometry":{"type":"Polygon","coordinates":[[[-107.15341,46.337344],[-107.158633,46.337324],[-107.163856,46.337304],[-107.16908,46.337284],[-107.174303,46.337265],[-107.17431,46.340909],[-107.174317,46.344554],[-107.174324,46.348199],[-107.174331,46.351843],[-107.169103,46.351909],[-107.163875,46.351974],[-107.158647,46.35204],[-107.153419,46.352105],[-107.153417,46.348415],[-107.153414,46.344724],[-107.153412,46.341034],[-107.15341,46.337344]]]}},{"type":"Feature","properties":{"sec":"01","frstdivid":"MT200070N0360E0SN010"},"geometry":{"type":"Polygon","coordinates":[[[-107.153456,46.39562],[-107.153457,46.391992],[-107.153457,46.388364],[-107.153458,46.384736],[-107.153459,46.381108],[-107.158687,46.381066],[-107.163915,46.381024],[-107.169143,46.380981],[-107.174371,46.380939],[-107.174384,46.384569],[-107.174397,46.388199],[-107.174406,46.391823],[-107.174415,46.39555],[-107.169175,46.395567],[-107.163935,46.395585],[-107.158696,46.395602],[-107.153456,46.39562]]]}},{"type":"Feature","properties":{"sec":"13","frstdivid":"MT200070N0360E0SN130"},"geometry":{"type":"Polygon","coordinates":[[[-107.174365,46.362753],[-107.174377,46.366389],[-107.169144,46.366444],[-107.163912,46.366499],[-107.15868,46.366554],[-107.153448,46.366609],[-107.153441,46.362983],[-107.153434,46.359357],[-107.153426,46.355731],[-107.153419,46.352105],[-107.158647,46.35204],[-107.163875,46.351974],[-107.169103,46.351909],[-107.174331,46.351843],[-107.174343,46.35548],[-107.174354,46.359116],[-107.174365,46.362753]]]}}]}