{"type":"FeatureCollection","note":"BLM Public Land Survey System. Provided by the Bureau of Land Management as is. These data are neither legal documents nor land surveys and must not be used as such.","features":[{"type":"Feature","properties":{"sec":"06","frstdivid":"WY060280N0640W0SN060"},"geometry":{"type":"Polygon","coordinates":[[[-104.5917,42.42139],[-104.596456,42.421429],[-104.596447,42.425058],[-104.596439,42.428686],[-104.596435,42.432311],[-104.59643,42.435935],[-104.591704,42.435867],[-104.591545,42.435867],[-104.586818,42.435799],[-104.586659,42.435799],[-104.581933,42.435731],[-104.581774,42.435731],[-104.577047,42.435663],[-104.577026,42.432077],[-104.577003,42.428449],[-104.57696,42.424815],[-104.576917,42.42118],[-104.581853,42.421264],[-104.586788,42.421348],[-104.5917,42.42139]]]}},{"type":"Feature","properties":{"sec":"03","frstdivid":"WY060280N0640W0SN030"},"geometry":{"type":"Polygon","coordinates":[[[-104.523238,42.435703],[-104.522981,42.435703],[-104.518306,42.435623],[-104.518363,42.432149],[-104.518426,42.428523],[-104.518547,42.424891],[-104.518669,42.421259],[-104.523612,42.421271],[-104.528555,42.421284],[-104.533461,42.421314],[-104.538367,42.421343],[-104.53826,42.425028],[-104.538153,42.428713],[-104.538093,42.432366],[-104.538035,42.435941],[-104.537815,42.435943],[-104.533102,42.435863],[-104.53287,42.435862],[-104.52817,42.435783],[-104.527925,42.435782],[-104.523238,42.435703]]]}},{"type":"Feature","properties":{"sec":"05","frstdivid":"WY060280N0640W0SN050"},"geometry":{"type":"Polygon","coordinates":[[[-104.577047,42.435663],[-104.576888,42.435663],[-104.572164,42.435658],[-104.572004,42.435658],[-104.567281,42.435654],[-104.567121,42.435654],[-104.562397,42.43565],[-104.562237,42.43565],[-104.557514,42.435645],[-104.557555,42.432088],[-104.557597,42.428466],[-104.557681,42.424843],[-104.557766,42.42122],[-104.562554,42.42121],[-104.567341,42.4212],[-104.572129,42.42119],[-104.576917,42.42118],[-104.57696,42.424815],[-104.577003,42.428449],[-104.577026,42.432077],[-104.577047,42.435663]]]}},{"type":"Feature","properties":{"sec":"04","frstdivid":"WY060280N0640W0SN040"},"geometry":{"type":"Polygon","coordinates":[[[-104.557597,42.428466],[-104.557555,42.432088],[-104.557514,42.435645],[-104.557353,42.435645],[-104.552644,42.43572],[-104.552468,42.43572],[-104.547774,42.435794],[-104.547584,42.435794],[-104.542905,42.435868],[-104.542699,42.435868],[-104.538035,42.435941],[-104.538093,42.432366],[-104.538153,42.428713],[-104.53826,42.425028],[-104.538367,42.421343],[-104.543216,42.421312],[-104.548066,42.421281],[-104.552916,42.421251],[-104.557766,42.42122],[-104.557681,42.424843],[-104.557597,42.428466]]]}},{"type":"Feature","properties":{"sec":"01","frstdivid":"WY060280N0640W0SN010"},"geometry":{"type":"Polygon","coordinates":[[[-104.498609,42.428601],[-104.498581,42.432227],[-104.498554,42.435723],[-104.498249,42.435724],[-104.493611,42.435815],[-104.493302,42.435815],[-104.488668,42.435906],[-104.488356,42.435907],[-104.483725,42.435997],[-104.48341,42.435998],[-104.478783,42.436089],[-104.4788,42.432566],[-104.478809,42.430963],[-104.47882,42.428876],[-104.478828,42.427342],[-104.478836,42.425252],[-104.478842,42.423721],[-104.478849,42.421628],[-104.483817,42.421557],[-104.488784,42.421485],[-104.493752,42.421413],[-104.498719,42.421342],[-104.498664,42.424971],[-104.498609,42.428601]]]}},{"type":"Feature","properties":{"sec":"02","frstdivid":"WY060280N0640W0SN020"},"geometry":{"type":"Polygon","coordinates":[[[-104.518306,42.435623],[-104.518037,42.435623],[-104.513368,42.435648],[-104.513089,42.435649],[-104.50843,42.435673],[-104.508142,42.435674],[-104.503492,42.435698],[-104.503195,42.435698],[-104.498554,42.435723],[-104.498581,42.432227],[-104.498609,42.428601],[-104.498664,42.424971],[-104.498719,42.421342],[-104.503707,42.421321],[-104.508694,42.4213],[-104.513681,42.421279],[-104.518669,42.421259],[-104.518547,42.424891],[-104.518426,42.428523],[-104.518363,42.432149],[-104.518306,42.435623]]]}}]}