{"type":"FeatureCollection","note":"BLM Public Land Survey System. Provided by the Bureau of Land Management as is. These data are neither legal documents nor land surveys and must not be used as such.","features":[{"type":"Feature","properties":{"sec":"30","frstdivid":"MT200070N0350E0SN300"},"geometry":{"type":"Polygon","coordinates":[[[-107.383127,46.329839],[-107.383125,46.326219],[-107.383122,46.322599],[-107.388366,46.322593],[-107.39361,46.322586],[-107.398844,46.322581],[-107.403685,46.322577],[-107.403686,46.326202],[-107.403686,46.329827],[-107.403687,46.333451],[-107.403687,46.337076],[-107.398816,46.337075],[-107.393589,46.337074],[-107.38836,46.337077],[-107.383131,46.337079],[-107.383129,46.333459],[-107.383127,46.329839]]]}},{"type":"Feature","properties":{"sec":"18","frstdivid":"MT200070N0350E0SN180"},"geometry":{"type":"Polygon","coordinates":[[[-107.403714,46.362459],[-107.403716,46.366086],[-107.39885,46.366083],[-107.393623,46.366079],[-107.388396,46.366076],[-107.38317,46.366074],[-107.383166,46.362448],[-107.383163,46.358821],[-107.38316,46.355195],[-107.383156,46.351569],[-107.388386,46.351571],[-107.393616,46.351574],[-107.398844,46.351576],[-107.403706,46.351579],[-107.403709,46.355205],[-107.403711,46.358832],[-107.403714,46.362459]]]}},{"type":"Feature","properties":{"sec":"31","frstdivid":"MT200070N0350E0SN310"},"geometry":{"type":"Polygon","coordinates":[[[-107.38313,46.318987],[-107.383137,46.315374],[-107.383138,46.311738],[-107.38314,46.308102],[-107.388377,46.308142],[-107.393615,46.308181],[-107.398845,46.308201],[-107.403677,46.308217],[-107.403679,46.311807],[-107.403681,46.315397],[-107.403683,46.318987],[-107.403685,46.322577],[-107.398844,46.322581],[-107.39361,46.322586],[-107.388366,46.322593],[-107.383122,46.322599],[-107.38313,46.318987]]]}},{"type":"Feature","properties":{"sec":"19","frstdivid":"MT200070N0350E0SN190"},"geometry":{"type":"Polygon","coordinates":[[[-107.383138,46.340702],[-107.383131,46.337079],[-107.38836,46.337077],[-107.393589,46.337074],[-107.398816,46.337075],[-107.403687,46.337076],[-107.403692,46.340702],[-107.403697,46.344327],[-107.403701,46.347953],[-107.403706,46.351579],[-107.398844,46.351576],[-107.393616,46.351574],[-107.388386,46.351571],[-107.383156,46.351569],[-107.38315,46.347947],[-107.383144,46.344324],[-107.383138,46.340702]]]}},{"type":"Feature","properties":{"sec":"07","frstdivid":"MT200070N0350E0SN070"},"geometry":{"type":"Polygon","coordinates":[[[-107.38317,46.366074],[-107.388396,46.366076],[-107.393623,46.366079],[-107.39885,46.366083],[-107.403716,46.366086],[-107.403715,46.369713],[-107.403715,46.37334],[-107.403714,46.376967],[-107.403713,46.380593],[-107.398802,46.380588],[-107.393579,46.380583],[-107.38836,46.38058],[-107.383142,46.380577],[-107.383149,46.376951],[-107.383156,46.373326],[-107.383163,46.3697],[-107.38317,46.366074]]]}},{"type":"Feature","properties":{"sec":"06","frstdivid":"MT200070N0350E0SN060"},"geometry":{"type":"Polygon","coordinates":[[[-107.383328,46.387826],[-107.383235,46.384202],[-107.383142,46.380577],[-107.38836,46.38058],[-107.393579,46.380583],[-107.398802,46.380588],[-107.403713,46.380593],[-107.40371,46.384224],[-107.403708,46.387854],[-107.403706,46.391479],[-107.403705,46.395103],[-107.399237,46.395101],[-107.394001,46.395099],[-107.388761,46.3951],[-107.38352,46.395101],[-107.383424,46.391447],[-107.383328,46.387826]]]}},{"type":"Feature","properties":{"sec":"33","frstdivid":"MT200070N0350E0SN330"},"geometry":{"type":"Polygon","coordinates":[[[-107.341217,46.308139],[-107.346457,46.308134],[-107.351696,46.308129],[-107.356936,46.308124],[-107.362176,46.308119],[-107.36216,46.311738],[-107.362143,46.315357],[-107.362127,46.318976],[-107.362111,46.322596],[-107.3569,46.322604],[-107.351689,46.322612],[-107.346477,46.32262],[-107.341266,46.322628],[-107.341254,46.319006],[-107.341242,46.315384],[-107.341229,46.311761],[-107.341217,46.308139]]]}},{"type":"Feature","properties":{"sec":"34","frstdivid":"MT200070N0350E0SN340"},"geometry":{"type":"Polygon","coordinates":[[[-107.320332,46.308127],[-107.325553,46.30813],[-107.330774,46.308133],[-107.335996,46.308136],[-107.341217,46.308139],[-107.341229,46.311761],[-107.341242,46.315384],[-107.341254,46.319006],[-107.341266,46.322628],[-107.336028,46.322624],[-107.33079,46.322619],[-107.325552,46.322615],[-107.320313,46.32261],[-107.32032,46.318989],[-107.320327,46.315369],[-107.320329,46.311748],[-107.320332,46.308127]]]}},{"type":"Feature","properties":{"sec":"35","frstdivid":"MT200070N0350E0SN350"},"geometry":{"type":"Polygon","coordinates":[[[-107.299421,46.315361],[-107.299414,46.31174],[-107.299407,46.308118],[-107.304638,46.30812],[-107.309869,46.308122],[-107.315101,46.308125],[-107.320332,46.308127],[-107.320329,46.311748],[-107.320327,46.315369],[-107.32032,46.318989],[-107.320313,46.32261],[-107.315092,46.322611],[-107.309871,46.322612],[-107.30465,46.322613],[-107.299428,46.322614],[-107.299425,46.318987],[-107.299421,46.315361]]]}},{"type":"Feature","properties":{"sec":"32","frstdivid":"MT200070N0350E0SN320"},"geometry":{"type":"Polygon","coordinates":[[[-107.362143,46.315357],[-107.36216,46.311738],[-107.362176,46.308119],[-107.367417,46.308115],[-107.372658,46.30811],[-107.377899,46.308106],[-107.38314,46.308102],[-107.383138,46.311738],[-107.383137,46.315374],[-107.38313,46.318987],[-107.383122,46.322599],[-107.377869,46.322598],[-107.372617,46.322598],[-107.367364,46.322597],[-107.362111,46.322596],[-107.362127,46.318976],[-107.362143,46.315357]]]}},{"type":"Feature","properties":{"sec":"36","frstdivid":"MT200070N0350E0SN360"},"geometry":{"type":"Polygon","coordinates":[[[-107.278517,46.308122],[-107.283732,46.308123],[-107.288947,46.308124],[-107.294177,46.308121],[-107.299407,46.308118],[-107.299414,46.31174],[-107.299421,46.315361],[-107.299425,46.318987],[-107.299428,46.322614],[-107.294208,46.322603],[-107.288987,46.322593],[-107.283767,46.322583],[-107.278546,46.322573],[-107.278541,46.318962],[-107.278536,46.315351],[-107.278526,46.311737],[-107.278517,46.308122]]]}},{"type":"Feature","properties":{"sec":"12","frstdivid":"MT200070N0350E0SN120"},"geometry":{"type":"Polygon","coordinates":[[[-107.299495,46.373301],[-107.299501,46.376916],[-107.299507,46.380531],[-107.294326,46.38054],[-107.289146,46.380548],[-107.283966,46.380557],[-107.278785,46.380565],[-107.278769,46.37694],[-107.278754,46.373315],[-107.278738,46.36969],[-107.278722,46.366065],[-107.283912,46.366067],[-107.289103,46.366068],[-107.294293,46.36607],[-107.299484,46.366071],[-107.29949,46.369686],[-107.299495,46.373301]]]}},{"type":"Feature","properties":{"sec":"11","frstdivid":"MT200070N0350E0SN110"},"geometry":{"type":"Polygon","coordinates":[[[-107.299495,46.373301],[-107.29949,46.369686],[-107.299484,46.366071],[-107.304707,46.366081],[-107.30993,46.366091],[-107.315153,46.366101],[-107.320376,46.36611],[-107.320417,46.369744],[-107.320457,46.373377],[-107.320497,46.37701],[-107.320538,46.380643],[-107.31528,46.380615],[-107.310022,46.380587],[-107.304765,46.380559],[-107.299507,46.380531],[-107.299501,46.376916],[-107.299495,46.373301]]]}},{"type":"Feature","properties":{"sec":"01","frstdivid":"MT200070N0350E0SN010"},"geometry":{"type":"Polygon","coordinates":[[[-107.27872,46.387845],[-107.278753,46.384205],[-107.278785,46.380565],[-107.283966,46.380557],[-107.289146,46.380548],[-107.294326,46.38054],[-107.299507,46.380531],[-107.299544,46.384172],[-107.299582,46.387812],[-107.299614,46.391442],[-107.299647,46.395101],[-107.294407,46.395102],[-107.289167,46.395103],[-107.283928,46.395104],[-107.278688,46.395105],[-107.278704,46.391475],[-107.27872,46.387845]]]}},{"type":"Feature","properties":{"sec":"23","frstdivid":"MT200070N0350E0SN230"},"geometry":{"type":"Polygon","coordinates":[[[-107.320291,46.351579],[-107.315074,46.351583],[-107.309856,46.351586],[-107.304657,46.35159],[-107.299457,46.351594],[-107.299455,46.347968],[-107.299452,46.344342],[-107.29945,46.340716],[-107.299448,46.33709],[-107.304655,46.337086],[-107.309862,46.337083],[-107.315069,46.33708],[-107.320276,46.337077],[-107.32028,46.340702],[-107.320283,46.344328],[-107.320287,46.347953],[-107.320291,46.351579]]]}},{"type":"Feature","properties":{"sec":"25","frstdivid":"MT200070N0350E0SN250"},"geometry":{"type":"Polygon","coordinates":[[[-107.278546,46.322573],[-107.283767,46.322583],[-107.288987,46.322593],[-107.294208,46.322603],[-107.299428,46.322614],[-107.299433,46.326233],[-107.299438,46.329851],[-107.299443,46.333471],[-107.299448,46.33709],[-107.294238,46.337086],[-107.289028,46.337082],[-107.283818,46.337078],[-107.278608,46.337074],[-107.278592,46.333447],[-107.278577,46.329819],[-107.278561,46.326196],[-107.278546,46.322573]]]}},{"type":"Feature","properties":{"sec":"17","frstdivid":"MT200070N0350E0SN170"},"geometry":{"type":"Polygon","coordinates":[[[-107.362089,46.351585],[-107.367356,46.351581],[-107.372623,46.351577],[-107.37789,46.351573],[-107.383156,46.351569],[-107.38316,46.355195],[-107.383163,46.358821],[-107.383166,46.362448],[-107.38317,46.366074],[-107.377944,46.366077],[-107.372718,46.36608],[-107.367491,46.366083],[-107.362265,46.366086],[-107.362221,46.362461],[-107.362177,46.358836],[-107.362133,46.355211],[-107.362089,46.351585]]]}},{"type":"Feature","properties":{"sec":"27","frstdivid":"MT200070N0350E0SN270"},"geometry":{"type":"Polygon","coordinates":[[[-107.341313,46.329859],[-107.341336,46.333475],[-107.341359,46.33709],[-107.336026,46.337077],[-107.330692,46.337064],[-107.325484,46.337071],[-107.320276,46.337077],[-107.320285,46.33346],[-107.320295,46.329844],[-107.320304,46.326227],[-107.320313,46.32261],[-107.325552,46.322615],[-107.33079,46.322619],[-107.336028,46.322624],[-107.341266,46.322628],[-107.34129,46.326244],[-107.341313,46.329859]]]}},{"type":"Feature","properties":{"sec":"10","frstdivid":"MT200070N0350E0SN100"},"geometry":{"type":"Polygon","coordinates":[[[-107.320417,46.369744],[-107.320376,46.36611],[-107.325656,46.366111],[-107.330937,46.366111],[-107.336217,46.366111],[-107.341498,46.366111],[-107.341535,46.369734],[-107.341573,46.373358],[-107.341611,46.376982],[-107.341649,46.380605],[-107.336371,46.380615],[-107.331093,46.380624],[-107.325816,46.380634],[-107.320538,46.380643],[-107.320497,46.37701],[-107.320457,46.373377],[-107.320417,46.369744]]]}},{"type":"Feature","properties":{"sec":"09","frstdivid":"MT200070N0350E0SN090"},"geometry":{"type":"Polygon","coordinates":[[[-107.341498,46.366111],[-107.346689,46.366105],[-107.351881,46.366099],[-107.357073,46.366092],[-107.362265,46.366086],[-107.362282,46.369712],[-107.362298,46.373337],[-107.362314,46.376962],[-107.36233,46.380587],[-107.35716,46.380592],[-107.351989,46.380596],[-107.346819,46.380601],[-107.341649,46.380605],[-107.341611,46.376982],[-107.341573,46.373358],[-107.341535,46.369734],[-107.341498,46.366111]]]}},{"type":"Feature","properties":{"sec":"24","frstdivid":"MT200070N0350E0SN240"},"geometry":{"type":"Polygon","coordinates":[[[-107.278608,46.337074],[-107.283818,46.337078],[-107.289028,46.337082],[-107.294238,46.337086],[-107.299448,46.33709],[-107.29945,46.340716],[-107.299452,46.344342],[-107.299455,46.347968],[-107.299457,46.351594],[-107.294258,46.351588],[-107.289058,46.351582],[-107.283859,46.351575],[-107.27866,46.351569],[-107.278647,46.347945],[-107.278634,46.344322],[-107.278621,46.340698],[-107.278608,46.337074]]]}},{"type":"Feature","properties":{"sec":"13","frstdivid":"MT200070N0350E0SN130"},"geometry":{"type":"Polygon","coordinates":[[[-107.27866,46.351569],[-107.283859,46.351575],[-107.289058,46.351582],[-107.294258,46.351588],[-107.299457,46.351594],[-107.299464,46.355213],[-107.29947,46.358833],[-107.299477,46.362452],[-107.299484,46.366071],[-107.294293,46.36607],[-107.289103,46.366068],[-107.283912,46.366067],[-107.278722,46.366065],[-107.278706,46.362441],[-107.278691,46.358817],[-107.278676,46.355193],[-107.27866,46.351569]]]}},{"type":"Feature","properties":{"sec":"29","frstdivid":"MT200070N0350E0SN290"},"geometry":{"type":"Polygon","coordinates":[[[-107.383127,46.329839],[-107.383129,46.333459],[-107.383131,46.337079],[-107.377868,46.337089],[-107.372605,46.337099],[-107.367342,46.337109],[-107.362078,46.337119],[-107.362087,46.333488],[-107.362095,46.329857],[-107.362103,46.326226],[-107.362111,46.322596],[-107.367364,46.322597],[-107.372617,46.322598],[-107.377869,46.322598],[-107.383122,46.322599],[-107.383125,46.326219],[-107.383127,46.329839]]]}},{"type":"Feature","properties":{"sec":"21","frstdivid":"MT200070N0350E0SN210"},"geometry":{"type":"Polygon","coordinates":[[[-107.341359,46.33709],[-107.346539,46.337097],[-107.351719,46.337104],[-107.356899,46.337112],[-107.362078,46.337119],[-107.362081,46.340735],[-107.362084,46.344352],[-107.362087,46.347969],[-107.362089,46.351585],[-107.356902,46.351594],[-107.351715,46.351602],[-107.346527,46.35161],[-107.34134,46.351619],[-107.341345,46.347986],[-107.34135,46.344354],[-107.341355,46.340722],[-107.341359,46.33709]]]}},{"type":"Feature","properties":{"sec":"28","frstdivid":"MT200070N0350E0SN280"},"geometry":{"type":"Polygon","coordinates":[[[-107.341313,46.329859],[-107.34129,46.326244],[-107.341266,46.322628],[-107.346477,46.32262],[-107.351689,46.322612],[-107.3569,46.322604],[-107.362111,46.322596],[-107.362103,46.326226],[-107.362095,46.329857],[-107.362087,46.333488],[-107.362078,46.337119],[-107.356899,46.337112],[-107.351719,46.337104],[-107.346539,46.337097],[-107.341359,46.33709],[-107.341336,46.333475],[-107.341313,46.329859]]]}},{"type":"Feature","properties":{"sec":"15","frstdivid":"MT200070N0350E0SN150"},"geometry":{"type":"Polygon","coordinates":[[[-107.320334,46.358845],[-107.320312,46.355212],[-107.320291,46.351579],[-107.325515,46.351589],[-107.330739,46.351599],[-107.33604,46.351609],[-107.34134,46.351619],[-107.34138,46.355242],[-107.341419,46.358865],[-107.341458,46.362488],[-107.341498,46.366111],[-107.336217,46.366111],[-107.330937,46.366111],[-107.325656,46.366111],[-107.320376,46.36611],[-107.320355,46.362478],[-107.320334,46.358845]]]}},{"type":"Feature","properties":{"sec":"22","frstdivid":"MT200070N0350E0SN220"},"geometry":{"type":"Polygon","coordinates":[[[-107.320283,46.344328],[-107.32028,46.340702],[-107.320276,46.337077],[-107.325484,46.337071],[-107.330692,46.337064],[-107.336026,46.337077],[-107.341359,46.33709],[-107.341355,46.340722],[-107.34135,46.344354],[-107.341345,46.347986],[-107.34134,46.351619],[-107.33604,46.351609],[-107.330739,46.351599],[-107.325515,46.351589],[-107.320291,46.351579],[-107.320287,46.347953],[-107.320283,46.344328]]]}},{"type":"Feature","properties":{"sec":"26","frstdivid":"MT200070N0350E0SN260"},"geometry":{"type":"Polygon","coordinates":[[[-107.299428,46.322614],[-107.30465,46.322613],[-107.309871,46.322612],[-107.315092,46.322611],[-107.320313,46.32261],[-107.320304,46.326227],[-107.320295,46.329844],[-107.320285,46.33346],[-107.320276,46.337077],[-107.315069,46.33708],[-107.309862,46.337083],[-107.304655,46.337086],[-107.299448,46.33709],[-107.299443,46.333471],[-107.299438,46.329851],[-107.299433,46.326233],[-107.299428,46.322614]]]}},{"type":"Feature","properties":{"sec":"02","frstdivid":"MT200070N0350E0SN020"},"geometry":{"type":"Polygon","coordinates":[[[-107.299507,46.380531],[-107.304765,46.380559],[-107.310022,46.380587],[-107.31528,46.380615],[-107.320538,46.380643],[-107.320556,46.384276],[-107.320574,46.387908],[-107.320591,46.39154],[-107.320609,46.395135],[-107.315368,46.395127],[-107.310128,46.395118],[-107.304887,46.39511],[-107.299647,46.395101],[-107.299614,46.391442],[-107.299582,46.387812],[-107.299544,46.384172],[-107.299507,46.380531]]]}},{"type":"Feature","properties":{"sec":"16","frstdivid":"MT200070N0350E0SN160"},"geometry":{"type":"Polygon","coordinates":[[[-107.341458,46.362488],[-107.341419,46.358865],[-107.34138,46.355242],[-107.34134,46.351619],[-107.346527,46.35161],[-107.351715,46.351602],[-107.356902,46.351594],[-107.362089,46.351585],[-107.362133,46.355211],[-107.362177,46.358836],[-107.362221,46.362461],[-107.362265,46.366086],[-107.357073,46.366092],[-107.351881,46.366099],[-107.346689,46.366105],[-107.341498,46.366111],[-107.341458,46.362488]]]}},{"type":"Feature","properties":{"sec":"03","frstdivid":"MT200070N0350E0SN030"},"geometry":{"type":"Polygon","coordinates":[[[-107.320538,46.380643],[-107.325816,46.380634],[-107.331093,46.380624],[-107.336371,46.380615],[-107.341649,46.380605],[-107.341636,46.384227],[-107.341624,46.38785],[-107.34161,46.391472],[-107.341596,46.395112],[-107.336349,46.395118],[-107.331102,46.395124],[-107.325855,46.39513],[-107.320609,46.395135],[-107.320591,46.39154],[-107.320574,46.387908],[-107.320556,46.384276],[-107.320538,46.380643]]]}},{"type":"Feature","properties":{"sec":"08","frstdivid":"MT200070N0350E0SN080"},"geometry":{"type":"Polygon","coordinates":[[[-107.362298,46.373337],[-107.362282,46.369712],[-107.362265,46.366086],[-107.367491,46.366083],[-107.372718,46.36608],[-107.377944,46.366077],[-107.38317,46.366074],[-107.383163,46.3697],[-107.383156,46.373326],[-107.383149,46.376951],[-107.383142,46.380577],[-107.377939,46.38058],[-107.372736,46.380582],[-107.367533,46.380585],[-107.36233,46.380587],[-107.362314,46.376962],[-107.362298,46.373337]]]}},{"type":"Feature","properties":{"sec":"14","frstdivid":"MT200070N0350E0SN140"},"geometry":{"type":"Polygon","coordinates":[[[-107.320334,46.358845],[-107.320355,46.362478],[-107.320376,46.36611],[-107.315153,46.366101],[-107.30993,46.366091],[-107.304707,46.366081],[-107.299484,46.366071],[-107.299477,46.362452],[-107.29947,46.358833],[-107.299464,46.355213],[-107.299457,46.351594],[-107.304657,46.35159],[-107.309856,46.351586],[-107.315074,46.351583],[-107.320291,46.351579],[-107.320312,46.355212],[-107.320334,46.358845]]]}},{"type":"Feature","properties":{"sec":"20","frstdivid":"MT200070N0350E0SN200"},"geometry":{"type":"Polygon","coordinates":[[[-107.367342,46.337109],[-107.372605,46.337099],[-107.377868,46.337089],[-107.383131,46.337079],[-107.383138,46.340702],[-107.383144,46.344324],[-107.38315,46.347947],[-107.383156,46.351569],[-107.37789,46.351573],[-107.372623,46.351577],[-107.367356,46.351581],[-107.362089,46.351585],[-107.362087,46.347969],[-107.362084,46.344352],[-107.362081,46.340735],[-107.362078,46.337119],[-107.367342,46.337109]]]}},{"type":"Feature","properties":{"sec":"05","frstdivid":"MT200070N0350E0SN050"},"geometry":{"type":"Polygon","coordinates":[[[-107.362513,46.395108],[-107.362467,46.391467],[-107.362422,46.387843],[-107.362376,46.384215],[-107.36233,46.380587],[-107.367533,46.380585],[-107.372736,46.380582],[-107.377939,46.38058],[-107.383142,46.380577],[-107.383235,46.384202],[-107.383328,46.387826],[-107.383424,46.391447],[-107.38352,46.395101],[-107.378269,46.395103],[-107.373017,46.395105],[-107.367765,46.395106],[-107.362513,46.395108]]]}},{"type":"Feature","properties":{"sec":"04","frstdivid":"MT200070N0350E0SN040"},"geometry":{"type":"Polygon","coordinates":[[[-107.341636,46.384227],[-107.341649,46.380605],[-107.346819,46.380601],[-107.351989,46.380596],[-107.35716,46.380592],[-107.36233,46.380587],[-107.362376,46.384215],[-107.362422,46.387843],[-107.362467,46.391467],[-107.362513,46.395108],[-107.357284,46.395109],[-107.352055,46.39511],[-107.346825,46.395111],[-107.341596,46.395112],[-107.34161,46.391472],[-107.341624,46.38785],[-107.341636,46.384227]]]}}]}