{"type":"FeatureCollection","note":"BLM Public Land Survey System. Provided by the Bureau of Land Management as is. These data are neither legal documents nor land surveys and must not be used as such.","features":[{"type":"Feature","properties":{"sec":"34","frstdivid":"WY060560N0720W0SN340"},"geometry":{"type":"Polygon","coordinates":[[[-105.494068,44.801151],[-105.494066,44.800246],[-105.494058,44.797531],[-105.494056,44.796626],[-105.494033,44.793911],[-105.493997,44.790292],[-105.493993,44.789521],[-105.493977,44.786672],[-105.493973,44.785901],[-105.498346,44.785845],[-105.499055,44.785836],[-105.503349,44.78578],[-105.504137,44.78577],[-105.508352,44.785715],[-105.509218,44.785704],[-105.513355,44.78565],[-105.5143,44.785652],[-105.514306,44.78668],[-105.51433,44.790299],[-105.514354,44.793919],[-105.51438,44.797538],[-105.514406,44.801158],[-105.513389,44.801158],[-105.509322,44.801156],[-105.504237,44.801154],[-105.499153,44.801153],[-105.494068,44.801151]]]}},{"type":"Feature","properties":{"sec":"22","frstdivid":"WY060560N0720W0SN220"},"geometry":{"type":"Polygon","coordinates":[[[-105.509348,44.815634],[-105.514434,44.815636],[-105.514441,44.819255],[-105.514446,44.82197],[-105.514448,44.822875],[-105.514464,44.826495],[-105.514476,44.829209],[-105.514475,44.830114],[-105.513462,44.830114],[-105.50939,44.830112],[-105.504305,44.83011],[-105.49922,44.830108],[-105.494135,44.830106],[-105.494125,44.826487],[-105.494114,44.822868],[-105.494104,44.819248],[-105.494094,44.815629],[-105.498161,44.81563],[-105.499178,44.81563],[-105.503246,44.815631],[-105.504263,44.815632],[-105.509348,44.815634]]]}},{"type":"Feature","properties":{"sec":"04","frstdivid":"WY060560N0720W0SN040"},"geometry":{"type":"Polygon","coordinates":[[[-105.524708,44.880646],[-105.522372,44.880647],[-105.520671,44.880647],[-105.519627,44.880648],[-105.51728,44.880648],[-105.515584,44.880648],[-105.514546,44.880648],[-105.514541,44.877166],[-105.514537,44.873547],[-105.514532,44.869928],[-105.514527,44.866308],[-105.514521,44.862689],[-105.514515,44.85907],[-105.519604,44.859073],[-105.524693,44.859076],[-105.529782,44.859079],[-105.534871,44.859082],[-105.534868,44.862702],[-105.534866,44.866322],[-105.534867,44.869941],[-105.534868,44.873561],[-105.534869,44.877181],[-105.53487,44.880643],[-105.532556,44.880644],[-105.530848,44.880645],[-105.529789,44.880645],[-105.527464,44.880645],[-105.525758,44.880646],[-105.524708,44.880646]]]}},{"type":"Feature","properties":{"sec":"32","frstdivid":"WY060560N0720W0SN320"},"geometry":{"type":"Polygon","coordinates":[[[-105.55501,44.790309],[-105.555035,44.793928],[-105.555054,44.797548],[-105.555073,44.801168],[-105.54999,44.801167],[-105.544908,44.801165],[-105.539826,44.801164],[-105.534743,44.801162],[-105.534717,44.797542],[-105.534691,44.793922],[-105.534665,44.790302],[-105.534639,44.786683],[-105.534632,44.785713],[-105.539109,44.785721],[-105.539557,44.785721],[-105.544246,44.78573],[-105.544482,44.78573],[-105.549328,44.785721],[-105.54973,44.785721],[-105.554409,44.785713],[-105.554979,44.785714],[-105.554986,44.786689],[-105.55501,44.790309]]]}},{"type":"Feature","properties":{"sec":"25","frstdivid":"WY060560N0720W0SN250"},"geometry":{"type":"Polygon","coordinates":[[[-105.473731,44.801149],[-105.473736,44.803864],[-105.473736,44.804769],[-105.473739,44.808388],[-105.47374,44.811103],[-105.473739,44.812008],[-105.473732,44.815628],[-105.468648,44.815629],[-105.463564,44.81563],[-105.45848,44.815632],[-105.453396,44.815633],[-105.453392,44.812013],[-105.453389,44.808393],[-105.453387,44.804774],[-105.453386,44.801154],[-105.458472,44.801153],[-105.463558,44.801151],[-105.468645,44.80115],[-105.473731,44.801149]]]}},{"type":"Feature","properties":{"sec":"07","frstdivid":"WY060560N0720W0SN070"},"geometry":{"type":"Polygon","coordinates":[[[-105.574597,44.848232],[-105.574598,44.848813],[-105.574598,44.849057],[-105.574603,44.851852],[-105.574603,44.852453],[-105.574603,44.852575],[-105.574609,44.855473],[-105.574609,44.856092],[-105.574609,44.859094],[-105.570461,44.859093],[-105.565372,44.859091],[-105.560282,44.859088],[-105.555193,44.859086],[-105.55518,44.855466],[-105.555167,44.851846],[-105.555157,44.848226],[-105.555155,44.847321],[-105.555147,44.844607],[-105.560234,44.84461],[-105.565322,44.844614],[-105.57041,44.844613],[-105.574597,44.844611],[-105.574597,44.845174],[-105.574597,44.84554],[-105.574597,44.847339],[-105.574597,44.848232]]]}},{"type":"Feature","properties":{"sec":"36","frstdivid":"WY060560N0720W0SN360"},"geometry":{"type":"Polygon","coordinates":[[[-105.463558,44.801151],[-105.458472,44.801153],[-105.453386,44.801154],[-105.453391,44.797534],[-105.453395,44.793915],[-105.453398,44.790295],[-105.4534,44.786676],[-105.453401,44.786404],[-105.458381,44.78635],[-105.458456,44.786349],[-105.46336,44.786295],[-105.46351,44.786293],[-105.468357,44.786226],[-105.468589,44.786222],[-105.473354,44.786156],[-105.473669,44.786152],[-105.473672,44.786668],[-105.473689,44.789773],[-105.473691,44.790289],[-105.473705,44.793909],[-105.473718,44.797529],[-105.473731,44.801149],[-105.468645,44.80115],[-105.463558,44.801151]]]}},{"type":"Feature","properties":{"sec":"33","frstdivid":"WY060560N0720W0SN330"},"geometry":{"type":"Polygon","coordinates":[[[-105.534743,44.801162],[-105.533727,44.801162],[-105.529659,44.801162],[-105.528643,44.801162],[-105.524575,44.801161],[-105.519491,44.801159],[-105.514406,44.801158],[-105.51438,44.797538],[-105.514354,44.793919],[-105.51433,44.790299],[-105.514306,44.78668],[-105.5143,44.785652],[-105.518509,44.785665],[-105.519383,44.785667],[-105.523663,44.78568],[-105.524466,44.785683],[-105.528817,44.785696],[-105.529549,44.785698],[-105.533972,44.785711],[-105.534632,44.785713],[-105.534639,44.786683],[-105.534665,44.790302],[-105.534691,44.793922],[-105.534717,44.797542],[-105.534743,44.801162]]]}},{"type":"Feature","properties":{"sec":"09","frstdivid":"WY060560N0720W0SN090"},"geometry":{"type":"Polygon","coordinates":[[[-105.534854,44.844602],[-105.534858,44.848222],[-105.534862,44.851842],[-105.534866,44.855462],[-105.534871,44.859082],[-105.529782,44.859079],[-105.524693,44.859076],[-105.519604,44.859073],[-105.514515,44.85907],[-105.51451,44.85545],[-105.514505,44.851831],[-105.5145,44.848211],[-105.514495,44.844592],[-105.519584,44.844594],[-105.524674,44.844597],[-105.529764,44.844599],[-105.534854,44.844602]]]}},{"type":"Feature","properties":{"sec":"18","frstdivid":"WY060560N0720W0SN180"},"geometry":{"type":"Polygon","coordinates":[[[-105.574594,44.838506],[-105.574593,44.840099],[-105.574594,44.840991],[-105.574595,44.841534],[-105.574595,44.842023],[-105.574597,44.844611],[-105.57041,44.844613],[-105.565322,44.844614],[-105.560234,44.84461],[-105.555147,44.844607],[-105.555146,44.843702],[-105.555142,44.840987],[-105.555141,44.840082],[-105.555136,44.837367],[-105.555134,44.836462],[-105.555126,44.833747],[-105.555116,44.830127],[-105.560203,44.830129],[-105.565289,44.830131],[-105.570375,44.830131],[-105.574597,44.830131],[-105.574597,44.83058],[-105.574596,44.831472],[-105.574596,44.833751],[-105.574596,44.834232],[-105.574596,44.834989],[-105.574594,44.837371],[-105.574594,44.837883],[-105.574594,44.838506]]]}},{"type":"Feature","properties":{"sec":"05","frstdivid":"WY060560N0720W0SN050"},"geometry":{"type":"Polygon","coordinates":[[[-105.555193,44.859086],[-105.555201,44.862705],[-105.555208,44.866325],[-105.555215,44.869944],[-105.555222,44.873564],[-105.555229,44.877183],[-105.555235,44.880564],[-105.555235,44.880636],[-105.553117,44.880637],[-105.552924,44.880637],[-105.550144,44.880638],[-105.547832,44.880639],[-105.545053,44.88064],[-105.54274,44.880641],[-105.539962,44.880642],[-105.537648,44.880643],[-105.53487,44.880643],[-105.534869,44.877181],[-105.534868,44.873561],[-105.534867,44.869941],[-105.534866,44.866322],[-105.534868,44.862702],[-105.534871,44.859082],[-105.539951,44.859083],[-105.545032,44.859084],[-105.550112,44.859085],[-105.555193,44.859086]]]}},{"type":"Feature","properties":{"sec":"31","frstdivid":"WY060560N0720W0SN310"},"geometry":{"type":"Polygon","coordinates":[[[-105.565137,44.785733],[-105.569882,44.785744],[-105.570202,44.785744],[-105.574573,44.785754],[-105.574574,44.786691],[-105.574574,44.786762],[-105.574579,44.789271],[-105.57458,44.790311],[-105.57458,44.790382],[-105.574585,44.792715],[-105.574586,44.793931],[-105.574586,44.794002],[-105.57459,44.796304],[-105.574592,44.797551],[-105.574592,44.797622],[-105.574596,44.799821],[-105.574598,44.801171],[-105.57032,44.801171],[-105.565238,44.80117],[-105.560155,44.801169],[-105.555073,44.801168],[-105.555054,44.797548],[-105.555035,44.793928],[-105.55501,44.790309],[-105.554986,44.786689],[-105.554979,44.785714],[-105.55957,44.785723],[-105.560058,44.785723],[-105.56473,44.785733],[-105.565137,44.785733]]]}},{"type":"Feature","properties":{"sec":"35","frstdivid":"WY060560N0720W0SN350"},"geometry":{"type":"Polygon","coordinates":[[[-105.473731,44.801149],[-105.473718,44.797529],[-105.473705,44.793909],[-105.473691,44.790289],[-105.473689,44.789773],[-105.473672,44.786668],[-105.473669,44.786152],[-105.478343,44.78609],[-105.478351,44.78609],[-105.47873,44.786085],[-105.483332,44.786035],[-105.483792,44.786029],[-105.488337,44.785972],[-105.488882,44.785965],[-105.493343,44.785909],[-105.493973,44.785901],[-105.493977,44.786672],[-105.493993,44.789521],[-105.493997,44.790292],[-105.494033,44.793911],[-105.494056,44.796626],[-105.494058,44.797531],[-105.494066,44.800246],[-105.494068,44.801151],[-105.493051,44.801151],[-105.488984,44.801151],[-105.487967,44.801151],[-105.4839,44.80115],[-105.478815,44.80115],[-105.473731,44.801149]]]}},{"type":"Feature","properties":{"sec":"19","frstdivid":"WY060560N0720W0SN190"},"geometry":{"type":"Polygon","coordinates":[[[-105.574597,44.822891],[-105.574597,44.823273],[-105.574597,44.824439],[-105.574597,44.826511],[-105.574597,44.826929],[-105.574597,44.827955],[-105.574597,44.830131],[-105.570375,44.830131],[-105.565289,44.830131],[-105.560203,44.830129],[-105.555116,44.830127],[-105.555118,44.826506],[-105.555118,44.825544],[-105.555116,44.822886],[-105.555116,44.819267],[-105.555116,44.818319],[-105.555116,44.815647],[-105.560202,44.815648],[-105.565288,44.815648],[-105.570373,44.81565],[-105.574592,44.815651],[-105.574592,44.815959],[-105.574593,44.817405],[-105.574594,44.819271],[-105.574594,44.819616],[-105.574595,44.820922],[-105.574597,44.822891]]]}},{"type":"Feature","properties":{"sec":"30","frstdivid":"WY060560N0720W0SN300"},"geometry":{"type":"Polygon","coordinates":[[[-105.574595,44.810371],[-105.574594,44.812031],[-105.574594,44.812303],[-105.574593,44.813888],[-105.574592,44.815651],[-105.570373,44.81565],[-105.565288,44.815648],[-105.560202,44.815648],[-105.555116,44.815647],[-105.555114,44.814701],[-105.555106,44.812027],[-105.555095,44.808408],[-105.555084,44.804788],[-105.555073,44.801168],[-105.560155,44.801169],[-105.565238,44.80117],[-105.57032,44.801171],[-105.574598,44.801171],[-105.574598,44.801292],[-105.574597,44.803338],[-105.574597,44.804791],[-105.574597,44.804962],[-105.574596,44.806855],[-105.574596,44.808411],[-105.574596,44.808632],[-105.574595,44.810371]]]}},{"type":"Feature","properties":{"sec":"14","frstdivid":"WY060560N0720W0SN140"},"geometry":{"type":"Polygon","coordinates":[[[-105.473796,44.837351],[-105.473784,44.833731],[-105.473773,44.83011],[-105.478863,44.830109],[-105.483954,44.830108],[-105.489045,44.830107],[-105.494135,44.830106],[-105.494145,44.833725],[-105.494154,44.837345],[-105.494164,44.840964],[-105.494173,44.844583],[-105.489085,44.844586],[-105.483996,44.844588],[-105.478907,44.84459],[-105.473818,44.844593],[-105.473807,44.840972],[-105.473796,44.837351]]]}},{"type":"Feature","properties":{"sec":"20","frstdivid":"WY060560N0720W0SN200"},"geometry":{"type":"Polygon","coordinates":[[[-105.555116,44.822886],[-105.555118,44.825544],[-105.555118,44.826506],[-105.555116,44.830127],[-105.550044,44.830125],[-105.544971,44.830123],[-105.543981,44.830123],[-105.539898,44.830122],[-105.538895,44.830122],[-105.534826,44.830121],[-105.534824,44.829216],[-105.534815,44.826501],[-105.534802,44.822881],[-105.534788,44.819261],[-105.534774,44.815641],[-105.539859,44.815642],[-105.543927,44.815643],[-105.544944,44.815644],[-105.55003,44.815646],[-105.554099,44.815648],[-105.555116,44.815647],[-105.555116,44.818319],[-105.555116,44.819267],[-105.555116,44.822886]]]}},{"type":"Feature","properties":{"sec":"11","frstdivid":"WY060560N0720W0SN110"},"geometry":{"type":"Polygon","coordinates":[[[-105.483986,44.859068],[-105.478894,44.859072],[-105.473803,44.859075],[-105.473807,44.855455],[-105.473811,44.851834],[-105.473814,44.848213],[-105.473818,44.844593],[-105.478907,44.84459],[-105.483996,44.844588],[-105.489085,44.844586],[-105.494173,44.844583],[-105.494172,44.848203],[-105.494171,44.851822],[-105.49417,44.855442],[-105.494169,44.859061],[-105.489077,44.859064],[-105.483986,44.859068]]]}},{"type":"Feature","properties":{"sec":"26","frstdivid":"WY060560N0720W0SN260"},"geometry":{"type":"Polygon","coordinates":[[[-105.483913,44.815629],[-105.478823,44.815628],[-105.473732,44.815628],[-105.473739,44.812008],[-105.47374,44.811103],[-105.473739,44.808388],[-105.473736,44.804769],[-105.473736,44.803864],[-105.473731,44.801149],[-105.478815,44.80115],[-105.4839,44.80115],[-105.487967,44.801151],[-105.488984,44.801151],[-105.493051,44.801151],[-105.494068,44.801151],[-105.494074,44.80477],[-105.494078,44.807485],[-105.49408,44.80839],[-105.494086,44.811105],[-105.494087,44.81201],[-105.494092,44.814724],[-105.494094,44.815629],[-105.489003,44.815629],[-105.483913,44.815629]]]}},{"type":"Feature","properties":{"sec":"17","frstdivid":"WY060560N0720W0SN170"},"geometry":{"type":"Polygon","coordinates":[[[-105.555134,44.836462],[-105.555136,44.837367],[-105.555141,44.840082],[-105.555142,44.840987],[-105.555146,44.843702],[-105.555147,44.844607],[-105.550074,44.844606],[-105.549542,44.844606],[-105.545001,44.844606],[-105.539927,44.844604],[-105.534854,44.844602],[-105.534847,44.840982],[-105.53484,44.837361],[-105.534833,44.833741],[-105.534826,44.830121],[-105.538895,44.830122],[-105.539898,44.830122],[-105.543981,44.830123],[-105.544971,44.830123],[-105.550044,44.830125],[-105.555116,44.830127],[-105.555126,44.833747],[-105.555134,44.836462]]]}},{"type":"Feature","properties":{"sec":"16","frstdivid":"WY060560N0720W0SN160"},"geometry":{"type":"Polygon","coordinates":[[[-105.514494,44.843687],[-105.514485,44.837353],[-105.514475,44.830114],[-105.519563,44.830116],[-105.52465,44.830118],[-105.529738,44.83012],[-105.533806,44.830121],[-105.534826,44.830121],[-105.534833,44.833741],[-105.53484,44.837361],[-105.534847,44.840982],[-105.534854,44.844602],[-105.529764,44.844599],[-105.524674,44.844597],[-105.519584,44.844594],[-105.514495,44.844592],[-105.514494,44.843687]]]}},{"type":"Feature","properties":{"sec":"10","frstdivid":"WY060560N0720W0SN100"},"geometry":{"type":"Polygon","coordinates":[[[-105.504334,44.844588],[-105.509414,44.84459],[-105.514495,44.844592],[-105.5145,44.848211],[-105.514505,44.851831],[-105.51451,44.85545],[-105.514515,44.85907],[-105.509428,44.859067],[-105.504342,44.859065],[-105.499255,44.859063],[-105.494169,44.859061],[-105.49417,44.855442],[-105.494171,44.851822],[-105.494172,44.848203],[-105.494173,44.844583],[-105.499254,44.844586],[-105.504334,44.844588]]]}},{"type":"Feature","properties":{"sec":"21","frstdivid":"WY060560N0720W0SN210"},"geometry":{"type":"Polygon","coordinates":[[[-105.534824,44.829216],[-105.534826,44.830121],[-105.533806,44.830121],[-105.529738,44.83012],[-105.52465,44.830118],[-105.519563,44.830116],[-105.514475,44.830114],[-105.514476,44.829209],[-105.514464,44.826495],[-105.514448,44.822875],[-105.514446,44.82197],[-105.514441,44.819255],[-105.514434,44.815636],[-105.518502,44.815637],[-105.519519,44.815637],[-105.523587,44.815638],[-105.524604,44.815638],[-105.529689,44.81564],[-105.534774,44.815641],[-105.534788,44.819261],[-105.534802,44.822881],[-105.534815,44.826501],[-105.534824,44.829216]]]}},{"type":"Feature","properties":{"sec":"29","frstdivid":"WY060560N0720W0SN290"},"geometry":{"type":"Polygon","coordinates":[[[-105.544944,44.815644],[-105.543927,44.815643],[-105.539859,44.815642],[-105.534774,44.815641],[-105.534773,44.814736],[-105.534768,44.812021],[-105.534766,44.811116],[-105.53476,44.808402],[-105.534751,44.804782],[-105.534748,44.803877],[-105.534743,44.801162],[-105.539826,44.801164],[-105.544908,44.801165],[-105.54999,44.801167],[-105.555073,44.801168],[-105.555084,44.804788],[-105.555095,44.808408],[-105.555106,44.812027],[-105.555114,44.814701],[-105.555116,44.815647],[-105.554099,44.815648],[-105.55003,44.815646],[-105.544944,44.815644]]]}},{"type":"Feature","properties":{"sec":"23","frstdivid":"WY060560N0720W0SN230"},"geometry":{"type":"Polygon","coordinates":[[[-105.494114,44.822868],[-105.494125,44.826487],[-105.494135,44.830106],[-105.489045,44.830107],[-105.483954,44.830108],[-105.478863,44.830109],[-105.473773,44.83011],[-105.473763,44.826489],[-105.473753,44.822869],[-105.473742,44.819248],[-105.473732,44.815628],[-105.478823,44.815628],[-105.483913,44.815629],[-105.489003,44.815629],[-105.494094,44.815629],[-105.494104,44.819248],[-105.494114,44.822868]]]}},{"type":"Feature","properties":{"sec":"15","frstdivid":"WY060560N0720W0SN150"},"geometry":{"type":"Polygon","coordinates":[[[-105.514485,44.837353],[-105.514494,44.843687],[-105.514495,44.844592],[-105.509414,44.84459],[-105.504334,44.844588],[-105.499254,44.844586],[-105.494173,44.844583],[-105.494164,44.840964],[-105.494154,44.837345],[-105.494145,44.833725],[-105.494135,44.830106],[-105.49922,44.830108],[-105.504305,44.83011],[-105.50939,44.830112],[-105.513462,44.830114],[-105.514475,44.830114],[-105.514485,44.837353]]]}},{"type":"Feature","properties":{"sec":"13","frstdivid":"WY060560N0720W0SN130"},"geometry":{"type":"Polygon","coordinates":[[[-105.463591,44.830112],[-105.468682,44.830111],[-105.473773,44.83011],[-105.473784,44.833731],[-105.473796,44.837351],[-105.473807,44.840972],[-105.473818,44.844593],[-105.468724,44.844593],[-105.463629,44.844594],[-105.458535,44.844594],[-105.45344,44.844595],[-105.453433,44.840975],[-105.453425,44.837354],[-105.453418,44.833734],[-105.45341,44.830114],[-105.458501,44.830113],[-105.463591,44.830112]]]}},{"type":"Feature","properties":{"sec":"28","frstdivid":"WY060560N0720W0SN280"},"geometry":{"type":"Polygon","coordinates":[[[-105.523587,44.815638],[-105.519519,44.815637],[-105.518502,44.815637],[-105.514434,44.815636],[-105.514427,44.812016],[-105.514425,44.811111],[-105.514422,44.808397],[-105.514414,44.804777],[-105.514406,44.801158],[-105.519491,44.801159],[-105.524575,44.801161],[-105.528643,44.801162],[-105.529659,44.801162],[-105.533727,44.801162],[-105.534743,44.801162],[-105.534748,44.803877],[-105.534751,44.804782],[-105.53476,44.808402],[-105.534766,44.811116],[-105.534768,44.812021],[-105.534773,44.814736],[-105.534774,44.815641],[-105.529689,44.81564],[-105.524604,44.815638],[-105.523587,44.815638]]]}},{"type":"Feature","properties":{"sec":"24","frstdivid":"WY060560N0720W0SN240"},"geometry":{"type":"Polygon","coordinates":[[[-105.473742,44.819248],[-105.473753,44.822869],[-105.473763,44.826489],[-105.473773,44.83011],[-105.468682,44.830111],[-105.463591,44.830112],[-105.458501,44.830113],[-105.45341,44.830114],[-105.453407,44.826493],[-105.453403,44.822873],[-105.4534,44.819253],[-105.453396,44.815633],[-105.45848,44.815632],[-105.463564,44.81563],[-105.468648,44.815629],[-105.473732,44.815628],[-105.473742,44.819248]]]}},{"type":"Feature","properties":{"sec":"27","frstdivid":"WY060560N0720W0SN270"},"geometry":{"type":"Polygon","coordinates":[[[-105.514422,44.808397],[-105.514425,44.811111],[-105.514427,44.812016],[-105.514434,44.815636],[-105.509348,44.815634],[-105.504263,44.815632],[-105.503246,44.815631],[-105.499178,44.81563],[-105.498161,44.81563],[-105.494094,44.815629],[-105.494092,44.814724],[-105.494087,44.81201],[-105.494086,44.811105],[-105.49408,44.80839],[-105.494078,44.807485],[-105.494074,44.80477],[-105.494068,44.801151],[-105.499153,44.801153],[-105.504237,44.801154],[-105.509322,44.801156],[-105.513389,44.801158],[-105.514406,44.801158],[-105.514414,44.804777],[-105.514422,44.808397]]]}},{"type":"Feature","properties":{"sec":"12","frstdivid":"WY060560N0720W0SN120"},"geometry":{"type":"Polygon","coordinates":[[[-105.468712,44.859076],[-105.463622,44.859076],[-105.458531,44.859076],[-105.453441,44.859077],[-105.453441,44.855456],[-105.453441,44.851836],[-105.45344,44.848215],[-105.45344,44.844595],[-105.458535,44.844594],[-105.463629,44.844594],[-105.468724,44.844593],[-105.473818,44.844593],[-105.473814,44.848213],[-105.473811,44.851834],[-105.473807,44.855455],[-105.473803,44.859075],[-105.468712,44.859076]]]}},{"type":"Feature","properties":{"sec":"01","frstdivid":"WY060560N0720W0SN010"},"geometry":{"type":"Polygon","coordinates":[[[-105.466362,44.880648],[-105.463622,44.88065],[-105.461271,44.880651],[-105.458524,44.880652],[-105.456179,44.880653],[-105.453427,44.880654],[-105.453429,44.877176],[-105.45343,44.873556],[-105.453432,44.869936],[-105.453434,44.866316],[-105.453437,44.862697],[-105.453441,44.859077],[-105.458531,44.859076],[-105.463622,44.859076],[-105.468712,44.859076],[-105.473803,44.859075],[-105.473806,44.862695],[-105.473808,44.866315],[-105.47381,44.869935],[-105.473813,44.873555],[-105.473815,44.877175],[-105.473817,44.880644],[-105.471454,44.880646],[-105.468719,44.880647],[-105.466362,44.880648]]]}},{"type":"Feature","properties":{"sec":"06","frstdivid":"WY060560N0720W0SN060"},"geometry":{"type":"Polygon","coordinates":[[[-105.560282,44.859088],[-105.565372,44.859091],[-105.570461,44.859093],[-105.574609,44.859094],[-105.574609,44.859713],[-105.574612,44.862714],[-105.574613,44.863333],[-105.574616,44.866335],[-105.574616,44.866954],[-105.57462,44.869956],[-105.57462,44.870575],[-105.57461,44.873268],[-105.573609,44.873269],[-105.573606,44.873577],[-105.573547,44.876914],[-105.573544,44.877198],[-105.573484,44.880559],[-105.573484,44.880632],[-105.57051,44.880633],[-105.568199,44.880633],[-105.565419,44.880634],[-105.563107,44.880635],[-105.560327,44.880635],[-105.558015,44.880636],[-105.555235,44.880636],[-105.555235,44.880564],[-105.555229,44.877183],[-105.555222,44.873564],[-105.555215,44.869944],[-105.555208,44.866325],[-105.555201,44.862705],[-105.555193,44.859086],[-105.560282,44.859088]]]}},{"type":"Feature","properties":{"sec":"02","frstdivid":"WY060560N0720W0SN020"},"geometry":{"type":"Polygon","coordinates":[[[-105.49417,44.866481],[-105.494171,44.869919],[-105.494172,44.873539],[-105.494173,44.877158],[-105.494174,44.880649],[-105.491821,44.880648],[-105.489084,44.880648],[-105.486729,44.880647],[-105.483995,44.880647],[-105.481638,44.880646],[-105.478906,44.880646],[-105.476546,44.880645],[-105.473817,44.880644],[-105.473815,44.877175],[-105.473813,44.873555],[-105.47381,44.869935],[-105.473808,44.866315],[-105.473806,44.862695],[-105.473803,44.859075],[-105.478894,44.859072],[-105.483986,44.859068],[-105.489077,44.859064],[-105.494169,44.859061],[-105.494169,44.86268],[-105.49417,44.862861],[-105.49417,44.8663],[-105.49417,44.866481]]]}},{"type":"Feature","properties":{"sec":"03","frstdivid":"WY060560N0720W0SN030"},"geometry":{"type":"Polygon","coordinates":[[[-105.507096,44.880649],[-105.50436,44.880649],[-105.502005,44.880649],[-105.499267,44.880649],[-105.496913,44.880649],[-105.494174,44.880649],[-105.494173,44.877158],[-105.494172,44.873539],[-105.494171,44.869919],[-105.49417,44.866481],[-105.49417,44.8663],[-105.49417,44.862861],[-105.494169,44.86268],[-105.494169,44.859061],[-105.499255,44.859063],[-105.504342,44.859065],[-105.509428,44.859067],[-105.514515,44.85907],[-105.514521,44.862689],[-105.514527,44.866308],[-105.514532,44.869928],[-105.514537,44.873547],[-105.514541,44.877166],[-105.514546,44.880648],[-105.512188,44.880648],[-105.509453,44.880649],[-105.507096,44.880649]]]}},{"type":"Feature","properties":{"sec":"08","frstdivid":"WY060560N0720W0SN080"},"geometry":{"type":"Polygon","coordinates":[[[-105.545032,44.859084],[-105.539951,44.859083],[-105.534871,44.859082],[-105.534866,44.855462],[-105.534862,44.851842],[-105.534858,44.848222],[-105.534854,44.844602],[-105.539927,44.844604],[-105.545001,44.844606],[-105.549542,44.844606],[-105.550074,44.844606],[-105.555147,44.844607],[-105.555155,44.847321],[-105.555157,44.848226],[-105.555167,44.851846],[-105.55518,44.855466],[-105.555193,44.859086],[-105.550112,44.859085],[-105.545032,44.859084]]]}}]}