{"type":"FeatureCollection","note":"BLM Public Land Survey System. Provided by the Bureau of Land Management as is. These data are neither legal documents nor land surveys and must not be used as such.","features":[{"type":"Feature","properties":{"sec":"36","frstdivid":"MT200050N0440E0SN360"},"geometry":{"type":"Polygon","coordinates":[[[-106.153288,46.140951],[-106.153444,46.137267],[-106.15429,46.137265],[-106.158652,46.137254],[-106.159496,46.137252],[-106.16386,46.137244],[-106.164704,46.137242],[-106.169066,46.137232],[-106.169912,46.13723],[-106.174271,46.137223],[-106.174203,46.140874],[-106.174134,46.144525],[-106.174066,46.148175],[-106.173998,46.151826],[-106.168781,46.151863],[-106.163565,46.1519],[-106.158353,46.151922],[-106.152906,46.151945],[-106.153018,46.14829],[-106.153131,46.144635],[-106.153288,46.140951]]]}},{"type":"Feature","properties":{"sec":"24","frstdivid":"MT200050N0440E0SN240"},"geometry":{"type":"Polygon","coordinates":[[[-106.152213,46.174219],[-106.152221,46.173513],[-106.152259,46.1707],[-106.152269,46.169922],[-106.152305,46.16718],[-106.152337,46.16633],[-106.15799,46.166322],[-106.163222,46.166315],[-106.168477,46.166305],[-106.173732,46.166296],[-106.17373,46.169914],[-106.173727,46.173531],[-106.173724,46.177149],[-106.173721,46.180767],[-106.168496,46.18076],[-106.16327,46.180754],[-106.158053,46.180753],[-106.152129,46.180752],[-106.152167,46.177795],[-106.152176,46.177132],[-106.152213,46.174219]]]}},{"type":"Feature","properties":{"sec":"26","frstdivid":"MT200050N0440E0SN260"},"geometry":{"type":"Polygon","coordinates":[[[-106.18968,46.151763],[-106.194908,46.151742],[-106.194867,46.155373],[-106.194827,46.159004],[-106.194786,46.162636],[-106.194746,46.166267],[-106.189492,46.166274],[-106.184239,46.166282],[-106.178986,46.166289],[-106.173732,46.166296],[-106.173799,46.162679],[-106.173865,46.159061],[-106.173931,46.155443],[-106.173998,46.151826],[-106.179225,46.151805],[-106.184453,46.151784],[-106.18968,46.151763]]]}},{"type":"Feature","properties":{"sec":"18","frstdivid":"MT200050N0440E0SN180"},"geometry":{"type":"Polygon","coordinates":[[[-106.257429,46.195165],[-106.257435,46.19154],[-106.257441,46.187915],[-106.257447,46.18429],[-106.257453,46.180665],[-106.262682,46.180651],[-106.26791,46.180636],[-106.273139,46.180622],[-106.278368,46.180608],[-106.278368,46.184234],[-106.278369,46.18786],[-106.278369,46.191486],[-106.27837,46.195112],[-106.273135,46.195125],[-106.2679,46.195138],[-106.262665,46.195152],[-106.257429,46.195165]]]}},{"type":"Feature","properties":{"sec":"28","frstdivid":"MT200050N0440E0SN280"},"geometry":{"type":"Polygon","coordinates":[[[-106.231452,46.151664],[-106.236674,46.151657],[-106.236648,46.155298],[-106.236621,46.15894],[-106.236595,46.162581],[-106.236569,46.166223],[-106.231345,46.166224],[-106.226121,46.166225],[-106.220897,46.166227],[-106.215673,46.166228],[-106.215701,46.162593],[-106.215729,46.158958],[-106.215756,46.155322],[-106.215784,46.151687],[-106.221007,46.15168],[-106.226229,46.151672],[-106.231452,46.151664]]]}},{"type":"Feature","properties":{"sec":"04","frstdivid":"MT200050N0440E0SN040"},"geometry":{"type":"Polygon","coordinates":[[[-106.231185,46.209802],[-106.236395,46.209798],[-106.236372,46.21343],[-106.236348,46.217061],[-106.236335,46.220686],[-106.236321,46.22446],[-106.233171,46.224453],[-106.231125,46.224448],[-106.227953,46.22444],[-106.225929,46.224434],[-106.222735,46.224428],[-106.220733,46.224424],[-106.217517,46.224417],[-106.215537,46.224411],[-106.215542,46.220681],[-106.215546,46.21706],[-106.21555,46.213437],[-106.215554,46.209813],[-106.220764,46.209809],[-106.225974,46.209806],[-106.231185,46.209802]]]}},{"type":"Feature","properties":{"sec":"21","frstdivid":"MT200050N0440E0SN210"},"geometry":{"type":"Polygon","coordinates":[[[-106.231345,46.166224],[-106.236569,46.166223],[-106.236555,46.169853],[-106.236541,46.173484],[-106.236527,46.177114],[-106.236513,46.180745],[-106.231314,46.180746],[-106.226115,46.180748],[-106.220887,46.180756],[-106.215659,46.180763],[-106.215663,46.17713],[-106.215666,46.173496],[-106.21567,46.169862],[-106.215673,46.166228],[-106.220897,46.166227],[-106.226121,46.166225],[-106.231345,46.166224]]]}},{"type":"Feature","properties":{"sec":"14","frstdivid":"MT200050N0440E0SN140"},"geometry":{"type":"Polygon","coordinates":[[[-106.173743,46.191669],[-106.173736,46.188035],[-106.173728,46.184401],[-106.173721,46.180767],[-106.178963,46.180769],[-106.184205,46.180771],[-106.189447,46.180773],[-106.194689,46.180775],[-106.19469,46.184411],[-106.194691,46.188046],[-106.194692,46.191681],[-106.194693,46.195316],[-106.189457,46.195313],[-106.184222,46.19531],[-106.178986,46.195306],[-106.173751,46.195303],[-106.173743,46.191669]]]}},{"type":"Feature","properties":{"sec":"13","frstdivid":"MT200050N0440E0SN130"},"geometry":{"type":"Polygon","coordinates":[[[-106.151953,46.195282],[-106.152002,46.192174],[-106.15201,46.191658],[-106.152059,46.188576],[-106.152064,46.188033],[-106.152091,46.184973],[-106.152096,46.184392],[-106.152122,46.181371],[-106.152129,46.180752],[-106.158053,46.180753],[-106.16327,46.180754],[-106.168496,46.18076],[-106.173721,46.180767],[-106.173728,46.184401],[-106.173736,46.188035],[-106.173743,46.191669],[-106.173751,46.195303],[-106.168543,46.195295],[-106.163335,46.195287],[-106.158126,46.195285],[-106.151953,46.195282]]]}},{"type":"Feature","properties":{"sec":"09","frstdivid":"MT200050N0440E0SN090"},"geometry":{"type":"Polygon","coordinates":[[[-106.231185,46.209802],[-106.225974,46.209806],[-106.220764,46.209809],[-106.215554,46.209813],[-106.215564,46.206192],[-106.215574,46.20257],[-106.215584,46.198948],[-106.215594,46.195327],[-106.220809,46.195311],[-106.226024,46.195296],[-106.231239,46.19528],[-106.236453,46.195265],[-106.236439,46.198898],[-106.236424,46.202532],[-106.23641,46.206165],[-106.236395,46.209798],[-106.231185,46.209802]]]}},{"type":"Feature","properties":{"sec":"12","frstdivid":"MT200050N0440E0SN120"},"geometry":{"type":"Polygon","coordinates":[[[-106.168543,46.195295],[-106.173751,46.195303],[-106.173736,46.198959],[-106.173722,46.202614],[-106.173707,46.206269],[-106.173693,46.209925],[-106.168471,46.209959],[-106.163249,46.209994],[-106.158031,46.210011],[-106.151769,46.210036],[-106.151829,46.206466],[-106.151831,46.206347],[-106.151889,46.202897],[-106.151891,46.202659],[-106.151917,46.199335],[-106.15192,46.19897],[-106.151945,46.195773],[-106.151953,46.195282],[-106.158126,46.195285],[-106.163335,46.195287],[-106.168543,46.195295]]]}},{"type":"Feature","properties":{"sec":"16","frstdivid":"MT200050N0440E0SN160"},"geometry":{"type":"Polygon","coordinates":[[[-106.215659,46.180763],[-106.220887,46.180756],[-106.226115,46.180748],[-106.231314,46.180746],[-106.236513,46.180745],[-106.236498,46.184375],[-106.236483,46.188005],[-106.236468,46.191635],[-106.236453,46.195265],[-106.231239,46.19528],[-106.226024,46.195296],[-106.220809,46.195311],[-106.215594,46.195327],[-106.21561,46.191686],[-106.215627,46.188045],[-106.215643,46.184404],[-106.215659,46.180763]]]}},{"type":"Feature","properties":{"sec":"07","frstdivid":"MT200050N0440E0SN070"},"geometry":{"type":"Polygon","coordinates":[[[-106.257429,46.195165],[-106.262665,46.195152],[-106.2679,46.195138],[-106.273135,46.195125],[-106.27837,46.195112],[-106.278367,46.198738],[-106.278365,46.202364],[-106.278363,46.20599],[-106.278361,46.209616],[-106.273121,46.209627],[-106.267881,46.209638],[-106.262641,46.20965],[-106.257401,46.209661],[-106.257408,46.206037],[-106.257415,46.202413],[-106.257422,46.198789],[-106.257429,46.195165]]]}},{"type":"Feature","properties":{"sec":"29","frstdivid":"MT200050N0440E0SN290"},"geometry":{"type":"Polygon","coordinates":[[[-106.25233,46.151634],[-106.257557,46.151623],[-106.257542,46.155259],[-106.257525,46.158895],[-106.257501,46.162533],[-106.257485,46.166169],[-106.252249,46.166182],[-106.247013,46.166196],[-106.241791,46.166209],[-106.236569,46.166223],[-106.236595,46.162581],[-106.236621,46.15894],[-106.236648,46.155298],[-106.236674,46.151657],[-106.241893,46.151649],[-106.247112,46.151641],[-106.25233,46.151634]]]}},{"type":"Feature","properties":{"sec":"05","frstdivid":"MT200050N0440E0SN050"},"geometry":{"type":"Polygon","coordinates":[[[-106.257392,46.213277],[-106.257382,46.216894],[-106.257377,46.220511],[-106.257371,46.224536],[-106.254035,46.224524],[-106.252108,46.224517],[-106.248819,46.224506],[-106.246846,46.224498],[-106.243604,46.224486],[-106.241583,46.224479],[-106.238388,46.224468],[-106.236321,46.22446],[-106.236335,46.220686],[-106.236348,46.217061],[-106.236372,46.21343],[-106.236395,46.209798],[-106.241647,46.209764],[-106.246898,46.20973],[-106.252149,46.209695],[-106.257401,46.209661],[-106.257392,46.213277]]]}},{"type":"Feature","properties":{"sec":"30","frstdivid":"MT200050N0440E0SN300"},"geometry":{"type":"Polygon","coordinates":[[[-106.273213,46.151589],[-106.278432,46.151578],[-106.278413,46.155212],[-106.278394,46.158847],[-106.278373,46.162482],[-106.27836,46.166115],[-106.273131,46.166122],[-106.267902,46.16613],[-106.262694,46.166149],[-106.257485,46.166169],[-106.257501,46.162533],[-106.257525,46.158895],[-106.257542,46.155259],[-106.257557,46.151623],[-106.262776,46.151612],[-106.267995,46.151601],[-106.273213,46.151589]]]}},{"type":"Feature","properties":{"sec":"06","frstdivid":"MT200050N0440E0SN060"},"geometry":{"type":"Polygon","coordinates":[[[-106.273121,46.209627],[-106.278361,46.209616],[-106.278358,46.213236],[-106.278355,46.216856],[-106.278354,46.220476],[-106.278352,46.224579],[-106.274901,46.224571],[-106.273107,46.224567],[-106.269685,46.224561],[-106.267862,46.224556],[-106.264468,46.224551],[-106.262616,46.224548],[-106.25925,46.224543],[-106.257371,46.224536],[-106.257377,46.220511],[-106.257382,46.216894],[-106.257392,46.213277],[-106.257401,46.209661],[-106.262641,46.20965],[-106.267881,46.209638],[-106.273121,46.209627]]]}},{"type":"Feature","properties":{"sec":"23","frstdivid":"MT200050N0440E0SN230"},"geometry":{"type":"Polygon","coordinates":[[[-106.173732,46.166296],[-106.178986,46.166289],[-106.184239,46.166282],[-106.189492,46.166274],[-106.194746,46.166267],[-106.194731,46.169894],[-106.194717,46.173521],[-106.194703,46.177148],[-106.194689,46.180775],[-106.189447,46.180773],[-106.184205,46.180771],[-106.178963,46.180769],[-106.173721,46.180767],[-106.173724,46.177149],[-106.173727,46.173531],[-106.17373,46.169914],[-106.173732,46.166296]]]}},{"type":"Feature","properties":{"sec":"32","frstdivid":"MT200050N0440E0SN320"},"geometry":{"type":"Polygon","coordinates":[[[-106.254412,46.137066],[-106.257617,46.137064],[-106.257602,46.140704],[-106.257587,46.144344],[-106.257572,46.147983],[-106.257557,46.151623],[-106.25233,46.151634],[-106.247112,46.151641],[-106.241893,46.151649],[-106.236674,46.151657],[-106.236698,46.148015],[-106.236721,46.144374],[-106.236745,46.140733],[-106.236768,46.137091],[-106.238748,46.137088],[-106.241979,46.137083],[-106.243967,46.13708],[-106.247189,46.137078],[-106.249187,46.137075],[-106.252399,46.137071],[-106.254412,46.137066]]]}},{"type":"Feature","properties":{"sec":"15","frstdivid":"MT200050N0440E0SN150"},"geometry":{"type":"Polygon","coordinates":[[[-106.210417,46.180766],[-106.215659,46.180763],[-106.215643,46.184404],[-106.215627,46.188045],[-106.21561,46.191686],[-106.215594,46.195327],[-106.210369,46.195324],[-106.205144,46.195322],[-106.199918,46.195319],[-106.194693,46.195316],[-106.194692,46.191681],[-106.194691,46.188046],[-106.19469,46.184411],[-106.194689,46.180775],[-106.199932,46.180772],[-106.205174,46.180769],[-106.210417,46.180766]]]}},{"type":"Feature","properties":{"sec":"10","frstdivid":"MT200050N0440E0SN100"},"geometry":{"type":"Polygon","coordinates":[[[-106.210369,46.195324],[-106.215594,46.195327],[-106.215584,46.198948],[-106.215574,46.20257],[-106.215564,46.206192],[-106.215554,46.209813],[-106.210338,46.209814],[-106.205122,46.209815],[-106.199906,46.209815],[-106.19469,46.209816],[-106.194691,46.206191],[-106.194691,46.202566],[-106.194692,46.198941],[-106.194693,46.195316],[-106.199918,46.195319],[-106.205144,46.195322],[-106.210369,46.195324]]]}},{"type":"Feature","properties":{"sec":"33","frstdivid":"MT200050N0440E0SN330"},"geometry":{"type":"Polygon","coordinates":[[[-106.215932,46.137129],[-106.217832,46.137125],[-106.221141,46.137117],[-106.223064,46.137113],[-106.22635,46.137109],[-106.228297,46.137105],[-106.231559,46.137097],[-106.233529,46.137093],[-106.236768,46.137091],[-106.236745,46.140733],[-106.236721,46.144374],[-106.236698,46.148015],[-106.236674,46.151657],[-106.231452,46.151664],[-106.226229,46.151672],[-106.221007,46.15168],[-106.215784,46.151687],[-106.215821,46.148048],[-106.215858,46.144408],[-106.215895,46.140769],[-106.215932,46.137129]]]}},{"type":"Feature","properties":{"sec":"01","frstdivid":"MT200050N0440E0SN010"},"geometry":{"type":"Polygon","coordinates":[[[-106.173648,46.220793],[-106.173637,46.224346],[-106.170638,46.22434],[-106.16842,46.224335],[-106.165425,46.224329],[-106.163203,46.224321],[-106.160211,46.224311],[-106.157985,46.224303],[-106.154961,46.224292],[-106.151646,46.224293],[-106.151707,46.220694],[-106.151767,46.217096],[-106.151768,46.213566],[-106.151769,46.210036],[-106.158031,46.210011],[-106.163249,46.209994],[-106.168471,46.209959],[-106.173693,46.209925],[-106.173676,46.213548],[-106.17366,46.217172],[-106.173648,46.220793]]]}},{"type":"Feature","properties":{"sec":"34","frstdivid":"MT200050N0440E0SN340"},"geometry":{"type":"Polygon","coordinates":[[[-106.2126,46.137132],[-106.215932,46.137129],[-106.215895,46.140769],[-106.215858,46.144408],[-106.215821,46.148048],[-106.215784,46.151687],[-106.210565,46.151701],[-106.205346,46.151714],[-106.200127,46.151728],[-106.194908,46.151742],[-106.194955,46.148102],[-106.195001,46.144463],[-106.195048,46.140824],[-106.195095,46.137185],[-106.19688,46.137179],[-106.200304,46.137167],[-106.20212,46.137161],[-106.205514,46.137156],[-106.20736,46.13715],[-106.210723,46.137138],[-106.2126,46.137132]]]}},{"type":"Feature","properties":{"sec":"31","frstdivid":"MT200050N0440E0SN310"},"geometry":{"type":"Polygon","coordinates":[[[-106.275274,46.137038],[-106.278468,46.137036],[-106.278459,46.140671],[-106.27845,46.144307],[-106.278441,46.147942],[-106.278432,46.151578],[-106.273213,46.151589],[-106.267995,46.151601],[-106.262776,46.151612],[-106.257557,46.151623],[-106.257572,46.147983],[-106.257587,46.144344],[-106.257602,46.140704],[-106.257617,46.137064],[-106.259627,46.137061],[-106.26283,46.137056],[-106.264843,46.137052],[-106.268043,46.13705],[-106.270058,46.137047],[-106.273255,46.137041],[-106.275274,46.137038]]]}},{"type":"Feature","properties":{"sec":"22","frstdivid":"MT200050N0440E0SN220"},"geometry":{"type":"Polygon","coordinates":[[[-106.210441,46.166238],[-106.215673,46.166228],[-106.21567,46.169862],[-106.215666,46.173496],[-106.215663,46.17713],[-106.215659,46.180763],[-106.210417,46.180766],[-106.205174,46.180769],[-106.199932,46.180772],[-106.194689,46.180775],[-106.194703,46.177148],[-106.194717,46.173521],[-106.194731,46.169894],[-106.194746,46.166267],[-106.199978,46.166257],[-106.20521,46.166248],[-106.210441,46.166238]]]}},{"type":"Feature","properties":{"sec":"35","frstdivid":"MT200050N0440E0SN350"},"geometry":{"type":"Polygon","coordinates":[[[-106.195095,46.137185],[-106.195048,46.140824],[-106.195001,46.144463],[-106.194955,46.148102],[-106.194908,46.151742],[-106.18968,46.151763],[-106.184453,46.151784],[-106.179225,46.151805],[-106.173998,46.151826],[-106.174066,46.148175],[-106.174134,46.144525],[-106.174203,46.140874],[-106.174271,46.137223],[-106.175116,46.137222],[-106.179477,46.137212],[-106.180321,46.13721],[-106.184683,46.137204],[-106.185526,46.137203],[-106.189889,46.137194],[-106.191641,46.13719],[-106.195095,46.137185]]]}},{"type":"Feature","properties":{"sec":"17","frstdivid":"MT200050N0440E0SN170"},"geometry":{"type":"Polygon","coordinates":[[[-106.257447,46.18429],[-106.257441,46.187915],[-106.257435,46.19154],[-106.257429,46.195165],[-106.252185,46.19519],[-106.246941,46.195215],[-106.241697,46.19524],[-106.236453,46.195265],[-106.236468,46.191635],[-106.236483,46.188005],[-106.236498,46.184375],[-106.236513,46.180745],[-106.241748,46.180725],[-106.246983,46.180705],[-106.252218,46.180685],[-106.257453,46.180665],[-106.257447,46.18429]]]}},{"type":"Feature","properties":{"sec":"03","frstdivid":"MT200050N0440E0SN030"},"geometry":{"type":"Polygon","coordinates":[[[-106.196641,46.224378],[-106.194698,46.224376],[-106.194699,46.220667],[-106.1947,46.217049],[-106.194695,46.213433],[-106.19469,46.209816],[-106.199906,46.209815],[-106.205122,46.209815],[-106.210338,46.209814],[-106.215554,46.209813],[-106.21555,46.213437],[-106.215546,46.21706],[-106.215542,46.220681],[-106.215537,46.224411],[-106.212298,46.224407],[-106.210327,46.224404],[-106.207079,46.224399],[-106.205118,46.224393],[-106.20186,46.224387],[-106.199908,46.224384],[-106.196641,46.224378]]]}},{"type":"Feature","properties":{"sec":"11","frstdivid":"MT200050N0440E0SN110"},"geometry":{"type":"Polygon","coordinates":[[[-106.184191,46.20987],[-106.178942,46.209898],[-106.173693,46.209925],[-106.173707,46.206269],[-106.173722,46.202614],[-106.173736,46.198959],[-106.173751,46.195303],[-106.178986,46.195306],[-106.184222,46.19531],[-106.189457,46.195313],[-106.194693,46.195316],[-106.194692,46.198941],[-106.194691,46.202566],[-106.194691,46.206191],[-106.19469,46.209816],[-106.189441,46.209843],[-106.184191,46.20987]]]}},{"type":"Feature","properties":{"sec":"02","frstdivid":"MT200050N0440E0SN020"},"geometry":{"type":"Polygon","coordinates":[[[-106.189441,46.209843],[-106.19469,46.209816],[-106.194695,46.213433],[-106.1947,46.217049],[-106.194699,46.220667],[-106.194698,46.224376],[-106.191425,46.224376],[-106.189433,46.224377],[-106.186209,46.224378],[-106.184168,46.22437],[-106.18103,46.224364],[-106.178903,46.22436],[-106.17585,46.224354],[-106.173637,46.224346],[-106.173648,46.220793],[-106.17366,46.217172],[-106.173676,46.213548],[-106.173693,46.209925],[-106.178942,46.209898],[-106.184191,46.20987],[-106.189441,46.209843]]]}},{"type":"Feature","properties":{"sec":"19","frstdivid":"MT200050N0440E0SN190"},"geometry":{"type":"Polygon","coordinates":[[[-106.273131,46.166122],[-106.27836,46.166115],[-106.278362,46.169738],[-106.278364,46.173361],[-106.278366,46.176984],[-106.278368,46.180608],[-106.273139,46.180622],[-106.26791,46.180636],[-106.262682,46.180651],[-106.257453,46.180665],[-106.257461,46.177041],[-106.257469,46.173417],[-106.257477,46.169793],[-106.257485,46.166169],[-106.262694,46.166149],[-106.267902,46.16613],[-106.273131,46.166122]]]}},{"type":"Feature","properties":{"sec":"20","frstdivid":"MT200050N0440E0SN200"},"geometry":{"type":"Polygon","coordinates":[[[-106.252249,46.166182],[-106.257485,46.166169],[-106.257477,46.169793],[-106.257469,46.173417],[-106.257461,46.177041],[-106.257453,46.180665],[-106.252218,46.180685],[-106.246983,46.180705],[-106.241748,46.180725],[-106.236513,46.180745],[-106.236527,46.177114],[-106.236541,46.173484],[-106.236555,46.169853],[-106.236569,46.166223],[-106.241791,46.166209],[-106.247013,46.166196],[-106.252249,46.166182]]]}},{"type":"Feature","properties":{"sec":"25","frstdivid":"MT200050N0440E0SN250"},"geometry":{"type":"Polygon","coordinates":[[[-106.168781,46.151863],[-106.173998,46.151826],[-106.173931,46.155443],[-106.173865,46.159061],[-106.173799,46.162679],[-106.173732,46.166296],[-106.168477,46.166305],[-106.163222,46.166315],[-106.15799,46.166322],[-106.152337,46.16633],[-106.15246,46.163146],[-106.152476,46.162733],[-106.152614,46.159137],[-106.152615,46.159112],[-106.15276,46.155541],[-106.15276,46.155528],[-106.152906,46.151945],[-106.158353,46.151922],[-106.163565,46.1519],[-106.168781,46.151863]]]}},{"type":"Feature","properties":{"sec":"27","frstdivid":"MT200050N0440E0SN270"},"geometry":{"type":"Polygon","coordinates":[[[-106.210565,46.151701],[-106.215784,46.151687],[-106.215756,46.155322],[-106.215729,46.158958],[-106.215701,46.162593],[-106.215673,46.166228],[-106.210441,46.166238],[-106.20521,46.166248],[-106.199978,46.166257],[-106.194746,46.166267],[-106.194786,46.162636],[-106.194827,46.159004],[-106.194867,46.155373],[-106.194908,46.151742],[-106.200127,46.151728],[-106.205346,46.151714],[-106.210565,46.151701]]]}},{"type":"Feature","properties":{"sec":"08","frstdivid":"MT200050N0440E0SN080"},"geometry":{"type":"Polygon","coordinates":[[[-106.252185,46.19519],[-106.257429,46.195165],[-106.257422,46.198789],[-106.257415,46.202413],[-106.257408,46.206037],[-106.257401,46.209661],[-106.252149,46.209695],[-106.246898,46.20973],[-106.241647,46.209764],[-106.236395,46.209798],[-106.23641,46.206165],[-106.236424,46.202532],[-106.236439,46.198898],[-106.236453,46.195265],[-106.241697,46.19524],[-106.246941,46.195215],[-106.252185,46.19519]]]}}]}