{"type":"FeatureCollection","note":"BLM Public Land Survey System. Provided by the Bureau of Land Management as is. These data are neither legal documents nor land surveys and must not be used as such.","features":[{"type":"Feature","properties":{"sec":"30","frstdivid":"WY060490N0760W0SN300"},"geometry":{"type":"Polygon","coordinates":[[[-106.036925,44.198423],[-106.036944,44.194818],[-106.036962,44.191214],[-106.036981,44.187609],[-106.037,44.184005],[-106.042027,44.183962],[-106.047055,44.183919],[-106.052083,44.183873],[-106.057083,44.183828],[-106.057113,44.187435],[-106.057143,44.191042],[-106.057173,44.194649],[-106.057204,44.198257],[-106.052152,44.198299],[-106.047076,44.198342],[-106.042,44.198382],[-106.036925,44.198423]]]}},{"type":"Feature","properties":{"sec":"28","frstdivid":"WY060490N0760W0SN280"},"geometry":{"type":"Polygon","coordinates":[[[-106.016753,44.194978],[-106.016695,44.198583],[-106.011635,44.198623],[-106.006575,44.198663],[-106.001515,44.198704],[-105.996455,44.198744],[-105.996541,44.195137],[-105.996627,44.191529],[-105.996713,44.187922],[-105.996799,44.184315],[-106.00183,44.184277],[-106.006862,44.18424],[-106.011894,44.184202],[-106.016925,44.184165],[-106.016868,44.187769],[-106.01681,44.191374],[-106.016753,44.194978]]]}},{"type":"Feature","properties":{"sec":"27","frstdivid":"WY060490N0760W0SN270"},"geometry":{"type":"Polygon","coordinates":[[[-105.996713,44.187922],[-105.996627,44.191529],[-105.996541,44.195137],[-105.996455,44.198744],[-105.991373,44.198777],[-105.986291,44.198809],[-105.981208,44.198842],[-105.976126,44.198875],[-105.976233,44.195258],[-105.976339,44.191641],[-105.976446,44.188025],[-105.976553,44.184408],[-105.981614,44.184385],[-105.986676,44.184361],[-105.991737,44.184338],[-105.996799,44.184315],[-105.996713,44.187922]]]}},{"type":"Feature","properties":{"sec":"24","frstdivid":"WY060490N0760W0SN240"},"geometry":{"type":"Polygon","coordinates":[[[-105.950685,44.198908],[-105.955754,44.19892],[-105.955687,44.202542],[-105.955621,44.206164],[-105.955554,44.209787],[-105.955487,44.213409],[-105.950405,44.213409],[-105.945324,44.213409],[-105.940242,44.213409],[-105.935161,44.213409],[-105.935253,44.209774],[-105.935346,44.20614],[-105.935411,44.202507],[-105.935476,44.198874],[-105.940545,44.198885],[-105.945615,44.198897],[-105.950685,44.198908]]]}},{"type":"Feature","properties":{"sec":"36","frstdivid":"WY060490N0760W0SN360"},"geometry":{"type":"Polygon","coordinates":[[[-105.940716,44.170134],[-105.941079,44.170132],[-105.945846,44.170104],[-105.946157,44.170102],[-105.950977,44.170074],[-105.951232,44.170072],[-105.956006,44.170044],[-105.956308,44.170042],[-105.956346,44.173639],[-105.956384,44.177235],[-105.956422,44.180832],[-105.95646,44.184429],[-105.95128,44.184465],[-105.946101,44.184502],[-105.940921,44.184538],[-105.935742,44.184574],[-105.935801,44.180971],[-105.93586,44.177368],[-105.93593,44.173764],[-105.936001,44.170161],[-105.940716,44.170134]]]}},{"type":"Feature","properties":{"sec":"16","frstdivid":"WY060490N0760W0SN160"},"geometry":{"type":"Polygon","coordinates":[[[-106.006502,44.227513],[-106.001415,44.22756],[-105.996328,44.227606],[-105.996324,44.223999],[-105.996319,44.220391],[-105.996315,44.216783],[-105.99631,44.213175],[-106.001416,44.213131],[-106.006523,44.213088],[-106.011629,44.213044],[-106.016735,44.213001],[-106.016735,44.213055],[-106.01672,44.216605],[-106.016705,44.22021],[-106.016691,44.223814],[-106.016676,44.227419],[-106.011589,44.227466],[-106.006502,44.227513]]]}},{"type":"Feature","properties":{"sec":"32","frstdivid":"WY060490N0760W0SN320"},"geometry":{"type":"Polygon","coordinates":[[[-106.021944,44.184125],[-106.016925,44.184165],[-106.016889,44.18056],[-106.016852,44.176955],[-106.016816,44.17335],[-106.016779,44.169745],[-106.021458,44.169719],[-106.021795,44.169717],[-106.026503,44.16969],[-106.026811,44.169689],[-106.031548,44.169641],[-106.031839,44.169638],[-106.036577,44.16959],[-106.036866,44.169587],[-106.036899,44.173192],[-106.036933,44.176796],[-106.036966,44.180401],[-106.037,44.184005],[-106.031981,44.184045],[-106.026962,44.184085],[-106.021944,44.184125]]]}},{"type":"Feature","properties":{"sec":"33","frstdivid":"WY060490N0760W0SN330"},"geometry":{"type":"Polygon","coordinates":[[[-106.016889,44.18056],[-106.016925,44.184165],[-106.011894,44.184202],[-106.006862,44.18424],[-106.00183,44.184277],[-105.996799,44.184315],[-105.996776,44.180707],[-105.996754,44.1771],[-105.996732,44.173493],[-105.99671,44.169886],[-106.001348,44.169847],[-106.001719,44.169844],[-106.006358,44.169804],[-106.006729,44.169801],[-106.011368,44.169775],[-106.011754,44.169773],[-106.016413,44.169747],[-106.016779,44.169745],[-106.016816,44.17335],[-106.016852,44.176955],[-106.016889,44.18056]]]}},{"type":"Feature","properties":{"sec":"29","frstdivid":"WY060490N0760W0SN290"},"geometry":{"type":"Polygon","coordinates":[[[-106.026962,44.184085],[-106.031981,44.184045],[-106.037,44.184005],[-106.036981,44.187609],[-106.036962,44.191214],[-106.036944,44.194818],[-106.036925,44.198423],[-106.031868,44.198463],[-106.02681,44.198503],[-106.021753,44.198543],[-106.016695,44.198583],[-106.016753,44.194978],[-106.01681,44.191374],[-106.016868,44.187769],[-106.016925,44.184165],[-106.021944,44.184125],[-106.026962,44.184085]]]}},{"type":"Feature","properties":{"sec":"31","frstdivid":"WY060490N0760W0SN310"},"geometry":{"type":"Polygon","coordinates":[[[-106.057005,44.173008],[-106.057031,44.176614],[-106.057057,44.180221],[-106.057083,44.183828],[-106.052083,44.183873],[-106.047055,44.183919],[-106.042027,44.183962],[-106.037,44.184005],[-106.036966,44.180401],[-106.036933,44.176796],[-106.036899,44.173192],[-106.036866,44.169587],[-106.041605,44.169543],[-106.041895,44.16954],[-106.046633,44.169496],[-106.046925,44.169493],[-106.051224,44.169453],[-106.051952,44.169447],[-106.056332,44.169407],[-106.056979,44.169401],[-106.057005,44.173008]]]}},{"type":"Feature","properties":{"sec":"19","frstdivid":"WY060490N0760W0SN190"},"geometry":{"type":"Polygon","coordinates":[[[-106.042189,44.212802],[-106.037095,44.212839],[-106.037052,44.209235],[-106.03701,44.205631],[-106.036968,44.202027],[-106.036925,44.198423],[-106.042,44.198382],[-106.047076,44.198342],[-106.052152,44.198299],[-106.057204,44.198257],[-106.057233,44.201864],[-106.057263,44.205471],[-106.057293,44.209079],[-106.057322,44.212686],[-106.052378,44.212725],[-106.047283,44.212765],[-106.042189,44.212802]]]}},{"type":"Feature","properties":{"sec":"21","frstdivid":"WY060490N0760W0SN210"},"geometry":{"type":"Polygon","coordinates":[[[-106.011629,44.213044],[-106.006523,44.213088],[-106.001416,44.213131],[-105.99631,44.213175],[-105.996346,44.209567],[-105.996383,44.20596],[-105.996419,44.202352],[-105.996455,44.198744],[-106.001515,44.198704],[-106.006575,44.198663],[-106.011635,44.198623],[-106.016695,44.198583],[-106.016705,44.202187],[-106.016715,44.205792],[-106.016725,44.209396],[-106.016735,44.213001],[-106.011629,44.213044]]]}},{"type":"Feature","properties":{"sec":"20","frstdivid":"WY060490N0760W0SN200"},"geometry":{"type":"Polygon","coordinates":[[[-106.016735,44.213001],[-106.016725,44.209396],[-106.016715,44.205792],[-106.016705,44.202187],[-106.016695,44.198583],[-106.021753,44.198543],[-106.02681,44.198503],[-106.031868,44.198463],[-106.036925,44.198423],[-106.036968,44.202027],[-106.03701,44.205631],[-106.037052,44.209235],[-106.037095,44.212839],[-106.032005,44.212879],[-106.026915,44.21292],[-106.021825,44.21296],[-106.016735,44.213001]]]}},{"type":"Feature","properties":{"sec":"25","frstdivid":"WY060490N0760W0SN250"},"geometry":{"type":"Polygon","coordinates":[[[-105.945615,44.198897],[-105.940545,44.198885],[-105.935476,44.198874],[-105.935542,44.195299],[-105.935609,44.191724],[-105.935675,44.188149],[-105.935742,44.184574],[-105.940921,44.184538],[-105.946101,44.184502],[-105.95128,44.184465],[-105.95646,44.184429],[-105.956283,44.188052],[-105.956107,44.191674],[-105.955931,44.195297],[-105.955754,44.19892],[-105.950685,44.198908],[-105.945615,44.198897]]]}},{"type":"Feature","properties":{"sec":"18","frstdivid":"WY060490N0760W0SN180"},"geometry":{"type":"Polygon","coordinates":[[[-106.057322,44.212686],[-106.057347,44.216294],[-106.057372,44.219902],[-106.057397,44.22351],[-106.057422,44.227118],[-106.052365,44.227153],[-106.047274,44.227189],[-106.042182,44.227221],[-106.03709,44.227254],[-106.037091,44.22365],[-106.037092,44.220047],[-106.037094,44.216443],[-106.037095,44.212839],[-106.042189,44.212802],[-106.047283,44.212765],[-106.052378,44.212725],[-106.057322,44.212686]]]}},{"type":"Feature","properties":{"sec":"26","frstdivid":"WY060490N0760W0SN260"},"geometry":{"type":"Polygon","coordinates":[[[-105.976446,44.188025],[-105.976339,44.191641],[-105.976233,44.195258],[-105.976126,44.198875],[-105.971033,44.198886],[-105.96594,44.198897],[-105.960847,44.198909],[-105.955754,44.19892],[-105.955931,44.195297],[-105.956107,44.191674],[-105.956283,44.188052],[-105.95646,44.184429],[-105.961483,44.184424],[-105.966506,44.184419],[-105.97153,44.184413],[-105.976553,44.184408],[-105.976446,44.188025]]]}},{"type":"Feature","properties":{"sec":"10","frstdivid":"WY060490N0760W0SN100"},"geometry":{"type":"Polygon","coordinates":[[[-105.981119,44.242215],[-105.97604,44.242274],[-105.976041,44.238658],[-105.976042,44.235041],[-105.976043,44.231425],[-105.976044,44.227808],[-105.981115,44.227758],[-105.986186,44.227707],[-105.991257,44.227657],[-105.996328,44.227606],[-105.996335,44.231214],[-105.996342,44.234823],[-105.996349,44.238431],[-105.996356,44.242039],[-105.991277,44.242098],[-105.986198,44.242156],[-105.981119,44.242215]]]}},{"type":"Feature","properties":{"sec":"34","frstdivid":"WY060490N0760W0SN340"},"geometry":{"type":"Polygon","coordinates":[[[-105.976553,44.184408],[-105.976562,44.180791],[-105.976572,44.177174],[-105.976582,44.173556],[-105.976591,44.169939],[-105.98121,44.169912],[-105.981614,44.16991],[-105.986269,44.169882],[-105.986637,44.16988],[-105.991329,44.169883],[-105.991673,44.169883],[-105.996339,44.169886],[-105.99671,44.169886],[-105.996732,44.173493],[-105.996754,44.1771],[-105.996776,44.180707],[-105.996799,44.184315],[-105.991737,44.184338],[-105.986676,44.184361],[-105.981614,44.184385],[-105.976553,44.184408]]]}},{"type":"Feature","properties":{"sec":"22","frstdivid":"WY060490N0760W0SN220"},"geometry":{"type":"Polygon","coordinates":[[[-105.996346,44.209567],[-105.99631,44.213175],[-105.991226,44.213217],[-105.986142,44.213258],[-105.981058,44.2133],[-105.975974,44.213342],[-105.976012,44.209725],[-105.97605,44.206108],[-105.976088,44.202492],[-105.976126,44.198875],[-105.981208,44.198842],[-105.986291,44.198809],[-105.991373,44.198777],[-105.996455,44.198744],[-105.996419,44.202352],[-105.996383,44.20596],[-105.996346,44.209567]]]}},{"type":"Feature","properties":{"sec":"23","frstdivid":"WY060490N0760W0SN230"},"geometry":{"type":"Polygon","coordinates":[[[-105.960609,44.213392],[-105.955487,44.213409],[-105.955554,44.209787],[-105.955621,44.206164],[-105.955687,44.202542],[-105.955754,44.19892],[-105.960847,44.198909],[-105.96594,44.198897],[-105.971033,44.198886],[-105.976126,44.198875],[-105.976088,44.202492],[-105.97605,44.206108],[-105.976012,44.209725],[-105.975974,44.213342],[-105.970852,44.213359],[-105.96573,44.213375],[-105.960609,44.213392]]]}},{"type":"Feature","properties":{"sec":"35","frstdivid":"WY060490N0760W0SN350"},"geometry":{"type":"Polygon","coordinates":[[[-105.956422,44.180832],[-105.956384,44.177235],[-105.956346,44.173639],[-105.956308,44.170042],[-105.961035,44.170028],[-105.96135,44.170027],[-105.966064,44.170013],[-105.966393,44.170012],[-105.971092,44.169978],[-105.971492,44.169975],[-105.976151,44.169942],[-105.976591,44.169939],[-105.976582,44.173556],[-105.976572,44.177174],[-105.976562,44.180791],[-105.976553,44.184408],[-105.97153,44.184413],[-105.966506,44.184419],[-105.961483,44.184424],[-105.95646,44.184429],[-105.956422,44.180832]]]}},{"type":"Feature","properties":{"sec":"07","frstdivid":"WY060490N0760W0SN070"},"geometry":{"type":"Polygon","coordinates":[[[-106.057422,44.227118],[-106.057423,44.230714],[-106.057424,44.234311],[-106.057424,44.237908],[-106.057425,44.241504],[-106.05239,44.241547],[-106.0473,44.24159],[-106.042209,44.241629],[-106.037119,44.241668],[-106.037112,44.238064],[-106.037105,44.234461],[-106.037097,44.230858],[-106.03709,44.227254],[-106.042182,44.227221],[-106.047274,44.227189],[-106.052365,44.227153],[-106.057422,44.227118]]]}},{"type":"Feature","properties":{"sec":"06","frstdivid":"WY060490N0760W0SN060"},"geometry":{"type":"Polygon","coordinates":[[[-106.057416,44.248696],[-106.057412,44.252291],[-106.057409,44.255887],[-106.052279,44.255936],[-106.047202,44.255985],[-106.042126,44.256035],[-106.037049,44.256084],[-106.037066,44.252479],[-106.037083,44.248874],[-106.037101,44.245271],[-106.037119,44.241668],[-106.042209,44.241629],[-106.0473,44.24159],[-106.05239,44.241547],[-106.057425,44.241504],[-106.057421,44.2451],[-106.057416,44.248696]]]}},{"type":"Feature","properties":{"sec":"04","frstdivid":"WY060490N0760W0SN040"},"geometry":{"type":"Polygon","coordinates":[[[-105.996413,44.252862],[-105.996394,44.249255],[-105.996375,44.245647],[-105.996356,44.242039],[-106.00147,44.241988],[-106.006584,44.241938],[-106.011697,44.241887],[-106.016811,44.241837],[-106.016794,44.245441],[-106.016777,44.249046],[-106.01676,44.252651],[-106.016742,44.256267],[-106.011664,44.256314],[-106.006587,44.256361],[-106.001509,44.256408],[-105.996432,44.256454],[-105.996413,44.252862]]]}},{"type":"Feature","properties":{"sec":"08","frstdivid":"WY060490N0760W0SN080"},"geometry":{"type":"Polygon","coordinates":[[[-106.031986,44.227295],[-106.03709,44.227254],[-106.037097,44.230858],[-106.037105,44.234461],[-106.037112,44.238064],[-106.037119,44.241668],[-106.032042,44.24171],[-106.026965,44.241752],[-106.021888,44.241794],[-106.016811,44.241837],[-106.016777,44.238232],[-106.016743,44.234628],[-106.01671,44.231023],[-106.016676,44.227419],[-106.021779,44.227378],[-106.026883,44.227337],[-106.031986,44.227295]]]}},{"type":"Feature","properties":{"sec":"09","frstdivid":"WY060490N0760W0SN090"},"geometry":{"type":"Polygon","coordinates":[[[-106.016777,44.238232],[-106.016811,44.241837],[-106.011697,44.241887],[-106.006584,44.241938],[-106.00147,44.241988],[-105.996356,44.242039],[-105.996349,44.238431],[-105.996342,44.234823],[-105.996335,44.231214],[-105.996328,44.227606],[-106.001415,44.22756],[-106.006502,44.227513],[-106.011589,44.227466],[-106.016676,44.227419],[-106.01671,44.231023],[-106.016743,44.234628],[-106.016777,44.238232]]]}},{"type":"Feature","properties":{"sec":"15","frstdivid":"WY060490N0760W0SN150"},"geometry":{"type":"Polygon","coordinates":[[[-105.986142,44.213258],[-105.991226,44.213217],[-105.99631,44.213175],[-105.996315,44.216783],[-105.996319,44.220391],[-105.996324,44.223999],[-105.996328,44.227606],[-105.991257,44.227657],[-105.986186,44.227707],[-105.981115,44.227758],[-105.976044,44.227808],[-105.976026,44.224192],[-105.976009,44.220575],[-105.975991,44.216958],[-105.975974,44.213342],[-105.981058,44.2133],[-105.986142,44.213258]]]}},{"type":"Feature","properties":{"sec":"05","frstdivid":"WY060490N0760W0SN050"},"geometry":{"type":"Polygon","coordinates":[[[-106.037049,44.256084],[-106.031972,44.25613],[-106.026895,44.256176],[-106.021818,44.256221],[-106.016742,44.256267],[-106.01676,44.252651],[-106.016777,44.249046],[-106.016794,44.245441],[-106.016811,44.241837],[-106.021888,44.241794],[-106.026965,44.241752],[-106.032042,44.24171],[-106.037119,44.241668],[-106.037101,44.245271],[-106.037083,44.248874],[-106.037066,44.252479],[-106.037049,44.256084]]]}},{"type":"Feature","properties":{"sec":"17","frstdivid":"WY060490N0760W0SN170"},"geometry":{"type":"Polygon","coordinates":[[[-106.016735,44.213055],[-106.016735,44.213001],[-106.021825,44.21296],[-106.026915,44.21292],[-106.032005,44.212879],[-106.037095,44.212839],[-106.037094,44.216443],[-106.037092,44.220047],[-106.037091,44.22365],[-106.03709,44.227254],[-106.031986,44.227295],[-106.026883,44.227337],[-106.021779,44.227378],[-106.016676,44.227419],[-106.016691,44.223814],[-106.016705,44.22021],[-106.01672,44.216605],[-106.016735,44.213055]]]}},{"type":"Feature","properties":{"sec":"11","frstdivid":"WY060490N0760W0SN110"},"geometry":{"type":"Polygon","coordinates":[[[-105.965852,44.227854],[-105.970948,44.227831],[-105.976044,44.227808],[-105.976043,44.231425],[-105.976042,44.235041],[-105.976041,44.238658],[-105.97604,44.242274],[-105.970955,44.242303],[-105.965871,44.242332],[-105.960786,44.242361],[-105.955702,44.24239],[-105.955691,44.238768],[-105.955681,44.235145],[-105.95567,44.231522],[-105.95566,44.227899],[-105.960756,44.227877],[-105.965852,44.227854]]]}},{"type":"Feature","properties":{"sec":"13","frstdivid":"WY060490N0760W0SN130"},"geometry":{"type":"Polygon","coordinates":[[[-105.935268,44.227941],[-105.935241,44.224308],[-105.935214,44.220675],[-105.935188,44.217042],[-105.935161,44.213409],[-105.940242,44.213409],[-105.945324,44.213409],[-105.950405,44.213409],[-105.955487,44.213409],[-105.95553,44.217032],[-105.955573,44.220654],[-105.955617,44.224277],[-105.95566,44.227899],[-105.950562,44.22791],[-105.945464,44.22792],[-105.940366,44.227931],[-105.935268,44.227941]]]}},{"type":"Feature","properties":{"sec":"01","frstdivid":"WY060490N0760W0SN010"},"geometry":{"type":"Polygon","coordinates":[[[-105.955732,44.246013],[-105.955762,44.249635],[-105.955793,44.253258],[-105.955824,44.256825],[-105.950748,44.25687],[-105.945671,44.256916],[-105.940595,44.256963],[-105.935518,44.25701],[-105.935486,44.253375],[-105.935454,44.249742],[-105.935423,44.246108],[-105.935392,44.242474],[-105.940469,44.242453],[-105.945547,44.242432],[-105.950624,44.242411],[-105.955702,44.24239],[-105.955732,44.246013]]]}},{"type":"Feature","properties":{"sec":"02","frstdivid":"WY060490N0760W0SN020"},"geometry":{"type":"Polygon","coordinates":[[[-105.955824,44.256825],[-105.955793,44.253258],[-105.955762,44.249635],[-105.955732,44.246013],[-105.955702,44.24239],[-105.960786,44.242361],[-105.965871,44.242332],[-105.970955,44.242303],[-105.97604,44.242274],[-105.976062,44.245891],[-105.976083,44.249507],[-105.976106,44.253123],[-105.976129,44.256645],[-105.971053,44.25669],[-105.965977,44.256735],[-105.9609,44.25678],[-105.955824,44.256825]]]}},{"type":"Feature","properties":{"sec":"14","frstdivid":"WY060490N0760W0SN140"},"geometry":{"type":"Polygon","coordinates":[[[-105.965852,44.227854],[-105.960756,44.227877],[-105.95566,44.227899],[-105.955617,44.224277],[-105.955573,44.220654],[-105.95553,44.217032],[-105.955487,44.213409],[-105.960609,44.213392],[-105.96573,44.213375],[-105.970852,44.213359],[-105.975974,44.213342],[-105.975991,44.216958],[-105.976009,44.220575],[-105.976026,44.224192],[-105.976044,44.227808],[-105.970948,44.227831],[-105.965852,44.227854]]]}},{"type":"Feature","properties":{"sec":"12","frstdivid":"WY060490N0760W0SN120"},"geometry":{"type":"Polygon","coordinates":[[[-105.95567,44.231522],[-105.955681,44.235145],[-105.955691,44.238768],[-105.955702,44.24239],[-105.950624,44.242411],[-105.945547,44.242432],[-105.940469,44.242453],[-105.935392,44.242474],[-105.935361,44.238841],[-105.93533,44.235208],[-105.935299,44.231575],[-105.935268,44.227941],[-105.940366,44.227931],[-105.945464,44.22792],[-105.950562,44.22791],[-105.95566,44.227899],[-105.95567,44.231522]]]}},{"type":"Feature","properties":{"sec":"03","frstdivid":"WY060490N0760W0SN030"},"geometry":{"type":"Polygon","coordinates":[[[-105.991277,44.242098],[-105.996356,44.242039],[-105.996375,44.245647],[-105.996394,44.249255],[-105.996413,44.252862],[-105.996432,44.256454],[-105.991357,44.256501],[-105.986282,44.256548],[-105.981205,44.256596],[-105.976129,44.256645],[-105.976106,44.253123],[-105.976083,44.249507],[-105.976062,44.245891],[-105.97604,44.242274],[-105.981119,44.242215],[-105.986198,44.242156],[-105.991277,44.242098]]]}}]}