{"type":"FeatureCollection","note":"BLM Public Land Survey System. Provided by the Bureau of Land Management as is. These data are neither legal documents nor land surveys and must not be used as such.","features":[{"type":"Feature","properties":{"sec":"17","frstdivid":"MT200060N0470E0SN170"},"geometry":{"type":"Polygon","coordinates":[[[-105.878081,46.281781],[-105.87286,46.281776],[-105.867638,46.281771],[-105.862417,46.281766],[-105.862411,46.278149],[-105.862404,46.274531],[-105.862398,46.270914],[-105.862391,46.267297],[-105.867613,46.267309],[-105.872835,46.26732],[-105.878057,46.267331],[-105.883279,46.267342],[-105.883285,46.270953],[-105.883291,46.274564],[-105.883297,46.278175],[-105.883302,46.281786],[-105.878081,46.281781]]]}},{"type":"Feature","properties":{"sec":"11","frstdivid":"MT200060N0470E0SN110"},"geometry":{"type":"Polygon","coordinates":[[[-105.815459,46.281706],[-105.820689,46.281711],[-105.820676,46.285332],[-105.820663,46.288953],[-105.82065,46.292575],[-105.820637,46.296196],[-105.815411,46.29619],[-105.810186,46.296184],[-105.804961,46.296179],[-105.799735,46.296173],[-105.799743,46.292551],[-105.79975,46.28893],[-105.799759,46.28531],[-105.799768,46.281691],[-105.804998,46.281696],[-105.810229,46.281701],[-105.815459,46.281706]]]}},{"type":"Feature","properties":{"sec":"27","frstdivid":"MT200060N0470E0SN270"},"geometry":{"type":"Polygon","coordinates":[[[-105.835975,46.238719],[-105.841009,46.238736],[-105.840994,46.242344],[-105.84098,46.245952],[-105.840965,46.24956],[-105.840953,46.253167],[-105.83577,46.253218],[-105.830588,46.253267],[-105.825407,46.253317],[-105.820227,46.253368],[-105.820296,46.249724],[-105.820367,46.24608],[-105.820438,46.242437],[-105.820508,46.238794],[-105.825724,46.238748],[-105.830941,46.238702],[-105.835975,46.238719]]]}},{"type":"Feature","properties":{"sec":"10","frstdivid":"MT200060N0470E0SN100"},"geometry":{"type":"Polygon","coordinates":[[[-105.836315,46.296212],[-105.831089,46.296207],[-105.825863,46.296202],[-105.820637,46.296196],[-105.82065,46.292575],[-105.820663,46.288953],[-105.820676,46.285332],[-105.820689,46.281711],[-105.825904,46.281717],[-105.831118,46.281723],[-105.836332,46.281729],[-105.841547,46.281735],[-105.841545,46.285355],[-105.841544,46.288976],[-105.841543,46.292596],[-105.841542,46.296217],[-105.836315,46.296212]]]}},{"type":"Feature","properties":{"sec":"34","frstdivid":"MT200060N0470E0SN340"},"geometry":{"type":"Polygon","coordinates":[[[-105.835892,46.224435],[-105.840582,46.224457],[-105.840689,46.228027],[-105.840795,46.231596],[-105.840902,46.235166],[-105.841009,46.238736],[-105.835975,46.238719],[-105.830941,46.238702],[-105.825724,46.238748],[-105.820508,46.238794],[-105.820469,46.235186],[-105.82043,46.231578],[-105.82039,46.22797],[-105.820351,46.224362],[-105.825272,46.224385],[-105.825531,46.224387],[-105.830193,46.224408],[-105.830712,46.224411],[-105.835388,46.224433],[-105.835892,46.224435]]]}},{"type":"Feature","properties":{"sec":"29","frstdivid":"MT200060N0470E0SN290"},"geometry":{"type":"Polygon","coordinates":[[[-105.877168,46.238677],[-105.882368,46.238632],[-105.88243,46.242242],[-105.882492,46.245852],[-105.882554,46.249462],[-105.882616,46.253072],[-105.877389,46.253108],[-105.872161,46.253145],[-105.866933,46.253181],[-105.861706,46.253217],[-105.861671,46.249616],[-105.861636,46.246015],[-105.861602,46.242414],[-105.861567,46.238813],[-105.866767,46.238768],[-105.871968,46.238723],[-105.877168,46.238677]]]}},{"type":"Feature","properties":{"sec":"26","frstdivid":"MT200060N0470E0SN260"},"geometry":{"type":"Polygon","coordinates":[[[-105.815294,46.238838],[-105.820508,46.238794],[-105.820438,46.242437],[-105.820367,46.24608],[-105.820296,46.249724],[-105.820227,46.253368],[-105.815047,46.253379],[-105.809869,46.253391],[-105.80469,46.253403],[-105.799512,46.253415],[-105.799463,46.249879],[-105.799413,46.246342],[-105.799533,46.242657],[-105.799652,46.238971],[-105.804866,46.238927],[-105.81008,46.238883],[-105.815294,46.238838]]]}},{"type":"Feature","properties":{"sec":"20","frstdivid":"MT200060N0470E0SN200"},"geometry":{"type":"Polygon","coordinates":[[[-105.862391,46.267297],[-105.862388,46.265423],[-105.861574,46.265422],[-105.861577,46.2639],[-105.8616,46.260316],[-105.861653,46.256767],[-105.861706,46.253217],[-105.866933,46.253181],[-105.872161,46.253145],[-105.877389,46.253108],[-105.882616,46.253072],[-105.882838,46.256678],[-105.88306,46.260284],[-105.883282,46.263887],[-105.883378,46.265444],[-105.883277,46.265443],[-105.883279,46.267342],[-105.878057,46.267331],[-105.872835,46.26732],[-105.867613,46.267309],[-105.862391,46.267297]]]}},{"type":"Feature","properties":{"sec":"22","frstdivid":"MT200060N0470E0SN220"},"geometry":{"type":"Polygon","coordinates":[[[-105.82025,46.26044],[-105.820238,46.256903],[-105.820227,46.253368],[-105.825407,46.253317],[-105.830588,46.253267],[-105.83577,46.253218],[-105.840953,46.253167],[-105.840943,46.25676],[-105.840935,46.260351],[-105.840933,46.263956],[-105.840934,46.265438],[-105.841513,46.265438],[-105.841516,46.267248],[-105.836312,46.267238],[-105.831108,46.267229],[-105.825903,46.26722],[-105.820699,46.267211],[-105.820699,46.265455],[-105.82026,46.265454],[-105.820258,46.264017],[-105.82025,46.26044]]]}},{"type":"Feature","properties":{"sec":"09","frstdivid":"MT200060N0470E0SN090"},"geometry":{"type":"Polygon","coordinates":[[[-105.857199,46.281758],[-105.862417,46.281766],[-105.862416,46.285383],[-105.862415,46.289001],[-105.862414,46.292619],[-105.862413,46.296237],[-105.857195,46.296232],[-105.851977,46.296227],[-105.846759,46.296222],[-105.841542,46.296217],[-105.841543,46.292596],[-105.841544,46.288976],[-105.841545,46.285355],[-105.841547,46.281735],[-105.846764,46.281743],[-105.851982,46.28175],[-105.857199,46.281758]]]}},{"type":"Feature","properties":{"sec":"05","frstdivid":"MT200060N0470E0SN050"},"geometry":{"type":"Polygon","coordinates":[[[-105.872861,46.296242],[-105.878085,46.296244],[-105.883308,46.296247],[-105.883313,46.299865],[-105.883318,46.303484],[-105.883323,46.307103],[-105.883327,46.310722],[-105.878104,46.310719],[-105.872881,46.310716],[-105.867658,46.310713],[-105.862434,46.310711],[-105.862429,46.307092],[-105.862424,46.303474],[-105.862418,46.299855],[-105.862413,46.296237],[-105.867637,46.296239],[-105.872861,46.296242]]]}},{"type":"Feature","properties":{"sec":"35","frstdivid":"MT200060N0470E0SN350"},"geometry":{"type":"Polygon","coordinates":[[[-105.799621,46.2316],[-105.799586,46.228013],[-105.799551,46.224426],[-105.804751,46.22441],[-105.809951,46.224394],[-105.815151,46.224378],[-105.820351,46.224362],[-105.82039,46.22797],[-105.82043,46.231578],[-105.820469,46.235186],[-105.820508,46.238794],[-105.815294,46.238838],[-105.81008,46.238883],[-105.804866,46.238927],[-105.799652,46.238971],[-105.799636,46.235286],[-105.799621,46.2316]]]}},{"type":"Feature","properties":{"sec":"23","frstdivid":"MT200060N0470E0SN230"},"geometry":{"type":"Polygon","coordinates":[[[-105.799759,46.267216],[-105.799762,46.265529],[-105.799619,46.26553],[-105.799606,46.26416],[-105.799573,46.260572],[-105.799543,46.256994],[-105.799512,46.253415],[-105.80469,46.253403],[-105.809869,46.253391],[-105.815047,46.253379],[-105.820227,46.253368],[-105.820238,46.256903],[-105.82025,46.26044],[-105.820258,46.264017],[-105.82026,46.265454],[-105.820699,46.265455],[-105.820699,46.267211],[-105.815464,46.267212],[-105.810229,46.267213],[-105.804994,46.267214],[-105.799759,46.267216]]]}},{"type":"Feature","properties":{"sec":"02","frstdivid":"MT200060N0470E0SN020"},"geometry":{"type":"Polygon","coordinates":[[[-105.815411,46.29619],[-105.820637,46.296196],[-105.820628,46.299817],[-105.82062,46.303438],[-105.820612,46.307059],[-105.820603,46.31068],[-105.815386,46.310678],[-105.810169,46.310676],[-105.80494,46.310672],[-105.799711,46.310668],[-105.799717,46.307044],[-105.799723,46.303421],[-105.799729,46.299797],[-105.799735,46.296173],[-105.804961,46.296179],[-105.810186,46.296184],[-105.815411,46.29619]]]}},{"type":"Feature","properties":{"sec":"24","frstdivid":"MT200060N0470E0SN240"},"geometry":{"type":"Polygon","coordinates":[[[-105.799619,46.26553],[-105.799762,46.265529],[-105.799759,46.267216],[-105.794534,46.26722],[-105.789309,46.267224],[-105.78407,46.267226],[-105.778831,46.267229],[-105.778831,46.265601],[-105.778829,46.264261],[-105.778825,46.260644],[-105.778819,46.257029],[-105.778813,46.253414],[-105.783932,46.253399],[-105.789052,46.253383],[-105.794282,46.253399],[-105.799512,46.253415],[-105.799543,46.256994],[-105.799573,46.260572],[-105.799606,46.26416],[-105.799619,46.26553]]]}},{"type":"Feature","properties":{"sec":"07","frstdivid":"MT200060N0470E0SN070"},"geometry":{"type":"Polygon","coordinates":[[[-105.898966,46.28177],[-105.904229,46.281764],[-105.904234,46.285384],[-105.90424,46.289003],[-105.904245,46.292623],[-105.90425,46.296242],[-105.898965,46.296243],[-105.893745,46.296244],[-105.888527,46.296245],[-105.883308,46.296247],[-105.883307,46.292632],[-105.883305,46.289016],[-105.883304,46.285401],[-105.883302,46.281786],[-105.888524,46.281781],[-105.893746,46.281775],[-105.898966,46.28177]]]}},{"type":"Feature","properties":{"sec":"21","frstdivid":"MT200060N0470E0SN210"},"geometry":{"type":"Polygon","coordinates":[[[-105.841516,46.267248],[-105.841513,46.265438],[-105.840934,46.265438],[-105.840933,46.263956],[-105.840935,46.260351],[-105.840943,46.25676],[-105.840953,46.253167],[-105.84614,46.25318],[-105.851328,46.253193],[-105.856517,46.253205],[-105.861706,46.253217],[-105.861653,46.256767],[-105.8616,46.260316],[-105.861577,46.2639],[-105.861574,46.265422],[-105.862388,46.265423],[-105.862391,46.267297],[-105.857173,46.267285],[-105.851954,46.267272],[-105.846735,46.26726],[-105.841516,46.267248]]]}},{"type":"Feature","properties":{"sec":"13","frstdivid":"MT200060N0470E0SN130"},"geometry":{"type":"Polygon","coordinates":[[[-105.794534,46.26722],[-105.799759,46.267216],[-105.79976,46.27084],[-105.799762,46.274464],[-105.799765,46.278077],[-105.799768,46.281691],[-105.794527,46.281689],[-105.789285,46.281686],[-105.784058,46.281692],[-105.778831,46.281697],[-105.778834,46.27808],[-105.778836,46.274463],[-105.778834,46.270846],[-105.778831,46.267229],[-105.78407,46.267226],[-105.789309,46.267224],[-105.794534,46.26722]]]}},{"type":"Feature","properties":{"sec":"16","frstdivid":"MT200060N0470E0SN160"},"geometry":{"type":"Polygon","coordinates":[[[-105.857173,46.267285],[-105.862391,46.267297],[-105.862398,46.270914],[-105.862404,46.274531],[-105.862411,46.278149],[-105.862417,46.281766],[-105.857199,46.281758],[-105.851982,46.28175],[-105.846764,46.281743],[-105.841547,46.281735],[-105.841539,46.278113],[-105.841532,46.274491],[-105.841524,46.270869],[-105.841516,46.267248],[-105.846735,46.26726],[-105.851954,46.267272],[-105.857173,46.267285]]]}},{"type":"Feature","properties":{"sec":"32","frstdivid":"MT200060N0470E0SN320"},"geometry":{"type":"Polygon","coordinates":[[[-105.8776,46.224246],[-105.88218,46.224208],[-105.882227,46.227814],[-105.882274,46.23142],[-105.882321,46.235026],[-105.882368,46.238632],[-105.877168,46.238677],[-105.871968,46.238723],[-105.866767,46.238768],[-105.861567,46.238813],[-105.861538,46.235212],[-105.861509,46.23161],[-105.861454,46.22801],[-105.8614,46.224409],[-105.861981,46.224403],[-105.866577,46.224352],[-105.867187,46.224346],[-105.871753,46.224295],[-105.872393,46.22429],[-105.876967,46.224252],[-105.8776,46.224246]]]}},{"type":"Feature","properties":{"sec":"03","frstdivid":"MT200060N0470E0SN030"},"geometry":{"type":"Polygon","coordinates":[[[-105.836315,46.296212],[-105.841542,46.296217],[-105.841538,46.299836],[-105.841535,46.303455],[-105.841531,46.307074],[-105.841528,46.310694],[-105.836297,46.31069],[-105.831066,46.310687],[-105.825834,46.310683],[-105.820603,46.31068],[-105.820612,46.307059],[-105.82062,46.303438],[-105.820628,46.299817],[-105.820637,46.296196],[-105.825863,46.296202],[-105.831089,46.296207],[-105.836315,46.296212]]]}},{"type":"Feature","properties":{"sec":"18","frstdivid":"MT200060N0470E0SN180"},"geometry":{"type":"Polygon","coordinates":[[[-105.898925,46.267329],[-105.90423,46.267327],[-105.90423,46.270936],[-105.904229,46.274546],[-105.904229,46.278155],[-105.904229,46.281764],[-105.898966,46.28177],[-105.893746,46.281775],[-105.888524,46.281781],[-105.883302,46.281786],[-105.883297,46.278175],[-105.883291,46.274564],[-105.883285,46.270953],[-105.883279,46.267342],[-105.888494,46.267337],[-105.893708,46.267332],[-105.898925,46.267329]]]}},{"type":"Feature","properties":{"sec":"12","frstdivid":"MT200060N0470E0SN120"},"geometry":{"type":"Polygon","coordinates":[[[-105.794527,46.281689],[-105.799768,46.281691],[-105.799759,46.28531],[-105.79975,46.28893],[-105.799743,46.292551],[-105.799735,46.296173],[-105.794508,46.296174],[-105.789281,46.296175],[-105.784049,46.296174],[-105.778818,46.296173],[-105.778821,46.292557],[-105.778825,46.28894],[-105.778828,46.285319],[-105.778831,46.281697],[-105.784058,46.281692],[-105.789285,46.281686],[-105.794527,46.281689]]]}},{"type":"Feature","properties":{"sec":"28","frstdivid":"MT200060N0470E0SN280"},"geometry":{"type":"Polygon","coordinates":[[[-105.856427,46.238794],[-105.861567,46.238813],[-105.861602,46.242414],[-105.861636,46.246015],[-105.861671,46.249616],[-105.861706,46.253217],[-105.856517,46.253205],[-105.851328,46.253193],[-105.84614,46.25318],[-105.840953,46.253167],[-105.840965,46.24956],[-105.84098,46.245952],[-105.840994,46.242344],[-105.841009,46.238736],[-105.846148,46.238755],[-105.851288,46.238774],[-105.856427,46.238794]]]}},{"type":"Feature","properties":{"sec":"31","frstdivid":"MT200060N0470E0SN310"},"geometry":{"type":"Polygon","coordinates":[[[-105.898438,46.224095],[-105.902789,46.224067],[-105.902841,46.227675],[-105.902892,46.231283],[-105.902855,46.234904],[-105.902818,46.238524],[-105.897938,46.23855],[-105.892748,46.238577],[-105.887558,46.238605],[-105.882368,46.238632],[-105.882321,46.235026],[-105.882274,46.23142],[-105.882227,46.227814],[-105.88218,46.224208],[-105.882806,46.224204],[-105.88739,46.22417],[-105.888016,46.224166],[-105.8926,46.224131],[-105.893226,46.224128],[-105.897812,46.224098],[-105.898438,46.224095]]]}},{"type":"Feature","properties":{"sec":"14","frstdivid":"MT200060N0470E0SN140"},"geometry":{"type":"Polygon","coordinates":[[[-105.815464,46.267212],[-105.820699,46.267211],[-105.820696,46.270836],[-105.820694,46.274461],[-105.820692,46.278086],[-105.820689,46.281711],[-105.815459,46.281706],[-105.810229,46.281701],[-105.804998,46.281696],[-105.799768,46.281691],[-105.799765,46.278077],[-105.799762,46.274464],[-105.79976,46.27084],[-105.799759,46.267216],[-105.804994,46.267214],[-105.810229,46.267213],[-105.815464,46.267212]]]}},{"type":"Feature","properties":{"sec":"06","frstdivid":"MT200060N0470E0SN060"},"geometry":{"type":"Polygon","coordinates":[[[-105.898965,46.296243],[-105.90425,46.296242],[-105.90424,46.299862],[-105.90423,46.303482],[-105.90422,46.307103],[-105.904209,46.310723],[-105.898988,46.310723],[-105.893767,46.310722],[-105.888547,46.310722],[-105.883327,46.310722],[-105.883323,46.307103],[-105.883318,46.303484],[-105.883313,46.299865],[-105.883308,46.296247],[-105.888527,46.296245],[-105.893745,46.296244],[-105.898965,46.296243]]]}},{"type":"Feature","properties":{"sec":"25","frstdivid":"MT200060N0470E0SN250"},"geometry":{"type":"Polygon","coordinates":[[[-105.794438,46.238976],[-105.799652,46.238971],[-105.799533,46.242657],[-105.799413,46.246342],[-105.799463,46.249879],[-105.799512,46.253415],[-105.794282,46.253399],[-105.789052,46.253383],[-105.783932,46.253399],[-105.778813,46.253414],[-105.7788,46.249805],[-105.778787,46.246195],[-105.77879,46.242592],[-105.778794,46.23899],[-105.784008,46.238985],[-105.789223,46.23898],[-105.794438,46.238976]]]}},{"type":"Feature","properties":{"sec":"19","frstdivid":"MT200060N0470E0SN190"},"geometry":{"type":"Polygon","coordinates":[[[-105.883378,46.265444],[-105.883282,46.263887],[-105.88306,46.260284],[-105.882838,46.256678],[-105.882616,46.253072],[-105.887843,46.253041],[-105.893069,46.25301],[-105.898296,46.25298],[-105.9032,46.252952],[-105.903253,46.256558],[-105.903306,46.260164],[-105.902968,46.263771],[-105.902813,46.265409],[-105.904228,46.265405],[-105.90423,46.267327],[-105.898925,46.267329],[-105.893708,46.267332],[-105.888494,46.267337],[-105.883279,46.267342],[-105.883277,46.265443],[-105.883378,46.265444]]]}},{"type":"Feature","properties":{"sec":"36","frstdivid":"MT200060N0470E0SN360"},"geometry":{"type":"Polygon","coordinates":[[[-105.794356,46.224456],[-105.799551,46.224426],[-105.799586,46.228013],[-105.799621,46.2316],[-105.799636,46.235286],[-105.799652,46.238971],[-105.794438,46.238976],[-105.789223,46.23898],[-105.784008,46.238985],[-105.778794,46.23899],[-105.778791,46.235379],[-105.778788,46.231768],[-105.778785,46.228148],[-105.778782,46.224528],[-105.783972,46.224507],[-105.789161,46.224486],[-105.794356,46.224456]]]}},{"type":"Feature","properties":{"sec":"33","frstdivid":"MT200060N0470E0SN330"},"geometry":{"type":"Polygon","coordinates":[[[-105.856754,46.22442],[-105.8614,46.224409],[-105.861454,46.22801],[-105.861509,46.23161],[-105.861538,46.235212],[-105.861567,46.238813],[-105.856427,46.238794],[-105.851288,46.238774],[-105.846148,46.238755],[-105.841009,46.238736],[-105.840902,46.235166],[-105.840795,46.231596],[-105.840689,46.228027],[-105.840582,46.224457],[-105.841072,46.224456],[-105.845787,46.224445],[-105.846299,46.224444],[-105.850991,46.224433],[-105.851527,46.224432],[-105.856195,46.224421],[-105.856754,46.22442]]]}},{"type":"Feature","properties":{"sec":"08","frstdivid":"MT200060N0470E0SN080"},"geometry":{"type":"Polygon","coordinates":[[[-105.878081,46.281781],[-105.883302,46.281786],[-105.883304,46.285401],[-105.883305,46.289016],[-105.883307,46.292632],[-105.883308,46.296247],[-105.878085,46.296244],[-105.872861,46.296242],[-105.867637,46.296239],[-105.862413,46.296237],[-105.862414,46.292619],[-105.862415,46.289001],[-105.862416,46.285383],[-105.862417,46.281766],[-105.867638,46.281771],[-105.87286,46.281776],[-105.878081,46.281781]]]}},{"type":"Feature","properties":{"sec":"01","frstdivid":"MT200060N0470E0SN010"},"geometry":{"type":"Polygon","coordinates":[[[-105.794508,46.296174],[-105.799735,46.296173],[-105.799729,46.299797],[-105.799723,46.303421],[-105.799717,46.307044],[-105.799711,46.310668],[-105.794482,46.310662],[-105.789252,46.310656],[-105.784023,46.31065],[-105.778794,46.310643],[-105.7788,46.307024],[-105.778806,46.303406],[-105.778812,46.299789],[-105.778818,46.296173],[-105.784049,46.296174],[-105.789281,46.296175],[-105.794508,46.296174]]]}},{"type":"Feature","properties":{"sec":"15","frstdivid":"MT200060N0470E0SN150"},"geometry":{"type":"Polygon","coordinates":[[[-105.836312,46.267238],[-105.841516,46.267248],[-105.841524,46.270869],[-105.841532,46.274491],[-105.841539,46.278113],[-105.841547,46.281735],[-105.836332,46.281729],[-105.831118,46.281723],[-105.825904,46.281717],[-105.820689,46.281711],[-105.820692,46.278086],[-105.820694,46.274461],[-105.820696,46.270836],[-105.820699,46.267211],[-105.825903,46.26722],[-105.831108,46.267229],[-105.836312,46.267238]]]}},{"type":"Feature","properties":{"sec":"04","frstdivid":"MT200060N0470E0SN040"},"geometry":{"type":"Polygon","coordinates":[[[-105.857208,46.310706],[-105.851981,46.310702],[-105.846755,46.310698],[-105.841528,46.310694],[-105.841531,46.307074],[-105.841535,46.303455],[-105.841538,46.299836],[-105.841542,46.296217],[-105.846759,46.296222],[-105.851977,46.296227],[-105.857195,46.296232],[-105.862413,46.296237],[-105.862418,46.299855],[-105.862424,46.303474],[-105.862429,46.307092],[-105.862434,46.310711],[-105.857208,46.310706]]]}},{"type":"Feature","properties":{"sec":"30","frstdivid":"MT200060N0470E0SN300"},"geometry":{"type":"Polygon","coordinates":[[[-105.897938,46.23855],[-105.902818,46.238524],[-105.902884,46.242116],[-105.90295,46.245708],[-105.903075,46.24933],[-105.9032,46.252952],[-105.898296,46.25298],[-105.893069,46.25301],[-105.887843,46.253041],[-105.882616,46.253072],[-105.882554,46.249462],[-105.882492,46.245852],[-105.88243,46.242242],[-105.882368,46.238632],[-105.887558,46.238605],[-105.892748,46.238577],[-105.897938,46.23855]]]}}]}