{"type":"FeatureCollection","note":"BLM Public Land Survey System. Provided by the Bureau of Land Management as is. These data are neither legal documents nor land surveys and must not be used as such.","features":[{"type":"Feature","properties":{"sec":"08","frstdivid":"MT200120N0290E0SN080"},"geometry":{"type":"Polygon","coordinates":[[[-108.099174,46.812343],[-108.104466,46.812339],[-108.109757,46.812336],[-108.115049,46.812333],[-108.115043,46.815967],[-108.115037,46.8196],[-108.115032,46.823233],[-108.115026,46.826866],[-108.109733,46.826866],[-108.10444,46.826866],[-108.099147,46.826865],[-108.093854,46.826865],[-108.093861,46.823235],[-108.093868,46.819605],[-108.093876,46.815975],[-108.093883,46.812346],[-108.099174,46.812343]]]}},{"type":"Feature","properties":{"sec":"11","frstdivid":"MT200120N0290E0SN110"},"geometry":{"type":"Polygon","coordinates":[[[-108.03045,46.815916],[-108.030468,46.812284],[-108.035751,46.812294],[-108.041033,46.812305],[-108.046316,46.812316],[-108.051599,46.812326],[-108.051587,46.815959],[-108.051575,46.819592],[-108.051562,46.823224],[-108.05155,46.826857],[-108.046262,46.826846],[-108.040974,46.826835],[-108.035685,46.826824],[-108.030397,46.826813],[-108.030415,46.823181],[-108.030432,46.819548],[-108.03045,46.815916]]]}},{"type":"Feature","properties":{"sec":"20","frstdivid":"MT200120N0290E0SN200"},"geometry":{"type":"Polygon","coordinates":[[[-108.09919,46.797826],[-108.093898,46.797831],[-108.093908,46.7942],[-108.093918,46.79057],[-108.093928,46.786939],[-108.093938,46.783308],[-108.099218,46.783303],[-108.104498,46.783297],[-108.109777,46.783291],[-108.115057,46.783286],[-108.11506,46.786917],[-108.115063,46.790548],[-108.115065,46.79418],[-108.115068,46.797811],[-108.109775,46.797816],[-108.104483,46.797821],[-108.09919,46.797826]]]}},{"type":"Feature","properties":{"sec":"14","frstdivid":"MT200120N0290E0SN140"},"geometry":{"type":"Polygon","coordinates":[[[-108.041033,46.812305],[-108.035751,46.812294],[-108.030468,46.812284],[-108.030485,46.808653],[-108.030502,46.805022],[-108.03052,46.801391],[-108.030537,46.797761],[-108.035813,46.797769],[-108.041089,46.797777],[-108.046365,46.797785],[-108.051642,46.797793],[-108.051631,46.801426],[-108.05162,46.80506],[-108.05161,46.808693],[-108.051599,46.812326],[-108.046316,46.812316],[-108.041033,46.812305]]]}},{"type":"Feature","properties":{"sec":"32","frstdivid":"MT200120N0290E0SN320"},"geometry":{"type":"Polygon","coordinates":[[[-108.099255,46.754259],[-108.104526,46.754257],[-108.109798,46.754255],[-108.115069,46.754253],[-108.115066,46.757882],[-108.115063,46.76151],[-108.115059,46.765139],[-108.115056,46.768768],[-108.109782,46.768771],[-108.104509,46.768775],[-108.099235,46.768779],[-108.093961,46.768783],[-108.093967,46.765152],[-108.093972,46.761522],[-108.093978,46.757891],[-108.093984,46.75426],[-108.099255,46.754259]]]}},{"type":"Feature","properties":{"sec":"15","frstdivid":"MT200120N0290E0SN150"},"geometry":{"type":"Polygon","coordinates":[[[-108.05162,46.80506],[-108.051631,46.801426],[-108.051642,46.797793],[-108.056929,46.797798],[-108.062217,46.797803],[-108.067504,46.797809],[-108.072792,46.797814],[-108.072781,46.801448],[-108.072771,46.805083],[-108.07276,46.808718],[-108.07275,46.812353],[-108.067462,46.812346],[-108.062174,46.812339],[-108.056887,46.812333],[-108.051599,46.812326],[-108.05161,46.808693],[-108.05162,46.80506]]]}},{"type":"Feature","properties":{"sec":"03","frstdivid":"MT200120N0290E0SN030"},"geometry":{"type":"Polygon","coordinates":[[[-108.056826,46.836716],[-108.055056,46.836714],[-108.051538,46.83671],[-108.051542,46.834112],[-108.051546,46.830485],[-108.05155,46.826857],[-108.056839,46.826862],[-108.062128,46.826867],[-108.067417,46.826871],[-108.072706,46.826876],[-108.0727,46.830499],[-108.072693,46.834123],[-108.07269,46.83673],[-108.070912,46.836729],[-108.067402,46.836726],[-108.065626,46.836724],[-108.062114,46.836721],[-108.060341,46.836721],[-108.056826,46.836716]]]}},{"type":"Feature","properties":{"sec":"18","frstdivid":"MT200120N0290E0SN180"},"geometry":{"type":"Polygon","coordinates":[[[-108.115068,46.797811],[-108.120346,46.797813],[-108.125623,46.797814],[-108.130901,46.797816],[-108.136178,46.797818],[-108.136171,46.801448],[-108.136163,46.805078],[-108.136155,46.808708],[-108.136147,46.812337],[-108.130873,46.812336],[-108.125598,46.812335],[-108.120323,46.812334],[-108.115049,46.812333],[-108.115054,46.808703],[-108.115058,46.805072],[-108.115063,46.801441],[-108.115068,46.797811]]]}},{"type":"Feature","properties":{"sec":"23","frstdivid":"MT200120N0290E0SN230"},"geometry":{"type":"Polygon","coordinates":[[[-108.046426,46.783278],[-108.051702,46.783285],[-108.051687,46.786912],[-108.051672,46.790539],[-108.051657,46.794166],[-108.051642,46.797793],[-108.046365,46.797785],[-108.041089,46.797777],[-108.035813,46.797769],[-108.030537,46.797761],[-108.030553,46.794135],[-108.030569,46.79051],[-108.030584,46.786884],[-108.0306,46.783259],[-108.035875,46.783265],[-108.041151,46.783272],[-108.046426,46.783278]]]}},{"type":"Feature","properties":{"sec":"02","frstdivid":"MT200120N0290E0SN020"},"geometry":{"type":"Polygon","coordinates":[[[-108.039201,46.836711],[-108.03567,46.836711],[-108.033916,46.836711],[-108.03038,46.836711],[-108.030385,46.834067],[-108.030391,46.83044],[-108.030397,46.826813],[-108.035685,46.826824],[-108.040974,46.826835],[-108.046262,46.826846],[-108.05155,46.826857],[-108.051546,46.830485],[-108.051542,46.834112],[-108.051538,46.83671],[-108.04977,46.83671],[-108.046249,46.83671],[-108.044485,46.83671],[-108.040959,46.836711],[-108.039201,46.836711]]]}},{"type":"Feature","properties":{"sec":"26","frstdivid":"MT200120N0290E0SN260"},"geometry":{"type":"Polygon","coordinates":[[[-108.030664,46.768746],[-108.035936,46.768751],[-108.041208,46.768757],[-108.04648,46.768762],[-108.051751,46.768768],[-108.051739,46.772397],[-108.051727,46.776026],[-108.051714,46.779656],[-108.051702,46.783285],[-108.046426,46.783278],[-108.041151,46.783272],[-108.035875,46.783265],[-108.0306,46.783259],[-108.030616,46.779631],[-108.030632,46.776002],[-108.030648,46.772374],[-108.030664,46.768746]]]}},{"type":"Feature","properties":{"sec":"29","frstdivid":"MT200120N0290E0SN290"},"geometry":{"type":"Polygon","coordinates":[[[-108.109777,46.783291],[-108.104498,46.783297],[-108.099218,46.783303],[-108.093938,46.783308],[-108.093944,46.779677],[-108.09395,46.776045],[-108.093955,46.772414],[-108.093961,46.768783],[-108.099235,46.768779],[-108.104509,46.768775],[-108.109782,46.768771],[-108.115056,46.768768],[-108.115056,46.772397],[-108.115057,46.776027],[-108.115057,46.779656],[-108.115057,46.783286],[-108.109777,46.783291]]]}},{"type":"Feature","properties":{"sec":"01","frstdivid":"MT200120N0290E0SN010"},"geometry":{"type":"Polygon","coordinates":[[[-108.030391,46.83044],[-108.030385,46.834067],[-108.03038,46.836711],[-108.028631,46.836711],[-108.02508,46.836715],[-108.023347,46.836717],[-108.01978,46.836721],[-108.018062,46.836722],[-108.013229,46.836741],[-108.013233,46.835629],[-108.013238,46.834158],[-108.013237,46.834098],[-108.013175,46.830518],[-108.013174,46.830454],[-108.013112,46.826878],[-108.013111,46.826811],[-108.014548,46.82681],[-108.019827,46.82681],[-108.025112,46.826812],[-108.030397,46.826813],[-108.030391,46.83044]]]}},{"type":"Feature","properties":{"sec":"10","frstdivid":"MT200120N0290E0SN100"},"geometry":{"type":"Polygon","coordinates":[[[-108.051587,46.815959],[-108.051599,46.812326],[-108.056887,46.812333],[-108.062174,46.812339],[-108.067462,46.812346],[-108.07275,46.812353],[-108.072739,46.815984],[-108.072728,46.819614],[-108.072717,46.823245],[-108.072706,46.826876],[-108.067417,46.826871],[-108.062128,46.826867],[-108.056839,46.826862],[-108.05155,46.826857],[-108.051562,46.823224],[-108.051575,46.819592],[-108.051587,46.815959]]]}},{"type":"Feature","properties":{"sec":"06","frstdivid":"MT200120N0290E0SN060"},"geometry":{"type":"Polygon","coordinates":[[[-108.12373,46.836708],[-108.120296,46.836714],[-108.118448,46.836718],[-108.115024,46.836724],[-108.115025,46.834124],[-108.115025,46.830495],[-108.115026,46.826866],[-108.1203,46.826869],[-108.125574,46.826872],[-108.130849,46.826875],[-108.136123,46.826878],[-108.136115,46.830502],[-108.136108,46.834127],[-108.136106,46.836664],[-108.134286,46.83667],[-108.130838,46.836683],[-108.129008,46.836689],[-108.125569,46.836702],[-108.12373,46.836708]]]}},{"type":"Feature","properties":{"sec":"24","frstdivid":"MT200120N0290E0SN240"},"geometry":{"type":"Polygon","coordinates":[[[-108.01999,46.797748],[-108.014719,46.797746],[-108.012469,46.797746],[-108.012367,46.794541],[-108.012353,46.794125],[-108.012252,46.790931],[-108.012246,46.790504],[-108.012205,46.787338],[-108.012199,46.786876],[-108.012158,46.783746],[-108.012153,46.783249],[-108.01479,46.78325],[-108.020059,46.783253],[-108.02533,46.783256],[-108.0306,46.783259],[-108.030584,46.786884],[-108.030569,46.79051],[-108.030553,46.794135],[-108.030537,46.797761],[-108.025264,46.797754],[-108.01999,46.797748]]]}},{"type":"Feature","properties":{"sec":"21","frstdivid":"MT200120N0290E0SN210"},"geometry":{"type":"Polygon","coordinates":[[[-108.093928,46.786939],[-108.093918,46.79057],[-108.093908,46.7942],[-108.093898,46.797831],[-108.088621,46.797827],[-108.083345,46.797822],[-108.078068,46.797818],[-108.072792,46.797814],[-108.0728,46.794183],[-108.072808,46.790552],[-108.072817,46.786921],[-108.072825,46.78329],[-108.078103,46.783295],[-108.083381,46.783299],[-108.08866,46.783304],[-108.093938,46.783308],[-108.093928,46.786939]]]}},{"type":"Feature","properties":{"sec":"19","frstdivid":"MT200120N0290E0SN190"},"geometry":{"type":"Polygon","coordinates":[[[-108.125623,46.797814],[-108.120346,46.797813],[-108.115068,46.797811],[-108.115065,46.79418],[-108.115063,46.790548],[-108.11506,46.786917],[-108.115057,46.783286],[-108.120341,46.783288],[-108.125624,46.78329],[-108.130907,46.783292],[-108.136191,46.783295],[-108.136188,46.786925],[-108.136184,46.790556],[-108.136181,46.794187],[-108.136178,46.797818],[-108.130901,46.797816],[-108.125623,46.797814]]]}},{"type":"Feature","properties":{"sec":"17","frstdivid":"MT200120N0290E0SN170"},"geometry":{"type":"Polygon","coordinates":[[[-108.093894,46.80146],[-108.093898,46.797831],[-108.09919,46.797826],[-108.104483,46.797821],[-108.109775,46.797816],[-108.115068,46.797811],[-108.115063,46.801441],[-108.115058,46.805072],[-108.115054,46.808703],[-108.115049,46.812333],[-108.109757,46.812336],[-108.104466,46.812339],[-108.099174,46.812343],[-108.093883,46.812346],[-108.093887,46.808717],[-108.09389,46.805088],[-108.093894,46.80146]]]}},{"type":"Feature","properties":{"sec":"31","frstdivid":"MT200120N0290E0SN310"},"geometry":{"type":"Polygon","coordinates":[[[-108.136158,46.754249],[-108.136166,46.75788],[-108.136174,46.761512],[-108.136182,46.765143],[-108.13619,46.768774],[-108.130907,46.768772],[-108.125623,46.768771],[-108.12034,46.768769],[-108.115056,46.768768],[-108.115059,46.765139],[-108.115063,46.76151],[-108.115066,46.757882],[-108.115069,46.754253],[-108.120341,46.754252],[-108.125614,46.754251],[-108.130886,46.75425],[-108.136158,46.754249]]]}},{"type":"Feature","properties":{"sec":"30","frstdivid":"MT200120N0290E0SN300"},"geometry":{"type":"Polygon","coordinates":[[[-108.120341,46.783288],[-108.115057,46.783286],[-108.115057,46.779656],[-108.115057,46.776027],[-108.115056,46.772397],[-108.115056,46.768768],[-108.12034,46.768769],[-108.125623,46.768771],[-108.130907,46.768772],[-108.13619,46.768774],[-108.13619,46.772404],[-108.13619,46.776034],[-108.13619,46.779664],[-108.136191,46.783295],[-108.130907,46.783292],[-108.125624,46.78329],[-108.120341,46.783288]]]}},{"type":"Feature","properties":{"sec":"33","frstdivid":"MT200120N0290E0SN330"},"geometry":{"type":"Polygon","coordinates":[[[-108.078169,46.754267],[-108.08344,46.754265],[-108.088712,46.754263],[-108.093984,46.75426],[-108.093978,46.757891],[-108.093972,46.761522],[-108.093967,46.765152],[-108.093961,46.768783],[-108.088685,46.76878],[-108.08341,46.768777],[-108.078135,46.768774],[-108.072859,46.768771],[-108.072869,46.765145],[-108.072878,46.76152],[-108.072888,46.757894],[-108.072897,46.754269],[-108.078169,46.754267]]]}},{"type":"Feature","properties":{"sec":"35","frstdivid":"MT200120N0290E0SN350"},"geometry":{"type":"Polygon","coordinates":[[[-108.051793,46.757887],[-108.051779,46.761514],[-108.051765,46.765141],[-108.051751,46.768768],[-108.04648,46.768762],[-108.041208,46.768757],[-108.035936,46.768751],[-108.030664,46.768746],[-108.030679,46.765123],[-108.030693,46.761499],[-108.030708,46.757876],[-108.030722,46.754253],[-108.035993,46.754255],[-108.041264,46.754257],[-108.046535,46.754259],[-108.051806,46.754261],[-108.051793,46.757887]]]}},{"type":"Feature","properties":{"sec":"05","frstdivid":"MT200120N0290E0SN050"},"geometry":{"type":"Polygon","coordinates":[[[-108.10444,46.826866],[-108.109733,46.826866],[-108.115026,46.826866],[-108.115025,46.830495],[-108.115025,46.834124],[-108.115024,46.836724],[-108.113167,46.83673],[-108.109725,46.836742],[-108.107885,46.836748],[-108.104426,46.836759],[-108.102604,46.836766],[-108.099131,46.836761],[-108.097325,46.836758],[-108.093836,46.836755],[-108.09384,46.83412],[-108.093847,46.830492],[-108.093854,46.826865],[-108.099147,46.826865],[-108.10444,46.826866]]]}},{"type":"Feature","properties":{"sec":"25","frstdivid":"MT200120N0290E0SN250"},"geometry":{"type":"Polygon","coordinates":[[[-108.01195,46.768731],[-108.01486,46.768731],[-108.020128,46.768734],[-108.025396,46.76874],[-108.030664,46.768746],[-108.030648,46.772374],[-108.030632,46.776002],[-108.030616,46.779631],[-108.0306,46.783259],[-108.02533,46.783256],[-108.020059,46.783253],[-108.01479,46.78325],[-108.012153,46.783249],[-108.012125,46.780124],[-108.01212,46.779614],[-108.012091,46.776503],[-108.012082,46.77598],[-108.012022,46.772876],[-108.012012,46.772355],[-108.011951,46.769248],[-108.01195,46.768731]]]}},{"type":"Feature","properties":{"sec":"12","frstdivid":"MT200120N0290E0SN120"},"geometry":{"type":"Polygon","coordinates":[[[-108.019827,46.82681],[-108.014548,46.82681],[-108.013111,46.826811],[-108.013028,46.82334],[-108.013024,46.823174],[-108.012944,46.819803],[-108.012938,46.819537],[-108.012864,46.816196],[-108.012858,46.815904],[-108.012785,46.812588],[-108.01277,46.81227],[-108.014644,46.812271],[-108.019917,46.812274],[-108.025193,46.812279],[-108.030468,46.812284],[-108.03045,46.815916],[-108.030432,46.819548],[-108.030415,46.823181],[-108.030397,46.826813],[-108.025112,46.826812],[-108.019827,46.82681]]]}},{"type":"Feature","properties":{"sec":"07","frstdivid":"MT200120N0290E0SN070"},"geometry":{"type":"Polygon","coordinates":[[[-108.125574,46.826872],[-108.1203,46.826869],[-108.115026,46.826866],[-108.115032,46.823233],[-108.115037,46.8196],[-108.115043,46.815967],[-108.115049,46.812333],[-108.120323,46.812334],[-108.125598,46.812335],[-108.130873,46.812336],[-108.136147,46.812337],[-108.136141,46.815972],[-108.136135,46.819608],[-108.136129,46.823243],[-108.136123,46.826878],[-108.130849,46.826875],[-108.125574,46.826872]]]}},{"type":"Feature","properties":{"sec":"13","frstdivid":"MT200120N0290E0SN130"},"geometry":{"type":"Polygon","coordinates":[[[-108.030468,46.812284],[-108.025193,46.812279],[-108.019917,46.812274],[-108.014644,46.812271],[-108.01277,46.81227],[-108.012618,46.808969],[-108.012604,46.808645],[-108.012452,46.80535],[-108.012454,46.805021],[-108.012467,46.801751],[-108.012468,46.801383],[-108.012481,46.798151],[-108.012469,46.797746],[-108.014719,46.797746],[-108.01999,46.797748],[-108.025264,46.797754],[-108.030537,46.797761],[-108.03052,46.801391],[-108.030502,46.805022],[-108.030485,46.808653],[-108.030468,46.812284]]]}},{"type":"Feature","properties":{"sec":"34","frstdivid":"MT200120N0290E0SN340"},"geometry":{"type":"Polygon","coordinates":[[[-108.072859,46.768771],[-108.067582,46.76877],[-108.062305,46.768769],[-108.057028,46.768768],[-108.051751,46.768768],[-108.051765,46.765141],[-108.051779,46.761514],[-108.051793,46.757887],[-108.051806,46.754261],[-108.057079,46.754263],[-108.062352,46.754265],[-108.067624,46.754267],[-108.072897,46.754269],[-108.072888,46.757894],[-108.072878,46.76152],[-108.072869,46.765145],[-108.072859,46.768771]]]}},{"type":"Feature","properties":{"sec":"27","frstdivid":"MT200120N0290E0SN270"},"geometry":{"type":"Polygon","coordinates":[[[-108.057028,46.768768],[-108.062305,46.768769],[-108.067582,46.76877],[-108.072859,46.768771],[-108.072851,46.772401],[-108.072842,46.776031],[-108.072833,46.77966],[-108.072825,46.78329],[-108.067544,46.783289],[-108.062263,46.783288],[-108.056983,46.783286],[-108.051702,46.783285],[-108.051714,46.779656],[-108.051727,46.776026],[-108.051739,46.772397],[-108.051751,46.768768],[-108.057028,46.768768]]]}},{"type":"Feature","properties":{"sec":"28","frstdivid":"MT200120N0290E0SN280"},"geometry":{"type":"Polygon","coordinates":[[[-108.078135,46.768774],[-108.08341,46.768777],[-108.088685,46.76878],[-108.093961,46.768783],[-108.093955,46.772414],[-108.09395,46.776045],[-108.093944,46.779677],[-108.093938,46.783308],[-108.08866,46.783304],[-108.083381,46.783299],[-108.078103,46.783295],[-108.072825,46.78329],[-108.072833,46.77966],[-108.072842,46.776031],[-108.072851,46.772401],[-108.072859,46.768771],[-108.078135,46.768774]]]}},{"type":"Feature","properties":{"sec":"36","frstdivid":"MT200120N0290E0SN360"},"geometry":{"type":"Polygon","coordinates":[[[-108.01195,46.768731],[-108.01194,46.765606],[-108.011939,46.765105],[-108.011929,46.761964],[-108.011912,46.76148],[-108.011804,46.758457],[-108.011783,46.757862],[-108.011679,46.75495],[-108.011679,46.754244],[-108.014918,46.754245],[-108.020185,46.754247],[-108.025453,46.75425],[-108.030722,46.754253],[-108.030708,46.757876],[-108.030693,46.761499],[-108.030679,46.765123],[-108.030664,46.768746],[-108.025396,46.76874],[-108.020128,46.768734],[-108.01486,46.768731],[-108.01195,46.768731]]]}},{"type":"Feature","properties":{"sec":"22","frstdivid":"MT200120N0290E0SN220"},"geometry":{"type":"Polygon","coordinates":[[[-108.072792,46.797814],[-108.067504,46.797809],[-108.062217,46.797803],[-108.056929,46.797798],[-108.051642,46.797793],[-108.051657,46.794166],[-108.051672,46.790539],[-108.051687,46.786912],[-108.051702,46.783285],[-108.056983,46.783286],[-108.062263,46.783288],[-108.067544,46.783289],[-108.072825,46.78329],[-108.072817,46.786921],[-108.072808,46.790552],[-108.0728,46.794183],[-108.072792,46.797814]]]}},{"type":"Feature","properties":{"sec":"09","frstdivid":"MT200120N0290E0SN090"},"geometry":{"type":"Polygon","coordinates":[[[-108.078033,46.812351],[-108.083316,46.812349],[-108.0886,46.812347],[-108.093883,46.812346],[-108.093876,46.815975],[-108.093868,46.819605],[-108.093861,46.823235],[-108.093854,46.826865],[-108.088567,46.826868],[-108.08328,46.82687],[-108.077993,46.826873],[-108.072706,46.826876],[-108.072717,46.823245],[-108.072728,46.819614],[-108.072739,46.815984],[-108.07275,46.812353],[-108.078033,46.812351]]]}},{"type":"Feature","properties":{"sec":"04","frstdivid":"MT200120N0290E0SN040"},"geometry":{"type":"Polygon","coordinates":[[[-108.072706,46.826876],[-108.077993,46.826873],[-108.08328,46.82687],[-108.088567,46.826868],[-108.093854,46.826865],[-108.093847,46.830492],[-108.09384,46.83412],[-108.093836,46.836755],[-108.092048,46.836755],[-108.08855,46.836751],[-108.086764,46.836749],[-108.083264,46.836745],[-108.08148,46.836745],[-108.077977,46.836739],[-108.076196,46.836736],[-108.07269,46.83673],[-108.072693,46.834123],[-108.0727,46.830499],[-108.072706,46.826876]]]}},{"type":"Feature","properties":{"sec":"16","frstdivid":"MT200120N0290E0SN160"},"geometry":{"type":"Polygon","coordinates":[[[-108.083345,46.797822],[-108.088621,46.797827],[-108.093898,46.797831],[-108.093894,46.80146],[-108.09389,46.805088],[-108.093887,46.808717],[-108.093883,46.812346],[-108.0886,46.812347],[-108.083316,46.812349],[-108.078033,46.812351],[-108.07275,46.812353],[-108.07276,46.808718],[-108.072771,46.805083],[-108.072781,46.801448],[-108.072792,46.797814],[-108.078068,46.797818],[-108.083345,46.797822]]]}}]}