{"type":"FeatureCollection","note":"BLM Public Land Survey System. Provided by the Bureau of Land Management as is. These data are neither legal documents nor land surveys and must not be used as such.","features":[{"type":"Feature","properties":{"sec":"20","frstdivid":"MT200040S0580E0SN200"},"geometry":{"type":"Polygon","coordinates":[[[-104.586737,45.469837],[-104.591891,45.469829],[-104.591902,45.473447],[-104.591913,45.477066],[-104.591923,45.480685],[-104.591934,45.484303],[-104.58676,45.484317],[-104.581586,45.484331],[-104.576442,45.484339],[-104.571297,45.484347],[-104.571293,45.480726],[-104.571289,45.477105],[-104.571282,45.473483],[-104.571275,45.469861],[-104.576429,45.469853],[-104.581583,45.469845],[-104.586737,45.469837]]]}},{"type":"Feature","properties":{"sec":"04","frstdivid":"MT200040S0580E0SN040"},"geometry":{"type":"Polygon","coordinates":[[[-104.550768,45.513278],[-104.555905,45.513284],[-104.561042,45.513289],[-104.566181,45.513291],[-104.571319,45.513292],[-104.571321,45.516907],[-104.571324,45.520522],[-104.571338,45.524145],[-104.571358,45.52921],[-104.569891,45.529195],[-104.566218,45.529145],[-104.564683,45.529124],[-104.561077,45.529074],[-104.559476,45.529053],[-104.555937,45.529004],[-104.554309,45.528982],[-104.550796,45.528934],[-104.550781,45.524151],[-104.550769,45.52053],[-104.550769,45.516904],[-104.550768,45.513278]]]}},{"type":"Feature","properties":{"sec":"33","frstdivid":"MT200040S0580E0SN330"},"geometry":{"type":"Polygon","coordinates":[[[-104.550691,45.455361],[-104.550691,45.451743],[-104.55069,45.448126],[-104.550684,45.444503],[-104.55068,45.441535],[-104.551039,45.44154],[-104.55582,45.441589],[-104.556207,45.441593],[-104.560961,45.441642],[-104.561375,45.441646],[-104.566102,45.44171],[-104.566544,45.441716],[-104.571242,45.44178],[-104.571248,45.444504],[-104.571255,45.448128],[-104.571262,45.451753],[-104.571268,45.455377],[-104.566124,45.455373],[-104.56098,45.455369],[-104.555836,45.455365],[-104.550691,45.455361]]]}},{"type":"Feature","properties":{"sec":"28","frstdivid":"MT200040S0580E0SN280"},"geometry":{"type":"Polygon","coordinates":[[[-104.550702,45.458979],[-104.550691,45.455361],[-104.555836,45.455365],[-104.56098,45.455369],[-104.566124,45.455373],[-104.571268,45.455377],[-104.57127,45.458998],[-104.571272,45.462619],[-104.571274,45.46624],[-104.571275,45.469861],[-104.566136,45.469853],[-104.560997,45.469846],[-104.555862,45.469842],[-104.550727,45.469838],[-104.55072,45.466217],[-104.550713,45.462597],[-104.550702,45.458979]]]}},{"type":"Feature","properties":{"sec":"24","frstdivid":"MT200040S0580E0SN240"},"geometry":{"type":"Polygon","coordinates":[[[-104.509567,45.480711],[-104.509571,45.484332],[-104.504423,45.484337],[-104.499275,45.484343],[-104.494127,45.484348],[-104.48898,45.484354],[-104.488979,45.483623],[-104.488977,45.480736],[-104.488977,45.479987],[-104.488975,45.477119],[-104.488974,45.47637],[-104.488973,45.473493],[-104.488972,45.472752],[-104.48897,45.469866],[-104.494115,45.469856],[-104.499259,45.469846],[-104.504408,45.469848],[-104.509557,45.469849],[-104.509561,45.47347],[-104.509564,45.47709],[-104.509567,45.480711]]]}},{"type":"Feature","properties":{"sec":"30","frstdivid":"MT200040S0580E0SN300"},"geometry":{"type":"Polygon","coordinates":[[[-104.613003,45.467709],[-104.613003,45.469799],[-104.607334,45.469807],[-104.602187,45.469814],[-104.597039,45.469822],[-104.591891,45.469829],[-104.59188,45.466211],[-104.591869,45.462594],[-104.591858,45.458977],[-104.591847,45.455359],[-104.596992,45.455353],[-104.602137,45.455346],[-104.60728,45.455347],[-104.613044,45.455349],[-104.613042,45.456847],[-104.61303,45.458961],[-104.613022,45.460466],[-104.613011,45.462573],[-104.613003,45.464086],[-104.613003,45.466186],[-104.613003,45.467709]]]}},{"type":"Feature","properties":{"sec":"02","frstdivid":"MT200040S0580E0SN020"},"geometry":{"type":"Polygon","coordinates":[[[-104.52506,45.513314],[-104.530223,45.513317],[-104.53023,45.516939],[-104.530237,45.520561],[-104.530244,45.524182],[-104.530252,45.528649],[-104.528422,45.528623],[-104.525093,45.52858],[-104.523247,45.528557],[-104.519934,45.528514],[-104.518073,45.52849],[-104.514774,45.528439],[-104.512887,45.52841],[-104.509614,45.528359],[-104.50961,45.524177],[-104.509607,45.520559],[-104.509602,45.516937],[-104.509597,45.513315],[-104.514747,45.513314],[-104.519897,45.513312],[-104.52506,45.513314]]]}},{"type":"Feature","properties":{"sec":"15","frstdivid":"MT200040S0580E0SN150"},"geometry":{"type":"Polygon","coordinates":[[[-104.530169,45.498826],[-104.530168,45.495204],[-104.530168,45.491582],[-104.530167,45.48796],[-104.530166,45.484338],[-104.535312,45.484335],[-104.540457,45.484331],[-104.545603,45.484328],[-104.550748,45.484324],[-104.550752,45.487943],[-104.550756,45.491562],[-104.550758,45.495183],[-104.55076,45.498804],[-104.545612,45.49881],[-104.540464,45.498815],[-104.535317,45.498821],[-104.530169,45.498826]]]}},{"type":"Feature","properties":{"sec":"10","frstdivid":"MT200040S0580E0SN100"},"geometry":{"type":"Polygon","coordinates":[[[-104.535317,45.498821],[-104.540464,45.498815],[-104.545612,45.49881],[-104.55076,45.498804],[-104.550762,45.502424],[-104.550764,45.506045],[-104.550766,45.509661],[-104.550768,45.513278],[-104.545648,45.513286],[-104.540528,45.513294],[-104.535376,45.513306],[-104.530223,45.513317],[-104.53021,45.509694],[-104.530196,45.506072],[-104.530182,45.502449],[-104.530169,45.498826],[-104.535317,45.498821]]]}},{"type":"Feature","properties":{"sec":"01","frstdivid":"MT200040S0580E0SN010"},"geometry":{"type":"Polygon","coordinates":[[[-104.488988,45.524215],[-104.488988,45.523558],[-104.488988,45.520582],[-104.488988,45.519949],[-104.488988,45.516956],[-104.488988,45.516322],[-104.488988,45.51333],[-104.494144,45.513323],[-104.4993,45.513316],[-104.504449,45.513316],[-104.509597,45.513315],[-104.509602,45.516937],[-104.509607,45.520559],[-104.50961,45.524177],[-104.509614,45.528359],[-104.5077,45.52833],[-104.504457,45.528288],[-104.502516,45.528264],[-104.499301,45.528223],[-104.497331,45.528198],[-104.494145,45.528156],[-104.492162,45.52813],[-104.488989,45.528088],[-104.488989,45.527172],[-104.488988,45.524215]]]}},{"type":"Feature","properties":{"sec":"36","frstdivid":"MT200040S0580E0SN360"},"geometry":{"type":"Polygon","coordinates":[[[-104.504479,45.440952],[-104.509649,45.440987],[-104.509627,45.444487],[-104.509604,45.448113],[-104.509581,45.451739],[-104.509558,45.455364],[-104.504409,45.455354],[-104.49926,45.455344],[-104.494111,45.455351],[-104.488962,45.455359],[-104.488963,45.454653],[-104.488968,45.451731],[-104.488969,45.451033],[-104.488973,45.448104],[-104.488974,45.447408],[-104.488978,45.444477],[-104.488979,45.443784],[-104.488983,45.44085],[-104.494146,45.440884],[-104.499309,45.440918],[-104.504479,45.440952]]]}},{"type":"Feature","properties":{"sec":"12","frstdivid":"MT200040S0580E0SN120"},"geometry":{"type":"Polygon","coordinates":[[[-104.504428,45.498827],[-104.509574,45.49882],[-104.50958,45.502444],[-104.509586,45.506068],[-104.509592,45.509692],[-104.509597,45.513315],[-104.504449,45.513316],[-104.4993,45.513316],[-104.494144,45.513323],[-104.488988,45.51333],[-104.488989,45.512689],[-104.488991,45.509709],[-104.488992,45.509057],[-104.488994,45.506089],[-104.488994,45.505424],[-104.488992,45.502468],[-104.488992,45.501792],[-104.488991,45.498848],[-104.494137,45.498841],[-104.499282,45.498834],[-104.504428,45.498827]]]}},{"type":"Feature","properties":{"sec":"17","frstdivid":"MT200040S0580E0SN170"},"geometry":{"type":"Polygon","coordinates":[[[-104.576442,45.484339],[-104.581586,45.484331],[-104.58676,45.484317],[-104.591934,45.484303],[-104.59194,45.487924],[-104.591946,45.491546],[-104.591952,45.495167],[-104.591958,45.498788],[-104.586795,45.498796],[-104.581632,45.498803],[-104.576469,45.498811],[-104.571306,45.498819],[-104.571303,45.495201],[-104.571301,45.491583],[-104.571299,45.487965],[-104.571297,45.484347],[-104.576442,45.484339]]]}},{"type":"Feature","properties":{"sec":"03","frstdivid":"MT200040S0580E0SN030"},"geometry":{"type":"Polygon","coordinates":[[[-104.550768,45.513278],[-104.550769,45.516904],[-104.550769,45.52053],[-104.550781,45.524151],[-104.550796,45.528934],[-104.549143,45.528911],[-104.545661,45.528864],[-104.543963,45.52884],[-104.540525,45.528793],[-104.538783,45.528769],[-104.535389,45.528721],[-104.533603,45.528696],[-104.530252,45.528649],[-104.530244,45.524182],[-104.530237,45.520561],[-104.53023,45.516939],[-104.530223,45.513317],[-104.535376,45.513306],[-104.540528,45.513294],[-104.545648,45.513286],[-104.550768,45.513278]]]}},{"type":"Feature","properties":{"sec":"07","frstdivid":"MT200040S0580E0SN070"},"geometry":{"type":"Polygon","coordinates":[[[-104.597141,45.513271],[-104.591982,45.513274],[-104.591976,45.509652],[-104.59197,45.506031],[-104.591964,45.502409],[-104.591958,45.498788],[-104.597105,45.498803],[-104.602253,45.498819],[-104.607399,45.498834],[-104.612935,45.498851],[-104.612932,45.500357],[-104.612929,45.502477],[-104.612926,45.503986],[-104.612923,45.506103],[-104.612922,45.507616],[-104.612917,45.509729],[-104.612913,45.511239],[-104.612909,45.513355],[-104.607454,45.513311],[-104.602301,45.513269],[-104.597141,45.513271]]]}},{"type":"Feature","properties":{"sec":"26","frstdivid":"MT200040S0580E0SN260"},"geometry":{"type":"Polygon","coordinates":[[[-104.514707,45.455362],[-104.519856,45.455361],[-104.524998,45.455361],[-104.530141,45.455362],[-104.530141,45.458984],[-104.530141,45.462606],[-104.530141,45.466229],[-104.530141,45.469851],[-104.524995,45.469851],[-104.519849,45.46985],[-104.514703,45.46985],[-104.509557,45.469849],[-104.509557,45.466228],[-104.509558,45.462607],[-104.509558,45.458985],[-104.509558,45.455364],[-104.514707,45.455362]]]}},{"type":"Feature","properties":{"sec":"22","frstdivid":"MT200040S0580E0SN220"},"geometry":{"type":"Polygon","coordinates":[[[-104.540434,45.469844],[-104.54558,45.469841],[-104.550727,45.469838],[-104.550734,45.473458],[-104.55074,45.477079],[-104.550744,45.480702],[-104.550748,45.484324],[-104.545603,45.484328],[-104.540457,45.484331],[-104.535312,45.484335],[-104.530166,45.484338],[-104.53016,45.480717],[-104.530154,45.477095],[-104.530147,45.473473],[-104.530141,45.469851],[-104.535288,45.469848],[-104.540434,45.469844]]]}},{"type":"Feature","properties":{"sec":"29","frstdivid":"MT200040S0580E0SN290"},"geometry":{"type":"Polygon","coordinates":[[[-104.571272,45.462619],[-104.57127,45.458998],[-104.571268,45.455377],[-104.576413,45.455373],[-104.581558,45.455368],[-104.586703,45.455364],[-104.591847,45.455359],[-104.591858,45.458977],[-104.591869,45.462594],[-104.59188,45.466211],[-104.591891,45.469829],[-104.586737,45.469837],[-104.581583,45.469845],[-104.576429,45.469853],[-104.571275,45.469861],[-104.571274,45.46624],[-104.571272,45.462619]]]}},{"type":"Feature","properties":{"sec":"21","frstdivid":"MT200040S0580E0SN210"},"geometry":{"type":"Polygon","coordinates":[[[-104.550727,45.469838],[-104.555862,45.469842],[-104.560997,45.469846],[-104.566136,45.469853],[-104.571275,45.469861],[-104.571282,45.473483],[-104.571289,45.477105],[-104.571293,45.480726],[-104.571297,45.484347],[-104.566156,45.484337],[-104.561014,45.484327],[-104.555881,45.484326],[-104.550748,45.484324],[-104.550744,45.480702],[-104.55074,45.477079],[-104.550734,45.473458],[-104.550727,45.469838]]]}},{"type":"Feature","properties":{"sec":"18","frstdivid":"MT200040S0580E0SN180"},"geometry":{"type":"Polygon","coordinates":[[[-104.602253,45.498819],[-104.597105,45.498803],[-104.591958,45.498788],[-104.591952,45.495167],[-104.591946,45.491546],[-104.59194,45.487924],[-104.591934,45.484303],[-104.597085,45.484309],[-104.602236,45.484316],[-104.607387,45.484321],[-104.612973,45.484328],[-104.61297,45.485826],[-104.612964,45.487958],[-104.61296,45.489455],[-104.612954,45.491588],[-104.612951,45.493084],[-104.612945,45.49522],[-104.612941,45.49672],[-104.612935,45.498851],[-104.607399,45.498834],[-104.602253,45.498819]]]}},{"type":"Feature","properties":{"sec":"23","frstdivid":"MT200040S0580E0SN230"},"geometry":{"type":"Polygon","coordinates":[[[-104.509557,45.469849],[-104.514703,45.46985],[-104.519849,45.46985],[-104.524995,45.469851],[-104.530141,45.469851],[-104.530147,45.473473],[-104.530154,45.477095],[-104.53016,45.480717],[-104.530166,45.484338],[-104.525017,45.484337],[-104.519868,45.484335],[-104.514719,45.484333],[-104.509571,45.484332],[-104.509567,45.480711],[-104.509564,45.47709],[-104.509561,45.47347],[-104.509557,45.469849]]]}},{"type":"Feature","properties":{"sec":"06","frstdivid":"MT200040S0580E0SN060"},"geometry":{"type":"Polygon","coordinates":[[[-104.612909,45.513355],[-104.612906,45.514862],[-104.6129,45.516975],[-104.612896,45.518487],[-104.612891,45.520594],[-104.612888,45.522112],[-104.612884,45.524216],[-104.612882,45.525728],[-104.612874,45.529702],[-104.611612,45.529702],[-104.60747,45.529643],[-104.606142,45.529624],[-104.602314,45.529571],[-104.600949,45.529551],[-104.597162,45.529514],[-104.595759,45.5295],[-104.59201,45.529464],[-104.592019,45.524144],[-104.592024,45.520517],[-104.592003,45.516896],[-104.591982,45.513274],[-104.597141,45.513271],[-104.602301,45.513269],[-104.607454,45.513311],[-104.612909,45.513355]]]}},{"type":"Feature","properties":{"sec":"09","frstdivid":"MT200040S0580E0SN090"},"geometry":{"type":"Polygon","coordinates":[[[-104.566169,45.498815],[-104.571306,45.498819],[-104.571308,45.502438],[-104.571311,45.506057],[-104.571315,45.509674],[-104.571319,45.513292],[-104.566181,45.513291],[-104.561042,45.513289],[-104.555905,45.513284],[-104.550768,45.513278],[-104.550766,45.509661],[-104.550764,45.506045],[-104.550762,45.502424],[-104.55076,45.498804],[-104.555897,45.498808],[-104.561033,45.498812],[-104.566169,45.498815]]]}},{"type":"Feature","properties":{"sec":"11","frstdivid":"MT200040S0580E0SN110"},"geometry":{"type":"Polygon","coordinates":[[[-104.50958,45.502444],[-104.509574,45.49882],[-104.514723,45.498822],[-104.519871,45.498823],[-104.52502,45.498825],[-104.530169,45.498826],[-104.530182,45.502449],[-104.530196,45.506072],[-104.53021,45.509694],[-104.530223,45.513317],[-104.52506,45.513314],[-104.519897,45.513312],[-104.514747,45.513314],[-104.509597,45.513315],[-104.509592,45.509692],[-104.509586,45.506068],[-104.50958,45.502444]]]}},{"type":"Feature","properties":{"sec":"32","frstdivid":"MT200040S0580E0SN320"},"geometry":{"type":"Polygon","coordinates":[[[-104.571255,45.448128],[-104.571248,45.444504],[-104.571242,45.44178],[-104.571713,45.441786],[-104.576387,45.441846],[-104.576892,45.441852],[-104.581531,45.441912],[-104.582071,45.441918],[-104.586676,45.441975],[-104.587229,45.441982],[-104.59182,45.442039],[-104.591825,45.444495],[-104.591832,45.448117],[-104.59184,45.451738],[-104.591847,45.455359],[-104.586703,45.455364],[-104.581558,45.455368],[-104.576413,45.455373],[-104.571268,45.455377],[-104.571262,45.451753],[-104.571255,45.448128]]]}},{"type":"Feature","properties":{"sec":"13","frstdivid":"MT200040S0580E0SN130"},"geometry":{"type":"Polygon","coordinates":[[[-104.488982,45.487258],[-104.48898,45.484354],[-104.494127,45.484348],[-104.499275,45.484343],[-104.504423,45.484337],[-104.509571,45.484332],[-104.509571,45.487954],[-104.509572,45.491576],[-104.509573,45.495198],[-104.509574,45.49882],[-104.504428,45.498827],[-104.499282,45.498834],[-104.494137,45.498841],[-104.488991,45.498848],[-104.48899,45.498159],[-104.488988,45.495227],[-104.488988,45.494525],[-104.488985,45.491607],[-104.488985,45.490892],[-104.488983,45.48798],[-104.488982,45.487258]]]}},{"type":"Feature","properties":{"sec":"05","frstdivid":"MT200040S0580E0SN050"},"geometry":{"type":"Polygon","coordinates":[[[-104.571321,45.516907],[-104.571319,45.513292],[-104.576485,45.513288],[-104.58165,45.513283],[-104.586816,45.513278],[-104.591982,45.513274],[-104.592003,45.516896],[-104.592024,45.520517],[-104.592019,45.524144],[-104.59201,45.529464],[-104.590569,45.52945],[-104.586848,45.529397],[-104.585396,45.529376],[-104.581686,45.529323],[-104.580224,45.529302],[-104.576522,45.529264],[-104.575057,45.529249],[-104.571358,45.52921],[-104.571338,45.524145],[-104.571324,45.520522],[-104.571321,45.516907]]]}},{"type":"Feature","properties":{"sec":"14","frstdivid":"MT200040S0580E0SN140"},"geometry":{"type":"Polygon","coordinates":[[[-104.509572,45.491576],[-104.509571,45.487954],[-104.509571,45.484332],[-104.514719,45.484333],[-104.519868,45.484335],[-104.525017,45.484337],[-104.530166,45.484338],[-104.530167,45.48796],[-104.530168,45.491582],[-104.530168,45.495204],[-104.530169,45.498826],[-104.52502,45.498825],[-104.519871,45.498823],[-104.514723,45.498822],[-104.509574,45.49882],[-104.509573,45.495198],[-104.509572,45.491576]]]}},{"type":"Feature","properties":{"sec":"19","frstdivid":"MT200040S0580E0SN190"},"geometry":{"type":"Polygon","coordinates":[[[-104.607334,45.469807],[-104.613003,45.469799],[-104.613003,45.471332],[-104.612998,45.473431],[-104.612994,45.474952],[-104.612989,45.477063],[-104.612986,45.478572],[-104.612981,45.480695],[-104.612978,45.482199],[-104.612973,45.484328],[-104.607387,45.484321],[-104.602236,45.484316],[-104.597085,45.484309],[-104.591934,45.484303],[-104.591923,45.480685],[-104.591913,45.477066],[-104.591902,45.473447],[-104.591891,45.469829],[-104.597039,45.469822],[-104.602187,45.469814],[-104.607334,45.469807]]]}},{"type":"Feature","properties":{"sec":"34","frstdivid":"MT200040S0580E0SN340"},"geometry":{"type":"Polygon","coordinates":[[[-104.545868,45.441465],[-104.55068,45.441535],[-104.550684,45.444503],[-104.55069,45.448126],[-104.550691,45.451743],[-104.550691,45.455361],[-104.545547,45.455367],[-104.540403,45.455374],[-104.535272,45.455368],[-104.530141,45.455362],[-104.53014,45.451732],[-104.530139,45.448102],[-104.530139,45.444473],[-104.530139,45.441226],[-104.530337,45.441229],[-104.535274,45.441306],[-104.535517,45.44131],[-104.540409,45.441386],[-104.540697,45.441391],[-104.545544,45.441461],[-104.545868,45.441465]]]}},{"type":"Feature","properties":{"sec":"27","frstdivid":"MT200040S0580E0SN270"},"geometry":{"type":"Polygon","coordinates":[[[-104.550702,45.458979],[-104.550713,45.462597],[-104.55072,45.466217],[-104.550727,45.469838],[-104.54558,45.469841],[-104.540434,45.469844],[-104.535288,45.469848],[-104.530141,45.469851],[-104.530141,45.466229],[-104.530141,45.462606],[-104.530141,45.458984],[-104.530141,45.455362],[-104.535272,45.455368],[-104.540403,45.455374],[-104.545547,45.455367],[-104.550691,45.455361],[-104.550702,45.458979]]]}},{"type":"Feature","properties":{"sec":"31","frstdivid":"MT200040S0580E0SN310"},"geometry":{"type":"Polygon","coordinates":[[[-104.592388,45.442046],[-104.596964,45.442115],[-104.597571,45.442124],[-104.602107,45.442193],[-104.602755,45.442203],[-104.60725,45.442271],[-104.607924,45.442282],[-104.613067,45.44236],[-104.613064,45.444485],[-104.613061,45.445982],[-104.613058,45.448107],[-104.613055,45.449604],[-104.613051,45.451728],[-104.613048,45.453225],[-104.613044,45.455349],[-104.60728,45.455347],[-104.602137,45.455346],[-104.596992,45.455353],[-104.591847,45.455359],[-104.59184,45.451738],[-104.591832,45.448117],[-104.591825,45.444495],[-104.59182,45.442039],[-104.592388,45.442046]]]}},{"type":"Feature","properties":{"sec":"16","frstdivid":"MT200040S0580E0SN160"},"geometry":{"type":"Polygon","coordinates":[[[-104.561033,45.498812],[-104.555897,45.498808],[-104.55076,45.498804],[-104.550758,45.495183],[-104.550756,45.491562],[-104.550752,45.487943],[-104.550748,45.484324],[-104.555881,45.484326],[-104.561014,45.484327],[-104.566156,45.484337],[-104.571297,45.484347],[-104.571299,45.487965],[-104.571301,45.491583],[-104.571303,45.495201],[-104.571306,45.498819],[-104.566169,45.498815],[-104.561033,45.498812]]]}},{"type":"Feature","properties":{"sec":"25","frstdivid":"MT200040S0580E0SN250"},"geometry":{"type":"Polygon","coordinates":[[[-104.504408,45.469848],[-104.499259,45.469846],[-104.494115,45.469856],[-104.48897,45.469866],[-104.48897,45.469134],[-104.488969,45.466239],[-104.488968,45.465515],[-104.488966,45.462612],[-104.488966,45.461895],[-104.488964,45.458985],[-104.488964,45.458274],[-104.488962,45.455359],[-104.494111,45.455351],[-104.49926,45.455344],[-104.504409,45.455354],[-104.509558,45.455364],[-104.509558,45.458985],[-104.509558,45.462607],[-104.509557,45.466228],[-104.509557,45.469849],[-104.504408,45.469848]]]}},{"type":"Feature","properties":{"sec":"08","frstdivid":"MT200040S0580E0SN080"},"geometry":{"type":"Polygon","coordinates":[[[-104.591958,45.498788],[-104.591964,45.502409],[-104.59197,45.506031],[-104.591976,45.509652],[-104.591982,45.513274],[-104.586816,45.513278],[-104.58165,45.513283],[-104.576485,45.513288],[-104.571319,45.513292],[-104.571315,45.509674],[-104.571311,45.506057],[-104.571308,45.502438],[-104.571306,45.498819],[-104.576469,45.498811],[-104.581632,45.498803],[-104.586795,45.498796],[-104.591958,45.498788]]]}},{"type":"Feature","properties":{"sec":"35","frstdivid":"MT200040S0580E0SN350"},"geometry":{"type":"Polygon","coordinates":[[[-104.519965,45.4411],[-104.525017,45.441163],[-104.525151,45.441164],[-104.530139,45.441226],[-104.530139,45.444473],[-104.530139,45.448102],[-104.53014,45.451732],[-104.530141,45.455362],[-104.524998,45.455361],[-104.519856,45.455361],[-104.514707,45.455362],[-104.509558,45.455364],[-104.509581,45.451739],[-104.509604,45.448113],[-104.509627,45.444487],[-104.509649,45.440987],[-104.514772,45.441043],[-104.514807,45.441043],[-104.519896,45.441099],[-104.519965,45.4411]]]}}]}