{"type":"FeatureCollection","note":"BLM Public Land Survey System. Provided by the Bureau of Land Management as is. These data are neither legal documents nor land surveys and must not be used as such.","features":[{"type":"Feature","properties":{"sec":"30","frstdivid":"WY060400N0740W0SN300"},"geometry":{"type":"Polygon","coordinates":[[[-105.789147,43.402064],[-105.794118,43.402036],[-105.798427,43.402014],[-105.798425,43.405606],[-105.798423,43.409197],[-105.798422,43.412789],[-105.79842,43.416381],[-105.794001,43.416404],[-105.789027,43.416431],[-105.784046,43.41647],[-105.779065,43.416509],[-105.779097,43.412922],[-105.77913,43.409335],[-105.779162,43.405748],[-105.779194,43.402161],[-105.784171,43.402113],[-105.789147,43.402064]]]}},{"type":"Feature","properties":{"sec":"06","frstdivid":"WY060400N0740W0SN060"},"geometry":{"type":"Polygon","coordinates":[[[-105.798416,43.466688],[-105.798479,43.470358],[-105.798544,43.473772],[-105.795521,43.473834],[-105.794107,43.473808],[-105.790492,43.473809],[-105.789058,43.473801],[-105.785465,43.47384],[-105.784009,43.47382],[-105.780442,43.47383],[-105.778959,43.473825],[-105.778948,43.47042],[-105.77893,43.466803],[-105.778912,43.463191],[-105.778896,43.45958],[-105.783897,43.459546],[-105.788897,43.459512],[-105.793882,43.459501],[-105.798417,43.459494],[-105.798416,43.463091],[-105.798416,43.466688]]]}},{"type":"Feature","properties":{"sec":"10","frstdivid":"WY060400N0740W0SN100"},"geometry":{"type":"Polygon","coordinates":[[[-105.719025,43.459958],[-105.719041,43.456348],[-105.719056,43.452738],[-105.719072,43.449127],[-105.719087,43.445517],[-105.724071,43.445498],[-105.729055,43.44548],[-105.734039,43.445461],[-105.739023,43.445442],[-105.739021,43.449037],[-105.739018,43.452633],[-105.739015,43.456228],[-105.739013,43.459823],[-105.734016,43.459857],[-105.729019,43.459891],[-105.724022,43.459925],[-105.719025,43.459958]]]}},{"type":"Feature","properties":{"sec":"07","frstdivid":"WY060400N0740W0SN070"},"geometry":{"type":"Polygon","coordinates":[[[-105.79395,43.445119],[-105.798415,43.445111],[-105.798416,43.448707],[-105.798416,43.452303],[-105.798417,43.455898],[-105.798417,43.459494],[-105.793882,43.459501],[-105.788897,43.459512],[-105.783897,43.459546],[-105.778896,43.45958],[-105.77892,43.455988],[-105.778944,43.452396],[-105.778968,43.448804],[-105.778992,43.445211],[-105.783982,43.445171],[-105.788971,43.445131],[-105.79395,43.445119]]]}},{"type":"Feature","properties":{"sec":"29","frstdivid":"WY060400N0740W0SN290"},"geometry":{"type":"Polygon","coordinates":[[[-105.759117,43.416681],[-105.759149,43.413086],[-105.759181,43.409492],[-105.759213,43.405898],[-105.759245,43.402303],[-105.764232,43.402268],[-105.76922,43.402232],[-105.774207,43.402197],[-105.779194,43.402161],[-105.779162,43.405748],[-105.77913,43.409335],[-105.779097,43.412922],[-105.779065,43.416509],[-105.774078,43.416552],[-105.769091,43.416595],[-105.764104,43.416638],[-105.759117,43.416681]]]}},{"type":"Feature","properties":{"sec":"20","frstdivid":"WY060400N0740W0SN200"},"geometry":{"type":"Polygon","coordinates":[[[-105.759173,43.423874],[-105.759145,43.420277],[-105.759117,43.416681],[-105.764104,43.416638],[-105.769091,43.416595],[-105.774078,43.416552],[-105.779065,43.416509],[-105.779072,43.420095],[-105.779078,43.423682],[-105.779085,43.427269],[-105.779092,43.430856],[-105.774126,43.430909],[-105.76916,43.430962],[-105.764195,43.431015],[-105.759229,43.431068],[-105.759201,43.427471],[-105.759173,43.423874]]]}},{"type":"Feature","properties":{"sec":"08","frstdivid":"WY060400N0740W0SN080"},"geometry":{"type":"Polygon","coordinates":[[[-105.758937,43.445468],[-105.763951,43.445404],[-105.768965,43.44534],[-105.773979,43.445276],[-105.778992,43.445211],[-105.778968,43.448804],[-105.778944,43.452396],[-105.77892,43.455988],[-105.778896,43.45958],[-105.773887,43.459623],[-105.768878,43.459665],[-105.763869,43.459708],[-105.75886,43.459751],[-105.758879,43.45618],[-105.758899,43.45261],[-105.758918,43.449039],[-105.758937,43.445468]]]}},{"type":"Feature","properties":{"sec":"19","frstdivid":"WY060400N0740W0SN190"},"geometry":{"type":"Polygon","coordinates":[[[-105.784046,43.41647],[-105.789027,43.416431],[-105.794001,43.416404],[-105.79842,43.416381],[-105.798415,43.419974],[-105.798411,43.423567],[-105.798408,43.427158],[-105.798405,43.430749],[-105.794011,43.43076],[-105.78904,43.430776],[-105.784066,43.430816],[-105.779092,43.430856],[-105.779085,43.427269],[-105.779078,43.423682],[-105.779072,43.420095],[-105.779065,43.416509],[-105.784046,43.41647]]]}},{"type":"Feature","properties":{"sec":"32","frstdivid":"WY060400N0740W0SN320"},"geometry":{"type":"Polygon","coordinates":[[[-105.779083,43.394995],[-105.779138,43.398578],[-105.779194,43.402161],[-105.774207,43.402197],[-105.76922,43.402232],[-105.764232,43.402268],[-105.759245,43.402303],[-105.759234,43.398709],[-105.759223,43.395114],[-105.759211,43.391519],[-105.7592,43.387925],[-105.764143,43.387901],[-105.769086,43.387876],[-105.774028,43.387852],[-105.778971,43.387828],[-105.779027,43.391411],[-105.779083,43.394995]]]}},{"type":"Feature","properties":{"sec":"05","frstdivid":"WY060400N0740W0SN050"},"geometry":{"type":"Polygon","coordinates":[[[-105.75886,43.459751],[-105.763869,43.459708],[-105.768878,43.459665],[-105.773887,43.459623],[-105.778896,43.45958],[-105.778912,43.463191],[-105.77893,43.466803],[-105.778948,43.47042],[-105.778959,43.473825],[-105.77542,43.473846],[-105.773986,43.473845],[-105.770399,43.473874],[-105.769014,43.473876],[-105.765379,43.473934],[-105.764043,43.473917],[-105.76036,43.473929],[-105.75907,43.473927],[-105.759042,43.47051],[-105.759,43.466908],[-105.758929,43.463329],[-105.75886,43.459751]]]}},{"type":"Feature","properties":{"sec":"18","frstdivid":"WY060400N0740W0SN180"},"geometry":{"type":"Polygon","coordinates":[[[-105.79841,43.441516],[-105.798415,43.445111],[-105.79395,43.445119],[-105.788971,43.445131],[-105.783982,43.445171],[-105.778992,43.445211],[-105.779017,43.441623],[-105.779042,43.438034],[-105.779067,43.434445],[-105.779092,43.430856],[-105.784066,43.430816],[-105.78904,43.430776],[-105.794011,43.43076],[-105.798405,43.430749],[-105.798405,43.434334],[-105.798406,43.43792],[-105.79841,43.441516]]]}},{"type":"Feature","properties":{"sec":"31","frstdivid":"WY060400N0740W0SN310"},"geometry":{"type":"Polygon","coordinates":[[[-105.779194,43.402161],[-105.779138,43.398578],[-105.779083,43.394995],[-105.779027,43.391411],[-105.778971,43.387828],[-105.783917,43.387735],[-105.788862,43.387643],[-105.793817,43.387589],[-105.798062,43.387547],[-105.798255,43.391193],[-105.798448,43.39484],[-105.798437,43.398427],[-105.798427,43.402014],[-105.794118,43.402036],[-105.789147,43.402064],[-105.784171,43.402113],[-105.779194,43.402161]]]}},{"type":"Feature","properties":{"sec":"17","frstdivid":"WY060400N0740W0SN170"},"geometry":{"type":"Polygon","coordinates":[[[-105.758937,43.445468],[-105.75901,43.441868],[-105.759083,43.438268],[-105.759156,43.434668],[-105.759229,43.431068],[-105.764195,43.431015],[-105.76916,43.430962],[-105.774126,43.430909],[-105.779092,43.430856],[-105.779067,43.434445],[-105.779042,43.438034],[-105.779017,43.441623],[-105.778992,43.445211],[-105.773979,43.445276],[-105.768965,43.44534],[-105.763951,43.445404],[-105.758937,43.445468]]]}},{"type":"Feature","properties":{"sec":"15","frstdivid":"WY060400N0740W0SN150"},"geometry":{"type":"Polygon","coordinates":[[[-105.719152,43.441924],[-105.719217,43.438332],[-105.719282,43.43474],[-105.719347,43.431147],[-105.724334,43.431125],[-105.729321,43.431102],[-105.734309,43.43108],[-105.739296,43.431057],[-105.739228,43.434654],[-105.73916,43.43825],[-105.739092,43.441846],[-105.739023,43.445442],[-105.734039,43.445461],[-105.729055,43.44548],[-105.724071,43.445498],[-105.719087,43.445517],[-105.719152,43.441924]]]}},{"type":"Feature","properties":{"sec":"35","frstdivid":"WY060400N0740W0SN350"},"geometry":{"type":"Polygon","coordinates":[[[-105.719521,43.38804],[-105.719506,43.391631],[-105.719491,43.395221],[-105.719476,43.398812],[-105.719461,43.402403],[-105.714475,43.402407],[-105.709489,43.402412],[-105.704502,43.402416],[-105.699516,43.40242],[-105.699548,43.398818],[-105.699579,43.395216],[-105.699611,43.391614],[-105.699643,43.388011],[-105.704612,43.388019],[-105.709582,43.388026],[-105.714551,43.388033],[-105.719521,43.38804]]]}},{"type":"Feature","properties":{"sec":"01","frstdivid":"WY060400N0740W0SN010"},"geometry":{"type":"Polygon","coordinates":[[[-105.699179,43.470766],[-105.699189,43.474152],[-105.694969,43.474156],[-105.694203,43.474154],[-105.689935,43.474166],[-105.689218,43.474165],[-105.684902,43.474204],[-105.684229,43.474198],[-105.679882,43.474182],[-105.679238,43.474181],[-105.679229,43.470891],[-105.679215,43.467277],[-105.679194,43.463672],[-105.679175,43.460066],[-105.684158,43.460033],[-105.689141,43.46],[-105.694124,43.459967],[-105.699108,43.459933],[-105.699133,43.463542],[-105.699159,43.46715],[-105.699179,43.470766]]]}},{"type":"Feature","properties":{"sec":"03","frstdivid":"WY060400N0740W0SN030"},"geometry":{"type":"Polygon","coordinates":[[[-105.725176,43.474129],[-105.724145,43.474119],[-105.720137,43.474131],[-105.719125,43.474131],[-105.719115,43.47083],[-105.71909,43.467206],[-105.719057,43.463582],[-105.719025,43.459958],[-105.724022,43.459925],[-105.729019,43.459891],[-105.734016,43.459857],[-105.739013,43.459823],[-105.739071,43.463437],[-105.73913,43.46705],[-105.73917,43.47067],[-105.739193,43.474026],[-105.735245,43.474087],[-105.734178,43.474075],[-105.73021,43.474085],[-105.729162,43.474082],[-105.725176,43.474129]]]}},{"type":"Feature","properties":{"sec":"13","frstdivid":"WY060400N0740W0SN130"},"geometry":{"type":"Polygon","coordinates":[[[-105.699235,43.441973],[-105.699167,43.445566],[-105.6942,43.445602],[-105.689233,43.445638],[-105.684266,43.445674],[-105.679299,43.445711],[-105.679373,43.442127],[-105.679446,43.438544],[-105.679519,43.43496],[-105.679593,43.431376],[-105.684555,43.43133],[-105.689517,43.431285],[-105.694479,43.431239],[-105.699441,43.431193],[-105.699372,43.434786],[-105.699304,43.438379],[-105.699235,43.441973]]]}},{"type":"Feature","properties":{"sec":"22","frstdivid":"WY060400N0740W0SN220"},"geometry":{"type":"Polygon","coordinates":[[[-105.734192,43.416699],[-105.739154,43.416674],[-105.739189,43.42027],[-105.739225,43.423866],[-105.73926,43.427461],[-105.739296,43.431057],[-105.734309,43.43108],[-105.729321,43.431102],[-105.724334,43.431125],[-105.719347,43.431147],[-105.719337,43.427554],[-105.719327,43.423961],[-105.719318,43.420368],[-105.719308,43.416774],[-105.724269,43.416749],[-105.729231,43.416724],[-105.734192,43.416699]]]}},{"type":"Feature","properties":{"sec":"23","frstdivid":"WY060400N0740W0SN230"},"geometry":{"type":"Polygon","coordinates":[[[-105.719337,43.427554],[-105.719347,43.431147],[-105.71437,43.431159],[-105.709394,43.43117],[-105.704417,43.431182],[-105.699441,43.431193],[-105.699443,43.427597],[-105.699445,43.424002],[-105.699448,43.420406],[-105.69945,43.416811],[-105.704415,43.416802],[-105.709379,43.416793],[-105.714344,43.416783],[-105.719308,43.416774],[-105.719318,43.420368],[-105.719327,43.423961],[-105.719337,43.427554]]]}},{"type":"Feature","properties":{"sec":"04","frstdivid":"WY060400N0740W0SN040"},"geometry":{"type":"Polygon","coordinates":[[[-105.758929,43.463329],[-105.759,43.466908],[-105.759042,43.47051],[-105.75907,43.473927],[-105.755343,43.47398],[-105.754101,43.473964],[-105.750317,43.473971],[-105.749131,43.473967],[-105.745293,43.474012],[-105.744162,43.474003],[-105.740268,43.474025],[-105.739193,43.474026],[-105.73917,43.47067],[-105.73913,43.46705],[-105.739071,43.463437],[-105.739013,43.459823],[-105.743975,43.459805],[-105.748936,43.459787],[-105.753898,43.459769],[-105.75886,43.459751],[-105.758929,43.463329]]]}},{"type":"Feature","properties":{"sec":"12","frstdivid":"WY060400N0740W0SN120"},"geometry":{"type":"Polygon","coordinates":[[[-105.689141,43.46],[-105.684158,43.460033],[-105.679175,43.460066],[-105.679206,43.456477],[-105.679237,43.452888],[-105.679268,43.4493],[-105.679299,43.445711],[-105.684266,43.445674],[-105.689233,43.445638],[-105.6942,43.445602],[-105.699167,43.445566],[-105.699152,43.449158],[-105.699137,43.45275],[-105.699122,43.456341],[-105.699108,43.459933],[-105.694124,43.459967],[-105.689141,43.46]]]}},{"type":"Feature","properties":{"sec":"16","frstdivid":"WY060400N0740W0SN160"},"geometry":{"type":"Polygon","coordinates":[[[-105.739092,43.441846],[-105.73916,43.43825],[-105.739228,43.434654],[-105.739296,43.431057],[-105.744279,43.43106],[-105.749262,43.431063],[-105.754246,43.431065],[-105.759229,43.431068],[-105.759156,43.434668],[-105.759083,43.438268],[-105.75901,43.441868],[-105.758937,43.445468],[-105.753959,43.445462],[-105.74898,43.445455],[-105.744002,43.445449],[-105.739023,43.445442],[-105.739092,43.441846]]]}},{"type":"Feature","properties":{"sec":"27","frstdivid":"WY060400N0740W0SN270"},"geometry":{"type":"Polygon","coordinates":[[[-105.719423,43.405996],[-105.719461,43.402403],[-105.724433,43.402389],[-105.729405,43.402376],[-105.734377,43.402363],[-105.739348,43.402349],[-105.7393,43.40593],[-105.739251,43.409511],[-105.739202,43.413093],[-105.739154,43.416674],[-105.734192,43.416699],[-105.729231,43.416724],[-105.724269,43.416749],[-105.719308,43.416774],[-105.719346,43.413181],[-105.719385,43.409589],[-105.719423,43.405996]]]}},{"type":"Feature","properties":{"sec":"25","frstdivid":"WY060400N0740W0SN250"},"geometry":{"type":"Polygon","coordinates":[[[-105.699483,43.409615],[-105.699467,43.413213],[-105.69945,43.416811],[-105.694474,43.416843],[-105.689498,43.416874],[-105.684522,43.416906],[-105.679546,43.416938],[-105.679596,43.413354],[-105.679646,43.409771],[-105.679696,43.406187],[-105.679746,43.402603],[-105.684689,43.402557],[-105.689631,43.402512],[-105.694574,43.402466],[-105.699516,43.40242],[-105.6995,43.406018],[-105.699483,43.409615]]]}},{"type":"Feature","properties":{"sec":"21","frstdivid":"WY060400N0740W0SN210"},"geometry":{"type":"Polygon","coordinates":[[[-105.754126,43.416679],[-105.759117,43.416681],[-105.759145,43.420277],[-105.759173,43.423874],[-105.759201,43.427471],[-105.759229,43.431068],[-105.754246,43.431065],[-105.749262,43.431063],[-105.744279,43.43106],[-105.739296,43.431057],[-105.73926,43.427461],[-105.739225,43.423866],[-105.739189,43.42027],[-105.739154,43.416674],[-105.744144,43.416675],[-105.749135,43.416677],[-105.754126,43.416679]]]}},{"type":"Feature","properties":{"sec":"33","frstdivid":"WY060400N0740W0SN330"},"geometry":{"type":"Polygon","coordinates":[[[-105.759211,43.391519],[-105.759223,43.395114],[-105.759234,43.398709],[-105.759245,43.402303],[-105.754271,43.402315],[-105.749297,43.402326],[-105.744323,43.402338],[-105.739348,43.402349],[-105.739355,43.398768],[-105.739362,43.395187],[-105.739368,43.391605],[-105.739375,43.388024],[-105.744331,43.387999],[-105.749288,43.387975],[-105.754244,43.38795],[-105.7592,43.387925],[-105.759211,43.391519]]]}},{"type":"Feature","properties":{"sec":"24","frstdivid":"WY060400N0740W0SN240"},"geometry":{"type":"Polygon","coordinates":[[[-105.69945,43.416811],[-105.699448,43.420406],[-105.699445,43.424002],[-105.699443,43.427597],[-105.699441,43.431193],[-105.694479,43.431239],[-105.689517,43.431285],[-105.684555,43.43133],[-105.679593,43.431376],[-105.679581,43.427767],[-105.679569,43.424157],[-105.679558,43.420548],[-105.679546,43.416938],[-105.684522,43.416906],[-105.689498,43.416874],[-105.694474,43.416843],[-105.69945,43.416811]]]}},{"type":"Feature","properties":{"sec":"11","frstdivid":"WY060400N0740W0SN110"},"geometry":{"type":"Polygon","coordinates":[[[-105.709127,43.445541],[-105.714107,43.445529],[-105.719087,43.445517],[-105.719072,43.449127],[-105.719056,43.452738],[-105.719041,43.456348],[-105.719025,43.459958],[-105.714046,43.459952],[-105.709066,43.459946],[-105.704087,43.45994],[-105.699108,43.459933],[-105.699122,43.456341],[-105.699137,43.45275],[-105.699152,43.449158],[-105.699167,43.445566],[-105.704147,43.445554],[-105.709127,43.445541]]]}},{"type":"Feature","properties":{"sec":"28","frstdivid":"WY060400N0740W0SN280"},"geometry":{"type":"Polygon","coordinates":[[[-105.749135,43.416677],[-105.744144,43.416675],[-105.739154,43.416674],[-105.739202,43.413093],[-105.739251,43.409511],[-105.7393,43.40593],[-105.739348,43.402349],[-105.744323,43.402338],[-105.749297,43.402326],[-105.754271,43.402315],[-105.759245,43.402303],[-105.759213,43.405898],[-105.759181,43.409492],[-105.759149,43.413086],[-105.759117,43.416681],[-105.754126,43.416679],[-105.749135,43.416677]]]}},{"type":"Feature","properties":{"sec":"26","frstdivid":"WY060400N0740W0SN260"},"geometry":{"type":"Polygon","coordinates":[[[-105.714344,43.416783],[-105.709379,43.416793],[-105.704415,43.416802],[-105.69945,43.416811],[-105.699467,43.413213],[-105.699483,43.409615],[-105.6995,43.406018],[-105.699516,43.40242],[-105.704502,43.402416],[-105.709489,43.402412],[-105.714475,43.402407],[-105.719461,43.402403],[-105.719423,43.405996],[-105.719385,43.409589],[-105.719346,43.413181],[-105.719308,43.416774],[-105.714344,43.416783]]]}},{"type":"Feature","properties":{"sec":"34","frstdivid":"WY060400N0740W0SN340"},"geometry":{"type":"Polygon","coordinates":[[[-105.739375,43.388024],[-105.739368,43.391605],[-105.739362,43.395187],[-105.739355,43.398768],[-105.739348,43.402349],[-105.734377,43.402363],[-105.729405,43.402376],[-105.724433,43.402389],[-105.719461,43.402403],[-105.719476,43.398812],[-105.719491,43.395221],[-105.719506,43.391631],[-105.719521,43.38804],[-105.724485,43.388036],[-105.729448,43.388032],[-105.734412,43.388028],[-105.739375,43.388024]]]}},{"type":"Feature","properties":{"sec":"14","frstdivid":"WY060400N0740W0SN140"},"geometry":{"type":"Polygon","coordinates":[[[-105.719282,43.43474],[-105.719217,43.438332],[-105.719152,43.441924],[-105.719087,43.445517],[-105.714107,43.445529],[-105.709127,43.445541],[-105.704147,43.445554],[-105.699167,43.445566],[-105.699235,43.441973],[-105.699304,43.438379],[-105.699372,43.434786],[-105.699441,43.431193],[-105.704417,43.431182],[-105.709394,43.43117],[-105.71437,43.431159],[-105.719347,43.431147],[-105.719282,43.43474]]]}},{"type":"Feature","properties":{"sec":"02","frstdivid":"WY060400N0740W0SN020"},"geometry":{"type":"Polygon","coordinates":[[[-105.699108,43.459933],[-105.704087,43.45994],[-105.709066,43.459946],[-105.714046,43.459952],[-105.719025,43.459958],[-105.719057,43.463582],[-105.71909,43.467206],[-105.719115,43.47083],[-105.719125,43.474131],[-105.715107,43.474183],[-105.714146,43.474169],[-105.710072,43.474158],[-105.70916,43.474153],[-105.705038,43.474183],[-105.704175,43.474171],[-105.700003,43.474156],[-105.699189,43.474152],[-105.699179,43.470766],[-105.699159,43.46715],[-105.699133,43.463542],[-105.699108,43.459933]]]}},{"type":"Feature","properties":{"sec":"36","frstdivid":"WY060400N0740W0SN360"},"geometry":{"type":"Polygon","coordinates":[[[-105.694574,43.402466],[-105.689631,43.402512],[-105.684689,43.402557],[-105.679746,43.402603],[-105.679748,43.399018],[-105.679751,43.395433],[-105.679753,43.391847],[-105.679755,43.388262],[-105.684727,43.3882],[-105.689699,43.388137],[-105.694671,43.388074],[-105.699643,43.388011],[-105.699611,43.391614],[-105.699579,43.395216],[-105.699548,43.398818],[-105.699516,43.40242],[-105.694574,43.402466]]]}},{"type":"Feature","properties":{"sec":"09","frstdivid":"WY060400N0740W0SN090"},"geometry":{"type":"Polygon","coordinates":[[[-105.753898,43.459769],[-105.748936,43.459787],[-105.743975,43.459805],[-105.739013,43.459823],[-105.739015,43.456228],[-105.739018,43.452633],[-105.739021,43.449037],[-105.739023,43.445442],[-105.744002,43.445449],[-105.74898,43.445455],[-105.753959,43.445462],[-105.758937,43.445468],[-105.758918,43.449039],[-105.758899,43.45261],[-105.758879,43.45618],[-105.75886,43.459751],[-105.753898,43.459769]]]}}]}