{"type":"FeatureCollection","note":"BLM Public Land Survey System. Provided by the Bureau of Land Management as is. These data are neither legal documents nor land surveys and must not be used as such.","features":[{"type":"Feature","properties":{"sec":"12","frstdivid":"MT200130N0340E0SN120"},"geometry":{"type":"Polygon","coordinates":[[[-107.354485,46.891665],[-107.354488,46.888052],[-107.359748,46.888049],[-107.365008,46.888045],[-107.370285,46.888042],[-107.375562,46.888038],[-107.375545,46.891656],[-107.375527,46.895274],[-107.375527,46.898893],[-107.375526,46.902511],[-107.370271,46.902504],[-107.365016,46.902497],[-107.359745,46.902499],[-107.354475,46.902501],[-107.354478,46.89889],[-107.354482,46.895279],[-107.354485,46.891665]]]}},{"type":"Feature","properties":{"sec":"07","frstdivid":"MT200130N0340E0SN070"},"geometry":{"type":"Polygon","coordinates":[[[-107.467668,46.894615],[-107.467664,46.895434],[-107.467649,46.898219],[-107.467644,46.899055],[-107.46763,46.901823],[-107.467626,46.902675],[-107.459908,46.902666],[-107.459912,46.899045],[-107.459917,46.895424],[-107.459921,46.891804],[-107.459926,46.888183],[-107.467682,46.888189],[-107.467676,46.89099],[-107.467674,46.891812],[-107.467668,46.894615]]]}},{"type":"Feature","properties":{"sec":"04","frstdivid":"MT200130N0340E0SN040"},"geometry":{"type":"Polygon","coordinates":[[[-107.428238,46.917086],[-107.422961,46.917083],[-107.417684,46.91708],[-107.417676,46.913454],[-107.417667,46.909834],[-107.417664,46.906212],[-107.41766,46.90259],[-107.422942,46.902591],[-107.428225,46.902592],[-107.433507,46.902593],[-107.438789,46.902594],[-107.438788,46.90621],[-107.438787,46.909827],[-107.43879,46.913444],[-107.438792,46.917091],[-107.433515,46.917088],[-107.428238,46.917086]]]}},{"type":"Feature","properties":{"sec":"31","frstdivid":"MT200130N0340E0SN310"},"geometry":{"type":"Polygon","coordinates":[[[-107.467829,46.833901],[-107.467822,46.836694],[-107.46782,46.837529],[-107.467813,46.840312],[-107.46781,46.841158],[-107.467803,46.843929],[-107.467801,46.844787],[-107.459996,46.844768],[-107.460012,46.841144],[-107.460028,46.83752],[-107.460029,46.833892],[-107.46003,46.830264],[-107.462527,46.830266],[-107.467836,46.830272],[-107.467829,46.833524],[-107.467829,46.833901]]]}},{"type":"Feature","properties":{"sec":"23","frstdivid":"MT200130N0340E0SN230"},"geometry":{"type":"Polygon","coordinates":[[[-107.375611,46.862724],[-107.37562,46.85911],[-107.380892,46.859122],[-107.386164,46.859133],[-107.391422,46.859135],[-107.396681,46.859136],[-107.396674,46.86275],[-107.396667,46.866363],[-107.39666,46.869977],[-107.396653,46.873591],[-107.391386,46.873586],[-107.386118,46.873581],[-107.380854,46.873575],[-107.375591,46.87357],[-107.375596,46.869954],[-107.375602,46.866339],[-107.375611,46.862724]]]}},{"type":"Feature","properties":{"sec":"20","frstdivid":"MT200130N0340E0SN200"},"geometry":{"type":"Polygon","coordinates":[[[-107.438821,46.870063],[-107.438832,46.866486],[-107.438843,46.862852],[-107.438853,46.859218],[-107.444121,46.859225],[-107.449389,46.859233],[-107.454657,46.85924],[-107.459925,46.859247],[-107.459921,46.862858],[-107.459917,46.866468],[-107.459905,46.870078],[-107.459894,46.873687],[-107.454624,46.873676],[-107.449355,46.873665],[-107.444082,46.873652],[-107.438809,46.873639],[-107.438821,46.870063]]]}},{"type":"Feature","properties":{"sec":"09","frstdivid":"MT200130N0340E0SN090"},"geometry":{"type":"Polygon","coordinates":[[[-107.41766,46.90259],[-107.417672,46.898968],[-107.417684,46.895346],[-107.417696,46.891725],[-107.417709,46.888103],[-107.422983,46.888107],[-107.428258,46.888111],[-107.433532,46.888114],[-107.438806,46.888118],[-107.438802,46.891737],[-107.438798,46.895356],[-107.438794,46.898975],[-107.438789,46.902594],[-107.433507,46.902593],[-107.428225,46.902592],[-107.422942,46.902591],[-107.41766,46.90259]]]}},{"type":"Feature","properties":{"sec":"16","frstdivid":"MT200130N0340E0SN160"},"geometry":{"type":"Polygon","coordinates":[[[-107.428258,46.888111],[-107.422983,46.888107],[-107.417709,46.888103],[-107.41771,46.884483],[-107.417711,46.880863],[-107.417712,46.877242],[-107.417713,46.873622],[-107.422987,46.873628],[-107.42826,46.873634],[-107.433534,46.873636],[-107.438809,46.873639],[-107.438808,46.877259],[-107.438808,46.880878],[-107.438807,46.884498],[-107.438806,46.888118],[-107.433532,46.888114],[-107.428258,46.888111]]]}},{"type":"Feature","properties":{"sec":"11","frstdivid":"MT200130N0340E0SN110"},"geometry":{"type":"Polygon","coordinates":[[[-107.375527,46.898893],[-107.375527,46.895274],[-107.375545,46.891656],[-107.375562,46.888038],[-107.380816,46.888041],[-107.386071,46.888043],[-107.391342,46.888047],[-107.396614,46.888052],[-107.396594,46.891676],[-107.396574,46.895301],[-107.396554,46.898925],[-107.396534,46.90255],[-107.391282,46.90254],[-107.38603,46.902531],[-107.380778,46.902521],[-107.375526,46.902511],[-107.375527,46.898893]]]}},{"type":"Feature","properties":{"sec":"08","frstdivid":"MT200130N0340E0SN080"},"geometry":{"type":"Polygon","coordinates":[[[-107.449366,46.88815],[-107.454646,46.888167],[-107.459926,46.888183],[-107.459921,46.891804],[-107.459917,46.895424],[-107.459912,46.899045],[-107.459908,46.902666],[-107.454628,46.902648],[-107.449349,46.90263],[-107.444069,46.902612],[-107.438789,46.902594],[-107.438794,46.898975],[-107.438798,46.895356],[-107.438802,46.891737],[-107.438806,46.888118],[-107.444086,46.888134],[-107.449366,46.88815]]]}},{"type":"Feature","properties":{"sec":"27","frstdivid":"MT200130N0340E0SN270"},"geometry":{"type":"Polygon","coordinates":[[[-107.41779,46.855545],[-107.417777,46.859166],[-107.412503,46.859158],[-107.407229,46.859151],[-107.401955,46.859143],[-107.396681,46.859136],[-107.396686,46.85552],[-107.396692,46.851905],[-107.396699,46.848285],[-107.396706,46.844666],[-107.401987,46.84467],[-107.407267,46.844675],[-107.412548,46.844679],[-107.417829,46.844683],[-107.417816,46.848304],[-107.417803,46.851925],[-107.41779,46.855545]]]}},{"type":"Feature","properties":{"sec":"13","frstdivid":"MT200130N0340E0SN130"},"geometry":{"type":"Polygon","coordinates":[[[-107.375571,46.884421],[-107.375562,46.888038],[-107.370285,46.888042],[-107.365008,46.888045],[-107.359748,46.888049],[-107.354488,46.888052],[-107.354491,46.884435],[-107.354494,46.880818],[-107.3545,46.877205],[-107.354506,46.873593],[-107.359771,46.873585],[-107.365036,46.873576],[-107.370313,46.873573],[-107.375591,46.87357],[-107.375585,46.877186],[-107.375579,46.880803],[-107.375571,46.884421]]]}},{"type":"Feature","properties":{"sec":"26","frstdivid":"MT200130N0340E0SN260"},"geometry":{"type":"Polygon","coordinates":[[[-107.396686,46.85552],[-107.396681,46.859136],[-107.391422,46.859135],[-107.386164,46.859133],[-107.380892,46.859122],[-107.37562,46.85911],[-107.375629,46.855491],[-107.375638,46.851873],[-107.375644,46.848254],[-107.375649,46.844636],[-107.380914,46.844644],[-107.386178,46.844651],[-107.391442,46.844658],[-107.396706,46.844666],[-107.396699,46.848285],[-107.396692,46.851905],[-107.396686,46.85552]]]}},{"type":"Feature","properties":{"sec":"33","frstdivid":"MT200130N0340E0SN330"},"geometry":{"type":"Polygon","coordinates":[[[-107.41789,46.830218],[-107.420478,46.83022],[-107.423165,46.830224],[-107.425741,46.830226],[-107.42844,46.83023],[-107.431004,46.830232],[-107.433716,46.830235],[-107.436267,46.830238],[-107.438991,46.830241],[-107.438971,46.833869],[-107.438951,46.837496],[-107.438931,46.841124],[-107.438912,46.844752],[-107.433634,46.84474],[-107.428356,46.844729],[-107.423092,46.844706],[-107.417829,46.844683],[-107.417844,46.841067],[-107.417859,46.837451],[-107.417874,46.833834],[-107.41789,46.830218]]]}},{"type":"Feature","properties":{"sec":"30","frstdivid":"MT200130N0340E0SN300"},"geometry":{"type":"Polygon","coordinates":[[[-107.459978,46.848388],[-107.459996,46.844768],[-107.467801,46.844787],[-107.467793,46.847548],[-107.46779,46.848406],[-107.467782,46.851167],[-107.46778,46.852025],[-107.467772,46.854785],[-107.46777,46.855643],[-107.467762,46.858404],[-107.46776,46.859261],[-107.459925,46.859247],[-107.459943,46.855627],[-107.45996,46.852008],[-107.459978,46.848388]]]}},{"type":"Feature","properties":{"sec":"05","frstdivid":"MT200130N0340E0SN050"},"geometry":{"type":"Polygon","coordinates":[[[-107.459941,46.913516],[-107.459957,46.917079],[-107.454666,46.917082],[-107.449375,46.917085],[-107.444083,46.917088],[-107.438792,46.917091],[-107.43879,46.913444],[-107.438787,46.909827],[-107.438788,46.90621],[-107.438789,46.902594],[-107.444069,46.902612],[-107.449349,46.90263],[-107.454628,46.902648],[-107.459908,46.902666],[-107.459917,46.906282],[-107.459925,46.909899],[-107.459941,46.913516]]]}},{"type":"Feature","properties":{"sec":"01","frstdivid":"MT200130N0340E0SN010"},"geometry":{"type":"Polygon","coordinates":[[[-107.354383,46.913399],[-107.354414,46.909766],[-107.354444,46.906134],[-107.354475,46.902501],[-107.359745,46.902499],[-107.365016,46.902497],[-107.370271,46.902504],[-107.375526,46.902511],[-107.375504,46.906145],[-107.375481,46.909779],[-107.375474,46.913406],[-107.375467,46.91704],[-107.370188,46.917038],[-107.36491,46.917036],[-107.359631,46.917034],[-107.354352,46.917032],[-107.354383,46.913399]]]}},{"type":"Feature","properties":{"sec":"25","frstdivid":"MT200130N0340E0SN250"},"geometry":{"type":"Polygon","coordinates":[[[-107.375649,46.844636],[-107.375644,46.848254],[-107.375638,46.851873],[-107.375629,46.855491],[-107.37562,46.85911],[-107.370345,46.859104],[-107.365069,46.859097],[-107.359798,46.859093],[-107.354527,46.859089],[-107.354533,46.855471],[-107.354538,46.851853],[-107.354545,46.848235],[-107.354552,46.844616],[-107.359836,46.844605],[-107.365119,46.844593],[-107.370384,46.844614],[-107.375649,46.844636]]]}},{"type":"Feature","properties":{"sec":"15","frstdivid":"MT200130N0340E0SN150"},"geometry":{"type":"Polygon","coordinates":[[[-107.417712,46.877242],[-107.417711,46.880863],[-107.41771,46.884483],[-107.417709,46.888103],[-107.412435,46.88809],[-107.407161,46.888077],[-107.401887,46.888065],[-107.396614,46.888052],[-107.396624,46.884437],[-107.396634,46.880821],[-107.396643,46.877206],[-107.396653,46.873591],[-107.401909,46.873599],[-107.407165,46.873607],[-107.412439,46.873614],[-107.417713,46.873622],[-107.417712,46.877242]]]}},{"type":"Feature","properties":{"sec":"18","frstdivid":"MT200130N0340E0SN180"},"geometry":{"type":"Polygon","coordinates":[[[-107.459894,46.873687],[-107.467721,46.873693],[-107.467713,46.876501],[-107.46771,46.877318],[-107.467702,46.880126],[-107.4677,46.880943],[-107.467693,46.883746],[-107.467691,46.884566],[-107.467684,46.887365],[-107.467682,46.888189],[-107.459926,46.888183],[-107.459918,46.884559],[-107.45991,46.880935],[-107.459902,46.877311],[-107.459894,46.873687]]]}},{"type":"Feature","properties":{"sec":"06","frstdivid":"MT200130N0340E0SN060"},"geometry":{"type":"Polygon","coordinates":[[[-107.467541,46.917065],[-107.459957,46.917079],[-107.459941,46.913516],[-107.459925,46.909899],[-107.459917,46.906282],[-107.459908,46.902666],[-107.467626,46.902675],[-107.467612,46.905443],[-107.467607,46.906295],[-107.467593,46.909064],[-107.467588,46.909915],[-107.46757,46.912685],[-107.467565,46.913447],[-107.467546,46.916305],[-107.467541,46.917065]]]}},{"type":"Feature","properties":{"sec":"21","frstdivid":"MT200130N0340E0SN210"},"geometry":{"type":"Polygon","coordinates":[[[-107.417777,46.859166],[-107.423048,46.859179],[-107.428319,46.859192],[-107.433586,46.859205],[-107.438853,46.859218],[-107.438843,46.862852],[-107.438832,46.866486],[-107.438821,46.870063],[-107.438809,46.873639],[-107.433534,46.873636],[-107.42826,46.873634],[-107.422987,46.873628],[-107.417713,46.873622],[-107.41773,46.870014],[-107.417746,46.866406],[-107.417761,46.862786],[-107.417777,46.859166]]]}},{"type":"Feature","properties":{"sec":"35","frstdivid":"MT200130N0340E0SN350"},"geometry":{"type":"Polygon","coordinates":[[[-107.380914,46.844644],[-107.375649,46.844636],[-107.375657,46.841018],[-107.375664,46.8374],[-107.375672,46.833782],[-107.375679,46.830164],[-107.378351,46.830167],[-107.38096,46.830169],[-107.383616,46.830172],[-107.386241,46.830175],[-107.388881,46.830179],[-107.391515,46.830183],[-107.394146,46.830187],[-107.396788,46.83019],[-107.396768,46.833809],[-107.396747,46.837428],[-107.396726,46.841047],[-107.396706,46.844666],[-107.391442,46.844658],[-107.386178,46.844651],[-107.380914,46.844644]]]}},{"type":"Feature","properties":{"sec":"36","frstdivid":"MT200130N0340E0SN360"},"geometry":{"type":"Polygon","coordinates":[[[-107.359832,46.83015],[-107.363527,46.830152],[-107.365122,46.830153],[-107.368812,46.830157],[-107.370401,46.830158],[-107.374093,46.830162],[-107.375679,46.830164],[-107.375672,46.833782],[-107.375664,46.8374],[-107.375657,46.841018],[-107.375649,46.844636],[-107.370384,46.844614],[-107.365119,46.844593],[-107.359836,46.844605],[-107.354552,46.844616],[-107.354558,46.840999],[-107.354564,46.837381],[-107.354552,46.833764],[-107.354541,46.830148],[-107.358243,46.830149],[-107.359832,46.83015]]]}},{"type":"Feature","properties":{"sec":"22","frstdivid":"MT200130N0340E0SN220"},"geometry":{"type":"Polygon","coordinates":[[[-107.396653,46.873591],[-107.39666,46.869977],[-107.396667,46.866363],[-107.396674,46.86275],[-107.396681,46.859136],[-107.401955,46.859143],[-107.407229,46.859151],[-107.412503,46.859158],[-107.417777,46.859166],[-107.417761,46.862786],[-107.417746,46.866406],[-107.41773,46.870014],[-107.417713,46.873622],[-107.412439,46.873614],[-107.407165,46.873607],[-107.401909,46.873599],[-107.396653,46.873591]]]}},{"type":"Feature","properties":{"sec":"03","frstdivid":"MT200130N0340E0SN030"},"geometry":{"type":"Polygon","coordinates":[[[-107.396539,46.906174],[-107.396534,46.90255],[-107.401815,46.90256],[-107.407097,46.90257],[-107.412378,46.90258],[-107.41766,46.90259],[-107.417664,46.906212],[-107.417667,46.909834],[-107.417676,46.913454],[-107.417684,46.91708],[-107.412407,46.917077],[-107.407129,46.917075],[-107.401852,46.917072],[-107.396575,46.917069],[-107.396559,46.913419],[-107.396544,46.909797],[-107.396539,46.906174]]]}},{"type":"Feature","properties":{"sec":"28","frstdivid":"MT200130N0340E0SN280"},"geometry":{"type":"Polygon","coordinates":[[[-107.438912,46.844752],[-107.438896,46.848369],[-107.438881,46.851987],[-107.438867,46.855603],[-107.438853,46.859218],[-107.433586,46.859205],[-107.428319,46.859192],[-107.423048,46.859179],[-107.417777,46.859166],[-107.41779,46.855545],[-107.417803,46.851925],[-107.417816,46.848304],[-107.417829,46.844683],[-107.423092,46.844706],[-107.428356,46.844729],[-107.433634,46.84474],[-107.438912,46.844752]]]}},{"type":"Feature","properties":{"sec":"19","frstdivid":"MT200130N0340E0SN190"},"geometry":{"type":"Polygon","coordinates":[[[-107.459925,46.859247],[-107.46776,46.859261],[-107.467752,46.86202],[-107.46775,46.86287],[-107.467742,46.865636],[-107.46774,46.866478],[-107.467733,46.869256],[-107.46773,46.870086],[-107.467723,46.872877],[-107.467721,46.873693],[-107.459894,46.873687],[-107.459905,46.870078],[-107.459917,46.866468],[-107.459921,46.862858],[-107.459925,46.859247]]]}},{"type":"Feature","properties":{"sec":"24","frstdivid":"MT200130N0340E0SN240"},"geometry":{"type":"Polygon","coordinates":[[[-107.359798,46.859093],[-107.365069,46.859097],[-107.370345,46.859104],[-107.37562,46.85911],[-107.375611,46.862724],[-107.375602,46.866339],[-107.375596,46.869954],[-107.375591,46.87357],[-107.370313,46.873573],[-107.365036,46.873576],[-107.359771,46.873585],[-107.354506,46.873593],[-107.354509,46.869975],[-107.354513,46.866358],[-107.35452,46.862723],[-107.354527,46.859089],[-107.359798,46.859093]]]}},{"type":"Feature","properties":{"sec":"17","frstdivid":"MT200130N0340E0SN170"},"geometry":{"type":"Polygon","coordinates":[[[-107.438809,46.873639],[-107.444082,46.873652],[-107.449355,46.873665],[-107.454624,46.873676],[-107.459894,46.873687],[-107.459902,46.877311],[-107.45991,46.880935],[-107.459918,46.884559],[-107.459926,46.888183],[-107.454646,46.888167],[-107.449366,46.88815],[-107.444086,46.888134],[-107.438806,46.888118],[-107.438807,46.884498],[-107.438808,46.880878],[-107.438808,46.877259],[-107.438809,46.873639]]]}},{"type":"Feature","properties":{"sec":"10","frstdivid":"MT200130N0340E0SN100"},"geometry":{"type":"Polygon","coordinates":[[[-107.412378,46.90258],[-107.407097,46.90257],[-107.401815,46.90256],[-107.396534,46.90255],[-107.396554,46.898925],[-107.396574,46.895301],[-107.396594,46.891676],[-107.396614,46.888052],[-107.401887,46.888065],[-107.407161,46.888077],[-107.412435,46.88809],[-107.417709,46.888103],[-107.417696,46.891725],[-107.417684,46.895346],[-107.417672,46.898968],[-107.41766,46.90259],[-107.412378,46.90258]]]}},{"type":"Feature","properties":{"sec":"02","frstdivid":"MT200130N0340E0SN020"},"geometry":{"type":"Polygon","coordinates":[[[-107.391298,46.917062],[-107.386021,46.917054],[-107.380744,46.917047],[-107.375467,46.91704],[-107.375474,46.913406],[-107.375481,46.909779],[-107.375504,46.906145],[-107.375526,46.902511],[-107.380778,46.902521],[-107.38603,46.902531],[-107.391282,46.90254],[-107.396534,46.90255],[-107.396539,46.906174],[-107.396544,46.909797],[-107.396559,46.913419],[-107.396575,46.917069],[-107.391298,46.917062]]]}},{"type":"Feature","properties":{"sec":"32","frstdivid":"MT200130N0340E0SN320"},"geometry":{"type":"Polygon","coordinates":[[[-107.444253,46.830245],[-107.446779,46.830246],[-107.449516,46.830248],[-107.452029,46.830252],[-107.454773,46.830256],[-107.457278,46.83026],[-107.46003,46.830264],[-107.460029,46.833892],[-107.460028,46.83752],[-107.460012,46.841144],[-107.459996,46.844768],[-107.454726,46.84476],[-107.449456,46.844753],[-107.444184,46.844752],[-107.438912,46.844752],[-107.438931,46.841124],[-107.438951,46.837496],[-107.438971,46.833869],[-107.438991,46.830241],[-107.44153,46.830243],[-107.444253,46.830245]]]}},{"type":"Feature","properties":{"sec":"29","frstdivid":"MT200130N0340E0SN290"},"geometry":{"type":"Polygon","coordinates":[[[-107.459943,46.855627],[-107.459925,46.859247],[-107.454657,46.85924],[-107.449389,46.859233],[-107.444121,46.859225],[-107.438853,46.859218],[-107.438867,46.855603],[-107.438881,46.851987],[-107.438896,46.848369],[-107.438912,46.844752],[-107.444184,46.844752],[-107.449456,46.844753],[-107.454726,46.84476],[-107.459996,46.844768],[-107.459978,46.848388],[-107.45996,46.852008],[-107.459943,46.855627]]]}},{"type":"Feature","properties":{"sec":"14","frstdivid":"MT200130N0340E0SN140"},"geometry":{"type":"Polygon","coordinates":[[[-107.380816,46.888041],[-107.375562,46.888038],[-107.375571,46.884421],[-107.375579,46.880803],[-107.375585,46.877186],[-107.375591,46.87357],[-107.380854,46.873575],[-107.386118,46.873581],[-107.391386,46.873586],[-107.396653,46.873591],[-107.396643,46.877206],[-107.396634,46.880821],[-107.396624,46.884437],[-107.396614,46.888052],[-107.391342,46.888047],[-107.386071,46.888043],[-107.380816,46.888041]]]}},{"type":"Feature","properties":{"sec":"34","frstdivid":"MT200130N0340E0SN340"},"geometry":{"type":"Polygon","coordinates":[[[-107.399411,46.830194],[-107.402064,46.830197],[-107.404678,46.830201],[-107.40734,46.830204],[-107.409945,46.830207],[-107.412615,46.830211],[-107.415212,46.830214],[-107.41789,46.830218],[-107.417874,46.833834],[-107.417859,46.837451],[-107.417844,46.841067],[-107.417829,46.844683],[-107.412548,46.844679],[-107.407267,46.844675],[-107.401987,46.84467],[-107.396706,46.844666],[-107.396726,46.841047],[-107.396747,46.837428],[-107.396768,46.833809],[-107.396788,46.83019],[-107.399411,46.830194]]]}}]}