{"type":"FeatureCollection","note":"BLM Public Land Survey System. Provided by the Bureau of Land Management as is. These data are neither legal documents nor land surveys and must not be used as such.","features":[{"type":"Feature","properties":{"sec":"31","frstdivid":"MT200060S0560E0SN310"},"geometry":{"type":"Polygon","coordinates":[[[-104.911502,45.264875],[-104.916068,45.264875],[-104.916067,45.268498],[-104.916067,45.272121],[-104.916066,45.275744],[-104.916065,45.279367],[-104.911523,45.279366],[-104.906396,45.279364],[-104.901269,45.279363],[-104.896142,45.279361],[-104.896139,45.275739],[-104.896136,45.272117],[-104.896132,45.268495],[-104.896129,45.264873],[-104.901253,45.264874],[-104.906377,45.264875],[-104.911502,45.264875]]]}},{"type":"Feature","properties":{"sec":"09","frstdivid":"MT200060S0560E0SN090"},"geometry":{"type":"Polygon","coordinates":[[[-104.855133,45.322804],[-104.860274,45.322812],[-104.865415,45.32282],[-104.870556,45.322827],[-104.875698,45.322835],[-104.875706,45.326457],[-104.875714,45.33008],[-104.875723,45.333702],[-104.875731,45.337324],[-104.870581,45.337316],[-104.865432,45.337308],[-104.860282,45.3373],[-104.855132,45.337292],[-104.855132,45.33367],[-104.855133,45.330048],[-104.855133,45.326426],[-104.855133,45.322804]]]}},{"type":"Feature","properties":{"sec":"17","frstdivid":"MT200060S0560E0SN170"},"geometry":{"type":"Polygon","coordinates":[[[-104.875677,45.308347],[-104.880803,45.308348],[-104.885929,45.30835],[-104.891055,45.308352],[-104.896181,45.308354],[-104.896188,45.311973],[-104.896195,45.315592],[-104.896201,45.319212],[-104.896208,45.322831],[-104.891081,45.322832],[-104.885953,45.322833],[-104.880825,45.322834],[-104.875698,45.322835],[-104.875692,45.319213],[-104.875687,45.315591],[-104.875682,45.311969],[-104.875677,45.308347]]]}},{"type":"Feature","properties":{"sec":"27","frstdivid":"MT200060S0560E0SN270"},"geometry":{"type":"Polygon","coordinates":[[[-104.855131,45.290201],[-104.855131,45.293824],[-104.849998,45.293822],[-104.844865,45.293821],[-104.839733,45.293819],[-104.8346,45.293818],[-104.834604,45.290195],[-104.834608,45.286571],[-104.834612,45.282948],[-104.834616,45.279325],[-104.839745,45.279326],[-104.844873,45.279328],[-104.850002,45.279329],[-104.85513,45.279331],[-104.85513,45.282954],[-104.85513,45.286578],[-104.855131,45.290201]]]}},{"type":"Feature","properties":{"sec":"04","frstdivid":"MT200060S0560E0SN040"},"geometry":{"type":"Polygon","coordinates":[[[-104.860268,45.351937],[-104.855141,45.351935],[-104.855138,45.348158],[-104.855135,45.344537],[-104.855134,45.340914],[-104.855132,45.337292],[-104.860282,45.3373],[-104.865432,45.337308],[-104.870581,45.337316],[-104.875731,45.337324],[-104.87574,45.340942],[-104.875748,45.34456],[-104.875755,45.348179],[-104.875763,45.351945],[-104.87438,45.351944],[-104.870609,45.351942],[-104.869256,45.351941],[-104.865456,45.351939],[-104.864132,45.351938],[-104.860298,45.351937],[-104.860268,45.351937]]]}},{"type":"Feature","properties":{"sec":"16","frstdivid":"MT200060S0560E0SN160"},"geometry":{"type":"Polygon","coordinates":[[[-104.865404,45.30833],[-104.87054,45.308338],[-104.875677,45.308347],[-104.875682,45.311969],[-104.875687,45.315591],[-104.875692,45.319213],[-104.875698,45.322835],[-104.870556,45.322827],[-104.865415,45.32282],[-104.860274,45.322812],[-104.855133,45.322804],[-104.855132,45.319182],[-104.855132,45.315559],[-104.855131,45.311936],[-104.855131,45.308314],[-104.860267,45.308322],[-104.865404,45.30833]]]}},{"type":"Feature","properties":{"sec":"18","frstdivid":"MT200060S0560E0SN180"},"geometry":{"type":"Polygon","coordinates":[[[-104.916067,45.311949],[-104.916069,45.315573],[-104.916071,45.319196],[-104.916073,45.322819],[-104.911597,45.322822],[-104.906467,45.322825],[-104.901338,45.322828],[-104.896208,45.322831],[-104.896201,45.319212],[-104.896195,45.315592],[-104.896188,45.311973],[-104.896181,45.308354],[-104.901311,45.308347],[-104.906441,45.30834],[-104.911571,45.308333],[-104.916065,45.308326],[-104.916067,45.311949]]]}},{"type":"Feature","properties":{"sec":"07","frstdivid":"MT200060S0560E0SN070"},"geometry":{"type":"Polygon","coordinates":[[[-104.911597,45.322822],[-104.916073,45.322819],[-104.916076,45.326438],[-104.916078,45.330057],[-104.916081,45.333676],[-104.916084,45.337296],[-104.911641,45.337299],[-104.906509,45.337303],[-104.901376,45.337308],[-104.896243,45.337312],[-104.896235,45.333691],[-104.896226,45.330071],[-104.896217,45.326451],[-104.896208,45.322831],[-104.901338,45.322828],[-104.906467,45.322825],[-104.911597,45.322822]]]}},{"type":"Feature","properties":{"sec":"23","frstdivid":"MT200060S0560E0SN230"},"geometry":{"type":"Polygon","coordinates":[[[-104.819204,45.293812],[-104.824336,45.293814],[-104.829468,45.293816],[-104.8346,45.293818],[-104.834597,45.297441],[-104.834595,45.301065],[-104.834592,45.304689],[-104.834589,45.308313],[-104.829454,45.30831],[-104.824319,45.308308],[-104.819184,45.308306],[-104.814049,45.308303],[-104.814055,45.30468],[-104.81406,45.301057],[-104.814066,45.297433],[-104.814072,45.29381],[-104.819204,45.293812]]]}},{"type":"Feature","properties":{"sec":"08","frstdivid":"MT200060S0560E0SN080"},"geometry":{"type":"Polygon","coordinates":[[[-104.875731,45.337324],[-104.875723,45.333702],[-104.875714,45.33008],[-104.875706,45.326457],[-104.875698,45.322835],[-104.880825,45.322834],[-104.885953,45.322833],[-104.891081,45.322832],[-104.896208,45.322831],[-104.896217,45.326451],[-104.896226,45.330071],[-104.896235,45.333691],[-104.896243,45.337312],[-104.891115,45.337315],[-104.885987,45.337318],[-104.880859,45.337321],[-104.875731,45.337324]]]}},{"type":"Feature","properties":{"sec":"22","frstdivid":"MT200060S0560E0SN220"},"geometry":{"type":"Polygon","coordinates":[[[-104.834595,45.301065],[-104.834597,45.297441],[-104.8346,45.293818],[-104.839733,45.293819],[-104.844865,45.293821],[-104.849998,45.293822],[-104.855131,45.293824],[-104.855131,45.297446],[-104.855131,45.301069],[-104.855131,45.304691],[-104.855131,45.308314],[-104.849995,45.308313],[-104.84486,45.308313],[-104.839725,45.308313],[-104.834589,45.308313],[-104.834592,45.304689],[-104.834595,45.301065]]]}},{"type":"Feature","properties":{"sec":"02","frstdivid":"MT200060S0560E0SN020"},"geometry":{"type":"Polygon","coordinates":[[[-104.814021,45.340915],[-104.814021,45.337297],[-104.819158,45.337298],[-104.824294,45.3373],[-104.829431,45.337301],[-104.834568,45.337302],[-104.834568,45.340927],[-104.834568,45.344551],[-104.834569,45.348174],[-104.834571,45.35193],[-104.829486,45.35193],[-104.829434,45.35193],[-104.824352,45.35193],[-104.824297,45.35193],[-104.819218,45.351929],[-104.81916,45.351929],[-104.814084,45.351929],[-104.814023,45.351929],[-104.814022,45.348151],[-104.814021,45.344533],[-104.814021,45.340915]]]}},{"type":"Feature","properties":{"sec":"34","frstdivid":"MT200060S0560E0SN340"},"geometry":{"type":"Polygon","coordinates":[[[-104.850006,45.264846],[-104.855129,45.264848],[-104.855129,45.268469],[-104.85513,45.27209],[-104.85513,45.27571],[-104.85513,45.279331],[-104.850002,45.279329],[-104.844873,45.279328],[-104.839745,45.279326],[-104.834616,45.279325],[-104.834622,45.275703],[-104.834627,45.272082],[-104.834633,45.26846],[-104.834638,45.264839],[-104.839761,45.264841],[-104.844884,45.264843],[-104.850006,45.264846]]]}},{"type":"Feature","properties":{"sec":"15","frstdivid":"MT200060S0560E0SN150"},"geometry":{"type":"Polygon","coordinates":[[[-104.855132,45.319182],[-104.855133,45.322804],[-104.849994,45.322805],[-104.844855,45.322806],[-104.839717,45.322807],[-104.834578,45.322808],[-104.834581,45.319184],[-104.834583,45.31556],[-104.834586,45.311937],[-104.834589,45.308313],[-104.839725,45.308313],[-104.84486,45.308313],[-104.849995,45.308313],[-104.855131,45.308314],[-104.855131,45.311936],[-104.855132,45.315559],[-104.855132,45.319182]]]}},{"type":"Feature","properties":{"sec":"36","frstdivid":"MT200060S0560E0SN360"},"geometry":{"type":"Polygon","coordinates":[[[-104.798731,45.264831],[-104.803862,45.264832],[-104.808993,45.264833],[-104.814124,45.264833],[-104.814116,45.268455],[-104.814109,45.272077],[-104.814102,45.275698],[-104.814095,45.27932],[-104.808963,45.279318],[-104.803831,45.279317],[-104.798699,45.279315],[-104.793567,45.279313],[-104.793575,45.275692],[-104.793584,45.272072],[-104.793592,45.268451],[-104.793601,45.264831],[-104.798731,45.264831]]]}},{"type":"Feature","properties":{"sec":"05","frstdivid":"MT200060S0560E0SN050"},"geometry":{"type":"Polygon","coordinates":[[[-104.891115,45.337315],[-104.896243,45.337312],[-104.896252,45.340932],[-104.89626,45.344553],[-104.896268,45.348173],[-104.896277,45.351954],[-104.894893,45.351954],[-104.891148,45.351952],[-104.889765,45.351951],[-104.88602,45.351949],[-104.884637,45.351949],[-104.880891,45.351947],[-104.879508,45.351946],[-104.875763,45.351945],[-104.875755,45.348179],[-104.875748,45.34456],[-104.87574,45.340942],[-104.875731,45.337324],[-104.880859,45.337321],[-104.885987,45.337318],[-104.891115,45.337315]]]}},{"type":"Feature","properties":{"sec":"06","frstdivid":"MT200060S0560E0SN060"},"geometry":{"type":"Polygon","coordinates":[[[-104.911641,45.337299],[-104.916084,45.337296],[-104.916085,45.340913],[-104.916087,45.344531],[-104.916088,45.34815],[-104.916089,45.351949],[-104.915422,45.351949],[-104.911672,45.351953],[-104.910288,45.351954],[-104.906539,45.351958],[-104.905154,45.351959],[-104.901408,45.351957],[-104.900023,45.351956],[-104.896277,45.351954],[-104.896268,45.348173],[-104.89626,45.344553],[-104.896252,45.340932],[-104.896243,45.337312],[-104.901376,45.337308],[-104.906509,45.337303],[-104.911641,45.337299]]]}},{"type":"Feature","properties":{"sec":"01","frstdivid":"MT200060S0560E0SN010"},"geometry":{"type":"Polygon","coordinates":[[[-104.798681,45.351927],[-104.798622,45.351927],[-104.793547,45.351926],[-104.793488,45.351926],[-104.793489,45.348166],[-104.79349,45.344544],[-104.793492,45.340919],[-104.793493,45.337295],[-104.798625,45.337296],[-104.803757,45.337296],[-104.808889,45.337297],[-104.814021,45.337297],[-104.814021,45.340915],[-104.814021,45.344533],[-104.814022,45.348151],[-104.814023,45.351929],[-104.80895,45.351928],[-104.808889,45.351928],[-104.803816,45.351928],[-104.803755,45.351928],[-104.798681,45.351927]]]}},{"type":"Feature","properties":{"sec":"11","frstdivid":"MT200060S0560E0SN110"},"geometry":{"type":"Polygon","coordinates":[[[-104.829441,45.322805],[-104.834578,45.322808],[-104.834575,45.326431],[-104.834573,45.330055],[-104.83457,45.333679],[-104.834568,45.337302],[-104.829431,45.337301],[-104.824294,45.3373],[-104.819158,45.337298],[-104.814021,45.337297],[-104.814024,45.333673],[-104.814027,45.330048],[-104.81403,45.326423],[-104.814032,45.322798],[-104.819169,45.322801],[-104.824305,45.322803],[-104.829441,45.322805]]]}},{"type":"Feature","properties":{"sec":"30","frstdivid":"MT200060S0560E0SN300"},"geometry":{"type":"Polygon","coordinates":[[[-104.896158,45.29386],[-104.896154,45.290235],[-104.89615,45.286611],[-104.896146,45.282986],[-104.896142,45.279361],[-104.901269,45.279363],[-104.906396,45.279364],[-104.911523,45.279366],[-104.916065,45.279367],[-104.916065,45.282988],[-104.916065,45.286609],[-104.916065,45.290229],[-104.916065,45.29385],[-104.91154,45.293852],[-104.906412,45.293855],[-104.901285,45.293857],[-104.896158,45.29386]]]}},{"type":"Feature","properties":{"sec":"03","frstdivid":"MT200060S0560E0SN030"},"geometry":{"type":"Polygon","coordinates":[[[-104.85001,45.351934],[-104.84488,45.351933],[-104.844856,45.351933],[-104.839749,45.351931],[-104.839713,45.351931],[-104.834618,45.35193],[-104.834571,45.35193],[-104.834569,45.348174],[-104.834568,45.344551],[-104.834568,45.340927],[-104.834568,45.337302],[-104.839709,45.3373],[-104.84485,45.337297],[-104.849991,45.337294],[-104.855132,45.337292],[-104.855134,45.340914],[-104.855135,45.344537],[-104.855138,45.348158],[-104.855141,45.351935],[-104.85001,45.351934]]]}},{"type":"Feature","properties":{"sec":"19","frstdivid":"MT200060S0560E0SN190"},"geometry":{"type":"Polygon","coordinates":[[[-104.906412,45.293855],[-104.91154,45.293852],[-104.916065,45.29385],[-104.916065,45.297469],[-104.916065,45.301088],[-104.916065,45.304707],[-104.916065,45.308326],[-104.911571,45.308333],[-104.906441,45.30834],[-104.901311,45.308347],[-104.896181,45.308354],[-104.896175,45.30473],[-104.896169,45.301107],[-104.896164,45.297483],[-104.896158,45.29386],[-104.901285,45.293857],[-104.906412,45.293855]]]}},{"type":"Feature","properties":{"sec":"26","frstdivid":"MT200060S0560E0SN260"},"geometry":{"type":"Polygon","coordinates":[[[-104.829486,45.279324],[-104.834616,45.279325],[-104.834612,45.282948],[-104.834608,45.286571],[-104.834604,45.290195],[-104.8346,45.293818],[-104.829468,45.293816],[-104.824336,45.293814],[-104.819204,45.293812],[-104.814072,45.29381],[-104.814077,45.290187],[-104.814083,45.286565],[-104.814089,45.282943],[-104.814095,45.27932],[-104.819225,45.279321],[-104.824355,45.279323],[-104.829486,45.279324]]]}},{"type":"Feature","properties":{"sec":"21","frstdivid":"MT200060S0560E0SN210"},"geometry":{"type":"Polygon","coordinates":[[[-104.875659,45.293856],[-104.875663,45.297479],[-104.875668,45.301102],[-104.875672,45.304724],[-104.875677,45.308347],[-104.87054,45.308338],[-104.865404,45.30833],[-104.860267,45.308322],[-104.855131,45.308314],[-104.855131,45.304691],[-104.855131,45.301069],[-104.855131,45.297446],[-104.855131,45.293824],[-104.860263,45.293832],[-104.865395,45.29384],[-104.870527,45.293848],[-104.875659,45.293856]]]}},{"type":"Feature","properties":{"sec":"12","frstdivid":"MT200060S0560E0SN120"},"geometry":{"type":"Polygon","coordinates":[[[-104.798625,45.337296],[-104.793493,45.337295],[-104.793497,45.333671],[-104.793501,45.330047],[-104.793505,45.326423],[-104.793509,45.322799],[-104.79864,45.322799],[-104.803771,45.322799],[-104.808902,45.322799],[-104.814032,45.322798],[-104.81403,45.326423],[-104.814027,45.330048],[-104.814024,45.333673],[-104.814021,45.337297],[-104.808889,45.337297],[-104.803757,45.337296],[-104.798625,45.337296]]]}},{"type":"Feature","properties":{"sec":"28","frstdivid":"MT200060S0560E0SN280"},"geometry":{"type":"Polygon","coordinates":[[[-104.85513,45.282954],[-104.85513,45.279331],[-104.860259,45.279339],[-104.865387,45.279346],[-104.870516,45.279354],[-104.875645,45.279361],[-104.875648,45.282985],[-104.875652,45.286609],[-104.875655,45.290233],[-104.875659,45.293856],[-104.870527,45.293848],[-104.865395,45.29384],[-104.860263,45.293832],[-104.855131,45.293824],[-104.855131,45.290201],[-104.85513,45.286578],[-104.85513,45.282954]]]}},{"type":"Feature","properties":{"sec":"33","frstdivid":"MT200060S0560E0SN330"},"geometry":{"type":"Polygon","coordinates":[[[-104.875645,45.279361],[-104.870516,45.279354],[-104.865387,45.279346],[-104.860259,45.279339],[-104.85513,45.279331],[-104.85513,45.27571],[-104.85513,45.27209],[-104.855129,45.268469],[-104.855129,45.264848],[-104.860254,45.264853],[-104.865379,45.264857],[-104.870504,45.264861],[-104.875629,45.264865],[-104.875633,45.268489],[-104.875637,45.272113],[-104.875641,45.275737],[-104.875645,45.279361]]]}},{"type":"Feature","properties":{"sec":"32","frstdivid":"MT200060S0560E0SN320"},"geometry":{"type":"Polygon","coordinates":[[[-104.896132,45.268495],[-104.896136,45.272117],[-104.896139,45.275739],[-104.896142,45.279361],[-104.891017,45.279361],[-104.885893,45.279361],[-104.880769,45.279361],[-104.875645,45.279361],[-104.875641,45.275737],[-104.875637,45.272113],[-104.875633,45.268489],[-104.875629,45.264865],[-104.880754,45.264867],[-104.885879,45.264869],[-104.891004,45.264871],[-104.896129,45.264873],[-104.896132,45.268495]]]}},{"type":"Feature","properties":{"sec":"35","frstdivid":"MT200060S0560E0SN350"},"geometry":{"type":"Polygon","coordinates":[[[-104.82951,45.264837],[-104.834638,45.264839],[-104.834633,45.26846],[-104.834627,45.272082],[-104.834622,45.275703],[-104.834616,45.279325],[-104.829486,45.279324],[-104.824355,45.279323],[-104.819225,45.279321],[-104.814095,45.27932],[-104.814102,45.275698],[-104.814109,45.272077],[-104.814116,45.268455],[-104.814124,45.264833],[-104.819252,45.264835],[-104.824381,45.264836],[-104.82951,45.264837]]]}},{"type":"Feature","properties":{"sec":"14","frstdivid":"MT200060S0560E0SN140"},"geometry":{"type":"Polygon","coordinates":[[[-104.824319,45.308308],[-104.829454,45.30831],[-104.834589,45.308313],[-104.834586,45.311937],[-104.834583,45.31556],[-104.834581,45.319184],[-104.834578,45.322808],[-104.829441,45.322805],[-104.824305,45.322803],[-104.819169,45.322801],[-104.814032,45.322798],[-104.814037,45.319175],[-104.814041,45.315551],[-104.814045,45.311927],[-104.814049,45.308303],[-104.819184,45.308306],[-104.824319,45.308308]]]}},{"type":"Feature","properties":{"sec":"20","frstdivid":"MT200060S0560E0SN200"},"geometry":{"type":"Polygon","coordinates":[[[-104.880803,45.308348],[-104.875677,45.308347],[-104.875672,45.304724],[-104.875668,45.301102],[-104.875663,45.297479],[-104.875659,45.293856],[-104.880783,45.293857],[-104.885908,45.293858],[-104.891033,45.293859],[-104.896158,45.29386],[-104.896164,45.297483],[-104.896169,45.301107],[-104.896175,45.30473],[-104.896181,45.308354],[-104.891055,45.308352],[-104.885929,45.30835],[-104.880803,45.308348]]]}},{"type":"Feature","properties":{"sec":"24","frstdivid":"MT200060S0560E0SN240"},"geometry":{"type":"Polygon","coordinates":[[[-104.793538,45.301051],[-104.793542,45.297428],[-104.793547,45.293804],[-104.798678,45.293806],[-104.803809,45.293807],[-104.80894,45.293808],[-104.814072,45.29381],[-104.814066,45.297433],[-104.81406,45.301057],[-104.814055,45.30468],[-104.814049,45.308303],[-104.808919,45.308302],[-104.803789,45.3083],[-104.798659,45.308299],[-104.793529,45.308297],[-104.793533,45.304674],[-104.793538,45.301051]]]}},{"type":"Feature","properties":{"sec":"29","frstdivid":"MT200060S0560E0SN290"},"geometry":{"type":"Polygon","coordinates":[[[-104.885893,45.279361],[-104.891017,45.279361],[-104.896142,45.279361],[-104.896146,45.282986],[-104.89615,45.286611],[-104.896154,45.290235],[-104.896158,45.29386],[-104.891033,45.293859],[-104.885908,45.293858],[-104.880783,45.293857],[-104.875659,45.293856],[-104.875655,45.290233],[-104.875652,45.286609],[-104.875648,45.282985],[-104.875645,45.279361],[-104.880769,45.279361],[-104.885893,45.279361]]]}},{"type":"Feature","properties":{"sec":"25","frstdivid":"MT200060S0560E0SN250"},"geometry":{"type":"Polygon","coordinates":[[[-104.814095,45.27932],[-104.814089,45.282943],[-104.814083,45.286565],[-104.814077,45.290187],[-104.814072,45.29381],[-104.80894,45.293808],[-104.803809,45.293807],[-104.798678,45.293806],[-104.793547,45.293804],[-104.793552,45.290181],[-104.793557,45.286559],[-104.793562,45.282936],[-104.793567,45.279313],[-104.798699,45.279315],[-104.803831,45.279317],[-104.808963,45.279318],[-104.814095,45.27932]]]}},{"type":"Feature","properties":{"sec":"10","frstdivid":"MT200060S0560E0SN100"},"geometry":{"type":"Polygon","coordinates":[[[-104.834578,45.322808],[-104.839717,45.322807],[-104.844855,45.322806],[-104.849994,45.322805],[-104.855133,45.322804],[-104.855133,45.326426],[-104.855133,45.330048],[-104.855132,45.33367],[-104.855132,45.337292],[-104.849991,45.337294],[-104.84485,45.337297],[-104.839709,45.3373],[-104.834568,45.337302],[-104.83457,45.333679],[-104.834573,45.330055],[-104.834575,45.326431],[-104.834578,45.322808]]]}},{"type":"Feature","properties":{"sec":"13","frstdivid":"MT200060S0560E0SN130"},"geometry":{"type":"Polygon","coordinates":[[[-104.808919,45.308302],[-104.814049,45.308303],[-104.814045,45.311927],[-104.814041,45.315551],[-104.814037,45.319175],[-104.814032,45.322798],[-104.808902,45.322799],[-104.803771,45.322799],[-104.79864,45.322799],[-104.793509,45.322799],[-104.793514,45.319174],[-104.793519,45.315548],[-104.793524,45.311923],[-104.793529,45.308297],[-104.798659,45.308299],[-104.803789,45.3083],[-104.808919,45.308302]]]}}]}