{"type":"FeatureCollection","note":"BLM Public Land Survey System. Provided by the Bureau of Land Management as is. These data are neither legal documents nor land surveys and must not be used as such.","features":[{"type":"Feature","properties":{"sec":"24","frstdivid":"MT200010S0460E0SN240"},"geometry":{"type":"Polygon","coordinates":[[[-105.985547,45.734064],[-105.985547,45.733575],[-105.985554,45.730437],[-105.985555,45.729958],[-105.985563,45.726811],[-105.985563,45.726341],[-105.990745,45.726319],[-105.995928,45.726297],[-106.001078,45.726275],[-106.006229,45.726254],[-106.006216,45.729882],[-106.006203,45.733509],[-106.00619,45.737137],[-106.006178,45.740765],[-106.001016,45.740776],[-105.995854,45.740788],[-105.990693,45.740799],[-105.985531,45.74081],[-105.985538,45.73769],[-105.985539,45.737193],[-105.985547,45.734064]]]}},{"type":"Feature","properties":{"sec":"11","frstdivid":"MT200010S0460E0SN110"},"geometry":{"type":"Polygon","coordinates":[[[-106.026741,45.766064],[-106.026739,45.76968],[-106.021587,45.769692],[-106.016435,45.769704],[-106.011283,45.769717],[-106.006131,45.769729],[-106.006137,45.766114],[-106.006143,45.7625],[-106.006149,45.758885],[-106.006154,45.75527],[-106.011302,45.755256],[-106.01645,45.755242],[-106.021598,45.755228],[-106.026746,45.755214],[-106.026744,45.758831],[-106.026742,45.762447],[-106.026741,45.766064]]]}},{"type":"Feature","properties":{"sec":"10","frstdivid":"MT200010S0460E0SN100"},"geometry":{"type":"Polygon","coordinates":[[[-106.042233,45.755236],[-106.047069,45.75524],[-106.047399,45.75524],[-106.047402,45.758851],[-106.047404,45.762461],[-106.047406,45.766072],[-106.047409,45.769683],[-106.042241,45.769682],[-106.037074,45.769681],[-106.031906,45.769681],[-106.026739,45.76968],[-106.026741,45.766064],[-106.026742,45.762447],[-106.026744,45.758831],[-106.026746,45.755214],[-106.031907,45.755223],[-106.037068,45.755232],[-106.042233,45.755236]]]}},{"type":"Feature","properties":{"sec":"27","frstdivid":"MT200010S0460E0SN270"},"geometry":{"type":"Polygon","coordinates":[[[-106.026838,45.722619],[-106.026801,45.719124],[-106.026765,45.715629],[-106.026728,45.712134],[-106.03188,45.712145],[-106.037032,45.712157],[-106.042183,45.712168],[-106.047335,45.71218],[-106.047289,45.715785],[-106.047267,45.717588],[-106.047256,45.71849],[-106.047244,45.719391],[-106.047204,45.72303],[-106.047165,45.726668],[-106.042251,45.726468],[-106.037337,45.726268],[-106.032105,45.726191],[-106.026874,45.726114],[-106.026838,45.722619]]]}},{"type":"Feature","properties":{"sec":"30","frstdivid":"MT200010S0460E0SN300"},"geometry":{"type":"Polygon","coordinates":[[[-106.108959,45.725593],[-106.108957,45.726392],[-106.108949,45.729224],[-106.108947,45.730112],[-106.104445,45.729639],[-106.099239,45.729093],[-106.094034,45.728546],[-106.088829,45.728],[-106.088802,45.724346],[-106.088775,45.720691],[-106.088859,45.716758],[-106.088942,45.712825],[-106.094151,45.713364],[-106.099359,45.713903],[-106.104567,45.714617],[-106.109011,45.715227],[-106.108992,45.718345],[-106.108989,45.718949],[-106.108971,45.721962],[-106.108967,45.722671],[-106.108959,45.725593]]]}},{"type":"Feature","properties":{"sec":"33","frstdivid":"MT200010S0460E0SN330"},"geometry":{"type":"Polygon","coordinates":[[[-106.047642,45.698657],[-106.049835,45.698737],[-106.052962,45.69885],[-106.054987,45.698923],[-106.058283,45.699037],[-106.060141,45.699061],[-106.063509,45.699103],[-106.065296,45.699125],[-106.068735,45.699164],[-106.068296,45.702396],[-106.067856,45.705629],[-106.067417,45.708861],[-106.066977,45.712093],[-106.062356,45.712119],[-106.057736,45.712144],[-106.052535,45.712162],[-106.047335,45.71218],[-106.047412,45.708799],[-106.047488,45.705418],[-106.047565,45.702038],[-106.047642,45.698657]]]}},{"type":"Feature","properties":{"sec":"25","frstdivid":"MT200010S0460E0SN250"},"geometry":{"type":"Polygon","coordinates":[[[-106.001001,45.712084],[-106.006156,45.712076],[-106.006196,45.715617],[-106.006237,45.719157],[-106.006233,45.722705],[-106.006229,45.726254],[-106.001078,45.726275],[-105.995928,45.726297],[-105.990745,45.726319],[-105.985563,45.726341],[-105.985578,45.723199],[-105.98558,45.722775],[-105.985596,45.719586],[-105.985597,45.71921],[-105.985616,45.715974],[-105.985617,45.715659],[-105.985636,45.712362],[-105.985637,45.712108],[-105.990742,45.7121],[-105.995847,45.712093],[-106.001001,45.712084]]]}},{"type":"Feature","properties":{"sec":"26","frstdivid":"MT200010S0460E0SN260"},"geometry":{"type":"Polygon","coordinates":[[[-106.011351,45.726215],[-106.006229,45.726254],[-106.006233,45.722705],[-106.006237,45.719157],[-106.006196,45.715617],[-106.006156,45.712076],[-106.011299,45.712091],[-106.016442,45.712105],[-106.021585,45.712119],[-106.026728,45.712134],[-106.026765,45.715629],[-106.026801,45.719124],[-106.026838,45.722619],[-106.026874,45.726114],[-106.021674,45.726145],[-106.016474,45.726176],[-106.011351,45.726215]]]}},{"type":"Feature","properties":{"sec":"35","frstdivid":"MT200010S0460E0SN350"},"geometry":{"type":"Polygon","coordinates":[[[-106.016548,45.697785],[-106.018902,45.69787],[-106.021831,45.697975],[-106.024044,45.698055],[-106.027114,45.69816],[-106.027017,45.701653],[-106.026921,45.705147],[-106.026825,45.70864],[-106.026728,45.712134],[-106.021585,45.712119],[-106.016442,45.712105],[-106.011299,45.712091],[-106.006156,45.712076],[-106.006143,45.708475],[-106.006129,45.704874],[-106.006187,45.701255],[-106.006244,45.697636],[-106.008613,45.697671],[-106.011396,45.697713],[-106.01376,45.697748],[-106.016548,45.697785]]]}},{"type":"Feature","properties":{"sec":"08","frstdivid":"MT200010S0460E0SN080"},"geometry":{"type":"Polygon","coordinates":[[[-106.083549,45.755215],[-106.088804,45.755205],[-106.088838,45.757572],[-106.088738,45.758833],[-106.088544,45.761187],[-106.088443,45.762459],[-106.088251,45.764802],[-106.088149,45.766084],[-106.087957,45.768417],[-106.087854,45.769709],[-106.083582,45.769709],[-106.078414,45.76971],[-106.07325,45.769712],[-106.068086,45.769713],[-106.068069,45.766092],[-106.068052,45.76247],[-106.068035,45.758848],[-106.068018,45.755226],[-106.072774,45.755226],[-106.073195,45.755226],[-106.077982,45.755226],[-106.078372,45.755225],[-106.083393,45.755216],[-106.083549,45.755215]]]}},{"type":"Feature","properties":{"sec":"17","frstdivid":"MT200010S0460E0SN170"},"geometry":{"type":"Polygon","coordinates":[[[-106.068018,45.755226],[-106.067566,45.755226],[-106.067579,45.751631],[-106.067585,45.750109],[-106.067583,45.746473],[-106.06758,45.742837],[-106.072677,45.742906],[-106.077774,45.742976],[-106.083226,45.74307],[-106.088679,45.743164],[-106.088706,45.746792],[-106.088734,45.75042],[-106.088751,45.751611],[-106.088786,45.753996],[-106.088804,45.755205],[-106.083549,45.755215],[-106.083393,45.755216],[-106.078372,45.755225],[-106.077982,45.755226],[-106.073195,45.755226],[-106.072774,45.755226],[-106.068018,45.755226]]]}},{"type":"Feature","properties":{"sec":"28","frstdivid":"MT200010S0460E0SN280"},"geometry":{"type":"Polygon","coordinates":[[[-106.067578,45.72397],[-106.067859,45.727928],[-106.062686,45.727613],[-106.057512,45.727298],[-106.052338,45.726983],[-106.047165,45.726668],[-106.047204,45.72303],[-106.047244,45.719391],[-106.047256,45.71849],[-106.047267,45.717588],[-106.047289,45.715785],[-106.047335,45.71218],[-106.052535,45.712162],[-106.057736,45.712144],[-106.062356,45.712119],[-106.066977,45.712093],[-106.067137,45.716052],[-106.067296,45.720011],[-106.067578,45.72397]]]}},{"type":"Feature","properties":{"sec":"16","frstdivid":"MT200010S0460E0SN160"},"geometry":{"type":"Polygon","coordinates":[[[-106.067566,45.755226],[-106.062863,45.75523],[-106.062358,45.75523],[-106.057709,45.755233],[-106.057151,45.755233],[-106.052554,45.755237],[-106.052109,45.755237],[-106.047399,45.75524],[-106.047069,45.75524],[-106.047078,45.751635],[-106.047078,45.751611],[-106.047085,45.748371],[-106.047085,45.747978],[-106.047091,45.744763],[-106.047091,45.744346],[-106.047098,45.741155],[-106.052126,45.742012],[-106.057154,45.74287],[-106.062367,45.742853],[-106.06758,45.742837],[-106.067583,45.746473],[-106.067585,45.750109],[-106.067579,45.751631],[-106.067566,45.755226]]]}},{"type":"Feature","properties":{"sec":"01","frstdivid":"MT200010S0460E0SN010"},"geometry":{"type":"Polygon","coordinates":[[[-105.987462,45.788593],[-105.985443,45.788592],[-105.985446,45.784735],[-105.985446,45.784275],[-105.985448,45.781114],[-105.985448,45.780649],[-105.98545,45.777493],[-105.98545,45.777023],[-105.985454,45.77387],[-105.985454,45.7734],[-105.985458,45.770248],[-105.985458,45.769777],[-105.990626,45.769765],[-105.995795,45.769753],[-106.000963,45.769741],[-106.006131,45.769729],[-106.006122,45.773347],[-106.006114,45.776966],[-106.00611,45.780585],[-106.006107,45.784204],[-106.006101,45.788601],[-106.002966,45.7886],[-106.000937,45.788599],[-105.997798,45.788597],[-105.995772,45.788596],[-105.99263,45.788596],[-105.990608,45.788595],[-105.987462,45.788593]]]}},{"type":"Feature","properties":{"sec":"04","frstdivid":"MT200010S0460E0SN040"},"geometry":{"type":"Polygon","coordinates":[[[-106.062917,45.769706],[-106.068086,45.769713],[-106.068105,45.77334],[-106.068123,45.776966],[-106.068136,45.780588],[-106.068148,45.784211],[-106.068165,45.788645],[-106.066367,45.788646],[-106.062985,45.788642],[-106.059786,45.788639],[-106.057806,45.788639],[-106.054618,45.788638],[-106.052629,45.788635],[-106.049455,45.788632],[-106.047452,45.78863],[-106.047442,45.784135],[-106.047435,45.78052],[-106.047428,45.776905],[-106.047418,45.773294],[-106.047409,45.769683],[-106.052578,45.76969],[-106.057747,45.769698],[-106.062917,45.769706]]]}},{"type":"Feature","properties":{"sec":"13","frstdivid":"MT200010S0460E0SN130"},"geometry":{"type":"Polygon","coordinates":[[[-106.006154,45.75527],[-106.000989,45.755275],[-105.995823,45.75528],[-105.990657,45.755284],[-105.985491,45.755289],[-105.9855,45.752164],[-105.985502,45.751669],[-105.985511,45.748548],[-105.985511,45.74805],[-105.98552,45.744932],[-105.985522,45.74443],[-105.985531,45.741317],[-105.985531,45.74081],[-105.990693,45.740799],[-105.995854,45.740788],[-106.001016,45.740776],[-106.006178,45.740765],[-106.006172,45.744392],[-106.006166,45.748018],[-106.00616,45.751644],[-106.006154,45.75527]]]}},{"type":"Feature","properties":{"sec":"09","frstdivid":"MT200010S0460E0SN090"},"geometry":{"type":"Polygon","coordinates":[[[-106.047399,45.75524],[-106.052109,45.755237],[-106.052554,45.755237],[-106.057151,45.755233],[-106.057709,45.755233],[-106.062358,45.75523],[-106.062863,45.75523],[-106.067566,45.755226],[-106.068018,45.755226],[-106.068035,45.758848],[-106.068052,45.76247],[-106.068069,45.766092],[-106.068086,45.769713],[-106.062917,45.769706],[-106.057747,45.769698],[-106.052578,45.76969],[-106.047409,45.769683],[-106.047406,45.766072],[-106.047404,45.762461],[-106.047402,45.758851],[-106.047399,45.75524]]]}},{"type":"Feature","properties":{"sec":"22","frstdivid":"MT200010S0460E0SN220"},"geometry":{"type":"Polygon","coordinates":[[[-106.026842,45.73341],[-106.026858,45.729762],[-106.026874,45.726114],[-106.032105,45.726191],[-106.037337,45.726268],[-106.042251,45.726468],[-106.047165,45.726668],[-106.047131,45.730316],[-106.047098,45.733964],[-106.047098,45.737123],[-106.047098,45.737559],[-106.047098,45.740713],[-106.042306,45.740712],[-106.042118,45.740712],[-106.037139,45.740711],[-106.031975,45.740708],[-106.02681,45.740705],[-106.026826,45.737057],[-106.026842,45.73341]]]}},{"type":"Feature","properties":{"sec":"23","frstdivid":"MT200010S0460E0SN230"},"geometry":{"type":"Polygon","coordinates":[[[-106.011351,45.726215],[-106.016474,45.726176],[-106.021674,45.726145],[-106.026874,45.726114],[-106.026858,45.729762],[-106.026842,45.73341],[-106.026826,45.737057],[-106.02681,45.740705],[-106.021652,45.74072],[-106.016494,45.740735],[-106.011336,45.74075],[-106.006178,45.740765],[-106.00619,45.737137],[-106.006203,45.733509],[-106.006216,45.729882],[-106.006229,45.726254],[-106.011351,45.726215]]]}},{"type":"Feature","properties":{"sec":"15","frstdivid":"MT200010S0460E0SN150"},"geometry":{"type":"Polygon","coordinates":[[[-106.042306,45.740712],[-106.047098,45.740713],[-106.047098,45.741155],[-106.047091,45.744346],[-106.047091,45.744763],[-106.047085,45.747978],[-106.047085,45.748371],[-106.047078,45.751611],[-106.047078,45.751635],[-106.047069,45.75524],[-106.042233,45.755236],[-106.037068,45.755232],[-106.031907,45.755223],[-106.026746,45.755214],[-106.026762,45.751587],[-106.026778,45.74796],[-106.026794,45.744332],[-106.02681,45.740705],[-106.031975,45.740708],[-106.037139,45.740711],[-106.042118,45.740712],[-106.042306,45.740712]]]}},{"type":"Feature","properties":{"sec":"19","frstdivid":"MT200010S0460E0SN190"},"geometry":{"type":"Polygon","coordinates":[[[-106.088792,45.731791],[-106.088829,45.728],[-106.094034,45.728546],[-106.099239,45.729093],[-106.104445,45.729639],[-106.108947,45.730112],[-106.108943,45.733513],[-106.108943,45.733957],[-106.108938,45.737802],[-106.108883,45.74131],[-106.108828,45.744818],[-106.104302,45.744446],[-106.099093,45.744019],[-106.093886,45.743591],[-106.088679,45.743164],[-106.088717,45.739373],[-106.088754,45.735582],[-106.088792,45.731791]]]}},{"type":"Feature","properties":{"sec":"18","frstdivid":"MT200010S0460E0SN180"},"geometry":{"type":"Polygon","coordinates":[[[-106.10864,45.759351],[-106.104172,45.758951],[-106.099078,45.758494],[-106.093958,45.758033],[-106.088838,45.757572],[-106.088804,45.755205],[-106.088786,45.753996],[-106.088751,45.751611],[-106.088734,45.75042],[-106.088706,45.746792],[-106.088679,45.743164],[-106.093886,45.743591],[-106.099093,45.744019],[-106.104302,45.744446],[-106.108828,45.744818],[-106.108756,45.748415],[-106.108683,45.752012],[-106.108662,45.755682],[-106.10864,45.759351]]]}},{"type":"Feature","properties":{"sec":"34","frstdivid":"MT200010S0460E0SN340"},"geometry":{"type":"Polygon","coordinates":[[[-106.034361,45.698372],[-106.037365,45.698455],[-106.039522,45.698499],[-106.042503,45.698559],[-106.044683,45.698603],[-106.047642,45.698657],[-106.047565,45.702038],[-106.047488,45.705418],[-106.047412,45.708799],[-106.047335,45.71218],[-106.042183,45.712168],[-106.037032,45.712157],[-106.03188,45.712145],[-106.026728,45.712134],[-106.026825,45.70864],[-106.026921,45.705147],[-106.027017,45.701653],[-106.027114,45.69816],[-106.029203,45.698221],[-106.032239,45.69831],[-106.034361,45.698372]]]}},{"type":"Feature","properties":{"sec":"02","frstdivid":"MT200010S0460E0SN020"},"geometry":{"type":"Polygon","coordinates":[[[-106.006114,45.776966],[-106.006122,45.773347],[-106.006131,45.769729],[-106.011283,45.769717],[-106.016435,45.769704],[-106.021587,45.769692],[-106.026739,45.76968],[-106.02674,45.773301],[-106.026741,45.776921],[-106.026744,45.780541],[-106.026746,45.784161],[-106.026748,45.788614],[-106.023631,45.788613],[-106.021587,45.788611],[-106.018465,45.788609],[-106.016425,45.788607],[-106.013299,45.788606],[-106.011263,45.788605],[-106.008132,45.788602],[-106.006101,45.788601],[-106.006107,45.784204],[-106.00611,45.780585],[-106.006114,45.776966]]]}},{"type":"Feature","properties":{"sec":"07","frstdivid":"MT200010S0460E0SN070"},"geometry":{"type":"Polygon","coordinates":[[[-106.108324,45.772327],[-106.103474,45.772433],[-106.097975,45.772555],[-106.092819,45.772293],[-106.087662,45.772031],[-106.087854,45.769709],[-106.087957,45.768417],[-106.088149,45.766084],[-106.088251,45.764802],[-106.088443,45.762459],[-106.088544,45.761187],[-106.088738,45.758833],[-106.088838,45.757572],[-106.093958,45.758033],[-106.099078,45.758494],[-106.104172,45.758951],[-106.10864,45.759351],[-106.108561,45.762595],[-106.108482,45.765839],[-106.108403,45.769083],[-106.108324,45.772327]]]}},{"type":"Feature","properties":{"sec":"21","frstdivid":"MT200010S0460E0SN210"},"geometry":{"type":"Polygon","coordinates":[[[-106.047098,45.741155],[-106.047098,45.740713],[-106.047098,45.737559],[-106.047098,45.737123],[-106.047098,45.733964],[-106.047131,45.730316],[-106.047165,45.726668],[-106.052338,45.726983],[-106.057512,45.727298],[-106.062686,45.727613],[-106.067859,45.727928],[-106.06779,45.731656],[-106.06772,45.735383],[-106.06765,45.73911],[-106.06758,45.742837],[-106.062367,45.742853],[-106.057154,45.74287],[-106.052126,45.742012],[-106.047098,45.741155]]]}},{"type":"Feature","properties":{"sec":"31","frstdivid":"MT200010S0460E0SN310"},"geometry":{"type":"Polygon","coordinates":[[[-106.108952,45.707462],[-106.108956,45.707711],[-106.108979,45.711096],[-106.108981,45.711469],[-106.109003,45.714729],[-106.109011,45.715227],[-106.104567,45.714617],[-106.099359,45.713903],[-106.094151,45.713364],[-106.088942,45.712825],[-106.089021,45.70942],[-106.0891,45.706014],[-106.089178,45.702609],[-106.089257,45.699204],[-106.091142,45.699208],[-106.09431,45.699215],[-106.096298,45.699219],[-106.099363,45.699222],[-106.101459,45.699435],[-106.104517,45.699747],[-106.106619,45.699961],[-106.108907,45.700194],[-106.10893,45.703828],[-106.108931,45.703953],[-106.108952,45.707462]]]}},{"type":"Feature","properties":{"sec":"12","frstdivid":"MT200010S0460E0SN120"},"geometry":{"type":"Polygon","coordinates":[[[-105.985482,45.759397],[-105.985484,45.758911],[-105.985491,45.75578],[-105.985491,45.755289],[-105.990657,45.755284],[-105.995823,45.75528],[-106.000989,45.755275],[-106.006154,45.75527],[-106.006149,45.758885],[-106.006143,45.7625],[-106.006137,45.766114],[-106.006131,45.769729],[-106.000963,45.769741],[-105.995795,45.769753],[-105.990626,45.769765],[-105.985458,45.769777],[-105.985466,45.766631],[-105.985467,45.766155],[-105.985475,45.763014],[-105.985475,45.762533],[-105.985482,45.759397]]]}},{"type":"Feature","properties":{"sec":"32","frstdivid":"MT200010S0460E0SN320"},"geometry":{"type":"Polygon","coordinates":[[[-106.089178,45.702609],[-106.0891,45.706014],[-106.089021,45.70942],[-106.088942,45.712825],[-106.083451,45.712527],[-106.07796,45.712229],[-106.072468,45.712161],[-106.066977,45.712093],[-106.067417,45.708861],[-106.067856,45.705629],[-106.068296,45.702396],[-106.068735,45.699164],[-106.070469,45.69916],[-106.073836,45.699151],[-106.075641,45.699147],[-106.078936,45.699134],[-106.080813,45.699148],[-106.084097,45.699171],[-106.085986,45.699185],[-106.089257,45.699204],[-106.089178,45.702609]]]}},{"type":"Feature","properties":{"sec":"14","frstdivid":"MT200010S0460E0SN140"},"geometry":{"type":"Polygon","coordinates":[[[-106.006166,45.748018],[-106.006172,45.744392],[-106.006178,45.740765],[-106.011336,45.74075],[-106.016494,45.740735],[-106.021652,45.74072],[-106.02681,45.740705],[-106.026794,45.744332],[-106.026778,45.74796],[-106.026762,45.751587],[-106.026746,45.755214],[-106.021598,45.755228],[-106.01645,45.755242],[-106.011302,45.755256],[-106.006154,45.75527],[-106.00616,45.751644],[-106.006166,45.748018]]]}},{"type":"Feature","properties":{"sec":"05","frstdivid":"MT200010S0460E0SN050"},"geometry":{"type":"Polygon","coordinates":[[[-106.087217,45.788647],[-106.083561,45.788646],[-106.082005,45.788646],[-106.078428,45.788645],[-106.076793,45.788644],[-106.073296,45.788645],[-106.07158,45.788645],[-106.068165,45.788645],[-106.068148,45.784211],[-106.068136,45.780588],[-106.068123,45.776966],[-106.068105,45.77334],[-106.068086,45.769713],[-106.07325,45.769712],[-106.078414,45.76971],[-106.083582,45.769709],[-106.087854,45.769709],[-106.087662,45.772031],[-106.08766,45.773326],[-106.087651,45.775653],[-106.087649,45.776948],[-106.08764,45.779275],[-106.087638,45.78057],[-106.087625,45.783202],[-106.087625,45.784193],[-106.087582,45.788647],[-106.087217,45.788647]]]}},{"type":"Feature","properties":{"sec":"03","frstdivid":"MT200010S0460E0SN030"},"geometry":{"type":"Polygon","coordinates":[[[-106.026741,45.776921],[-106.02674,45.773301],[-106.026739,45.76968],[-106.031906,45.769681],[-106.037074,45.769681],[-106.042241,45.769682],[-106.047409,45.769683],[-106.047418,45.773294],[-106.047428,45.776905],[-106.047435,45.78052],[-106.047442,45.784135],[-106.047452,45.78863],[-106.044292,45.788629],[-106.042276,45.788627],[-106.039127,45.788624],[-106.0371,45.788622],[-106.033962,45.788621],[-106.031924,45.788619],[-106.028796,45.788616],[-106.026748,45.788614],[-106.026746,45.784161],[-106.026744,45.780541],[-106.026741,45.776921]]]}},{"type":"Feature","properties":{"sec":"29","frstdivid":"MT200010S0460E0SN290"},"geometry":{"type":"Polygon","coordinates":[[[-106.072468,45.712161],[-106.07796,45.712229],[-106.083451,45.712527],[-106.088942,45.712825],[-106.088859,45.716758],[-106.088775,45.720691],[-106.088802,45.724346],[-106.088829,45.728],[-106.083587,45.727982],[-106.078344,45.727964],[-106.073102,45.727946],[-106.067859,45.727928],[-106.067578,45.72397],[-106.067296,45.720011],[-106.067137,45.716052],[-106.066977,45.712093],[-106.072468,45.712161]]]}},{"type":"Feature","properties":{"sec":"20","frstdivid":"MT200010S0460E0SN200"},"geometry":{"type":"Polygon","coordinates":[[[-106.083587,45.727982],[-106.088829,45.728],[-106.088792,45.731791],[-106.088754,45.735582],[-106.088717,45.739373],[-106.088679,45.743164],[-106.083226,45.74307],[-106.077774,45.742976],[-106.072677,45.742906],[-106.06758,45.742837],[-106.06765,45.73911],[-106.06772,45.735383],[-106.06779,45.731656],[-106.067859,45.727928],[-106.073102,45.727946],[-106.078344,45.727964],[-106.083587,45.727982]]]}},{"type":"Feature","properties":{"sec":"06","frstdivid":"MT200010S0460E0SN060"},"geometry":{"type":"Polygon","coordinates":[[[-106.098774,45.78863],[-106.09765,45.788631],[-106.093575,45.788637],[-106.092434,45.788639],[-106.087582,45.788647],[-106.087625,45.784193],[-106.087625,45.783202],[-106.087638,45.78057],[-106.08764,45.779275],[-106.087649,45.776948],[-106.087651,45.775653],[-106.08766,45.773326],[-106.087662,45.772031],[-106.092819,45.772293],[-106.097975,45.772555],[-106.103474,45.772433],[-106.108324,45.772327],[-106.108373,45.776248],[-106.108377,45.776551],[-106.108421,45.780169],[-106.10847,45.78409],[-106.108526,45.788624],[-106.108009,45.788624],[-106.103972,45.788627],[-106.10283,45.788627],[-106.098774,45.78863]]]}},{"type":"Feature","properties":{"sec":"36","frstdivid":"MT200010S0460E0SN360"},"geometry":{"type":"Polygon","coordinates":[[[-106.006129,45.704874],[-106.006143,45.708475],[-106.006156,45.712076],[-106.001001,45.712084],[-105.995847,45.712093],[-105.990742,45.7121],[-105.985637,45.712108],[-105.985646,45.708758],[-105.985647,45.708568],[-105.985656,45.705155],[-105.985656,45.705027],[-105.985624,45.701552],[-105.985622,45.70137],[-105.98559,45.697949],[-105.985588,45.697712],[-105.98799,45.697693],[-105.990708,45.697675],[-105.99315,45.697659],[-105.995829,45.697638],[-105.998308,45.697639],[-106.001036,45.697639],[-106.003466,45.69764],[-106.006244,45.697636],[-106.006187,45.701255],[-106.006129,45.704874]]]}}]}