{"type":"FeatureCollection","note":"BLM Public Land Survey System. Provided by the Bureau of Land Management as is. These data are neither legal documents nor land surveys and must not be used as such.","features":[{"type":"Feature","properties":{"sec":"27","frstdivid":"MT200050S0400E0SN270"},"geometry":{"type":"Polygon","coordinates":[[[-106.791167,45.368877],[-106.791174,45.372497],[-106.79118,45.376118],[-106.791187,45.37974],[-106.791195,45.383361],[-106.78607,45.383359],[-106.780949,45.383357],[-106.775827,45.383355],[-106.770702,45.383352],[-106.770695,45.379733],[-106.770688,45.376115],[-106.770684,45.372498],[-106.77068,45.368881],[-106.7758,45.36888],[-106.780921,45.36888],[-106.786044,45.368878],[-106.791167,45.368877]]]}},{"type":"Feature","properties":{"sec":"01","frstdivid":"MT200050S0400E0SN010"},"geometry":{"type":"Polygon","coordinates":[[[-106.745018,45.426808],[-106.750148,45.426809],[-106.750156,45.430427],[-106.750162,45.434046],[-106.750168,45.437665],[-106.750173,45.441287],[-106.745035,45.441287],[-106.739896,45.441286],[-106.73476,45.441286],[-106.729626,45.441287],[-106.729622,45.438366],[-106.729621,45.437666],[-106.72962,45.434748],[-106.72962,45.434044],[-106.729624,45.431129],[-106.729624,45.430427],[-106.729624,45.427505],[-106.729624,45.426808],[-106.734753,45.426806],[-106.739884,45.426806],[-106.745018,45.426808]]]}},{"type":"Feature","properties":{"sec":"13","frstdivid":"MT200050S0400E0SN130"},"geometry":{"type":"Polygon","coordinates":[[[-106.729627,45.407377],[-106.729624,45.405095],[-106.729619,45.402175],[-106.729619,45.401476],[-106.729612,45.39855],[-106.729611,45.397857],[-106.734734,45.397861],[-106.739857,45.397865],[-106.744983,45.397871],[-106.75011,45.397878],[-106.750114,45.401495],[-106.750118,45.405113],[-106.750121,45.40873],[-106.750125,45.412347],[-106.744998,45.412344],[-106.739868,45.412341],[-106.734743,45.412338],[-106.729615,45.412335],[-106.729613,45.409402],[-106.729618,45.408716],[-106.729627,45.407377]]]}},{"type":"Feature","properties":{"sec":"26","frstdivid":"MT200050S0400E0SN260"},"geometry":{"type":"Polygon","coordinates":[[[-106.750097,45.368941],[-106.755246,45.368925],[-106.760396,45.368909],[-106.765538,45.368895],[-106.77068,45.368881],[-106.770684,45.372498],[-106.770688,45.376115],[-106.770695,45.379733],[-106.770702,45.383352],[-106.765553,45.383367],[-106.760402,45.383381],[-106.755252,45.383397],[-106.750099,45.383413],[-106.750099,45.379796],[-106.750098,45.376178],[-106.750097,45.37256],[-106.750097,45.368941]]]}},{"type":"Feature","properties":{"sec":"11","frstdivid":"MT200050S0400E0SN110"},"geometry":{"type":"Polygon","coordinates":[[[-106.770721,45.426812],[-106.765581,45.426812],[-106.760436,45.426812],[-106.755295,45.42681],[-106.750148,45.426809],[-106.750142,45.423193],[-106.750135,45.419576],[-106.75013,45.415961],[-106.750125,45.412347],[-106.755273,45.41234],[-106.760418,45.412333],[-106.765568,45.412327],[-106.770715,45.41232],[-106.770715,45.415945],[-106.770716,45.419569],[-106.770719,45.42319],[-106.770721,45.426812]]]}},{"type":"Feature","properties":{"sec":"35","frstdivid":"MT200050S0400E0SN350"},"geometry":{"type":"Polygon","coordinates":[[[-106.770674,45.365263],[-106.77068,45.368881],[-106.765538,45.368895],[-106.760396,45.368909],[-106.755246,45.368925],[-106.750097,45.368941],[-106.750111,45.365319],[-106.750124,45.361695],[-106.750137,45.358076],[-106.750153,45.352694],[-106.75132,45.352701],[-106.752224,45.352706],[-106.755285,45.352724],[-106.757355,45.352735],[-106.760417,45.352752],[-106.761859,45.352761],[-106.762485,45.352767],[-106.765538,45.3528],[-106.768691,45.352834],[-106.770662,45.352856],[-106.770666,45.358023],[-106.770668,45.361644],[-106.770674,45.365263]]]}},{"type":"Feature","properties":{"sec":"19","frstdivid":"MT200050S0400E0SN190"},"geometry":{"type":"Polygon","coordinates":[[[-106.832335,45.397859],[-106.83233,45.394241],[-106.832324,45.390623],[-106.832317,45.387004],[-106.83231,45.383385],[-106.837442,45.383391],[-106.842574,45.383396],[-106.84771,45.383403],[-106.852722,45.38341],[-106.852721,45.387029],[-106.852719,45.390647],[-106.852721,45.394265],[-106.852718,45.397883],[-106.847736,45.397876],[-106.842599,45.397868],[-106.837467,45.397864],[-106.832335,45.397859]]]}},{"type":"Feature","properties":{"sec":"15","frstdivid":"MT200050S0400E0SN150"},"geometry":{"type":"Polygon","coordinates":[[[-106.770715,45.41232],[-106.770716,45.408697],[-106.770718,45.405074],[-106.770718,45.401453],[-106.770718,45.397833],[-106.775844,45.397835],[-106.780972,45.397837],[-106.786101,45.397841],[-106.791228,45.397845],[-106.791238,45.401467],[-106.791247,45.405088],[-106.791259,45.408708],[-106.791271,45.412328],[-106.786132,45.412327],[-106.780993,45.412326],[-106.775854,45.412323],[-106.770715,45.41232]]]}},{"type":"Feature","properties":{"sec":"25","frstdivid":"MT200050S0400E0SN250"},"geometry":{"type":"Polygon","coordinates":[[[-106.750097,45.37256],[-106.750098,45.376178],[-106.750099,45.379796],[-106.750099,45.383413],[-106.744971,45.383401],[-106.739843,45.383389],[-106.73472,45.383379],[-106.729597,45.383368],[-106.729593,45.380451],[-106.729593,45.379751],[-106.729588,45.376827],[-106.729587,45.376131],[-106.729584,45.373203],[-106.729584,45.37251],[-106.729581,45.369587],[-106.729581,45.368889],[-106.734711,45.368902],[-106.739841,45.368916],[-106.744968,45.368928],[-106.750097,45.368941],[-106.750097,45.37256]]]}},{"type":"Feature","properties":{"sec":"10","frstdivid":"MT200050S0400E0SN100"},"geometry":{"type":"Polygon","coordinates":[[[-106.770719,45.42319],[-106.770716,45.419569],[-106.770715,45.415945],[-106.770715,45.41232],[-106.775854,45.412323],[-106.780993,45.412326],[-106.786132,45.412327],[-106.791271,45.412328],[-106.791279,45.415951],[-106.791287,45.419573],[-106.791294,45.423196],[-106.791301,45.426818],[-106.786156,45.426817],[-106.78101,45.426814],[-106.775866,45.426813],[-106.770721,45.426812],[-106.770719,45.42319]]]}},{"type":"Feature","properties":{"sec":"31","frstdivid":"MT200050S0400E0SN310"},"geometry":{"type":"Polygon","coordinates":[[[-106.852701,45.365309],[-106.852699,45.368928],[-106.847667,45.36892],[-106.842538,45.368913],[-106.837405,45.368905],[-106.832272,45.368897],[-106.832251,45.365273],[-106.832231,45.36165],[-106.832209,45.358032],[-106.832181,45.353296],[-106.83404,45.353307],[-106.835498,45.353315],[-106.837313,45.353324],[-106.84066,45.353342],[-106.842443,45.353351],[-106.845822,45.353368],[-106.847571,45.353377],[-106.850984,45.353394],[-106.8527,45.353402],[-106.852703,45.358073],[-106.852705,45.361693],[-106.852701,45.365309]]]}},{"type":"Feature","properties":{"sec":"03","frstdivid":"MT200050S0400E0SN030"},"geometry":{"type":"Polygon","coordinates":[[[-106.775887,45.441291],[-106.770748,45.441291],[-106.77074,45.437674],[-106.770732,45.434053],[-106.770725,45.430432],[-106.770721,45.426812],[-106.775866,45.426813],[-106.78101,45.426814],[-106.786156,45.426817],[-106.791301,45.426818],[-106.791306,45.430438],[-106.791308,45.434058],[-106.791306,45.437676],[-106.791303,45.441293],[-106.786164,45.441292],[-106.781024,45.441291],[-106.775887,45.441291]]]}},{"type":"Feature","properties":{"sec":"02","frstdivid":"MT200050S0400E0SN020"},"geometry":{"type":"Polygon","coordinates":[[[-106.755295,45.42681],[-106.760436,45.426812],[-106.765581,45.426812],[-106.770721,45.426812],[-106.770725,45.430432],[-106.770732,45.434053],[-106.77074,45.437674],[-106.770748,45.441291],[-106.765603,45.44129],[-106.760459,45.441289],[-106.755317,45.441288],[-106.750173,45.441287],[-106.750168,45.437665],[-106.750162,45.434046],[-106.750156,45.430427],[-106.750148,45.426809],[-106.755295,45.42681]]]}},{"type":"Feature","properties":{"sec":"04","frstdivid":"MT200050S0400E0SN040"},"geometry":{"type":"Polygon","coordinates":[[[-106.791303,45.441293],[-106.791306,45.437676],[-106.791308,45.434058],[-106.791306,45.430438],[-106.791301,45.426818],[-106.796438,45.426818],[-106.801574,45.426818],[-106.806711,45.426817],[-106.811849,45.426816],[-106.811858,45.430438],[-106.811863,45.434057],[-106.811868,45.437677],[-106.811873,45.441298],[-106.806732,45.441297],[-106.801594,45.441295],[-106.796449,45.441294],[-106.791303,45.441293]]]}},{"type":"Feature","properties":{"sec":"23","frstdivid":"MT200050S0400E0SN230"},"geometry":{"type":"Polygon","coordinates":[[[-106.770706,45.386973],[-106.77071,45.390594],[-106.770714,45.394213],[-106.770718,45.397833],[-106.765569,45.397844],[-106.760423,45.397856],[-106.755266,45.397867],[-106.75011,45.397878],[-106.750108,45.394262],[-106.750107,45.390646],[-106.750103,45.38703],[-106.750099,45.383413],[-106.755252,45.383397],[-106.760402,45.383381],[-106.765553,45.383367],[-106.770702,45.383352],[-106.770706,45.386973]]]}},{"type":"Feature","properties":{"sec":"34","frstdivid":"MT200050S0400E0SN340"},"geometry":{"type":"Polygon","coordinates":[[[-106.772106,45.352871],[-106.773833,45.352882],[-106.775791,45.352893],[-106.778974,45.352913],[-106.78092,45.352924],[-106.782402,45.352933],[-106.784113,45.352945],[-106.786051,45.352958],[-106.789252,45.35298],[-106.791183,45.352993],[-106.791174,45.358019],[-106.79117,45.361638],[-106.791169,45.365257],[-106.791167,45.368877],[-106.786044,45.368878],[-106.780921,45.36888],[-106.7758,45.36888],[-106.77068,45.368881],[-106.770674,45.365263],[-106.770668,45.361644],[-106.770666,45.358023],[-106.770662,45.352856],[-106.772106,45.352871]]]}},{"type":"Feature","properties":{"sec":"12","frstdivid":"MT200050S0400E0SN120"},"geometry":{"type":"Polygon","coordinates":[[[-106.744998,45.412344],[-106.750125,45.412347],[-106.75013,45.415961],[-106.750135,45.419576],[-106.750142,45.423193],[-106.750148,45.426809],[-106.745018,45.426808],[-106.739884,45.426806],[-106.734753,45.426806],[-106.729624,45.426808],[-106.729625,45.423885],[-106.729625,45.423187],[-106.729624,45.420266],[-106.729624,45.419566],[-106.729621,45.416648],[-106.729621,45.415948],[-106.729616,45.413028],[-106.729615,45.412335],[-106.734743,45.412338],[-106.739868,45.412341],[-106.744998,45.412344]]]}},{"type":"Feature","properties":{"sec":"07","frstdivid":"MT200050S0400E0SN070"},"geometry":{"type":"Polygon","coordinates":[[[-106.847796,45.41235],[-106.852704,45.412353],[-106.852706,45.415974],[-106.852708,45.419593],[-106.852703,45.423211],[-106.852698,45.426825],[-106.847829,45.426825],[-106.842686,45.426827],[-106.837542,45.426824],[-106.832399,45.426823],[-106.832394,45.423203],[-106.832388,45.419583],[-106.832378,45.41596],[-106.832371,45.412339],[-106.837516,45.412344],[-106.842656,45.412347],[-106.847796,45.41235]]]}},{"type":"Feature","properties":{"sec":"18","frstdivid":"MT200050S0400E0SN180"},"geometry":{"type":"Polygon","coordinates":[[[-106.837516,45.412344],[-106.832371,45.412339],[-106.832363,45.408719],[-106.832353,45.405098],[-106.832344,45.401479],[-106.832335,45.397859],[-106.837467,45.397864],[-106.842599,45.397868],[-106.847736,45.397876],[-106.852718,45.397883],[-106.852714,45.401502],[-106.852711,45.40512],[-106.852707,45.408737],[-106.852704,45.412353],[-106.847796,45.41235],[-106.842656,45.412347],[-106.837516,45.412344]]]}},{"type":"Feature","properties":{"sec":"09","frstdivid":"MT200050S0400E0SN090"},"geometry":{"type":"Polygon","coordinates":[[[-106.791279,45.415951],[-106.791271,45.412328],[-106.79641,45.41233],[-106.801543,45.412331],[-106.806682,45.412332],[-106.811818,45.412332],[-106.811825,45.41595],[-106.811835,45.419569],[-106.811843,45.423193],[-106.811849,45.426816],[-106.806711,45.426817],[-106.801574,45.426818],[-106.796438,45.426818],[-106.791301,45.426818],[-106.791294,45.423196],[-106.791287,45.419573],[-106.791279,45.415951]]]}},{"type":"Feature","properties":{"sec":"24","frstdivid":"MT200050S0400E0SN240"},"geometry":{"type":"Polygon","coordinates":[[[-106.729597,45.383368],[-106.73472,45.383379],[-106.739843,45.383389],[-106.744971,45.383401],[-106.750099,45.383413],[-106.750103,45.38703],[-106.750107,45.390646],[-106.750108,45.394262],[-106.75011,45.397878],[-106.744983,45.397871],[-106.739857,45.397865],[-106.734734,45.397861],[-106.729611,45.397857],[-106.729604,45.394925],[-106.729605,45.394236],[-106.729605,45.391305],[-106.729605,45.39061],[-106.729606,45.387685],[-106.729606,45.38699],[-106.729599,45.384068],[-106.729597,45.383368]]]}},{"type":"Feature","properties":{"sec":"22","frstdivid":"MT200050S0400E0SN220"},"geometry":{"type":"Polygon","coordinates":[[[-106.77071,45.390594],[-106.770706,45.386973],[-106.770702,45.383352],[-106.775827,45.383355],[-106.780949,45.383357],[-106.78607,45.383359],[-106.791195,45.383361],[-106.791202,45.386982],[-106.79121,45.390602],[-106.791219,45.394224],[-106.791228,45.397845],[-106.786101,45.397841],[-106.780972,45.397837],[-106.775844,45.397835],[-106.770718,45.397833],[-106.770714,45.394213],[-106.77071,45.390594]]]}},{"type":"Feature","properties":{"sec":"33","frstdivid":"MT200050S0400E0SN330"},"geometry":{"type":"Polygon","coordinates":[[[-106.794367,45.353018],[-106.796309,45.353035],[-106.799481,45.353063],[-106.801438,45.35308],[-106.803098,45.353095],[-106.804596,45.353108],[-106.806568,45.353126],[-106.809711,45.353154],[-106.811699,45.353171],[-106.811712,45.358034],[-106.811721,45.361653],[-106.811726,45.36527],[-106.811731,45.368887],[-106.806587,45.368883],[-106.801445,45.36888],[-106.796305,45.368878],[-106.791167,45.368877],[-106.791169,45.365257],[-106.79117,45.361638],[-106.791174,45.358019],[-106.791183,45.352993],[-106.792771,45.353003],[-106.794367,45.353018]]]}},{"type":"Feature","properties":{"sec":"08","frstdivid":"MT200050S0400E0SN080"},"geometry":{"type":"Polygon","coordinates":[[[-106.832378,45.41596],[-106.832388,45.419583],[-106.832394,45.423203],[-106.832399,45.426823],[-106.827259,45.426821],[-106.822117,45.426819],[-106.816983,45.426817],[-106.811849,45.426816],[-106.811843,45.423193],[-106.811835,45.419569],[-106.811825,45.41595],[-106.811818,45.412332],[-106.816954,45.412335],[-106.82209,45.412338],[-106.827231,45.412339],[-106.832371,45.412339],[-106.832378,45.41596]]]}},{"type":"Feature","properties":{"sec":"36","frstdivid":"MT200050S0400E0SN360"},"geometry":{"type":"Polygon","coordinates":[[[-106.750153,45.352694],[-106.750137,45.358076],[-106.750124,45.361695],[-106.750111,45.365319],[-106.750097,45.368941],[-106.744968,45.368928],[-106.739841,45.368916],[-106.734711,45.368902],[-106.729581,45.368889],[-106.72958,45.36597],[-106.729579,45.365274],[-106.729573,45.362341],[-106.729571,45.361656],[-106.729567,45.358711],[-106.729565,45.358038],[-106.72956,45.355099],[-106.729554,45.351487],[-106.731597,45.351692],[-106.734706,45.352005],[-106.736763,45.352212],[-106.739859,45.352524],[-106.740931,45.352632],[-106.741928,45.352639],[-106.745004,45.352659],[-106.747093,45.352673],[-106.750153,45.352694]]]}},{"type":"Feature","properties":{"sec":"05","frstdivid":"MT200050S0400E0SN050"},"geometry":{"type":"Polygon","coordinates":[[[-106.811849,45.426816],[-106.816983,45.426817],[-106.822117,45.426819],[-106.827259,45.426821],[-106.832399,45.426823],[-106.832408,45.43044],[-106.832417,45.434057],[-106.832427,45.437676],[-106.832435,45.441293],[-106.827294,45.441294],[-106.822154,45.441296],[-106.817016,45.441297],[-106.811873,45.441298],[-106.811868,45.437677],[-106.811863,45.434057],[-106.811858,45.430438],[-106.811849,45.426816]]]}},{"type":"Feature","properties":{"sec":"30","frstdivid":"MT200050S0400E0SN300"},"geometry":{"type":"Polygon","coordinates":[[[-106.84771,45.383403],[-106.842574,45.383396],[-106.837442,45.383391],[-106.83231,45.383385],[-106.832302,45.379764],[-106.832293,45.376143],[-106.832282,45.37252],[-106.832272,45.368897],[-106.837405,45.368905],[-106.842538,45.368913],[-106.847667,45.36892],[-106.852699,45.368928],[-106.852701,45.372549],[-106.852706,45.376169],[-106.852712,45.37979],[-106.852722,45.38341],[-106.84771,45.383403]]]}},{"type":"Feature","properties":{"sec":"16","frstdivid":"MT200050S0400E0SN160"},"geometry":{"type":"Polygon","coordinates":[[[-106.806648,45.397846],[-106.811786,45.397845],[-106.811794,45.401467],[-106.811803,45.405089],[-106.811811,45.40871],[-106.811818,45.412332],[-106.806682,45.412332],[-106.801543,45.412331],[-106.79641,45.41233],[-106.791271,45.412328],[-106.791259,45.408708],[-106.791247,45.405088],[-106.791238,45.401467],[-106.791228,45.397845],[-106.79637,45.397846],[-106.801508,45.397847],[-106.806648,45.397846]]]}},{"type":"Feature","properties":{"sec":"14","frstdivid":"MT200050S0400E0SN140"},"geometry":{"type":"Polygon","coordinates":[[[-106.765569,45.397844],[-106.770718,45.397833],[-106.770718,45.401453],[-106.770718,45.405074],[-106.770716,45.408697],[-106.770715,45.41232],[-106.765568,45.412327],[-106.760418,45.412333],[-106.755273,45.41234],[-106.750125,45.412347],[-106.750121,45.40873],[-106.750118,45.405113],[-106.750114,45.401495],[-106.75011,45.397878],[-106.755266,45.397867],[-106.760423,45.397856],[-106.765569,45.397844]]]}},{"type":"Feature","properties":{"sec":"29","frstdivid":"MT200050S0400E0SN290"},"geometry":{"type":"Polygon","coordinates":[[[-106.811748,45.37974],[-106.811744,45.376123],[-106.811737,45.372505],[-106.811731,45.368887],[-106.816865,45.368888],[-106.821998,45.368889],[-106.827135,45.368893],[-106.832272,45.368897],[-106.832282,45.37252],[-106.832293,45.376143],[-106.832302,45.379764],[-106.83231,45.383385],[-106.82717,45.383376],[-106.82203,45.383367],[-106.816892,45.383362],[-106.811753,45.383357],[-106.811748,45.37974]]]}},{"type":"Feature","properties":{"sec":"20","frstdivid":"MT200050S0400E0SN200"},"geometry":{"type":"Polygon","coordinates":[[[-106.811786,45.397845],[-106.811784,45.396939],[-106.811778,45.394222],[-106.81177,45.390598],[-106.811761,45.386977],[-106.811753,45.383357],[-106.816892,45.383362],[-106.82203,45.383367],[-106.82717,45.383376],[-106.83231,45.383385],[-106.832317,45.387004],[-106.832324,45.390623],[-106.83233,45.394241],[-106.832335,45.397859],[-106.827196,45.397857],[-106.822057,45.397854],[-106.816921,45.39785],[-106.811786,45.397845]]]}},{"type":"Feature","properties":{"sec":"32","frstdivid":"MT200050S0400E0SN320"},"geometry":{"type":"Polygon","coordinates":[[[-106.816865,45.368888],[-106.811731,45.368887],[-106.811726,45.36527],[-106.811721,45.361653],[-106.811712,45.358034],[-106.811699,45.353171],[-106.813402,45.353186],[-106.814867,45.353196],[-106.816821,45.353208],[-106.820023,45.353227],[-106.821945,45.353239],[-106.823681,45.353249],[-106.82518,45.353258],[-106.827061,45.353268],[-106.830336,45.353286],[-106.832181,45.353296],[-106.832209,45.358032],[-106.832231,45.36165],[-106.832251,45.365273],[-106.832272,45.368897],[-106.827135,45.368893],[-106.821998,45.368889],[-106.816865,45.368888]]]}},{"type":"Feature","properties":{"sec":"06","frstdivid":"MT200050S0400E0SN060"},"geometry":{"type":"Polygon","coordinates":[[[-106.847829,45.426825],[-106.852698,45.426825],[-106.852703,45.43044],[-106.852708,45.434055],[-106.852711,45.437675],[-106.852714,45.441294],[-106.847853,45.441296],[-106.842719,45.441296],[-106.837578,45.441295],[-106.832435,45.441293],[-106.832427,45.437676],[-106.832417,45.434057],[-106.832408,45.43044],[-106.832399,45.426823],[-106.837542,45.426824],[-106.842686,45.426827],[-106.847829,45.426825]]]}},{"type":"Feature","properties":{"sec":"17","frstdivid":"MT200050S0400E0SN170"},"geometry":{"type":"Polygon","coordinates":[[[-106.832335,45.397859],[-106.832344,45.401479],[-106.832353,45.405098],[-106.832363,45.408719],[-106.832371,45.412339],[-106.827231,45.412339],[-106.82209,45.412338],[-106.816954,45.412335],[-106.811818,45.412332],[-106.811811,45.40871],[-106.811803,45.405089],[-106.811794,45.401467],[-106.811786,45.397845],[-106.816921,45.39785],[-106.822057,45.397854],[-106.827196,45.397857],[-106.832335,45.397859]]]}},{"type":"Feature","properties":{"sec":"28","frstdivid":"MT200050S0400E0SN280"},"geometry":{"type":"Polygon","coordinates":[[[-106.806587,45.368883],[-106.811731,45.368887],[-106.811737,45.372505],[-106.811744,45.376123],[-106.811748,45.37974],[-106.811753,45.383357],[-106.806616,45.38336],[-106.801476,45.383364],[-106.796337,45.383363],[-106.791195,45.383361],[-106.791187,45.37974],[-106.79118,45.376118],[-106.791174,45.372497],[-106.791167,45.368877],[-106.796305,45.368878],[-106.801445,45.36888],[-106.806587,45.368883]]]}},{"type":"Feature","properties":{"sec":"21","frstdivid":"MT200050S0400E0SN210"},"geometry":{"type":"Polygon","coordinates":[[[-106.796337,45.383363],[-106.801476,45.383364],[-106.806616,45.38336],[-106.811753,45.383357],[-106.811761,45.386977],[-106.81177,45.390598],[-106.811778,45.394222],[-106.811784,45.396939],[-106.811786,45.397845],[-106.806648,45.397846],[-106.801508,45.397847],[-106.79637,45.397846],[-106.791228,45.397845],[-106.791219,45.394224],[-106.79121,45.390602],[-106.791202,45.386982],[-106.791195,45.383361],[-106.796337,45.383363]]]}}]}