{"type":"FeatureCollection","note":"BLM Public Land Survey System. Provided by the Bureau of Land Management as is. These data are neither legal documents nor land surveys and must not be used as such.","features":[{"type":"Feature","properties":{"sec":"28","frstdivid":"WY060460N0890W0SN280"},"geometry":{"type":"Polygon","coordinates":[[[-107.522793,43.931815],[-107.522787,43.928195],[-107.522782,43.924575],[-107.522776,43.920955],[-107.522771,43.917335],[-107.527779,43.917335],[-107.532787,43.917335],[-107.537795,43.917335],[-107.542804,43.917335],[-107.542803,43.920955],[-107.542803,43.924576],[-107.542803,43.928196],[-107.542803,43.931816],[-107.5378,43.931816],[-107.532798,43.931815],[-107.527795,43.931815],[-107.522793,43.931815]]]}},{"type":"Feature","properties":{"sec":"23","frstdivid":"WY060460N0890W0SN230"},"geometry":{"type":"Polygon","coordinates":[[[-107.502765,43.942681],[-107.502765,43.946302],[-107.497753,43.9463],[-107.492741,43.946299],[-107.487729,43.946298],[-107.482717,43.946297],[-107.482718,43.942677],[-107.482718,43.939058],[-107.482719,43.935438],[-107.482719,43.931818],[-107.48773,43.931819],[-107.492741,43.93182],[-107.497752,43.93182],[-107.502763,43.931821],[-107.502764,43.935441],[-107.502764,43.939061],[-107.502765,43.942681]]]}},{"type":"Feature","properties":{"sec":"14","frstdivid":"WY060460N0890W0SN140"},"geometry":{"type":"Polygon","coordinates":[[[-107.502765,43.946302],[-107.502766,43.949922],[-107.502766,43.953542],[-107.502766,43.957162],[-107.502766,43.960782],[-107.497755,43.960781],[-107.492745,43.960779],[-107.490239,43.960778],[-107.487734,43.960778],[-107.485229,43.960777],[-107.482723,43.960776],[-107.482723,43.958966],[-107.482722,43.957156],[-107.48272,43.953537],[-107.482719,43.951727],[-107.482719,43.949917],[-107.482717,43.946297],[-107.487729,43.946298],[-107.492741,43.946299],[-107.497753,43.9463],[-107.502765,43.946302]]]}},{"type":"Feature","properties":{"sec":"11","frstdivid":"WY060460N0890W0SN110"},"geometry":{"type":"Polygon","coordinates":[[[-107.492745,43.960779],[-107.497755,43.960781],[-107.502766,43.960782],[-107.50277,43.964403],[-107.502773,43.968023],[-107.502777,43.971643],[-107.50278,43.975264],[-107.497769,43.975262],[-107.492757,43.975259],[-107.487745,43.975257],[-107.485239,43.975256],[-107.482733,43.975255],[-107.48273,43.971635],[-107.482729,43.969826],[-107.482728,43.968016],[-107.482727,43.966206],[-107.482726,43.964396],[-107.482723,43.960776],[-107.485229,43.960777],[-107.487734,43.960778],[-107.490239,43.960778],[-107.492745,43.960779]]]}},{"type":"Feature","properties":{"sec":"19","frstdivid":"WY060460N0890W0SN190"},"geometry":{"type":"Polygon","coordinates":[[[-107.582628,43.931819],[-107.582631,43.934495],[-107.582631,43.935439],[-107.582634,43.938115],[-107.582634,43.93906],[-107.582637,43.941735],[-107.582638,43.94268],[-107.582641,43.945355],[-107.582641,43.9463],[-107.577894,43.946299],[-107.572884,43.946297],[-107.567873,43.946296],[-107.562863,43.946296],[-107.562863,43.945843],[-107.562858,43.942676],[-107.562852,43.939055],[-107.562847,43.935435],[-107.562841,43.931815],[-107.567851,43.931817],[-107.57286,43.931818],[-107.577869,43.931819],[-107.582628,43.931819]]]}},{"type":"Feature","properties":{"sec":"16","frstdivid":"WY060460N0890W0SN160"},"geometry":{"type":"Polygon","coordinates":[[[-107.522829,43.960775],[-107.522825,43.958965],[-107.522821,43.957155],[-107.522818,43.955345],[-107.522814,43.953535],[-107.522806,43.949915],[-107.522799,43.946295],[-107.527807,43.946295],[-107.532815,43.946296],[-107.537823,43.946296],[-107.542831,43.946297],[-107.542836,43.949917],[-107.542841,43.953537],[-107.542846,43.957158],[-107.542851,43.960778],[-107.537845,43.960777],[-107.53284,43.960777],[-107.527834,43.960776],[-107.522829,43.960775]]]}},{"type":"Feature","properties":{"sec":"10","frstdivid":"WY060460N0890W0SN100"},"geometry":{"type":"Polygon","coordinates":[[[-107.522863,43.975256],[-107.517842,43.975258],[-107.512822,43.97526],[-107.507801,43.975262],[-107.50278,43.975264],[-107.502777,43.971643],[-107.502773,43.968023],[-107.50277,43.964403],[-107.502766,43.960782],[-107.507782,43.960781],[-107.512797,43.960779],[-107.517813,43.960777],[-107.520321,43.960776],[-107.522829,43.960775],[-107.522837,43.964396],[-107.522846,43.968016],[-107.522854,43.971636],[-107.522863,43.975256]]]}},{"type":"Feature","properties":{"sec":"35","frstdivid":"WY060460N0890W0SN350"},"geometry":{"type":"Polygon","coordinates":[[[-107.502749,43.910101],[-107.502753,43.913721],[-107.502756,43.916888],[-107.502757,43.917341],[-107.497748,43.917341],[-107.49274,43.917341],[-107.487732,43.91734],[-107.482724,43.91734],[-107.482722,43.913721],[-107.482719,43.910101],[-107.482717,43.906481],[-107.482715,43.902862],[-107.487722,43.902861],[-107.492728,43.902861],[-107.497735,43.902861],[-107.502742,43.902861],[-107.502745,43.906481],[-107.502749,43.910101]]]}},{"type":"Feature","properties":{"sec":"13","frstdivid":"WY060460N0890W0SN130"},"geometry":{"type":"Polygon","coordinates":[[[-107.472696,43.946299],[-107.475201,43.946299],[-107.477706,43.946298],[-107.482717,43.946297],[-107.482719,43.949917],[-107.482719,43.951727],[-107.48272,43.953537],[-107.482722,43.957156],[-107.482723,43.958966],[-107.482723,43.960776],[-107.477713,43.960777],[-107.475207,43.960778],[-107.472702,43.960778],[-107.470196,43.960779],[-107.467691,43.960779],[-107.46268,43.960781],[-107.462679,43.957161],[-107.462677,43.953541],[-107.462676,43.949921],[-107.462674,43.946388],[-107.462674,43.946302],[-107.46518,43.946301],[-107.467685,43.9463],[-107.472696,43.946299]]]}},{"type":"Feature","properties":{"sec":"29","frstdivid":"WY060460N0890W0SN290"},"geometry":{"type":"Polygon","coordinates":[[[-107.542803,43.924576],[-107.542803,43.920955],[-107.542804,43.917335],[-107.547812,43.917335],[-107.552821,43.917335],[-107.557829,43.917335],[-107.562837,43.917335],[-107.562838,43.920955],[-107.562839,43.924575],[-107.56284,43.928195],[-107.562841,43.931815],[-107.557832,43.931816],[-107.552822,43.931816],[-107.547812,43.931816],[-107.542803,43.931816],[-107.542803,43.928196],[-107.542803,43.924576]]]}},{"type":"Feature","properties":{"sec":"06","frstdivid":"WY060460N0890W0SN060"},"geometry":{"type":"Polygon","coordinates":[[[-107.582665,43.977937],[-107.582666,43.978882],[-107.582669,43.981557],[-107.582669,43.982502],[-107.582672,43.985178],[-107.582672,43.986122],[-107.582675,43.988798],[-107.582676,43.989743],[-107.582678,43.992418],[-107.582679,43.993363],[-107.582679,43.994519],[-107.57802,43.99452],[-107.573005,43.994522],[-107.56799,43.994524],[-107.562975,43.994527],[-107.562973,43.993354],[-107.562966,43.989734],[-107.562959,43.986114],[-107.562952,43.982494],[-107.562945,43.978874],[-107.562937,43.975254],[-107.56795,43.975255],[-107.572963,43.975257],[-107.577975,43.975259],[-107.582662,43.975262],[-107.582665,43.977937]]]}},{"type":"Feature","properties":{"sec":"34","frstdivid":"WY060460N0890W0SN340"},"geometry":{"type":"Polygon","coordinates":[[[-107.522769,43.906475],[-107.52277,43.910095],[-107.52277,43.913715],[-107.522771,43.917335],[-107.517767,43.917336],[-107.512764,43.917338],[-107.50776,43.917339],[-107.502757,43.917341],[-107.502756,43.916888],[-107.502753,43.913721],[-107.502749,43.910101],[-107.502745,43.906481],[-107.502742,43.902861],[-107.507749,43.90286],[-107.512756,43.902859],[-107.517762,43.902857],[-107.522769,43.902855],[-107.522769,43.906475]]]}},{"type":"Feature","properties":{"sec":"15","frstdivid":"WY060460N0890W0SN150"},"geometry":{"type":"Polygon","coordinates":[[[-107.520321,43.960776],[-107.517813,43.960777],[-107.512797,43.960779],[-107.507782,43.960781],[-107.502766,43.960782],[-107.502766,43.957162],[-107.502766,43.953542],[-107.502766,43.949922],[-107.502765,43.946302],[-107.507774,43.9463],[-107.512782,43.946298],[-107.517791,43.946297],[-107.522799,43.946295],[-107.522806,43.949915],[-107.522814,43.953535],[-107.522818,43.955345],[-107.522821,43.957155],[-107.522825,43.958965],[-107.522829,43.960775],[-107.520321,43.960776]]]}},{"type":"Feature","properties":{"sec":"25","frstdivid":"WY060460N0890W0SN250"},"geometry":{"type":"Polygon","coordinates":[[[-107.48272,43.928199],[-107.482719,43.931818],[-107.477711,43.931819],[-107.472702,43.93182],[-107.470198,43.931821],[-107.467693,43.931821],[-107.462685,43.931822],[-107.462687,43.928202],[-107.462688,43.924582],[-107.46269,43.920962],[-107.462692,43.917342],[-107.4677,43.917342],[-107.472708,43.917341],[-107.477716,43.917341],[-107.482724,43.91734],[-107.482723,43.92096],[-107.482722,43.924579],[-107.48272,43.928199]]]}},{"type":"Feature","properties":{"sec":"24","frstdivid":"WY060460N0890W0SN240"},"geometry":{"type":"Polygon","coordinates":[[[-107.462674,43.946302],[-107.462677,43.942682],[-107.46268,43.939062],[-107.462682,43.935442],[-107.462684,43.933632],[-107.462685,43.931822],[-107.467693,43.931821],[-107.470198,43.931821],[-107.472702,43.93182],[-107.477711,43.931819],[-107.482719,43.931818],[-107.482719,43.935438],[-107.482718,43.939058],[-107.482718,43.942677],[-107.482717,43.946297],[-107.477706,43.946298],[-107.475201,43.946299],[-107.472696,43.946299],[-107.467685,43.9463],[-107.46518,43.946301],[-107.462674,43.946302]]]}},{"type":"Feature","properties":{"sec":"17","frstdivid":"WY060460N0890W0SN170"},"geometry":{"type":"Polygon","coordinates":[[[-107.562897,43.960775],[-107.557886,43.960776],[-107.552874,43.960777],[-107.547863,43.960777],[-107.542851,43.960778],[-107.542846,43.957158],[-107.542841,43.953537],[-107.542836,43.949917],[-107.542831,43.946297],[-107.547839,43.946297],[-107.552847,43.946297],[-107.557855,43.946296],[-107.562863,43.946296],[-107.562872,43.949916],[-107.562881,43.953535],[-107.562889,43.957155],[-107.562896,43.960323],[-107.562897,43.960775]]]}},{"type":"Feature","properties":{"sec":"07","frstdivid":"WY060460N0890W0SN070"},"geometry":{"type":"Polygon","coordinates":[[[-107.562897,43.960775],[-107.567908,43.960777],[-107.57292,43.960779],[-107.577931,43.96078],[-107.582652,43.960781],[-107.582654,43.963456],[-107.582655,43.964401],[-107.582657,43.967077],[-107.582657,43.968021],[-107.582659,43.970697],[-107.58266,43.971642],[-107.582662,43.974317],[-107.582662,43.975262],[-107.577975,43.975259],[-107.572963,43.975257],[-107.56795,43.975255],[-107.562937,43.975254],[-107.562927,43.971634],[-107.562917,43.968015],[-107.562907,43.964395],[-107.562897,43.960775]]]}},{"type":"Feature","properties":{"sec":"30","frstdivid":"WY060460N0890W0SN300"},"geometry":{"type":"Polygon","coordinates":[[[-107.577862,43.917338],[-107.582635,43.917339],[-107.582633,43.920014],[-107.582633,43.920959],[-107.582631,43.923634],[-107.582631,43.924579],[-107.58263,43.927254],[-107.582629,43.928199],[-107.582628,43.930874],[-107.582628,43.931819],[-107.577869,43.931819],[-107.57286,43.931818],[-107.567851,43.931817],[-107.562841,43.931815],[-107.56284,43.928195],[-107.562839,43.924575],[-107.562838,43.920955],[-107.562837,43.917335],[-107.567846,43.917336],[-107.572854,43.917337],[-107.577862,43.917338]]]}},{"type":"Feature","properties":{"sec":"32","frstdivid":"WY060460N0890W0SN320"},"geometry":{"type":"Polygon","coordinates":[[[-107.552821,43.917335],[-107.547812,43.917335],[-107.542804,43.917335],[-107.542802,43.913715],[-107.542801,43.910095],[-107.542799,43.906474],[-107.542797,43.902854],[-107.547805,43.902854],[-107.552813,43.902854],[-107.55782,43.902853],[-107.562828,43.902853],[-107.56283,43.906474],[-107.562833,43.910094],[-107.562835,43.913714],[-107.562837,43.917335],[-107.557829,43.917335],[-107.552821,43.917335]]]}},{"type":"Feature","properties":{"sec":"08","frstdivid":"WY060460N0890W0SN080"},"geometry":{"type":"Polygon","coordinates":[[[-107.542894,43.974806],[-107.542885,43.971638],[-107.542874,43.968018],[-107.542862,43.964398],[-107.542851,43.960778],[-107.547863,43.960777],[-107.552874,43.960777],[-107.557886,43.960776],[-107.562897,43.960775],[-107.562907,43.964395],[-107.562917,43.968015],[-107.562927,43.971634],[-107.562937,43.975254],[-107.557927,43.975255],[-107.552916,43.975256],[-107.547906,43.975257],[-107.542895,43.975258],[-107.542894,43.974806]]]}},{"type":"Feature","properties":{"sec":"18","frstdivid":"WY060460N0890W0SN180"},"geometry":{"type":"Polygon","coordinates":[[[-107.582641,43.9463],[-107.582643,43.948975],[-107.582644,43.94992],[-107.582646,43.952596],[-107.582646,43.953541],[-107.582649,43.956216],[-107.582649,43.957161],[-107.582651,43.959836],[-107.582652,43.960781],[-107.577931,43.96078],[-107.57292,43.960779],[-107.567908,43.960777],[-107.562897,43.960775],[-107.562896,43.960323],[-107.562889,43.957155],[-107.562881,43.953535],[-107.562872,43.949916],[-107.562863,43.946296],[-107.567873,43.946296],[-107.572884,43.946297],[-107.577894,43.946299],[-107.582641,43.9463]]]}},{"type":"Feature","properties":{"sec":"31","frstdivid":"WY060460N0890W0SN310"},"geometry":{"type":"Polygon","coordinates":[[[-107.572854,43.917337],[-107.567846,43.917336],[-107.562837,43.917335],[-107.562835,43.913714],[-107.562833,43.910094],[-107.56283,43.906474],[-107.562828,43.902853],[-107.567835,43.902855],[-107.572842,43.902857],[-107.577849,43.902857],[-107.582656,43.902858],[-107.582651,43.905533],[-107.58265,43.906478],[-107.582646,43.909154],[-107.582645,43.910098],[-107.58264,43.912774],[-107.58264,43.913719],[-107.582635,43.916394],[-107.582635,43.917339],[-107.577862,43.917338],[-107.572854,43.917337]]]}},{"type":"Feature","properties":{"sec":"20","frstdivid":"WY060460N0890W0SN200"},"geometry":{"type":"Polygon","coordinates":[[[-107.562863,43.946296],[-107.557855,43.946296],[-107.552847,43.946297],[-107.547839,43.946297],[-107.542831,43.946297],[-107.542824,43.942677],[-107.542817,43.939057],[-107.54281,43.935436],[-107.542803,43.931816],[-107.547812,43.931816],[-107.552822,43.931816],[-107.557832,43.931816],[-107.562841,43.931815],[-107.562847,43.935435],[-107.562852,43.939055],[-107.562858,43.942676],[-107.562863,43.945843],[-107.562863,43.946296]]]}},{"type":"Feature","properties":{"sec":"27","frstdivid":"WY060460N0890W0SN270"},"geometry":{"type":"Polygon","coordinates":[[[-107.507771,43.93182],[-107.502763,43.931821],[-107.502762,43.928201],[-107.50276,43.924581],[-107.502758,43.920961],[-107.502757,43.917341],[-107.50776,43.917339],[-107.512764,43.917338],[-107.517767,43.917336],[-107.522771,43.917335],[-107.522776,43.920955],[-107.522782,43.924575],[-107.522787,43.928195],[-107.522793,43.931815],[-107.517785,43.931816],[-107.512778,43.931818],[-107.507771,43.93182]]]}},{"type":"Feature","properties":{"sec":"02","frstdivid":"WY060460N0890W0SN020"},"geometry":{"type":"Polygon","coordinates":[[[-107.497769,43.975262],[-107.50278,43.975264],[-107.502783,43.978884],[-107.502785,43.982504],[-107.502787,43.986124],[-107.502788,43.989744],[-107.502789,43.993365],[-107.502789,43.994519],[-107.497775,43.994519],[-107.492761,43.994519],[-107.487747,43.994519],[-107.482733,43.994519],[-107.482733,43.993355],[-107.482733,43.989735],[-107.482733,43.987925],[-107.482733,43.986115],[-107.482733,43.982495],[-107.482733,43.978875],[-107.482733,43.975255],[-107.485239,43.975256],[-107.487745,43.975257],[-107.492757,43.975259],[-107.497769,43.975262]]]}},{"type":"Feature","properties":{"sec":"05","frstdivid":"WY060460N0890W0SN050"},"geometry":{"type":"Polygon","coordinates":[[[-107.562937,43.975254],[-107.562945,43.978874],[-107.562952,43.982494],[-107.562959,43.986114],[-107.562966,43.989734],[-107.562973,43.993354],[-107.562975,43.994527],[-107.557958,43.994527],[-107.552942,43.994528],[-107.547926,43.994529],[-107.54291,43.994529],[-107.542909,43.993358],[-107.542906,43.989738],[-107.542906,43.989286],[-107.542905,43.986118],[-107.542903,43.982498],[-107.542899,43.978878],[-107.542895,43.975258],[-107.547906,43.975257],[-107.552916,43.975256],[-107.557927,43.975255],[-107.562937,43.975254]]]}},{"type":"Feature","properties":{"sec":"22","frstdivid":"WY060460N0890W0SN220"},"geometry":{"type":"Polygon","coordinates":[[[-107.522797,43.942675],[-107.522799,43.946295],[-107.517791,43.946297],[-107.512782,43.946298],[-107.507774,43.9463],[-107.502765,43.946302],[-107.502765,43.942681],[-107.502764,43.939061],[-107.502764,43.935441],[-107.502763,43.931821],[-107.507771,43.93182],[-107.512778,43.931818],[-107.517785,43.931816],[-107.522793,43.931815],[-107.522794,43.935435],[-107.522796,43.939055],[-107.522797,43.942675]]]}},{"type":"Feature","properties":{"sec":"21","frstdivid":"WY060460N0890W0SN210"},"geometry":{"type":"Polygon","coordinates":[[[-107.537823,43.946296],[-107.532815,43.946296],[-107.527807,43.946295],[-107.522799,43.946295],[-107.522797,43.942675],[-107.522796,43.939055],[-107.522794,43.935435],[-107.522793,43.931815],[-107.527795,43.931815],[-107.532798,43.931815],[-107.5378,43.931816],[-107.542803,43.931816],[-107.54281,43.935436],[-107.542817,43.939057],[-107.542824,43.942677],[-107.542831,43.946297],[-107.537823,43.946296]]]}},{"type":"Feature","properties":{"sec":"03","frstdivid":"WY060460N0890W0SN030"},"geometry":{"type":"Polygon","coordinates":[[[-107.522865,43.978876],[-107.522868,43.982496],[-107.522862,43.986117],[-107.522856,43.989737],[-107.52285,43.993357],[-107.522847,43.994524],[-107.517832,43.994523],[-107.512818,43.994522],[-107.507803,43.994521],[-107.502789,43.994519],[-107.502789,43.993365],[-107.502788,43.989744],[-107.502787,43.986124],[-107.502785,43.982504],[-107.502783,43.978884],[-107.50278,43.975264],[-107.507801,43.975262],[-107.512822,43.97526],[-107.517842,43.975258],[-107.522863,43.975256],[-107.522865,43.978876]]]}},{"type":"Feature","properties":{"sec":"33","frstdivid":"WY060460N0890W0SN330"},"geometry":{"type":"Polygon","coordinates":[[[-107.542797,43.902854],[-107.542799,43.906474],[-107.542801,43.910095],[-107.542802,43.913715],[-107.542804,43.917335],[-107.537795,43.917335],[-107.532787,43.917335],[-107.527779,43.917335],[-107.522771,43.917335],[-107.52277,43.913715],[-107.52277,43.910095],[-107.522769,43.906475],[-107.522769,43.902855],[-107.527776,43.902854],[-107.532783,43.902854],[-107.53779,43.902854],[-107.542797,43.902854]]]}},{"type":"Feature","properties":{"sec":"09","frstdivid":"WY060460N0890W0SN090"},"geometry":{"type":"Polygon","coordinates":[[[-107.527834,43.960776],[-107.53284,43.960777],[-107.537845,43.960777],[-107.542851,43.960778],[-107.542862,43.964398],[-107.542874,43.968018],[-107.542885,43.971638],[-107.542894,43.974806],[-107.542895,43.975258],[-107.537887,43.975258],[-107.532879,43.975257],[-107.527871,43.975257],[-107.522863,43.975256],[-107.522854,43.971636],[-107.522846,43.968016],[-107.522837,43.964396],[-107.522829,43.960775],[-107.527834,43.960776]]]}},{"type":"Feature","properties":{"sec":"04","frstdivid":"WY060460N0890W0SN040"},"geometry":{"type":"Polygon","coordinates":[[[-107.532878,43.994527],[-107.527862,43.994525],[-107.522847,43.994524],[-107.52285,43.993357],[-107.522856,43.989737],[-107.522862,43.986117],[-107.522868,43.982496],[-107.522865,43.978876],[-107.522863,43.975256],[-107.527871,43.975257],[-107.532879,43.975257],[-107.537887,43.975258],[-107.542895,43.975258],[-107.542899,43.978878],[-107.542903,43.982498],[-107.542905,43.986118],[-107.542906,43.989286],[-107.542906,43.989738],[-107.542909,43.993358],[-107.54291,43.994529],[-107.537894,43.994528],[-107.532878,43.994527]]]}},{"type":"Feature","properties":{"sec":"12","frstdivid":"WY060460N0890W0SN120"},"geometry":{"type":"Polygon","coordinates":[[[-107.47772,43.975255],[-107.472707,43.975255],[-107.4702,43.975255],[-107.467694,43.975255],[-107.462681,43.975255],[-107.46268,43.971636],[-107.46268,43.968018],[-107.46268,43.964399],[-107.46268,43.960781],[-107.467691,43.960779],[-107.470196,43.960779],[-107.472702,43.960778],[-107.475207,43.960778],[-107.477713,43.960777],[-107.482723,43.960776],[-107.482726,43.964396],[-107.482727,43.966206],[-107.482728,43.968016],[-107.482729,43.969826],[-107.48273,43.971635],[-107.482733,43.975255],[-107.47772,43.975255]]]}},{"type":"Feature","properties":{"sec":"26","frstdivid":"WY060460N0890W0SN260"},"geometry":{"type":"Polygon","coordinates":[[[-107.502758,43.920961],[-107.50276,43.924581],[-107.502762,43.928201],[-107.502763,43.931821],[-107.497752,43.93182],[-107.492741,43.93182],[-107.48773,43.931819],[-107.482719,43.931818],[-107.48272,43.928199],[-107.482722,43.924579],[-107.482723,43.92096],[-107.482724,43.91734],[-107.487732,43.91734],[-107.49274,43.917341],[-107.497748,43.917341],[-107.502757,43.917341],[-107.502758,43.920961]]]}},{"type":"Feature","properties":{"sec":"36","frstdivid":"WY060460N0890W0SN360"},"geometry":{"type":"Polygon","coordinates":[[[-107.477708,43.902862],[-107.482715,43.902862],[-107.482717,43.906481],[-107.482719,43.910101],[-107.482722,43.913721],[-107.482724,43.91734],[-107.477716,43.917341],[-107.472708,43.917341],[-107.4677,43.917342],[-107.462692,43.917342],[-107.462692,43.917248],[-107.462691,43.913722],[-107.46269,43.910103],[-107.462689,43.906483],[-107.462688,43.902863],[-107.467694,43.902863],[-107.472701,43.902863],[-107.477708,43.902862]]]}},{"type":"Feature","properties":{"sec":"01","frstdivid":"WY060460N0890W0SN010"},"geometry":{"type":"Polygon","coordinates":[[[-107.4702,43.975255],[-107.472707,43.975255],[-107.47772,43.975255],[-107.482733,43.975255],[-107.482733,43.978875],[-107.482733,43.982495],[-107.482733,43.986115],[-107.482733,43.987925],[-107.482733,43.989735],[-107.482733,43.993355],[-107.482733,43.994519],[-107.477718,43.994512],[-107.472704,43.994504],[-107.46769,43.994497],[-107.462701,43.99448],[-107.462702,43.993741],[-107.462702,43.993341],[-107.462702,43.992941],[-107.462707,43.989721],[-107.462707,43.989279],[-107.46268,43.986112],[-107.46268,43.982493],[-107.462681,43.978874],[-107.462681,43.977064],[-107.462681,43.975255],[-107.467694,43.975255],[-107.4702,43.975255]]]}}]}