{"type":"FeatureCollection","note":"BLM Public Land Survey System. Provided by the Bureau of Land Management as is. These data are neither legal documents nor land surveys and must not be used as such.","features":[{"type":"Feature","properties":{"sec":"27","frstdivid":"MT200070N0390E0SN270"},"geometry":{"type":"Polygon","coordinates":[[[-106.820184,46.324801],[-106.825412,46.324761],[-106.830641,46.32472],[-106.83587,46.32468],[-106.841098,46.32464],[-106.841163,46.328265],[-106.841229,46.331891],[-106.841294,46.335516],[-106.841359,46.339141],[-106.836106,46.339165],[-106.830853,46.33919],[-106.8256,46.339214],[-106.820347,46.339238],[-106.820306,46.335629],[-106.820266,46.33202],[-106.820225,46.32841],[-106.820184,46.324801]]]}},{"type":"Feature","properties":{"sec":"24","frstdivid":"MT200070N0390E0SN240"},"geometry":{"type":"Polygon","coordinates":[[[-106.799309,46.353739],[-106.794055,46.353743],[-106.788802,46.353746],[-106.783548,46.353749],[-106.778295,46.353753],[-106.778284,46.35012],[-106.778274,46.346487],[-106.778263,46.342854],[-106.778252,46.339222],[-106.78353,46.339226],[-106.788808,46.339229],[-106.794085,46.339233],[-106.799363,46.339237],[-106.799349,46.342863],[-106.799336,46.346488],[-106.799322,46.350114],[-106.799309,46.353739]]]}},{"type":"Feature","properties":{"sec":"19","frstdivid":"MT200070N0390E0SN190"},"geometry":{"type":"Polygon","coordinates":[[[-106.898676,46.339373],[-106.903088,46.339449],[-106.903091,46.343073],[-106.903094,46.346698],[-106.903103,46.350334],[-106.903112,46.35397],[-106.898706,46.354004],[-106.893519,46.354043],[-106.888332,46.354081],[-106.883144,46.354119],[-106.883153,46.350366],[-106.883162,46.346612],[-106.883172,46.342859],[-106.883181,46.339105],[-106.888346,46.339195],[-106.893511,46.339285],[-106.898676,46.339373]]]}},{"type":"Feature","properties":{"sec":"17","frstdivid":"MT200070N0390E0SN170"},"geometry":{"type":"Polygon","coordinates":[[[-106.877897,46.368572],[-106.872676,46.368564],[-106.867456,46.368556],[-106.862235,46.368548],[-106.862236,46.36493],[-106.862237,46.361312],[-106.862238,46.357693],[-106.862239,46.354075],[-106.867465,46.354086],[-106.872692,46.354097],[-106.877918,46.354108],[-106.883144,46.354119],[-106.883137,46.357734],[-106.883131,46.36135],[-106.883124,46.364965],[-106.883117,46.368497],[-106.883117,46.36858],[-106.877897,46.368572]]]}},{"type":"Feature","properties":{"sec":"15","frstdivid":"MT200070N0390E0SN150"},"geometry":{"type":"Polygon","coordinates":[[[-106.836026,46.353701],[-106.841264,46.353705],[-106.841276,46.357342],[-106.841288,46.360979],[-106.8413,46.364616],[-106.841311,46.368253],[-106.836064,46.368244],[-106.830817,46.368234],[-106.82557,46.368225],[-106.820322,46.368216],[-106.82032,46.364584],[-106.820317,46.360952],[-106.820314,46.35732],[-106.820311,46.353689],[-106.825549,46.353693],[-106.830788,46.353697],[-106.836026,46.353701]]]}},{"type":"Feature","properties":{"sec":"35","frstdivid":"MT200070N0390E0SN350"},"geometry":{"type":"Polygon","coordinates":[[[-106.799229,46.324733],[-106.799195,46.321105],[-106.799161,46.317478],[-106.799126,46.31385],[-106.799092,46.310223],[-106.804317,46.310236],[-106.809542,46.31025],[-106.814811,46.31025],[-106.82008,46.31025],[-106.820106,46.313888],[-106.820132,46.317525],[-106.820158,46.321163],[-106.820184,46.324801],[-106.814945,46.324784],[-106.809707,46.324767],[-106.804468,46.32475],[-106.799229,46.324733]]]}},{"type":"Feature","properties":{"sec":"08","frstdivid":"MT200070N0390E0SN080"},"geometry":{"type":"Polygon","coordinates":[[[-106.877897,46.368572],[-106.883117,46.36858],[-106.88311,46.372201],[-106.883103,46.375822],[-106.883096,46.379443],[-106.88309,46.383064],[-106.877885,46.383062],[-106.872681,46.38306],[-106.867448,46.383048],[-106.862215,46.383035],[-106.86222,46.379414],[-106.862225,46.375792],[-106.86223,46.37217],[-106.862235,46.368548],[-106.867456,46.368556],[-106.872676,46.368564],[-106.877897,46.368572]]]}},{"type":"Feature","properties":{"sec":"18","frstdivid":"MT200070N0390E0SN180"},"geometry":{"type":"Polygon","coordinates":[[[-106.898706,46.354004],[-106.903112,46.35397],[-106.903119,46.357594],[-106.903126,46.361217],[-106.903133,46.36484],[-106.90314,46.368463],[-106.898742,46.368489],[-106.893535,46.36852],[-106.888326,46.36855],[-106.883117,46.36858],[-106.883117,46.368497],[-106.883124,46.364965],[-106.883131,46.36135],[-106.883137,46.357734],[-106.883144,46.354119],[-106.888332,46.354081],[-106.893519,46.354043],[-106.898706,46.354004]]]}},{"type":"Feature","properties":{"sec":"06","frstdivid":"MT200070N0390E0SN060"},"geometry":{"type":"Polygon","coordinates":[[[-106.893588,46.397446],[-106.893549,46.397446],[-106.888373,46.397454],[-106.888353,46.397454],[-106.883157,46.397462],[-106.883142,46.393838],[-106.883127,46.390247],[-106.883108,46.386656],[-106.88309,46.383064],[-106.888315,46.383049],[-106.89354,46.383033],[-106.898768,46.383017],[-106.903156,46.383003],[-106.903156,46.386611],[-106.903156,46.390218],[-106.903157,46.393825],[-106.903157,46.397433],[-106.898802,46.397439],[-106.898743,46.397439],[-106.893588,46.397446]]]}},{"type":"Feature","properties":{"sec":"36","frstdivid":"MT200070N0390E0SN360"},"geometry":{"type":"Polygon","coordinates":[[[-106.793864,46.310206],[-106.799092,46.310223],[-106.799126,46.31385],[-106.799161,46.317478],[-106.799195,46.321105],[-106.799229,46.324733],[-106.793977,46.324728],[-106.788724,46.324723],[-106.783471,46.324718],[-106.778218,46.324713],[-106.778208,46.321074],[-106.778199,46.317435],[-106.778189,46.313796],[-106.778183,46.310156],[-106.783407,46.310174],[-106.788635,46.31019],[-106.793864,46.310206]]]}},{"type":"Feature","properties":{"sec":"01","frstdivid":"MT200070N0390E0SN010"},"geometry":{"type":"Polygon","coordinates":[[[-106.799318,46.393692],[-106.799334,46.39732],[-106.794094,46.397318],[-106.788854,46.397316],[-106.783622,46.397314],[-106.77839,46.397312],[-106.778383,46.393676],[-106.778376,46.39004],[-106.778369,46.386403],[-106.778362,46.382767],[-106.783589,46.38276],[-106.788816,46.382752],[-106.794042,46.382745],[-106.799269,46.382737],[-106.799286,46.386389],[-106.799302,46.390041],[-106.799318,46.393692]]]}},{"type":"Feature","properties":{"sec":"10","frstdivid":"MT200070N0390E0SN100"},"geometry":{"type":"Polygon","coordinates":[[[-106.820322,46.375478],[-106.820322,46.371847],[-106.820322,46.368216],[-106.82557,46.368225],[-106.830817,46.368234],[-106.836064,46.368244],[-106.841311,46.368253],[-106.841292,46.371892],[-106.841272,46.375532],[-106.841253,46.379172],[-106.841233,46.382811],[-106.836005,46.382793],[-106.830778,46.382775],[-106.82555,46.382757],[-106.820322,46.38274],[-106.820322,46.379109],[-106.820322,46.375478]]]}},{"type":"Feature","properties":{"sec":"26","frstdivid":"MT200070N0390E0SN260"},"geometry":{"type":"Polygon","coordinates":[[[-106.820184,46.324801],[-106.820225,46.32841],[-106.820266,46.33202],[-106.820306,46.335629],[-106.820347,46.339238],[-106.815101,46.339238],[-106.809855,46.339238],[-106.804609,46.339238],[-106.799363,46.339237],[-106.79933,46.335611],[-106.799296,46.331985],[-106.799263,46.328359],[-106.799229,46.324733],[-106.804468,46.32475],[-106.809707,46.324767],[-106.814945,46.324784],[-106.820184,46.324801]]]}},{"type":"Feature","properties":{"sec":"25","frstdivid":"MT200070N0390E0SN250"},"geometry":{"type":"Polygon","coordinates":[[[-106.793977,46.324728],[-106.799229,46.324733],[-106.799263,46.328359],[-106.799296,46.331985],[-106.79933,46.335611],[-106.799363,46.339237],[-106.794085,46.339233],[-106.788808,46.339229],[-106.78353,46.339226],[-106.778252,46.339222],[-106.778244,46.335595],[-106.778235,46.331967],[-106.778227,46.32834],[-106.778218,46.324713],[-106.783471,46.324718],[-106.788724,46.324723],[-106.793977,46.324728]]]}},{"type":"Feature","properties":{"sec":"07","frstdivid":"MT200070N0390E0SN070"},"geometry":{"type":"Polygon","coordinates":[[[-106.903152,46.379371],[-106.903156,46.383003],[-106.898768,46.383017],[-106.89354,46.383033],[-106.888315,46.383049],[-106.88309,46.383064],[-106.883096,46.379443],[-106.883103,46.375822],[-106.88311,46.372201],[-106.883117,46.36858],[-106.888326,46.36855],[-106.893535,46.36852],[-106.898742,46.368489],[-106.90314,46.368463],[-106.903144,46.372101],[-106.903148,46.375739],[-106.903152,46.379371]]]}},{"type":"Feature","properties":{"sec":"02","frstdivid":"MT200070N0390E0SN020"},"geometry":{"type":"Polygon","coordinates":[[[-106.809802,46.397349],[-106.804568,46.397335],[-106.799334,46.39732],[-106.799318,46.393692],[-106.799302,46.390041],[-106.799286,46.386389],[-106.799269,46.382737],[-106.804533,46.382738],[-106.809796,46.382738],[-106.815059,46.382739],[-106.820322,46.38274],[-106.820322,46.386384],[-106.820322,46.390028],[-106.820299,46.393687],[-106.820276,46.397364],[-106.815039,46.397357],[-106.809802,46.397349]]]}},{"type":"Feature","properties":{"sec":"31","frstdivid":"MT200070N0390E0SN310"},"geometry":{"type":"Polygon","coordinates":[[[-106.898532,46.310454],[-106.903051,46.310452],[-106.903052,46.314082],[-106.903053,46.317711],[-106.903053,46.321341],[-106.903054,46.32497],[-106.898621,46.324823],[-106.893473,46.324653],[-106.88833,46.324484],[-106.883187,46.324315],[-106.883088,46.320848],[-106.88299,46.317381],[-106.882891,46.313913],[-106.882792,46.310446],[-106.888056,46.31045],[-106.89332,46.310455],[-106.898532,46.310454]]]}},{"type":"Feature","properties":{"sec":"32","frstdivid":"MT200070N0390E0SN320"},"geometry":{"type":"Polygon","coordinates":[[[-106.861868,46.310403],[-106.867094,46.310407],[-106.872321,46.310411],[-106.877556,46.310429],[-106.882792,46.310446],[-106.882891,46.313913],[-106.88299,46.317381],[-106.883088,46.320848],[-106.883187,46.324315],[-106.87793,46.324411],[-106.872673,46.324506],[-106.867416,46.324601],[-106.862159,46.324696],[-106.862086,46.321123],[-106.862013,46.31755],[-106.86194,46.313976],[-106.861868,46.310403]]]}},{"type":"Feature","properties":{"sec":"28","frstdivid":"MT200070N0390E0SN280"},"geometry":{"type":"Polygon","coordinates":[[[-106.841163,46.328265],[-106.841098,46.32464],[-106.846363,46.324654],[-106.851629,46.324668],[-106.856894,46.324682],[-106.862159,46.324696],[-106.862195,46.328271],[-106.86223,46.331846],[-106.862266,46.335421],[-106.862301,46.338996],[-106.857072,46.339024],[-106.851843,46.339051],[-106.846601,46.339096],[-106.841359,46.339141],[-106.841294,46.335516],[-106.841229,46.331891],[-106.841163,46.328265]]]}},{"type":"Feature","properties":{"sec":"20","frstdivid":"MT200070N0390E0SN200"},"geometry":{"type":"Polygon","coordinates":[[[-106.877961,46.339078],[-106.883181,46.339105],[-106.883172,46.342859],[-106.883162,46.346612],[-106.883153,46.350366],[-106.883144,46.354119],[-106.877918,46.354108],[-106.872692,46.354097],[-106.867465,46.354086],[-106.862239,46.354075],[-106.862254,46.350305],[-106.86227,46.346535],[-106.862286,46.342765],[-106.862301,46.338996],[-106.867521,46.339023],[-106.872741,46.33905],[-106.877961,46.339078]]]}},{"type":"Feature","properties":{"sec":"12","frstdivid":"MT200070N0390E0SN120"},"geometry":{"type":"Polygon","coordinates":[[[-106.778356,46.379136],[-106.77835,46.375504],[-106.778345,46.371873],[-106.778339,46.368242],[-106.783588,46.368244],[-106.788838,46.368246],[-106.794087,46.368248],[-106.799337,46.36825],[-106.79932,46.371872],[-106.799303,46.375494],[-106.799286,46.379115],[-106.799269,46.382737],[-106.794042,46.382745],[-106.788816,46.382752],[-106.783589,46.38276],[-106.778362,46.382767],[-106.778356,46.379136]]]}},{"type":"Feature","properties":{"sec":"09","frstdivid":"MT200070N0390E0SN090"},"geometry":{"type":"Polygon","coordinates":[[[-106.857004,46.368475],[-106.862235,46.368548],[-106.86223,46.37217],[-106.862225,46.375792],[-106.86222,46.379414],[-106.862215,46.383035],[-106.856969,46.382979],[-106.851724,46.382923],[-106.846479,46.382867],[-106.841233,46.382811],[-106.841253,46.379172],[-106.841272,46.375532],[-106.841292,46.371892],[-106.841311,46.368253],[-106.846542,46.368327],[-106.851773,46.368401],[-106.857004,46.368475]]]}},{"type":"Feature","properties":{"sec":"03","frstdivid":"MT200070N0390E0SN030"},"geometry":{"type":"Polygon","coordinates":[[[-106.836005,46.382793],[-106.841233,46.382811],[-106.841238,46.386452],[-106.841242,46.390094],[-106.841247,46.393733],[-106.841251,46.397393],[-106.83601,46.397388],[-106.830769,46.397384],[-106.825522,46.397374],[-106.820276,46.397364],[-106.820299,46.393687],[-106.820322,46.390028],[-106.820322,46.386384],[-106.820322,46.38274],[-106.82555,46.382757],[-106.830778,46.382775],[-106.836005,46.382793]]]}},{"type":"Feature","properties":{"sec":"21","frstdivid":"MT200070N0390E0SN210"},"geometry":{"type":"Polygon","coordinates":[[[-106.862301,46.338996],[-106.862286,46.342765],[-106.86227,46.346535],[-106.862254,46.350305],[-106.862239,46.354075],[-106.856995,46.353982],[-106.851752,46.35389],[-106.846508,46.353798],[-106.841264,46.353705],[-106.841288,46.350064],[-106.841312,46.346423],[-106.841335,46.342782],[-106.841359,46.339141],[-106.846601,46.339096],[-106.851843,46.339051],[-106.857072,46.339024],[-106.862301,46.338996]]]}},{"type":"Feature","properties":{"sec":"30","frstdivid":"MT200070N0390E0SN300"},"geometry":{"type":"Polygon","coordinates":[[[-106.883185,46.32796],[-106.883187,46.324315],[-106.88833,46.324484],[-106.893473,46.324653],[-106.898621,46.324823],[-106.903054,46.32497],[-106.90307,46.328587],[-106.903085,46.332203],[-106.903087,46.335826],[-106.903088,46.339449],[-106.898676,46.339373],[-106.893511,46.339285],[-106.888346,46.339195],[-106.883181,46.339105],[-106.883182,46.335355],[-106.883184,46.331604],[-106.883185,46.32796]]]}},{"type":"Feature","properties":{"sec":"16","frstdivid":"MT200070N0390E0SN160"},"geometry":{"type":"Polygon","coordinates":[[[-106.841276,46.357342],[-106.841264,46.353705],[-106.846508,46.353798],[-106.851752,46.35389],[-106.856995,46.353982],[-106.862239,46.354075],[-106.862238,46.357693],[-106.862237,46.361312],[-106.862236,46.36493],[-106.862235,46.368548],[-106.857004,46.368475],[-106.851773,46.368401],[-106.846542,46.368327],[-106.841311,46.368253],[-106.8413,46.364616],[-106.841288,46.360979],[-106.841276,46.357342]]]}},{"type":"Feature","properties":{"sec":"29","frstdivid":"MT200070N0390E0SN290"},"geometry":{"type":"Polygon","coordinates":[[[-106.883187,46.324315],[-106.883185,46.32796],[-106.883184,46.331604],[-106.883182,46.335355],[-106.883181,46.339105],[-106.877961,46.339078],[-106.872741,46.33905],[-106.867521,46.339023],[-106.862301,46.338996],[-106.862266,46.335421],[-106.86223,46.331846],[-106.862195,46.328271],[-106.862159,46.324696],[-106.867416,46.324601],[-106.872673,46.324506],[-106.87793,46.324411],[-106.883187,46.324315]]]}},{"type":"Feature","properties":{"sec":"14","frstdivid":"MT200070N0390E0SN140"},"geometry":{"type":"Polygon","coordinates":[[[-106.799323,46.360995],[-106.799316,46.357367],[-106.799309,46.353739],[-106.804559,46.353727],[-106.80981,46.353714],[-106.81506,46.353701],[-106.820311,46.353689],[-106.820314,46.35732],[-106.820317,46.360952],[-106.82032,46.364584],[-106.820322,46.368216],[-106.815076,46.368224],[-106.809829,46.368233],[-106.804583,46.368242],[-106.799337,46.36825],[-106.79933,46.364622],[-106.799323,46.360995]]]}},{"type":"Feature","properties":{"sec":"05","frstdivid":"MT200070N0390E0SN050"},"geometry":{"type":"Polygon","coordinates":[[[-106.877885,46.383062],[-106.88309,46.383064],[-106.883108,46.386656],[-106.883127,46.390247],[-106.883142,46.393838],[-106.883157,46.397462],[-106.877912,46.397455],[-106.872666,46.397448],[-106.867434,46.397439],[-106.862201,46.39743],[-106.862205,46.393845],[-106.86221,46.390241],[-106.862212,46.386638],[-106.862215,46.383035],[-106.867448,46.383048],[-106.872681,46.38306],[-106.877885,46.383062]]]}},{"type":"Feature","properties":{"sec":"34","frstdivid":"MT200070N0390E0SN340"},"geometry":{"type":"Polygon","coordinates":[[[-106.835731,46.310314],[-106.840948,46.310336],[-106.840978,46.313868],[-106.841007,46.317401],[-106.841053,46.32102],[-106.841098,46.32464],[-106.83587,46.32468],[-106.830641,46.32472],[-106.825412,46.324761],[-106.820184,46.324801],[-106.820158,46.321163],[-106.820132,46.317525],[-106.820106,46.313888],[-106.82008,46.31025],[-106.825297,46.310271],[-106.830514,46.310293],[-106.835731,46.310314]]]}},{"type":"Feature","properties":{"sec":"23","frstdivid":"MT200070N0390E0SN230"},"geometry":{"type":"Polygon","coordinates":[[[-106.815101,46.339238],[-106.820347,46.339238],[-106.820338,46.342851],[-106.820329,46.346463],[-106.82032,46.350076],[-106.820311,46.353689],[-106.81506,46.353701],[-106.80981,46.353714],[-106.804559,46.353727],[-106.799309,46.353739],[-106.799322,46.350114],[-106.799336,46.346488],[-106.799349,46.342863],[-106.799363,46.339237],[-106.804609,46.339238],[-106.809855,46.339238],[-106.815101,46.339238]]]}},{"type":"Feature","properties":{"sec":"11","frstdivid":"MT200070N0390E0SN110"},"geometry":{"type":"Polygon","coordinates":[[[-106.820322,46.379109],[-106.820322,46.38274],[-106.815059,46.382739],[-106.809796,46.382738],[-106.804533,46.382738],[-106.799269,46.382737],[-106.799286,46.379115],[-106.799303,46.375494],[-106.79932,46.371872],[-106.799337,46.36825],[-106.804583,46.368242],[-106.809829,46.368233],[-106.815076,46.368224],[-106.820322,46.368216],[-106.820322,46.371847],[-106.820322,46.375478],[-106.820322,46.379109]]]}},{"type":"Feature","properties":{"sec":"22","frstdivid":"MT200070N0390E0SN220"},"geometry":{"type":"Polygon","coordinates":[[[-106.820347,46.339238],[-106.8256,46.339214],[-106.830853,46.33919],[-106.836106,46.339165],[-106.841359,46.339141],[-106.841335,46.342782],[-106.841312,46.346423],[-106.841288,46.350064],[-106.841264,46.353705],[-106.836026,46.353701],[-106.830788,46.353697],[-106.825549,46.353693],[-106.820311,46.353689],[-106.82032,46.350076],[-106.820329,46.346463],[-106.820338,46.342851],[-106.820347,46.339238]]]}},{"type":"Feature","properties":{"sec":"13","frstdivid":"MT200070N0390E0SN130"},"geometry":{"type":"Polygon","coordinates":[[[-106.788802,46.353746],[-106.794055,46.353743],[-106.799309,46.353739],[-106.799316,46.357367],[-106.799323,46.360995],[-106.79933,46.364622],[-106.799337,46.36825],[-106.794087,46.368248],[-106.788838,46.368246],[-106.783588,46.368244],[-106.778339,46.368242],[-106.778335,46.36462],[-106.778332,46.360999],[-106.778313,46.357376],[-106.778295,46.353753],[-106.783548,46.353749],[-106.788802,46.353746]]]}},{"type":"Feature","properties":{"sec":"33","frstdivid":"MT200070N0390E0SN330"},"geometry":{"type":"Polygon","coordinates":[[[-106.862159,46.324696],[-106.856894,46.324682],[-106.851629,46.324668],[-106.846363,46.324654],[-106.841098,46.32464],[-106.841053,46.32102],[-106.841007,46.317401],[-106.840978,46.313868],[-106.840948,46.310336],[-106.84618,46.31035],[-106.851411,46.310365],[-106.856639,46.310384],[-106.861868,46.310403],[-106.86194,46.313976],[-106.862013,46.31755],[-106.862086,46.321123],[-106.862159,46.324696]]]}},{"type":"Feature","properties":{"sec":"04","frstdivid":"MT200070N0390E0SN040"},"geometry":{"type":"Polygon","coordinates":[[[-106.856969,46.382979],[-106.862215,46.383035],[-106.862212,46.386638],[-106.86221,46.390241],[-106.862205,46.393845],[-106.862201,46.39743],[-106.856969,46.397421],[-106.851737,46.397411],[-106.846494,46.397402],[-106.841251,46.397393],[-106.841247,46.393733],[-106.841242,46.390094],[-106.841238,46.386452],[-106.841233,46.382811],[-106.846479,46.382867],[-106.851724,46.382923],[-106.856969,46.382979]]]}}]}