{"type":"FeatureCollection","note":"BLM Public Land Survey System. Provided by the Bureau of Land Management as is. These data are neither legal documents nor land surveys and must not be used as such.","features":[{"type":"Feature","properties":{"sec":"25","frstdivid":"MT200010N0490E0SN250"},"geometry":{"type":"Polygon","coordinates":[[[-105.582265,45.803141],[-105.587711,45.803154],[-105.587497,45.806876],[-105.587283,45.810598],[-105.58707,45.814319],[-105.586856,45.818041],[-105.581588,45.817951],[-105.57632,45.817862],[-105.571052,45.817772],[-105.565784,45.817682],[-105.565989,45.814029],[-105.566194,45.810375],[-105.566329,45.806755],[-105.566464,45.803136],[-105.571641,45.803132],[-105.576818,45.803129],[-105.582265,45.803141]]]}},{"type":"Feature","properties":{"sec":"32","frstdivid":"MT200010N0490E0SN320"},"geometry":{"type":"Polygon","coordinates":[[[-105.660532,45.802881],[-105.655242,45.802975],[-105.649952,45.803069],[-105.650069,45.799426],[-105.650187,45.795782],[-105.650304,45.792139],[-105.650422,45.788496],[-105.655502,45.788431],[-105.655583,45.788429],[-105.66067,45.788364],[-105.660744,45.788363],[-105.665838,45.788366],[-105.665919,45.788366],[-105.671007,45.788369],[-105.671094,45.788369],[-105.671101,45.791938],[-105.671109,45.795508],[-105.671111,45.799101],[-105.671112,45.802694],[-105.665822,45.802788],[-105.660532,45.802881]]]}},{"type":"Feature","properties":{"sec":"27","frstdivid":"MT200010N0490E0SN270"},"geometry":{"type":"Polygon","coordinates":[[[-105.607651,45.818253],[-105.607983,45.814614],[-105.608315,45.810976],[-105.608647,45.807337],[-105.608978,45.803699],[-105.61392,45.803787],[-105.618861,45.803876],[-105.623803,45.803964],[-105.628745,45.804053],[-105.62853,45.807887],[-105.628315,45.811722],[-105.628259,45.815385],[-105.628202,45.819048],[-105.623106,45.818675],[-105.61801,45.818302],[-105.612831,45.818277],[-105.607651,45.818253]]]}},{"type":"Feature","properties":{"sec":"23","frstdivid":"MT200010N0490E0SN230"},"geometry":{"type":"Polygon","coordinates":[[[-105.592084,45.818108],[-105.597313,45.818175],[-105.602482,45.818214],[-105.607651,45.818253],[-105.607553,45.821875],[-105.607455,45.825498],[-105.607364,45.829183],[-105.607273,45.832868],[-105.602015,45.83288],[-105.596757,45.832892],[-105.591499,45.832904],[-105.586241,45.832915],[-105.586395,45.829197],[-105.586548,45.825478],[-105.586702,45.82176],[-105.586856,45.818041],[-105.592084,45.818108]]]}},{"type":"Feature","properties":{"sec":"26","frstdivid":"MT200010N0490E0SN260"},"geometry":{"type":"Polygon","coordinates":[[[-105.597313,45.818175],[-105.592084,45.818108],[-105.586856,45.818041],[-105.58707,45.814319],[-105.587283,45.810598],[-105.587497,45.806876],[-105.587711,45.803154],[-105.593166,45.803295],[-105.598621,45.803435],[-105.6038,45.803567],[-105.608978,45.803699],[-105.608647,45.807337],[-105.608315,45.810976],[-105.607983,45.814614],[-105.607651,45.818253],[-105.602482,45.818214],[-105.597313,45.818175]]]}},{"type":"Feature","properties":{"sec":"17","frstdivid":"MT200010N0490E0SN170"},"geometry":{"type":"Polygon","coordinates":[[[-105.649353,45.846863],[-105.649362,45.843215],[-105.649371,45.839567],[-105.64938,45.835919],[-105.649389,45.832271],[-105.654649,45.832255],[-105.65991,45.832238],[-105.66517,45.832222],[-105.670431,45.832205],[-105.670513,45.835842],[-105.670596,45.839479],[-105.670548,45.843211],[-105.670501,45.846943],[-105.665214,45.846923],[-105.659927,45.846903],[-105.65464,45.846883],[-105.649353,45.846863]]]}},{"type":"Feature","properties":{"sec":"28","frstdivid":"MT200010N0490E0SN280"},"geometry":{"type":"Polygon","coordinates":[[[-105.638896,45.818361],[-105.633549,45.818704],[-105.628202,45.819048],[-105.628259,45.815385],[-105.628315,45.811722],[-105.62853,45.807887],[-105.628745,45.804053],[-105.634046,45.803807],[-105.639348,45.803561],[-105.64465,45.803315],[-105.649952,45.803069],[-105.649861,45.80672],[-105.649771,45.810371],[-105.649681,45.814022],[-105.64959,45.817673],[-105.644243,45.818017],[-105.638896,45.818361]]]}},{"type":"Feature","properties":{"sec":"06","frstdivid":"MT200010N0490E0SN060"},"geometry":{"type":"Polygon","coordinates":[[[-105.686249,45.875885],[-105.681023,45.875924],[-105.675843,45.875955],[-105.670663,45.875986],[-105.67067,45.872319],[-105.670677,45.86867],[-105.670685,45.865019],[-105.670692,45.861368],[-105.675909,45.86135],[-105.681125,45.861333],[-105.68634,45.861316],[-105.691516,45.8613],[-105.69151,45.864941],[-105.691504,45.868583],[-105.691469,45.872213],[-105.691433,45.875845],[-105.686249,45.875885]]]}},{"type":"Feature","properties":{"sec":"18","frstdivid":"MT200010N0490E0SN180"},"geometry":{"type":"Polygon","coordinates":[[[-105.686282,45.832183],[-105.691573,45.832159],[-105.691567,45.835806],[-105.691561,45.839452],[-105.691546,45.843087],[-105.691531,45.846722],[-105.686297,45.846776],[-105.681031,45.846831],[-105.675766,45.846887],[-105.670501,45.846943],[-105.670548,45.843211],[-105.670596,45.839479],[-105.670513,45.835842],[-105.670431,45.832205],[-105.675698,45.832206],[-105.680965,45.832207],[-105.686282,45.832183]]]}},{"type":"Feature","properties":{"sec":"20","frstdivid":"MT200010N0490E0SN200"},"geometry":{"type":"Polygon","coordinates":[[[-105.670565,45.828566],[-105.670431,45.832205],[-105.66517,45.832222],[-105.65991,45.832238],[-105.654649,45.832255],[-105.649389,45.832271],[-105.649439,45.828622],[-105.64949,45.824972],[-105.64954,45.821323],[-105.64959,45.817673],[-105.654935,45.817667],[-105.660279,45.817661],[-105.665623,45.817655],[-105.670967,45.817649],[-105.670833,45.821288],[-105.670699,45.824927],[-105.670565,45.828566]]]}},{"type":"Feature","properties":{"sec":"15","frstdivid":"MT200010N0490E0SN150"},"geometry":{"type":"Polygon","coordinates":[[[-105.607185,45.836561],[-105.607273,45.832868],[-105.61255,45.833016],[-105.617826,45.833163],[-105.623102,45.833311],[-105.628378,45.833459],[-105.628324,45.837056],[-105.62827,45.840653],[-105.628216,45.84425],[-105.628162,45.847848],[-105.622851,45.847795],[-105.617541,45.847743],[-105.61223,45.847691],[-105.60692,45.847638],[-105.607008,45.843946],[-105.607097,45.840253],[-105.607185,45.836561]]]}},{"type":"Feature","properties":{"sec":"16","frstdivid":"MT200010N0490E0SN160"},"geometry":{"type":"Polygon","coordinates":[[[-105.633459,45.847601],[-105.628162,45.847848],[-105.628216,45.84425],[-105.62827,45.840653],[-105.628324,45.837056],[-105.628378,45.833459],[-105.633631,45.833162],[-105.638883,45.832865],[-105.644136,45.832568],[-105.649389,45.832271],[-105.64938,45.835919],[-105.649371,45.839567],[-105.649362,45.843215],[-105.649353,45.846863],[-105.644055,45.847109],[-105.638757,45.847355],[-105.633459,45.847601]]]}},{"type":"Feature","properties":{"sec":"08","frstdivid":"MT200010N0490E0SN080"},"geometry":{"type":"Polygon","coordinates":[[[-105.654617,45.861447],[-105.649259,45.861474],[-105.649282,45.857821],[-105.649306,45.854168],[-105.64933,45.850515],[-105.649353,45.846863],[-105.65464,45.846883],[-105.659927,45.846903],[-105.665214,45.846923],[-105.670501,45.846943],[-105.670523,45.850553],[-105.670546,45.854162],[-105.670619,45.857765],[-105.670692,45.861368],[-105.665334,45.861394],[-105.659976,45.861421],[-105.654617,45.861447]]]}},{"type":"Feature","properties":{"sec":"33","frstdivid":"MT200010N0490E0SN330"},"geometry":{"type":"Polygon","coordinates":[[[-105.64465,45.803315],[-105.639348,45.803561],[-105.634046,45.803807],[-105.628745,45.804053],[-105.628952,45.80016],[-105.629159,45.796267],[-105.629366,45.792375],[-105.629573,45.788482],[-105.634785,45.788485],[-105.634803,45.788485],[-105.639978,45.788489],[-105.639997,45.788489],[-105.645153,45.788492],[-105.64521,45.788492],[-105.650328,45.788496],[-105.650422,45.788496],[-105.650304,45.792139],[-105.650187,45.795782],[-105.650069,45.799426],[-105.649952,45.803069],[-105.64465,45.803315]]]}},{"type":"Feature","properties":{"sec":"02","frstdivid":"MT200010N0490E0SN020"},"geometry":{"type":"Polygon","coordinates":[[[-105.601058,45.862483],[-105.606404,45.862401],[-105.605973,45.866089],[-105.605542,45.869776],[-105.605113,45.873465],[-105.604681,45.877189],[-105.59896,45.877308],[-105.59324,45.877426],[-105.587519,45.877545],[-105.581798,45.877664],[-105.582608,45.873903],[-105.58341,45.870179],[-105.584214,45.866454],[-105.585019,45.862729],[-105.590365,45.862647],[-105.595711,45.862565],[-105.601058,45.862483]]]}},{"type":"Feature","properties":{"sec":"22","frstdivid":"MT200010N0490E0SN220"},"geometry":{"type":"Polygon","coordinates":[[[-105.612831,45.818277],[-105.61801,45.818302],[-105.623106,45.818675],[-105.628202,45.819048],[-105.628246,45.822651],[-105.62829,45.826253],[-105.628334,45.829856],[-105.628378,45.833459],[-105.623102,45.833311],[-105.617826,45.833163],[-105.61255,45.833016],[-105.607273,45.832868],[-105.607364,45.829183],[-105.607455,45.825498],[-105.607553,45.821875],[-105.607651,45.818253],[-105.612831,45.818277]]]}},{"type":"Feature","properties":{"sec":"36","frstdivid":"MT200010N0490E0SN360"},"geometry":{"type":"Polygon","coordinates":[[[-105.566464,45.803136],[-105.566586,45.79951],[-105.566709,45.795883],[-105.566841,45.792269],[-105.566973,45.788655],[-105.571804,45.788645],[-105.572158,45.788645],[-105.576994,45.788635],[-105.577343,45.788635],[-105.582184,45.788623],[-105.582527,45.788622],[-105.587375,45.78861],[-105.587712,45.788609],[-105.587711,45.792234],[-105.587711,45.795859],[-105.587711,45.799507],[-105.587711,45.803154],[-105.582265,45.803141],[-105.576818,45.803129],[-105.571641,45.803132],[-105.566464,45.803136]]]}},{"type":"Feature","properties":{"sec":"21","frstdivid":"MT200010N0490E0SN210"},"geometry":{"type":"Polygon","coordinates":[[[-105.62829,45.826253],[-105.628246,45.822651],[-105.628202,45.819048],[-105.633549,45.818704],[-105.638896,45.818361],[-105.644243,45.818017],[-105.64959,45.817673],[-105.64954,45.821323],[-105.64949,45.824972],[-105.649439,45.828622],[-105.649389,45.832271],[-105.644136,45.832568],[-105.638883,45.832865],[-105.633631,45.833162],[-105.628378,45.833459],[-105.628334,45.829856],[-105.62829,45.826253]]]}},{"type":"Feature","properties":{"sec":"34","frstdivid":"MT200010N0490E0SN340"},"geometry":{"type":"Polygon","coordinates":[[[-105.60885,45.796149],[-105.608786,45.792374],[-105.608722,45.788599],[-105.611799,45.7886],[-105.613943,45.7886],[-105.61755,45.7886],[-105.619164,45.7886],[-105.623301,45.788553],[-105.624368,45.788541],[-105.629052,45.788488],[-105.629573,45.788482],[-105.629366,45.792375],[-105.629159,45.796267],[-105.628952,45.80016],[-105.628745,45.804053],[-105.623803,45.803964],[-105.618861,45.803876],[-105.61392,45.803787],[-105.608978,45.803699],[-105.608914,45.799924],[-105.60885,45.796149]]]}},{"type":"Feature","properties":{"sec":"07","frstdivid":"MT200010N0490E0SN070"},"geometry":{"type":"Polygon","coordinates":[[[-105.670501,45.846943],[-105.675766,45.846887],[-105.681031,45.846831],[-105.686297,45.846776],[-105.691531,45.846722],[-105.691527,45.850366],[-105.691524,45.854011],[-105.69152,45.857655],[-105.691516,45.8613],[-105.68634,45.861316],[-105.681125,45.861333],[-105.675909,45.86135],[-105.670692,45.861368],[-105.670619,45.857765],[-105.670546,45.854162],[-105.670523,45.850553],[-105.670501,45.846943]]]}},{"type":"Feature","properties":{"sec":"19","frstdivid":"MT200010N0490E0SN190"},"geometry":{"type":"Polygon","coordinates":[[[-105.670431,45.832205],[-105.670565,45.828566],[-105.670699,45.824927],[-105.670833,45.821288],[-105.670967,45.817649],[-105.676118,45.817633],[-105.681268,45.817616],[-105.68642,45.817602],[-105.691562,45.817588],[-105.691565,45.821231],[-105.691567,45.824873],[-105.69157,45.828516],[-105.691573,45.832159],[-105.686282,45.832183],[-105.680965,45.832207],[-105.675698,45.832206],[-105.670431,45.832205]]]}},{"type":"Feature","properties":{"sec":"05","frstdivid":"MT200010N0490E0SN050"},"geometry":{"type":"Polygon","coordinates":[[[-105.67067,45.872319],[-105.670663,45.875986],[-105.66545,45.875989],[-105.660237,45.875992],[-105.655093,45.876043],[-105.649949,45.876093],[-105.649777,45.87243],[-105.649605,45.86878],[-105.649432,45.865127],[-105.649259,45.861474],[-105.654617,45.861447],[-105.659976,45.861421],[-105.665334,45.861394],[-105.670692,45.861368],[-105.670685,45.865019],[-105.670677,45.86867],[-105.67067,45.872319]]]}},{"type":"Feature","properties":{"sec":"11","frstdivid":"MT200010N0490E0SN110"},"geometry":{"type":"Polygon","coordinates":[[[-105.606404,45.862401],[-105.601058,45.862483],[-105.595711,45.862565],[-105.590365,45.862647],[-105.585019,45.862729],[-105.585188,45.859],[-105.585357,45.855271],[-105.585526,45.851543],[-105.585695,45.847814],[-105.591001,45.84777],[-105.596308,45.847726],[-105.601614,45.847682],[-105.60692,45.847638],[-105.606791,45.851329],[-105.606662,45.85502],[-105.606533,45.85871],[-105.606404,45.862401]]]}},{"type":"Feature","properties":{"sec":"12","frstdivid":"MT200010N0490E0SN120"},"geometry":{"type":"Polygon","coordinates":[[[-105.569805,45.846953],[-105.575102,45.84724],[-105.580399,45.847527],[-105.585695,45.847814],[-105.585526,45.851543],[-105.585357,45.855271],[-105.585188,45.859],[-105.585019,45.862729],[-105.579673,45.862346],[-105.574327,45.861962],[-105.568982,45.861579],[-105.563636,45.861195],[-105.563643,45.861089],[-105.563871,45.857546],[-105.563877,45.857454],[-105.564106,45.853897],[-105.56411,45.85382],[-105.564307,45.850282],[-105.564313,45.850185],[-105.564508,45.846666],[-105.569805,45.846953]]]}},{"type":"Feature","properties":{"sec":"03","frstdivid":"MT200010N0490E0SN030"},"geometry":{"type":"Polygon","coordinates":[[[-105.605973,45.866089],[-105.606404,45.862401],[-105.611766,45.862358],[-105.617128,45.862315],[-105.62249,45.862272],[-105.627852,45.862229],[-105.627721,45.865827],[-105.62759,45.869424],[-105.627458,45.873023],[-105.627324,45.876641],[-105.621663,45.876778],[-105.616003,45.876915],[-105.610342,45.877052],[-105.604681,45.877189],[-105.605113,45.873465],[-105.605542,45.869776],[-105.605973,45.866089]]]}},{"type":"Feature","properties":{"sec":"04","frstdivid":"MT200010N0490E0SN040"},"geometry":{"type":"Polygon","coordinates":[[[-105.643907,45.861663],[-105.649259,45.861474],[-105.649432,45.865127],[-105.649605,45.86878],[-105.649777,45.87243],[-105.649949,45.876093],[-105.644293,45.87623],[-105.638637,45.876367],[-105.63298,45.876504],[-105.627324,45.876641],[-105.627458,45.873023],[-105.62759,45.869424],[-105.627721,45.865827],[-105.627852,45.862229],[-105.633204,45.86204],[-105.638555,45.861852],[-105.643907,45.861663]]]}},{"type":"Feature","properties":{"sec":"24","frstdivid":"MT200010N0490E0SN240"},"geometry":{"type":"Polygon","coordinates":[[[-105.565182,45.832204],[-105.565187,45.832072],[-105.565318,45.828636],[-105.565324,45.828474],[-105.565455,45.825068],[-105.565463,45.824877],[-105.565619,45.821375],[-105.565623,45.82128],[-105.565784,45.817682],[-105.571052,45.817772],[-105.57632,45.817862],[-105.581588,45.817951],[-105.586856,45.818041],[-105.586702,45.82176],[-105.586548,45.825478],[-105.586395,45.829197],[-105.586241,45.832915],[-105.580976,45.832738],[-105.575711,45.83256],[-105.570447,45.832382],[-105.565182,45.832204]]]}},{"type":"Feature","properties":{"sec":"30","frstdivid":"MT200010N0490E0SN300"},"geometry":{"type":"Polygon","coordinates":[[[-105.691664,45.802995],[-105.691637,45.806536],[-105.69161,45.810077],[-105.691586,45.813832],[-105.691562,45.817588],[-105.68642,45.817602],[-105.681268,45.817616],[-105.676118,45.817633],[-105.670967,45.817649],[-105.671003,45.81391],[-105.67104,45.810171],[-105.671076,45.806432],[-105.671112,45.802694],[-105.676311,45.802769],[-105.681509,45.802844],[-105.686583,45.80292],[-105.691664,45.802995]]]}},{"type":"Feature","properties":{"sec":"10","frstdivid":"MT200010N0490E0SN100"},"geometry":{"type":"Polygon","coordinates":[[[-105.62249,45.862272],[-105.617128,45.862315],[-105.611766,45.862358],[-105.606404,45.862401],[-105.606533,45.85871],[-105.606662,45.85502],[-105.606791,45.851329],[-105.60692,45.847638],[-105.61223,45.847691],[-105.617541,45.847743],[-105.622851,45.847795],[-105.628162,45.847848],[-105.628084,45.851443],[-105.628007,45.855038],[-105.627929,45.858634],[-105.627852,45.862229],[-105.62249,45.862272]]]}},{"type":"Feature","properties":{"sec":"31","frstdivid":"MT200010N0490E0SN310"},"geometry":{"type":"Polygon","coordinates":[[[-105.691672,45.788393],[-105.691745,45.788393],[-105.691721,45.792045],[-105.691698,45.795697],[-105.691681,45.799346],[-105.691664,45.802995],[-105.686583,45.80292],[-105.681509,45.802844],[-105.676311,45.802769],[-105.671112,45.802694],[-105.671111,45.799101],[-105.671109,45.795508],[-105.671101,45.791938],[-105.671094,45.788369],[-105.676176,45.788345],[-105.676242,45.788345],[-105.681341,45.788321],[-105.68139,45.788321],[-105.686507,45.788357],[-105.686566,45.788357],[-105.691672,45.788393]]]}},{"type":"Feature","properties":{"sec":"09","frstdivid":"MT200010N0490E0SN090"},"geometry":{"type":"Polygon","coordinates":[[[-105.644055,45.847109],[-105.649353,45.846863],[-105.64933,45.850515],[-105.649306,45.854168],[-105.649282,45.857821],[-105.649259,45.861474],[-105.643907,45.861663],[-105.638555,45.861852],[-105.633204,45.86204],[-105.627852,45.862229],[-105.627929,45.858634],[-105.628007,45.855038],[-105.628084,45.851443],[-105.628162,45.847848],[-105.633459,45.847601],[-105.638757,45.847355],[-105.644055,45.847109]]]}},{"type":"Feature","properties":{"sec":"13","frstdivid":"MT200010N0490E0SN130"},"geometry":{"type":"Polygon","coordinates":[[[-105.564694,45.842931],[-105.56487,45.839381],[-105.564873,45.839311],[-105.565026,45.835793],[-105.56503,45.835691],[-105.565182,45.832204],[-105.570447,45.832382],[-105.575711,45.83256],[-105.580976,45.832738],[-105.586241,45.832915],[-105.586104,45.83664],[-105.585968,45.840365],[-105.585832,45.844089],[-105.585695,45.847814],[-105.580399,45.847527],[-105.575102,45.84724],[-105.569805,45.846953],[-105.564508,45.846666],[-105.564514,45.84655],[-105.564689,45.843024],[-105.564694,45.842931]]]}},{"type":"Feature","properties":{"sec":"14","frstdivid":"MT200010N0490E0SN140"},"geometry":{"type":"Polygon","coordinates":[[[-105.601614,45.847682],[-105.596308,45.847726],[-105.591001,45.84777],[-105.585695,45.847814],[-105.585832,45.844089],[-105.585968,45.840365],[-105.586104,45.83664],[-105.586241,45.832915],[-105.591499,45.832904],[-105.596757,45.832892],[-105.602015,45.83288],[-105.607273,45.832868],[-105.607185,45.836561],[-105.607097,45.840253],[-105.607008,45.843946],[-105.60692,45.847638],[-105.601614,45.847682]]]}},{"type":"Feature","properties":{"sec":"01","frstdivid":"MT200010N0490E0SN010"},"geometry":{"type":"Polygon","coordinates":[[[-105.563068,45.868193],[-105.563351,45.864715],[-105.563352,45.864694],[-105.563636,45.861195],[-105.568982,45.861579],[-105.574327,45.861962],[-105.579673,45.862346],[-105.585019,45.862729],[-105.584214,45.866454],[-105.58341,45.870179],[-105.582608,45.873903],[-105.581798,45.877664],[-105.576577,45.877713],[-105.571356,45.877761],[-105.566132,45.877806],[-105.560907,45.877851],[-105.560906,45.875623],[-105.561663,45.873021],[-105.561962,45.871994],[-105.563025,45.868341],[-105.563068,45.868193]]]}},{"type":"Feature","properties":{"sec":"35","frstdivid":"MT200010N0490E0SN350"},"geometry":{"type":"Polygon","coordinates":[[[-105.592565,45.788606],[-105.592965,45.788606],[-105.597835,45.788604],[-105.598219,45.788604],[-105.603104,45.788602],[-105.60347,45.788602],[-105.608375,45.7886],[-105.608722,45.788599],[-105.608786,45.792374],[-105.60885,45.796149],[-105.608914,45.799924],[-105.608978,45.803699],[-105.6038,45.803567],[-105.598621,45.803435],[-105.593166,45.803295],[-105.587711,45.803154],[-105.587711,45.799507],[-105.587711,45.795859],[-105.587711,45.792234],[-105.587712,45.788609],[-105.592565,45.788606]]]}},{"type":"Feature","properties":{"sec":"29","frstdivid":"MT200010N0490E0SN290"},"geometry":{"type":"Polygon","coordinates":[[[-105.671112,45.802694],[-105.671076,45.806432],[-105.67104,45.810171],[-105.671003,45.81391],[-105.670967,45.817649],[-105.665623,45.817655],[-105.660279,45.817661],[-105.654935,45.817667],[-105.64959,45.817673],[-105.649681,45.814022],[-105.649771,45.810371],[-105.649861,45.80672],[-105.649952,45.803069],[-105.655242,45.802975],[-105.660532,45.802881],[-105.665822,45.802788],[-105.671112,45.802694]]]}}]}