{"type":"FeatureCollection","note":"BLM Public Land Survey System. Provided by the Bureau of Land Management as is. These data are neither legal documents nor land surveys and must not be used as such.","features":[{"type":"Feature","properties":{"sec":"10","frstdivid":"MT200040S0600E0SN100"},"geometry":{"type":"Polygon","coordinates":[[[-104.292938,45.505138],[-104.292947,45.501515],[-104.292957,45.497893],[-104.292966,45.49427],[-104.298118,45.494287],[-104.303269,45.494303],[-104.308421,45.49432],[-104.313573,45.494336],[-104.313564,45.497958],[-104.313556,45.50158],[-104.313547,45.505203],[-104.313539,45.508825],[-104.308386,45.508809],[-104.303234,45.508792],[-104.298081,45.508776],[-104.292929,45.50876],[-104.292938,45.505138]]]}},{"type":"Feature","properties":{"sec":"02","frstdivid":"MT200040S0600E0SN020"},"geometry":{"type":"Polygon","coordinates":[[[-104.272322,45.51228],[-104.272311,45.508663],[-104.277465,45.508687],[-104.28262,45.508711],[-104.287774,45.508736],[-104.292929,45.50876],[-104.292944,45.51238],[-104.292959,45.516],[-104.292975,45.51962],[-104.292992,45.523441],[-104.287834,45.523431],[-104.282675,45.523422],[-104.277516,45.523412],[-104.272357,45.523402],[-104.272345,45.519516],[-104.272333,45.515898],[-104.272322,45.51228]]]}},{"type":"Feature","properties":{"sec":"13","frstdivid":"MT200040S0600E0SN130"},"geometry":{"type":"Polygon","coordinates":[[[-104.267213,45.47971],[-104.272357,45.479717],[-104.27235,45.483334],[-104.272342,45.486951],[-104.272335,45.490568],[-104.272327,45.494186],[-104.267185,45.49418],[-104.262044,45.494174],[-104.256902,45.494169],[-104.25176,45.494163],[-104.251765,45.490827],[-104.251766,45.490545],[-104.25177,45.487185],[-104.25177,45.486926],[-104.251775,45.483549],[-104.251775,45.483308],[-104.25178,45.479914],[-104.25178,45.479689],[-104.256924,45.479696],[-104.262069,45.479703],[-104.267213,45.47971]]]}},{"type":"Feature","properties":{"sec":"27","frstdivid":"MT200040S0600E0SN270"},"geometry":{"type":"Polygon","coordinates":[[[-104.313681,45.454484],[-104.313672,45.458109],[-104.313664,45.461735],[-104.313656,45.46536],[-104.3085,45.465344],[-104.303344,45.465328],[-104.298189,45.465313],[-104.293033,45.465297],[-104.293044,45.461672],[-104.293056,45.458047],[-104.293067,45.454422],[-104.293078,45.450797],[-104.298231,45.450813],[-104.303384,45.450828],[-104.308536,45.450843],[-104.313689,45.450859],[-104.313681,45.454484]]]}},{"type":"Feature","properties":{"sec":"30","frstdivid":"MT200040S0600E0SN300"},"geometry":{"type":"Polygon","coordinates":[[[-104.3704,45.450996],[-104.375323,45.450996],[-104.375297,45.454629],[-104.37527,45.458261],[-104.375243,45.461881],[-104.375216,45.4655],[-104.370322,45.465495],[-104.365178,45.46549],[-104.360034,45.465483],[-104.35489,45.465475],[-104.354904,45.461852],[-104.354919,45.458229],[-104.354933,45.454606],[-104.354947,45.450983],[-104.360099,45.45099],[-104.365252,45.450997],[-104.3704,45.450996]]]}},{"type":"Feature","properties":{"sec":"23","frstdivid":"MT200040S0600E0SN230"},"geometry":{"type":"Polygon","coordinates":[[[-104.27756,45.465253],[-104.282718,45.465267],[-104.287875,45.465282],[-104.293033,45.465297],[-104.293025,45.468919],[-104.293018,45.472542],[-104.29301,45.476165],[-104.293002,45.479787],[-104.287841,45.47977],[-104.28268,45.479752],[-104.277518,45.479734],[-104.272357,45.479717],[-104.272368,45.476097],[-104.27238,45.472477],[-104.272391,45.468858],[-104.272402,45.465238],[-104.27756,45.465253]]]}},{"type":"Feature","properties":{"sec":"34","frstdivid":"MT200040S0600E0SN340"},"geometry":{"type":"Polygon","coordinates":[[[-104.313709,45.439967],[-104.313703,45.443598],[-104.313696,45.447228],[-104.313689,45.450859],[-104.308536,45.450843],[-104.303384,45.450828],[-104.298231,45.450813],[-104.293078,45.450797],[-104.293087,45.44717],[-104.293096,45.443543],[-104.293106,45.439915],[-104.293115,45.436288],[-104.298265,45.4363],[-104.303415,45.436312],[-104.308566,45.436324],[-104.313716,45.436336],[-104.313709,45.439967]]]}},{"type":"Feature","properties":{"sec":"04","frstdivid":"MT200040S0600E0SN040"},"geometry":{"type":"Polygon","coordinates":[[[-104.328988,45.508876],[-104.334138,45.508893],[-104.334157,45.512513],[-104.334176,45.516133],[-104.334198,45.519753],[-104.33422,45.523445],[-104.329069,45.523448],[-104.323918,45.523451],[-104.318767,45.523454],[-104.313616,45.523457],[-104.313595,45.519684],[-104.313574,45.516064],[-104.313556,45.512445],[-104.313539,45.508825],[-104.318689,45.508842],[-104.323839,45.508859],[-104.328988,45.508876]]]}},{"type":"Feature","properties":{"sec":"24","frstdivid":"MT200040S0600E0SN240"},"geometry":{"type":"Polygon","coordinates":[[[-104.251785,45.4763],[-104.251785,45.47607],[-104.25179,45.472687],[-104.25179,45.472452],[-104.251795,45.469041],[-104.251795,45.468833],[-104.2518,45.465395],[-104.2518,45.465214],[-104.25695,45.46522],[-104.262101,45.465226],[-104.267252,45.465232],[-104.272402,45.465238],[-104.272391,45.468858],[-104.27238,45.472477],[-104.272368,45.476097],[-104.272357,45.479717],[-104.267213,45.47971],[-104.262069,45.479703],[-104.256924,45.479696],[-104.25178,45.479689],[-104.251785,45.4763]]]}},{"type":"Feature","properties":{"sec":"26","frstdivid":"MT200040S0600E0SN260"},"geometry":{"type":"Polygon","coordinates":[[[-104.272449,45.450754],[-104.277606,45.450765],[-104.282763,45.450776],[-104.287921,45.450787],[-104.293078,45.450797],[-104.293067,45.454422],[-104.293056,45.458047],[-104.293044,45.461672],[-104.293033,45.465297],[-104.287875,45.465282],[-104.282718,45.465267],[-104.27756,45.465253],[-104.272402,45.465238],[-104.272414,45.461617],[-104.272425,45.457996],[-104.272437,45.454375],[-104.272449,45.450754]]]}},{"type":"Feature","properties":{"sec":"31","frstdivid":"MT200040S0600E0SN310"},"geometry":{"type":"Polygon","coordinates":[[[-104.3704,45.450996],[-104.365252,45.450997],[-104.360099,45.45099],[-104.354947,45.450983],[-104.354956,45.447349],[-104.354965,45.443715],[-104.354974,45.440081],[-104.354984,45.436446],[-104.360148,45.436461],[-104.365312,45.436475],[-104.370465,45.436482],[-104.374418,45.436486],[-104.375424,45.436487],[-104.3754,45.440115],[-104.375377,45.443743],[-104.37535,45.447369],[-104.375323,45.450996],[-104.3704,45.450996]]]}},{"type":"Feature","properties":{"sec":"32","frstdivid":"MT200040S0600E0SN320"},"geometry":{"type":"Polygon","coordinates":[[[-104.334315,45.443657],[-104.334322,45.440024],[-104.33433,45.43639],[-104.339494,45.436404],[-104.344657,45.436418],[-104.34982,45.436432],[-104.354984,45.436446],[-104.354974,45.440081],[-104.354965,45.443715],[-104.354956,45.447349],[-104.354947,45.450983],[-104.349785,45.450968],[-104.344623,45.450954],[-104.339461,45.450939],[-104.334299,45.450925],[-104.334307,45.447291],[-104.334315,45.443657]]]}},{"type":"Feature","properties":{"sec":"17","frstdivid":"MT200040S0600E0SN170"},"geometry":{"type":"Polygon","coordinates":[[[-104.33931,45.494426],[-104.334153,45.494423],[-104.334159,45.490801],[-104.334165,45.487179],[-104.334171,45.483557],[-104.334177,45.479935],[-104.339348,45.479945],[-104.344519,45.479955],[-104.34969,45.479966],[-104.354861,45.479976],[-104.354841,45.48359],[-104.354821,45.487205],[-104.354801,45.490819],[-104.354781,45.494433],[-104.349624,45.494431],[-104.344467,45.494428],[-104.33931,45.494426]]]}},{"type":"Feature","properties":{"sec":"29","frstdivid":"MT200040S0600E0SN290"},"geometry":{"type":"Polygon","coordinates":[[[-104.349785,45.450968],[-104.354947,45.450983],[-104.354933,45.454606],[-104.354919,45.458229],[-104.354904,45.461852],[-104.35489,45.465475],[-104.349726,45.465465],[-104.344563,45.465455],[-104.339399,45.465445],[-104.334235,45.465434],[-104.334251,45.461807],[-104.334267,45.45818],[-104.334283,45.454552],[-104.334299,45.450925],[-104.339461,45.450939],[-104.344623,45.450954],[-104.349785,45.450968]]]}},{"type":"Feature","properties":{"sec":"03","frstdivid":"MT200040S0600E0SN030"},"geometry":{"type":"Polygon","coordinates":[[[-104.292959,45.516],[-104.292944,45.51238],[-104.292929,45.50876],[-104.298081,45.508776],[-104.303234,45.508792],[-104.308386,45.508809],[-104.313539,45.508825],[-104.313556,45.512445],[-104.313574,45.516064],[-104.313595,45.519684],[-104.313616,45.523457],[-104.30846,45.523453],[-104.303304,45.523449],[-104.298148,45.523445],[-104.292992,45.523441],[-104.292975,45.51962],[-104.292959,45.516]]]}},{"type":"Feature","properties":{"sec":"35","frstdivid":"MT200040S0600E0SN350"},"geometry":{"type":"Polygon","coordinates":[[[-104.277606,45.450765],[-104.272449,45.450754],[-104.272466,45.447129],[-104.272483,45.443504],[-104.2725,45.439879],[-104.272518,45.436254],[-104.277667,45.436263],[-104.282816,45.436271],[-104.287966,45.43628],[-104.293115,45.436288],[-104.293106,45.439915],[-104.293096,45.443543],[-104.293087,45.44717],[-104.293078,45.450797],[-104.287921,45.450787],[-104.282763,45.450776],[-104.277606,45.450765]]]}},{"type":"Feature","properties":{"sec":"15","frstdivid":"MT200040S0600E0SN150"},"geometry":{"type":"Polygon","coordinates":[[[-104.308459,45.479832],[-104.313612,45.479846],[-104.313602,45.483469],[-104.313592,45.487091],[-104.313582,45.490714],[-104.313573,45.494336],[-104.308421,45.49432],[-104.303269,45.494303],[-104.298118,45.494287],[-104.292966,45.49427],[-104.292975,45.49065],[-104.292984,45.487029],[-104.292993,45.483408],[-104.293002,45.479787],[-104.298154,45.479802],[-104.303307,45.479817],[-104.308459,45.479832]]]}},{"type":"Feature","properties":{"sec":"19","frstdivid":"MT200040S0600E0SN190"},"geometry":{"type":"Polygon","coordinates":[[[-104.375134,45.479992],[-104.370308,45.479991],[-104.365161,45.47999],[-104.360011,45.479983],[-104.354861,45.479976],[-104.354868,45.476351],[-104.354876,45.472726],[-104.354883,45.469101],[-104.35489,45.465475],[-104.360034,45.465483],[-104.365178,45.46549],[-104.370322,45.465495],[-104.375216,45.4655],[-104.375193,45.469124],[-104.375169,45.472749],[-104.375151,45.476371],[-104.375134,45.479992]]]}},{"type":"Feature","properties":{"sec":"01","frstdivid":"MT200040S0600E0SN010"},"geometry":{"type":"Polygon","coordinates":[[[-104.267167,45.508653],[-104.272311,45.508663],[-104.272322,45.51228],[-104.272333,45.515898],[-104.272345,45.519516],[-104.272357,45.523402],[-104.267195,45.5234],[-104.262032,45.523397],[-104.25687,45.523394],[-104.251708,45.523392],[-104.251713,45.519776],[-104.251713,45.519469],[-104.251718,45.51616],[-104.251718,45.515852],[-104.251727,45.512545],[-104.251728,45.512238],[-104.251738,45.508929],[-104.251738,45.508623],[-104.256881,45.508633],[-104.262024,45.508643],[-104.267167,45.508653]]]}},{"type":"Feature","properties":{"sec":"33","frstdivid":"MT200040S0600E0SN330"},"geometry":{"type":"Polygon","coordinates":[[[-104.323994,45.450892],[-104.318842,45.450875],[-104.313689,45.450859],[-104.313696,45.447228],[-104.313703,45.443598],[-104.313709,45.439967],[-104.313716,45.436336],[-104.318869,45.43635],[-104.324023,45.436363],[-104.329177,45.436376],[-104.33433,45.43639],[-104.334322,45.440024],[-104.334315,45.443657],[-104.334307,45.447291],[-104.334299,45.450925],[-104.329147,45.450908],[-104.323994,45.450892]]]}},{"type":"Feature","properties":{"sec":"36","frstdivid":"MT200040S0600E0SN360"},"geometry":{"type":"Polygon","coordinates":[[[-104.267367,45.43625],[-104.272518,45.436254],[-104.2725,45.439879],[-104.272483,45.443504],[-104.272466,45.447129],[-104.272449,45.450754],[-104.267295,45.450752],[-104.262141,45.450749],[-104.256988,45.450747],[-104.251834,45.450744],[-104.251854,45.447117],[-104.251874,45.44349],[-104.251894,45.439863],[-104.251913,45.436237],[-104.257064,45.436241],[-104.262216,45.436245],[-104.267367,45.43625]]]}},{"type":"Feature","properties":{"sec":"11","frstdivid":"MT200040S0600E0SN110"},"geometry":{"type":"Polygon","coordinates":[[[-104.287806,45.494249],[-104.292966,45.49427],[-104.292957,45.497893],[-104.292947,45.501515],[-104.292938,45.505138],[-104.292929,45.50876],[-104.287774,45.508736],[-104.28262,45.508711],[-104.277465,45.508687],[-104.272311,45.508663],[-104.272315,45.505043],[-104.272319,45.501424],[-104.272323,45.497805],[-104.272327,45.494186],[-104.277487,45.494207],[-104.282647,45.494228],[-104.287806,45.494249]]]}},{"type":"Feature","properties":{"sec":"05","frstdivid":"MT200040S0600E0SN050"},"geometry":{"type":"Polygon","coordinates":[[[-104.349623,45.508923],[-104.354784,45.508933],[-104.354792,45.512553],[-104.3548,45.516174],[-104.354809,45.519794],[-104.354817,45.523453],[-104.349668,45.523451],[-104.344519,45.523449],[-104.339369,45.523447],[-104.33422,45.523445],[-104.334198,45.519753],[-104.334176,45.516133],[-104.334157,45.512513],[-104.334138,45.508893],[-104.3393,45.508903],[-104.344461,45.508913],[-104.349623,45.508923]]]}},{"type":"Feature","properties":{"sec":"21","frstdivid":"MT200040S0600E0SN210"},"geometry":{"type":"Polygon","coordinates":[[[-104.334191,45.47631],[-104.334177,45.479935],[-104.329035,45.479913],[-104.323894,45.47989],[-104.318753,45.479868],[-104.313612,45.479846],[-104.313623,45.476225],[-104.313634,45.472603],[-104.313645,45.468981],[-104.313656,45.46536],[-104.3188,45.465378],[-104.323945,45.465397],[-104.32909,45.465416],[-104.334235,45.465434],[-104.33422,45.46906],[-104.334206,45.472685],[-104.334191,45.47631]]]}},{"type":"Feature","properties":{"sec":"28","frstdivid":"MT200040S0600E0SN280"},"geometry":{"type":"Polygon","coordinates":[[[-104.329147,45.450908],[-104.334299,45.450925],[-104.334283,45.454552],[-104.334267,45.45818],[-104.334251,45.461807],[-104.334235,45.465434],[-104.32909,45.465416],[-104.323945,45.465397],[-104.3188,45.465378],[-104.313656,45.46536],[-104.313664,45.461735],[-104.313672,45.458109],[-104.313681,45.454484],[-104.313689,45.450859],[-104.318842,45.450875],[-104.323994,45.450892],[-104.329147,45.450908]]]}},{"type":"Feature","properties":{"sec":"18","frstdivid":"MT200040S0600E0SN180"},"geometry":{"type":"Polygon","coordinates":[[[-104.375075,45.490831],[-104.375057,45.494447],[-104.370198,45.494444],[-104.365056,45.494441],[-104.359919,45.494437],[-104.354781,45.494433],[-104.354801,45.490819],[-104.354821,45.487205],[-104.354841,45.48359],[-104.354861,45.479976],[-104.360011,45.479983],[-104.365161,45.47999],[-104.370308,45.479991],[-104.375134,45.479992],[-104.375113,45.483603],[-104.375093,45.487214],[-104.375075,45.490831]]]}},{"type":"Feature","properties":{"sec":"14","frstdivid":"MT200040S0600E0SN140"},"geometry":{"type":"Polygon","coordinates":[[[-104.292975,45.49065],[-104.292966,45.49427],[-104.287806,45.494249],[-104.282647,45.494228],[-104.277487,45.494207],[-104.272327,45.494186],[-104.272335,45.490568],[-104.272342,45.486951],[-104.27235,45.483334],[-104.272357,45.479717],[-104.277518,45.479734],[-104.28268,45.479752],[-104.287841,45.47977],[-104.293002,45.479787],[-104.292993,45.483408],[-104.292984,45.487029],[-104.292975,45.49065]]]}},{"type":"Feature","properties":{"sec":"09","frstdivid":"MT200040S0600E0SN090"},"geometry":{"type":"Polygon","coordinates":[[[-104.313564,45.497958],[-104.313573,45.494336],[-104.318718,45.494358],[-104.323863,45.49438],[-104.329008,45.494402],[-104.334153,45.494423],[-104.334149,45.498041],[-104.334146,45.501658],[-104.334142,45.505276],[-104.334138,45.508893],[-104.328988,45.508876],[-104.323839,45.508859],[-104.318689,45.508842],[-104.313539,45.508825],[-104.313547,45.505203],[-104.313556,45.50158],[-104.313564,45.497958]]]}},{"type":"Feature","properties":{"sec":"22","frstdivid":"MT200040S0600E0SN220"},"geometry":{"type":"Polygon","coordinates":[[[-104.313656,45.46536],[-104.313645,45.468981],[-104.313634,45.472603],[-104.313623,45.476225],[-104.313612,45.479846],[-104.308459,45.479832],[-104.303307,45.479817],[-104.298154,45.479802],[-104.293002,45.479787],[-104.29301,45.476165],[-104.293018,45.472542],[-104.293025,45.468919],[-104.293033,45.465297],[-104.298189,45.465313],[-104.303344,45.465328],[-104.3085,45.465344],[-104.313656,45.46536]]]}},{"type":"Feature","properties":{"sec":"20","frstdivid":"MT200040S0600E0SN200"},"geometry":{"type":"Polygon","coordinates":[[[-104.35489,45.465475],[-104.354883,45.469101],[-104.354876,45.472726],[-104.354868,45.476351],[-104.354861,45.479976],[-104.34969,45.479966],[-104.344519,45.479955],[-104.339348,45.479945],[-104.334177,45.479935],[-104.334191,45.47631],[-104.334206,45.472685],[-104.33422,45.46906],[-104.334235,45.465434],[-104.339399,45.465445],[-104.344563,45.465455],[-104.349726,45.465465],[-104.35489,45.465475]]]}},{"type":"Feature","properties":{"sec":"25","frstdivid":"MT200040S0600E0SN250"},"geometry":{"type":"Polygon","coordinates":[[[-104.251809,45.457977],[-104.251821,45.454361],[-104.251834,45.450744],[-104.256988,45.450747],[-104.262141,45.450749],[-104.267295,45.450752],[-104.272449,45.450754],[-104.272437,45.454375],[-104.272425,45.457996],[-104.272414,45.461617],[-104.272402,45.465238],[-104.267252,45.465232],[-104.262101,45.465226],[-104.25695,45.46522],[-104.2518,45.465214],[-104.251804,45.461686],[-104.251804,45.461596],[-104.251809,45.457979],[-104.251809,45.457977]]]}},{"type":"Feature","properties":{"sec":"16","frstdivid":"MT200040S0600E0SN160"},"geometry":{"type":"Polygon","coordinates":[[[-104.313592,45.487091],[-104.313602,45.483469],[-104.313612,45.479846],[-104.318753,45.479868],[-104.323894,45.47989],[-104.329035,45.479913],[-104.334177,45.479935],[-104.334171,45.483557],[-104.334165,45.487179],[-104.334159,45.490801],[-104.334153,45.494423],[-104.329008,45.494402],[-104.323863,45.49438],[-104.318718,45.494358],[-104.313573,45.494336],[-104.313582,45.490714],[-104.313592,45.487091]]]}},{"type":"Feature","properties":{"sec":"07","frstdivid":"MT200040S0600E0SN070"},"geometry":{"type":"Polygon","coordinates":[[[-104.370231,45.508944],[-104.365083,45.508942],[-104.359933,45.508937],[-104.354784,45.508933],[-104.354783,45.505308],[-104.354783,45.501683],[-104.354782,45.498058],[-104.354781,45.494433],[-104.359919,45.494437],[-104.365056,45.494441],[-104.370198,45.494444],[-104.375057,45.494447],[-104.375055,45.498068],[-104.375053,45.501689],[-104.375068,45.505318],[-104.375084,45.508946],[-104.370231,45.508944]]]}},{"type":"Feature","properties":{"sec":"08","frstdivid":"MT200040S0600E0SN080"},"geometry":{"type":"Polygon","coordinates":[[[-104.334153,45.494423],[-104.33931,45.494426],[-104.344467,45.494428],[-104.349624,45.494431],[-104.354781,45.494433],[-104.354782,45.498058],[-104.354783,45.501683],[-104.354783,45.505308],[-104.354784,45.508933],[-104.349623,45.508923],[-104.344461,45.508913],[-104.3393,45.508903],[-104.334138,45.508893],[-104.334142,45.505276],[-104.334146,45.501658],[-104.334149,45.498041],[-104.334153,45.494423]]]}},{"type":"Feature","properties":{"sec":"06","frstdivid":"MT200040S0600E0SN060"},"geometry":{"type":"Polygon","coordinates":[[[-104.375081,45.512565],[-104.375077,45.516184],[-104.375096,45.519814],[-104.375115,45.523444],[-104.370262,45.523447],[-104.365114,45.52345],[-104.359966,45.523452],[-104.354817,45.523453],[-104.354809,45.519794],[-104.3548,45.516174],[-104.354792,45.512553],[-104.354784,45.508933],[-104.359933,45.508937],[-104.365083,45.508942],[-104.370231,45.508944],[-104.375084,45.508946],[-104.375081,45.512565]]]}},{"type":"Feature","properties":{"sec":"12","frstdivid":"MT200040S0600E0SN120"},"geometry":{"type":"Polygon","coordinates":[[[-104.25176,45.494469],[-104.25176,45.494163],[-104.256902,45.494169],[-104.262044,45.494174],[-104.267185,45.49418],[-104.272327,45.494186],[-104.272323,45.497805],[-104.272319,45.501424],[-104.272315,45.505043],[-104.272311,45.508663],[-104.267167,45.508653],[-104.262024,45.508643],[-104.256881,45.508633],[-104.251738,45.508623],[-104.251743,45.505314],[-104.251744,45.505008],[-104.251749,45.501699],[-104.251749,45.501393],[-104.251755,45.498084],[-104.251755,45.497778],[-104.25176,45.494469]]]}}]}