{"type":"FeatureCollection","note":"BLM Public Land Survey System. Provided by the Bureau of Land Management as is. These data are neither legal documents nor land surveys and must not be used as such.","features":[{"type":"Feature","properties":{"sec":"06","frstdivid":"MT200040S0300E0SN060"},"geometry":{"type":"Polygon","coordinates":[[[-108.049586,45.504078],[-108.054741,45.504062],[-108.059897,45.504046],[-108.065048,45.504027],[-108.069786,45.504012],[-108.069784,45.507642],[-108.06978,45.511272],[-108.069772,45.514907],[-108.069764,45.518541],[-108.065117,45.518547],[-108.05997,45.518553],[-108.054805,45.518554],[-108.049641,45.518555],[-108.049626,45.514958],[-108.049611,45.511334],[-108.049599,45.507706],[-108.049586,45.504078]]]}},{"type":"Feature","properties":{"sec":"18","frstdivid":"MT200040S0300E0SN180"},"geometry":{"type":"Polygon","coordinates":[[[-108.04961,45.474986],[-108.054764,45.474966],[-108.059918,45.474946],[-108.065067,45.47492],[-108.06986,45.474898],[-108.069843,45.478534],[-108.069826,45.48217],[-108.069809,45.485805],[-108.069791,45.48944],[-108.065067,45.489455],[-108.059918,45.489474],[-108.054764,45.489495],[-108.04961,45.489514],[-108.049611,45.485882],[-108.049611,45.48225],[-108.04961,45.478618],[-108.04961,45.474986]]]}},{"type":"Feature","properties":{"sec":"11","frstdivid":"MT200040S0300E0SN110"},"geometry":{"type":"Polygon","coordinates":[[[-107.967144,45.498567],[-107.967144,45.496751],[-107.967145,45.493118],[-107.967145,45.489485],[-107.97229,45.489488],[-107.977436,45.489491],[-107.982582,45.489493],[-107.987728,45.489495],[-107.987728,45.491313],[-107.987727,45.493131],[-107.987724,45.496766],[-107.987723,45.498584],[-107.987723,45.499492],[-107.987723,45.500401],[-107.987718,45.504036],[-107.982574,45.504032],[-107.977429,45.504028],[-107.972285,45.504023],[-107.969713,45.50402],[-107.96714,45.504017],[-107.967144,45.500384],[-107.967144,45.499476],[-107.967144,45.498567]]]}},{"type":"Feature","properties":{"sec":"07","frstdivid":"MT200040S0300E0SN070"},"geometry":{"type":"Polygon","coordinates":[[[-108.04961,45.489514],[-108.054764,45.489495],[-108.059918,45.489474],[-108.065067,45.489455],[-108.069791,45.48944],[-108.06979,45.493089],[-108.069789,45.496737],[-108.069788,45.500374],[-108.069786,45.504012],[-108.065048,45.504027],[-108.059897,45.504046],[-108.054741,45.504062],[-108.049586,45.504078],[-108.049593,45.500437],[-108.049599,45.496796],[-108.049605,45.493155],[-108.04961,45.489514]]]}},{"type":"Feature","properties":{"sec":"13","frstdivid":"MT200040S0300E0SN130"},"geometry":{"type":"Polygon","coordinates":[[[-107.946414,45.474913],[-107.951688,45.474923],[-107.956831,45.474931],[-107.961974,45.474939],[-107.967117,45.474946],[-107.967125,45.478581],[-107.967132,45.482215],[-107.967139,45.48585],[-107.967145,45.489485],[-107.961993,45.489477],[-107.956842,45.489469],[-107.951691,45.489461],[-107.946408,45.489452],[-107.946409,45.485818],[-107.946411,45.482183],[-107.946412,45.478548],[-107.946414,45.474913]]]}},{"type":"Feature","properties":{"sec":"12","frstdivid":"MT200040S0300E0SN120"},"geometry":{"type":"Polygon","coordinates":[[[-107.946408,45.489452],[-107.951691,45.489461],[-107.956842,45.489469],[-107.961993,45.489477],[-107.967145,45.489485],[-107.967145,45.493118],[-107.967144,45.496751],[-107.967144,45.498567],[-107.967144,45.499476],[-107.967144,45.500384],[-107.96714,45.504017],[-107.961998,45.504019],[-107.959427,45.504019],[-107.956856,45.504018],[-107.951713,45.504019],[-107.946463,45.50402],[-107.946448,45.500378],[-107.946434,45.496736],[-107.946421,45.493094],[-107.946408,45.489452]]]}},{"type":"Feature","properties":{"sec":"17","frstdivid":"MT200040S0300E0SN170"},"geometry":{"type":"Polygon","coordinates":[[[-108.028984,45.488596],[-108.028985,45.487688],[-108.028985,45.48678],[-108.028986,45.485872],[-108.028986,45.484964],[-108.028986,45.484056],[-108.028987,45.483148],[-108.028987,45.482241],[-108.028988,45.481333],[-108.028988,45.480425],[-108.028988,45.479517],[-108.028989,45.478609],[-108.028989,45.477701],[-108.028989,45.476793],[-108.028989,45.475885],[-108.02899,45.474977],[-108.034144,45.474981],[-108.036722,45.474983],[-108.038011,45.474983],[-108.0393,45.474984],[-108.044455,45.474986],[-108.04961,45.474986],[-108.04961,45.478618],[-108.049611,45.48225],[-108.049611,45.485882],[-108.04961,45.489514],[-108.044454,45.489514],[-108.043164,45.489513],[-108.041875,45.489512],[-108.039297,45.48951],[-108.038008,45.489509],[-108.036719,45.489508],[-108.03414,45.489506],[-108.028984,45.489504],[-108.028984,45.488596]]]}},{"type":"Feature","properties":{"sec":"20","frstdivid":"MT200040S0300E0SN200"},"geometry":{"type":"Polygon","coordinates":[[[-108.028949,45.460437],[-108.034103,45.460447],[-108.039256,45.460456],[-108.044409,45.460463],[-108.049563,45.460467],[-108.049577,45.464096],[-108.04959,45.467726],[-108.0496,45.471356],[-108.04961,45.474986],[-108.044455,45.474986],[-108.0393,45.474984],[-108.038011,45.474983],[-108.036722,45.474983],[-108.034144,45.474981],[-108.02899,45.474977],[-108.028981,45.471342],[-108.028972,45.467707],[-108.028961,45.464072],[-108.028949,45.460437]]]}},{"type":"Feature","properties":{"sec":"02","frstdivid":"MT200040S0300E0SN020"},"geometry":{"type":"Polygon","coordinates":[[[-107.96714,45.504017],[-107.969713,45.50402],[-107.972285,45.504023],[-107.977429,45.504028],[-107.982574,45.504032],[-107.987718,45.504036],[-107.987733,45.507662],[-107.987745,45.511287],[-107.987757,45.514909],[-107.987765,45.518556],[-107.982613,45.518557],[-107.97746,45.518557],[-107.972295,45.518554],[-107.96713,45.518552],[-107.96714,45.514893],[-107.967145,45.51127],[-107.967144,45.509457],[-107.967143,45.507643],[-107.967142,45.50583],[-107.96714,45.504017]]]}},{"type":"Feature","properties":{"sec":"15","frstdivid":"MT200040S0300E0SN150"},"geometry":{"type":"Polygon","coordinates":[[[-107.98771,45.474957],[-107.992867,45.474955],[-107.998023,45.474953],[-108.003179,45.474952],[-108.008335,45.47495],[-108.008339,45.478585],[-108.008343,45.48222],[-108.008346,45.485855],[-108.008349,45.48949],[-108.005771,45.489491],[-108.003194,45.489491],[-108.000616,45.489492],[-107.998038,45.489493],[-107.995461,45.489493],[-107.992883,45.489494],[-107.990305,45.489495],[-107.987728,45.489495],[-107.987724,45.485861],[-107.98772,45.482226],[-107.987716,45.478592],[-107.98771,45.474957]]]}},{"type":"Feature","properties":{"sec":"30","frstdivid":"MT200040S0300E0SN300"},"geometry":{"type":"Polygon","coordinates":[[[-108.049499,45.445946],[-108.054652,45.445924],[-108.059805,45.445896],[-108.064952,45.445851],[-108.069815,45.445799],[-108.069826,45.449437],[-108.069835,45.453074],[-108.069846,45.456711],[-108.069855,45.460347],[-108.065017,45.460381],[-108.059869,45.460418],[-108.057292,45.460431],[-108.054716,45.460442],[-108.049563,45.460467],[-108.049548,45.456837],[-108.049532,45.453206],[-108.049516,45.449576],[-108.049499,45.445946]]]}},{"type":"Feature","properties":{"sec":"21","frstdivid":"MT200040S0300E0SN210"},"geometry":{"type":"Polygon","coordinates":[[[-108.00831,45.460423],[-108.013469,45.460428],[-108.018629,45.460431],[-108.023789,45.460434],[-108.028949,45.460437],[-108.028961,45.464072],[-108.028972,45.467707],[-108.028981,45.471342],[-108.02899,45.474977],[-108.027699,45.474976],[-108.026408,45.474974],[-108.023826,45.474971],[-108.018662,45.474964],[-108.013499,45.474957],[-108.008335,45.47495],[-108.00833,45.471318],[-108.008325,45.467687],[-108.008318,45.464055],[-108.00831,45.460423]]]}},{"type":"Feature","properties":{"sec":"36","frstdivid":"MT200040S0300E0SN360"},"geometry":{"type":"Polygon","coordinates":[[[-107.946293,45.431246],[-107.951456,45.431281],[-107.956619,45.431298],[-107.96178,45.431311],[-107.966941,45.431321],[-107.966982,45.434955],[-107.967015,45.438589],[-107.967041,45.442224],[-107.96706,45.445858],[-107.961925,45.445854],[-107.95679,45.445848],[-107.951655,45.445839],[-107.946435,45.445824],[-107.94641,45.44218],[-107.946381,45.438535],[-107.946346,45.434891],[-107.946293,45.431246]]]}},{"type":"Feature","properties":{"sec":"24","frstdivid":"MT200040S0300E0SN240"},"geometry":{"type":"Polygon","coordinates":[[[-107.946431,45.460375],[-107.951686,45.460385],[-107.956825,45.460393],[-107.961963,45.460399],[-107.967101,45.460404],[-107.967107,45.46404],[-107.967111,45.467675],[-107.967114,45.471311],[-107.967117,45.474946],[-107.961974,45.474939],[-107.956831,45.474931],[-107.951688,45.474923],[-107.946414,45.474913],[-107.946418,45.471279],[-107.946423,45.467645],[-107.946427,45.46401],[-107.946431,45.460375]]]}},{"type":"Feature","properties":{"sec":"23","frstdivid":"MT200040S0300E0SN230"},"geometry":{"type":"Polygon","coordinates":[[[-107.967101,45.460404],[-107.972248,45.460409],[-107.977395,45.460413],[-107.982541,45.460416],[-107.987688,45.460419],[-107.987695,45.464054],[-107.987701,45.467688],[-107.987706,45.471323],[-107.98771,45.474957],[-107.982562,45.474955],[-107.977414,45.474953],[-107.972265,45.47495],[-107.967117,45.474946],[-107.967114,45.471311],[-107.967111,45.467675],[-107.967107,45.46404],[-107.967101,45.460404]]]}},{"type":"Feature","properties":{"sec":"04","frstdivid":"MT200040S0300E0SN040"},"geometry":{"type":"Polygon","coordinates":[[[-108.00836,45.504042],[-108.01351,45.504038],[-108.018659,45.504034],[-108.023809,45.50403],[-108.028959,45.504026],[-108.028971,45.507655],[-108.028982,45.511283],[-108.028993,45.514907],[-108.029003,45.51856],[-108.023867,45.518565],[-108.018731,45.51857],[-108.013563,45.518569],[-108.008396,45.518567],[-108.00839,45.514922],[-108.00838,45.511298],[-108.008371,45.50767],[-108.00836,45.504042]]]}},{"type":"Feature","properties":{"sec":"32","frstdivid":"MT200040S0300E0SN320"},"geometry":{"type":"Polygon","coordinates":[[[-108.028811,45.431397],[-108.033966,45.431406],[-108.039121,45.431413],[-108.044275,45.431418],[-108.04943,45.43142],[-108.04945,45.435051],[-108.049468,45.438683],[-108.049483,45.442314],[-108.049499,45.445946],[-108.044345,45.445942],[-108.039191,45.445935],[-108.034037,45.445925],[-108.028883,45.445915],[-108.028867,45.442286],[-108.028848,45.438656],[-108.028837,45.436841],[-108.028829,45.435027],[-108.028819,45.433212],[-108.028811,45.431397]]]}},{"type":"Feature","properties":{"sec":"19","frstdivid":"MT200040S0300E0SN190"},"geometry":{"type":"Polygon","coordinates":[[[-108.049563,45.460467],[-108.054716,45.460442],[-108.057292,45.460431],[-108.059869,45.460418],[-108.065017,45.460381],[-108.069855,45.460347],[-108.069859,45.463985],[-108.069861,45.467623],[-108.069861,45.471261],[-108.06986,45.474898],[-108.065067,45.47492],[-108.059918,45.474946],[-108.054764,45.474966],[-108.04961,45.474986],[-108.0496,45.471356],[-108.04959,45.467726],[-108.049577,45.464096],[-108.049563,45.460467]]]}},{"type":"Feature","properties":{"sec":"22","frstdivid":"MT200040S0300E0SN220"},"geometry":{"type":"Polygon","coordinates":[[[-107.987688,45.460419],[-107.992843,45.46042],[-107.997999,45.460421],[-108.003154,45.460422],[-108.00831,45.460423],[-108.008318,45.464055],[-108.008325,45.467687],[-108.00833,45.471318],[-108.008335,45.47495],[-108.003179,45.474952],[-107.998023,45.474953],[-107.992867,45.474955],[-107.98771,45.474957],[-107.987706,45.471323],[-107.987701,45.467688],[-107.987695,45.464054],[-107.987688,45.460419]]]}},{"type":"Feature","properties":{"sec":"03","frstdivid":"MT200040S0300E0SN030"},"geometry":{"type":"Polygon","coordinates":[[[-107.987718,45.504036],[-107.992878,45.504037],[-107.998039,45.504039],[-108.003199,45.50404],[-108.00836,45.504042],[-108.008371,45.50767],[-108.00838,45.511298],[-108.00839,45.514922],[-108.008396,45.518567],[-108.003235,45.518565],[-107.998075,45.518563],[-107.99292,45.51856],[-107.987765,45.518556],[-107.987757,45.514909],[-107.987745,45.511287],[-107.987733,45.507662],[-107.987718,45.504036]]]}},{"type":"Feature","properties":{"sec":"31","frstdivid":"MT200040S0300E0SN310"},"geometry":{"type":"Polygon","coordinates":[[[-108.04943,45.43142],[-108.054576,45.431409],[-108.059723,45.43139],[-108.064868,45.431344],[-108.069786,45.43125],[-108.069796,45.434887],[-108.069806,45.438523],[-108.069807,45.440344],[-108.069807,45.442165],[-108.069815,45.445799],[-108.064952,45.445851],[-108.059805,45.445896],[-108.054652,45.445924],[-108.049499,45.445946],[-108.049483,45.442314],[-108.049468,45.438683],[-108.04945,45.435051],[-108.04943,45.43142]]]}},{"type":"Feature","properties":{"sec":"33","frstdivid":"MT200040S0300E0SN330"},"geometry":{"type":"Polygon","coordinates":[[[-108.008225,45.43863],[-108.008201,45.434997],[-108.00818,45.431363],[-108.013338,45.431375],[-108.015917,45.431377],[-108.018497,45.43138],[-108.023653,45.431391],[-108.026232,45.431394],[-108.028811,45.431397],[-108.028819,45.433212],[-108.028829,45.435027],[-108.028837,45.436841],[-108.028848,45.438656],[-108.028867,45.442286],[-108.028883,45.445915],[-108.023728,45.445911],[-108.018573,45.445905],[-108.015995,45.445904],[-108.013418,45.445903],[-108.008264,45.445896],[-108.008255,45.44408],[-108.008252,45.443171],[-108.008249,45.442263],[-108.008225,45.43863]]]}},{"type":"Feature","properties":{"sec":"35","frstdivid":"MT200040S0300E0SN350"},"geometry":{"type":"Polygon","coordinates":[[[-107.966982,45.434955],[-107.966941,45.431321],[-107.972097,45.431327],[-107.977252,45.431333],[-107.982407,45.431339],[-107.987561,45.431344],[-107.987576,45.433162],[-107.987587,45.434979],[-107.987602,45.436796],[-107.987613,45.438613],[-107.98764,45.442247],[-107.987644,45.443156],[-107.987648,45.444064],[-107.987655,45.445881],[-107.982507,45.445876],[-107.977358,45.44587],[-107.972209,45.445864],[-107.96706,45.445858],[-107.967041,45.442224],[-107.967015,45.438589],[-107.966982,45.434955]]]}},{"type":"Feature","properties":{"sec":"34","frstdivid":"MT200040S0300E0SN340"},"geometry":{"type":"Polygon","coordinates":[[[-107.987648,45.444064],[-107.987644,45.443156],[-107.98764,45.442247],[-107.987613,45.438613],[-107.987602,45.436796],[-107.987587,45.434979],[-107.987576,45.433162],[-107.987561,45.431344],[-107.99014,45.431345],[-107.992718,45.431345],[-107.997872,45.431352],[-108.003026,45.431358],[-108.00818,45.431363],[-108.008201,45.434997],[-108.008225,45.43863],[-108.008249,45.442263],[-108.008252,45.443171],[-108.008255,45.44408],[-108.008264,45.445896],[-108.005688,45.445894],[-108.003111,45.445892],[-108.000535,45.44589],[-107.997959,45.445887],[-107.995383,45.445885],[-107.992807,45.445883],[-107.990231,45.445882],[-107.987655,45.445881],[-107.987648,45.444064]]]}},{"type":"Feature","properties":{"sec":"01","frstdivid":"MT200040S0300E0SN010"},"geometry":{"type":"Polygon","coordinates":[[[-107.946463,45.50402],[-107.951713,45.504019],[-107.956856,45.504018],[-107.959427,45.504019],[-107.961998,45.504019],[-107.96714,45.504017],[-107.967142,45.50583],[-107.967143,45.507643],[-107.967144,45.509457],[-107.967145,45.51127],[-107.96714,45.514893],[-107.96713,45.518552],[-107.961979,45.518545],[-107.956828,45.518539],[-107.951661,45.518538],[-107.946493,45.518537],[-107.946476,45.514911],[-107.946467,45.511284],[-107.946464,45.507652],[-107.946463,45.50402]]]}},{"type":"Feature","properties":{"sec":"10","frstdivid":"MT200040S0300E0SN100"},"geometry":{"type":"Polygon","coordinates":[[[-107.987728,45.491313],[-107.987728,45.489495],[-107.990305,45.489495],[-107.992883,45.489494],[-107.995461,45.489493],[-107.998038,45.489493],[-108.000616,45.489492],[-108.003194,45.489491],[-108.005771,45.489491],[-108.008349,45.48949],[-108.008351,45.491309],[-108.008354,45.493128],[-108.008356,45.496766],[-108.008359,45.500404],[-108.00836,45.504042],[-108.003199,45.50404],[-107.998039,45.504039],[-107.992878,45.504037],[-107.987718,45.504036],[-107.987723,45.500401],[-107.987723,45.499492],[-107.987723,45.498584],[-107.987724,45.496766],[-107.987727,45.493131],[-107.987728,45.491313]]]}},{"type":"Feature","properties":{"sec":"27","frstdivid":"MT200040S0300E0SN270"},"geometry":{"type":"Polygon","coordinates":[[[-107.987668,45.449516],[-107.987655,45.445881],[-107.990231,45.445882],[-107.992807,45.445883],[-107.995383,45.445885],[-107.997959,45.445887],[-108.000535,45.44589],[-108.003111,45.445892],[-108.005688,45.445894],[-108.008264,45.445896],[-108.008279,45.449528],[-108.008281,45.450436],[-108.008283,45.451344],[-108.008288,45.45316],[-108.008299,45.456792],[-108.00831,45.460423],[-108.003154,45.460422],[-107.997999,45.460421],[-107.992843,45.46042],[-107.987688,45.460419],[-107.987681,45.456785],[-107.987673,45.45315],[-107.98767,45.451333],[-107.987669,45.450424],[-107.987668,45.449516]]]}},{"type":"Feature","properties":{"sec":"08","frstdivid":"MT200040S0300E0SN080"},"geometry":{"type":"Polygon","coordinates":[[[-108.028984,45.489504],[-108.03414,45.489506],[-108.036719,45.489508],[-108.038008,45.489509],[-108.039297,45.48951],[-108.041875,45.489512],[-108.043164,45.489513],[-108.044454,45.489514],[-108.04961,45.489514],[-108.049605,45.493155],[-108.049599,45.496796],[-108.049593,45.500437],[-108.049586,45.504078],[-108.04443,45.504067],[-108.04314,45.504063],[-108.041851,45.504059],[-108.039272,45.504052],[-108.034116,45.504039],[-108.028959,45.504026],[-108.028966,45.500395],[-108.028973,45.496765],[-108.028979,45.493134],[-108.028984,45.489504]]]}},{"type":"Feature","properties":{"sec":"16","frstdivid":"MT200040S0300E0SN160"},"geometry":{"type":"Polygon","coordinates":[[[-108.008335,45.47495],[-108.013499,45.474957],[-108.018662,45.474964],[-108.023826,45.474971],[-108.026408,45.474974],[-108.027699,45.474976],[-108.02899,45.474977],[-108.028989,45.475885],[-108.028989,45.476793],[-108.028989,45.477701],[-108.028989,45.478609],[-108.028988,45.479517],[-108.028988,45.480425],[-108.028988,45.481333],[-108.028987,45.482241],[-108.028987,45.483148],[-108.028986,45.484056],[-108.028986,45.484964],[-108.028986,45.485872],[-108.028985,45.48678],[-108.028985,45.487688],[-108.028984,45.488596],[-108.028984,45.489504],[-108.027694,45.489503],[-108.026404,45.489501],[-108.023825,45.4895],[-108.018666,45.489497],[-108.016087,45.489495],[-108.013508,45.489494],[-108.008349,45.48949],[-108.008346,45.485855],[-108.008343,45.48222],[-108.008339,45.478585],[-108.008335,45.47495]]]}},{"type":"Feature","properties":{"sec":"28","frstdivid":"MT200040S0300E0SN280"},"geometry":{"type":"Polygon","coordinates":[[[-108.008264,45.445896],[-108.013418,45.445903],[-108.015995,45.445904],[-108.018573,45.445905],[-108.023728,45.445911],[-108.028883,45.445915],[-108.028901,45.449545],[-108.028917,45.453176],[-108.028934,45.456807],[-108.028949,45.460437],[-108.023789,45.460434],[-108.018629,45.460431],[-108.013469,45.460428],[-108.00831,45.460423],[-108.008299,45.456792],[-108.008288,45.45316],[-108.008283,45.451344],[-108.008281,45.450436],[-108.008279,45.449528],[-108.008264,45.445896]]]}},{"type":"Feature","properties":{"sec":"14","frstdivid":"MT200040S0300E0SN140"},"geometry":{"type":"Polygon","coordinates":[[[-107.967117,45.474946],[-107.972265,45.47495],[-107.977414,45.474953],[-107.982562,45.474955],[-107.98771,45.474957],[-107.987716,45.478592],[-107.98772,45.482226],[-107.987724,45.485861],[-107.987728,45.489495],[-107.982582,45.489493],[-107.977436,45.489491],[-107.97229,45.489488],[-107.967145,45.489485],[-107.967139,45.48585],[-107.967132,45.482215],[-107.967125,45.478581],[-107.967117,45.474946]]]}},{"type":"Feature","properties":{"sec":"29","frstdivid":"MT200040S0300E0SN290"},"geometry":{"type":"Polygon","coordinates":[[[-108.028883,45.445915],[-108.034037,45.445925],[-108.039191,45.445935],[-108.044345,45.445942],[-108.049499,45.445946],[-108.049516,45.449576],[-108.049532,45.453206],[-108.049548,45.456837],[-108.049563,45.460467],[-108.044409,45.460463],[-108.039256,45.460456],[-108.034103,45.460447],[-108.028949,45.460437],[-108.028934,45.456807],[-108.028917,45.453176],[-108.028901,45.449545],[-108.028883,45.445915]]]}},{"type":"Feature","properties":{"sec":"05","frstdivid":"MT200040S0300E0SN050"},"geometry":{"type":"Polygon","coordinates":[[[-108.028959,45.504026],[-108.034116,45.504039],[-108.039272,45.504052],[-108.041851,45.504059],[-108.04314,45.504063],[-108.04443,45.504067],[-108.049586,45.504078],[-108.049599,45.507706],[-108.049611,45.511334],[-108.049626,45.514958],[-108.049641,45.518555],[-108.044479,45.518559],[-108.039318,45.518563],[-108.034161,45.518562],[-108.029003,45.51856],[-108.028993,45.514907],[-108.028982,45.511283],[-108.028971,45.507655],[-108.028959,45.504026]]]}},{"type":"Feature","properties":{"sec":"25","frstdivid":"MT200040S0300E0SN250"},"geometry":{"type":"Polygon","coordinates":[[[-107.946435,45.445824],[-107.951655,45.445839],[-107.95679,45.445848],[-107.961925,45.445854],[-107.96706,45.445858],[-107.967073,45.449495],[-107.967083,45.453131],[-107.967092,45.456768],[-107.967101,45.460404],[-107.961963,45.460399],[-107.956825,45.460393],[-107.951686,45.460385],[-107.946431,45.460375],[-107.946433,45.456738],[-107.946434,45.4531],[-107.946435,45.449462],[-107.946435,45.445824]]]}},{"type":"Feature","properties":{"sec":"26","frstdivid":"MT200040S0300E0SN260"},"geometry":{"type":"Polygon","coordinates":[[[-107.96706,45.445858],[-107.972209,45.445864],[-107.977358,45.44587],[-107.982507,45.445876],[-107.987655,45.445881],[-107.987668,45.449516],[-107.987669,45.450424],[-107.98767,45.451333],[-107.987673,45.45315],[-107.987681,45.456785],[-107.987688,45.460419],[-107.982541,45.460416],[-107.977395,45.460413],[-107.972248,45.460409],[-107.967101,45.460404],[-107.967092,45.456768],[-107.967083,45.453131],[-107.967073,45.449495],[-107.96706,45.445858]]]}},{"type":"Feature","properties":{"sec":"09","frstdivid":"MT200040S0300E0SN090"},"geometry":{"type":"Polygon","coordinates":[[[-108.008349,45.48949],[-108.013508,45.489494],[-108.016087,45.489495],[-108.018666,45.489497],[-108.023825,45.4895],[-108.026404,45.489501],[-108.027694,45.489503],[-108.028984,45.489504],[-108.028979,45.493134],[-108.028973,45.496765],[-108.028966,45.500395],[-108.028959,45.504026],[-108.023809,45.50403],[-108.018659,45.504034],[-108.01351,45.504038],[-108.00836,45.504042],[-108.008359,45.500404],[-108.008356,45.496766],[-108.008354,45.493128],[-108.008351,45.491309],[-108.008349,45.48949]]]}}]}