{"type":"FeatureCollection","note":"BLM Public Land Survey System. Provided by the Bureau of Land Management as is. These data are neither legal documents nor land surveys and must not be used as such.","features":[{"type":"Feature","properties":{"sec":"35","frstdivid":"WY060580N0770W0SN350"},"geometry":{"type":"Polygon","coordinates":[[[-106.105427,44.955405],[-106.105848,44.955404],[-106.110536,44.955388],[-106.110947,44.955387],[-106.115645,44.955371],[-106.116045,44.95537],[-106.116047,44.958048],[-106.11605,44.961665],[-106.11605,44.965281],[-106.116051,44.968898],[-106.11095,44.968901],[-106.10585,44.968903],[-106.100749,44.968906],[-106.095649,44.968909],[-106.09565,44.965289],[-106.09565,44.961669],[-106.095651,44.95805],[-106.095651,44.955438],[-106.100319,44.955422],[-106.10075,44.955421],[-106.105427,44.955405]]]}},{"type":"Feature","properties":{"sec":"22","frstdivid":"WY060580N0770W0SN220"},"geometry":{"type":"Polygon","coordinates":[[[-106.126288,44.993316],[-106.121606,44.99333],[-106.121187,44.993332],[-106.116517,44.99335],[-106.116087,44.993352],[-106.116089,44.990598],[-106.116092,44.986982],[-106.116095,44.983732],[-106.116095,44.983365],[-106.121194,44.983369],[-106.126294,44.983373],[-106.130883,44.983377],[-106.131393,44.983378],[-106.136493,44.983385],[-106.136493,44.983934],[-106.136492,44.987005],[-106.136492,44.987554],[-106.136492,44.990627],[-106.136492,44.99117],[-106.136491,44.99333],[-106.131803,44.993309],[-106.13139,44.993308],[-106.130095,44.993303],[-106.126704,44.993314],[-106.126288,44.993316]]]}},{"type":"Feature","properties":{"sec":"24","frstdivid":"WY060580N0770W0SN240"},"geometry":{"type":"Polygon","coordinates":[[[-106.095689,44.99347],[-106.091038,44.993503],[-106.090592,44.993507],[-106.089659,44.993514],[-106.085931,44.993509],[-106.085494,44.993509],[-106.080825,44.993503],[-106.080396,44.993503],[-106.075723,44.993499],[-106.074743,44.993498],[-106.07478,44.9906],[-106.074787,44.989479],[-106.074788,44.989179],[-106.074798,44.98698],[-106.074804,44.985559],[-106.074814,44.98336],[-106.080397,44.983367],[-106.085496,44.983373],[-106.090595,44.98338],[-106.095184,44.983385],[-106.095694,44.983384],[-106.095694,44.98357],[-106.095692,44.987005],[-106.09569,44.990627],[-106.095689,44.99347]]]}},{"type":"Feature","properties":{"sec":"26","frstdivid":"WY060580N0770W0SN260"},"geometry":{"type":"Polygon","coordinates":[[[-106.100794,44.983382],[-106.100283,44.983383],[-106.095694,44.983384],[-106.095692,44.97995],[-106.095691,44.979765],[-106.095684,44.97633],[-106.095683,44.976147],[-106.095666,44.972528],[-106.095649,44.968909],[-106.100749,44.968906],[-106.10585,44.968903],[-106.11095,44.968901],[-106.116051,44.968898],[-106.116066,44.972514],[-106.116081,44.97613],[-106.11609,44.979747],[-106.116091,44.980115],[-106.116095,44.983365],[-106.110995,44.983371],[-106.105894,44.983377],[-106.100794,44.983382]]]}},{"type":"Feature","properties":{"sec":"28","frstdivid":"WY060580N0770W0SN280"},"geometry":{"type":"Polygon","coordinates":[[[-106.146686,44.983377],[-106.14159,44.983381],[-106.136493,44.983385],[-106.136482,44.979765],[-106.13647,44.976145],[-106.136459,44.972525],[-106.136448,44.968905],[-106.141548,44.968906],[-106.146647,44.968906],[-106.151747,44.968907],[-106.156846,44.968908],[-106.156855,44.972523],[-106.156863,44.976138],[-106.156871,44.979753],[-106.15688,44.983369],[-106.151783,44.983373],[-106.146686,44.983377]]]}},{"type":"Feature","properties":{"sec":"21","frstdivid":"WY060580N0770W0SN210"},"geometry":{"type":"Polygon","coordinates":[[[-106.151783,44.983373],[-106.15688,44.983369],[-106.15687,44.986986],[-106.15686,44.990603],[-106.156854,44.993425],[-106.151855,44.993397],[-106.15176,44.993396],[-106.150248,44.993388],[-106.146728,44.993375],[-106.14667,44.993375],[-106.141605,44.993354],[-106.141581,44.993354],[-106.136901,44.993331],[-106.136491,44.99333],[-106.136492,44.99117],[-106.136492,44.990627],[-106.136492,44.987554],[-106.136492,44.987005],[-106.136493,44.983934],[-106.136493,44.983385],[-106.14159,44.983381],[-106.146686,44.983377],[-106.151783,44.983373]]]}},{"type":"Feature","properties":{"sec":"27","frstdivid":"WY060580N0770W0SN270"},"geometry":{"type":"Polygon","coordinates":[[[-106.136459,44.972525],[-106.13647,44.976145],[-106.136482,44.979765],[-106.136493,44.983385],[-106.131393,44.983378],[-106.130883,44.983377],[-106.126294,44.983373],[-106.121194,44.983369],[-106.116095,44.983365],[-106.116091,44.980115],[-106.11609,44.979747],[-106.116081,44.97613],[-106.116066,44.972514],[-106.116051,44.968898],[-106.12115,44.9689],[-106.126249,44.968901],[-106.131349,44.968903],[-106.136448,44.968905],[-106.136459,44.972525]]]}},{"type":"Feature","properties":{"sec":"25","frstdivid":"WY060580N0770W0SN250"},"geometry":{"type":"Polygon","coordinates":[[[-106.095666,44.972528],[-106.095683,44.976147],[-106.095684,44.97633],[-106.095691,44.979765],[-106.095692,44.97995],[-106.095694,44.983384],[-106.095184,44.983385],[-106.090595,44.98338],[-106.085496,44.983373],[-106.080397,44.983367],[-106.074814,44.98336],[-106.074822,44.982218],[-106.074819,44.981939],[-106.074811,44.979748],[-106.074804,44.978893],[-106.074798,44.978319],[-106.07478,44.976137],[-106.074773,44.975566],[-106.07477,44.974699],[-106.074753,44.972526],[-106.07475,44.97224],[-106.074737,44.971079],[-106.074714,44.968915],[-106.080349,44.968914],[-106.085448,44.968913],[-106.090549,44.968911],[-106.095649,44.968909],[-106.095666,44.972528]]]}},{"type":"Feature","properties":{"sec":"30","frstdivid":"WY060580N0770W0SN300"},"geometry":{"type":"Polygon","coordinates":[[[-106.192544,44.96889],[-106.196985,44.968888],[-106.196988,44.971946],[-106.196988,44.97251],[-106.196991,44.975351],[-106.19699,44.976131],[-106.196992,44.978756],[-106.196992,44.979752],[-106.196994,44.982161],[-106.196993,44.983374],[-106.192576,44.983374],[-106.187476,44.983376],[-106.182376,44.983378],[-106.177276,44.983381],[-106.177263,44.979761],[-106.177251,44.976758],[-106.177251,44.976141],[-106.177249,44.973138],[-106.177248,44.972521],[-106.177246,44.969519],[-106.177246,44.968901],[-106.177414,44.968901],[-106.182345,44.968897],[-106.187445,44.968892],[-106.192544,44.96889]]]}},{"type":"Feature","properties":{"sec":"19","frstdivid":"WY060580N0770W0SN190"},"geometry":{"type":"Polygon","coordinates":[[[-106.196993,44.983374],[-106.196991,44.985566],[-106.196989,44.986993],[-106.196988,44.988971],[-106.196986,44.990612],[-106.196984,44.992376],[-106.196983,44.993632],[-106.192705,44.993611],[-106.192577,44.99361],[-106.190869,44.993602],[-106.187607,44.993585],[-106.187477,44.993585],[-106.18251,44.993559],[-106.182378,44.993559],[-106.177408,44.993533],[-106.177279,44.993533],[-106.177278,44.99062],[-106.177277,44.987001],[-106.177276,44.983381],[-106.182376,44.983378],[-106.187476,44.983376],[-106.192576,44.983374],[-106.196993,44.983374]]]}},{"type":"Feature","properties":{"sec":"20","frstdivid":"WY060580N0770W0SN200"},"geometry":{"type":"Polygon","coordinates":[[[-106.167078,44.983375],[-106.172177,44.983378],[-106.177276,44.983381],[-106.177277,44.987001],[-106.177278,44.99062],[-106.177279,44.993533],[-106.172306,44.993506],[-106.172172,44.993506],[-106.17056,44.993497],[-106.167203,44.99348],[-106.167066,44.993479],[-106.1621,44.993453],[-106.161959,44.993453],[-106.156978,44.993426],[-106.156854,44.993425],[-106.15686,44.990603],[-106.15687,44.986986],[-106.15688,44.983369],[-106.161979,44.983372],[-106.167078,44.983375]]]}},{"type":"Feature","properties":{"sec":"36","frstdivid":"WY060580N0770W0SN360"},"geometry":{"type":"Polygon","coordinates":[[[-106.095651,44.955438],[-106.095651,44.95805],[-106.09565,44.961669],[-106.09565,44.965289],[-106.095649,44.968909],[-106.090549,44.968911],[-106.085448,44.968913],[-106.080349,44.968914],[-106.074714,44.968915],[-106.074706,44.967459],[-106.0747,44.965295],[-106.074691,44.96384],[-106.074683,44.962263],[-106.074684,44.961675],[-106.074693,44.96022],[-106.074711,44.958055],[-106.074718,44.956696],[-106.074724,44.95555],[-106.079894,44.95551],[-106.08034,44.955506],[-106.084999,44.95547],[-106.085445,44.955466],[-106.090105,44.955453],[-106.090548,44.955452],[-106.09521,44.955439],[-106.095651,44.955438]]]}},{"type":"Feature","properties":{"sec":"23","frstdivid":"WY060580N0770W0SN230"},"geometry":{"type":"Polygon","coordinates":[[[-106.095694,44.983384],[-106.100283,44.983383],[-106.100794,44.983382],[-106.105894,44.983377],[-106.110995,44.983371],[-106.116095,44.983365],[-106.116095,44.983732],[-106.116092,44.986982],[-106.116089,44.990598],[-106.116087,44.993352],[-106.111428,44.993368],[-106.110987,44.99337],[-106.109841,44.993374],[-106.106339,44.993398],[-106.105887,44.993402],[-106.101251,44.993432],[-106.100788,44.993436],[-106.096144,44.993466],[-106.095689,44.99347],[-106.09569,44.990627],[-106.095692,44.987005],[-106.095694,44.98357],[-106.095694,44.983384]]]}},{"type":"Feature","properties":{"sec":"33","frstdivid":"WY060580N0770W0SN330"},"geometry":{"type":"Polygon","coordinates":[[[-106.146647,44.968906],[-106.141548,44.968906],[-106.136448,44.968905],[-106.136441,44.965285],[-106.136434,44.961666],[-106.136431,44.958046],[-106.136428,44.95525],[-106.136597,44.955248],[-106.141132,44.955185],[-106.14153,44.95518],[-106.146218,44.955114],[-106.146631,44.955109],[-106.146822,44.955106],[-106.151305,44.955092],[-106.151733,44.955091],[-106.156392,44.955076],[-106.156835,44.955074],[-106.156837,44.958057],[-106.156838,44.961675],[-106.156842,44.965291],[-106.156846,44.968908],[-106.151747,44.968907],[-106.146647,44.968906]]]}},{"type":"Feature","properties":{"sec":"29","frstdivid":"WY060580N0770W0SN290"},"geometry":{"type":"Polygon","coordinates":[[[-106.162097,44.968906],[-106.167046,44.968904],[-106.167202,44.968904],[-106.172146,44.968903],[-106.172308,44.968903],[-106.177246,44.968901],[-106.177246,44.969519],[-106.177248,44.972521],[-106.177249,44.973138],[-106.177251,44.976141],[-106.177251,44.976758],[-106.177263,44.979761],[-106.177276,44.983381],[-106.172177,44.983378],[-106.167078,44.983375],[-106.161979,44.983372],[-106.15688,44.983369],[-106.156871,44.979753],[-106.156863,44.976138],[-106.156855,44.972523],[-106.156846,44.968908],[-106.156992,44.968908],[-106.161946,44.968906],[-106.162097,44.968906]]]}},{"type":"Feature","properties":{"sec":"32","frstdivid":"WY060580N0770W0SN320"},"geometry":{"type":"Polygon","coordinates":[[[-106.172128,44.955047],[-106.176848,44.95504],[-106.177225,44.955039],[-106.177233,44.958042],[-106.177245,44.961662],[-106.177245,44.962279],[-106.177245,44.965282],[-106.177245,44.965899],[-106.177246,44.968901],[-106.172308,44.968903],[-106.172146,44.968903],[-106.167202,44.968904],[-106.167046,44.968904],[-106.162097,44.968906],[-106.161946,44.968906],[-106.156992,44.968908],[-106.156846,44.968908],[-106.156842,44.965291],[-106.156838,44.961675],[-106.156837,44.958057],[-106.156835,44.955074],[-106.156981,44.955074],[-106.161506,44.955066],[-106.161933,44.955065],[-106.16662,44.955058],[-106.16703,44.955056],[-106.167189,44.955056],[-106.171734,44.955048],[-106.172128,44.955047]]]}},{"type":"Feature","properties":{"sec":"34","frstdivid":"WY060580N0770W0SN340"},"geometry":{"type":"Polygon","coordinates":[[[-106.136441,44.965285],[-106.136448,44.968905],[-106.131349,44.968903],[-106.126249,44.968901],[-106.12115,44.9689],[-106.116051,44.968898],[-106.11605,44.965281],[-106.11605,44.961665],[-106.116047,44.958048],[-106.116045,44.95537],[-106.120745,44.955359],[-106.121144,44.955358],[-106.125846,44.955347],[-106.126242,44.955346],[-106.130946,44.955302],[-106.131335,44.955298],[-106.136046,44.955254],[-106.136428,44.95525],[-106.136431,44.958046],[-106.136434,44.961666],[-106.136441,44.965285]]]}},{"type":"Feature","properties":{"sec":"31","frstdivid":"WY060580N0770W0SN310"},"geometry":{"type":"Polygon","coordinates":[[[-106.196988,44.954921],[-106.196987,44.95803],[-106.196987,44.958326],[-106.196987,44.961649],[-106.196987,44.961731],[-106.196986,44.965136],[-106.196986,44.965269],[-106.196986,44.968541],[-106.196985,44.968888],[-106.192544,44.96889],[-106.187445,44.968892],[-106.182345,44.968897],[-106.177414,44.968901],[-106.177246,44.968901],[-106.177245,44.965899],[-106.177245,44.965282],[-106.177245,44.962279],[-106.177245,44.961662],[-106.177233,44.958042],[-106.177225,44.955039],[-106.177398,44.955038],[-106.181948,44.95501],[-106.182325,44.955009],[-106.187048,44.95498],[-106.187425,44.954978],[-106.187484,44.954978],[-106.192148,44.954949],[-106.192525,44.954948],[-106.196988,44.954921]]]}},{"type":"Feature","properties":{"sec":"35","frstdivid":"WY060580N0770W0SN350"},"geometry":{"type":"Polygon","coordinates":[[[-106.105427,44.955405],[-106.105848,44.955404],[-106.110536,44.955388],[-106.110947,44.955387],[-106.115645,44.955371],[-106.116045,44.95537],[-106.116047,44.958048],[-106.11605,44.961665],[-106.11605,44.965281],[-106.116051,44.968898],[-106.11095,44.968901],[-106.10585,44.968903],[-106.100749,44.968906],[-106.095649,44.968909],[-106.09565,44.965289],[-106.09565,44.961669],[-106.095651,44.95805],[-106.095651,44.955438],[-106.100319,44.955422],[-106.10075,44.955421],[-106.105427,44.955405]]]}},{"type":"Feature","properties":{"sec":"22","frstdivid":"WY060580N0770W0SN220"},"geometry":{"type":"Polygon","coordinates":[[[-106.126288,44.993316],[-106.121606,44.99333],[-106.121187,44.993332],[-106.116517,44.99335],[-106.116087,44.993352],[-106.116089,44.990598],[-106.116092,44.986982],[-106.116095,44.983732],[-106.116095,44.983365],[-106.121194,44.983369],[-106.126294,44.983373],[-106.130883,44.983377],[-106.131393,44.983378],[-106.136493,44.983385],[-106.136493,44.983934],[-106.136492,44.987005],[-106.136492,44.987554],[-106.136492,44.990627],[-106.136492,44.99117],[-106.136491,44.99333],[-106.131803,44.993309],[-106.13139,44.993308],[-106.130095,44.993303],[-106.126704,44.993314],[-106.126288,44.993316]]]}},{"type":"Feature","properties":{"sec":"24","frstdivid":"WY060580N0770W0SN240"},"geometry":{"type":"Polygon","coordinates":[[[-106.095689,44.99347],[-106.091038,44.993503],[-106.090592,44.993507],[-106.089659,44.993514],[-106.085931,44.993509],[-106.085494,44.993509],[-106.080825,44.993503],[-106.080396,44.993503],[-106.075723,44.993499],[-106.074743,44.993498],[-106.07478,44.9906],[-106.074787,44.989479],[-106.074788,44.989179],[-106.074798,44.98698],[-106.074804,44.985559],[-106.074814,44.98336],[-106.080397,44.983367],[-106.085496,44.983373],[-106.090595,44.98338],[-106.095184,44.983385],[-106.095694,44.983384],[-106.095694,44.98357],[-106.095692,44.987005],[-106.09569,44.990627],[-106.095689,44.99347]]]}},{"type":"Feature","properties":{"sec":"26","frstdivid":"WY060580N0770W0SN260"},"geometry":{"type":"Polygon","coordinates":[[[-106.100794,44.983382],[-106.100283,44.983383],[-106.095694,44.983384],[-106.095692,44.97995],[-106.095691,44.979765],[-106.095684,44.97633],[-106.095683,44.976147],[-106.095666,44.972528],[-106.095649,44.968909],[-106.100749,44.968906],[-106.10585,44.968903],[-106.11095,44.968901],[-106.116051,44.968898],[-106.116066,44.972514],[-106.116081,44.97613],[-106.11609,44.979747],[-106.116091,44.980115],[-106.116095,44.983365],[-106.110995,44.983371],[-106.105894,44.983377],[-106.100794,44.983382]]]}},{"type":"Feature","properties":{"sec":"28","frstdivid":"WY060580N0770W0SN280"},"geometry":{"type":"Polygon","coordinates":[[[-106.146686,44.983377],[-106.14159,44.983381],[-106.136493,44.983385],[-106.136482,44.979765],[-106.13647,44.976145],[-106.136459,44.972525],[-106.136448,44.968905],[-106.141548,44.968906],[-106.146647,44.968906],[-106.151747,44.968907],[-106.156846,44.968908],[-106.156855,44.972523],[-106.156863,44.976138],[-106.156871,44.979753],[-106.15688,44.983369],[-106.151783,44.983373],[-106.146686,44.983377]]]}},{"type":"Feature","properties":{"sec":"21","frstdivid":"WY060580N0770W0SN210"},"geometry":{"type":"Polygon","coordinates":[[[-106.151783,44.983373],[-106.15688,44.983369],[-106.15687,44.986986],[-106.15686,44.990603],[-106.156854,44.993425],[-106.151855,44.993397],[-106.15176,44.993396],[-106.150248,44.993388],[-106.146728,44.993375],[-106.14667,44.993375],[-106.141605,44.993354],[-106.141581,44.993354],[-106.136901,44.993331],[-106.136491,44.99333],[-106.136492,44.99117],[-106.136492,44.990627],[-106.136492,44.987554],[-106.136492,44.987005],[-106.136493,44.983934],[-106.136493,44.983385],[-106.14159,44.983381],[-106.146686,44.983377],[-106.151783,44.983373]]]}},{"type":"Feature","properties":{"sec":"27","frstdivid":"WY060580N0770W0SN270"},"geometry":{"type":"Polygon","coordinates":[[[-106.136459,44.972525],[-106.13647,44.976145],[-106.136482,44.979765],[-106.136493,44.983385],[-106.131393,44.983378],[-106.130883,44.983377],[-106.126294,44.983373],[-106.121194,44.983369],[-106.116095,44.983365],[-106.116091,44.980115],[-106.11609,44.979747],[-106.116081,44.97613],[-106.116066,44.972514],[-106.116051,44.968898],[-106.12115,44.9689],[-106.126249,44.968901],[-106.131349,44.968903],[-106.136448,44.968905],[-106.136459,44.972525]]]}},{"type":"Feature","properties":{"sec":"25","frstdivid":"WY060580N0770W0SN250"},"geometry":{"type":"Polygon","coordinates":[[[-106.095666,44.972528],[-106.095683,44.976147],[-106.095684,44.97633],[-106.095691,44.979765],[-106.095692,44.97995],[-106.095694,44.983384],[-106.095184,44.983385],[-106.090595,44.98338],[-106.085496,44.983373],[-106.080397,44.983367],[-106.074814,44.98336],[-106.074822,44.982218],[-106.074819,44.981939],[-106.074811,44.979748],[-106.074804,44.978893],[-106.074798,44.978319],[-106.07478,44.976137],[-106.074773,44.975566],[-106.07477,44.974699],[-106.074753,44.972526],[-106.07475,44.97224],[-106.074737,44.971079],[-106.074714,44.968915],[-106.080349,44.968914],[-106.085448,44.968913],[-106.090549,44.968911],[-106.095649,44.968909],[-106.095666,44.972528]]]}},{"type":"Feature","properties":{"sec":"30","frstdivid":"WY060580N0770W0SN300"},"geometry":{"type":"Polygon","coordinates":[[[-106.192544,44.96889],[-106.196985,44.968888],[-106.196988,44.971946],[-106.196988,44.97251],[-106.196991,44.975351],[-106.19699,44.976131],[-106.196992,44.978756],[-106.196992,44.979752],[-106.196994,44.982161],[-106.196993,44.983374],[-106.192576,44.983374],[-106.187476,44.983376],[-106.182376,44.983378],[-106.177276,44.983381],[-106.177263,44.979761],[-106.177251,44.976758],[-106.177251,44.976141],[-106.177249,44.973138],[-106.177248,44.972521],[-106.177246,44.969519],[-106.177246,44.968901],[-106.177414,44.968901],[-106.182345,44.968897],[-106.187445,44.968892],[-106.192544,44.96889]]]}},{"type":"Feature","properties":{"sec":"19","frstdivid":"WY060580N0770W0SN190"},"geometry":{"type":"Polygon","coordinates":[[[-106.196993,44.983374],[-106.196991,44.985566],[-106.196989,44.986993],[-106.196988,44.988971],[-106.196986,44.990612],[-106.196984,44.992376],[-106.196983,44.993632],[-106.192705,44.993611],[-106.192577,44.99361],[-106.190869,44.993602],[-106.187607,44.993585],[-106.187477,44.993585],[-106.18251,44.993559],[-106.182378,44.993559],[-106.177408,44.993533],[-106.177279,44.993533],[-106.177278,44.99062],[-106.177277,44.987001],[-106.177276,44.983381],[-106.182376,44.983378],[-106.187476,44.983376],[-106.192576,44.983374],[-106.196993,44.983374]]]}},{"type":"Feature","properties":{"sec":"20","frstdivid":"WY060580N0770W0SN200"},"geometry":{"type":"Polygon","coordinates":[[[-106.167078,44.983375],[-106.172177,44.983378],[-106.177276,44.983381],[-106.177277,44.987001],[-106.177278,44.99062],[-106.177279,44.993533],[-106.172306,44.993506],[-106.172172,44.993506],[-106.17056,44.993497],[-106.167203,44.99348],[-106.167066,44.993479],[-106.1621,44.993453],[-106.161959,44.993453],[-106.156978,44.993426],[-106.156854,44.993425],[-106.15686,44.990603],[-106.15687,44.986986],[-106.15688,44.983369],[-106.161979,44.983372],[-106.167078,44.983375]]]}},{"type":"Feature","properties":{"sec":"36","frstdivid":"WY060580N0770W0SN360"},"geometry":{"type":"Polygon","coordinates":[[[-106.095651,44.955438],[-106.095651,44.95805],[-106.09565,44.961669],[-106.09565,44.965289],[-106.095649,44.968909],[-106.090549,44.968911],[-106.085448,44.968913],[-106.080349,44.968914],[-106.074714,44.968915],[-106.074706,44.967459],[-106.0747,44.965295],[-106.074691,44.96384],[-106.074683,44.962263],[-106.074684,44.961675],[-106.074693,44.96022],[-106.074711,44.958055],[-106.074718,44.956696],[-106.074724,44.95555],[-106.079894,44.95551],[-106.08034,44.955506],[-106.084999,44.95547],[-106.085445,44.955466],[-106.090105,44.955453],[-106.090548,44.955452],[-106.09521,44.955439],[-106.095651,44.955438]]]}},{"type":"Feature","properties":{"sec":"23","frstdivid":"WY060580N0770W0SN230"},"geometry":{"type":"Polygon","coordinates":[[[-106.095694,44.983384],[-106.100283,44.983383],[-106.100794,44.983382],[-106.105894,44.983377],[-106.110995,44.983371],[-106.116095,44.983365],[-106.116095,44.983732],[-106.116092,44.986982],[-106.116089,44.990598],[-106.116087,44.993352],[-106.111428,44.993368],[-106.110987,44.99337],[-106.109841,44.993374],[-106.106339,44.993398],[-106.105887,44.993402],[-106.101251,44.993432],[-106.100788,44.993436],[-106.096144,44.993466],[-106.095689,44.99347],[-106.09569,44.990627],[-106.095692,44.987005],[-106.095694,44.98357],[-106.095694,44.983384]]]}},{"type":"Feature","properties":{"sec":"33","frstdivid":"WY060580N0770W0SN330"},"geometry":{"type":"Polygon","coordinates":[[[-106.146647,44.968906],[-106.141548,44.968906],[-106.136448,44.968905],[-106.136441,44.965285],[-106.136434,44.961666],[-106.136431,44.958046],[-106.136428,44.95525],[-106.136597,44.955248],[-106.141132,44.955185],[-106.14153,44.95518],[-106.146218,44.955114],[-106.146631,44.955109],[-106.146822,44.955106],[-106.151305,44.955092],[-106.151733,44.955091],[-106.156392,44.955076],[-106.156835,44.955074],[-106.156837,44.958057],[-106.156838,44.961675],[-106.156842,44.965291],[-106.156846,44.968908],[-106.151747,44.968907],[-106.146647,44.968906]]]}},{"type":"Feature","properties":{"sec":"29","frstdivid":"WY060580N0770W0SN290"},"geometry":{"type":"Polygon","coordinates":[[[-106.162097,44.968906],[-106.167046,44.968904],[-106.167202,44.968904],[-106.172146,44.968903],[-106.172308,44.968903],[-106.177246,44.968901],[-106.177246,44.969519],[-106.177248,44.972521],[-106.177249,44.973138],[-106.177251,44.976141],[-106.177251,44.976758],[-106.177263,44.979761],[-106.177276,44.983381],[-106.172177,44.983378],[-106.167078,44.983375],[-106.161979,44.983372],[-106.15688,44.983369],[-106.156871,44.979753],[-106.156863,44.976138],[-106.156855,44.972523],[-106.156846,44.968908],[-106.156992,44.968908],[-106.161946,44.968906],[-106.162097,44.968906]]]}},{"type":"Feature","properties":{"sec":"32","frstdivid":"WY060580N0770W0SN320"},"geometry":{"type":"Polygon","coordinates":[[[-106.172128,44.955047],[-106.176848,44.95504],[-106.177225,44.955039],[-106.177233,44.958042],[-106.177245,44.961662],[-106.177245,44.962279],[-106.177245,44.965282],[-106.177245,44.965899],[-106.177246,44.968901],[-106.172308,44.968903],[-106.172146,44.968903],[-106.167202,44.968904],[-106.167046,44.968904],[-106.162097,44.968906],[-106.161946,44.968906],[-106.156992,44.968908],[-106.156846,44.968908],[-106.156842,44.965291],[-106.156838,44.961675],[-106.156837,44.958057],[-106.156835,44.955074],[-106.156981,44.955074],[-106.161506,44.955066],[-106.161933,44.955065],[-106.16662,44.955058],[-106.16703,44.955056],[-106.167189,44.955056],[-106.171734,44.955048],[-106.172128,44.955047]]]}},{"type":"Feature","properties":{"sec":"34","frstdivid":"WY060580N0770W0SN340"},"geometry":{"type":"Polygon","coordinates":[[[-106.136441,44.965285],[-106.136448,44.968905],[-106.131349,44.968903],[-106.126249,44.968901],[-106.12115,44.9689],[-106.116051,44.968898],[-106.11605,44.965281],[-106.11605,44.961665],[-106.116047,44.958048],[-106.116045,44.95537],[-106.120745,44.955359],[-106.121144,44.955358],[-106.125846,44.955347],[-106.126242,44.955346],[-106.130946,44.955302],[-106.131335,44.955298],[-106.136046,44.955254],[-106.136428,44.95525],[-106.136431,44.958046],[-106.136434,44.961666],[-106.136441,44.965285]]]}},{"type":"Feature","properties":{"sec":"31","frstdivid":"WY060580N0770W0SN310"},"geometry":{"type":"Polygon","coordinates":[[[-106.196988,44.954921],[-106.196987,44.95803],[-106.196987,44.958326],[-106.196987,44.961649],[-106.196987,44.961731],[-106.196986,44.965136],[-106.196986,44.965269],[-106.196986,44.968541],[-106.196985,44.968888],[-106.192544,44.96889],[-106.187445,44.968892],[-106.182345,44.968897],[-106.177414,44.968901],[-106.177246,44.968901],[-106.177245,44.965899],[-106.177245,44.965282],[-106.177245,44.962279],[-106.177245,44.961662],[-106.177233,44.958042],[-106.177225,44.955039],[-106.177398,44.955038],[-106.181948,44.95501],[-106.182325,44.955009],[-106.187048,44.95498],[-106.187425,44.954978],[-106.187484,44.954978],[-106.192148,44.954949],[-106.192525,44.954948],[-106.196988,44.954921]]]}}]}