{"type":"FeatureCollection","note":"BLM Public Land Survey System. Provided by the Bureau of Land Management as is. These data are neither legal documents nor land surveys and must not be used as such.","features":[{"type":"Feature","properties":{"sec":"17","frstdivid":"MT200050N0510E0SN170"},"geometry":{"type":"Polygon","coordinates":[[[-105.378227,46.182441],[-105.383453,46.182442],[-105.383455,46.186063],[-105.383457,46.189684],[-105.383459,46.193305],[-105.383461,46.196926],[-105.378242,46.196925],[-105.373023,46.196924],[-105.367804,46.196923],[-105.362585,46.196922],[-105.362576,46.193301],[-105.362567,46.189681],[-105.362558,46.18606],[-105.362549,46.18244],[-105.367775,46.18244],[-105.373001,46.182441],[-105.378227,46.182441]]]}},{"type":"Feature","properties":{"sec":"35","frstdivid":"MT200050N0510E0SN350"},"geometry":{"type":"Polygon","coordinates":[[[-105.300763,46.136453],[-105.305253,46.136456],[-105.305969,46.136456],[-105.310459,46.136458],[-105.311174,46.136458],[-105.314618,46.13646],[-105.315665,46.136464],[-105.319772,46.13648],[-105.320872,46.136484],[-105.320874,46.138974],[-105.320875,46.142596],[-105.320877,46.146218],[-105.320878,46.149842],[-105.320878,46.153466],[-105.315668,46.153469],[-105.310458,46.153472],[-105.305248,46.153475],[-105.300038,46.153478],[-105.300041,46.149854],[-105.300044,46.146231],[-105.300045,46.142609],[-105.300046,46.138988],[-105.300047,46.136453],[-105.300763,46.136453]]]}},{"type":"Feature","properties":{"sec":"15","frstdivid":"MT200050N0510E0SN150"},"geometry":{"type":"Polygon","coordinates":[[[-105.336526,46.182466],[-105.341735,46.182467],[-105.341745,46.18609],[-105.341754,46.189712],[-105.341764,46.193335],[-105.341774,46.196958],[-105.336555,46.196957],[-105.331336,46.196956],[-105.326117,46.196955],[-105.320898,46.196955],[-105.320898,46.193331],[-105.320898,46.189708],[-105.320897,46.186084],[-105.320897,46.182461],[-105.326107,46.182463],[-105.331316,46.182464],[-105.336526,46.182466]]]}},{"type":"Feature","properties":{"sec":"13","frstdivid":"MT200050N0510E0SN130"},"geometry":{"type":"Polygon","coordinates":[[[-105.29491,46.182464],[-105.300117,46.182468],[-105.300113,46.186094],[-105.30011,46.18972],[-105.300106,46.193346],[-105.300103,46.196972],[-105.29489,46.196973],[-105.289677,46.196974],[-105.284465,46.196974],[-105.27937,46.196974],[-105.279418,46.193478],[-105.27942,46.193346],[-105.279467,46.189868],[-105.279468,46.189718],[-105.279485,46.186235],[-105.279485,46.186089],[-105.279502,46.182602],[-105.279499,46.182461],[-105.284494,46.18246],[-105.289703,46.18246],[-105.29491,46.182464]]]}},{"type":"Feature","properties":{"sec":"33","frstdivid":"MT200050N0510E0SN330"},"geometry":{"type":"Polygon","coordinates":[[[-105.362524,46.139036],[-105.362543,46.142654],[-105.362562,46.146271],[-105.362574,46.149888],[-105.362587,46.153505],[-105.357377,46.153505],[-105.352167,46.153506],[-105.346957,46.153507],[-105.341747,46.153507],[-105.341732,46.14989],[-105.341718,46.146274],[-105.341709,46.142656],[-105.341709,46.142632],[-105.341718,46.139038],[-105.341718,46.138991],[-105.341726,46.136496],[-105.34563,46.1365],[-105.346923,46.136502],[-105.35081,46.136508],[-105.352121,46.13651],[-105.35599,46.136514],[-105.357316,46.136514],[-105.361216,46.136516],[-105.36251,46.136516],[-105.362524,46.139036]]]}},{"type":"Feature","properties":{"sec":"16","frstdivid":"MT200050N0510E0SN160"},"geometry":{"type":"Polygon","coordinates":[[[-105.357382,46.196931],[-105.352179,46.19694],[-105.346976,46.196949],[-105.341774,46.196958],[-105.341764,46.193335],[-105.341754,46.189712],[-105.341745,46.18609],[-105.341735,46.182467],[-105.346938,46.18246],[-105.352142,46.182454],[-105.357345,46.182447],[-105.362549,46.18244],[-105.362558,46.18606],[-105.362567,46.189681],[-105.362576,46.193301],[-105.362585,46.196922],[-105.357382,46.196931]]]}},{"type":"Feature","properties":{"sec":"09","frstdivid":"MT200050N0510E0SN090"},"geometry":{"type":"Polygon","coordinates":[[[-105.362585,46.196922],[-105.362605,46.200552],[-105.362625,46.204183],[-105.362645,46.207814],[-105.362666,46.211445],[-105.357451,46.211446],[-105.352237,46.211447],[-105.347023,46.211448],[-105.341808,46.211448],[-105.3418,46.207826],[-105.341791,46.204203],[-105.341782,46.20058],[-105.341774,46.196958],[-105.346976,46.196949],[-105.352179,46.19694],[-105.357382,46.196931],[-105.362585,46.196922]]]}},{"type":"Feature","properties":{"sec":"11","frstdivid":"MT200050N0510E0SN110"},"geometry":{"type":"Polygon","coordinates":[[[-105.315699,46.196959],[-105.320898,46.196955],[-105.320908,46.200576],[-105.320918,46.204197],[-105.320928,46.207818],[-105.320938,46.211439],[-105.31573,46.211448],[-105.310521,46.211456],[-105.305313,46.211464],[-105.300105,46.211472],[-105.300104,46.207847],[-105.300104,46.204222],[-105.300103,46.200597],[-105.300103,46.196972],[-105.305301,46.196968],[-105.3105,46.196963],[-105.315699,46.196959]]]}},{"type":"Feature","properties":{"sec":"06","frstdivid":"MT200050N0510E0SN060"},"geometry":{"type":"Polygon","coordinates":[[[-105.40385,46.211411],[-105.403847,46.211863],[-105.403607,46.215036],[-105.403572,46.215493],[-105.403333,46.21866],[-105.403296,46.219123],[-105.403048,46.222283],[-105.403041,46.222373],[-105.402786,46.225624],[-105.398717,46.225642],[-105.398703,46.225642],[-105.393999,46.225663],[-105.388704,46.225638],[-105.383408,46.225612],[-105.383433,46.222278],[-105.38346,46.218658],[-105.383489,46.215037],[-105.383519,46.211417],[-105.388737,46.211415],[-105.393956,46.211413],[-105.399172,46.211412],[-105.40385,46.211411]]]}},{"type":"Feature","properties":{"sec":"12","frstdivid":"MT200050N0510E0SN120"},"geometry":{"type":"Polygon","coordinates":[[[-105.279347,46.200597],[-105.279368,46.197088],[-105.27937,46.196974],[-105.284465,46.196974],[-105.289677,46.196974],[-105.29489,46.196973],[-105.300103,46.196972],[-105.300103,46.200597],[-105.300104,46.204222],[-105.300104,46.207847],[-105.300105,46.211472],[-105.294897,46.211469],[-105.289688,46.211465],[-105.284478,46.211464],[-105.279281,46.211462],[-105.279302,46.207984],[-105.279303,46.20784],[-105.279324,46.204353],[-105.279325,46.204219],[-105.279346,46.200721],[-105.279347,46.200597]]]}},{"type":"Feature","properties":{"sec":"05","frstdivid":"MT200050N0510E0SN050"},"geometry":{"type":"Polygon","coordinates":[[[-105.383433,46.222278],[-105.383408,46.225612],[-105.378296,46.225555],[-105.373184,46.225498],[-105.367926,46.225583],[-105.362668,46.225668],[-105.362666,46.222307],[-105.362664,46.218687],[-105.362665,46.215066],[-105.362666,46.211445],[-105.367879,46.211438],[-105.373092,46.211431],[-105.378305,46.211424],[-105.383519,46.211417],[-105.383489,46.215037],[-105.38346,46.218658],[-105.383433,46.222278]]]}},{"type":"Feature","properties":{"sec":"32","frstdivid":"MT200050N0510E0SN320"},"geometry":{"type":"Polygon","coordinates":[[[-105.382152,46.13654],[-105.383363,46.13654],[-105.383369,46.138993],[-105.383379,46.142615],[-105.38339,46.146236],[-105.383404,46.149859],[-105.383418,46.153482],[-105.378211,46.153487],[-105.373003,46.153493],[-105.367795,46.153499],[-105.362587,46.153505],[-105.362574,46.149888],[-105.362562,46.146271],[-105.362543,46.142654],[-105.362524,46.139036],[-105.36251,46.136516],[-105.366442,46.136521],[-105.367723,46.136523],[-105.371682,46.13653],[-105.372935,46.136533],[-105.376922,46.136537],[-105.378149,46.136538],[-105.382152,46.13654]]]}},{"type":"Feature","properties":{"sec":"18","frstdivid":"MT200050N0510E0SN180"},"geometry":{"type":"Polygon","coordinates":[[[-105.393879,46.196923],[-105.38867,46.196924],[-105.383461,46.196926],[-105.383459,46.193305],[-105.383457,46.189684],[-105.383455,46.186063],[-105.383453,46.182442],[-105.388659,46.18244],[-105.393866,46.182438],[-105.399074,46.182437],[-105.404152,46.182436],[-105.404145,46.182924],[-105.404108,46.186057],[-105.404102,46.186543],[-105.404065,46.189679],[-105.404059,46.190162],[-105.404022,46.1933],[-105.404016,46.193781],[-105.403979,46.196922],[-105.399089,46.196922],[-105.393879,46.196923]]]}},{"type":"Feature","properties":{"sec":"19","frstdivid":"MT200050N0510E0SN190"},"geometry":{"type":"Polygon","coordinates":[[[-105.399074,46.182437],[-105.393866,46.182438],[-105.388659,46.18244],[-105.383453,46.182442],[-105.383451,46.178821],[-105.383449,46.175201],[-105.383447,46.171581],[-105.383445,46.16796],[-105.388653,46.167958],[-105.39386,46.167955],[-105.399068,46.167954],[-105.404318,46.167952],[-105.404313,46.168423],[-105.404277,46.171573],[-105.404271,46.172048],[-105.404235,46.175194],[-105.404229,46.175674],[-105.404193,46.178815],[-105.404188,46.179299],[-105.404152,46.182436],[-105.399074,46.182437]]]}},{"type":"Feature","properties":{"sec":"07","frstdivid":"MT200050N0510E0SN070"},"geometry":{"type":"Polygon","coordinates":[[[-105.403974,46.1974],[-105.403946,46.200544],[-105.403942,46.201016],[-105.403914,46.204167],[-105.40391,46.204631],[-105.403882,46.207789],[-105.403878,46.208247],[-105.40385,46.211411],[-105.399172,46.211412],[-105.393956,46.211413],[-105.388737,46.211415],[-105.383519,46.211417],[-105.383504,46.207794],[-105.38349,46.204171],[-105.383476,46.200548],[-105.383461,46.196926],[-105.38867,46.196924],[-105.393879,46.196923],[-105.399089,46.196922],[-105.403979,46.196922],[-105.403974,46.1974]]]}},{"type":"Feature","properties":{"sec":"34","frstdivid":"MT200050N0510E0SN340"},"geometry":{"type":"Polygon","coordinates":[[[-105.320878,46.153466],[-105.320878,46.149842],[-105.320877,46.146218],[-105.320875,46.142596],[-105.320874,46.138974],[-105.320872,46.136484],[-105.324927,46.136487],[-105.326084,46.136488],[-105.330084,46.136492],[-105.331295,46.136493],[-105.335242,46.136496],[-105.33651,46.136496],[-105.340436,46.136496],[-105.341726,46.136496],[-105.341718,46.138991],[-105.341718,46.139038],[-105.341709,46.142632],[-105.341709,46.142656],[-105.341718,46.146274],[-105.341732,46.14989],[-105.341747,46.153507],[-105.33653,46.153497],[-105.331313,46.153487],[-105.326095,46.153476],[-105.320878,46.153466]]]}},{"type":"Feature","properties":{"sec":"28","frstdivid":"MT200050N0510E0SN280"},"geometry":{"type":"Polygon","coordinates":[[[-105.357377,46.153505],[-105.362587,46.153505],[-105.36258,46.15712],[-105.362572,46.160736],[-105.362564,46.164352],[-105.362557,46.167968],[-105.357353,46.16797],[-105.352149,46.167973],[-105.346945,46.167975],[-105.341741,46.167978],[-105.341742,46.16436],[-105.341744,46.160743],[-105.341746,46.157125],[-105.341747,46.153507],[-105.346957,46.153507],[-105.352167,46.153506],[-105.357377,46.153505]]]}},{"type":"Feature","properties":{"sec":"29","frstdivid":"MT200050N0510E0SN290"},"geometry":{"type":"Polygon","coordinates":[[[-105.362587,46.153505],[-105.367795,46.153499],[-105.373003,46.153493],[-105.378211,46.153487],[-105.383418,46.153482],[-105.383425,46.157101],[-105.383432,46.160721],[-105.383438,46.164341],[-105.383445,46.16796],[-105.378223,46.167962],[-105.373001,46.167964],[-105.367779,46.167966],[-105.362557,46.167968],[-105.362564,46.164352],[-105.362572,46.160736],[-105.36258,46.15712],[-105.362587,46.153505]]]}},{"type":"Feature","properties":{"sec":"30","frstdivid":"MT200050N0510E0SN300"},"geometry":{"type":"Polygon","coordinates":[[[-105.404376,46.161186],[-105.404349,46.164338],[-105.404345,46.164804],[-105.404318,46.167952],[-105.399068,46.167954],[-105.39386,46.167955],[-105.388653,46.167958],[-105.383445,46.16796],[-105.383438,46.164341],[-105.383432,46.160721],[-105.383425,46.157101],[-105.383418,46.153482],[-105.38863,46.153485],[-105.393842,46.153489],[-105.399052,46.153491],[-105.404444,46.153493],[-105.404439,46.153949],[-105.404412,46.157108],[-105.404408,46.157568],[-105.404381,46.160723],[-105.404376,46.161186]]]}},{"type":"Feature","properties":{"sec":"20","frstdivid":"MT200050N0510E0SN200"},"geometry":{"type":"Polygon","coordinates":[[[-105.362551,46.178822],[-105.362553,46.175204],[-105.362555,46.171586],[-105.362557,46.167968],[-105.367779,46.167966],[-105.373001,46.167964],[-105.378223,46.167962],[-105.383445,46.16796],[-105.383447,46.171581],[-105.383449,46.175201],[-105.383451,46.178821],[-105.383453,46.182442],[-105.378227,46.182441],[-105.373001,46.182441],[-105.367775,46.18244],[-105.362549,46.18244],[-105.362551,46.178822]]]}},{"type":"Feature","properties":{"sec":"26","frstdivid":"MT200050N0510E0SN260"},"geometry":{"type":"Polygon","coordinates":[[[-105.310492,46.167981],[-105.305284,46.167987],[-105.300076,46.167993],[-105.300067,46.164364],[-105.300057,46.160735],[-105.300047,46.157107],[-105.300038,46.153478],[-105.305248,46.153475],[-105.310458,46.153472],[-105.315668,46.153469],[-105.320878,46.153466],[-105.320886,46.157092],[-105.320893,46.160718],[-105.320901,46.164344],[-105.320908,46.167969],[-105.3157,46.167975],[-105.310492,46.167981]]]}},{"type":"Feature","properties":{"sec":"24","frstdivid":"MT200050N0510E0SN240"},"geometry":{"type":"Polygon","coordinates":[[[-105.289703,46.18246],[-105.284494,46.18246],[-105.279499,46.182461],[-105.279424,46.178954],[-105.279422,46.178854],[-105.279346,46.175306],[-105.279344,46.175247],[-105.279268,46.171669],[-105.279267,46.17164],[-105.27919,46.168032],[-105.284428,46.168024],[-105.289635,46.168016],[-105.294856,46.168004],[-105.300076,46.167993],[-105.300086,46.171612],[-105.300097,46.17523],[-105.300107,46.178849],[-105.300117,46.182468],[-105.29491,46.182464],[-105.289703,46.18246]]]}},{"type":"Feature","properties":{"sec":"27","frstdivid":"MT200050N0510E0SN270"},"geometry":{"type":"Polygon","coordinates":[[[-105.33653,46.153497],[-105.341747,46.153507],[-105.341746,46.157125],[-105.341744,46.160743],[-105.341742,46.16436],[-105.341741,46.167978],[-105.336533,46.167976],[-105.331325,46.167974],[-105.326116,46.167972],[-105.320908,46.167969],[-105.320901,46.164344],[-105.320893,46.160718],[-105.320886,46.157092],[-105.320878,46.153466],[-105.326095,46.153476],[-105.331313,46.153487],[-105.33653,46.153497]]]}},{"type":"Feature","properties":{"sec":"03","frstdivid":"MT200050N0510E0SN030"},"geometry":{"type":"Polygon","coordinates":[[[-105.336591,46.211446],[-105.341808,46.211448],[-105.341794,46.21507],[-105.341781,46.218691],[-105.341767,46.222311],[-105.341753,46.225872],[-105.336536,46.225849],[-105.331318,46.225827],[-105.3261,46.225804],[-105.320883,46.225782],[-105.320895,46.222292],[-105.320908,46.218674],[-105.320923,46.215057],[-105.320938,46.211439],[-105.326156,46.211442],[-105.331373,46.211444],[-105.336591,46.211446]]]}},{"type":"Feature","properties":{"sec":"23","frstdivid":"MT200050N0510E0SN230"},"geometry":{"type":"Polygon","coordinates":[[[-105.3157,46.167975],[-105.320908,46.167969],[-105.320906,46.171592],[-105.320903,46.175215],[-105.3209,46.178838],[-105.320897,46.182461],[-105.315702,46.182463],[-105.310507,46.182465],[-105.305312,46.182467],[-105.300117,46.182468],[-105.300107,46.178849],[-105.300097,46.17523],[-105.300086,46.171612],[-105.300076,46.167993],[-105.305284,46.167987],[-105.310492,46.167981],[-105.3157,46.167975]]]}},{"type":"Feature","properties":{"sec":"31","frstdivid":"MT200050N0510E0SN310"},"geometry":{"type":"Polygon","coordinates":[[[-105.403032,46.13653],[-105.40465,46.136534],[-105.404651,46.139038],[-105.404651,46.139429],[-105.404607,46.14265],[-105.404601,46.143058],[-105.404557,46.146263],[-105.404552,46.146686],[-105.404501,46.149878],[-105.404495,46.150318],[-105.404444,46.153493],[-105.399052,46.153491],[-105.393842,46.153489],[-105.38863,46.153485],[-105.383418,46.153482],[-105.383404,46.149859],[-105.38339,46.146236],[-105.383379,46.142615],[-105.383369,46.138993],[-105.383363,46.13654],[-105.387381,46.136536],[-105.388563,46.136534],[-105.392601,46.136526],[-105.393764,46.136524],[-105.397821,46.136519],[-105.398967,46.13652],[-105.403032,46.13653]]]}},{"type":"Feature","properties":{"sec":"21","frstdivid":"MT200050N0510E0SN210"},"geometry":{"type":"Polygon","coordinates":[[[-105.362551,46.178822],[-105.362549,46.18244],[-105.357345,46.182447],[-105.352142,46.182454],[-105.346938,46.18246],[-105.341735,46.182467],[-105.341736,46.178845],[-105.341738,46.175223],[-105.341739,46.1716],[-105.341741,46.167978],[-105.346945,46.167975],[-105.352149,46.167973],[-105.357353,46.16797],[-105.362557,46.167968],[-105.362555,46.171586],[-105.362553,46.175204],[-105.362551,46.178822]]]}},{"type":"Feature","properties":{"sec":"14","frstdivid":"MT200050N0510E0SN140"},"geometry":{"type":"Polygon","coordinates":[[[-105.305312,46.182467],[-105.310507,46.182465],[-105.315702,46.182463],[-105.320897,46.182461],[-105.320897,46.186084],[-105.320898,46.189708],[-105.320898,46.193331],[-105.320898,46.196955],[-105.315699,46.196959],[-105.3105,46.196963],[-105.305301,46.196968],[-105.300103,46.196972],[-105.300106,46.193346],[-105.30011,46.18972],[-105.300113,46.186094],[-105.300117,46.182468],[-105.305312,46.182467]]]}},{"type":"Feature","properties":{"sec":"08","frstdivid":"MT200050N0510E0SN080"},"geometry":{"type":"Polygon","coordinates":[[[-105.378242,46.196925],[-105.383461,46.196926],[-105.383476,46.200548],[-105.38349,46.204171],[-105.383504,46.207794],[-105.383519,46.211417],[-105.378305,46.211424],[-105.373092,46.211431],[-105.367879,46.211438],[-105.362666,46.211445],[-105.362645,46.207814],[-105.362625,46.204183],[-105.362605,46.200552],[-105.362585,46.196922],[-105.367804,46.196923],[-105.373023,46.196924],[-105.378242,46.196925]]]}},{"type":"Feature","properties":{"sec":"04","frstdivid":"MT200050N0510E0SN040"},"geometry":{"type":"Polygon","coordinates":[[[-105.341808,46.211448],[-105.347023,46.211448],[-105.352237,46.211447],[-105.357451,46.211446],[-105.362666,46.211445],[-105.362665,46.215066],[-105.362664,46.218687],[-105.362666,46.222307],[-105.362668,46.225668],[-105.357443,46.225721],[-105.352217,46.225774],[-105.346985,46.225823],[-105.341753,46.225872],[-105.341767,46.222311],[-105.341781,46.218691],[-105.341794,46.21507],[-105.341808,46.211448]]]}},{"type":"Feature","properties":{"sec":"10","frstdivid":"MT200050N0510E0SN100"},"geometry":{"type":"Polygon","coordinates":[[[-105.320928,46.207818],[-105.320918,46.204197],[-105.320908,46.200576],[-105.320898,46.196955],[-105.326117,46.196955],[-105.331336,46.196956],[-105.336555,46.196957],[-105.341774,46.196958],[-105.341782,46.20058],[-105.341791,46.204203],[-105.3418,46.207826],[-105.341808,46.211448],[-105.336591,46.211446],[-105.331373,46.211444],[-105.326156,46.211442],[-105.320938,46.211439],[-105.320928,46.207818]]]}},{"type":"Feature","properties":{"sec":"02","frstdivid":"MT200050N0510E0SN020"},"geometry":{"type":"Polygon","coordinates":[[[-105.315665,46.225823],[-105.310448,46.225864],[-105.305258,46.225934],[-105.300068,46.226003],[-105.300077,46.22237],[-105.300086,46.218738],[-105.300095,46.215105],[-105.300105,46.211472],[-105.305313,46.211464],[-105.310521,46.211456],[-105.31573,46.211448],[-105.320938,46.211439],[-105.320923,46.215057],[-105.320908,46.218674],[-105.320895,46.222292],[-105.320883,46.225782],[-105.315665,46.225823]]]}},{"type":"Feature","properties":{"sec":"25","frstdivid":"MT200050N0510E0SN250"},"geometry":{"type":"Polygon","coordinates":[[[-105.300067,46.164364],[-105.300076,46.167993],[-105.294856,46.168004],[-105.289635,46.168016],[-105.284428,46.168024],[-105.27919,46.168032],[-105.279164,46.164385],[-105.279138,46.160737],[-105.279147,46.157117],[-105.279156,46.153497],[-105.284376,46.153493],[-105.289597,46.153488],[-105.294817,46.153483],[-105.300038,46.153478],[-105.300047,46.157107],[-105.300057,46.160735],[-105.300067,46.164364]]]}},{"type":"Feature","properties":{"sec":"01","frstdivid":"MT200050N0510E0SN010"},"geometry":{"type":"Polygon","coordinates":[[[-105.279411,46.218699],[-105.279347,46.215223],[-105.279344,46.215081],[-105.27928,46.211616],[-105.279281,46.211462],[-105.284478,46.211464],[-105.289688,46.211465],[-105.294897,46.211469],[-105.300105,46.211472],[-105.300095,46.215105],[-105.300086,46.218738],[-105.300077,46.22237],[-105.300068,46.226003],[-105.294849,46.226029],[-105.28963,46.226054],[-105.284438,46.226062],[-105.284358,46.226062],[-105.279086,46.22607],[-105.27925,46.22245],[-105.279255,46.222346],[-105.279414,46.21883],[-105.279411,46.218699]]]}},{"type":"Feature","properties":{"sec":"22","frstdivid":"MT200050N0510E0SN220"},"geometry":{"type":"Polygon","coordinates":[[[-105.320897,46.182461],[-105.3209,46.178838],[-105.320903,46.175215],[-105.320906,46.171592],[-105.320908,46.167969],[-105.326116,46.167972],[-105.331325,46.167974],[-105.336533,46.167976],[-105.341741,46.167978],[-105.341739,46.1716],[-105.341738,46.175223],[-105.341736,46.178845],[-105.341735,46.182467],[-105.336526,46.182466],[-105.331316,46.182464],[-105.326107,46.182463],[-105.320897,46.182461]]]}},{"type":"Feature","properties":{"sec":"36","frstdivid":"MT200050N0510E0SN360"},"geometry":{"type":"Polygon","coordinates":[[[-105.279223,46.141306],[-105.279226,46.138956],[-105.279228,46.136402],[-105.279928,46.136403],[-105.284433,46.136413],[-105.285141,46.136415],[-105.289639,46.136426],[-105.290354,46.136426],[-105.294843,46.136438],[-105.295559,46.13644],[-105.300047,46.136453],[-105.300046,46.138988],[-105.300045,46.142609],[-105.300044,46.146231],[-105.300041,46.149854],[-105.300038,46.153478],[-105.294817,46.153483],[-105.289597,46.153488],[-105.284376,46.153493],[-105.279156,46.153497],[-105.279187,46.149854],[-105.279219,46.14621],[-105.279222,46.142583],[-105.279223,46.141306]]]}}]}