{"type":"FeatureCollection","note":"BLM Public Land Survey System. Provided by the Bureau of Land Management as is. These data are neither legal documents nor land surveys and must not be used as such.","features":[{"type":"Feature","properties":{"sec":"33","frstdivid":"WY060562N0690W0SN330"},"geometry":{"type":"Polygon","coordinates":[[[-105.15818,44.880721],[-105.155647,44.88072],[-105.153092,44.88072],[-105.150556,44.880719],[-105.148004,44.880718],[-105.145465,44.880717],[-105.142916,44.880716],[-105.140374,44.880715],[-105.137828,44.880714],[-105.137825,44.878892],[-105.137814,44.875273],[-105.137804,44.871778],[-105.142894,44.871868],[-105.146073,44.871925],[-105.147984,44.871956],[-105.153074,44.872044],[-105.156253,44.872099],[-105.158164,44.87213],[-105.15817,44.875301],[-105.158177,44.87892],[-105.15818,44.880721]]]}},{"type":"Feature","properties":{"sec":"32","frstdivid":"WY060562N0690W0SN320"},"geometry":{"type":"Polygon","coordinates":[[[-105.178522,44.875943],[-105.178521,44.878939],[-105.178522,44.880723],[-105.176014,44.880723],[-105.173436,44.880723],[-105.170922,44.880723],[-105.168351,44.880723],[-105.16583,44.880722],[-105.163266,44.880722],[-105.160739,44.880721],[-105.15818,44.880721],[-105.158177,44.87892],[-105.15817,44.875301],[-105.158164,44.87213],[-105.161341,44.872184],[-105.163252,44.872218],[-105.168341,44.872308],[-105.169159,44.872321],[-105.171521,44.872321],[-105.173432,44.872322],[-105.174249,44.872322],[-105.178522,44.872324],[-105.178521,44.875319],[-105.178522,44.875943]]]}},{"type":"Feature","properties":{"sec":"36","frstdivid":"WY060562N0690W0SN360"},"geometry":{"type":"Polygon","coordinates":[[[-105.08498,44.871073],[-105.086871,44.871069],[-105.091967,44.871075],[-105.095097,44.871078],[-105.097063,44.871078],[-105.097081,44.874653],[-105.097084,44.875206],[-105.0971,44.878825],[-105.097105,44.880688],[-105.095386,44.880686],[-105.094561,44.880685],[-105.092017,44.880682],[-105.089473,44.88068],[-105.086928,44.880677],[-105.084383,44.880674],[-105.081837,44.880671],[-105.079292,44.880669],[-105.077547,44.880665],[-105.074762,44.88066],[-105.074774,44.879173],[-105.074775,44.878766],[-105.074778,44.878304],[-105.074792,44.875143],[-105.074793,44.874679],[-105.074794,44.87106],[-105.07764,44.871084],[-105.081779,44.871079],[-105.08498,44.871073]]]}},{"type":"Feature","properties":{"sec":"35","frstdivid":"WY060562N0690W0SN350"},"geometry":{"type":"Polygon","coordinates":[[[-105.097105,44.880688],[-105.0971,44.878825],[-105.097084,44.875206],[-105.097081,44.874653],[-105.097063,44.871078],[-105.097816,44.871076],[-105.100187,44.871116],[-105.102155,44.871151],[-105.105276,44.871206],[-105.107246,44.871239],[-105.110364,44.871293],[-105.112339,44.871329],[-105.117431,44.871423],[-105.117446,44.875242],[-105.117459,44.878477],[-105.117461,44.878862],[-105.117465,44.880703],[-105.11492,44.880701],[-105.112375,44.880699],[-105.110455,44.880698],[-105.110407,44.880698],[-105.10983,44.880698],[-105.107285,44.880695],[-105.10474,44.880693],[-105.102195,44.880691],[-105.100343,44.88069],[-105.09965,44.880689],[-105.09784,44.880688],[-105.097105,44.880688]]]}},{"type":"Feature","properties":{"sec":"31","frstdivid":"WY060562N0690W0SN310"},"geometry":{"type":"Polygon","coordinates":[[[-105.181701,44.872324],[-105.183613,44.872324],[-105.18443,44.872324],[-105.188703,44.872326],[-105.191883,44.872326],[-105.193794,44.872327],[-105.196991,44.872327],[-105.198885,44.872328],[-105.199719,44.872328],[-105.202081,44.872333],[-105.203975,44.872337],[-105.207507,44.87235],[-105.207498,44.880723],[-105.206562,44.880723],[-105.20147,44.880724],[-105.199764,44.880724],[-105.198886,44.880724],[-105.196378,44.880724],[-105.193795,44.880724],[-105.191287,44.880724],[-105.188704,44.880724],[-105.186196,44.880724],[-105.183613,44.880724],[-105.181105,44.880723],[-105.178522,44.880723],[-105.178521,44.878939],[-105.178522,44.875943],[-105.178521,44.875319],[-105.178522,44.872324],[-105.179339,44.872324],[-105.181701,44.872324]]]}},{"type":"Feature","properties":{"sec":"34","frstdivid":"WY060562N0690W0SN340"},"geometry":{"type":"Polygon","coordinates":[[[-105.137825,44.878892],[-105.137828,44.880714],[-105.135283,44.880713],[-105.132737,44.880712],[-105.13077,44.880712],[-105.130192,44.880711],[-105.127647,44.88071],[-105.12568,44.880709],[-105.125102,44.880709],[-105.122556,44.880707],[-105.120011,44.880705],[-105.117465,44.880703],[-105.117461,44.878862],[-105.117459,44.878477],[-105.117446,44.875242],[-105.117431,44.871423],[-105.122524,44.871512],[-105.127618,44.871601],[-105.132711,44.871689],[-105.137804,44.871778],[-105.137814,44.875273],[-105.137825,44.878892]]]}}]}