{"type":"FeatureCollection","note":"BLM Public Land Survey System. Provided by the Bureau of Land Management as is. These data are neither legal documents nor land surveys and must not be used as such.","features":[{"type":"Feature","properties":{"sec":"31","frstdivid":"WY060380N0850W0SN310"},"geometry":{"type":"Polygon","coordinates":[[[-107.086506,43.211586],[-107.091435,43.211605],[-107.096365,43.211621],[-107.101122,43.211636],[-107.101157,43.215248],[-107.101191,43.21886],[-107.101226,43.222472],[-107.101261,43.226084],[-107.096513,43.226121],[-107.09157,43.22616],[-107.086625,43.2262],[-107.081681,43.226239],[-107.081655,43.222571],[-107.081629,43.218903],[-107.081603,43.215235],[-107.081578,43.211567],[-107.086506,43.211586]]]}},{"type":"Feature","properties":{"sec":"21","frstdivid":"WY060380N0850W0SN210"},"geometry":{"type":"Polygon","coordinates":[[[-107.0466,43.240321],[-107.051747,43.240255],[-107.056895,43.24019],[-107.062042,43.240125],[-107.062056,43.243723],[-107.06207,43.247321],[-107.06206,43.25096],[-107.062049,43.254599],[-107.056991,43.254675],[-107.051933,43.254751],[-107.046875,43.254827],[-107.041817,43.254903],[-107.041726,43.251274],[-107.041635,43.247645],[-107.041544,43.244015],[-107.041453,43.240386],[-107.0466,43.240321]]]}},{"type":"Feature","properties":{"sec":"30","frstdivid":"WY060380N0850W0SN300"},"geometry":{"type":"Polygon","coordinates":[[[-107.101261,43.226084],[-107.101289,43.229692],[-107.101317,43.233299],[-107.101345,43.236907],[-107.101373,43.240515],[-107.096629,43.240521],[-107.091682,43.240526],[-107.089208,43.240529],[-107.086734,43.240532],[-107.081787,43.240538],[-107.081774,43.23875],[-107.081761,43.236963],[-107.081734,43.233388],[-107.081707,43.229813],[-107.081681,43.226239],[-107.086625,43.2262],[-107.09157,43.22616],[-107.096513,43.226121],[-107.101261,43.226084]]]}},{"type":"Feature","properties":{"sec":"34","frstdivid":"WY060380N0850W0SN340"},"geometry":{"type":"Polygon","coordinates":[[[-107.041216,43.218688],[-107.041228,43.222294],[-107.04124,43.2259],[-107.036275,43.225912],[-107.03131,43.225925],[-107.026346,43.225937],[-107.021381,43.22595],[-107.021355,43.222335],[-107.021329,43.218721],[-107.021303,43.215106],[-107.021277,43.211492],[-107.026256,43.211488],[-107.031234,43.211484],[-107.036213,43.211479],[-107.041192,43.211475],[-107.041204,43.215081],[-107.041216,43.218688]]]}},{"type":"Feature","properties":{"sec":"08","frstdivid":"WY060380N0850W0SN080"},"geometry":{"type":"Polygon","coordinates":[[[-107.082031,43.283635],[-107.077088,43.2836],[-107.072144,43.283565],[-107.0672,43.28353],[-107.062256,43.283495],[-107.062235,43.279896],[-107.062214,43.276298],[-107.062188,43.272683],[-107.062162,43.269067],[-107.06711,43.269114],[-107.072058,43.269161],[-107.077007,43.269208],[-107.081955,43.269255],[-107.081974,43.27285],[-107.081993,43.276445],[-107.082012,43.28004],[-107.082031,43.283635]]]}},{"type":"Feature","properties":{"sec":"22","frstdivid":"WY060380N0850W0SN220"},"geometry":{"type":"Polygon","coordinates":[[[-107.021509,43.244054],[-107.021494,43.240437],[-107.026484,43.240424],[-107.031473,43.240412],[-107.036463,43.240399],[-107.041453,43.240386],[-107.041544,43.244015],[-107.041635,43.247645],[-107.041726,43.251274],[-107.041817,43.254903],[-107.036751,43.254903],[-107.031685,43.254903],[-107.026619,43.254903],[-107.021554,43.254903],[-107.021539,43.251287],[-107.021524,43.24767],[-107.021509,43.244054]]]}},{"type":"Feature","properties":{"sec":"07","frstdivid":"WY060380N0850W0SN070"},"geometry":{"type":"Polygon","coordinates":[[[-107.101553,43.269408],[-107.101552,43.273014],[-107.10155,43.27662],[-107.101548,43.280226],[-107.101547,43.283832],[-107.096844,43.283784],[-107.091907,43.283734],[-107.086969,43.283684],[-107.082031,43.283635],[-107.082012,43.28004],[-107.081993,43.276445],[-107.081974,43.27285],[-107.081955,43.269255],[-107.086911,43.269294],[-107.091868,43.269332],[-107.096825,43.269371],[-107.101553,43.269408]]]}},{"type":"Feature","properties":{"sec":"32","frstdivid":"WY060380N0850W0SN320"},"geometry":{"type":"Polygon","coordinates":[[[-107.061955,43.225837],[-107.061904,43.222313],[-107.061852,43.218789],[-107.061857,43.215143],[-107.061863,43.211497],[-107.066792,43.211514],[-107.07172,43.211532],[-107.076649,43.211549],[-107.081578,43.211567],[-107.081603,43.215235],[-107.081629,43.218903],[-107.081655,43.222571],[-107.081681,43.226239],[-107.076749,43.226138],[-107.071818,43.226038],[-107.066887,43.225937],[-107.061955,43.225837]]]}},{"type":"Feature","properties":{"sec":"35","frstdivid":"WY060380N0850W0SN350"},"geometry":{"type":"Polygon","coordinates":[[[-107.016347,43.211446],[-107.021277,43.211492],[-107.021303,43.215106],[-107.021329,43.218721],[-107.021355,43.222335],[-107.021381,43.22595],[-107.016416,43.225938],[-107.011452,43.225927],[-107.006487,43.225915],[-107.001522,43.225904],[-107.001531,43.222255],[-107.00154,43.218606],[-107.001549,43.214957],[-107.001558,43.211308],[-107.006488,43.211354],[-107.011417,43.2114],[-107.016347,43.211446]]]}},{"type":"Feature","properties":{"sec":"15","frstdivid":"WY060380N0850W0SN150"},"geometry":{"type":"Polygon","coordinates":[[[-107.031685,43.254903],[-107.036751,43.254903],[-107.041817,43.254903],[-107.041854,43.258533],[-107.041892,43.262162],[-107.041929,43.265792],[-107.041966,43.269422],[-107.0369,43.269416],[-107.031834,43.26941],[-107.026767,43.269404],[-107.021701,43.269398],[-107.021664,43.265774],[-107.021627,43.26215],[-107.021591,43.258527],[-107.021554,43.254903],[-107.026619,43.254903],[-107.031685,43.254903]]]}},{"type":"Feature","properties":{"sec":"10","frstdivid":"WY060380N0850W0SN100"},"geometry":{"type":"Polygon","coordinates":[[[-107.026717,43.283909],[-107.021668,43.283899],[-107.021676,43.280274],[-107.021684,43.276648],[-107.021693,43.273023],[-107.021701,43.269398],[-107.026767,43.269404],[-107.031834,43.26941],[-107.0369,43.269416],[-107.041966,43.269422],[-107.041941,43.273051],[-107.041915,43.276681],[-107.04189,43.280311],[-107.041864,43.283941],[-107.036815,43.28393],[-107.031766,43.28392],[-107.026717,43.283909]]]}},{"type":"Feature","properties":{"sec":"17","frstdivid":"WY060380N0850W0SN170"},"geometry":{"type":"Polygon","coordinates":[[[-107.062049,43.254599],[-107.066951,43.254652],[-107.071854,43.254706],[-107.076807,43.25479],[-107.081761,43.254875],[-107.081809,43.25847],[-107.081858,43.262065],[-107.081906,43.26566],[-107.081955,43.269255],[-107.077007,43.269208],[-107.072058,43.269161],[-107.06711,43.269114],[-107.062162,43.269067],[-107.062168,43.265465],[-107.062175,43.261863],[-107.062112,43.258231],[-107.062049,43.254599]]]}},{"type":"Feature","properties":{"sec":"18","frstdivid":"WY060380N0850W0SN180"},"geometry":{"type":"Polygon","coordinates":[[[-107.101527,43.265793],[-107.101553,43.269408],[-107.096825,43.269371],[-107.091868,43.269332],[-107.086911,43.269294],[-107.081955,43.269255],[-107.081906,43.26566],[-107.081858,43.262065],[-107.081809,43.25847],[-107.081761,43.254875],[-107.086737,43.254893],[-107.091712,43.254911],[-107.096688,43.25493],[-107.101448,43.254948],[-107.101475,43.258563],[-107.101501,43.262178],[-107.101527,43.265793]]]}},{"type":"Feature","properties":{"sec":"09","frstdivid":"WY060380N0850W0SN090"},"geometry":{"type":"Polygon","coordinates":[[[-107.046962,43.283829],[-107.041864,43.283941],[-107.04189,43.280311],[-107.041915,43.276681],[-107.041941,43.273051],[-107.041966,43.269422],[-107.047015,43.269333],[-107.052064,43.269244],[-107.057113,43.269156],[-107.062162,43.269067],[-107.062188,43.272683],[-107.062214,43.276298],[-107.062235,43.279896],[-107.062256,43.283495],[-107.057158,43.283606],[-107.05206,43.283718],[-107.046962,43.283829]]]}},{"type":"Feature","properties":{"sec":"27","frstdivid":"WY060380N0850W0SN270"},"geometry":{"type":"Polygon","coordinates":[[[-107.041293,43.229521],[-107.041346,43.233143],[-107.041399,43.236764],[-107.041453,43.240386],[-107.036463,43.240399],[-107.031473,43.240412],[-107.026484,43.240424],[-107.021494,43.240437],[-107.021466,43.236815],[-107.021438,43.233194],[-107.021409,43.229572],[-107.021381,43.22595],[-107.026346,43.225937],[-107.03131,43.225925],[-107.036275,43.225912],[-107.04124,43.2259],[-107.041293,43.229521]]]}},{"type":"Feature","properties":{"sec":"06","frstdivid":"WY060380N0850W0SN060"},"geometry":{"type":"Polygon","coordinates":[[[-107.091656,43.298092],[-107.086546,43.29804],[-107.081436,43.297988],[-107.081584,43.29442],[-107.081732,43.290825],[-107.081882,43.28723],[-107.082031,43.283635],[-107.086969,43.283684],[-107.091907,43.283734],[-107.096844,43.283784],[-107.101547,43.283832],[-107.101543,43.287433],[-107.101539,43.291034],[-107.10154,43.294621],[-107.101541,43.298209],[-107.09932,43.298182],[-107.096765,43.298151],[-107.094211,43.298121],[-107.091656,43.298092]]]}},{"type":"Feature","properties":{"sec":"29","frstdivid":"WY060380N0850W0SN290"},"geometry":{"type":"Polygon","coordinates":[[[-107.081707,43.229813],[-107.081734,43.233388],[-107.081761,43.236963],[-107.081774,43.23875],[-107.081787,43.240538],[-107.079319,43.240486],[-107.076851,43.240434],[-107.071915,43.240331],[-107.066978,43.240228],[-107.062042,43.240125],[-107.062021,43.236553],[-107.061999,43.232981],[-107.061977,43.229409],[-107.061955,43.225837],[-107.066887,43.225937],[-107.071818,43.226038],[-107.076749,43.226138],[-107.081681,43.226239],[-107.081707,43.229813]]]}},{"type":"Feature","properties":{"sec":"28","frstdivid":"WY060380N0850W0SN280"},"geometry":{"type":"Polygon","coordinates":[[[-107.061955,43.225837],[-107.061977,43.229409],[-107.061999,43.232981],[-107.062021,43.236553],[-107.062042,43.240125],[-107.056895,43.24019],[-107.051747,43.240255],[-107.0466,43.240321],[-107.041453,43.240386],[-107.041399,43.236764],[-107.041346,43.233143],[-107.041293,43.229521],[-107.04124,43.2259],[-107.046419,43.225884],[-107.051598,43.225868],[-107.056776,43.225853],[-107.061955,43.225837]]]}},{"type":"Feature","properties":{"sec":"16","frstdivid":"WY060380N0850W0SN160"},"geometry":{"type":"Polygon","coordinates":[[[-107.062112,43.258231],[-107.062175,43.261863],[-107.062168,43.265465],[-107.062162,43.269067],[-107.057113,43.269156],[-107.052064,43.269244],[-107.047015,43.269333],[-107.041966,43.269422],[-107.041929,43.265792],[-107.041892,43.262162],[-107.041854,43.258533],[-107.041817,43.254903],[-107.046875,43.254827],[-107.051933,43.254751],[-107.056991,43.254675],[-107.062049,43.254599],[-107.062112,43.258231]]]}},{"type":"Feature","properties":{"sec":"33","frstdivid":"WY060380N0850W0SN330"},"geometry":{"type":"Polygon","coordinates":[[[-107.051527,43.211486],[-107.056695,43.211492],[-107.061863,43.211497],[-107.061857,43.215143],[-107.061852,43.218789],[-107.061904,43.222313],[-107.061955,43.225837],[-107.056776,43.225853],[-107.051598,43.225868],[-107.046419,43.225884],[-107.04124,43.2259],[-107.041228,43.222294],[-107.041216,43.218688],[-107.041204,43.215081],[-107.041192,43.211475],[-107.046359,43.211481],[-107.051527,43.211486]]]}},{"type":"Feature","properties":{"sec":"20","frstdivid":"WY060380N0850W0SN200"},"geometry":{"type":"Polygon","coordinates":[[[-107.081949,43.247686],[-107.081855,43.25128],[-107.081761,43.254875],[-107.076807,43.25479],[-107.071854,43.254706],[-107.066951,43.254652],[-107.062049,43.254599],[-107.06206,43.25096],[-107.06207,43.247321],[-107.062056,43.243723],[-107.062042,43.240125],[-107.066978,43.240228],[-107.071915,43.240331],[-107.076851,43.240434],[-107.079319,43.240486],[-107.081787,43.240538],[-107.081868,43.244112],[-107.081949,43.247686]]]}},{"type":"Feature","properties":{"sec":"04","frstdivid":"WY060380N0850W0SN040"},"geometry":{"type":"Polygon","coordinates":[[[-107.040571,43.297504],[-107.040898,43.294105],[-107.041224,43.290717],[-107.041544,43.287329],[-107.041864,43.283941],[-107.046962,43.283829],[-107.05206,43.283718],[-107.057158,43.283606],[-107.062256,43.283495],[-107.061946,43.287065],[-107.061635,43.290635],[-107.061318,43.294205],[-107.061001,43.29776],[-107.055894,43.297696],[-107.050786,43.297632],[-107.045679,43.297568],[-107.040571,43.297504]]]}},{"type":"Feature","properties":{"sec":"19","frstdivid":"WY060380N0850W0SN190"},"geometry":{"type":"Polygon","coordinates":[[[-107.089208,43.240529],[-107.091682,43.240526],[-107.096629,43.240521],[-107.101373,43.240515],[-107.101392,43.244123],[-107.101411,43.247732],[-107.10143,43.25134],[-107.101448,43.254948],[-107.096688,43.25493],[-107.091712,43.254911],[-107.086737,43.254893],[-107.081761,43.254875],[-107.081855,43.25128],[-107.081949,43.247686],[-107.081868,43.244112],[-107.081787,43.240538],[-107.086734,43.240532],[-107.089208,43.240529]]]}},{"type":"Feature","properties":{"sec":"03","frstdivid":"WY060380N0850W0SN030"},"geometry":{"type":"Polygon","coordinates":[[[-107.041544,43.287329],[-107.041224,43.290717],[-107.040898,43.294105],[-107.040571,43.297504],[-107.035465,43.297436],[-107.030358,43.297369],[-107.025252,43.297301],[-107.020146,43.297233],[-107.020527,43.293896],[-107.020907,43.290564],[-107.021287,43.287231],[-107.021668,43.283899],[-107.026717,43.283909],[-107.031766,43.28392],[-107.036815,43.28393],[-107.041864,43.283941],[-107.041544,43.287329]]]}},{"type":"Feature","properties":{"sec":"05","frstdivid":"WY060380N0850W0SN050"},"geometry":{"type":"Polygon","coordinates":[[[-107.076328,43.297931],[-107.071219,43.297874],[-107.06611,43.297817],[-107.061001,43.29776],[-107.061318,43.294205],[-107.061635,43.290635],[-107.061946,43.287065],[-107.062256,43.283495],[-107.0672,43.28353],[-107.072144,43.283565],[-107.077088,43.2836],[-107.082031,43.283635],[-107.081882,43.28723],[-107.081732,43.290825],[-107.081584,43.29442],[-107.081436,43.297988],[-107.076328,43.297931]]]}},{"type":"Feature","properties":{"sec":"14","frstdivid":"WY060380N0850W0SN140"},"geometry":{"type":"Polygon","coordinates":[[[-107.011769,43.254882],[-107.016661,43.254892],[-107.021554,43.254903],[-107.021591,43.258527],[-107.021627,43.26215],[-107.021664,43.265774],[-107.021701,43.269398],[-107.016774,43.269351],[-107.011847,43.269305],[-107.00692,43.269259],[-107.001993,43.269213],[-107.001991,43.265625],[-107.001989,43.262037],[-107.001987,43.258448],[-107.001984,43.25486],[-107.006877,43.254871],[-107.011769,43.254882]]]}},{"type":"Feature","properties":{"sec":"36","frstdivid":"WY060380N0850W0SN360"},"geometry":{"type":"Polygon","coordinates":[[[-107.00154,43.218606],[-107.001531,43.222255],[-107.001522,43.225904],[-106.996422,43.225855],[-106.991322,43.225805],[-106.986221,43.225756],[-106.981121,43.225706],[-106.981148,43.222086],[-106.981176,43.218466],[-106.981203,43.214845],[-106.981231,43.211225],[-106.986313,43.211246],[-106.991394,43.211267],[-106.996476,43.211287],[-107.001558,43.211308],[-107.001549,43.214957],[-107.00154,43.218606]]]}},{"type":"Feature","properties":{"sec":"11","frstdivid":"WY060380N0850W0SN110"},"geometry":{"type":"Polygon","coordinates":[[[-107.021676,43.280274],[-107.021668,43.283899],[-107.016517,43.283736],[-107.011367,43.283573],[-107.006217,43.28341],[-107.001067,43.283247],[-107.001647,43.279817],[-107.002228,43.276387],[-107.002111,43.2728],[-107.001993,43.269213],[-107.00692,43.269259],[-107.011847,43.269305],[-107.016774,43.269351],[-107.021701,43.269398],[-107.021693,43.273023],[-107.021684,43.276648],[-107.021676,43.280274]]]}},{"type":"Feature","properties":{"sec":"01","frstdivid":"WY060380N0850W0SN010"},"geometry":{"type":"Polygon","coordinates":[[[-107.000393,43.29011],[-107.000057,43.293541],[-106.999719,43.296994],[-106.994612,43.296935],[-106.989505,43.296876],[-106.984398,43.296817],[-106.97929,43.296758],[-106.979578,43.293277],[-106.979866,43.289795],[-106.980158,43.286313],[-106.980449,43.282832],[-106.985604,43.282936],[-106.990758,43.28304],[-106.995912,43.283143],[-107.001067,43.283247],[-107.00073,43.286679],[-107.000393,43.29011]]]}},{"type":"Feature","properties":{"sec":"23","frstdivid":"WY060380N0850W0SN230"},"geometry":{"type":"Polygon","coordinates":[[[-107.001843,43.251245],[-107.001701,43.247629],[-107.001559,43.244013],[-107.001417,43.240398],[-107.006436,43.240408],[-107.011456,43.240417],[-107.016475,43.240427],[-107.021494,43.240437],[-107.021509,43.244054],[-107.021524,43.24767],[-107.021539,43.251287],[-107.021554,43.254903],[-107.016661,43.254892],[-107.011769,43.254882],[-107.006877,43.254871],[-107.001984,43.25486],[-107.001843,43.251245]]]}},{"type":"Feature","properties":{"sec":"02","frstdivid":"WY060380N0850W0SN020"},"geometry":{"type":"Polygon","coordinates":[[[-107.020527,43.293896],[-107.020146,43.297233],[-107.015039,43.297174],[-107.009933,43.297114],[-107.004826,43.297054],[-106.999719,43.296994],[-107.000057,43.293541],[-107.000393,43.29011],[-107.00073,43.286679],[-107.001067,43.283247],[-107.006217,43.28341],[-107.011367,43.283573],[-107.016517,43.283736],[-107.021668,43.283899],[-107.021287,43.287231],[-107.020907,43.290564],[-107.020527,43.293896]]]}},{"type":"Feature","properties":{"sec":"24","frstdivid":"WY060380N0850W0SN240"},"geometry":{"type":"Polygon","coordinates":[[[-107.001843,43.251245],[-107.001984,43.25486],[-106.996851,43.254791],[-106.991718,43.254722],[-106.986585,43.254653],[-106.981452,43.254583],[-106.981444,43.250959],[-106.981435,43.247334],[-106.981427,43.243709],[-106.981419,43.240084],[-106.986418,43.240162],[-106.991418,43.240241],[-106.996418,43.240319],[-107.001417,43.240398],[-107.001559,43.244013],[-107.001701,43.247629],[-107.001843,43.251245]]]}},{"type":"Feature","properties":{"sec":"25","frstdivid":"WY060380N0850W0SN250"},"geometry":{"type":"Polygon","coordinates":[[[-106.986221,43.225756],[-106.991322,43.225805],[-106.996422,43.225855],[-107.001522,43.225904],[-107.001496,43.229527],[-107.00147,43.233151],[-107.001443,43.236774],[-107.001417,43.240398],[-106.996418,43.240319],[-106.991418,43.240241],[-106.986418,43.240162],[-106.981419,43.240084],[-106.981344,43.236489],[-106.98127,43.232895],[-106.981195,43.229301],[-106.981121,43.225706],[-106.986221,43.225756]]]}},{"type":"Feature","properties":{"sec":"13","frstdivid":"WY060380N0850W0SN130"},"geometry":{"type":"Polygon","coordinates":[[[-107.001991,43.265625],[-107.001993,43.269213],[-106.997043,43.269242],[-106.992092,43.269272],[-106.986836,43.269085],[-106.981579,43.268899],[-106.981548,43.26532],[-106.981516,43.261741],[-106.981484,43.258162],[-106.981452,43.254583],[-106.986585,43.254653],[-106.991718,43.254722],[-106.996851,43.254791],[-107.001984,43.25486],[-107.001987,43.258448],[-107.001989,43.262037],[-107.001991,43.265625]]]}},{"type":"Feature","properties":{"sec":"26","frstdivid":"WY060380N0850W0SN260"},"geometry":{"type":"Polygon","coordinates":[[[-107.021381,43.22595],[-107.021409,43.229572],[-107.021438,43.233194],[-107.021466,43.236815],[-107.021494,43.240437],[-107.016475,43.240427],[-107.011456,43.240417],[-107.006436,43.240408],[-107.001417,43.240398],[-107.001443,43.236774],[-107.00147,43.233151],[-107.001496,43.229527],[-107.001522,43.225904],[-107.006487,43.225915],[-107.011452,43.225927],[-107.016416,43.225938],[-107.021381,43.22595]]]}},{"type":"Feature","properties":{"sec":"12","frstdivid":"WY060380N0850W0SN120"},"geometry":{"type":"Polygon","coordinates":[[[-107.002228,43.276387],[-107.001647,43.279817],[-107.001067,43.283247],[-106.995912,43.283143],[-106.990758,43.28304],[-106.985604,43.282936],[-106.980449,43.282832],[-106.980732,43.279349],[-106.981014,43.275866],[-106.981297,43.272383],[-106.981579,43.268899],[-106.986836,43.269085],[-106.992092,43.269272],[-106.997043,43.269242],[-107.001993,43.269213],[-107.002111,43.2728],[-107.002228,43.276387]]]}}]}