{"type":"FeatureCollection","note":"BLM Public Land Survey System. Provided by the Bureau of Land Management as is. These data are neither legal documents nor land surveys and must not be used as such.","features":[{"type":"Feature","properties":{"sec":"23","frstdivid":"WY060450N0880W0SN230"},"geometry":{"type":"Polygon","coordinates":[[[-107.409318,43.843952],[-107.409322,43.847572],[-107.409327,43.851191],[-107.409331,43.854811],[-107.409336,43.858431],[-107.404319,43.858434],[-107.399302,43.858438],[-107.394285,43.858441],[-107.389268,43.858445],[-107.389275,43.854825],[-107.389282,43.851205],[-107.389289,43.847585],[-107.389296,43.843965],[-107.394301,43.843962],[-107.399307,43.843959],[-107.404312,43.843955],[-107.409318,43.843952]]]}},{"type":"Feature","properties":{"sec":"36","frstdivid":"WY060450N0880W0SN360"},"geometry":{"type":"Polygon","coordinates":[[[-107.369108,43.818718],[-107.369114,43.815123],[-107.371156,43.815114],[-107.374179,43.815097],[-107.376159,43.815087],[-107.378094,43.815077],[-107.379179,43.815073],[-107.381162,43.81506],[-107.384223,43.815039],[-107.386164,43.815027],[-107.389268,43.815006],[-107.389275,43.818626],[-107.389283,43.822246],[-107.38929,43.825866],[-107.389298,43.829486],[-107.384284,43.829482],[-107.384275,43.829482],[-107.379269,43.829474],[-107.379252,43.829474],[-107.374255,43.829463],[-107.374229,43.829463],[-107.369536,43.829463],[-107.369236,43.829462],[-107.369164,43.825869],[-107.369105,43.822313],[-107.369108,43.818738],[-107.369108,43.818718]]]}},{"type":"Feature","properties":{"sec":"25","frstdivid":"WY060450N0880W0SN250"},"geometry":{"type":"Polygon","coordinates":[[[-107.369237,43.829542],[-107.369236,43.829462],[-107.369536,43.829463],[-107.374229,43.829463],[-107.374255,43.829463],[-107.379252,43.829474],[-107.379269,43.829474],[-107.384275,43.829482],[-107.384284,43.829482],[-107.389298,43.829486],[-107.389298,43.829566],[-107.389297,43.833106],[-107.389297,43.836726],[-107.389296,43.840346],[-107.389296,43.843965],[-107.384291,43.843968],[-107.379248,43.843965],[-107.374234,43.843965],[-107.369443,43.843948],[-107.369381,43.840384],[-107.36938,43.840329],[-107.369327,43.836772],[-107.369329,43.836708],[-107.369283,43.833157],[-107.369237,43.829542]]]}},{"type":"Feature","properties":{"sec":"03","frstdivid":"WY060450N0880W0SN030"},"geometry":{"type":"Polygon","coordinates":[[[-107.40932,43.887387],[-107.414332,43.887392],[-107.419344,43.887397],[-107.424356,43.887401],[-107.429368,43.887406],[-107.429376,43.891026],[-107.429384,43.894646],[-107.429388,43.898267],[-107.429392,43.901887],[-107.429392,43.902842],[-107.424386,43.902844],[-107.419379,43.902846],[-107.414373,43.902849],[-107.409366,43.902851],[-107.409364,43.901866],[-107.409355,43.898246],[-107.409345,43.894626],[-107.409332,43.891007],[-107.40932,43.887387]]]}},{"type":"Feature","properties":{"sec":"15","frstdivid":"WY060450N0880W0SN150"},"geometry":{"type":"Polygon","coordinates":[[[-107.429358,43.862065],[-107.429355,43.865685],[-107.429353,43.869305],[-107.429351,43.872925],[-107.424345,43.872921],[-107.419339,43.872917],[-107.414334,43.872913],[-107.409328,43.872909],[-107.40933,43.869289],[-107.409332,43.86567],[-107.409334,43.86205],[-107.409336,43.858431],[-107.414342,43.858434],[-107.419348,43.858437],[-107.424354,43.858441],[-107.42936,43.858444],[-107.429358,43.862065]]]}},{"type":"Feature","properties":{"sec":"24","frstdivid":"WY060450N0880W0SN240"},"geometry":{"type":"Polygon","coordinates":[[[-107.36944,43.843995],[-107.369443,43.843948],[-107.374234,43.843965],[-107.379248,43.843965],[-107.384291,43.843968],[-107.389296,43.843965],[-107.389289,43.847585],[-107.389282,43.851205],[-107.389275,43.854825],[-107.389268,43.858445],[-107.384264,43.858457],[-107.37956,43.858468],[-107.37926,43.858468],[-107.374543,43.858463],[-107.374256,43.858462],[-107.369552,43.858457],[-107.369533,43.855074],[-107.369532,43.85483],[-107.369505,43.851381],[-107.369503,43.851203],[-107.369472,43.847688],[-107.369471,43.847576],[-107.36944,43.843995]]]}},{"type":"Feature","properties":{"sec":"29","frstdivid":"WY060450N0880W0SN290"},"geometry":{"type":"Polygon","coordinates":[[[-107.462755,43.833122],[-107.462748,43.836741],[-107.462741,43.84036],[-107.462734,43.84398],[-107.459361,43.843982],[-107.454357,43.843981],[-107.449352,43.84398],[-107.449348,43.840359],[-107.449344,43.836738],[-107.44934,43.833117],[-107.449336,43.829496],[-107.454336,43.8295],[-107.459337,43.829504],[-107.462762,43.829503],[-107.462755,43.833122]]]}},{"type":"Feature","properties":{"sec":"01","frstdivid":"WY060450N0880W0SN010"},"geometry":{"type":"Polygon","coordinates":[[[-107.384691,43.902845],[-107.384333,43.902845],[-107.379326,43.902844],[-107.37432,43.902843],[-107.369671,43.902842],[-107.369668,43.901903],[-107.369656,43.899165],[-107.369653,43.898282],[-107.369642,43.895489],[-107.369643,43.894661],[-107.369645,43.891847],[-107.369646,43.891041],[-107.369648,43.888206],[-107.369647,43.88742],[-107.374306,43.887416],[-107.379315,43.887411],[-107.384327,43.887405],[-107.38934,43.887399],[-107.389342,43.888196],[-107.389342,43.891015],[-107.389341,43.89463],[-107.38934,43.895486],[-107.38934,43.898247],[-107.389339,43.901864],[-107.389339,43.902847],[-107.384691,43.902845]]]}},{"type":"Feature","properties":{"sec":"13","frstdivid":"WY060450N0880W0SN130"},"geometry":{"type":"Polygon","coordinates":[[[-107.389268,43.858445],[-107.389277,43.862064],[-107.389286,43.865683],[-107.389294,43.869302],[-107.389303,43.87292],[-107.384297,43.872922],[-107.379291,43.872925],[-107.374636,43.872927],[-107.374285,43.872927],[-107.369631,43.872937],[-107.369614,43.869824],[-107.369611,43.869317],[-107.369594,43.866138],[-107.369592,43.865697],[-107.369574,43.862452],[-107.369572,43.862077],[-107.369554,43.858767],[-107.369552,43.858457],[-107.374256,43.858462],[-107.374543,43.858463],[-107.37926,43.858468],[-107.37956,43.858468],[-107.384264,43.858457],[-107.389268,43.858445]]]}},{"type":"Feature","properties":{"sec":"17","frstdivid":"WY060450N0880W0SN170"},"geometry":{"type":"Polygon","coordinates":[[[-107.462701,43.872935],[-107.45938,43.87294],[-107.454374,43.872944],[-107.449368,43.872947],[-107.449368,43.869327],[-107.449369,43.865706],[-107.44937,43.862085],[-107.44937,43.858464],[-107.454375,43.858463],[-107.45938,43.858461],[-107.462722,43.858457],[-107.462717,43.862077],[-107.462711,43.865696],[-107.462706,43.869316],[-107.462701,43.872935]]]}},{"type":"Feature","properties":{"sec":"26","frstdivid":"WY060450N0880W0SN260"},"geometry":{"type":"Polygon","coordinates":[[[-107.389298,43.829486],[-107.394304,43.829483],[-107.399311,43.82948],[-107.404318,43.829477],[-107.409325,43.829474],[-107.409323,43.833094],[-107.409321,43.836713],[-107.409319,43.840333],[-107.409318,43.843952],[-107.404312,43.843955],[-107.399307,43.843959],[-107.394301,43.843962],[-107.389296,43.843965],[-107.389296,43.840346],[-107.389297,43.836726],[-107.389297,43.833106],[-107.389298,43.829566],[-107.389298,43.829486]]]}},{"type":"Feature","properties":{"sec":"11","frstdivid":"WY060450N0880W0SN110"},"geometry":{"type":"Polygon","coordinates":[[[-107.404324,43.887392],[-107.399328,43.887397],[-107.394696,43.8874],[-107.394333,43.8874],[-107.389655,43.887399],[-107.38934,43.887399],[-107.389334,43.884503],[-107.389333,43.883779],[-107.389329,43.880811],[-107.389328,43.880159],[-107.389316,43.87654],[-107.389303,43.87292],[-107.394309,43.872917],[-107.399316,43.872915],[-107.404322,43.872912],[-107.409328,43.872909],[-107.409326,43.876528],[-107.409324,43.880148],[-107.409322,43.883767],[-107.40932,43.887387],[-107.404324,43.887392]]]}},{"type":"Feature","properties":{"sec":"08","frstdivid":"WY060450N0880W0SN080"},"geometry":{"type":"Polygon","coordinates":[[[-107.459394,43.887418],[-107.454386,43.887424],[-107.449378,43.887429],[-107.449376,43.883809],[-107.449373,43.880188],[-107.44937,43.876568],[-107.449368,43.872947],[-107.454374,43.872944],[-107.45938,43.87294],[-107.462701,43.872935],[-107.462697,43.876555],[-107.462694,43.880175],[-107.462691,43.883794],[-107.462688,43.887414],[-107.459394,43.887418]]]}},{"type":"Feature","properties":{"sec":"04","frstdivid":"WY060450N0880W0SN040"},"geometry":{"type":"Polygon","coordinates":[[[-107.434399,43.902846],[-107.429392,43.902842],[-107.429392,43.901887],[-107.429388,43.898267],[-107.429384,43.894646],[-107.429376,43.891026],[-107.429368,43.887406],[-107.43437,43.887412],[-107.439373,43.887418],[-107.444376,43.887424],[-107.449378,43.887429],[-107.449389,43.89105],[-107.4494,43.89467],[-107.449409,43.89829],[-107.449418,43.90191],[-107.44942,43.902857],[-107.444413,43.902853],[-107.439406,43.90285],[-107.434399,43.902846]]]}},{"type":"Feature","properties":{"sec":"28","frstdivid":"WY060450N0880W0SN280"},"geometry":{"type":"Polygon","coordinates":[[[-107.43935,43.843972],[-107.434348,43.843967],[-107.429347,43.843963],[-107.429344,43.840342],[-107.429341,43.836722],[-107.429338,43.833101],[-107.429334,43.829481],[-107.434335,43.829484],[-107.439335,43.829488],[-107.444335,43.829492],[-107.449336,43.829496],[-107.44934,43.833117],[-107.449344,43.836738],[-107.449348,43.840359],[-107.449352,43.84398],[-107.444351,43.843976],[-107.43935,43.843972]]]}},{"type":"Feature","properties":{"sec":"33","frstdivid":"WY060450N0880W0SN330"},"geometry":{"type":"Polygon","coordinates":[[[-107.441186,43.815003],[-107.443921,43.815006],[-107.444279,43.815006],[-107.446177,43.815007],[-107.448922,43.815009],[-107.44928,43.815009],[-107.449294,43.818631],[-107.449308,43.822252],[-107.449322,43.825874],[-107.449336,43.829496],[-107.444335,43.829492],[-107.439335,43.829488],[-107.434335,43.829484],[-107.429334,43.829481],[-107.42932,43.82586],[-107.429305,43.822239],[-107.429291,43.818618],[-107.429276,43.814998],[-107.431204,43.814997],[-107.434277,43.814999],[-107.436195,43.815],[-107.438921,43.815002],[-107.439278,43.815002],[-107.441186,43.815003]]]}},{"type":"Feature","properties":{"sec":"32","frstdivid":"WY060450N0880W0SN320"},"geometry":{"type":"Polygon","coordinates":[[[-107.461171,43.815025],[-107.462704,43.815027],[-107.462718,43.818646],[-107.462733,43.822265],[-107.462748,43.825884],[-107.462762,43.829503],[-107.459337,43.829504],[-107.454336,43.8295],[-107.449336,43.829496],[-107.449322,43.825874],[-107.449308,43.822252],[-107.449294,43.818631],[-107.44928,43.815009],[-107.451168,43.815009],[-107.453924,43.815014],[-107.454281,43.815015],[-107.456169,43.815017],[-107.458925,43.815022],[-107.459283,43.815023],[-107.461171,43.815025]]]}},{"type":"Feature","properties":{"sec":"34","frstdivid":"WY060450N0880W0SN340"},"geometry":{"type":"Polygon","coordinates":[[[-107.424275,43.814997],[-107.426203,43.814997],[-107.429276,43.814998],[-107.429291,43.818618],[-107.429305,43.822239],[-107.42932,43.82586],[-107.429334,43.829481],[-107.424332,43.829479],[-107.41933,43.829477],[-107.414327,43.829476],[-107.409325,43.829474],[-107.409312,43.825854],[-107.409298,43.822235],[-107.409285,43.818615],[-107.409272,43.814996],[-107.411199,43.814996],[-107.414273,43.814996],[-107.4162,43.814996],[-107.419274,43.814997],[-107.421201,43.814997],[-107.424275,43.814997]]]}},{"type":"Feature","properties":{"sec":"35","frstdivid":"WY060450N0880W0SN350"},"geometry":{"type":"Polygon","coordinates":[[[-107.409325,43.829474],[-107.404318,43.829477],[-107.399311,43.82948],[-107.394304,43.829483],[-107.389298,43.829486],[-107.38929,43.825866],[-107.389283,43.822246],[-107.389275,43.818626],[-107.389268,43.815006],[-107.391165,43.815005],[-107.394269,43.815003],[-107.396174,43.815002],[-107.39927,43.815001],[-107.401182,43.815],[-107.404271,43.814998],[-107.406191,43.814998],[-107.409272,43.814996],[-107.409285,43.818615],[-107.409298,43.822235],[-107.409312,43.825854],[-107.409325,43.829474]]]}},{"type":"Feature","properties":{"sec":"21","frstdivid":"WY060450N0880W0SN210"},"geometry":{"type":"Polygon","coordinates":[[[-107.439365,43.858454],[-107.434363,43.858449],[-107.42936,43.858444],[-107.429357,43.854824],[-107.429354,43.851204],[-107.42935,43.847583],[-107.429347,43.843963],[-107.434348,43.843967],[-107.43935,43.843972],[-107.444351,43.843976],[-107.449352,43.84398],[-107.449357,43.847601],[-107.449361,43.851222],[-107.449366,43.854843],[-107.44937,43.858464],[-107.444368,43.858459],[-107.439365,43.858454]]]}},{"type":"Feature","properties":{"sec":"22","frstdivid":"WY060450N0880W0SN220"},"geometry":{"type":"Polygon","coordinates":[[[-107.429354,43.851204],[-107.429357,43.854824],[-107.42936,43.858444],[-107.424354,43.858441],[-107.419348,43.858437],[-107.414342,43.858434],[-107.409336,43.858431],[-107.409331,43.854811],[-107.409327,43.851191],[-107.409322,43.847572],[-107.409318,43.843952],[-107.414325,43.843955],[-107.419332,43.843957],[-107.42434,43.84396],[-107.429347,43.843963],[-107.42935,43.847583],[-107.429354,43.851204]]]}},{"type":"Feature","properties":{"sec":"20","frstdivid":"WY060450N0880W0SN200"},"geometry":{"type":"Polygon","coordinates":[[[-107.462725,43.854838],[-107.462722,43.858457],[-107.45938,43.858461],[-107.454375,43.858463],[-107.44937,43.858464],[-107.449366,43.854843],[-107.449361,43.851222],[-107.449357,43.847601],[-107.449352,43.84398],[-107.454357,43.843981],[-107.459361,43.843982],[-107.462734,43.84398],[-107.462731,43.847599],[-107.462728,43.851218],[-107.462725,43.854838]]]}},{"type":"Feature","properties":{"sec":"27","frstdivid":"WY060450N0880W0SN270"},"geometry":{"type":"Polygon","coordinates":[[[-107.429338,43.833101],[-107.429341,43.836722],[-107.429344,43.840342],[-107.429347,43.843963],[-107.42434,43.84396],[-107.419332,43.843957],[-107.414325,43.843955],[-107.409318,43.843952],[-107.409319,43.840333],[-107.409321,43.836713],[-107.409323,43.833094],[-107.409325,43.829474],[-107.414327,43.829476],[-107.41933,43.829477],[-107.424332,43.829479],[-107.429334,43.829481],[-107.429338,43.833101]]]}},{"type":"Feature","properties":{"sec":"16","frstdivid":"WY060450N0880W0SN160"},"geometry":{"type":"Polygon","coordinates":[[[-107.44937,43.862085],[-107.449369,43.865706],[-107.449368,43.869327],[-107.449368,43.872947],[-107.444363,43.872942],[-107.439359,43.872936],[-107.434355,43.872931],[-107.429351,43.872925],[-107.429353,43.869305],[-107.429355,43.865685],[-107.429358,43.862065],[-107.42936,43.858444],[-107.434363,43.858449],[-107.439365,43.858454],[-107.444368,43.858459],[-107.44937,43.858464],[-107.44937,43.862085]]]}},{"type":"Feature","properties":{"sec":"14","frstdivid":"WY060450N0880W0SN140"},"geometry":{"type":"Polygon","coordinates":[[[-107.389303,43.87292],[-107.389294,43.869302],[-107.389286,43.865683],[-107.389277,43.862064],[-107.389268,43.858445],[-107.394285,43.858441],[-107.399302,43.858438],[-107.404319,43.858434],[-107.409336,43.858431],[-107.409334,43.86205],[-107.409332,43.86567],[-107.40933,43.869289],[-107.409328,43.872909],[-107.404322,43.872912],[-107.399316,43.872915],[-107.394309,43.872917],[-107.389303,43.87292]]]}},{"type":"Feature","properties":{"sec":"10","frstdivid":"WY060450N0880W0SN100"},"geometry":{"type":"Polygon","coordinates":[[[-107.429359,43.880166],[-107.429363,43.883786],[-107.429368,43.887406],[-107.424356,43.887401],[-107.419344,43.887397],[-107.414332,43.887392],[-107.40932,43.887387],[-107.409322,43.883767],[-107.409324,43.880148],[-107.409326,43.876528],[-107.409328,43.872909],[-107.414334,43.872913],[-107.419339,43.872917],[-107.424345,43.872921],[-107.429351,43.872925],[-107.429355,43.876546],[-107.429359,43.880166]]]}},{"type":"Feature","properties":{"sec":"02","frstdivid":"WY060450N0880W0SN020"},"geometry":{"type":"Polygon","coordinates":[[[-107.409366,43.902851],[-107.404359,43.902848],[-107.399353,43.902846],[-107.394704,43.902845],[-107.394346,43.902845],[-107.389697,43.902847],[-107.389339,43.902847],[-107.389339,43.901864],[-107.38934,43.898247],[-107.38934,43.895486],[-107.389341,43.89463],[-107.389342,43.891015],[-107.389342,43.888196],[-107.38934,43.887399],[-107.389655,43.887399],[-107.394333,43.8874],[-107.394696,43.8874],[-107.399328,43.887397],[-107.404324,43.887392],[-107.40932,43.887387],[-107.409332,43.891007],[-107.409345,43.894626],[-107.409355,43.898246],[-107.409364,43.901866],[-107.409366,43.902851]]]}},{"type":"Feature","properties":{"sec":"09","frstdivid":"WY060450N0880W0SN090"},"geometry":{"type":"Polygon","coordinates":[[[-107.44937,43.876568],[-107.449373,43.880188],[-107.449376,43.883809],[-107.449378,43.887429],[-107.444376,43.887424],[-107.439373,43.887418],[-107.43437,43.887412],[-107.429368,43.887406],[-107.429363,43.883786],[-107.429359,43.880166],[-107.429355,43.876546],[-107.429351,43.872925],[-107.434355,43.872931],[-107.439359,43.872936],[-107.444363,43.872942],[-107.449368,43.872947],[-107.44937,43.876568]]]}},{"type":"Feature","properties":{"sec":"05","frstdivid":"WY060450N0880W0SN050"},"geometry":{"type":"Polygon","coordinates":[[[-107.459394,43.887418],[-107.462688,43.887414],[-107.462688,43.891034],[-107.462688,43.894653],[-107.462688,43.898273],[-107.462688,43.901893],[-107.462688,43.902863],[-107.459433,43.902863],[-107.454426,43.90286],[-107.44942,43.902857],[-107.449418,43.90191],[-107.449409,43.89829],[-107.4494,43.89467],[-107.449389,43.89105],[-107.449378,43.887429],[-107.454386,43.887424],[-107.459394,43.887418]]]}},{"type":"Feature","properties":{"sec":"12","frstdivid":"WY060450N0880W0SN120"},"geometry":{"type":"Polygon","coordinates":[[[-107.374636,43.872927],[-107.379291,43.872925],[-107.384297,43.872922],[-107.389303,43.87292],[-107.389316,43.87654],[-107.389328,43.880159],[-107.389329,43.880811],[-107.389333,43.883779],[-107.389334,43.884503],[-107.38934,43.887399],[-107.384327,43.887405],[-107.379315,43.887411],[-107.374306,43.887416],[-107.369647,43.88742],[-107.369634,43.884512],[-107.369629,43.883799],[-107.369609,43.880819],[-107.369611,43.880179],[-107.369621,43.877164],[-107.369623,43.876558],[-107.369633,43.873509],[-107.369631,43.872937],[-107.374285,43.872927],[-107.374636,43.872927]]]}}]}