{"type":"FeatureCollection","note":"BLM Public Land Survey System. Provided by the Bureau of Land Management as is. These data are neither legal documents nor land surveys and must not be used as such.","features":[{"type":"Feature","properties":{"sec":"31","frstdivid":"MT200050S0330E0SN310"},"geometry":{"type":"Polygon","coordinates":[[[-107.679831,45.344697],[-107.683841,45.344702],[-107.684971,45.344702],[-107.688955,45.344708],[-107.690112,45.344709],[-107.69407,45.344719],[-107.695252,45.344721],[-107.699185,45.344741],[-107.700394,45.344747],[-107.700345,45.348375],[-107.700327,45.352002],[-107.700321,45.355629],[-107.70032,45.359256],[-107.695118,45.35925],[-107.689985,45.359244],[-107.684852,45.35924],[-107.679719,45.359237],[-107.679733,45.355614],[-107.679751,45.351991],[-107.679777,45.348368],[-107.679831,45.344697]]]}},{"type":"Feature","properties":{"sec":"33","frstdivid":"MT200050S0330E0SN330"},"geometry":{"type":"Polygon","coordinates":[[[-107.638741,45.344651],[-107.642631,45.344657],[-107.643874,45.344658],[-107.647789,45.344665],[-107.649007,45.344666],[-107.652948,45.344672],[-107.654141,45.344673],[-107.658108,45.34468],[-107.659276,45.344681],[-107.659219,45.348361],[-107.659201,45.351982],[-107.659186,45.355602],[-107.659174,45.359223],[-107.654038,45.359222],[-107.648901,45.35922],[-107.643766,45.359218],[-107.63863,45.359215],[-107.638642,45.355593],[-107.638656,45.351971],[-107.638672,45.348349],[-107.638741,45.344651]]]}},{"type":"Feature","properties":{"sec":"32","frstdivid":"MT200050S0330E0SN320"},"geometry":{"type":"Polygon","coordinates":[[[-107.659276,45.344681],[-107.663268,45.344686],[-107.664413,45.344687],[-107.668411,45.34469],[-107.669551,45.34469],[-107.673553,45.344694],[-107.674691,45.344694],[-107.678697,45.344697],[-107.679831,45.344697],[-107.679777,45.348368],[-107.679751,45.351991],[-107.679733,45.355614],[-107.679719,45.359237],[-107.674583,45.359233],[-107.669446,45.35923],[-107.66431,45.359226],[-107.659174,45.359223],[-107.659186,45.355602],[-107.659201,45.351982],[-107.659219,45.348361],[-107.659276,45.344681]]]}},{"type":"Feature","properties":{"sec":"34","frstdivid":"MT200050S0330E0SN340"},"geometry":{"type":"Polygon","coordinates":[[[-107.618213,45.344627],[-107.621999,45.34463],[-107.623345,45.344632],[-107.627156,45.344637],[-107.628477,45.344638],[-107.632314,45.344644],[-107.633609,45.344645],[-107.637472,45.34465],[-107.638741,45.344651],[-107.638672,45.348349],[-107.638656,45.351971],[-107.638642,45.355593],[-107.63863,45.359215],[-107.633494,45.359223],[-107.628359,45.359231],[-107.623223,45.359239],[-107.618087,45.359247],[-107.6181,45.355615],[-107.618115,45.351983],[-107.618129,45.348351],[-107.618213,45.344627]]]}},{"type":"Feature","properties":{"sec":"35","frstdivid":"MT200050S0330E0SN350"},"geometry":{"type":"Polygon","coordinates":[[[-107.597676,45.344626],[-107.598097,45.344625],[-107.601522,45.344619],[-107.602811,45.344619],[-107.606641,45.344621],[-107.607947,45.344621],[-107.61176,45.344624],[-107.61308,45.344624],[-107.616879,45.344626],[-107.618213,45.344627],[-107.618129,45.348351],[-107.618115,45.351983],[-107.6181,45.355615],[-107.618087,45.359247],[-107.61294,45.359242],[-107.607792,45.359238],[-107.602645,45.359233],[-107.597497,45.359229],[-107.59752,45.355602],[-107.597543,45.351976],[-107.597565,45.34835],[-107.597676,45.344626]]]}},{"type":"Feature","properties":{"sec":"36","frstdivid":"MT200050S0330E0SN360"},"geometry":{"type":"Polygon","coordinates":[[[-107.577108,45.34468],[-107.577543,45.344679],[-107.582249,45.344668],[-107.582671,45.344667],[-107.587391,45.344654],[-107.587813,45.344653],[-107.592534,45.344639],[-107.592956,45.344638],[-107.597676,45.344626],[-107.597565,45.34835],[-107.597543,45.351976],[-107.59752,45.355602],[-107.597497,45.359229],[-107.592368,45.359234],[-107.587238,45.359241],[-107.582108,45.359247],[-107.576979,45.359253],[-107.576984,45.35563],[-107.576991,45.352007],[-107.576997,45.348384],[-107.577108,45.34468]]]}},{"type":"Feature","properties":{"sec":"04","frstdivid":"MT200050S0330E0SN040"},"geometry":{"type":"Polygon","coordinates":[[[-107.638742,45.417228],[-107.643876,45.417212],[-107.649011,45.417196],[-107.654145,45.41718],[-107.65928,45.417164],[-107.659303,45.420784],[-107.659327,45.424404],[-107.659353,45.428023],[-107.659389,45.432174],[-107.65424,45.432153],[-107.649092,45.432132],[-107.643943,45.43211],[-107.641368,45.4321],[-107.638794,45.43209],[-107.638779,45.428098],[-107.638768,45.424477],[-107.638755,45.420853],[-107.638742,45.417228]]]}},{"type":"Feature","properties":{"sec":"17","frstdivid":"MT200050S0330E0SN170"},"geometry":{"type":"Polygon","coordinates":[[[-107.659155,45.388203],[-107.664292,45.388211],[-107.669429,45.388219],[-107.674566,45.388227],[-107.679704,45.388235],[-107.679722,45.391858],[-107.679742,45.395482],[-107.679763,45.399105],[-107.679785,45.402728],[-107.674639,45.402716],[-107.669494,45.402703],[-107.664348,45.402691],[-107.659202,45.402679],[-107.659189,45.39906],[-107.659176,45.395441],[-107.659165,45.391822],[-107.659155,45.388203]]]}},{"type":"Feature","properties":{"sec":"09","frstdivid":"MT200050S0330E0SN090"},"geometry":{"type":"Polygon","coordinates":[[[-107.638687,45.402727],[-107.643816,45.402715],[-107.648944,45.402703],[-107.654073,45.402691],[-107.659202,45.402679],[-107.659219,45.4063],[-107.659237,45.409922],[-107.659259,45.413543],[-107.65928,45.417164],[-107.654145,45.41718],[-107.649011,45.417196],[-107.643876,45.417212],[-107.638742,45.417228],[-107.638727,45.413603],[-107.638712,45.409978],[-107.638699,45.406352],[-107.638687,45.402727]]]}},{"type":"Feature","properties":{"sec":"05","frstdivid":"MT200050S0330E0SN050"},"geometry":{"type":"Polygon","coordinates":[[[-107.65928,45.417164],[-107.664448,45.417175],[-107.669616,45.417187],[-107.674784,45.417198],[-107.679952,45.417209],[-107.679949,45.420827],[-107.679953,45.424445],[-107.679959,45.428063],[-107.679979,45.432216],[-107.674831,45.432205],[-107.669683,45.432195],[-107.664536,45.432185],[-107.659389,45.432174],[-107.659353,45.428023],[-107.659327,45.424404],[-107.659303,45.420784],[-107.65928,45.417164]]]}},{"type":"Feature","properties":{"sec":"28","frstdivid":"MT200050S0330E0SN280"},"geometry":{"type":"Polygon","coordinates":[[[-107.63863,45.359215],[-107.643766,45.359218],[-107.648901,45.35922],[-107.654038,45.359222],[-107.659174,45.359223],[-107.659164,45.362845],[-107.659157,45.366468],[-107.65915,45.37009],[-107.659145,45.373713],[-107.654012,45.373713],[-107.648879,45.373713],[-107.643747,45.373713],[-107.638614,45.373713],[-107.638616,45.370089],[-107.638619,45.366464],[-107.638624,45.36284],[-107.63863,45.359215]]]}},{"type":"Feature","properties":{"sec":"29","frstdivid":"MT200050S0330E0SN290"},"geometry":{"type":"Polygon","coordinates":[[[-107.659174,45.359223],[-107.66431,45.359226],[-107.669446,45.35923],[-107.674583,45.359233],[-107.679719,45.359237],[-107.679716,45.362861],[-107.679715,45.366486],[-107.679715,45.37011],[-107.679717,45.373734],[-107.674574,45.373729],[-107.669431,45.373723],[-107.664288,45.373718],[-107.659145,45.373713],[-107.65915,45.37009],[-107.659157,45.366468],[-107.659164,45.362845],[-107.659174,45.359223]]]}},{"type":"Feature","properties":{"sec":"19","frstdivid":"MT200050S0330E0SN190"},"geometry":{"type":"Polygon","coordinates":[[[-107.679712,45.377359],[-107.679717,45.373734],[-107.684852,45.373738],[-107.689987,45.373742],[-107.695122,45.373747],[-107.700269,45.373752],[-107.700267,45.375563],[-107.700265,45.377374],[-107.700263,45.379184],[-107.700261,45.380995],[-107.70026,45.382806],[-107.700259,45.384617],[-107.700258,45.386427],[-107.700257,45.388238],[-107.695092,45.388236],[-107.689961,45.388234],[-107.684832,45.388234],[-107.679704,45.388235],[-107.679706,45.38461],[-107.679709,45.380985],[-107.679712,45.377359]]]}},{"type":"Feature","properties":{"sec":"07","frstdivid":"MT200050S0330E0SN070"},"geometry":{"type":"Polygon","coordinates":[[[-107.679785,45.402728],[-107.684918,45.402723],[-107.690052,45.402718],[-107.695186,45.402714],[-107.700313,45.402714],[-107.700324,45.406335],[-107.700338,45.409956],[-107.700359,45.413577],[-107.7004,45.417199],[-107.69538,45.417187],[-107.690236,45.417194],[-107.685094,45.417201],[-107.679952,45.417209],[-107.679904,45.413589],[-107.67986,45.409969],[-107.679821,45.406348],[-107.679785,45.402728]]]}},{"type":"Feature","properties":{"sec":"21","frstdivid":"MT200050S0330E0SN210"},"geometry":{"type":"Polygon","coordinates":[[[-107.638614,45.373713],[-107.643747,45.373713],[-107.648879,45.373713],[-107.654012,45.373713],[-107.659145,45.373713],[-107.659146,45.377335],[-107.659148,45.380958],[-107.659151,45.384581],[-107.659155,45.388203],[-107.654022,45.388208],[-107.64889,45.388213],[-107.643758,45.388217],[-107.638625,45.388222],[-107.638621,45.384595],[-107.638618,45.380968],[-107.638616,45.37734],[-107.638614,45.373713]]]}},{"type":"Feature","properties":{"sec":"16","frstdivid":"MT200050S0330E0SN160"},"geometry":{"type":"Polygon","coordinates":[[[-107.638625,45.388222],[-107.643758,45.388217],[-107.64889,45.388213],[-107.654022,45.388208],[-107.659155,45.388203],[-107.659165,45.391822],[-107.659176,45.395441],[-107.659189,45.39906],[-107.659202,45.402679],[-107.654073,45.402691],[-107.648944,45.402703],[-107.643816,45.402715],[-107.638687,45.402727],[-107.638669,45.399101],[-107.638654,45.395475],[-107.638639,45.391848],[-107.638625,45.388222]]]}},{"type":"Feature","properties":{"sec":"30","frstdivid":"MT200050S0330E0SN300"},"geometry":{"type":"Polygon","coordinates":[[[-107.679719,45.359237],[-107.684852,45.35924],[-107.689985,45.359244],[-107.695118,45.35925],[-107.70032,45.359256],[-107.700305,45.36288],[-107.700291,45.366504],[-107.700279,45.370128],[-107.700269,45.373752],[-107.695122,45.373747],[-107.689987,45.373742],[-107.684852,45.373738],[-107.679717,45.373734],[-107.679715,45.37011],[-107.679715,45.366486],[-107.679716,45.362861],[-107.679719,45.359237]]]}},{"type":"Feature","properties":{"sec":"08","frstdivid":"MT200050S0330E0SN080"},"geometry":{"type":"Polygon","coordinates":[[[-107.659202,45.402679],[-107.664348,45.402691],[-107.669494,45.402703],[-107.674639,45.402716],[-107.679785,45.402728],[-107.679821,45.406348],[-107.67986,45.409969],[-107.679904,45.413589],[-107.679952,45.417209],[-107.674784,45.417198],[-107.669616,45.417187],[-107.664448,45.417175],[-107.65928,45.417164],[-107.659259,45.413543],[-107.659237,45.409922],[-107.659219,45.4063],[-107.659202,45.402679]]]}},{"type":"Feature","properties":{"sec":"06","frstdivid":"MT200050S0330E0SN060"},"geometry":{"type":"Polygon","coordinates":[[[-107.679952,45.417209],[-107.685094,45.417201],[-107.690236,45.417194],[-107.69538,45.417187],[-107.7004,45.417199],[-107.700365,45.420807],[-107.700355,45.424414],[-107.70036,45.42802],[-107.700391,45.432185],[-107.695435,45.432212],[-107.690285,45.432211],[-107.685132,45.432214],[-107.679979,45.432216],[-107.679959,45.428063],[-107.679953,45.424445],[-107.679949,45.420827],[-107.679952,45.417209]]]}},{"type":"Feature","properties":{"sec":"18","frstdivid":"MT200050S0330E0SN180"},"geometry":{"type":"Polygon","coordinates":[[[-107.679704,45.388235],[-107.684832,45.388234],[-107.689961,45.388234],[-107.695092,45.388236],[-107.700257,45.388238],[-107.70027,45.391857],[-107.700283,45.395476],[-107.700298,45.399095],[-107.700313,45.402714],[-107.695186,45.402714],[-107.690052,45.402718],[-107.684918,45.402723],[-107.679785,45.402728],[-107.679763,45.399105],[-107.679742,45.395482],[-107.679722,45.391858],[-107.679704,45.388235]]]}},{"type":"Feature","properties":{"sec":"20","frstdivid":"MT200050S0330E0SN200"},"geometry":{"type":"Polygon","coordinates":[[[-107.659145,45.373713],[-107.664288,45.373718],[-107.669431,45.373723],[-107.674574,45.373729],[-107.679717,45.373734],[-107.679712,45.377359],[-107.679709,45.380985],[-107.679706,45.38461],[-107.679704,45.388235],[-107.674566,45.388227],[-107.669429,45.388219],[-107.664292,45.388211],[-107.659155,45.388203],[-107.659151,45.384581],[-107.659148,45.380958],[-107.659146,45.377335],[-107.659145,45.373713]]]}},{"type":"Feature","properties":{"sec":"24","frstdivid":"MT200050S0330E0SN240"},"geometry":{"type":"Polygon","coordinates":[[[-107.576951,45.373756],[-107.582081,45.373754],[-107.58721,45.373751],[-107.589775,45.37375],[-107.59234,45.373749],[-107.597469,45.373747],[-107.597466,45.377375],[-107.597464,45.381002],[-107.597463,45.38463],[-107.597463,45.388257],[-107.592337,45.38826],[-107.58721,45.388262],[-107.585928,45.388264],[-107.584647,45.388265],[-107.582083,45.388267],[-107.576957,45.38827],[-107.576954,45.384641],[-107.576952,45.381013],[-107.576951,45.377384],[-107.576951,45.373756]]]}},{"type":"Feature","properties":{"sec":"25","frstdivid":"MT200050S0330E0SN250"},"geometry":{"type":"Polygon","coordinates":[[[-107.576979,45.359253],[-107.582108,45.359247],[-107.587238,45.359241],[-107.592368,45.359234],[-107.597497,45.359229],[-107.597489,45.362858],[-107.597481,45.366488],[-107.597475,45.370117],[-107.597469,45.373747],[-107.59234,45.373749],[-107.589775,45.37375],[-107.58721,45.373751],[-107.582081,45.373754],[-107.576951,45.373756],[-107.576957,45.37013],[-107.576963,45.366505],[-107.576971,45.362879],[-107.576979,45.359253]]]}},{"type":"Feature","properties":{"sec":"14","frstdivid":"MT200050S0330E0SN140"},"geometry":{"type":"Polygon","coordinates":[[[-107.597463,45.388257],[-107.602617,45.388254],[-107.607771,45.38825],[-107.612925,45.388247],[-107.618079,45.388244],[-107.618085,45.39187],[-107.618091,45.395496],[-107.618099,45.399122],[-107.618108,45.402748],[-107.61295,45.402757],[-107.607792,45.402766],[-107.602635,45.402774],[-107.597478,45.402781],[-107.597473,45.39915],[-107.597469,45.395519],[-107.597466,45.391888],[-107.597463,45.388257]]]}},{"type":"Feature","properties":{"sec":"26","frstdivid":"MT200050S0330E0SN260"},"geometry":{"type":"Polygon","coordinates":[[[-107.597497,45.359229],[-107.602645,45.359233],[-107.607792,45.359238],[-107.61294,45.359242],[-107.618087,45.359247],[-107.61808,45.362872],[-107.618074,45.366498],[-107.618069,45.370123],[-107.618065,45.373749],[-107.612916,45.373748],[-107.607767,45.373748],[-107.605193,45.373748],[-107.602618,45.373748],[-107.597469,45.373747],[-107.597475,45.370117],[-107.597481,45.366488],[-107.597489,45.362858],[-107.597497,45.359229]]]}},{"type":"Feature","properties":{"sec":"22","frstdivid":"MT200050S0330E0SN220"},"geometry":{"type":"Polygon","coordinates":[[[-107.618065,45.373749],[-107.623202,45.37374],[-107.62834,45.373731],[-107.633477,45.373722],[-107.638614,45.373713],[-107.638616,45.37734],[-107.638618,45.380968],[-107.638621,45.384595],[-107.638625,45.388222],[-107.633489,45.388227],[-107.628352,45.388232],[-107.623216,45.388239],[-107.618079,45.388244],[-107.618075,45.38462],[-107.618071,45.380996],[-107.618067,45.377373],[-107.618065,45.373749]]]}},{"type":"Feature","properties":{"sec":"23","frstdivid":"MT200050S0330E0SN230"},"geometry":{"type":"Polygon","coordinates":[[[-107.597469,45.373747],[-107.602618,45.373748],[-107.605193,45.373748],[-107.607767,45.373748],[-107.612916,45.373748],[-107.618065,45.373749],[-107.618067,45.377373],[-107.618071,45.380996],[-107.618075,45.38462],[-107.618079,45.388244],[-107.612925,45.388247],[-107.607771,45.38825],[-107.602617,45.388254],[-107.597463,45.388257],[-107.597463,45.38463],[-107.597464,45.381002],[-107.597466,45.377375],[-107.597469,45.373747]]]}},{"type":"Feature","properties":{"sec":"01","frstdivid":"MT200050S0330E0SN010"},"geometry":{"type":"Polygon","coordinates":[[[-107.577044,45.417261],[-107.582159,45.417271],[-107.587274,45.417281],[-107.592389,45.417292],[-107.597504,45.417303],[-107.597538,45.420925],[-107.597555,45.422735],[-107.597571,45.424546],[-107.597604,45.428166],[-107.597639,45.43198],[-107.592494,45.431964],[-107.58735,45.431948],[-107.582205,45.431933],[-107.577061,45.431918],[-107.577058,45.428123],[-107.577056,45.424503],[-107.57705,45.420882],[-107.577044,45.417261]]]}},{"type":"Feature","properties":{"sec":"12","frstdivid":"MT200050S0330E0SN120"},"geometry":{"type":"Polygon","coordinates":[[[-107.576973,45.402775],[-107.582099,45.402776],[-107.587225,45.402777],[-107.592352,45.402779],[-107.597478,45.402781],[-107.597485,45.406412],[-107.59749,45.410042],[-107.597497,45.413673],[-107.597504,45.417303],[-107.592389,45.417292],[-107.587274,45.417281],[-107.582159,45.417271],[-107.577044,45.417261],[-107.577026,45.413639],[-107.577006,45.410018],[-107.576999,45.408207],[-107.576995,45.407302],[-107.576991,45.406397],[-107.576973,45.402775]]]}},{"type":"Feature","properties":{"sec":"02","frstdivid":"MT200050S0330E0SN020"},"geometry":{"type":"Polygon","coordinates":[[[-107.597504,45.417303],[-107.602666,45.417289],[-107.607828,45.417275],[-107.61299,45.417261],[-107.618152,45.417247],[-107.618167,45.420868],[-107.618181,45.424489],[-107.618198,45.428108],[-107.618216,45.432032],[-107.613072,45.432019],[-107.607927,45.432005],[-107.602783,45.431992],[-107.597639,45.43198],[-107.597604,45.428166],[-107.597571,45.424546],[-107.597555,45.422735],[-107.597538,45.420925],[-107.597504,45.417303]]]}},{"type":"Feature","properties":{"sec":"03","frstdivid":"MT200050S0330E0SN030"},"geometry":{"type":"Polygon","coordinates":[[[-107.618152,45.417247],[-107.623299,45.417243],[-107.628447,45.417237],[-107.633594,45.417232],[-107.638742,45.417228],[-107.638755,45.420853],[-107.638768,45.424477],[-107.638779,45.428098],[-107.638794,45.43209],[-107.633649,45.432075],[-107.628505,45.43206],[-107.62336,45.432046],[-107.618216,45.432032],[-107.618198,45.428108],[-107.618181,45.424489],[-107.618167,45.420868],[-107.618152,45.417247]]]}},{"type":"Feature","properties":{"sec":"27","frstdivid":"MT200050S0330E0SN270"},"geometry":{"type":"Polygon","coordinates":[[[-107.618087,45.359247],[-107.623223,45.359239],[-107.628359,45.359231],[-107.633494,45.359223],[-107.63863,45.359215],[-107.638624,45.36284],[-107.638619,45.366464],[-107.638616,45.370089],[-107.638614,45.373713],[-107.633477,45.373722],[-107.62834,45.373731],[-107.623202,45.37374],[-107.618065,45.373749],[-107.618069,45.370123],[-107.618074,45.366498],[-107.61808,45.362872],[-107.618087,45.359247]]]}},{"type":"Feature","properties":{"sec":"13","frstdivid":"MT200050S0330E0SN130"},"geometry":{"type":"Polygon","coordinates":[[[-107.576957,45.38827],[-107.582083,45.388267],[-107.584647,45.388265],[-107.585928,45.388264],[-107.58721,45.388262],[-107.592337,45.38826],[-107.597463,45.388257],[-107.597466,45.391888],[-107.597469,45.395519],[-107.597473,45.39915],[-107.597478,45.402781],[-107.592352,45.402779],[-107.587225,45.402777],[-107.582099,45.402776],[-107.576973,45.402775],[-107.576967,45.399149],[-107.576963,45.395522],[-107.576959,45.391896],[-107.576957,45.38827]]]}},{"type":"Feature","properties":{"sec":"15","frstdivid":"MT200050S0330E0SN150"},"geometry":{"type":"Polygon","coordinates":[[[-107.618079,45.388244],[-107.623216,45.388239],[-107.628352,45.388232],[-107.633489,45.388227],[-107.638625,45.388222],[-107.638639,45.391848],[-107.638654,45.395475],[-107.638669,45.399101],[-107.638687,45.402727],[-107.633542,45.402731],[-107.628398,45.402736],[-107.625825,45.402739],[-107.624539,45.402741],[-107.623253,45.402743],[-107.618108,45.402748],[-107.618099,45.399122],[-107.618091,45.395496],[-107.618085,45.39187],[-107.618079,45.388244]]]}},{"type":"Feature","properties":{"sec":"10","frstdivid":"MT200050S0330E0SN100"},"geometry":{"type":"Polygon","coordinates":[[[-107.618108,45.402748],[-107.623253,45.402743],[-107.624539,45.402741],[-107.625825,45.402739],[-107.628398,45.402736],[-107.633542,45.402731],[-107.638687,45.402727],[-107.638699,45.406352],[-107.638712,45.409978],[-107.638727,45.413603],[-107.638742,45.417228],[-107.633594,45.417232],[-107.628447,45.417237],[-107.623299,45.417243],[-107.618152,45.417247],[-107.61814,45.413622],[-107.618127,45.409997],[-107.618118,45.406373],[-107.618108,45.402748]]]}},{"type":"Feature","properties":{"sec":"11","frstdivid":"MT200050S0330E0SN110"},"geometry":{"type":"Polygon","coordinates":[[[-107.597478,45.402781],[-107.602635,45.402774],[-107.607792,45.402766],[-107.61295,45.402757],[-107.618108,45.402748],[-107.618118,45.406373],[-107.618127,45.409997],[-107.61814,45.413622],[-107.618152,45.417247],[-107.61299,45.417261],[-107.607828,45.417275],[-107.602666,45.417289],[-107.597504,45.417303],[-107.597497,45.413673],[-107.59749,45.410042],[-107.597485,45.406412],[-107.597478,45.402781]]]}}]}