{"type":"FeatureCollection","note":"BLM Public Land Survey System. Provided by the Bureau of Land Management as is. These data are neither legal documents nor land surveys and must not be used as such.","features":[{"type":"Feature","properties":{"sec":"21","frstdivid":"MT200060N0280E0SN210"},"geometry":{"type":"Polygon","coordinates":[[[-108.215224,46.252978],[-108.215277,46.249349],[-108.220588,46.249377],[-108.225899,46.249404],[-108.23121,46.249432],[-108.236521,46.249459],[-108.23648,46.253061],[-108.236438,46.256663],[-108.236397,46.260265],[-108.236356,46.263867],[-108.231033,46.263866],[-108.22571,46.263865],[-108.220388,46.263865],[-108.215065,46.263864],[-108.215118,46.260235],[-108.215171,46.256606],[-108.215224,46.252978]]]}},{"type":"Feature","properties":{"sec":"12","frstdivid":"MT200060N0280E0SN120"},"geometry":{"type":"Polygon","coordinates":[[[-108.151234,46.29266],[-108.15122,46.289473],[-108.151214,46.289031],[-108.1512,46.285832],[-108.151197,46.285402],[-108.151197,46.282127],[-108.151193,46.281772],[-108.151194,46.278422],[-108.156505,46.278417],[-108.161816,46.278412],[-108.167126,46.278408],[-108.172437,46.278403],[-108.1724,46.282036],[-108.172364,46.285669],[-108.172327,46.289302],[-108.17229,46.292935],[-108.167026,46.292979],[-108.161763,46.293023],[-108.156499,46.293067],[-108.151235,46.293111],[-108.151234,46.29266]]]}},{"type":"Feature","properties":{"sec":"27","frstdivid":"MT200060N0280E0SN270"},"geometry":{"type":"Polygon","coordinates":[[[-108.210167,46.234706],[-108.215488,46.234719],[-108.215436,46.238377],[-108.215383,46.242034],[-108.21533,46.245692],[-108.215277,46.249349],[-108.209957,46.249334],[-108.204637,46.249318],[-108.199317,46.249303],[-108.193997,46.249288],[-108.194049,46.245632],[-108.1941,46.241977],[-108.194151,46.238321],[-108.194203,46.234666],[-108.199524,46.234679],[-108.204846,46.234692],[-108.210167,46.234706]]]}},{"type":"Feature","properties":{"sec":"32","frstdivid":"MT200060N0280E0SN320"},"geometry":{"type":"Polygon","coordinates":[[[-108.236856,46.22357],[-108.236908,46.219816],[-108.238502,46.219899],[-108.242318,46.220099],[-108.243744,46.220173],[-108.247728,46.220382],[-108.248989,46.220409],[-108.252876,46.220491],[-108.254233,46.22052],[-108.258023,46.220601],[-108.257971,46.224231],[-108.25792,46.22786],[-108.257868,46.23149],[-108.257816,46.235119],[-108.252537,46.235048],[-108.247258,46.234977],[-108.241979,46.234905],[-108.2367,46.234834],[-108.236752,46.23108],[-108.236804,46.227325],[-108.236856,46.22357]]]}},{"type":"Feature","properties":{"sec":"28","frstdivid":"MT200060N0280E0SN280"},"geometry":{"type":"Polygon","coordinates":[[[-108.215436,46.238377],[-108.215488,46.234719],[-108.220791,46.234748],[-108.226094,46.234777],[-108.231397,46.234805],[-108.2367,46.234834],[-108.236655,46.238491],[-108.236611,46.242147],[-108.236566,46.245803],[-108.236521,46.249459],[-108.23121,46.249432],[-108.225899,46.249404],[-108.220588,46.249377],[-108.215277,46.249349],[-108.21533,46.245692],[-108.215383,46.242034],[-108.215436,46.238377]]]}},{"type":"Feature","properties":{"sec":"11","frstdivid":"MT200060N0280E0SN110"},"geometry":{"type":"Polygon","coordinates":[[[-108.172437,46.278403],[-108.177728,46.278396],[-108.183019,46.278389],[-108.18831,46.278383],[-108.193601,46.278376],[-108.193544,46.281992],[-108.193486,46.285608],[-108.193429,46.289223],[-108.193372,46.292839],[-108.188101,46.292863],[-108.182831,46.292887],[-108.17756,46.292911],[-108.17229,46.292935],[-108.172327,46.289302],[-108.172364,46.285669],[-108.1724,46.282036],[-108.172437,46.278403]]]}},{"type":"Feature","properties":{"sec":"10","frstdivid":"MT200060N0280E0SN100"},"geometry":{"type":"Polygon","coordinates":[[[-108.209541,46.278341],[-108.214855,46.27833],[-108.214797,46.281962],[-108.214738,46.285594],[-108.21468,46.289226],[-108.214622,46.292858],[-108.209309,46.292854],[-108.203997,46.292849],[-108.198684,46.292844],[-108.193372,46.292839],[-108.193429,46.289223],[-108.193486,46.285608],[-108.193544,46.281992],[-108.193601,46.278376],[-108.198914,46.278364],[-108.204228,46.278353],[-108.209541,46.278341]]]}},{"type":"Feature","properties":{"sec":"20","frstdivid":"MT200060N0280E0SN200"},"geometry":{"type":"Polygon","coordinates":[[[-108.236521,46.249459],[-108.241828,46.249509],[-108.247134,46.249559],[-108.25244,46.249609],[-108.257746,46.249658],[-108.25773,46.25321],[-108.257714,46.256761],[-108.257698,46.260313],[-108.257682,46.263864],[-108.25235,46.263865],[-108.247019,46.263865],[-108.241687,46.263866],[-108.236356,46.263867],[-108.236397,46.260265],[-108.236438,46.256663],[-108.23648,46.253061],[-108.236521,46.249459]]]}},{"type":"Feature","properties":{"sec":"19","frstdivid":"MT200060N0280E0SN190"},"geometry":{"type":"Polygon","coordinates":[[[-108.257746,46.249658],[-108.263159,46.249559],[-108.268571,46.24946],[-108.273885,46.249408],[-108.279117,46.249357],[-108.279046,46.25297],[-108.278975,46.256584],[-108.278904,46.260197],[-108.278833,46.263811],[-108.273599,46.263822],[-108.268328,46.263833],[-108.263005,46.263849],[-108.257682,46.263864],[-108.257698,46.260313],[-108.257714,46.256761],[-108.25773,46.25321],[-108.257746,46.249658]]]}},{"type":"Feature","properties":{"sec":"04","frstdivid":"MT200060N0280E0SN040"},"geometry":{"type":"Polygon","coordinates":[[[-108.214622,46.292858],[-108.219949,46.292848],[-108.225275,46.292837],[-108.230602,46.292826],[-108.235929,46.292815],[-108.235896,46.296445],[-108.235864,46.300076],[-108.235843,46.3037],[-108.235822,46.307334],[-108.230507,46.307361],[-108.225192,46.307389],[-108.219877,46.307416],[-108.214562,46.307444],[-108.214569,46.303808],[-108.214576,46.30017],[-108.214599,46.296514],[-108.214622,46.292858]]]}},{"type":"Feature","properties":{"sec":"05","frstdivid":"MT200060N0280E0SN050"},"geometry":{"type":"Polygon","coordinates":[[[-108.235843,46.3037],[-108.235864,46.300076],[-108.235896,46.296445],[-108.235929,46.292815],[-108.241246,46.292785],[-108.246564,46.292755],[-108.251882,46.292725],[-108.2572,46.292695],[-108.257151,46.296298],[-108.257102,46.299901],[-108.257073,46.303512],[-108.257045,46.30711],[-108.251739,46.307166],[-108.246434,46.307222],[-108.241128,46.307278],[-108.235822,46.307334],[-108.235843,46.3037]]]}},{"type":"Feature","properties":{"sec":"36","frstdivid":"MT200060N0280E0SN360"},"geometry":{"type":"Polygon","coordinates":[[[-108.151294,46.234587],[-108.151424,46.231065],[-108.151428,46.230946],[-108.15156,46.227406],[-108.15156,46.227305],[-108.151593,46.223713],[-108.151593,46.223663],[-108.151626,46.22002],[-108.154616,46.220016],[-108.156949,46.220009],[-108.159874,46.22],[-108.162269,46.219992],[-108.165132,46.219983],[-108.16758,46.219975],[-108.170389,46.219966],[-108.172892,46.219958],[-108.172869,46.223641],[-108.172847,46.227325],[-108.172824,46.231008],[-108.172802,46.234691],[-108.167423,46.234699],[-108.162045,46.234707],[-108.156667,46.234715],[-108.151289,46.234723],[-108.151294,46.234587]]]}},{"type":"Feature","properties":{"sec":"03","frstdivid":"MT200060N0280E0SN030"},"geometry":{"type":"Polygon","coordinates":[[[-108.193372,46.292839],[-108.198684,46.292844],[-108.203997,46.292849],[-108.209309,46.292854],[-108.214622,46.292858],[-108.214599,46.296514],[-108.214576,46.30017],[-108.214569,46.303808],[-108.214562,46.307444],[-108.209215,46.307395],[-108.203869,46.307347],[-108.198522,46.307299],[-108.193175,46.307251],[-108.193215,46.303604],[-108.193255,46.300004],[-108.193313,46.296421],[-108.193372,46.292839]]]}},{"type":"Feature","properties":{"sec":"25","frstdivid":"MT200060N0280E0SN250"},"geometry":{"type":"Polygon","coordinates":[[[-108.167423,46.234699],[-108.172802,46.234691],[-108.172784,46.238346],[-108.172766,46.242002],[-108.172748,46.245657],[-108.17273,46.249312],[-108.167427,46.249325],[-108.162125,46.249337],[-108.156822,46.24935],[-108.15152,46.249363],[-108.151511,46.249092],[-108.151411,46.24572],[-108.151402,46.245466],[-108.151302,46.242076],[-108.151301,46.241841],[-108.151295,46.2384],[-108.151294,46.238214],[-108.151289,46.234723],[-108.156667,46.234715],[-108.162045,46.234707],[-108.167423,46.234699]]]}},{"type":"Feature","properties":{"sec":"02","frstdivid":"MT200060N0280E0SN020"},"geometry":{"type":"Polygon","coordinates":[[[-108.188101,46.292863],[-108.193372,46.292839],[-108.193313,46.296421],[-108.193255,46.300004],[-108.193215,46.303604],[-108.193175,46.307251],[-108.187948,46.307276],[-108.182721,46.307301],[-108.177494,46.307326],[-108.172267,46.307351],[-108.172268,46.303747],[-108.17227,46.300137],[-108.17228,46.296536],[-108.17229,46.292935],[-108.17756,46.292911],[-108.182831,46.292887],[-108.188101,46.292863]]]}},{"type":"Feature","properties":{"sec":"18","frstdivid":"MT200060N0280E0SN180"},"geometry":{"type":"Polygon","coordinates":[[[-108.257682,46.263864],[-108.263005,46.263849],[-108.268328,46.263833],[-108.273599,46.263822],[-108.278833,46.263811],[-108.278768,46.267419],[-108.278704,46.271027],[-108.278639,46.274636],[-108.278575,46.278244],[-108.273306,46.278244],[-108.268051,46.278244],[-108.262761,46.278249],[-108.25747,46.278255],[-108.257523,46.274657],[-108.257576,46.271059],[-108.257629,46.267462],[-108.257682,46.263864]]]}},{"type":"Feature","properties":{"sec":"01","frstdivid":"MT200060N0280E0SN010"},"geometry":{"type":"Polygon","coordinates":[[[-108.151217,46.303653],[-108.151225,46.300153],[-108.151225,46.300026],[-108.151231,46.296629],[-108.15123,46.296339],[-108.151235,46.293111],[-108.156499,46.293067],[-108.161763,46.293023],[-108.167026,46.292979],[-108.17229,46.292935],[-108.17228,46.296536],[-108.17227,46.300137],[-108.172268,46.303747],[-108.172267,46.307351],[-108.167002,46.307301],[-108.161738,46.307251],[-108.156474,46.3072],[-108.151208,46.30715],[-108.151217,46.303716],[-108.151217,46.303653]]]}},{"type":"Feature","properties":{"sec":"13","frstdivid":"MT200060N0280E0SN130"},"geometry":{"type":"Polygon","coordinates":[[[-108.15119,46.278141],[-108.151172,46.274769],[-108.151169,46.274503],[-108.15115,46.271116],[-108.151158,46.270865],[-108.151298,46.267483],[-108.151306,46.267227],[-108.151445,46.26385],[-108.156736,46.263857],[-108.162027,46.263865],[-108.167318,46.263872],[-108.172609,46.26388],[-108.172566,46.26751],[-108.172523,46.271141],[-108.17248,46.274772],[-108.172437,46.278403],[-108.167126,46.278408],[-108.161816,46.278412],[-108.156505,46.278417],[-108.151194,46.278422],[-108.15119,46.278141]]]}},{"type":"Feature","properties":{"sec":"15","frstdivid":"MT200060N0280E0SN150"},"geometry":{"type":"Polygon","coordinates":[[[-108.193757,46.26748],[-108.193808,46.263848],[-108.199123,46.263852],[-108.204437,46.263856],[-108.209751,46.26386],[-108.215065,46.263864],[-108.215013,46.26748],[-108.21496,46.271097],[-108.214907,46.274713],[-108.214855,46.27833],[-108.209541,46.278341],[-108.204228,46.278353],[-108.198914,46.278364],[-108.193601,46.278376],[-108.193653,46.274744],[-108.193705,46.271112],[-108.193757,46.26748]]]}},{"type":"Feature","properties":{"sec":"16","frstdivid":"MT200060N0280E0SN160"},"geometry":{"type":"Polygon","coordinates":[[[-108.236356,46.263867],[-108.236304,46.267477],[-108.236252,46.271088],[-108.2362,46.274698],[-108.236149,46.278308],[-108.230825,46.278314],[-108.225502,46.278319],[-108.220178,46.278325],[-108.214855,46.27833],[-108.214907,46.274713],[-108.21496,46.271097],[-108.215013,46.26748],[-108.215065,46.263864],[-108.220388,46.263865],[-108.22571,46.263865],[-108.231033,46.263866],[-108.236356,46.263867]]]}},{"type":"Feature","properties":{"sec":"07","frstdivid":"MT200060N0280E0SN070"},"geometry":{"type":"Polygon","coordinates":[[[-108.273306,46.278244],[-108.278575,46.278244],[-108.278511,46.281846],[-108.278448,46.285448],[-108.278384,46.28905],[-108.278321,46.292651],[-108.27301,46.292661],[-108.267759,46.29267],[-108.26248,46.292683],[-108.2572,46.292695],[-108.257267,46.289085],[-108.257335,46.285475],[-108.257403,46.281865],[-108.25747,46.278255],[-108.262761,46.278249],[-108.268051,46.278244],[-108.273306,46.278244]]]}},{"type":"Feature","properties":{"sec":"17","frstdivid":"MT200060N0280E0SN170"},"geometry":{"type":"Polygon","coordinates":[[[-108.236304,46.267477],[-108.236356,46.263867],[-108.241687,46.263866],[-108.247019,46.263865],[-108.25235,46.263865],[-108.257682,46.263864],[-108.257629,46.267462],[-108.257576,46.271059],[-108.257523,46.274657],[-108.25747,46.278255],[-108.25214,46.278268],[-108.24681,46.278281],[-108.241479,46.278295],[-108.236149,46.278308],[-108.2362,46.274698],[-108.236252,46.271088],[-108.236304,46.267477]]]}},{"type":"Feature","properties":{"sec":"09","frstdivid":"MT200060N0280E0SN090"},"geometry":{"type":"Polygon","coordinates":[[[-108.214797,46.281962],[-108.214855,46.27833],[-108.220178,46.278325],[-108.225502,46.278319],[-108.230825,46.278314],[-108.236149,46.278308],[-108.236094,46.281935],[-108.236039,46.285562],[-108.235984,46.289188],[-108.235929,46.292815],[-108.230602,46.292826],[-108.225275,46.292837],[-108.219949,46.292848],[-108.214622,46.292858],[-108.21468,46.289226],[-108.214738,46.285594],[-108.214797,46.281962]]]}},{"type":"Feature","properties":{"sec":"23","frstdivid":"MT200060N0280E0SN230"},"geometry":{"type":"Polygon","coordinates":[[[-108.193997,46.249288],[-108.19395,46.252928],[-108.193903,46.256568],[-108.193856,46.260208],[-108.193808,46.263848],[-108.188509,46.263856],[-108.183209,46.263864],[-108.177909,46.263872],[-108.172609,46.26388],[-108.172639,46.260238],[-108.172669,46.256596],[-108.1727,46.252954],[-108.17273,46.249312],[-108.178047,46.249306],[-108.183364,46.2493],[-108.18868,46.249294],[-108.193997,46.249288]]]}},{"type":"Feature","properties":{"sec":"22","frstdivid":"MT200060N0280E0SN220"},"geometry":{"type":"Polygon","coordinates":[[[-108.209957,46.249334],[-108.215277,46.249349],[-108.215224,46.252978],[-108.215171,46.256606],[-108.215118,46.260235],[-108.215065,46.263864],[-108.209751,46.26386],[-108.204437,46.263856],[-108.199123,46.263852],[-108.193808,46.263848],[-108.193856,46.260208],[-108.193903,46.256568],[-108.19395,46.252928],[-108.193997,46.249288],[-108.199317,46.249303],[-108.204637,46.249318],[-108.209957,46.249334]]]}},{"type":"Feature","properties":{"sec":"08","frstdivid":"MT200060N0280E0SN080"},"geometry":{"type":"Polygon","coordinates":[[[-108.236039,46.285562],[-108.236094,46.281935],[-108.236149,46.278308],[-108.241479,46.278295],[-108.24681,46.278281],[-108.25214,46.278268],[-108.25747,46.278255],[-108.257403,46.281865],[-108.257335,46.285475],[-108.257267,46.289085],[-108.2572,46.292695],[-108.251882,46.292725],[-108.246564,46.292755],[-108.241246,46.292785],[-108.235929,46.292815],[-108.235984,46.289188],[-108.236039,46.285562]]]}},{"type":"Feature","properties":{"sec":"06","frstdivid":"MT200060N0280E0SN060"},"geometry":{"type":"Polygon","coordinates":[[[-108.2572,46.292695],[-108.26248,46.292683],[-108.267759,46.29267],[-108.27301,46.292661],[-108.278321,46.292651],[-108.278249,46.29625],[-108.278177,46.299848],[-108.278105,46.303446],[-108.278033,46.307045],[-108.272723,46.307056],[-108.267499,46.307071],[-108.262272,46.307091],[-108.257045,46.30711],[-108.257073,46.303512],[-108.257102,46.299901],[-108.257151,46.296298],[-108.2572,46.292695]]]}},{"type":"Feature","properties":{"sec":"14","frstdivid":"MT200060N0280E0SN140"},"geometry":{"type":"Polygon","coordinates":[[[-108.172609,46.26388],[-108.177909,46.263872],[-108.183209,46.263864],[-108.188509,46.263856],[-108.193808,46.263848],[-108.193757,46.26748],[-108.193705,46.271112],[-108.193653,46.274744],[-108.193601,46.278376],[-108.18831,46.278383],[-108.183019,46.278389],[-108.177728,46.278396],[-108.172437,46.278403],[-108.17248,46.274772],[-108.172523,46.271141],[-108.172566,46.26751],[-108.172609,46.26388]]]}},{"type":"Feature","properties":{"sec":"24","frstdivid":"MT200060N0280E0SN240"},"geometry":{"type":"Polygon","coordinates":[[[-108.17273,46.249312],[-108.1727,46.252954],[-108.172669,46.256596],[-108.172639,46.260238],[-108.172609,46.26388],[-108.167318,46.263872],[-108.162027,46.263865],[-108.156736,46.263857],[-108.151445,46.26385],[-108.151445,46.263589],[-108.151464,46.260228],[-108.151464,46.259965],[-108.151482,46.256607],[-108.151483,46.256341],[-108.151501,46.252985],[-108.151501,46.252716],[-108.15152,46.249363],[-108.156822,46.24935],[-108.162125,46.249337],[-108.167427,46.249325],[-108.17273,46.249312]]]}},{"type":"Feature","properties":{"sec":"30","frstdivid":"MT200060N0280E0SN300"},"geometry":{"type":"Polygon","coordinates":[[[-108.257816,46.235119],[-108.263205,46.235063],[-108.268594,46.235007],[-108.273897,46.234975],[-108.27907,46.234945],[-108.279082,46.238548],[-108.279094,46.242151],[-108.279105,46.245754],[-108.279117,46.249357],[-108.273885,46.249408],[-108.268571,46.24946],[-108.263159,46.249559],[-108.257746,46.249658],[-108.257764,46.246024],[-108.257781,46.242389],[-108.257799,46.238754],[-108.257816,46.235119]]]}},{"type":"Feature","properties":{"sec":"33","frstdivid":"MT200060N0280E0SN330"},"geometry":{"type":"Polygon","coordinates":[[[-108.215752,46.220081],[-108.217537,46.220054],[-108.221095,46.22],[-108.222778,46.219974],[-108.226438,46.219918],[-108.22802,46.219903],[-108.231673,46.219867],[-108.233263,46.219852],[-108.236908,46.219816],[-108.236856,46.22357],[-108.236804,46.227325],[-108.236752,46.23108],[-108.2367,46.234834],[-108.231397,46.234805],[-108.226094,46.234777],[-108.220791,46.234748],[-108.215488,46.234719],[-108.215554,46.23106],[-108.21562,46.2274],[-108.215686,46.223741],[-108.215752,46.220081]]]}},{"type":"Feature","properties":{"sec":"34","frstdivid":"MT200060N0280E0SN340"},"geometry":{"type":"Polygon","coordinates":[[[-108.194404,46.223524],[-108.194471,46.21981],[-108.196659,46.219858],[-108.199791,46.219928],[-108.201878,46.219974],[-108.205111,46.220046],[-108.207098,46.220053],[-108.210432,46.220064],[-108.212318,46.22007],[-108.215752,46.220081],[-108.215686,46.223741],[-108.21562,46.2274],[-108.215554,46.23106],[-108.215488,46.234719],[-108.210167,46.234706],[-108.204846,46.234692],[-108.199524,46.234679],[-108.194203,46.234666],[-108.19427,46.230952],[-108.194337,46.227238],[-108.194404,46.223524]]]}},{"type":"Feature","properties":{"sec":"35","frstdivid":"MT200060N0280E0SN350"},"geometry":{"type":"Polygon","coordinates":[[[-108.172847,46.227325],[-108.172869,46.223641],[-108.172892,46.219958],[-108.175647,46.21994],[-108.178249,46.219923],[-108.1809,46.219905],[-108.183606,46.219887],[-108.186153,46.219869],[-108.189038,46.219849],[-108.191407,46.219832],[-108.194471,46.21981],[-108.194404,46.223524],[-108.194337,46.227238],[-108.19427,46.230952],[-108.194203,46.234666],[-108.188852,46.234672],[-108.183502,46.234679],[-108.178152,46.234685],[-108.172802,46.234691],[-108.172824,46.231008],[-108.172847,46.227325]]]}},{"type":"Feature","properties":{"sec":"26","frstdivid":"MT200060N0280E0SN260"},"geometry":{"type":"Polygon","coordinates":[[[-108.172802,46.234691],[-108.178152,46.234685],[-108.183502,46.234679],[-108.188852,46.234672],[-108.194203,46.234666],[-108.194151,46.238321],[-108.1941,46.241977],[-108.194049,46.245632],[-108.193997,46.249288],[-108.18868,46.249294],[-108.183364,46.2493],[-108.178047,46.249306],[-108.17273,46.249312],[-108.172748,46.245657],[-108.172766,46.242002],[-108.172784,46.238346],[-108.172802,46.234691]]]}},{"type":"Feature","properties":{"sec":"29","frstdivid":"MT200060N0280E0SN290"},"geometry":{"type":"Polygon","coordinates":[[[-108.236611,46.242147],[-108.236655,46.238491],[-108.2367,46.234834],[-108.241979,46.234905],[-108.247258,46.234977],[-108.252537,46.235048],[-108.257816,46.235119],[-108.257799,46.238754],[-108.257781,46.242389],[-108.257764,46.246024],[-108.257746,46.249658],[-108.25244,46.249609],[-108.247134,46.249559],[-108.241828,46.249509],[-108.236521,46.249459],[-108.236566,46.245803],[-108.236611,46.242147]]]}},{"type":"Feature","properties":{"sec":"31","frstdivid":"MT200060N0280E0SN310"},"geometry":{"type":"Polygon","coordinates":[[[-108.275091,46.220369],[-108.279103,46.2204],[-108.279095,46.224037],[-108.279086,46.227673],[-108.279078,46.231309],[-108.27907,46.234945],[-108.273897,46.234975],[-108.268594,46.235007],[-108.263205,46.235063],[-108.257816,46.235119],[-108.257868,46.23149],[-108.25792,46.22786],[-108.257971,46.224231],[-108.258023,46.220601],[-108.259477,46.220562],[-108.263314,46.220459],[-108.26468,46.220423],[-108.268605,46.220317],[-108.269885,46.220328],[-108.273939,46.22036],[-108.275091,46.220369]]]}}]}