{"type":"FeatureCollection","note":"BLM Public Land Survey System. Provided by the Bureau of Land Management as is. These data are neither legal documents nor land surveys and must not be used as such.","features":[{"type":"Feature","properties":{"sec":"02","frstdivid":"MT200030N0420E0SN020"},"geometry":{"type":"Polygon","coordinates":[[[-106.477597,46.035247],[-106.4828,46.03524],[-106.482804,46.038861],[-106.482807,46.042483],[-106.48281,46.046104],[-106.482814,46.050206],[-106.477771,46.050196],[-106.477627,46.050195],[-106.472543,46.050185],[-106.472441,46.050184],[-106.467305,46.050173],[-106.467254,46.050173],[-106.462067,46.050162],[-106.462046,46.046125],[-106.462027,46.042507],[-106.462006,46.038888],[-106.461988,46.035272],[-106.467189,46.035262],[-106.472393,46.035255],[-106.477597,46.035247]]]}},{"type":"Feature","properties":{"sec":"31","frstdivid":"MT200030N0420E0SN310"},"geometry":{"type":"Polygon","coordinates":[[[-106.560962,45.962863],[-106.566182,45.962862],[-106.566171,45.966495],[-106.566161,45.970129],[-106.566151,45.973762],[-106.56614,45.977396],[-106.560911,45.977378],[-106.555723,45.977361],[-106.550538,45.977344],[-106.545353,45.977327],[-106.545358,45.973708],[-106.545363,45.970089],[-106.545369,45.96647],[-106.545374,45.962851],[-106.550571,45.962857],[-106.555768,45.962864],[-106.560962,45.962863]]]}},{"type":"Feature","properties":{"sec":"16","frstdivid":"MT200030N0420E0SN160"},"geometry":{"type":"Polygon","coordinates":[[[-106.519327,46.006295],[-106.524524,46.006296],[-106.524513,46.009918],[-106.524503,46.01354],[-106.524492,46.017162],[-106.524481,46.020783],[-106.519281,46.02078],[-106.514081,46.020776],[-106.508882,46.020773],[-106.503679,46.020767],[-106.503692,46.017147],[-106.503706,46.013528],[-106.503721,46.009911],[-106.503734,46.006291],[-106.508931,46.006292],[-106.514129,46.006294],[-106.519327,46.006295]]]}},{"type":"Feature","properties":{"sec":"22","frstdivid":"MT200030N0420E0SN220"},"geometry":{"type":"Polygon","coordinates":[[[-106.498574,45.991827],[-106.503774,45.991817],[-106.503764,45.995436],[-106.503754,45.999054],[-106.503744,46.002673],[-106.503734,46.006291],[-106.498528,46.006297],[-106.493323,46.006303],[-106.488117,46.006309],[-106.482912,46.006315],[-106.482927,46.002699],[-106.482943,45.999084],[-106.482958,45.995469],[-106.482974,45.991854],[-106.488174,45.991845],[-106.493374,45.991836],[-106.498574,45.991827]]]}},{"type":"Feature","properties":{"sec":"06","frstdivid":"MT200030N0420E0SN060"},"geometry":{"type":"Polygon","coordinates":[[[-106.560837,46.03527],[-106.56597,46.035266],[-106.56597,46.035691],[-106.565991,46.038885],[-106.565994,46.039334],[-106.566014,46.042504],[-106.566017,46.042976],[-106.566037,46.046122],[-106.56604,46.046612],[-106.566063,46.050248],[-106.561324,46.050233],[-106.56077,46.050231],[-106.556246,46.050216],[-106.555576,46.050214],[-106.551013,46.050198],[-106.550387,46.050196],[-106.54578,46.050181],[-106.545198,46.050182],[-106.545199,46.04615],[-106.545199,46.04253],[-106.545208,46.038907],[-106.545217,46.035284],[-106.550426,46.035278],[-106.555634,46.035273],[-106.560837,46.03527]]]}},{"type":"Feature","properties":{"sec":"23","frstdivid":"MT200030N0420E0SN230"},"geometry":{"type":"Polygon","coordinates":[[[-106.477775,45.991868],[-106.482974,45.991854],[-106.482958,45.995469],[-106.482943,45.999084],[-106.482927,46.002699],[-106.482912,46.006315],[-106.477707,46.006332],[-106.472502,46.006349],[-106.467298,46.006366],[-106.462093,46.006383],[-106.462115,46.002765],[-106.462136,45.999148],[-106.462157,45.99553],[-106.462179,45.991912],[-106.467378,45.991897],[-106.472576,45.991883],[-106.477775,45.991868]]]}},{"type":"Feature","properties":{"sec":"14","frstdivid":"MT200030N0420E0SN140"},"geometry":{"type":"Polygon","coordinates":[[[-106.477707,46.006332],[-106.482912,46.006315],[-106.482898,46.00993],[-106.482881,46.013544],[-106.482865,46.017157],[-106.482849,46.02077],[-106.477644,46.020784],[-106.472438,46.020798],[-106.467233,46.020812],[-106.462028,46.020827],[-106.462045,46.017216],[-106.462062,46.013606],[-106.462079,46.009996],[-106.462093,46.006383],[-106.467298,46.006366],[-106.472502,46.006349],[-106.477707,46.006332]]]}},{"type":"Feature","properties":{"sec":"36","frstdivid":"MT200030N0420E0SN360"},"geometry":{"type":"Polygon","coordinates":[[[-106.462295,45.966566],[-106.462285,45.970182],[-106.462275,45.973798],[-106.462265,45.977415],[-106.457069,45.977423],[-106.451873,45.977431],[-106.446677,45.977439],[-106.441482,45.977448],[-106.441496,45.973829],[-106.441511,45.970211],[-106.441526,45.966592],[-106.441541,45.962974],[-106.446732,45.962968],[-106.451923,45.962962],[-106.457114,45.962956],[-106.462306,45.96295],[-106.462295,45.966566]]]}},{"type":"Feature","properties":{"sec":"11","frstdivid":"MT200030N0420E0SN110"},"geometry":{"type":"Polygon","coordinates":[[[-106.477644,46.020784],[-106.482849,46.02077],[-106.482835,46.024386],[-106.482823,46.028003],[-106.482812,46.031621],[-106.4828,46.03524],[-106.477597,46.035247],[-106.472393,46.035255],[-106.467189,46.035262],[-106.461988,46.035272],[-106.461998,46.031661],[-106.462008,46.028049],[-106.462018,46.024438],[-106.462028,46.020827],[-106.467233,46.020812],[-106.472438,46.020798],[-106.477644,46.020784]]]}},{"type":"Feature","properties":{"sec":"33","frstdivid":"MT200030N0420E0SN330"},"geometry":{"type":"Polygon","coordinates":[[[-106.519393,45.962862],[-106.524588,45.962857],[-106.524589,45.966477],[-106.52459,45.970096],[-106.524591,45.973716],[-106.524591,45.977336],[-106.519396,45.977339],[-106.514201,45.977342],[-106.509006,45.977346],[-106.503811,45.977349],[-106.50381,45.973731],[-106.50381,45.970112],[-106.503809,45.966494],[-106.503809,45.962875],[-106.509004,45.962871],[-106.514198,45.962866],[-106.519393,45.962862]]]}},{"type":"Feature","properties":{"sec":"25","frstdivid":"MT200030N0420E0SN250"},"geometry":{"type":"Polygon","coordinates":[[[-106.4622,45.988288],[-106.462179,45.991912],[-106.45699,45.991923],[-106.451801,45.991935],[-106.446611,45.991946],[-106.441422,45.991958],[-106.441437,45.98834],[-106.441452,45.984723],[-106.441467,45.981085],[-106.441482,45.977448],[-106.446677,45.977439],[-106.451873,45.977431],[-106.457069,45.977423],[-106.462265,45.977415],[-106.462243,45.981039],[-106.462222,45.984663],[-106.4622,45.988288]]]}},{"type":"Feature","properties":{"sec":"15","frstdivid":"MT200030N0420E0SN150"},"geometry":{"type":"Polygon","coordinates":[[[-106.498528,46.006297],[-106.503734,46.006291],[-106.503721,46.009911],[-106.503706,46.013528],[-106.503692,46.017147],[-106.503679,46.020767],[-106.498471,46.020767],[-106.493262,46.020766],[-106.488055,46.020768],[-106.482849,46.02077],[-106.482865,46.017157],[-106.482881,46.013544],[-106.482898,46.00993],[-106.482912,46.006315],[-106.488117,46.006309],[-106.493323,46.006303],[-106.498528,46.006297]]]}},{"type":"Feature","properties":{"sec":"08","frstdivid":"MT200030N0420E0SN080"},"geometry":{"type":"Polygon","coordinates":[[[-106.540056,46.020792],[-106.545247,46.020795],[-106.54524,46.024417],[-106.545232,46.028039],[-106.545225,46.031661],[-106.545217,46.035284],[-106.540023,46.035281],[-106.534828,46.035278],[-106.529634,46.035275],[-106.524439,46.035272],[-106.52445,46.03165],[-106.52446,46.028028],[-106.524471,46.024406],[-106.524481,46.020783],[-106.529673,46.020786],[-106.534864,46.020789],[-106.540056,46.020792]]]}},{"type":"Feature","properties":{"sec":"09","frstdivid":"MT200030N0420E0SN090"},"geometry":{"type":"Polygon","coordinates":[[[-106.519281,46.02078],[-106.524481,46.020783],[-106.524471,46.024406],[-106.52446,46.028028],[-106.52445,46.03165],[-106.524439,46.035272],[-106.519234,46.035269],[-106.51403,46.035265],[-106.508825,46.035261],[-106.503619,46.035256],[-106.503634,46.031634],[-106.503649,46.028011],[-106.503664,46.024389],[-106.503679,46.020767],[-106.508882,46.020773],[-106.514081,46.020776],[-106.519281,46.02078]]]}},{"type":"Feature","properties":{"sec":"35","frstdivid":"MT200030N0420E0SN350"},"geometry":{"type":"Polygon","coordinates":[[[-106.477882,45.962913],[-106.483074,45.962901],[-106.483069,45.966522],[-106.483063,45.970143],[-106.483058,45.973764],[-106.483052,45.977385],[-106.477855,45.977392],[-106.472659,45.9774],[-106.467462,45.977407],[-106.462265,45.977415],[-106.462275,45.973798],[-106.462285,45.970182],[-106.462295,45.966566],[-106.462306,45.96295],[-106.467498,45.962937],[-106.47269,45.962925],[-106.477882,45.962913]]]}},{"type":"Feature","properties":{"sec":"32","frstdivid":"MT200030N0420E0SN320"},"geometry":{"type":"Polygon","coordinates":[[[-106.540177,45.962852],[-106.545374,45.962851],[-106.545369,45.96647],[-106.545363,45.970089],[-106.545358,45.973708],[-106.545353,45.977327],[-106.540162,45.977329],[-106.534972,45.977332],[-106.529782,45.977334],[-106.524591,45.977336],[-106.524591,45.973716],[-106.52459,45.970096],[-106.524589,45.966477],[-106.524588,45.962857],[-106.529784,45.962855],[-106.534981,45.962854],[-106.540177,45.962852]]]}},{"type":"Feature","properties":{"sec":"27","frstdivid":"MT200030N0420E0SN270"},"geometry":{"type":"Polygon","coordinates":[[[-106.498621,45.977358],[-106.503811,45.977349],[-106.503801,45.980966],[-106.503792,45.984583],[-106.503783,45.9882],[-106.503774,45.991817],[-106.498574,45.991827],[-106.493374,45.991836],[-106.488174,45.991845],[-106.482974,45.991854],[-106.482994,45.988237],[-106.483013,45.984619],[-106.483033,45.981002],[-106.483052,45.977385],[-106.488242,45.977376],[-106.493431,45.977367],[-106.498621,45.977358]]]}},{"type":"Feature","properties":{"sec":"19","frstdivid":"MT200030N0420E0SN190"},"geometry":{"type":"Polygon","coordinates":[[[-106.560894,45.99182],[-106.566111,45.99182],[-106.566111,45.991973],[-106.566102,45.995445],[-106.566102,45.995632],[-106.566093,45.999071],[-106.566093,45.99929],[-106.566085,46.002696],[-106.566085,46.002943],[-106.566077,46.00632],[-106.560886,46.006319],[-106.55569,46.006318],[-106.550493,46.006315],[-106.545296,46.006312],[-106.545302,46.00269],[-106.545309,45.999067],[-106.545316,45.995444],[-106.545323,45.991821],[-106.550513,45.99182],[-106.555703,45.99182],[-106.560894,45.99182]]]}},{"type":"Feature","properties":{"sec":"20","frstdivid":"MT200030N0420E0SN200"},"geometry":{"type":"Polygon","coordinates":[[[-106.540131,45.991818],[-106.545323,45.991821],[-106.545316,45.995444],[-106.545309,45.999067],[-106.545302,46.00269],[-106.545296,46.006312],[-106.540103,46.006308],[-106.53491,46.006304],[-106.529717,46.0063],[-106.524524,46.006296],[-106.524532,46.002675],[-106.52454,45.999053],[-106.524548,45.995431],[-106.524556,45.991808],[-106.529748,45.991812],[-106.53494,45.991815],[-106.540131,45.991818]]]}},{"type":"Feature","properties":{"sec":"34","frstdivid":"MT200030N0420E0SN340"},"geometry":{"type":"Polygon","coordinates":[[[-106.498625,45.962882],[-106.503809,45.962875],[-106.503809,45.966494],[-106.50381,45.970112],[-106.50381,45.973731],[-106.503811,45.977349],[-106.498621,45.977358],[-106.493431,45.977367],[-106.488242,45.977376],[-106.483052,45.977385],[-106.483058,45.973764],[-106.483063,45.970143],[-106.483069,45.966522],[-106.483074,45.962901],[-106.488258,45.962894],[-106.493441,45.962888],[-106.498625,45.962882]]]}},{"type":"Feature","properties":{"sec":"30","frstdivid":"MT200030N0420E0SN300"},"geometry":{"type":"Polygon","coordinates":[[[-106.560911,45.977378],[-106.56614,45.977396],[-106.566133,45.981002],[-106.566133,45.981039],[-106.566126,45.984608],[-106.566126,45.984683],[-106.566118,45.988214],[-106.566118,45.988328],[-106.566111,45.99182],[-106.560894,45.99182],[-106.555703,45.99182],[-106.550513,45.99182],[-106.545323,45.991821],[-106.545331,45.988198],[-106.545338,45.984574],[-106.545345,45.980951],[-106.545353,45.977327],[-106.550538,45.977344],[-106.555723,45.977361],[-106.560911,45.977378]]]}},{"type":"Feature","properties":{"sec":"29","frstdivid":"MT200030N0420E0SN290"},"geometry":{"type":"Polygon","coordinates":[[[-106.540162,45.977329],[-106.545353,45.977327],[-106.545345,45.980951],[-106.545338,45.984574],[-106.545331,45.988198],[-106.545323,45.991821],[-106.540131,45.991818],[-106.53494,45.991815],[-106.529748,45.991812],[-106.524556,45.991808],[-106.524565,45.98819],[-106.524574,45.984572],[-106.524583,45.980954],[-106.524591,45.977336],[-106.529782,45.977334],[-106.534972,45.977332],[-106.540162,45.977329]]]}},{"type":"Feature","properties":{"sec":"13","frstdivid":"MT200030N0420E0SN130"},"geometry":{"type":"Polygon","coordinates":[[[-106.456911,46.006387],[-106.462093,46.006383],[-106.462079,46.009996],[-106.462062,46.013606],[-106.462045,46.017216],[-106.462028,46.020827],[-106.456846,46.020835],[-106.451665,46.020844],[-106.446484,46.020853],[-106.441302,46.020862],[-106.441318,46.017246],[-106.441334,46.013631],[-106.44135,46.010015],[-106.441363,46.006397],[-106.446546,46.006394],[-106.451728,46.00639],[-106.456911,46.006387]]]}},{"type":"Feature","properties":{"sec":"17","frstdivid":"MT200030N0420E0SN170"},"geometry":{"type":"Polygon","coordinates":[[[-106.540103,46.006308],[-106.545296,46.006312],[-106.545284,46.009933],[-106.545272,46.013554],[-106.545259,46.017174],[-106.545247,46.020795],[-106.540056,46.020792],[-106.534864,46.020789],[-106.529673,46.020786],[-106.524481,46.020783],[-106.524492,46.017162],[-106.524503,46.01354],[-106.524513,46.009918],[-106.524524,46.006296],[-106.529717,46.0063],[-106.53491,46.006304],[-106.540103,46.006308]]]}},{"type":"Feature","properties":{"sec":"12","frstdivid":"MT200030N0420E0SN120"},"geometry":{"type":"Polygon","coordinates":[[[-106.456846,46.020835],[-106.462028,46.020827],[-106.462018,46.024438],[-106.462008,46.028049],[-106.461998,46.031661],[-106.461988,46.035272],[-106.456797,46.035279],[-106.451605,46.035285],[-106.446414,46.035292],[-106.441223,46.035299],[-106.441243,46.031689],[-106.441263,46.02808],[-106.441282,46.024471],[-106.441302,46.020862],[-106.446484,46.020853],[-106.451665,46.020844],[-106.456846,46.020835]]]}},{"type":"Feature","properties":{"sec":"21","frstdivid":"MT200030N0420E0SN210"},"geometry":{"type":"Polygon","coordinates":[[[-106.519361,45.991811],[-106.524556,45.991808],[-106.524548,45.995431],[-106.52454,45.999053],[-106.524532,46.002675],[-106.524524,46.006296],[-106.519327,46.006295],[-106.514129,46.006294],[-106.508931,46.006292],[-106.503734,46.006291],[-106.503744,46.002673],[-106.503754,45.999054],[-106.503764,45.995436],[-106.503774,45.991817],[-106.508969,45.991815],[-106.514165,45.991813],[-106.519361,45.991811]]]}},{"type":"Feature","properties":{"sec":"04","frstdivid":"MT200030N0420E0SN040"},"geometry":{"type":"Polygon","coordinates":[[[-106.519234,46.035269],[-106.524439,46.035272],[-106.524445,46.038891],[-106.524451,46.04251],[-106.524457,46.046128],[-106.524464,46.050202],[-106.519593,46.05021],[-106.519254,46.050211],[-106.514364,46.050219],[-106.514044,46.050219],[-106.509123,46.050227],[-106.508834,46.050228],[-106.503883,46.050236],[-106.503623,46.050236],[-106.503621,46.046122],[-106.503619,46.042501],[-106.503619,46.038878],[-106.503619,46.035256],[-106.508825,46.035261],[-106.51403,46.035265],[-106.519234,46.035269]]]}},{"type":"Feature","properties":{"sec":"24","frstdivid":"MT200030N0420E0SN240"},"geometry":{"type":"Polygon","coordinates":[[[-106.45699,45.991923],[-106.462179,45.991912],[-106.462157,45.99553],[-106.462136,45.999148],[-106.462115,46.002765],[-106.462093,46.006383],[-106.456911,46.006387],[-106.451728,46.00639],[-106.446546,46.006394],[-106.441363,46.006397],[-106.441378,46.002787],[-106.441393,45.999177],[-106.441408,45.995567],[-106.441422,45.991958],[-106.446611,45.991946],[-106.451801,45.991935],[-106.45699,45.991923]]]}},{"type":"Feature","properties":{"sec":"05","frstdivid":"MT200030N0420E0SN050"},"geometry":{"type":"Polygon","coordinates":[[[-106.540023,46.035281],[-106.545217,46.035284],[-106.545208,46.038907],[-106.545199,46.04253],[-106.545199,46.04615],[-106.545198,46.050182],[-106.54054,46.050186],[-106.540014,46.050187],[-106.535301,46.050191],[-106.534831,46.050192],[-106.530062,46.050196],[-106.529648,46.050197],[-106.524823,46.050201],[-106.524464,46.050202],[-106.524457,46.046128],[-106.524451,46.04251],[-106.524445,46.038891],[-106.524439,46.035272],[-106.529634,46.035275],[-106.534828,46.035278],[-106.540023,46.035281]]]}},{"type":"Feature","properties":{"sec":"07","frstdivid":"MT200030N0420E0SN070"},"geometry":{"type":"Polygon","coordinates":[[[-106.560824,46.020788],[-106.566059,46.020786],[-106.566059,46.021177],[-106.566038,46.024406],[-106.566036,46.024805],[-106.566015,46.028026],[-106.566015,46.028434],[-106.565994,46.031646],[-106.565991,46.032063],[-106.56597,46.035266],[-106.560837,46.03527],[-106.555634,46.035273],[-106.550426,46.035278],[-106.545217,46.035284],[-106.545225,46.031661],[-106.545232,46.028039],[-106.54524,46.024417],[-106.545247,46.020795],[-106.550439,46.020793],[-106.555631,46.02079],[-106.560824,46.020788]]]}},{"type":"Feature","properties":{"sec":"10","frstdivid":"MT200030N0420E0SN100"},"geometry":{"type":"Polygon","coordinates":[[[-106.498471,46.020767],[-106.503679,46.020767],[-106.503664,46.024389],[-106.503649,46.028011],[-106.503634,46.031634],[-106.503619,46.035256],[-106.498414,46.035252],[-106.49321,46.035248],[-106.488005,46.035244],[-106.4828,46.03524],[-106.482812,46.031621],[-106.482823,46.028003],[-106.482835,46.024386],[-106.482849,46.02077],[-106.488055,46.020768],[-106.493262,46.020766],[-106.498471,46.020767]]]}},{"type":"Feature","properties":{"sec":"03","frstdivid":"MT200030N0420E0SN030"},"geometry":{"type":"Polygon","coordinates":[[[-106.498414,46.035252],[-106.503619,46.035256],[-106.503619,46.038878],[-106.503619,46.042501],[-106.503621,46.046122],[-106.503623,46.050236],[-106.498662,46.050229],[-106.498421,46.050228],[-106.493441,46.050221],[-106.493219,46.050221],[-106.48822,46.050214],[-106.488017,46.050214],[-106.482999,46.050207],[-106.482814,46.050206],[-106.48281,46.046104],[-106.482807,46.042483],[-106.482804,46.038861],[-106.4828,46.03524],[-106.488005,46.035244],[-106.49321,46.035248],[-106.498414,46.035252]]]}},{"type":"Feature","properties":{"sec":"28","frstdivid":"MT200030N0420E0SN280"},"geometry":{"type":"Polygon","coordinates":[[[-106.519396,45.977339],[-106.524591,45.977336],[-106.524583,45.980954],[-106.524574,45.984572],[-106.524565,45.98819],[-106.524556,45.991808],[-106.519361,45.991811],[-106.514165,45.991813],[-106.508969,45.991815],[-106.503774,45.991817],[-106.503783,45.9882],[-106.503792,45.984583],[-106.503801,45.980966],[-106.503811,45.977349],[-106.509006,45.977346],[-106.514201,45.977342],[-106.519396,45.977339]]]}},{"type":"Feature","properties":{"sec":"26","frstdivid":"MT200030N0420E0SN260"},"geometry":{"type":"Polygon","coordinates":[[[-106.467462,45.977407],[-106.472659,45.9774],[-106.477855,45.977392],[-106.483052,45.977385],[-106.483033,45.981002],[-106.483013,45.984619],[-106.482994,45.988237],[-106.482974,45.991854],[-106.477775,45.991868],[-106.472576,45.991883],[-106.467378,45.991897],[-106.462179,45.991912],[-106.4622,45.988288],[-106.462222,45.984663],[-106.462243,45.981039],[-106.462265,45.977415],[-106.467462,45.977407]]]}},{"type":"Feature","properties":{"sec":"01","frstdivid":"MT200030N0420E0SN010"},"geometry":{"type":"Polygon","coordinates":[[[-106.456797,46.035279],[-106.461988,46.035272],[-106.462006,46.038888],[-106.462027,46.042507],[-106.462046,46.046125],[-106.462067,46.050162],[-106.456839,46.050146],[-106.451611,46.050129],[-106.446383,46.050112],[-106.441155,46.050095],[-106.441172,46.046486],[-106.441174,46.046136],[-106.441187,46.042876],[-106.441188,46.042525],[-106.441205,46.038912],[-106.441223,46.035299],[-106.446414,46.035292],[-106.451605,46.035285],[-106.456797,46.035279]]]}},{"type":"Feature","properties":{"sec":"18","frstdivid":"MT200030N0420E0SN180"},"geometry":{"type":"Polygon","coordinates":[[[-106.560886,46.006319],[-106.566077,46.00632],[-106.566077,46.006595],[-106.566073,46.009937],[-106.566072,46.010243],[-106.566068,46.013553],[-106.566068,46.01389],[-106.566064,46.01717],[-106.566064,46.017533],[-106.566059,46.020786],[-106.560824,46.020788],[-106.555631,46.02079],[-106.550439,46.020793],[-106.545247,46.020795],[-106.545259,46.017174],[-106.545272,46.013554],[-106.545284,46.009933],[-106.545296,46.006312],[-106.550493,46.006315],[-106.55569,46.006318],[-106.560886,46.006319]]]}}]}