{"type":"FeatureCollection","note":"BLM Public Land Survey System. Provided by the Bureau of Land Management as is. These data are neither legal documents nor land surveys and must not be used as such.","features":[{"type":"Feature","properties":{"q":"4","ac":40.1},"geometry":{"type":"Polygon","coordinates":[[[-104.835612,44.528136],[-104.839356,44.528045],[-104.840691,44.528013],[-104.840591,44.531664],[-104.83554,44.53174],[-104.835612,44.528136]]]}},{"type":"Feature","properties":{"q":"SWSE","ac":39.3},"geometry":{"type":"Polygon","coordinates":[[[-104.825539,44.528125],[-104.829686,44.528237],[-104.830533,44.52826],[-104.830514,44.531814],[-104.825499,44.531759],[-104.825539,44.528125]]]}},{"type":"Feature","properties":{"q":"SESE","ac":40.2},"geometry":{"type":"Polygon","coordinates":[[[-104.82446,44.528095],[-104.825539,44.528125],[-104.825499,44.531759],[-104.820483,44.531705],[-104.820545,44.527989],[-104.82446,44.528095]]]}},{"type":"Feature","properties":{"q":"SESW","ac":39.5},"geometry":{"type":"Polygon","coordinates":[[[-104.83554,44.53174],[-104.830514,44.531814],[-104.830533,44.52826],[-104.834912,44.528154],[-104.835612,44.528136],[-104.83554,44.53174]]]}},{"type":"Feature","properties":{"q":"NWNE","ac":43.5},"geometry":{"type":"Polygon","coordinates":[[[-104.831622,44.56849],[-104.831785,44.572424],[-104.826694,44.572438],[-104.826525,44.56854],[-104.831622,44.56849]]]}},{"type":"Feature","properties":{"q":"3","ac":40.3},"geometry":{"type":"Polygon","coordinates":[[[-104.837045,44.615411],[-104.831967,44.61542],[-104.831959,44.61178],[-104.83704,44.611773],[-104.837045,44.615411]]]}},{"type":"Feature","properties":{"q":"SENE","ac":40.6},"geometry":{"type":"Polygon","coordinates":[[[-104.825459,44.535394],[-104.825443,44.53908],[-104.82041,44.539118],[-104.820422,44.53542],[-104.825459,44.535394]]]}},{"type":"Feature","properties":{"q":"SENW","ac":40.0},"geometry":{"type":"Polygon","coordinates":[[[-104.831837,44.582843],[-104.831819,44.579265],[-104.836927,44.57915],[-104.836932,44.582757],[-104.831837,44.582843]]]}},{"type":"Feature","properties":{"q":"3","ac":39.9},"geometry":{"type":"Polygon","coordinates":[[[-104.842073,44.575408],[-104.842036,44.579034],[-104.836927,44.57915],[-104.836948,44.575626],[-104.842073,44.575408]]]}},{"type":"Feature","properties":{"q":"NWSW","ac":39.7},"geometry":{"type":"Polygon","coordinates":[[[-104.821708,44.590144],[-104.821726,44.593752],[-104.816668,44.593856],[-104.816669,44.590249],[-104.821708,44.590144]]]}},{"type":"Feature","properties":{"q":"3","ac":39.7},"geometry":{"type":"Polygon","coordinates":[[[-104.835656,44.546227],[-104.840764,44.546179],[-104.840908,44.549753],[-104.835825,44.549793],[-104.835656,44.546227]]]}},{"type":"Feature","properties":{"q":"NESE","ac":39.2},"geometry":{"type":"Polygon","coordinates":[[[-104.825577,44.546319],[-104.825726,44.549872],[-104.820652,44.549911],[-104.820525,44.546364],[-104.825577,44.546319]]]}},{"type":"Feature","properties":{"q":"NWSE","ac":38.2},"geometry":{"type":"Polygon","coordinates":[[[-104.831819,44.579265],[-104.826732,44.57938],[-104.826713,44.575909],[-104.831802,44.575844],[-104.831819,44.579265]]]}},{"type":"Feature","properties":{"q":"NESW","ac":40.2},"geometry":{"type":"Polygon","coordinates":[[[-104.831893,44.593667],[-104.831874,44.590044],[-104.836957,44.589995],[-104.836977,44.593625],[-104.831893,44.593667]]]}},{"type":"Feature","properties":{"q":"SESW","ac":42.2},"geometry":{"type":"Polygon","coordinates":[[[-104.831143,44.556981],[-104.836265,44.556982],[-104.836439,44.560726],[-104.831301,44.560769],[-104.831143,44.556981]]]}},{"type":"Feature","properties":{"q":"SESW","ac":39.1},"geometry":{"type":"Polygon","coordinates":[[[-104.831785,44.572424],[-104.836969,44.572102],[-104.836948,44.575626],[-104.831802,44.575844],[-104.831785,44.572424]]]}},{"type":"Feature","properties":{"q":"NESW","ac":39.1},"geometry":{"type":"Polygon","coordinates":[[[-104.835656,44.546227],[-104.835825,44.549793],[-104.830799,44.549832],[-104.830628,44.546274],[-104.835656,44.546227]]]}},{"type":"Feature","properties":{"q":"4","ac":40.6},"geometry":{"type":"Polygon","coordinates":[[[-104.842064,44.586307],[-104.84207,44.589945],[-104.836957,44.589995],[-104.836938,44.586364],[-104.842064,44.586307]]]}},{"type":"Feature","properties":{"q":"SWSE","ac":39.1},"geometry":{"type":"Polygon","coordinates":[[[-104.825428,44.542766],[-104.830457,44.542715],[-104.830628,44.546274],[-104.825577,44.546319],[-104.825428,44.542766]]]}},{"type":"Feature","properties":{"q":"1","ac":40.3},"geometry":{"type":"Polygon","coordinates":[[[-104.826879,44.611785],[-104.826889,44.615424],[-104.821811,44.615429],[-104.8218,44.61179],[-104.826879,44.611785]]]}},{"type":"Feature","properties":{"q":"NENW","ac":39.9},"geometry":{"type":"Polygon","coordinates":[[[-104.836045,44.553388],[-104.836265,44.556982],[-104.831143,44.556981],[-104.830971,44.553407],[-104.836045,44.553388]]]}},{"type":"Feature","properties":{"q":"4","ac":41.7},"geometry":{"type":"Polygon","coordinates":[[[-104.836265,44.556982],[-104.841391,44.556982],[-104.841571,44.560682],[-104.836439,44.560726],[-104.836265,44.556982]]]}},{"type":"Feature","properties":{"q":"SWSE","ac":40.1},"geometry":{"type":"Polygon","coordinates":[[[-104.831932,44.60091],[-104.831941,44.604533],[-104.826859,44.604554],[-104.826848,44.600938],[-104.831932,44.60091]]]}},{"type":"Feature","properties":{"q":"SENE","ac":43.2},"geometry":{"type":"Polygon","coordinates":[[[-104.821428,44.568591],[-104.821254,44.564729],[-104.826356,44.564643],[-104.826525,44.56854],[-104.821428,44.568591]]]}},{"type":"Feature","properties":{"q":"NESE","ac":40.3},"geometry":{"type":"Polygon","coordinates":[[[-104.820422,44.53542],[-104.820483,44.531705],[-104.825499,44.531759],[-104.825459,44.535394],[-104.820422,44.53542]]]}},{"type":"Feature","properties":{"q":"SESE","ac":42.9},"geometry":{"type":"Polygon","coordinates":[[[-104.826024,44.556993],[-104.82619,44.560818],[-104.82108,44.560867],[-104.820905,44.557005],[-104.826024,44.556993]]]}},{"type":"Feature","properties":{"q":"SENW","ac":40.2},"geometry":{"type":"Polygon","coordinates":[[[-104.831959,44.61178],[-104.83195,44.608157],[-104.837034,44.608143],[-104.83704,44.611773],[-104.831959,44.61178]]]}},{"type":"Feature","properties":{"q":"SESW","ac":39.1},"geometry":{"type":"Polygon","coordinates":[[[-104.830457,44.542715],[-104.835486,44.54266],[-104.835656,44.546227],[-104.830628,44.546274],[-104.830457,44.542715]]]}},{"type":"Feature","properties":{"q":"4","ac":39.9},"geometry":{"type":"Polygon","coordinates":[[[-104.840621,44.542604],[-104.840764,44.546179],[-104.835656,44.546227],[-104.835486,44.54266],[-104.840621,44.542604]]]}},{"type":"Feature","properties":{"q":"NESW","ac":38.8},"geometry":{"type":"Polygon","coordinates":[[[-104.836927,44.57915],[-104.831819,44.579265],[-104.831802,44.575844],[-104.836948,44.575626],[-104.836927,44.57915]]]}},{"type":"Feature","properties":{"q":"SESE","ac":38.8},"geometry":{"type":"Polygon","coordinates":[[[-104.826694,44.572438],[-104.826713,44.575909],[-104.821624,44.575974],[-104.821602,44.572453],[-104.826694,44.572438]]]}},{"type":"Feature","properties":{"q":"NWSW","ac":39.9},"geometry":{"type":"Polygon","coordinates":[[[-104.821776,44.604575],[-104.821789,44.608182],[-104.816701,44.608223],[-104.816684,44.604631],[-104.821776,44.604575]]]}},{"type":"Feature","properties":{"q":"2","ac":40.1},"geometry":{"type":"Polygon","coordinates":[[[-104.835825,44.549793],[-104.840908,44.549753],[-104.841149,44.553368],[-104.836045,44.553388],[-104.835825,44.549793]]]}},{"type":"Feature","properties":{"q":"NENE","ac":40.0},"geometry":{"type":"Polygon","coordinates":[[[-104.821745,44.597359],[-104.826829,44.597324],[-104.826848,44.600938],[-104.821764,44.600967],[-104.821745,44.597359]]]}},{"type":"Feature","properties":{"q":"NENW","ac":39.9},"geometry":{"type":"Polygon","coordinates":[[[-104.836938,44.586364],[-104.831855,44.586421],[-104.831837,44.582843],[-104.836932,44.582757],[-104.836938,44.586364]]]}},{"type":"Feature","properties":{"q":"NWSE","ac":42.4},"geometry":{"type":"Polygon","coordinates":[[[-104.831301,44.560769],[-104.831458,44.564557],[-104.826356,44.564643],[-104.82619,44.560818],[-104.831301,44.560769]]]}},{"type":"Feature","properties":{"q":"SWSW","ac":42.4},"geometry":{"type":"Polygon","coordinates":[[[-104.81589,44.556996],[-104.820905,44.557005],[-104.82108,44.560867],[-104.81606,44.560879],[-104.81589,44.556996]]]}},{"type":"Feature","properties":{"q":"SESE","ac":40.0},"geometry":{"type":"Polygon","coordinates":[[[-104.826772,44.586478],[-104.826791,44.590094],[-104.821708,44.590144],[-104.821689,44.586536],[-104.826772,44.586478]]]}},{"type":"Feature","properties":{"q":"NENE","ac":39.2},"geometry":{"type":"Polygon","coordinates":[[[-104.826772,44.586478],[-104.821689,44.586536],[-104.821667,44.583015],[-104.826752,44.582929],[-104.826772,44.586478]]]}},{"type":"Feature","properties":{"q":"SWNE","ac":40.1},"geometry":{"type":"Polygon","coordinates":[[[-104.831959,44.61178],[-104.826879,44.611785],[-104.826869,44.60817],[-104.83195,44.608157],[-104.831959,44.61178]]]}},{"type":"Feature","properties":{"q":"NWNE","ac":39.8},"geometry":{"type":"Polygon","coordinates":[[[-104.825875,44.553432],[-104.830971,44.553407],[-104.831143,44.556981],[-104.826024,44.556993],[-104.825875,44.553432]]]}},{"type":"Feature","properties":{"q":"NESW","ac":42.3},"geometry":{"type":"Polygon","coordinates":[[[-104.836614,44.564469],[-104.831458,44.564557],[-104.831301,44.560769],[-104.836439,44.560726],[-104.836614,44.564469]]]}},{"type":"Feature","properties":{"q":"6","ac":40.3},"geometry":{"type":"Polygon","coordinates":[[[-104.842129,44.60813],[-104.837034,44.608143],[-104.837025,44.604513],[-104.84211,44.604493],[-104.842129,44.60813]]]}},{"type":"Feature","properties":{"q":"NWSE","ac":40.1},"geometry":{"type":"Polygon","coordinates":[[[-104.831874,44.590044],[-104.831893,44.593667],[-104.82681,44.59371],[-104.826791,44.590094],[-104.831874,44.590044]]]}},{"type":"Feature","properties":{"q":"NENE","ac":39.6},"geometry":{"type":"Polygon","coordinates":[[[-104.826024,44.556993],[-104.820905,44.557005],[-104.820779,44.553458],[-104.825875,44.553432],[-104.826024,44.556993]]]}},{"type":"Feature","properties":{"q":"NENE","ac":43.1},"geometry":{"type":"Polygon","coordinates":[[[-104.826694,44.572438],[-104.821602,44.572453],[-104.821428,44.568591],[-104.826525,44.56854],[-104.826694,44.572438]]]}},{"type":"Feature","properties":{"q":"SWSE","ac":38.3},"geometry":{"type":"Polygon","coordinates":[[[-104.831785,44.572424],[-104.831802,44.575844],[-104.826713,44.575909],[-104.826694,44.572438],[-104.831785,44.572424]]]}},{"type":"Feature","properties":{"q":"SESW","ac":40.2},"geometry":{"type":"Polygon","coordinates":[[[-104.837016,44.600883],[-104.837025,44.604513],[-104.831941,44.604533],[-104.831932,44.60091],[-104.837016,44.600883]]]}},{"type":"Feature","properties":{"q":"3","ac":40.5},"geometry":{"type":"Polygon","coordinates":[[[-104.84207,44.589945],[-104.842077,44.593582],[-104.836977,44.593625],[-104.836957,44.589995],[-104.84207,44.589945]]]}},{"type":"Feature","properties":{"q":"NENW","ac":43.8},"geometry":{"type":"Polygon","coordinates":[[[-104.836791,44.568286],[-104.836969,44.572102],[-104.831785,44.572424],[-104.831622,44.56849],[-104.836791,44.568286]]]}},{"type":"Feature","properties":{"q":"NWNW","ac":39.9},"geometry":{"type":"Polygon","coordinates":[[[-104.821745,44.597359],[-104.821764,44.600967],[-104.816667,44.601039],[-104.816667,44.597447],[-104.821745,44.597359]]]}},{"type":"Feature","properties":{"q":"SESW","ac":40.2},"geometry":{"type":"Polygon","coordinates":[[[-104.836938,44.586364],[-104.836957,44.589995],[-104.831874,44.590044],[-104.831855,44.586421],[-104.836938,44.586364]]]}},{"type":"Feature","properties":{"q":"NESE","ac":40.0},"geometry":{"type":"Polygon","coordinates":[[[-104.826791,44.590094],[-104.82681,44.59371],[-104.821726,44.593752],[-104.821708,44.590144],[-104.826791,44.590094]]]}},{"type":"Feature","properties":{"q":"SENW","ac":39.5},"geometry":{"type":"Polygon","coordinates":[[[-104.835825,44.549793],[-104.836045,44.553388],[-104.830971,44.553407],[-104.830799,44.549832],[-104.835825,44.549793]]]}},{"type":"Feature","properties":{"q":"SWNE","ac":39.5},"geometry":{"type":"Polygon","coordinates":[[[-104.831819,44.579265],[-104.831837,44.582843],[-104.826752,44.582929],[-104.826732,44.57938],[-104.831819,44.579265]]]}},{"type":"Feature","properties":{"q":"2","ac":40.3},"geometry":{"type":"Polygon","coordinates":[[[-104.831959,44.61178],[-104.831967,44.61542],[-104.826889,44.615424],[-104.826879,44.611785],[-104.831959,44.61178]]]}},{"type":"Feature","properties":{"q":"SWSW","ac":40.0},"geometry":{"type":"Polygon","coordinates":[[[-104.821776,44.604575],[-104.816684,44.604631],[-104.816667,44.601039],[-104.821764,44.600967],[-104.821776,44.604575]]]}},{"type":"Feature","properties":{"q":"4","ac":40.5},"geometry":{"type":"Polygon","coordinates":[[[-104.83704,44.611773],[-104.842143,44.611766],[-104.842156,44.615402],[-104.837045,44.615411],[-104.83704,44.611773]]]}},{"type":"Feature","properties":{"q":"SWNW","ac":39.8},"geometry":{"type":"Polygon","coordinates":[[[-104.821726,44.593752],[-104.821745,44.597359],[-104.816667,44.597447],[-104.816668,44.593856],[-104.821726,44.593752]]]}},{"type":"Feature","properties":{"q":"NWSE","ac":39.3},"geometry":{"type":"Polygon","coordinates":[[[-104.825577,44.546319],[-104.830628,44.546274],[-104.830799,44.549832],[-104.825726,44.549872],[-104.825577,44.546319]]]}},{"type":"Feature","properties":{"q":"NESW","ac":40.2},"geometry":{"type":"Polygon","coordinates":[[[-104.83195,44.608157],[-104.831941,44.604533],[-104.837025,44.604513],[-104.837034,44.608143],[-104.83195,44.608157]]]}},{"type":"Feature","properties":{"q":"SWNE","ac":40.1},"geometry":{"type":"Polygon","coordinates":[[[-104.831893,44.593667],[-104.831913,44.597288],[-104.826829,44.597324],[-104.82681,44.59371],[-104.831893,44.593667]]]}},{"type":"Feature","properties":{"q":"NWSE","ac":40.1},"geometry":{"type":"Polygon","coordinates":[[[-104.826869,44.60817],[-104.826859,44.604554],[-104.831941,44.604533],[-104.83195,44.608157],[-104.826869,44.60817]]]}},{"type":"Feature","properties":{"q":"SENE","ac":39.4},"geometry":{"type":"Polygon","coordinates":[[[-104.825726,44.549872],[-104.825875,44.553432],[-104.820779,44.553458],[-104.820652,44.549911],[-104.825726,44.549872]]]}},{"type":"Feature","properties":{"q":"SENW","ac":43.7},"geometry":{"type":"Polygon","coordinates":[[[-104.836614,44.564469],[-104.836791,44.568286],[-104.831622,44.56849],[-104.831458,44.564557],[-104.836614,44.564469]]]}},{"type":"Feature","properties":{"q":"SWSE","ac":40.1},"geometry":{"type":"Polygon","coordinates":[[[-104.831874,44.590044],[-104.826791,44.590094],[-104.826772,44.586478],[-104.831855,44.586421],[-104.831874,44.590044]]]}},{"type":"Feature","properties":{"q":"NWNW","ac":38.8},"geometry":{"type":"Polygon","coordinates":[[[-104.815749,44.553455],[-104.820779,44.553458],[-104.820905,44.557005],[-104.81589,44.556996],[-104.815749,44.553455]]]}},{"type":"Feature","properties":{"q":"5","ac":40.4},"geometry":{"type":"Polygon","coordinates":[[[-104.842129,44.60813],[-104.842143,44.611766],[-104.83704,44.611773],[-104.837034,44.608143],[-104.842129,44.60813]]]}},{"type":"Feature","properties":{"q":"NENW","ac":40.1},"geometry":{"type":"Polygon","coordinates":[[[-104.835476,44.539001],[-104.835486,44.54266],[-104.830457,44.542715],[-104.830476,44.539041],[-104.835476,44.539001]]]}},{"type":"Feature","properties":{"q":"SENW","ac":39.9},"geometry":{"type":"Polygon","coordinates":[[[-104.835476,44.539001],[-104.830476,44.539041],[-104.830495,44.535368],[-104.835467,44.535342],[-104.835476,44.539001]]]}},{"type":"Feature","properties":{"q":"NWNE","ac":40.1},"geometry":{"type":"Polygon","coordinates":[[[-104.826829,44.597324],[-104.831913,44.597288],[-104.831932,44.60091],[-104.826848,44.600938],[-104.826829,44.597324]]]}},{"type":"Feature","properties":{"q":"SESE","ac":39.1},"geometry":{"type":"Polygon","coordinates":[[[-104.825428,44.542766],[-104.825577,44.546319],[-104.820525,44.546364],[-104.820398,44.542817],[-104.825428,44.542766]]]}},{"type":"Feature","properties":{"q":"1","ac":42.2},"geometry":{"type":"Polygon","coordinates":[[[-104.84193,44.568082],[-104.842109,44.571782],[-104.836969,44.572102],[-104.836791,44.568286],[-104.84193,44.568082]]]}},{"type":"Feature","properties":{"q":"1","ac":40.7},"geometry":{"type":"Polygon","coordinates":[[[-104.840621,44.542604],[-104.835486,44.54266],[-104.835476,44.539001],[-104.840556,44.53896],[-104.840621,44.542604]]]}},{"type":"Feature","properties":{"q":"SENW","ac":40.2},"geometry":{"type":"Polygon","coordinates":[[[-104.836997,44.597254],[-104.831913,44.597288],[-104.831893,44.593667],[-104.836977,44.593625],[-104.836997,44.597254]]]}},{"type":"Feature","properties":{"q":"3","ac":41.7},"geometry":{"type":"Polygon","coordinates":[[[-104.836614,44.564469],[-104.836439,44.560726],[-104.841571,44.560682],[-104.84175,44.564382],[-104.836614,44.564469]]]}},{"type":"Feature","properties":{"q":"SWSE","ac":42.5},"geometry":{"type":"Polygon","coordinates":[[[-104.826024,44.556993],[-104.831143,44.556981],[-104.831301,44.560769],[-104.82619,44.560818],[-104.826024,44.556993]]]}},{"type":"Feature","properties":{"q":"2","ac":40.4},"geometry":{"type":"Polygon","coordinates":[[[-104.842036,44.579034],[-104.84205,44.582671],[-104.836932,44.582757],[-104.836927,44.57915],[-104.842036,44.579034]]]}},{"type":"Feature","properties":{"q":"2","ac":42.2},"geometry":{"type":"Polygon","coordinates":[[[-104.836791,44.568286],[-104.836614,44.564469],[-104.84175,44.564382],[-104.84193,44.568082],[-104.836791,44.568286]]]}},{"type":"Feature","properties":{"q":"4","ac":40.0},"geometry":{"type":"Polygon","coordinates":[[[-104.836969,44.572102],[-104.842109,44.571782],[-104.842073,44.575408],[-104.836948,44.575626],[-104.836969,44.572102]]]}},{"type":"Feature","properties":{"q":"3","ac":39.9},"geometry":{"type":"Polygon","coordinates":[[[-104.840591,44.531664],[-104.840491,44.535316],[-104.835467,44.535342],[-104.83554,44.53174],[-104.840591,44.531664]]]}},{"type":"Feature","properties":{"q":"NWSE","ac":39.4},"geometry":{"type":"Polygon","coordinates":[[[-104.830514,44.531814],[-104.830495,44.535368],[-104.825459,44.535394],[-104.825499,44.531759],[-104.830514,44.531814]]]}},{"type":"Feature","properties":{"q":"NENW","ac":40.2},"geometry":{"type":"Polygon","coordinates":[[[-104.836997,44.597254],[-104.837016,44.600883],[-104.831932,44.60091],[-104.831913,44.597288],[-104.836997,44.597254]]]}},{"type":"Feature","properties":{"q":"NESE","ac":40.0},"geometry":{"type":"Polygon","coordinates":[[[-104.821789,44.608182],[-104.821776,44.604575],[-104.826859,44.604554],[-104.826869,44.60817],[-104.821789,44.608182]]]}},{"type":"Feature","properties":{"q":"NESE","ac":42.8},"geometry":{"type":"Polygon","coordinates":[[[-104.821254,44.564729],[-104.82108,44.560867],[-104.82619,44.560818],[-104.826356,44.564643],[-104.821254,44.564729]]]}},{"type":"Feature","properties":{"q":"NWNW","ac":42.4},"geometry":{"type":"Polygon","coordinates":[[[-104.816399,44.568631],[-104.821428,44.568591],[-104.821602,44.572453],[-104.816568,44.572498],[-104.816399,44.568631]]]}},{"type":"Feature","properties":{"q":"NWSW","ac":42.4},"geometry":{"type":"Polygon","coordinates":[[[-104.81606,44.560879],[-104.82108,44.560867],[-104.821254,44.564729],[-104.81623,44.564763],[-104.81606,44.560879]]]}},{"type":"Feature","properties":{"q":"SWSW","ac":38.7},"geometry":{"type":"Polygon","coordinates":[[[-104.816593,44.576033],[-104.816568,44.572498],[-104.821602,44.572453],[-104.821624,44.575974],[-104.816593,44.576033]]]}},{"type":"Feature","properties":{"q":"7","ac":40.2},"geometry":{"type":"Polygon","coordinates":[[[-104.84209,44.600857],[-104.84211,44.604493],[-104.837025,44.604513],[-104.837016,44.600883],[-104.84209,44.600857]]]}},{"type":"Feature","properties":{"q":"2","ac":40.3},"geometry":{"type":"Polygon","coordinates":[[[-104.835476,44.539001],[-104.835467,44.535342],[-104.840491,44.535316],[-104.840556,44.53896],[-104.835476,44.539001]]]}},{"type":"Feature","properties":{"q":"SENE","ac":40.0},"geometry":{"type":"Polygon","coordinates":[[[-104.826869,44.60817],[-104.826879,44.611785],[-104.8218,44.61179],[-104.821789,44.608182],[-104.826869,44.60817]]]}},{"type":"Feature","properties":{"q":"NENE","ac":40.5},"geometry":{"type":"Polygon","coordinates":[[[-104.825443,44.53908],[-104.825428,44.542766],[-104.820398,44.542817],[-104.82041,44.539118],[-104.825443,44.53908]]]}},{"type":"Feature","properties":{"q":"NWSW","ac":38.7},"geometry":{"type":"Polygon","coordinates":[[[-104.821624,44.575974],[-104.821646,44.579495],[-104.816619,44.579569],[-104.816593,44.576033],[-104.821624,44.575974]]]}},{"type":"Feature","properties":{"q":"SWSW","ac":39.6},"geometry":{"type":"Polygon","coordinates":[[[-104.821689,44.586536],[-104.821708,44.590144],[-104.816669,44.590249],[-104.816669,44.586643],[-104.821689,44.586536]]]}},{"type":"Feature","properties":{"q":"SWNW","ac":42.4},"geometry":{"type":"Polygon","coordinates":[[[-104.816399,44.568631],[-104.81623,44.564763],[-104.821254,44.564729],[-104.821428,44.568591],[-104.816399,44.568631]]]}},{"type":"Feature","properties":{"q":"2","ac":40.3},"geometry":{"type":"Polygon","coordinates":[[[-104.842084,44.597219],[-104.836997,44.597254],[-104.836977,44.593625],[-104.842077,44.593582],[-104.842084,44.597219]]]}},{"type":"Feature","properties":{"q":"NWNW","ac":38.6},"geometry":{"type":"Polygon","coordinates":[[[-104.816669,44.586643],[-104.816644,44.583106],[-104.821667,44.583015],[-104.821689,44.586536],[-104.816669,44.586643]]]}},{"type":"Feature","properties":{"q":"SWNW","ac":39.9},"geometry":{"type":"Polygon","coordinates":[[[-104.821789,44.608182],[-104.8218,44.61179],[-104.816717,44.611815],[-104.816701,44.608223],[-104.821789,44.608182]]]}},{"type":"Feature","properties":{"q":"SWNE","ac":39.6},"geometry":{"type":"Polygon","coordinates":[[[-104.825726,44.549872],[-104.830799,44.549832],[-104.830971,44.553407],[-104.825875,44.553432],[-104.825726,44.549872]]]}},{"type":"Feature","properties":{"q":"SWNE","ac":43.6},"geometry":{"type":"Polygon","coordinates":[[[-104.826356,44.564643],[-104.831458,44.564557],[-104.831622,44.56849],[-104.826525,44.56854],[-104.826356,44.564643]]]}},{"type":"Feature","properties":{"q":"NWNE","ac":40.4},"geometry":{"type":"Polygon","coordinates":[[[-104.830457,44.542715],[-104.825428,44.542766],[-104.825443,44.53908],[-104.830476,44.539041],[-104.830457,44.542715]]]}},{"type":"Feature","properties":{"q":"SENE","ac":40.0},"geometry":{"type":"Polygon","coordinates":[[[-104.826829,44.597324],[-104.821745,44.597359],[-104.821726,44.593752],[-104.82681,44.59371],[-104.826829,44.597324]]]}},{"type":"Feature","properties":{"q":"SESE","ac":40.0},"geometry":{"type":"Polygon","coordinates":[[[-104.826848,44.600938],[-104.826859,44.604554],[-104.821776,44.604575],[-104.821764,44.600967],[-104.826848,44.600938]]]}},{"type":"Feature","properties":{"q":"1","ac":40.2},"geometry":{"type":"Polygon","coordinates":[[[-104.84209,44.600857],[-104.837016,44.600883],[-104.836997,44.597254],[-104.842084,44.597219],[-104.84209,44.600857]]]}},{"type":"Feature","properties":{"q":"NESW","ac":39.0},"geometry":{"type":"Polygon","coordinates":[[[-104.830495,44.535368],[-104.830514,44.531814],[-104.83554,44.53174],[-104.835467,44.535342],[-104.830495,44.535368]]]}},{"type":"Feature","properties":{"q":"4","ac":40.1},"geometry":{"type":"Polygon","coordinates":[[[-104.8218,44.61179],[-104.821811,44.615429],[-104.816734,44.615426],[-104.816717,44.611815],[-104.8218,44.61179]]]}},{"type":"Feature","properties":{"q":"1","ac":40.2},"geometry":{"type":"Polygon","coordinates":[[[-104.841149,44.553368],[-104.841391,44.556982],[-104.836265,44.556982],[-104.836045,44.553388],[-104.841149,44.553368]]]}},{"type":"Feature","properties":{"q":"1","ac":40.5},"geometry":{"type":"Polygon","coordinates":[[[-104.84205,44.582671],[-104.842064,44.586307],[-104.836938,44.586364],[-104.836932,44.582757],[-104.84205,44.582671]]]}},{"type":"Feature","properties":{"q":"SWNW","ac":38.7},"geometry":{"type":"Polygon","coordinates":[[[-104.816644,44.583106],[-104.816619,44.579569],[-104.821646,44.579495],[-104.821667,44.583015],[-104.816644,44.583106]]]}},{"type":"Feature","properties":{"q":"SWNE","ac":40.4},"geometry":{"type":"Polygon","coordinates":[[[-104.830495,44.535368],[-104.830476,44.539041],[-104.825443,44.53908],[-104.825459,44.535394],[-104.830495,44.535368]]]}},{"type":"Feature","properties":{"q":"SENE","ac":39.2},"geometry":{"type":"Polygon","coordinates":[[[-104.821646,44.579495],[-104.826732,44.57938],[-104.826752,44.582929],[-104.821667,44.583015],[-104.821646,44.579495]]]}},{"type":"Feature","properties":{"q":"NESE","ac":38.8},"geometry":{"type":"Polygon","coordinates":[[[-104.826713,44.575909],[-104.826732,44.57938],[-104.821646,44.579495],[-104.821624,44.575974],[-104.826713,44.575909]]]}},{"type":"Feature","properties":{"q":"NWNE","ac":39.5},"geometry":{"type":"Polygon","coordinates":[[[-104.831837,44.582843],[-104.831855,44.586421],[-104.826772,44.586478],[-104.826752,44.582929],[-104.831837,44.582843]]]}}]}