{"type":"FeatureCollection","note":"BLM Public Land Survey System. Provided by the Bureau of Land Management as is. These data are neither legal documents nor land surveys and must not be used as such.","features":[{"type":"Feature","properties":{"q":"NWNE","ac":39.9},"geometry":{"type":"Polygon","coordinates":[[[-104.829885,44.513552],[-104.824839,44.51361],[-104.824955,44.509989],[-104.830012,44.509943],[-104.829885,44.513552]]]}},{"type":"Feature","properties":{"q":"SWNE","ac":40.0},"geometry":{"type":"Polygon","coordinates":[[[-104.830012,44.509943],[-104.824955,44.509989],[-104.825072,44.506368],[-104.83014,44.506333],[-104.830012,44.509943]]]}},{"type":"Feature","properties":{"q":"NESW","ac":40.0},"geometry":{"type":"Polygon","coordinates":[[[-104.835616,44.445032],[-104.835647,44.44861],[-104.830543,44.448594],[-104.830478,44.445027],[-104.835616,44.445032]]]}},{"type":"Feature","properties":{"q":"NESE","ac":41.0},"geometry":{"type":"Polygon","coordinates":[[[-104.825408,44.488265],[-104.825373,44.491882],[-104.8202,44.491902],[-104.820193,44.488284],[-104.825408,44.488265]]]}},{"type":"Feature","properties":{"q":"SESW","ac":41.7},"geometry":{"type":"Polygon","coordinates":[[[-104.830509,44.470109],[-104.835664,44.470115],[-104.835725,44.473822],[-104.830557,44.473792],[-104.830509,44.470109]]]}},{"type":"Feature","properties":{"q":"SESE","ac":40.2},"geometry":{"type":"Polygon","coordinates":[[[-104.820515,44.45564],[-104.825601,44.455684],[-104.825514,44.459282],[-104.820398,44.45925],[-104.820515,44.45564]]]}},{"type":"Feature","properties":{"q":"2","ac":39.9},"geometry":{"type":"Polygon","coordinates":[[[-104.829686,44.528237],[-104.825539,44.528125],[-104.82446,44.528095],[-104.824528,44.524625],[-104.829734,44.524694],[-104.829686,44.528237]]]}},{"type":"Feature","properties":{"q":"SENW","ac":39.7},"geometry":{"type":"Polygon","coordinates":[[[-104.830543,44.448594],[-104.835647,44.44861],[-104.835691,44.45217],[-104.830607,44.452158],[-104.830543,44.448594]]]}},{"type":"Feature","properties":{"q":"SENW","ac":40.2},"geometry":{"type":"Polygon","coordinates":[[[-104.835659,44.49184],[-104.835564,44.495447],[-104.830471,44.495462],[-104.830547,44.491861],[-104.835659,44.49184]]]}},{"type":"Feature","properties":{"q":"6","ac":35.6},"geometry":{"type":"Polygon","coordinates":[[[-104.839341,44.520903],[-104.834928,44.520909],[-104.834933,44.517214],[-104.839327,44.517197],[-104.839341,44.520903]]]}},{"type":"Feature","properties":{"q":"SWNE","ac":40.6},"geometry":{"type":"Polygon","coordinates":[[[-104.830547,44.491861],[-104.830471,44.495462],[-104.825339,44.495491],[-104.825373,44.491882],[-104.830547,44.491861]]]}},{"type":"Feature","properties":{"q":"SENE","ac":41.7},"geometry":{"type":"Polygon","coordinates":[[[-104.820139,44.481015],[-104.820093,44.477364],[-104.825349,44.47742],[-104.825395,44.481034],[-104.820139,44.481015]]]}},{"type":"Feature","properties":{"q":"SESE","ac":40.3},"geometry":{"type":"Polygon","coordinates":[[[-104.8252,44.441465],[-104.8253,44.445021],[-104.820117,44.445012],[-104.819993,44.441469],[-104.8252,44.441465]]]}},{"type":"Feature","properties":{"q":"NENW","ac":39.8},"geometry":{"type":"Polygon","coordinates":[[[-104.830012,44.509943],[-104.83507,44.509909],[-104.834938,44.513518],[-104.829885,44.513552],[-104.830012,44.509943]]]}},{"type":"Feature","properties":{"q":"SWSE","ac":40.3},"geometry":{"type":"Polygon","coordinates":[[[-104.825305,44.499101],[-104.830396,44.499064],[-104.830268,44.502699],[-104.825188,44.502735],[-104.825305,44.499101]]]}},{"type":"Feature","properties":{"q":"SWSE","ac":41.4},"geometry":{"type":"Polygon","coordinates":[[[-104.825408,44.488265],[-104.825442,44.484648],[-104.830698,44.484629],[-104.830623,44.488245],[-104.825408,44.488265]]]}},{"type":"Feature","properties":{"q":"NESW","ac":40.4},"geometry":{"type":"Polygon","coordinates":[[[-104.835757,44.488227],[-104.835659,44.49184],[-104.830547,44.491861],[-104.830623,44.488245],[-104.835757,44.488227]]]}},{"type":"Feature","properties":{"q":"3","ac":37.5},"geometry":{"type":"Polygon","coordinates":[[[-104.840345,44.473849],[-104.840395,44.477578],[-104.835785,44.47753],[-104.835725,44.473822],[-104.840345,44.473849]]]}},{"type":"Feature","properties":{"q":"4","ac":37.6},"geometry":{"type":"Polygon","coordinates":[[[-104.840345,44.473849],[-104.835725,44.473822],[-104.835664,44.470115],[-104.840295,44.470119],[-104.840345,44.473849]]]}},{"type":"Feature","properties":{"q":"NENW","ac":40.1},"geometry":{"type":"Polygon","coordinates":[[[-104.83582,44.481072],[-104.835855,44.484613],[-104.830698,44.484629],[-104.830652,44.481052],[-104.83582,44.481072]]]}},{"type":"Feature","properties":{"q":"NENE","ac":40.3},"geometry":{"type":"Polygon","coordinates":[[[-104.825339,44.495491],[-104.825305,44.499101],[-104.820215,44.499138],[-104.820208,44.49552],[-104.825339,44.495491]]]}},{"type":"Feature","properties":{"q":"SWSE","ac":40.7},"geometry":{"type":"Polygon","coordinates":[[[-104.829835,44.517234],[-104.824719,44.517267],[-104.824839,44.51361],[-104.829885,44.513552],[-104.829835,44.517234]]]}},{"type":"Feature","properties":{"q":"SWSE","ac":40.4},"geometry":{"type":"Polygon","coordinates":[[[-104.830413,44.44146],[-104.830478,44.445027],[-104.8253,44.445021],[-104.8252,44.441465],[-104.830413,44.44146]]]}},{"type":"Feature","properties":{"q":"NENE","ac":40.0},"geometry":{"type":"Polygon","coordinates":[[[-104.824955,44.509989],[-104.824839,44.51361],[-104.819792,44.513668],[-104.819898,44.510035],[-104.824955,44.509989]]]}},{"type":"Feature","properties":{"q":"2","ac":35.9},"geometry":{"type":"Polygon","coordinates":[[[-104.835682,44.462927],[-104.840249,44.462949],[-104.840272,44.466534],[-104.835673,44.466521],[-104.835682,44.462927]]]}},{"type":"Feature","properties":{"q":"NESW","ac":40.1},"geometry":{"type":"Polygon","coordinates":[[[-104.835336,44.502676],[-104.835203,44.506298],[-104.83014,44.506333],[-104.830268,44.502699],[-104.835336,44.502676]]]}},{"type":"Feature","properties":{"q":"SWNE","ac":40.8},"geometry":{"type":"Polygon","coordinates":[[[-104.830591,44.462903],[-104.83055,44.466506],[-104.825341,44.466482],[-104.825428,44.462879],[-104.830591,44.462903]]]}},{"type":"Feature","properties":{"q":"SWSE","ac":42.2},"geometry":{"type":"Polygon","coordinates":[[[-104.830509,44.470109],[-104.830557,44.473792],[-104.825302,44.473752],[-104.825255,44.470085],[-104.830509,44.470109]]]}},{"type":"Feature","properties":{"q":"NESE","ac":41.0},"geometry":{"type":"Polygon","coordinates":[[[-104.819415,44.52093],[-104.819604,44.517299],[-104.824719,44.517267],[-104.8246,44.520923],[-104.819415,44.52093]]]}},{"type":"Feature","properties":{"q":"NWNE","ac":39.6},"geometry":{"type":"Polygon","coordinates":[[[-104.825501,44.45213],[-104.830607,44.452158],[-104.830672,44.455722],[-104.825601,44.455684],[-104.825501,44.45213]]]}},{"type":"Feature","properties":{"q":"2","ac":35.2},"geometry":{"type":"Polygon","coordinates":[[[-104.840014,44.495433],[-104.835564,44.495447],[-104.835659,44.49184],[-104.840138,44.491822],[-104.840014,44.495433]]]}},{"type":"Feature","properties":{"q":"NWNE","ac":41.3},"geometry":{"type":"Polygon","coordinates":[[[-104.825395,44.481034],[-104.830652,44.481052],[-104.830698,44.484629],[-104.825442,44.484648],[-104.825395,44.481034]]]}},{"type":"Feature","properties":{"q":"NWSE","ac":42.2},"geometry":{"type":"Polygon","coordinates":[[[-104.830605,44.477475],[-104.825349,44.47742],[-104.825302,44.473752],[-104.830557,44.473792],[-104.830605,44.477475]]]}},{"type":"Feature","properties":{"q":"5","ac":35.9},"geometry":{"type":"Polygon","coordinates":[[[-104.834928,44.520909],[-104.839341,44.520903],[-104.839349,44.524605],[-104.83492,44.524646],[-104.834928,44.520909]]]}},{"type":"Feature","properties":{"q":"3","ac":35.4},"geometry":{"type":"Polygon","coordinates":[[[-104.840138,44.491822],[-104.835659,44.49184],[-104.835757,44.488227],[-104.840261,44.488211],[-104.840138,44.491822]]]}},{"type":"Feature","properties":{"q":"1","ac":36.2},"geometry":{"type":"Polygon","coordinates":[[[-104.840295,44.470119],[-104.835664,44.470115],[-104.835673,44.466521],[-104.840272,44.466534],[-104.840295,44.470119]]]}},{"type":"Feature","properties":{"q":"2","ac":35.4},"geometry":{"type":"Polygon","coordinates":[[[-104.84039,44.481089],[-104.83582,44.481072],[-104.835785,44.47753],[-104.840395,44.477578],[-104.84039,44.481089]]]}},{"type":"Feature","properties":{"q":"4","ac":35.5},"geometry":{"type":"Polygon","coordinates":[[[-104.840147,44.445037],[-104.835616,44.445032],[-104.835584,44.441454],[-104.840123,44.441448],[-104.840147,44.445037]]]}},{"type":"Feature","properties":{"q":"SESW","ac":40.6},"geometry":{"type":"Polygon","coordinates":[[[-104.830623,44.488245],[-104.830698,44.484629],[-104.835855,44.484613],[-104.835757,44.488227],[-104.830623,44.488245]]]}},{"type":"Feature","properties":{"q":"SWSE","ac":40.0},"geometry":{"type":"Polygon","coordinates":[[[-104.830672,44.455722],[-104.830631,44.459312],[-104.825514,44.459282],[-104.825601,44.455684],[-104.830672,44.455722]]]}},{"type":"Feature","properties":{"q":"NWSE","ac":40.2},"geometry":{"type":"Polygon","coordinates":[[[-104.830478,44.445027],[-104.830543,44.448594],[-104.825401,44.448576],[-104.8253,44.445021],[-104.830478,44.445027]]]}},{"type":"Feature","properties":{"q":"SESW","ac":40.2},"geometry":{"type":"Polygon","coordinates":[[[-104.830396,44.499064],[-104.83547,44.499052],[-104.835336,44.502676],[-104.830268,44.502699],[-104.830396,44.499064]]]}},{"type":"Feature","properties":{"q":"1","ac":34.5},"geometry":{"type":"Polygon","coordinates":[[[-104.834938,44.513518],[-104.83507,44.509909],[-104.839458,44.509879],[-104.839314,44.513491],[-104.834938,44.513518]]]}},{"type":"Feature","properties":{"q":"NWSE","ac":41.0},"geometry":{"type":"Polygon","coordinates":[[[-104.830547,44.491861],[-104.825373,44.491882],[-104.825408,44.488265],[-104.830623,44.488245],[-104.830547,44.491861]]]}},{"type":"Feature","properties":{"q":"NENW","ac":40.4},"geometry":{"type":"Polygon","coordinates":[[[-104.83055,44.466506],[-104.835673,44.466521],[-104.835664,44.470115],[-104.830509,44.470109],[-104.83055,44.466506]]]}},{"type":"Feature","properties":{"q":"SESE","ac":40.4},"geometry":{"type":"Polygon","coordinates":[[[-104.824839,44.51361],[-104.824719,44.517267],[-104.819604,44.517299],[-104.819792,44.513668],[-104.824839,44.51361]]]}},{"type":"Feature","properties":{"q":"SESE","ac":41.4},"geometry":{"type":"Polygon","coordinates":[[[-104.825442,44.484648],[-104.825408,44.488265],[-104.820193,44.488284],[-104.820185,44.484666],[-104.825442,44.484648]]]}},{"type":"Feature","properties":{"q":"SENW","ac":40.2},"geometry":{"type":"Polygon","coordinates":[[[-104.830605,44.477475],[-104.835785,44.47753],[-104.83582,44.481072],[-104.830652,44.481052],[-104.830605,44.477475]]]}},{"type":"Feature","properties":{"q":"SENW","ac":40.2},"geometry":{"type":"Polygon","coordinates":[[[-104.835682,44.462927],[-104.835673,44.466521],[-104.83055,44.466506],[-104.830591,44.462903],[-104.835682,44.462927]]]}},{"type":"Feature","properties":{"q":"3","ac":35.5},"geometry":{"type":"Polygon","coordinates":[[[-104.840171,44.448625],[-104.835647,44.44861],[-104.835616,44.445032],[-104.840147,44.445037],[-104.840171,44.448625]]]}},{"type":"Feature","properties":{"q":"NESW","ac":41.2},"geometry":{"type":"Polygon","coordinates":[[[-104.834933,44.517214],[-104.834928,44.520909],[-104.829785,44.520916],[-104.829835,44.517234],[-104.834933,44.517214]]]}},{"type":"Feature","properties":{"q":"SENE","ac":40.1},"geometry":{"type":"Polygon","coordinates":[[[-104.819898,44.510035],[-104.820004,44.506403],[-104.825072,44.506368],[-104.824955,44.509989],[-104.819898,44.510035]]]}},{"type":"Feature","properties":{"q":"SENW","ac":39.9},"geometry":{"type":"Polygon","coordinates":[[[-104.835203,44.506298],[-104.83507,44.509909],[-104.830012,44.509943],[-104.83014,44.506333],[-104.835203,44.506298]]]}},{"type":"Feature","properties":{"q":"NESW","ac":41.8},"geometry":{"type":"Polygon","coordinates":[[[-104.830557,44.473792],[-104.835725,44.473822],[-104.835785,44.47753],[-104.830605,44.477475],[-104.830557,44.473792]]]}},{"type":"Feature","properties":{"q":"SWNE","ac":39.9},"geometry":{"type":"Polygon","coordinates":[[[-104.825401,44.448576],[-104.830543,44.448594],[-104.830607,44.452158],[-104.825501,44.45213],[-104.825401,44.448576]]]}},{"type":"Feature","properties":{"q":"4","ac":35.7},"geometry":{"type":"Polygon","coordinates":[[[-104.835708,44.459328],[-104.835734,44.455731],[-104.840261,44.455737],[-104.840255,44.459343],[-104.835708,44.459328]]]}},{"type":"Feature","properties":{"q":"7","ac":35.4},"geometry":{"type":"Polygon","coordinates":[[[-104.839314,44.513491],[-104.839327,44.517197],[-104.834933,44.517214],[-104.834938,44.513518],[-104.839314,44.513491]]]}},{"type":"Feature","properties":{"q":"SENW","ac":42.4},"geometry":{"type":"Polygon","coordinates":[[[-104.834928,44.520909],[-104.83492,44.524646],[-104.829734,44.524694],[-104.829785,44.520916],[-104.834928,44.520909]]]}},{"type":"Feature","properties":{"q":"NENE","ac":39.6},"geometry":{"type":"Polygon","coordinates":[[[-104.825501,44.45213],[-104.825601,44.455684],[-104.820515,44.45564],[-104.82038,44.452098],[-104.825501,44.45213]]]}},{"type":"Feature","properties":{"q":"SENE","ac":39.8},"geometry":{"type":"Polygon","coordinates":[[[-104.820246,44.448555],[-104.825401,44.448576],[-104.825501,44.45213],[-104.82038,44.452098],[-104.820246,44.448555]]]}},{"type":"Feature","properties":{"q":"SENE","ac":40.8},"geometry":{"type":"Polygon","coordinates":[[[-104.820265,44.462854],[-104.825428,44.462879],[-104.825341,44.466482],[-104.820133,44.466458],[-104.820265,44.462854]]]}},{"type":"Feature","properties":{"q":"SESW","ac":40.3},"geometry":{"type":"Polygon","coordinates":[[[-104.835584,44.441454],[-104.835616,44.445032],[-104.830478,44.445027],[-104.830413,44.44146],[-104.835584,44.441454]]]}},{"type":"Feature","properties":{"q":"NESW","ac":39.9},"geometry":{"type":"Polygon","coordinates":[[[-104.835708,44.459328],[-104.835682,44.462927],[-104.830591,44.462903],[-104.830631,44.459312],[-104.835708,44.459328]]]}},{"type":"Feature","properties":{"q":"NESE","ac":40.2},"geometry":{"type":"Polygon","coordinates":[[[-104.825188,44.502735],[-104.825072,44.506368],[-104.820004,44.506403],[-104.820109,44.50277],[-104.825188,44.502735]]]}},{"type":"Feature","properties":{"q":"SESW","ac":39.8},"geometry":{"type":"Polygon","coordinates":[[[-104.830631,44.459312],[-104.830672,44.455722],[-104.835734,44.455731],[-104.835708,44.459328],[-104.830631,44.459312]]]}},{"type":"Feature","properties":{"q":"2","ac":34.6},"geometry":{"type":"Polygon","coordinates":[[[-104.839602,44.506267],[-104.839458,44.509879],[-104.83507,44.509909],[-104.835203,44.506298],[-104.839602,44.506267]]]}},{"type":"Feature","properties":{"q":"NENE","ac":41.2},"geometry":{"type":"Polygon","coordinates":[[[-104.825341,44.466482],[-104.825255,44.470085],[-104.82,44.470061],[-104.820133,44.466458],[-104.825341,44.466482]]]}},{"type":"Feature","properties":{"q":"NESE","ac":42.0},"geometry":{"type":"Polygon","coordinates":[[[-104.820046,44.473712],[-104.825302,44.473752],[-104.825349,44.47742],[-104.820093,44.477364],[-104.820046,44.473712]]]}},{"type":"Feature","properties":{"q":"NWNE","ac":41.2},"geometry":{"type":"Polygon","coordinates":[[[-104.83055,44.466506],[-104.830509,44.470109],[-104.825255,44.470085],[-104.825341,44.466482],[-104.83055,44.466506]]]}},{"type":"Feature","properties":{"q":"SWNE","ac":41.3},"geometry":{"type":"Polygon","coordinates":[[[-104.830605,44.477475],[-104.830652,44.481052],[-104.825395,44.481034],[-104.825349,44.47742],[-104.830605,44.477475]]]}},{"type":"Feature","properties":{"q":"NWSE","ac":41.3},"geometry":{"type":"Polygon","coordinates":[[[-104.829835,44.517234],[-104.829785,44.520916],[-104.8246,44.520923],[-104.824719,44.517267],[-104.829835,44.517234]]]}},{"type":"Feature","properties":{"q":"2","ac":35.2},"geometry":{"type":"Polygon","coordinates":[[[-104.840216,44.452181],[-104.835691,44.45217],[-104.835647,44.44861],[-104.840171,44.448625],[-104.840216,44.452181]]]}},{"type":"Feature","properties":{"q":"NWSE","ac":40.2},"geometry":{"type":"Polygon","coordinates":[[[-104.830268,44.502699],[-104.83014,44.506333],[-104.825072,44.506368],[-104.825188,44.502735],[-104.830268,44.502699]]]}},{"type":"Feature","properties":{"q":"4","ac":33.6},"geometry":{"type":"Polygon","coordinates":[[[-104.835612,44.528136],[-104.834912,44.528154],[-104.83492,44.524646],[-104.839349,44.524605],[-104.839356,44.528045],[-104.835612,44.528136]]]}},{"type":"Feature","properties":{"q":"SENE","ac":41.6},"geometry":{"type":"Polygon","coordinates":[[[-104.8246,44.520923],[-104.824528,44.524625],[-104.81932,44.524556],[-104.819415,44.52093],[-104.8246,44.520923]]]}},{"type":"Feature","properties":{"q":"NESE","ac":40.1},"geometry":{"type":"Polygon","coordinates":[[[-104.820246,44.448555],[-104.820117,44.445012],[-104.8253,44.445021],[-104.825401,44.448576],[-104.820246,44.448555]]]}},{"type":"Feature","properties":{"q":"1","ac":39.2},"geometry":{"type":"Polygon","coordinates":[[[-104.81932,44.524556],[-104.824528,44.524625],[-104.82446,44.528095],[-104.820545,44.527989],[-104.819234,44.527991],[-104.81932,44.524556]]]}},{"type":"Feature","properties":{"q":"1","ac":35.2},"geometry":{"type":"Polygon","coordinates":[[[-104.840216,44.452181],[-104.840261,44.455737],[-104.835734,44.455731],[-104.835691,44.45217],[-104.840216,44.452181]]]}},{"type":"Feature","properties":{"q":"NENW","ac":39.5},"geometry":{"type":"Polygon","coordinates":[[[-104.835691,44.45217],[-104.835734,44.455731],[-104.830672,44.455722],[-104.830607,44.452158],[-104.835691,44.45217]]]}},{"type":"Feature","properties":{"q":"NWSE","ac":40.4},"geometry":{"type":"Polygon","coordinates":[[[-104.830591,44.462903],[-104.825428,44.462879],[-104.825514,44.459282],[-104.830631,44.459312],[-104.830591,44.462903]]]}},{"type":"Feature","properties":{"q":"SWNE","ac":42.4},"geometry":{"type":"Polygon","coordinates":[[[-104.829785,44.520916],[-104.829734,44.524694],[-104.824528,44.524625],[-104.8246,44.520923],[-104.829785,44.520916]]]}},{"type":"Feature","properties":{"q":"SESW","ac":40.9},"geometry":{"type":"Polygon","coordinates":[[[-104.834933,44.517214],[-104.829835,44.517234],[-104.829885,44.513552],[-104.834938,44.513518],[-104.834933,44.517214]]]}},{"type":"Feature","properties":{"q":"1","ac":34.9},"geometry":{"type":"Polygon","coordinates":[[[-104.840014,44.495433],[-104.83989,44.499044],[-104.83547,44.499052],[-104.835564,44.495447],[-104.840014,44.495433]]]}},{"type":"Feature","properties":{"q":"SESE","ac":42.0},"geometry":{"type":"Polygon","coordinates":[[[-104.82,44.470061],[-104.825255,44.470085],[-104.825302,44.473752],[-104.820046,44.473712],[-104.82,44.470061]]]}},{"type":"Feature","properties":{"q":"NWNE","ac":40.2},"geometry":{"type":"Polygon","coordinates":[[[-104.830471,44.495462],[-104.830396,44.499064],[-104.825305,44.499101],[-104.825339,44.495491],[-104.830471,44.495462]]]}},{"type":"Feature","properties":{"q":"3","ac":40.3},"geometry":{"type":"Polygon","coordinates":[[[-104.834912,44.528154],[-104.830533,44.52826],[-104.829686,44.528237],[-104.829734,44.524694],[-104.83492,44.524646],[-104.834912,44.528154]]]}},{"type":"Feature","properties":{"q":"SESE","ac":40.3},"geometry":{"type":"Polygon","coordinates":[[[-104.820215,44.499138],[-104.825305,44.499101],[-104.825188,44.502735],[-104.820109,44.50277],[-104.820215,44.499138]]]}},{"type":"Feature","properties":{"q":"3","ac":34.8},"geometry":{"type":"Polygon","coordinates":[[[-104.839602,44.506267],[-104.835203,44.506298],[-104.835336,44.502676],[-104.839746,44.502656],[-104.839602,44.506267]]]}},{"type":"Feature","properties":{"q":"NESE","ac":40.4},"geometry":{"type":"Polygon","coordinates":[[[-104.820398,44.45925],[-104.825514,44.459282],[-104.825428,44.462879],[-104.820265,44.462854],[-104.820398,44.45925]]]}},{"type":"Feature","properties":{"q":"NENE","ac":41.7},"geometry":{"type":"Polygon","coordinates":[[[-104.825395,44.481034],[-104.825442,44.484648],[-104.820185,44.484666],[-104.820139,44.481015],[-104.825395,44.481034]]]}},{"type":"Feature","properties":{"q":"SENE","ac":40.7},"geometry":{"type":"Polygon","coordinates":[[[-104.825373,44.491882],[-104.825339,44.495491],[-104.820208,44.49552],[-104.8202,44.491902],[-104.825373,44.491882]]]}},{"type":"Feature","properties":{"q":"3","ac":35.9},"geometry":{"type":"Polygon","coordinates":[[[-104.835708,44.459328],[-104.840255,44.459343],[-104.840249,44.462949],[-104.835682,44.462927],[-104.835708,44.459328]]]}},{"type":"Feature","properties":{"q":"1","ac":35.0},"geometry":{"type":"Polygon","coordinates":[[[-104.840385,44.4846],[-104.835855,44.484613],[-104.83582,44.481072],[-104.84039,44.481089],[-104.840385,44.4846]]]}},{"type":"Feature","properties":{"q":"NENW","ac":40.0},"geometry":{"type":"Polygon","coordinates":[[[-104.835564,44.495447],[-104.83547,44.499052],[-104.830396,44.499064],[-104.830471,44.495462],[-104.835564,44.495447]]]}},{"type":"Feature","properties":{"q":"4","ac":35.6},"geometry":{"type":"Polygon","coordinates":[[[-104.840385,44.4846],[-104.840261,44.488211],[-104.835757,44.488227],[-104.835855,44.484613],[-104.840385,44.4846]]]}},{"type":"Feature","properties":{"q":"4","ac":34.9},"geometry":{"type":"Polygon","coordinates":[[[-104.83989,44.499044],[-104.839746,44.502656],[-104.835336,44.502676],[-104.83547,44.499052],[-104.83989,44.499044]]]}}]}