{"type":"FeatureCollection","note":"BLM Public Land Survey System. Provided by the Bureau of Land Management as is. These data are neither legal documents nor land surveys and must not be used as such.","features":[{"type":"Feature","properties":{"q":"SWSE","ac":39.7},"geometry":{"type":"Polygon","coordinates":[[[-104.822239,43.236246],[-104.822054,43.232706],[-104.827089,43.232685],[-104.827271,43.23621],[-104.822239,43.236246]]]}},{"type":"Feature","properties":{"q":"SWNE","ac":39.4},"geometry":{"type":"Polygon","coordinates":[[[-104.821838,43.225671],[-104.826878,43.225685],[-104.826984,43.229185],[-104.821946,43.229189],[-104.821838,43.225671]]]}},{"type":"Feature","properties":{"q":"3","ac":37.7},"geometry":{"type":"Polygon","coordinates":[[[-104.837093,43.236144],[-104.837258,43.23964],[-104.832443,43.239687],[-104.832263,43.236177],[-104.837093,43.236144]]]}},{"type":"Feature","properties":{"q":"SESW","ac":39.2},"geometry":{"type":"Polygon","coordinates":[[[-104.832083,43.232666],[-104.832263,43.236177],[-104.827271,43.23621],[-104.827089,43.232685],[-104.832083,43.232666]]]}},{"type":"Feature","properties":{"q":"2","ac":37.5},"geometry":{"type":"Polygon","coordinates":[[[-104.832623,43.243186],[-104.832443,43.239687],[-104.837258,43.23964],[-104.837423,43.243136],[-104.832623,43.243186]]]}},{"type":"Feature","properties":{"q":"NWNE","ac":40.0},"geometry":{"type":"Polygon","coordinates":[[[-104.823023,43.257641],[-104.828041,43.257553],[-104.828116,43.261125],[-104.8231,43.261225],[-104.823023,43.257641]]]}},{"type":"Feature","properties":{"q":"SWSE","ac":40.5},"geometry":{"type":"Polygon","coordinates":[[[-104.827815,43.246739],[-104.827891,43.25036],[-104.822869,43.250448],[-104.822792,43.24684],[-104.827815,43.246739]]]}},{"type":"Feature","properties":{"q":"4","ac":38.5},"geometry":{"type":"Polygon","coordinates":[[[-104.837728,43.275723],[-104.837718,43.279382],[-104.833009,43.27942],[-104.833009,43.275756],[-104.837728,43.275723]]]}},{"type":"Feature","properties":{"q":"NESE","ac":39.8},"geometry":{"type":"Polygon","coordinates":[[[-104.822239,43.236246],[-104.822423,43.239785],[-104.817393,43.239834],[-104.817206,43.236281],[-104.822239,43.236246]]]}},{"type":"Feature","properties":{"q":"SESE","ac":40.4},"geometry":{"type":"Polygon","coordinates":[[[-104.822869,43.250448],[-104.817847,43.250537],[-104.817768,43.24694],[-104.822792,43.24684],[-104.822869,43.250448]]]}},{"type":"Feature","properties":{"q":"SWSE","ac":40.8},"geometry":{"type":"Polygon","coordinates":[[[-104.828036,43.275791],[-104.828035,43.27946],[-104.823043,43.279509],[-104.823045,43.275845],[-104.828036,43.275791]]]}},{"type":"Feature","properties":{"q":"NENE","ac":39.6},"geometry":{"type":"Polygon","coordinates":[[[-104.816909,43.229193],[-104.821946,43.229189],[-104.822054,43.232706],[-104.817019,43.232727],[-104.816909,43.229193]]]}},{"type":"Feature","properties":{"q":"SESE","ac":40.8},"geometry":{"type":"Polygon","coordinates":[[[-104.818076,43.264969],[-104.818084,43.261325],[-104.8231,43.261225],[-104.823086,43.264889],[-104.818076,43.264969]]]}},{"type":"Feature","properties":{"q":"SESW","ac":40.9},"geometry":{"type":"Polygon","coordinates":[[[-104.833078,43.264756],[-104.828096,43.264809],[-104.828116,43.261125],[-104.833101,43.261076],[-104.833078,43.264756]]]}},{"type":"Feature","properties":{"q":"2","ac":38.2},"geometry":{"type":"Polygon","coordinates":[[[-104.833027,43.257491],[-104.832952,43.253905],[-104.837726,43.253832],[-104.837795,43.257432],[-104.833027,43.257491]]]}},{"type":"Feature","properties":{"q":"2","ac":37.5},"geometry":{"type":"Polygon","coordinates":[[[-104.836714,43.225711],[-104.836821,43.229179],[-104.831978,43.229182],[-104.831874,43.225698],[-104.836714,43.225711]]]}},{"type":"Feature","properties":{"q":"4","ac":39.0},"geometry":{"type":"Polygon","coordinates":[[[-104.837864,43.261032],[-104.83783,43.264705],[-104.833078,43.264756],[-104.833101,43.261076],[-104.837864,43.261032]]]}},{"type":"Feature","properties":{"q":"SENE","ac":40.2},"geometry":{"type":"Polygon","coordinates":[[[-104.822946,43.254057],[-104.823023,43.257641],[-104.818005,43.257729],[-104.817926,43.254133],[-104.822946,43.254057]]]}},{"type":"Feature","properties":{"q":"1","ac":38.6},"geometry":{"type":"Polygon","coordinates":[[[-104.837762,43.27205],[-104.837728,43.275723],[-104.833009,43.275756],[-104.833032,43.272095],[-104.837762,43.27205]]]}},{"type":"Feature","properties":{"q":"SENW","ac":39.0},"geometry":{"type":"Polygon","coordinates":[[[-104.832443,43.239687],[-104.832623,43.243186],[-104.827634,43.243237],[-104.827453,43.239736],[-104.832443,43.239687]]]}},{"type":"Feature","properties":{"q":"SWSE","ac":41.1},"geometry":{"type":"Polygon","coordinates":[[[-104.828116,43.261125],[-104.828096,43.264809],[-104.823086,43.264889],[-104.8231,43.261225],[-104.828116,43.261125]]]}},{"type":"Feature","properties":{"q":"NESE","ac":39.6},"geometry":{"type":"Polygon","coordinates":[[[-104.816688,43.222123],[-104.821731,43.222161],[-104.821838,43.225671],[-104.816798,43.225658],[-104.816688,43.222123]]]}},{"type":"Feature","properties":{"q":"NENE","ac":40.7},"geometry":{"type":"Polygon","coordinates":[[[-104.823041,43.286826],[-104.82304,43.290479],[-104.818046,43.290534],[-104.818048,43.286875],[-104.823041,43.286826]]]}},{"type":"Feature","properties":{"q":"SENE","ac":40.7},"geometry":{"type":"Polygon","coordinates":[[[-104.81805,43.283217],[-104.823042,43.283173],[-104.823041,43.286826],[-104.818048,43.286875],[-104.81805,43.283217]]]}},{"type":"Feature","properties":{"q":"NWSE","ac":39.3},"geometry":{"type":"Polygon","coordinates":[[[-104.826773,43.2222],[-104.826878,43.225685],[-104.821838,43.225671],[-104.821731,43.222161],[-104.826773,43.2222]]]}},{"type":"Feature","properties":{"q":"SENW","ac":39.8},"geometry":{"type":"Polygon","coordinates":[[[-104.832952,43.253905],[-104.833027,43.257491],[-104.828041,43.257553],[-104.827967,43.253981],[-104.832952,43.253905]]]}},{"type":"Feature","properties":{"q":"NWNE","ac":39.4},"geometry":{"type":"Polygon","coordinates":[[[-104.827089,43.232685],[-104.822054,43.232706],[-104.821946,43.229189],[-104.826984,43.229185],[-104.827089,43.232685]]]}},{"type":"Feature","properties":{"q":"NENE","ac":39.7},"geometry":{"type":"Polygon","coordinates":[[[-104.817581,43.243387],[-104.822607,43.243312],[-104.822792,43.24684],[-104.817768,43.24694],[-104.817581,43.243387]]]}},{"type":"Feature","properties":{"q":"NWSE","ac":40.5},"geometry":{"type":"Polygon","coordinates":[[[-104.827967,43.253981],[-104.822946,43.254057],[-104.822869,43.250448],[-104.827891,43.25036],[-104.827967,43.253981]]]}},{"type":"Feature","properties":{"q":"NESW","ac":40.9},"geometry":{"type":"Polygon","coordinates":[[[-104.833078,43.264756],[-104.833055,43.268434],[-104.828076,43.268494],[-104.828096,43.264809],[-104.833078,43.264756]]]}},{"type":"Feature","properties":{"q":"SWSE","ac":39.3},"geometry":{"type":"Polygon","coordinates":[[[-104.826668,43.218715],[-104.826773,43.2222],[-104.821731,43.222161],[-104.821623,43.218651],[-104.826668,43.218715]]]}},{"type":"Feature","properties":{"q":"NENW","ac":39.8},"geometry":{"type":"Polygon","coordinates":[[[-104.833027,43.257491],[-104.833101,43.261076],[-104.828116,43.261125],[-104.828041,43.257553],[-104.833027,43.257491]]]}},{"type":"Feature","properties":{"q":"SESE","ac":39.8},"geometry":{"type":"Polygon","coordinates":[[[-104.817206,43.236281],[-104.817019,43.232727],[-104.822054,43.232706],[-104.822239,43.236246],[-104.817206,43.236281]]]}},{"type":"Feature","properties":{"q":"SESW","ac":40.2},"geometry":{"type":"Polygon","coordinates":[[[-104.827815,43.246739],[-104.832804,43.246683],[-104.832878,43.250295],[-104.827891,43.25036],[-104.827815,43.246739]]]}},{"type":"Feature","properties":{"q":"SWNE","ac":40.6},"geometry":{"type":"Polygon","coordinates":[[[-104.828034,43.283128],[-104.828034,43.286776],[-104.823041,43.286826],[-104.823042,43.283173],[-104.828034,43.283128]]]}},{"type":"Feature","properties":{"q":"4","ac":37.8},"geometry":{"type":"Polygon","coordinates":[[[-104.836928,43.232648],[-104.837093,43.236144],[-104.832263,43.236177],[-104.832083,43.232666],[-104.836928,43.232648]]]}},{"type":"Feature","properties":{"q":"NENW","ac":38.9},"geometry":{"type":"Polygon","coordinates":[[[-104.831978,43.229182],[-104.832083,43.232666],[-104.827089,43.232685],[-104.826984,43.229185],[-104.831978,43.229182]]]}},{"type":"Feature","properties":{"q":"NESW","ac":40.6},"geometry":{"type":"Polygon","coordinates":[[[-104.833009,43.27942],[-104.833008,43.283084],[-104.828034,43.283128],[-104.828035,43.27946],[-104.833009,43.27942]]]}},{"type":"Feature","properties":{"q":"1","ac":38.2},"geometry":{"type":"Polygon","coordinates":[[[-104.837795,43.257432],[-104.837864,43.261032],[-104.833101,43.261076],[-104.833027,43.257491],[-104.837795,43.257432]]]}},{"type":"Feature","properties":{"q":"SESE","ac":39.6},"geometry":{"type":"Polygon","coordinates":[[[-104.816688,43.222123],[-104.816578,43.218588],[-104.821623,43.218651],[-104.821731,43.222161],[-104.816688,43.222123]]]}},{"type":"Feature","properties":{"q":"NWNE","ac":40.6},"geometry":{"type":"Polygon","coordinates":[[[-104.828056,43.272143],[-104.828036,43.275791],[-104.823045,43.275845],[-104.823058,43.272199],[-104.828056,43.272143]]]}},{"type":"Feature","properties":{"q":"4","ac":37.5},"geometry":{"type":"Polygon","coordinates":[[[-104.836501,43.218773],[-104.836608,43.222242],[-104.83177,43.222221],[-104.831667,43.218745],[-104.836501,43.218773]]]}},{"type":"Feature","properties":{"q":"NESW","ac":38.8},"geometry":{"type":"Polygon","coordinates":[[[-104.826773,43.2222],[-104.83177,43.222221],[-104.831874,43.225698],[-104.826878,43.225685],[-104.826773,43.2222]]]}},{"type":"Feature","properties":{"q":"SENW","ac":38.9},"geometry":{"type":"Polygon","coordinates":[[[-104.826878,43.225685],[-104.831874,43.225698],[-104.831978,43.229182],[-104.826984,43.229185],[-104.826878,43.225685]]]}},{"type":"Feature","properties":{"q":"NENW","ac":38.9},"geometry":{"type":"Polygon","coordinates":[[[-104.832623,43.243186],[-104.832804,43.246683],[-104.827815,43.246739],[-104.827634,43.243237],[-104.832623,43.243186]]]}},{"type":"Feature","properties":{"q":"SESW","ac":40.6},"geometry":{"type":"Polygon","coordinates":[[[-104.833009,43.275756],[-104.833009,43.27942],[-104.828035,43.27946],[-104.828036,43.275791],[-104.833009,43.275756]]]}},{"type":"Feature","properties":{"q":"1","ac":37.4},"geometry":{"type":"Polygon","coordinates":[[[-104.832804,43.246683],[-104.832623,43.243186],[-104.837423,43.243136],[-104.837589,43.246632],[-104.832804,43.246683]]]}},{"type":"Feature","properties":{"q":"NENE","ac":40.2},"geometry":{"type":"Polygon","coordinates":[[[-104.823023,43.257641],[-104.8231,43.261225],[-104.818084,43.261325],[-104.818005,43.257729],[-104.823023,43.257641]]]}},{"type":"Feature","properties":{"q":"2","ac":38.3},"geometry":{"type":"Polygon","coordinates":[[[-104.833008,43.286738],[-104.833008,43.283084],[-104.837709,43.283042],[-104.8377,43.286701],[-104.833008,43.286738]]]}},{"type":"Feature","properties":{"q":"4","ac":38.5},"geometry":{"type":"Polygon","coordinates":[[[-104.837657,43.250232],[-104.832878,43.250295],[-104.832804,43.246683],[-104.837589,43.246632],[-104.837657,43.250232]]]}},{"type":"Feature","properties":{"q":"3","ac":37.5},"geometry":{"type":"Polygon","coordinates":[[[-104.83177,43.222221],[-104.836608,43.222242],[-104.836714,43.225711],[-104.831874,43.225698],[-104.83177,43.222221]]]}},{"type":"Feature","properties":{"q":"SESE","ac":40.7},"geometry":{"type":"Polygon","coordinates":[[[-104.823045,43.275845],[-104.823043,43.279509],[-104.818052,43.279558],[-104.818053,43.275899],[-104.823045,43.275845]]]}},{"type":"Feature","properties":{"q":"NWSE","ac":41.0},"geometry":{"type":"Polygon","coordinates":[[[-104.823072,43.268553],[-104.823086,43.264889],[-104.828096,43.264809],[-104.828076,43.268494],[-104.823072,43.268553]]]}},{"type":"Feature","properties":{"q":"NENW","ac":40.5},"geometry":{"type":"Polygon","coordinates":[[[-104.828033,43.290424],[-104.828034,43.286776],[-104.833008,43.286738],[-104.833008,43.290391],[-104.828033,43.290424]]]}},{"type":"Feature","properties":{"q":"1","ac":37.6},"geometry":{"type":"Polygon","coordinates":[[[-104.836821,43.229179],[-104.836928,43.232648],[-104.832083,43.232666],[-104.831978,43.229182],[-104.836821,43.229179]]]}},{"type":"Feature","properties":{"q":"NESW","ac":40.2},"geometry":{"type":"Polygon","coordinates":[[[-104.832878,43.250295],[-104.832952,43.253905],[-104.827967,43.253981],[-104.827891,43.25036],[-104.832878,43.250295]]]}},{"type":"Feature","properties":{"q":"NWNE","ac":39.4},"geometry":{"type":"Polygon","coordinates":[[[-104.822607,43.243312],[-104.827634,43.243237],[-104.827815,43.246739],[-104.822792,43.24684],[-104.822607,43.243312]]]}},{"type":"Feature","properties":{"q":"SENE","ac":40.6},"geometry":{"type":"Polygon","coordinates":[[[-104.823072,43.268553],[-104.823058,43.272199],[-104.818061,43.272256],[-104.818069,43.268612],[-104.823072,43.268553]]]}},{"type":"Feature","properties":{"q":"NESW","ac":39.2},"geometry":{"type":"Polygon","coordinates":[[[-104.827271,43.23621],[-104.832263,43.236177],[-104.832443,43.239687],[-104.827453,43.239736],[-104.827271,43.23621]]]}},{"type":"Feature","properties":{"q":"SENE","ac":39.7},"geometry":{"type":"Polygon","coordinates":[[[-104.822607,43.243312],[-104.817581,43.243387],[-104.817393,43.239834],[-104.822423,43.239785],[-104.822607,43.243312]]]}},{"type":"Feature","properties":{"q":"NESE","ac":40.7},"geometry":{"type":"Polygon","coordinates":[[[-104.823043,43.279509],[-104.823042,43.283173],[-104.81805,43.283217],[-104.818052,43.279558],[-104.823043,43.279509]]]}},{"type":"Feature","properties":{"q":"SWNE","ac":39.4},"geometry":{"type":"Polygon","coordinates":[[[-104.827453,43.239736],[-104.827634,43.243237],[-104.822607,43.243312],[-104.822423,43.239785],[-104.827453,43.239736]]]}},{"type":"Feature","properties":{"q":"SENW","ac":40.5},"geometry":{"type":"Polygon","coordinates":[[[-104.828056,43.272143],[-104.828076,43.268494],[-104.833055,43.268434],[-104.833032,43.272095],[-104.828056,43.272143]]]}},{"type":"Feature","properties":{"q":"SWNE","ac":40.6},"geometry":{"type":"Polygon","coordinates":[[[-104.828076,43.268494],[-104.828056,43.272143],[-104.823058,43.272199],[-104.823072,43.268553],[-104.828076,43.268494]]]}},{"type":"Feature","properties":{"q":"NENE","ac":40.6},"geometry":{"type":"Polygon","coordinates":[[[-104.823058,43.272199],[-104.823045,43.275845],[-104.818053,43.275899],[-104.818061,43.272256],[-104.823058,43.272199]]]}},{"type":"Feature","properties":{"q":"SESW","ac":38.8},"geometry":{"type":"Polygon","coordinates":[[[-104.831667,43.218745],[-104.83177,43.222221],[-104.826773,43.2222],[-104.826668,43.218715],[-104.831667,43.218745]]]}},{"type":"Feature","properties":{"q":"NESE","ac":40.3},"geometry":{"type":"Polygon","coordinates":[[[-104.817926,43.254133],[-104.817847,43.250537],[-104.822869,43.250448],[-104.822946,43.254057],[-104.817926,43.254133]]]}},{"type":"Feature","properties":{"q":"NENW","ac":40.5},"geometry":{"type":"Polygon","coordinates":[[[-104.833032,43.272095],[-104.833009,43.275756],[-104.828036,43.275791],[-104.828056,43.272143],[-104.833032,43.272095]]]}},{"type":"Feature","properties":{"q":"SENW","ac":40.5},"geometry":{"type":"Polygon","coordinates":[[[-104.833008,43.283084],[-104.833008,43.286738],[-104.828034,43.286776],[-104.828034,43.283128],[-104.833008,43.283084]]]}},{"type":"Feature","properties":{"q":"3","ac":38.9},"geometry":{"type":"Polygon","coordinates":[[[-104.837796,43.268378],[-104.833055,43.268434],[-104.833078,43.264756],[-104.83783,43.264705],[-104.837796,43.268378]]]}},{"type":"Feature","properties":{"q":"NWNE","ac":40.6},"geometry":{"type":"Polygon","coordinates":[[[-104.828033,43.290424],[-104.82304,43.290479],[-104.823041,43.286826],[-104.828034,43.286776],[-104.828033,43.290424]]]}},{"type":"Feature","properties":{"q":"3","ac":38.4},"geometry":{"type":"Polygon","coordinates":[[[-104.837718,43.279382],[-104.837709,43.283042],[-104.833008,43.283084],[-104.833009,43.27942],[-104.837718,43.279382]]]}},{"type":"Feature","properties":{"q":"SENE","ac":39.6},"geometry":{"type":"Polygon","coordinates":[[[-104.816798,43.225658],[-104.821838,43.225671],[-104.821946,43.229189],[-104.816909,43.229193],[-104.816798,43.225658]]]}},{"type":"Feature","properties":{"q":"SWNE","ac":40.0},"geometry":{"type":"Polygon","coordinates":[[[-104.823023,43.257641],[-104.822946,43.254057],[-104.827967,43.253981],[-104.828041,43.257553],[-104.823023,43.257641]]]}},{"type":"Feature","properties":{"q":"NWSE","ac":40.8},"geometry":{"type":"Polygon","coordinates":[[[-104.828035,43.27946],[-104.828034,43.283128],[-104.823042,43.283173],[-104.823043,43.279509],[-104.828035,43.27946]]]}},{"type":"Feature","properties":{"q":"3","ac":38.4},"geometry":{"type":"Polygon","coordinates":[[[-104.832952,43.253905],[-104.832878,43.250295],[-104.837657,43.250232],[-104.837726,43.253832],[-104.832952,43.253905]]]}},{"type":"Feature","properties":{"q":"1","ac":38.2},"geometry":{"type":"Polygon","coordinates":[[[-104.8377,43.286701],[-104.83769,43.290361],[-104.833008,43.290391],[-104.833008,43.286738],[-104.8377,43.286701]]]}},{"type":"Feature","properties":{"q":"NESE","ac":40.8},"geometry":{"type":"Polygon","coordinates":[[[-104.818069,43.268612],[-104.818076,43.264969],[-104.823086,43.264889],[-104.823072,43.268553],[-104.818069,43.268612]]]}},{"type":"Feature","properties":{"q":"2","ac":38.7},"geometry":{"type":"Polygon","coordinates":[[[-104.837796,43.268378],[-104.837762,43.27205],[-104.833032,43.272095],[-104.833055,43.268434],[-104.837796,43.268378]]]}},{"type":"Feature","properties":{"q":"NWSE","ac":39.6},"geometry":{"type":"Polygon","coordinates":[[[-104.827271,43.23621],[-104.827453,43.239736],[-104.822423,43.239785],[-104.822239,43.236246],[-104.827271,43.23621]]]}},{"type":"Feature","properties":{"q":"SENW","ac":40.2},"geometry":{"type":"Polygon","coordinates":[[[-104.83304,43.301303],[-104.828069,43.301353],[-104.828057,43.297725],[-104.833031,43.297676],[-104.83304,43.301303]]]}},{"type":"Feature","properties":{"q":"4","ac":37.7},"geometry":{"type":"Polygon","coordinates":[[[-104.837728,43.304883],[-104.833049,43.304904],[-104.83304,43.301303],[-104.837721,43.301256],[-104.837728,43.304883]]]}},{"type":"Feature","properties":{"q":"1","ac":39.2},"geometry":{"type":"Polygon","coordinates":[[[-104.823086,43.301405],[-104.823103,43.304954],[-104.818126,43.304981],[-104.818103,43.301457],[-104.823086,43.301405]]]}},{"type":"Feature","properties":{"q":"SENE","ac":40.3},"geometry":{"type":"Polygon","coordinates":[[[-104.823068,43.297775],[-104.823086,43.301405],[-104.818103,43.301457],[-104.818079,43.297825],[-104.823068,43.297775]]]}},{"type":"Feature","properties":{"q":"3","ac":39.7},"geometry":{"type":"Polygon","coordinates":[[[-104.828081,43.304927],[-104.828069,43.301353],[-104.83304,43.301303],[-104.833049,43.304904],[-104.828081,43.304927]]]}},{"type":"Feature","properties":{"q":"2","ac":39.5},"geometry":{"type":"Polygon","coordinates":[[[-104.823086,43.301405],[-104.828069,43.301353],[-104.828081,43.304927],[-104.823103,43.304954],[-104.823086,43.301405]]]}},{"type":"Feature","properties":{"q":"SESW","ac":40.4},"geometry":{"type":"Polygon","coordinates":[[[-104.828033,43.290424],[-104.833008,43.290391],[-104.833019,43.294033],[-104.828045,43.294075],[-104.828033,43.290424]]]}},{"type":"Feature","properties":{"q":"6","ac":38.0},"geometry":{"type":"Polygon","coordinates":[[[-104.837703,43.293995],[-104.837715,43.297628],[-104.833031,43.297676],[-104.833019,43.294033],[-104.837703,43.293995]]]}},{"type":"Feature","properties":{"q":"SESE","ac":40.6},"geometry":{"type":"Polygon","coordinates":[[[-104.82304,43.290479],[-104.823054,43.294127],[-104.818063,43.294179],[-104.818046,43.290534],[-104.82304,43.290479]]]}},{"type":"Feature","properties":{"q":"NESE","ac":40.5},"geometry":{"type":"Polygon","coordinates":[[[-104.823054,43.294127],[-104.823068,43.297775],[-104.818079,43.297825],[-104.818063,43.294179],[-104.823054,43.294127]]]}},{"type":"Feature","properties":{"q":"NESW","ac":40.4},"geometry":{"type":"Polygon","coordinates":[[[-104.833031,43.297676],[-104.828057,43.297725],[-104.828045,43.294075],[-104.833019,43.294033],[-104.833031,43.297676]]]}},{"type":"Feature","properties":{"q":"7","ac":38.0},"geometry":{"type":"Polygon","coordinates":[[[-104.83769,43.290361],[-104.837703,43.293995],[-104.833019,43.294033],[-104.833008,43.290391],[-104.83769,43.290361]]]}},{"type":"Feature","properties":{"q":"SWSE","ac":40.6},"geometry":{"type":"Polygon","coordinates":[[[-104.82304,43.290479],[-104.828033,43.290424],[-104.828045,43.294075],[-104.823054,43.294127],[-104.82304,43.290479]]]}},{"type":"Feature","properties":{"q":"5","ac":37.8},"geometry":{"type":"Polygon","coordinates":[[[-104.837721,43.301256],[-104.83304,43.301303],[-104.833031,43.297676],[-104.837715,43.297628],[-104.837721,43.301256]]]}},{"type":"Feature","properties":{"q":"SWNE","ac":40.3},"geometry":{"type":"Polygon","coordinates":[[[-104.823068,43.297775],[-104.828057,43.297725],[-104.828069,43.301353],[-104.823086,43.301405],[-104.823068,43.297775]]]}},{"type":"Feature","properties":{"q":"NWSE","ac":40.6},"geometry":{"type":"Polygon","coordinates":[[[-104.823068,43.297775],[-104.823054,43.294127],[-104.828045,43.294075],[-104.828057,43.297725],[-104.823068,43.297775]]]}}]}