{"type":"FeatureCollection","note":"BLM Public Land Survey System. Provided by the Bureau of Land Management as is. These data are neither legal documents nor land surveys and must not be used as such.","features":[{"type":"Feature","properties":{"q":"9","ac":39.9},"geometry":{"type":"Polygon","coordinates":[[[-106.264187,44.262893],[-106.259199,44.262881],[-106.259304,44.259229],[-106.264275,44.259243],[-106.264187,44.262893]]]}},{"type":"Feature","properties":{"q":"14","ac":39.6},"geometry":{"type":"Polygon","coordinates":[[[-106.289098,44.262955],[-106.284125,44.262941],[-106.284151,44.2593],[-106.289115,44.259316],[-106.289098,44.262955]]]}},{"type":"Feature","properties":{"q":"16","ac":38.3},"geometry":{"type":"Polygon","coordinates":[[[-106.294061,44.302981],[-106.298864,44.302981],[-106.298849,44.306617],[-106.294039,44.306619],[-106.294061,44.302981]]]}},{"type":"Feature","properties":{"q":"3","ac":39.8},"geometry":{"type":"Polygon","coordinates":[[[-106.269102,44.295725],[-106.274093,44.295712],[-106.274098,44.299356],[-106.269114,44.299372],[-106.269102,44.295725]]]}},{"type":"Feature","properties":{"q":"NESE","ac":40.0},"geometry":{"type":"Polygon","coordinates":[[[-106.244127,44.30324],[-106.244089,44.306889],[-106.239084,44.30695],[-106.239128,44.303302],[-106.244127,44.30324]]]}},{"type":"Feature","properties":{"q":"2","ac":39.9},"geometry":{"type":"Polygon","coordinates":[[[-106.224148,44.266932],[-106.229138,44.266896],[-106.229066,44.270544],[-106.224083,44.27058],[-106.224148,44.266932]]]}},{"type":"Feature","properties":{"q":"5","ac":39.8},"geometry":{"type":"Polygon","coordinates":[[[-106.279115,44.266568],[-106.284098,44.266581],[-106.284071,44.270221],[-106.279079,44.270209],[-106.279115,44.266568]]]}},{"type":"Feature","properties":{"q":"5","ac":40.0},"geometry":{"type":"Polygon","coordinates":[[[-106.23408,44.277803],[-106.239081,44.277766],[-106.239104,44.281414],[-106.234095,44.281451],[-106.23408,44.277803]]]}},{"type":"Feature","properties":{"q":"9","ac":39.0},"geometry":{"type":"Polygon","coordinates":[[[-106.294067,44.277519],[-106.298973,44.277527],[-106.298958,44.281163],[-106.294073,44.281156],[-106.294067,44.277519]]]}},{"type":"Feature","properties":{"q":"9","ac":38.4},"geometry":{"type":"Polygon","coordinates":[[[-106.298849,44.306617],[-106.298834,44.310253],[-106.294016,44.310256],[-106.294039,44.306619],[-106.298849,44.306617]]]}},{"type":"Feature","properties":{"q":"11","ac":40.0},"geometry":{"type":"Polygon","coordinates":[[[-106.269079,44.288432],[-106.274083,44.288424],[-106.274088,44.292068],[-106.26909,44.292079],[-106.269079,44.288432]]]}},{"type":"Feature","properties":{"q":"12","ac":39.9},"geometry":{"type":"Polygon","coordinates":[[[-106.274083,44.288424],[-106.279088,44.288416],[-106.279087,44.292058],[-106.274088,44.292068],[-106.274083,44.288424]]]}},{"type":"Feature","properties":{"q":"7","ac":39.9},"geometry":{"type":"Polygon","coordinates":[[[-106.269075,44.306666],[-106.269056,44.310312],[-106.264069,44.310336],[-106.264089,44.306687],[-106.269075,44.306666]]]}},{"type":"Feature","properties":{"q":"2","ac":39.9},"geometry":{"type":"Polygon","coordinates":[[[-106.244113,44.26675],[-106.249107,44.266678],[-106.249011,44.270328],[-106.244022,44.270399],[-106.244113,44.26675]]]}},{"type":"Feature","properties":{"q":"6","ac":39.9},"geometry":{"type":"Polygon","coordinates":[[[-106.22921,44.263248],[-106.234208,44.263211],[-106.234129,44.266859],[-106.229138,44.266896],[-106.22921,44.263248]]]}},{"type":"Feature","properties":{"q":"7","ac":39.9},"geometry":{"type":"Polygon","coordinates":[[[-106.244113,44.26675],[-106.23912,44.266822],[-106.239207,44.263174],[-106.244205,44.263101],[-106.244113,44.26675]]]}},{"type":"Feature","properties":{"q":"7","ac":39.9},"geometry":{"type":"Polygon","coordinates":[[[-106.229061,44.310674],[-106.224072,44.310712],[-106.2241,44.307064],[-106.229095,44.307026],[-106.229061,44.310674]]]}},{"type":"Feature","properties":{"q":"5","ac":39.9},"geometry":{"type":"Polygon","coordinates":[[[-106.259016,44.27749],[-106.25903,44.281142],[-106.254049,44.28121],[-106.254032,44.277559],[-106.259016,44.27749]]]}},{"type":"Feature","properties":{"q":"3","ac":39.8},"geometry":{"type":"Polygon","coordinates":[[[-106.254049,44.28121],[-106.254065,44.284861],[-106.249086,44.284928],[-106.249067,44.281278],[-106.254049,44.28121]]]}},{"type":"Feature","properties":{"q":"SESW","ac":39.8},"geometry":{"type":"Polygon","coordinates":[[[-106.29408,44.288431],[-106.289083,44.288426],[-106.289082,44.284787],[-106.294079,44.284794],[-106.29408,44.288431]]]}},{"type":"Feature","properties":{"q":"2","ac":39.9},"geometry":{"type":"Polygon","coordinates":[[[-106.26411,44.295738],[-106.269102,44.295725],[-106.269114,44.299372],[-106.264129,44.299388],[-106.26411,44.295738]]]}},{"type":"Feature","properties":{"q":"9","ac":40.1},"geometry":{"type":"Polygon","coordinates":[[[-106.219082,44.28886],[-106.224096,44.288822],[-106.224116,44.292471],[-106.219105,44.292508],[-106.219082,44.28886]]]}},{"type":"Feature","properties":{"q":"5","ac":39.8},"geometry":{"type":"Polygon","coordinates":[[[-106.274062,44.306645],[-106.279048,44.306623],[-106.27903,44.310265],[-106.274043,44.310289],[-106.274062,44.306645]]]}},{"type":"Feature","properties":{"q":"14","ac":40.1},"geometry":{"type":"Polygon","coordinates":[[[-106.234125,44.288747],[-106.22911,44.288785],[-106.229093,44.285136],[-106.234111,44.285099],[-106.234125,44.288747]]]}},{"type":"Feature","properties":{"q":"7","ac":39.9},"geometry":{"type":"Polygon","coordinates":[[[-106.249049,44.277628],[-106.249067,44.281278],[-106.244086,44.281346],[-106.244065,44.277697],[-106.249049,44.277628]]]}},{"type":"Feature","properties":{"q":"8","ac":40.1},"geometry":{"type":"Polygon","coordinates":[[[-106.259016,44.27749],[-106.264033,44.277491],[-106.264044,44.28114],[-106.25903,44.281142],[-106.259016,44.27749]]]}},{"type":"Feature","properties":{"q":"NWSE","ac":40.0},"geometry":{"type":"Polygon","coordinates":[[[-106.249125,44.303179],[-106.249093,44.306829],[-106.244089,44.306889],[-106.244127,44.30324],[-106.249125,44.303179]]]}},{"type":"Feature","properties":{"q":"3","ac":40.0},"geometry":{"type":"Polygon","coordinates":[[[-106.229145,44.296081],[-106.234153,44.296044],[-106.234166,44.299691],[-106.229162,44.299729],[-106.229145,44.296081]]]}},{"type":"Feature","properties":{"q":"16","ac":39.9},"geometry":{"type":"Polygon","coordinates":[[[-106.224083,44.27058],[-106.224081,44.274229],[-106.219089,44.274266],[-106.2191,44.270617],[-106.224083,44.27058]]]}},{"type":"Feature","properties":{"q":"16","ac":40.1},"geometry":{"type":"Polygon","coordinates":[[[-106.219058,44.285211],[-106.224076,44.285174],[-106.224096,44.288822],[-106.219082,44.28886],[-106.219058,44.285211]]]}},{"type":"Feature","properties":{"q":"15","ac":40.0},"geometry":{"type":"Polygon","coordinates":[[[-106.204289,44.256134],[-106.209302,44.256097],[-106.209267,44.259744],[-106.204265,44.25978],[-106.204289,44.256134]]]}},{"type":"Feature","properties":{"q":"9","ac":39.9},"geometry":{"type":"Polygon","coordinates":[[[-106.199263,44.259815],[-106.204265,44.25978],[-106.20424,44.263426],[-106.199249,44.263461],[-106.199263,44.259815]]]}},{"type":"Feature","properties":{"q":"14","ac":40.0},"geometry":{"type":"Polygon","coordinates":[[[-106.214316,44.25606],[-106.214269,44.259708],[-106.209267,44.259744],[-106.209302,44.256097],[-106.214316,44.25606]]]}},{"type":"Feature","properties":{"q":"3","ac":40.0},"geometry":{"type":"Polygon","coordinates":[[[-106.214141,44.299832],[-106.20913,44.299859],[-106.209117,44.296212],[-106.214123,44.296184],[-106.214141,44.299832]]]}},{"type":"Feature","properties":{"q":"14","ac":39.8},"geometry":{"type":"Polygon","coordinates":[[[-106.209161,44.270684],[-106.21413,44.270651],[-106.214115,44.274299],[-106.20914,44.274331],[-106.209161,44.270684]]]}},{"type":"Feature","properties":{"q":"15","ac":39.7},"geometry":{"type":"Polygon","coordinates":[[[-106.209161,44.270684],[-106.20914,44.274331],[-106.204166,44.274364],[-106.204191,44.270718],[-106.209161,44.270684]]]}},{"type":"Feature","properties":{"q":"15","ac":40.0},"geometry":{"type":"Polygon","coordinates":[[[-106.204115,44.303532],[-106.204118,44.299886],[-106.208626,44.299862],[-106.20913,44.299859],[-106.209119,44.303506],[-106.204115,44.303532]]]}},{"type":"Feature","properties":{"q":"12","ac":39.8},"geometry":{"type":"Polygon","coordinates":[[[-106.274217,44.259271],[-106.279188,44.259285],[-106.279152,44.262926],[-106.274163,44.262915],[-106.274217,44.259271]]]}},{"type":"Feature","properties":{"q":"13","ac":39.7},"geometry":{"type":"Polygon","coordinates":[[[-106.279188,44.259285],[-106.284151,44.2593],[-106.284125,44.262941],[-106.279152,44.262926],[-106.279188,44.259285]]]}},{"type":"Feature","properties":{"q":"2","ac":39.8},"geometry":{"type":"Polygon","coordinates":[[[-106.249067,44.281278],[-106.249086,44.284928],[-106.244107,44.284995],[-106.244086,44.281346],[-106.249067,44.281278]]]}},{"type":"Feature","properties":{"q":"3","ac":39.9},"geometry":{"type":"Polygon","coordinates":[[[-106.254129,44.295815],[-106.254151,44.299466],[-106.249157,44.299528],[-106.24914,44.295879],[-106.254129,44.295815]]]}},{"type":"Feature","properties":{"q":"14","ac":40.1},"geometry":{"type":"Polygon","coordinates":[[[-106.274056,44.270203],[-106.274062,44.273848],[-106.269042,44.273844],[-106.269034,44.270197],[-106.274056,44.270203]]]}},{"type":"Feature","properties":{"q":"13","ac":39.9},"geometry":{"type":"Polygon","coordinates":[[[-106.23405,44.270507],[-106.239033,44.27047],[-106.239057,44.274118],[-106.234065,44.274155],[-106.23405,44.270507]]]}},{"type":"Feature","properties":{"q":"11","ac":39.7},"geometry":{"type":"Polygon","coordinates":[[[-106.284125,44.262941],[-106.289098,44.262955],[-106.289081,44.266593],[-106.284098,44.266581],[-106.284125,44.262941]]]}},{"type":"Feature","properties":{"q":"3","ac":40.1},"geometry":{"type":"Polygon","coordinates":[[[-106.229087,44.281488],[-106.234095,44.281451],[-106.234111,44.285099],[-106.229093,44.285136],[-106.229087,44.281488]]]}},{"type":"Feature","properties":{"q":"1","ac":39.9},"geometry":{"type":"Polygon","coordinates":[[[-106.219082,44.31075],[-106.224072,44.310712],[-106.224043,44.31436],[-106.219058,44.314398],[-106.219082,44.31075]]]}},{"type":"Feature","properties":{"q":"NENW","ac":40.1},"geometry":{"type":"Polygon","coordinates":[[[-106.254072,44.310419],[-106.254045,44.31407],[-106.249029,44.314129],[-106.249061,44.310479],[-106.254072,44.310419]]]}},{"type":"Feature","properties":{"q":"SESE","ac":39.9},"geometry":{"type":"Polygon","coordinates":[[[-106.239171,44.299654],[-106.244164,44.299591],[-106.244127,44.30324],[-106.239128,44.303302],[-106.239171,44.299654]]]}},{"type":"Feature","properties":{"q":"SWNW","ac":40.0},"geometry":{"type":"Polygon","coordinates":[[[-106.254201,44.262955],[-106.259199,44.262881],[-106.259094,44.266533],[-106.2541,44.266606],[-106.254201,44.262955]]]}},{"type":"Feature","properties":{"q":"6","ac":39.9},"geometry":{"type":"Polygon","coordinates":[[[-106.269175,44.262904],[-106.274163,44.262915],[-106.27411,44.266559],[-106.269104,44.266551],[-106.269175,44.262904]]]}},{"type":"Feature","properties":{"q":"9","ac":40.0},"geometry":{"type":"Polygon","coordinates":[[[-106.259069,44.288447],[-106.264074,44.288439],[-106.264092,44.292089],[-106.259094,44.292099],[-106.259069,44.288447]]]}},{"type":"Feature","properties":{"q":"7","ac":39.9},"geometry":{"type":"Polygon","coordinates":[[[-106.264092,44.292089],[-106.26909,44.292079],[-106.269102,44.295725],[-106.26411,44.295738],[-106.264092,44.292089]]]}},{"type":"Feature","properties":{"q":"15","ac":40.2},"geometry":{"type":"Polygon","coordinates":[[[-106.269042,44.273844],[-106.264022,44.273841],[-106.264011,44.270191],[-106.269034,44.270197],[-106.269042,44.273844]]]}},{"type":"Feature","properties":{"q":"SESW","ac":40.3},"geometry":{"type":"Polygon","coordinates":[[[-106.189251,44.256243],[-106.194263,44.256207],[-106.194253,44.259868],[-106.189243,44.259921],[-106.189251,44.256243]]]}},{"type":"Feature","properties":{"q":"5","ac":39.9},"geometry":{"type":"Polygon","coordinates":[[[-106.214107,44.307127],[-106.219105,44.307102],[-106.219082,44.31075],[-106.21409,44.310775],[-106.214107,44.307127]]]}},{"type":"Feature","properties":{"q":"2","ac":39.8},"geometry":{"type":"Polygon","coordinates":[[[-106.204107,44.310824],[-106.209099,44.3108],[-106.209089,44.314446],[-106.204104,44.31447],[-106.204107,44.310824]]]}},{"type":"Feature","properties":{"q":"1","ac":39.9},"geometry":{"type":"Polygon","coordinates":[[[-106.184128,44.296376],[-106.184119,44.300021],[-106.179123,44.300056],[-106.179134,44.296701],[-106.179135,44.296412],[-106.184128,44.296376]]]}},{"type":"Feature","properties":{"q":"4","ac":40.0},"geometry":{"type":"Polygon","coordinates":[[[-106.214123,44.296184],[-106.219129,44.296156],[-106.219152,44.299805],[-106.214141,44.299832],[-106.214123,44.296184]]]}},{"type":"Feature","properties":{"q":"16","ac":39.7},"geometry":{"type":"Polygon","coordinates":[[[-106.199222,44.270751],[-106.204191,44.270718],[-106.204166,44.274364],[-106.199191,44.274396],[-106.199222,44.270751]]]}},{"type":"Feature","properties":{"q":"9","ac":39.8},"geometry":{"type":"Polygon","coordinates":[[[-106.199191,44.274396],[-106.204166,44.274364],[-106.20414,44.27801],[-106.19916,44.278042],[-106.199191,44.274396]]]}},{"type":"Feature","properties":{"q":"10","ac":39.9},"geometry":{"type":"Polygon","coordinates":[[[-106.184202,44.274504],[-106.189198,44.274468],[-106.189177,44.278114],[-106.184186,44.27815],[-106.184202,44.274504]]]}},{"type":"Feature","properties":{"q":"12","ac":40.0},"geometry":{"type":"Polygon","coordinates":[[[-106.234288,44.259563],[-106.239293,44.259526],[-106.239207,44.263174],[-106.234208,44.263211],[-106.234288,44.259563]]]}},{"type":"Feature","properties":{"q":"NESE","ac":40.0},"geometry":{"type":"Polygon","coordinates":[[[-106.239293,44.259526],[-106.244296,44.259452],[-106.244205,44.263101],[-106.239207,44.263174],[-106.239293,44.259526]]]}},{"type":"Feature","properties":{"q":"10","ac":39.8},"geometry":{"type":"Polygon","coordinates":[[[-106.264275,44.259243],[-106.269246,44.259257],[-106.269175,44.262904],[-106.264187,44.262893],[-106.264275,44.259243]]]}},{"type":"Feature","properties":{"q":"6","ac":39.8},"geometry":{"type":"Polygon","coordinates":[[[-106.269075,44.306666],[-106.274062,44.306645],[-106.274043,44.310289],[-106.269056,44.310312],[-106.269075,44.306666]]]}},{"type":"Feature","properties":{"q":"5","ac":39.9},"geometry":{"type":"Polygon","coordinates":[[[-106.23409,44.306988],[-106.239084,44.30695],[-106.239041,44.310598],[-106.234051,44.310636],[-106.23409,44.306988]]]}},{"type":"Feature","properties":{"q":"11","ac":39.9},"geometry":{"type":"Polygon","coordinates":[[[-106.254016,44.273908],[-106.254032,44.277559],[-106.249049,44.277628],[-106.24903,44.273978],[-106.254016,44.273908]]]}},{"type":"Feature","properties":{"q":"16","ac":39.9},"geometry":{"type":"Polygon","coordinates":[[[-106.239033,44.27047],[-106.244022,44.270399],[-106.244043,44.274048],[-106.239057,44.274118],[-106.239033,44.27047]]]}},{"type":"Feature","properties":{"q":"14","ac":39.8},"geometry":{"type":"Polygon","coordinates":[[[-106.274098,44.299356],[-106.27408,44.303001],[-106.269094,44.303019],[-106.269114,44.299372],[-106.274098,44.299356]]]}},{"type":"Feature","properties":{"q":"3","ac":39.9},"geometry":{"type":"Polygon","coordinates":[[[-106.23405,44.270507],[-106.229066,44.270544],[-106.229138,44.266896],[-106.234129,44.266859],[-106.23405,44.270507]]]}},{"type":"Feature","properties":{"q":"2","ac":40.1},"geometry":{"type":"Polygon","coordinates":[[[-106.224076,44.285174],[-106.224078,44.281526],[-106.229087,44.281488],[-106.229093,44.285136],[-106.224076,44.285174]]]}},{"type":"Feature","properties":{"q":"15","ac":39.9},"geometry":{"type":"Polygon","coordinates":[[[-106.264129,44.299388],[-106.269114,44.299372],[-106.269094,44.303019],[-106.264109,44.303037],[-106.264129,44.299388]]]}},{"type":"Feature","properties":{"q":"5","ac":39.9},"geometry":{"type":"Polygon","coordinates":[[[-106.279087,44.281133],[-106.284082,44.281141],[-106.284086,44.284781],[-106.27909,44.284775],[-106.279087,44.281133]]]}},{"type":"Feature","properties":{"q":"15","ac":39.9},"geometry":{"type":"Polygon","coordinates":[[[-106.229066,44.270544],[-106.229073,44.274192],[-106.224081,44.274229],[-106.224083,44.27058],[-106.229066,44.270544]]]}},{"type":"Feature","properties":{"q":"12","ac":39.9},"geometry":{"type":"Polygon","coordinates":[[[-106.259003,44.273838],[-106.259016,44.27749],[-106.254032,44.277559],[-106.254016,44.273908],[-106.259003,44.273838]]]}},{"type":"Feature","properties":{"q":"11","ac":39.8},"geometry":{"type":"Polygon","coordinates":[[[-106.269094,44.303019],[-106.27408,44.303001],[-106.274062,44.306645],[-106.269075,44.306666],[-106.269094,44.303019]]]}},{"type":"Feature","properties":{"q":"14","ac":39.9},"geometry":{"type":"Polygon","coordinates":[[[-106.289083,44.288426],[-106.289083,44.292065],[-106.284085,44.292062],[-106.284085,44.288421],[-106.289083,44.288426]]]}},{"type":"Feature","properties":{"q":"12","ac":40.0},"geometry":{"type":"Polygon","coordinates":[[[-106.234065,44.274155],[-106.239057,44.274118],[-106.239081,44.277766],[-106.23408,44.277803],[-106.234065,44.274155]]]}},{"type":"Feature","properties":{"q":"6","ac":40.0},"geometry":{"type":"Polygon","coordinates":[[[-106.22908,44.27784],[-106.23408,44.277803],[-106.234095,44.281451],[-106.229087,44.281488],[-106.22908,44.27784]]]}},{"type":"Feature","properties":{"q":"2","ac":40.1},"geometry":{"type":"Polygon","coordinates":[[[-106.269104,44.266551],[-106.269034,44.270197],[-106.264011,44.270191],[-106.264099,44.266542],[-106.269104,44.266551]]]}},{"type":"Feature","properties":{"q":"12","ac":40.1},"geometry":{"type":"Polygon","coordinates":[[[-106.234125,44.288747],[-106.239139,44.28871],[-106.23915,44.292358],[-106.234139,44.292396],[-106.234125,44.288747]]]}},{"type":"Feature","properties":{"q":"7","ac":39.8},"geometry":{"type":"Polygon","coordinates":[[[-106.294063,44.266606],[-106.294056,44.270244],[-106.289063,44.270232],[-106.289081,44.266593],[-106.294063,44.266606]]]}},{"type":"Feature","properties":{"q":"9","ac":39.9},"geometry":{"type":"Polygon","coordinates":[[[-106.244121,44.288644],[-106.244136,44.292293],[-106.23915,44.292358],[-106.239139,44.28871],[-106.244121,44.288644]]]}},{"type":"Feature","properties":{"q":"6","ac":39.8},"geometry":{"type":"Polygon","coordinates":[[[-106.289063,44.270232],[-106.284071,44.270221],[-106.284098,44.266581],[-106.289081,44.266593],[-106.289063,44.270232]]]}},{"type":"Feature","properties":{"q":"NWNW","ac":40.1},"geometry":{"type":"Polygon","coordinates":[[[-106.259082,44.310359],[-106.259061,44.314012],[-106.254045,44.31407],[-106.254072,44.310419],[-106.259082,44.310359]]]}},{"type":"Feature","properties":{"q":"20","ac":39.8},"geometry":{"type":"Polygon","coordinates":[[[-106.279079,44.270209],[-106.284071,44.270221],[-106.284075,44.273861],[-106.279082,44.273851],[-106.279079,44.270209]]]}},{"type":"Feature","properties":{"q":"NENE","ac":40.0},"geometry":{"type":"Polygon","coordinates":[[[-106.219129,44.296156],[-106.224137,44.296119],[-106.224157,44.299767],[-106.219152,44.299805],[-106.219129,44.296156]]]}},{"type":"Feature","properties":{"q":"12","ac":40.0},"geometry":{"type":"Polygon","coordinates":[[[-106.214269,44.259708],[-106.219272,44.259672],[-106.219214,44.26332],[-106.214223,44.263356],[-106.214269,44.259708]]]}},{"type":"Feature","properties":{"q":"10","ac":39.9},"geometry":{"type":"Polygon","coordinates":[[[-106.204265,44.25978],[-106.209267,44.259744],[-106.209232,44.263391],[-106.20424,44.263426],[-106.204265,44.25978]]]}},{"type":"Feature","properties":{"q":"9","ac":39.8},"geometry":{"type":"Polygon","coordinates":[[[-106.179158,44.289122],[-106.184144,44.289086],[-106.184136,44.292731],[-106.179147,44.292767],[-106.179158,44.289458],[-106.179158,44.289122]]]}},{"type":"Feature","properties":{"q":"6","ac":39.9},"geometry":{"type":"Polygon","coordinates":[[[-106.189098,44.307294],[-106.194106,44.307249],[-106.194103,44.31089],[-106.18909,44.310931],[-106.189098,44.307294]]]}},{"type":"Feature","properties":{"q":"10","ac":40.0},"geometry":{"type":"Polygon","coordinates":[[[-106.214087,44.288889],[-106.214105,44.292537],[-106.209104,44.292566],[-106.209091,44.288919],[-106.214087,44.288889]]]}},{"type":"Feature","properties":{"q":"6","ac":39.9},"geometry":{"type":"Polygon","coordinates":[[[-106.209232,44.263391],[-106.214223,44.263356],[-106.214177,44.267003],[-106.209196,44.267038],[-106.209232,44.263391]]]}},{"type":"Feature","properties":{"q":"13","ac":39.8},"geometry":{"type":"Polygon","coordinates":[[[-106.194117,44.285368],[-106.199099,44.285332],[-106.199101,44.288977],[-106.194115,44.289014],[-106.194117,44.285368]]]}},{"type":"Feature","properties":{"q":"8","ac":39.9},"geometry":{"type":"Polygon","coordinates":[[[-106.179194,44.278186],[-106.184186,44.27815],[-106.184169,44.281796],[-106.179182,44.281832],[-106.179193,44.278595],[-106.179194,44.278186]]]}},{"type":"Feature","properties":{"q":"11","ac":39.8},"geometry":{"type":"Polygon","coordinates":[[[-106.214115,44.274299],[-106.214099,44.277946],[-106.20912,44.277978],[-106.20914,44.274331],[-106.214115,44.274299]]]}},{"type":"Feature","properties":{"q":"6","ac":39.9},"geometry":{"type":"Polygon","coordinates":[[[-106.194113,44.296304],[-106.18912,44.29634],[-106.189125,44.292695],[-106.194114,44.292659],[-106.194113,44.296304]]]}},{"type":"Feature","properties":{"q":"19","ac":39.6},"geometry":{"type":"Polygon","coordinates":[[[-106.284151,44.2593],[-106.284178,44.25566],[-106.289132,44.255677],[-106.289115,44.259316],[-106.284151,44.2593]]]}},{"type":"Feature","properties":{"q":"16","ac":40.1},"geometry":{"type":"Polygon","coordinates":[[[-106.224342,44.255988],[-106.224277,44.259636],[-106.219272,44.259672],[-106.219329,44.256024],[-106.224342,44.255988]]]}},{"type":"Feature","properties":{"q":"10","ac":40.0},"geometry":{"type":"Polygon","coordinates":[[[-106.259304,44.259229],[-106.259199,44.262881],[-106.254201,44.262955],[-106.254301,44.259304],[-106.259304,44.259229]]]}},{"type":"Feature","properties":{"q":"13","ac":39.6},"geometry":{"type":"Polygon","coordinates":[[[-106.274271,44.255627],[-106.279225,44.255643],[-106.279188,44.259285],[-106.274217,44.259271],[-106.274271,44.255627]]]}},{"type":"Feature","properties":{"q":"14","ac":40.0},"geometry":{"type":"Polygon","coordinates":[[[-106.23938,44.255879],[-106.244387,44.255803],[-106.244296,44.259452],[-106.239293,44.259526],[-106.23938,44.255879]]]}},{"type":"Feature","properties":{"q":"18","ac":39.9},"geometry":{"type":"Polygon","coordinates":[[[-106.294061,44.302981],[-106.289063,44.302982],[-106.289083,44.299343],[-106.294083,44.299344],[-106.294061,44.302981]]]}},{"type":"Feature","properties":{"q":"11","ac":40.1},"geometry":{"type":"Polygon","coordinates":[[[-106.22911,44.288785],[-106.234125,44.288747],[-106.234139,44.292396],[-106.229127,44.292433],[-106.22911,44.288785]]]}},{"type":"Feature","properties":{"q":"15","ac":39.8},"geometry":{"type":"Polygon","coordinates":[[[-106.294061,44.302981],[-106.294039,44.306619],[-106.289042,44.306621],[-106.289063,44.302982],[-106.294061,44.302981]]]}},{"type":"Feature","properties":{"q":"11","ac":40.1},"geometry":{"type":"Polygon","coordinates":[[[-106.269042,44.273844],[-106.274062,44.273848],[-106.274067,44.277492],[-106.26905,44.277491],[-106.269042,44.273844]]]}},{"type":"Feature","properties":{"q":"9","ac":39.6},"geometry":{"type":"Polygon","coordinates":[[[-106.29407,44.262969],[-106.299036,44.262983],[-106.299021,44.266619],[-106.294063,44.266606],[-106.29407,44.262969]]]}},{"type":"Feature","properties":{"q":"15","ac":40.0},"geometry":{"type":"Polygon","coordinates":[[[-106.219152,44.299805],[-106.224157,44.299767],[-106.224128,44.303415],[-106.219129,44.303453],[-106.219152,44.299805]]]}},{"type":"Feature","properties":{"q":"14","ac":39.9},"geometry":{"type":"Polygon","coordinates":[[[-106.23405,44.270507],[-106.234065,44.274155],[-106.229073,44.274192],[-106.229066,44.270544],[-106.23405,44.270507]]]}},{"type":"Feature","properties":{"q":"1","ac":40.1},"geometry":{"type":"Polygon","coordinates":[[[-106.219069,44.281563],[-106.224078,44.281526],[-106.224076,44.285174],[-106.219058,44.285211],[-106.219069,44.281563]]]}},{"type":"Feature","properties":{"q":"16","ac":39.6},"geometry":{"type":"Polygon","coordinates":[[[-106.294078,44.259331],[-106.299051,44.259346],[-106.299036,44.262983],[-106.29407,44.262969],[-106.294078,44.259331]]]}},{"type":"Feature","properties":{"q":"12","ac":39.8},"geometry":{"type":"Polygon","coordinates":[[[-106.27408,44.303001],[-106.279066,44.302982],[-106.279048,44.306623],[-106.274062,44.306645],[-106.27408,44.303001]]]}},{"type":"Feature","properties":{"q":"4","ac":39.9},"geometry":{"type":"Polygon","coordinates":[[[-106.234013,44.314284],[-106.234051,44.310636],[-106.239041,44.310598],[-106.238998,44.314245],[-106.234013,44.314284]]]}},{"type":"Feature","properties":{"q":"6","ac":39.8},"geometry":{"type":"Polygon","coordinates":[[[-106.284082,44.281141],[-106.289078,44.281149],[-106.289082,44.284787],[-106.284086,44.284781],[-106.284082,44.281141]]]}},{"type":"Feature","properties":{"q":"7","ac":39.8},"geometry":{"type":"Polygon","coordinates":[[[-106.289078,44.281149],[-106.294073,44.281156],[-106.294079,44.284794],[-106.289082,44.284787],[-106.289078,44.281149]]]}},{"type":"Feature","properties":{"q":"13","ac":39.8},"geometry":{"type":"Polygon","coordinates":[[[-106.274098,44.299356],[-106.279083,44.299341],[-106.279066,44.302982],[-106.27408,44.303001],[-106.274098,44.299356]]]}},{"type":"Feature","properties":{"q":"12","ac":39.7},"geometry":{"type":"Polygon","coordinates":[[[-106.279152,44.262926],[-106.284125,44.262941],[-106.284098,44.266581],[-106.279115,44.266568],[-106.279152,44.262926]]]}},{"type":"Feature","properties":{"q":"SWSW","ac":40.0},"geometry":{"type":"Polygon","coordinates":[[[-106.254151,44.299466],[-106.259144,44.299403],[-106.259123,44.303055],[-106.254124,44.303117],[-106.254151,44.299466]]]}},{"type":"Feature","properties":{"q":"4","ac":39.9},"geometry":{"type":"Polygon","coordinates":[[[-106.25903,44.281142],[-106.259044,44.284795],[-106.254065,44.284861],[-106.254049,44.28121],[-106.25903,44.281142]]]}},{"type":"Feature","properties":{"q":"14","ac":39.9},"geometry":{"type":"Polygon","coordinates":[[[-106.289063,44.302982],[-106.289042,44.306621],[-106.284045,44.306622],[-106.284064,44.302982],[-106.289063,44.302982]]]}},{"type":"Feature","properties":{"q":"3","ac":39.8},"geometry":{"type":"Polygon","coordinates":[[[-106.274043,44.310289],[-106.274025,44.313933],[-106.269037,44.313959],[-106.269056,44.310312],[-106.274043,44.310289]]]}},{"type":"Feature","properties":{"q":"17","ac":39.9},"geometry":{"type":"Polygon","coordinates":[[[-106.284086,44.284781],[-106.289082,44.284787],[-106.289083,44.288426],[-106.284085,44.288421],[-106.284086,44.284781]]]}},{"type":"Feature","properties":{"q":"7","ac":39.9},"geometry":{"type":"Polygon","coordinates":[[[-106.204216,44.267072],[-106.20424,44.263426],[-106.209232,44.263391],[-106.209196,44.267038],[-106.204216,44.267072]]]}},{"type":"Feature","properties":{"q":"2","ac":39.8},"geometry":{"type":"Polygon","coordinates":[[[-106.184169,44.281796],[-106.189156,44.28176],[-106.189135,44.285405],[-106.184152,44.285441],[-106.184169,44.281796]]]}},{"type":"Feature","properties":{"q":"4","ac":39.9},"geometry":{"type":"Polygon","coordinates":[[[-106.219082,44.31075],[-106.219058,44.314398],[-106.214073,44.314422],[-106.21409,44.310775],[-106.219082,44.31075]]]}},{"type":"Feature","properties":{"q":"3","ac":39.8},"geometry":{"type":"Polygon","coordinates":[[[-106.209196,44.267038],[-106.214177,44.267003],[-106.21413,44.270651],[-106.209161,44.270684],[-106.209196,44.267038]]]}},{"type":"Feature","properties":{"q":"8","ac":39.8},"geometry":{"type":"Polygon","coordinates":[[[-106.199249,44.263461],[-106.20424,44.263426],[-106.204216,44.267072],[-106.199235,44.267106],[-106.199249,44.263461]]]}},{"type":"Feature","properties":{"q":"5","ac":40.0},"geometry":{"type":"Polygon","coordinates":[[[-106.219105,44.292508],[-106.219129,44.296156],[-106.214123,44.296184],[-106.214105,44.292537],[-106.219105,44.292508]]]}},{"type":"Feature","properties":{"q":"2","ac":39.8},"geometry":{"type":"Polygon","coordinates":[[[-106.204216,44.267072],[-106.209196,44.267038],[-106.209161,44.270684],[-106.204191,44.270718],[-106.204216,44.267072]]]}},{"type":"Feature","properties":{"q":"11","ac":40.0},"geometry":{"type":"Polygon","coordinates":[[[-106.209119,44.303506],[-106.214124,44.30348],[-106.214107,44.307127],[-106.209109,44.307153],[-106.209119,44.303506]]]}},{"type":"Feature","properties":{"q":"14","ac":40.0},"geometry":{"type":"Polygon","coordinates":[[[-106.209119,44.303506],[-106.20913,44.299859],[-106.214141,44.299832],[-106.214124,44.30348],[-106.209119,44.303506]]]}},{"type":"Feature","properties":{"q":"10","ac":40.0},"geometry":{"type":"Polygon","coordinates":[[[-106.224277,44.259636],[-106.229282,44.259599],[-106.22921,44.263248],[-106.224212,44.263284],[-106.224277,44.259636]]]}},{"type":"Feature","properties":{"q":"9","ac":40.0},"geometry":{"type":"Polygon","coordinates":[[[-106.254301,44.259304],[-106.254201,44.262955],[-106.249203,44.263028],[-106.249299,44.259378],[-106.254301,44.259304]]]}},{"type":"Feature","properties":{"q":"18","ac":39.6},"geometry":{"type":"Polygon","coordinates":[[[-106.289132,44.255677],[-106.294085,44.255693],[-106.294078,44.259331],[-106.289115,44.259316],[-106.289132,44.255677]]]}},{"type":"Feature","properties":{"q":"13","ac":40.0},"geometry":{"type":"Polygon","coordinates":[[[-106.249299,44.259378],[-106.244296,44.259452],[-106.244387,44.255803],[-106.249395,44.255728],[-106.249299,44.259378]]]}},{"type":"Feature","properties":{"q":"11","ac":40.0},"geometry":{"type":"Polygon","coordinates":[[[-106.229282,44.259599],[-106.234288,44.259563],[-106.234208,44.263211],[-106.22921,44.263248],[-106.229282,44.259599]]]}},{"type":"Feature","properties":{"q":"15","ac":39.7},"geometry":{"type":"Polygon","coordinates":[[[-106.269317,44.25561],[-106.269246,44.259257],[-106.264275,44.259243],[-106.264363,44.255594],[-106.269317,44.25561]]]}},{"type":"Feature","properties":{"q":"8","ac":40.0},"geometry":{"type":"Polygon","coordinates":[[[-106.249299,44.259378],[-106.249203,44.263028],[-106.244205,44.263101],[-106.244296,44.259452],[-106.249299,44.259378]]]}},{"type":"Feature","properties":{"q":"17","ac":39.7},"geometry":{"type":"Polygon","coordinates":[[[-106.294085,44.255693],[-106.299066,44.25571],[-106.299051,44.259346],[-106.294078,44.259331],[-106.294085,44.255693]]]}},{"type":"Feature","properties":{"q":"11","ac":40.1},"geometry":{"type":"Polygon","coordinates":[[[-106.254402,44.255653],[-106.259409,44.255578],[-106.259304,44.259229],[-106.254301,44.259304],[-106.254402,44.255653]]]}},{"type":"Feature","properties":{"q":"14","ac":40.1},"geometry":{"type":"Polygon","coordinates":[[[-106.229354,44.255951],[-106.234367,44.255915],[-106.234288,44.259563],[-106.229282,44.259599],[-106.229354,44.255951]]]}},{"type":"Feature","properties":{"q":"NESE","ac":40.0},"geometry":{"type":"Polygon","coordinates":[[[-106.219272,44.259672],[-106.224277,44.259636],[-106.224212,44.263284],[-106.219214,44.26332],[-106.219272,44.259672]]]}},{"type":"Feature","properties":{"q":"14","ac":39.7},"geometry":{"type":"Polygon","coordinates":[[[-106.274217,44.259271],[-106.269246,44.259257],[-106.269317,44.25561],[-106.274271,44.255627],[-106.274217,44.259271]]]}},{"type":"Feature","properties":{"q":"20","ac":39.6},"geometry":{"type":"Polygon","coordinates":[[[-106.284178,44.25566],[-106.284151,44.2593],[-106.279188,44.259285],[-106.279225,44.255643],[-106.284178,44.25566]]]}},{"type":"Feature","properties":{"q":"13","ac":40.1},"geometry":{"type":"Polygon","coordinates":[[[-106.234367,44.255915],[-106.23938,44.255879],[-106.239293,44.259526],[-106.234288,44.259563],[-106.234367,44.255915]]]}},{"type":"Feature","properties":{"q":"12","ac":40.0},"geometry":{"type":"Polygon","coordinates":[[[-106.249395,44.255728],[-106.254402,44.255653],[-106.254301,44.259304],[-106.249299,44.259378],[-106.249395,44.255728]]]}},{"type":"Feature","properties":{"q":"15","ac":40.1},"geometry":{"type":"Polygon","coordinates":[[[-106.224342,44.255988],[-106.229354,44.255951],[-106.229282,44.259599],[-106.224277,44.259636],[-106.224342,44.255988]]]}},{"type":"Feature","properties":{"q":"16","ac":39.7},"geometry":{"type":"Polygon","coordinates":[[[-106.259409,44.255578],[-106.264363,44.255594],[-106.264275,44.259243],[-106.259304,44.259229],[-106.259409,44.255578]]]}},{"type":"Feature","properties":{"q":"11","ac":40.0},"geometry":{"type":"Polygon","coordinates":[[[-106.229073,44.274192],[-106.234065,44.274155],[-106.23408,44.277803],[-106.22908,44.27784],[-106.229073,44.274192]]]}},{"type":"Feature","properties":{"q":"5","ac":40.0},"geometry":{"type":"Polygon","coordinates":[[[-106.234153,44.296044],[-106.234139,44.292396],[-106.23915,44.292358],[-106.23916,44.296006],[-106.234153,44.296044]]]}},{"type":"Feature","properties":{"q":"8","ac":39.9},"geometry":{"type":"Polygon","coordinates":[[[-106.244136,44.292293],[-106.24415,44.295942],[-106.23916,44.296006],[-106.23915,44.292358],[-106.244136,44.292293]]]}},{"type":"Feature","properties":{"q":"7","ac":40.0},"geometry":{"type":"Polygon","coordinates":[[[-106.22908,44.27784],[-106.229087,44.281488],[-106.224078,44.281526],[-106.224079,44.277877],[-106.22908,44.27784]]]}},{"type":"Feature","properties":{"q":"8","ac":38.4},"geometry":{"type":"Polygon","coordinates":[[[-106.298834,44.310253],[-106.298819,44.31389],[-106.293994,44.313894],[-106.294016,44.310256],[-106.298834,44.310253]]]}},{"type":"Feature","properties":{"q":"15","ac":40.1},"geometry":{"type":"Polygon","coordinates":[[[-106.224096,44.288822],[-106.224076,44.285174],[-106.229093,44.285136],[-106.22911,44.288785],[-106.224096,44.288822]]]}},{"type":"Feature","properties":{"q":"11","ac":39.9},"geometry":{"type":"Polygon","coordinates":[[[-106.229128,44.303378],[-106.234128,44.30334],[-106.23409,44.306988],[-106.229095,44.307026],[-106.229128,44.303378]]]}},{"type":"Feature","properties":{"q":"5","ac":40.0},"geometry":{"type":"Polygon","coordinates":[[[-106.274067,44.277492],[-106.279084,44.277492],[-106.279087,44.281133],[-106.274073,44.281136],[-106.274067,44.277492]]]}},{"type":"Feature","properties":{"q":"11","ac":39.9},"geometry":{"type":"Polygon","coordinates":[[[-106.254108,44.292164],[-106.249122,44.292229],[-106.249104,44.288578],[-106.254086,44.288513],[-106.254108,44.292164]]]}},{"type":"Feature","properties":{"q":"13","ac":40.0},"geometry":{"type":"Polygon","coordinates":[[[-106.234166,44.299691],[-106.234128,44.30334],[-106.229128,44.303378],[-106.229162,44.299729],[-106.234166,44.299691]]]}},{"type":"Feature","properties":{"q":"7","ac":39.9},"geometry":{"type":"Polygon","coordinates":[[[-106.249122,44.292229],[-106.24914,44.295879],[-106.24415,44.295942],[-106.244136,44.292293],[-106.249122,44.292229]]]}},{"type":"Feature","properties":{"q":"4","ac":39.9},"geometry":{"type":"Polygon","coordinates":[[[-106.259119,44.295751],[-106.259144,44.299403],[-106.254151,44.299466],[-106.254129,44.295815],[-106.259119,44.295751]]]}},{"type":"Feature","properties":{"q":"1","ac":39.9},"geometry":{"type":"Polygon","coordinates":[[[-106.24415,44.295942],[-106.244164,44.299591],[-106.239171,44.299654],[-106.23916,44.296006],[-106.24415,44.295942]]]}},{"type":"Feature","properties":{"q":"14","ac":39.9},"geometry":{"type":"Polygon","coordinates":[[[-106.254,44.270256],[-106.254016,44.273908],[-106.24903,44.273978],[-106.249011,44.270328],[-106.254,44.270256]]]}},{"type":"Feature","properties":{"q":"7","ac":40.0},"geometry":{"type":"Polygon","coordinates":[[[-106.229127,44.292433],[-106.229145,44.296081],[-106.224137,44.296119],[-106.224116,44.292471],[-106.229127,44.292433]]]}},{"type":"Feature","properties":{"q":"2","ac":39.9},"geometry":{"type":"Polygon","coordinates":[[[-106.24914,44.295879],[-106.249157,44.299528],[-106.244164,44.299591],[-106.24415,44.295942],[-106.24914,44.295879]]]}},{"type":"Feature","properties":{"q":"13","ac":40.0},"geometry":{"type":"Polygon","coordinates":[[[-106.269067,44.284785],[-106.274078,44.28478],[-106.274083,44.288424],[-106.269079,44.288432],[-106.269067,44.284785]]]}},{"type":"Feature","properties":{"q":"SENE","ac":40.0},"geometry":{"type":"Polygon","coordinates":[[[-106.244089,44.306889],[-106.244051,44.310538],[-106.239041,44.310598],[-106.239084,44.30695],[-106.244089,44.306889]]]}},{"type":"Feature","properties":{"q":"4","ac":40.0},"geometry":{"type":"Polygon","coordinates":[[[-106.274073,44.281136],[-106.279087,44.281133],[-106.27909,44.284775],[-106.274078,44.28478],[-106.274073,44.281136]]]}},{"type":"Feature","properties":{"q":"13","ac":39.9},"geometry":{"type":"Polygon","coordinates":[[[-106.279088,44.288416],[-106.284085,44.288421],[-106.284085,44.292062],[-106.279087,44.292058],[-106.279088,44.288416]]]}},{"type":"Feature","properties":{"q":"8","ac":39.9},"geometry":{"type":"Polygon","coordinates":[[[-106.184128,44.296376],[-106.179135,44.296412],[-106.179146,44.293079],[-106.179147,44.292767],[-106.184136,44.292731],[-106.184128,44.296376]]]}},{"type":"Feature","properties":{"q":"4","ac":39.8},"geometry":{"type":"Polygon","coordinates":[[[-106.194143,44.281723],[-106.19913,44.281687],[-106.199099,44.285332],[-106.194117,44.285368],[-106.194143,44.281723]]]}},{"type":"Feature","properties":{"q":"7","ac":39.9},"geometry":{"type":"Polygon","coordinates":[[[-106.184186,44.27815],[-106.189177,44.278114],[-106.189156,44.28176],[-106.184169,44.281796],[-106.184186,44.27815]]]}},{"type":"Feature","properties":{"q":"9","ac":39.9},"geometry":{"type":"Polygon","coordinates":[[[-106.209091,44.288919],[-106.209104,44.292566],[-106.204104,44.292594],[-106.204096,44.288948],[-106.209091,44.288919]]]}}]}