{"type":"FeatureCollection","note":"BLM Public Land Survey System. Provided by the Bureau of Land Management as is. These data are neither legal documents nor land surveys and must not be used as such.","features":[{"type":"Feature","properties":{"q":"2","ac":40.2},"geometry":{"type":"Polygon","coordinates":[[[-106.07492,44.891439],[-106.074912,44.890356],[-106.074912,44.890279],[-106.080052,44.890277],[-106.080047,44.893894],[-106.07493,44.893894],[-106.07492,44.891439]]]}},{"type":"Feature","properties":{"q":"NENW","ac":40.0},"geometry":{"type":"Polygon","coordinates":[[[-106.105482,44.897529],[-106.105484,44.893909],[-106.110578,44.893917],[-106.110574,44.897536],[-106.105482,44.897529]]]}},{"type":"Feature","properties":{"q":"SWNW","ac":40.0},"geometry":{"type":"Polygon","coordinates":[[[-106.110568,44.904771],[-106.115662,44.904774],[-106.11566,44.90839],[-106.110565,44.908388],[-106.110568,44.904771]]]}},{"type":"Feature","properties":{"q":"NESW","ac":40.0},"geometry":{"type":"Polygon","coordinates":[[[-106.105432,44.944564],[-106.110534,44.944554],[-106.110535,44.948172],[-106.105431,44.948183],[-106.105432,44.944564]]]}},{"type":"Feature","properties":{"q":"2","ac":40.0},"geometry":{"type":"Polygon","coordinates":[[[-106.079976,44.933687],[-106.079962,44.937321],[-106.074876,44.937314],[-106.0749,44.934946],[-106.074912,44.933882],[-106.074913,44.933675],[-106.079976,44.933687]]]}},{"type":"Feature","properties":{"q":"SWNW","ac":39.9},"geometry":{"type":"Polygon","coordinates":[[[-106.090194,44.908365],[-106.0902,44.90475],[-106.095287,44.904758],[-106.095282,44.908379],[-106.090194,44.908365]]]}},{"type":"Feature","properties":{"q":"NWNE","ac":40.0},"geometry":{"type":"Polygon","coordinates":[[[-106.10548,44.926475],[-106.100381,44.926477],[-106.100379,44.922859],[-106.105477,44.922857],[-106.10548,44.926475]]]}},{"type":"Feature","properties":{"q":"SWNW","ac":40.0},"geometry":{"type":"Polygon","coordinates":[[[-106.095249,44.937342],[-106.090153,44.937335],[-106.090165,44.93371],[-106.09526,44.933722],[-106.095249,44.937342]]]}},{"type":"Feature","properties":{"q":"SWSW","ac":40.0},"geometry":{"type":"Polygon","coordinates":[[[-106.090188,44.915601],[-106.090188,44.91198],[-106.095277,44.912],[-106.095278,44.91562],[-106.090188,44.915601]]]}},{"type":"Feature","properties":{"q":"NENW","ac":40.0},"geometry":{"type":"Polygon","coordinates":[[[-106.110575,44.922855],[-106.110579,44.926472],[-106.10548,44.926475],[-106.105477,44.922857],[-106.110575,44.922855]]]}},{"type":"Feature","properties":{"q":"11","ac":40.1},"geometry":{"type":"Polygon","coordinates":[[[-106.074838,44.940952],[-106.079949,44.940954],[-106.079921,44.944574],[-106.0748,44.944571],[-106.074823,44.942207],[-106.074835,44.941164],[-106.074838,44.940952]]]}},{"type":"Feature","properties":{"q":"6","ac":39.9},"geometry":{"type":"Polygon","coordinates":[[[-106.10075,44.955421],[-106.100319,44.955422],[-106.100322,44.951812],[-106.105429,44.951801],[-106.105427,44.955405],[-106.10075,44.955421]]]}},{"type":"Feature","properties":{"q":"6","ac":40.7},"geometry":{"type":"Polygon","coordinates":[[[-106.079894,44.951814],[-106.085011,44.951818],[-106.084999,44.95547],[-106.08034,44.955506],[-106.079894,44.95551],[-106.079894,44.951814]]]}},{"type":"Feature","properties":{"q":"NWSE","ac":40.4},"geometry":{"type":"Polygon","coordinates":[[[-106.085083,44.875791],[-106.079971,44.875766],[-106.079927,44.872122],[-106.085051,44.872156],[-106.085083,44.875791]]]}},{"type":"Feature","properties":{"q":"NESW","ac":39.9},"geometry":{"type":"Polygon","coordinates":[[[-106.0902,44.90475],[-106.085114,44.904742],[-106.085121,44.901127],[-106.090207,44.901132],[-106.0902,44.90475]]]}},{"type":"Feature","properties":{"q":"1","ac":21.5},"geometry":{"type":"Polygon","coordinates":[[[-106.115677,44.889619],[-106.115676,44.890305],[-106.110581,44.890298],[-106.110579,44.886682],[-106.112774,44.886684],[-106.112777,44.88962],[-106.115677,44.889619]]]}},{"type":"Feature","properties":{"q":"SWNE","ac":39.9},"geometry":{"type":"Polygon","coordinates":[[[-106.080047,44.893894],[-106.080052,44.890277],[-106.085137,44.890276],[-106.085133,44.893894],[-106.080047,44.893894]]]}},{"type":"Feature","properties":{"q":"SENE","ac":40.0},"geometry":{"type":"Polygon","coordinates":[[[-106.100376,44.908382],[-106.095282,44.908379],[-106.095287,44.904758],[-106.100381,44.904762],[-106.100376,44.908382]]]}},{"type":"Feature","properties":{"q":"SENE","ac":40.0},"geometry":{"type":"Polygon","coordinates":[[[-106.100377,44.91924],[-106.100379,44.922859],[-106.095281,44.92286],[-106.09528,44.91924],[-106.100377,44.91924]]]}},{"type":"Feature","properties":{"q":"SESE","ac":40.0},"geometry":{"type":"Polygon","coordinates":[[[-106.095272,44.930101],[-106.095283,44.92648],[-106.100381,44.926477],[-106.10037,44.930097],[-106.095272,44.930101]]]}},{"type":"Feature","properties":{"q":"1","ac":40.2},"geometry":{"type":"Polygon","coordinates":[[[-106.079949,44.940954],[-106.074838,44.940952],[-106.074862,44.938577],[-106.074876,44.937314],[-106.079962,44.937321],[-106.079949,44.940954]]]}},{"type":"Feature","properties":{"q":"SWSE","ac":40.1},"geometry":{"type":"Polygon","coordinates":[[[-106.079949,44.940954],[-106.085045,44.940956],[-106.085034,44.944576],[-106.079921,44.944574],[-106.079949,44.940954]]]}},{"type":"Feature","properties":{"q":"SWSW","ac":40.0},"geometry":{"type":"Polygon","coordinates":[[[-106.110534,44.944554],[-106.110532,44.940936],[-106.115631,44.940928],[-106.115635,44.944544],[-106.110534,44.944554]]]}},{"type":"Feature","properties":{"q":"NESE","ac":40.0},"geometry":{"type":"Polygon","coordinates":[[[-106.095292,44.901137],[-106.100385,44.901143],[-106.100381,44.904762],[-106.095287,44.904758],[-106.095292,44.901137]]]}},{"type":"Feature","properties":{"q":"NESW","ac":40.0},"geometry":{"type":"Polygon","coordinates":[[[-106.110568,44.904771],[-106.105475,44.904767],[-106.105478,44.901148],[-106.110571,44.901153],[-106.110568,44.904771]]]}},{"type":"Feature","properties":{"q":"3","ac":39.4},"geometry":{"type":"Polygon","coordinates":[[[-106.080035,44.901122],[-106.080029,44.904734],[-106.075018,44.904725],[-106.074994,44.902306],[-106.074983,44.901117],[-106.080035,44.901122]]]}},{"type":"Feature","properties":{"q":"SENE","ac":40.0},"geometry":{"type":"Polygon","coordinates":[[[-106.095304,44.893894],[-106.09531,44.890272],[-106.100398,44.890281],[-106.100394,44.893902],[-106.095304,44.893894]]]}},{"type":"Feature","properties":{"q":"SWNE","ac":40.3},"geometry":{"type":"Polygon","coordinates":[[[-106.080015,44.879407],[-106.079971,44.875766],[-106.085083,44.875791],[-106.085114,44.879421],[-106.080015,44.879407]]]}},{"type":"Feature","properties":{"q":"NWNE","ac":39.9},"geometry":{"type":"Polygon","coordinates":[[[-106.080002,44.926412],[-106.080003,44.9228],[-106.085097,44.922816],[-106.085096,44.926426],[-106.080002,44.926412]]]}},{"type":"Feature","properties":{"q":"3","ac":40.0},"geometry":{"type":"Polygon","coordinates":[[[-106.074913,44.933675],[-106.074917,44.931315],[-106.07492,44.930037],[-106.079989,44.93005],[-106.079976,44.933687],[-106.074913,44.933675]]]}},{"type":"Feature","properties":{"q":"NENE","ac":40.0},"geometry":{"type":"Polygon","coordinates":[[[-106.095281,44.92286],[-106.100379,44.922859],[-106.100381,44.926477],[-106.095283,44.92648],[-106.095281,44.92286]]]}},{"type":"Feature","properties":{"q":"NWNE","ac":40.1},"geometry":{"type":"Polygon","coordinates":[[[-106.079962,44.937321],[-106.085058,44.937327],[-106.085045,44.940956],[-106.079949,44.940954],[-106.079962,44.937321]]]}},{"type":"Feature","properties":{"q":"NWSE","ac":40.0},"geometry":{"type":"Polygon","coordinates":[[[-106.080006,44.915569],[-106.085098,44.915583],[-106.085098,44.919205],[-106.080004,44.919188],[-106.080006,44.915569]]]}},{"type":"Feature","properties":{"q":"NWNE","ac":40.0},"geometry":{"type":"Polygon","coordinates":[[[-106.100372,44.912001],[-106.100376,44.908382],[-106.105471,44.908385],[-106.105467,44.912003],[-106.100372,44.912001]]]}},{"type":"Feature","properties":{"q":"SWSE","ac":40.2},"geometry":{"type":"Polygon","coordinates":[[[-106.080002,44.926412],[-106.085096,44.926426],[-106.085084,44.930062],[-106.079989,44.93005],[-106.080002,44.926412]]]}},{"type":"Feature","properties":{"q":"10","ac":40.2},"geometry":{"type":"Polygon","coordinates":[[[-106.074786,44.945838],[-106.0748,44.944571],[-106.079921,44.944574],[-106.079893,44.948194],[-106.074765,44.94819],[-106.074786,44.945838]]]}},{"type":"Feature","properties":{"q":"NESW","ac":40.1},"geometry":{"type":"Polygon","coordinates":[[[-106.090178,44.930082],[-106.090165,44.93371],[-106.085071,44.933699],[-106.085084,44.930062],[-106.090178,44.930082]]]}},{"type":"Feature","properties":{"q":"NWSE","ac":40.2},"geometry":{"type":"Polygon","coordinates":[[[-106.085071,44.933699],[-106.079976,44.933687],[-106.079989,44.93005],[-106.085084,44.930062],[-106.085071,44.933699]]]}},{"type":"Feature","properties":{"q":"SWNE","ac":40.0},"geometry":{"type":"Polygon","coordinates":[[[-106.100322,44.951812],[-106.100325,44.948193],[-106.105431,44.948183],[-106.105429,44.951801],[-106.100322,44.951812]]]}},{"type":"Feature","properties":{"q":"SESW","ac":39.9},"geometry":{"type":"Polygon","coordinates":[[[-106.110579,44.886682],[-106.105487,44.886676],[-106.105488,44.883062],[-106.110577,44.883065],[-106.110579,44.886682]]]}},{"type":"Feature","properties":{"q":"SENE","ac":40.9},"geometry":{"type":"Polygon","coordinates":[[[-106.074817,44.876957],[-106.074807,44.875741],[-106.079971,44.875766],[-106.080015,44.879407],[-106.074836,44.879393],[-106.074817,44.876957]]]}},{"type":"Feature","properties":{"q":"NESW","ac":39.9},"geometry":{"type":"Polygon","coordinates":[[[-106.110579,44.886682],[-106.110581,44.890298],[-106.105485,44.890289],[-106.105487,44.886676],[-106.110579,44.886682]]]}},{"type":"Feature","properties":{"q":"NENE","ac":41.0},"geometry":{"type":"Polygon","coordinates":[[[-106.080059,44.883049],[-106.074865,44.883048],[-106.074846,44.880577],[-106.074836,44.879393],[-106.080015,44.879407],[-106.080059,44.883049]]]}},{"type":"Feature","properties":{"q":"NWSE","ac":39.9},"geometry":{"type":"Polygon","coordinates":[[[-106.100398,44.890281],[-106.100399,44.88667],[-106.105487,44.886676],[-106.105485,44.890289],[-106.100398,44.890281]]]}},{"type":"Feature","properties":{"q":"SWNE","ac":40.0},"geometry":{"type":"Polygon","coordinates":[[[-106.100394,44.893902],[-106.100398,44.890281],[-106.105485,44.890289],[-106.105484,44.893909],[-106.100394,44.893902]]]}},{"type":"Feature","properties":{"q":"SWNW","ac":39.9},"geometry":{"type":"Polygon","coordinates":[[[-106.09528,44.91924],[-106.095281,44.92286],[-106.090189,44.922838],[-106.090189,44.919223],[-106.09528,44.91924]]]}},{"type":"Feature","properties":{"q":"SESW","ac":40.0},"geometry":{"type":"Polygon","coordinates":[[[-106.090141,44.940959],[-106.090131,44.94458],[-106.085034,44.944576],[-106.085045,44.940956],[-106.090141,44.940959]]]}},{"type":"Feature","properties":{"q":"NESE","ac":40.0},"geometry":{"type":"Polygon","coordinates":[[[-106.100325,44.948193],[-106.095219,44.948203],[-106.095228,44.944583],[-106.10033,44.944574],[-106.100325,44.948193]]]}},{"type":"Feature","properties":{"q":"NWNW","ac":40.0},"geometry":{"type":"Polygon","coordinates":[[[-106.095249,44.937342],[-106.095237,44.940963],[-106.090141,44.940959],[-106.090153,44.937335],[-106.095249,44.937342]]]}},{"type":"Feature","properties":{"q":"NENW","ac":39.9},"geometry":{"type":"Polygon","coordinates":[[[-106.090188,44.91198],[-106.085099,44.91196],[-106.085106,44.908351],[-106.090194,44.908365],[-106.090188,44.91198]]]}},{"type":"Feature","properties":{"q":"4","ac":40.0},"geometry":{"type":"Polygon","coordinates":[[[-106.074929,44.926399],[-106.080002,44.926412],[-106.079989,44.93005],[-106.07492,44.930037],[-106.074922,44.927695],[-106.074925,44.926531],[-106.074929,44.926399]]]}},{"type":"Feature","properties":{"q":"NESE","ac":40.0},"geometry":{"type":"Polygon","coordinates":[[[-106.09526,44.933722],[-106.095272,44.930101],[-106.10037,44.930097],[-106.100359,44.933716],[-106.09526,44.933722]]]}},{"type":"Feature","properties":{"q":"8","ac":40.1},"geometry":{"type":"Polygon","coordinates":[[[-106.09521,44.955439],[-106.090548,44.955452],[-106.090105,44.955453],[-106.090113,44.951821],[-106.095215,44.951823],[-106.09521,44.955439]]]}},{"type":"Feature","properties":{"q":"SENE","ac":40.1},"geometry":{"type":"Polygon","coordinates":[[[-106.100325,44.948193],[-106.100322,44.951812],[-106.095215,44.951823],[-106.095219,44.948203],[-106.100325,44.948193]]]}},{"type":"Feature","properties":{"q":"4","ac":39.7},"geometry":{"type":"Polygon","coordinates":[[[-106.080035,44.901122],[-106.074983,44.901117],[-106.074959,44.898683],[-106.074949,44.897665],[-106.074948,44.897509],[-106.080041,44.897511],[-106.080035,44.901122]]]}},{"type":"Feature","properties":{"q":"NESE","ac":39.8},"geometry":{"type":"Polygon","coordinates":[[[-106.100399,44.88667],[-106.100398,44.890281],[-106.09531,44.890272],[-106.095311,44.886664],[-106.100399,44.88667]]]}},{"type":"Feature","properties":{"q":"NENW","ac":40.0},"geometry":{"type":"Polygon","coordinates":[[[-106.085114,44.879421],[-106.090203,44.879434],[-106.090228,44.883053],[-106.085145,44.88305],[-106.085114,44.879421]]]}},{"type":"Feature","properties":{"q":"SWSW","ac":43.6},"geometry":{"type":"Polygon","coordinates":[[[-106.094987,44.868254],[-106.09526,44.868251],[-106.095266,44.872224],[-106.090159,44.87219],[-106.090139,44.868296],[-106.094176,44.868261],[-106.094987,44.868254]]]}},{"type":"Feature","properties":{"q":"SWNW","ac":40.0},"geometry":{"type":"Polygon","coordinates":[[[-106.115676,44.890305],[-106.115672,44.893924],[-106.110578,44.893917],[-106.110581,44.890298],[-106.115676,44.890305]]]}},{"type":"Feature","properties":{"q":"SESE","ac":40.0},"geometry":{"type":"Polygon","coordinates":[[[-106.10039,44.897523],[-106.100385,44.901143],[-106.095292,44.901137],[-106.095297,44.897516],[-106.10039,44.897523]]]}},{"type":"Feature","properties":{"q":"SENW","ac":39.9},"geometry":{"type":"Polygon","coordinates":[[[-106.085097,44.922816],[-106.085098,44.919205],[-106.090189,44.919223],[-106.090189,44.922838],[-106.085097,44.922816]]]}},{"type":"Feature","properties":{"q":"NWNW","ac":40.0},"geometry":{"type":"Polygon","coordinates":[[[-106.115631,44.940928],[-106.110532,44.940936],[-106.110544,44.93732],[-106.115642,44.937313],[-106.115631,44.940928]]]}},{"type":"Feature","properties":{"q":"NWSE","ac":40.2},"geometry":{"type":"Polygon","coordinates":[[[-106.079921,44.944574],[-106.085034,44.944576],[-106.085022,44.948197],[-106.079893,44.948194],[-106.079921,44.944574]]]}},{"type":"Feature","properties":{"q":"SWNW","ac":40.0},"geometry":{"type":"Polygon","coordinates":[[[-106.110575,44.922855],[-106.110571,44.919238],[-106.115667,44.919238],[-106.115672,44.922853],[-106.110575,44.922855]]]}},{"type":"Feature","properties":{"q":"SWNE","ac":40.0},"geometry":{"type":"Polygon","coordinates":[[[-106.105457,44.93371],[-106.105446,44.937328],[-106.100347,44.937335],[-106.100359,44.933716],[-106.105457,44.93371]]]}},{"type":"Feature","properties":{"q":"SESW","ac":40.0},"geometry":{"type":"Polygon","coordinates":[[[-106.110562,44.912005],[-106.110566,44.915622],[-106.10547,44.915621],[-106.105467,44.912003],[-106.110562,44.912005]]]}},{"type":"Feature","properties":{"q":"NENE","ac":40.0},"geometry":{"type":"Polygon","coordinates":[[[-106.100376,44.908382],[-106.100372,44.912001],[-106.095277,44.912],[-106.095282,44.908379],[-106.100376,44.908382]]]}},{"type":"Feature","properties":{"q":"SWSW","ac":40.0},"geometry":{"type":"Polygon","coordinates":[[[-106.09019,44.926453],[-106.095283,44.92648],[-106.095272,44.930101],[-106.090178,44.930082],[-106.09019,44.926453]]]}},{"type":"Feature","properties":{"q":"NWSE","ac":39.9},"geometry":{"type":"Polygon","coordinates":[[[-106.085121,44.901127],[-106.085114,44.904742],[-106.080029,44.904734],[-106.080035,44.901122],[-106.085121,44.901127]]]}},{"type":"Feature","properties":{"q":"3","ac":44.2},"geometry":{"type":"Polygon","coordinates":[[[-106.105442,44.868213],[-106.105454,44.872228],[-106.10036,44.872226],[-106.100351,44.868233],[-106.104337,44.86822],[-106.105442,44.868213]]]}},{"type":"Feature","properties":{"q":"NWSW","ac":39.9},"geometry":{"type":"Polygon","coordinates":[[[-106.115632,44.872215],[-106.115639,44.875833],[-106.110553,44.875835],[-106.110543,44.872222],[-106.115632,44.872215]]]}},{"type":"Feature","properties":{"q":"SWSE","ac":39.9},"geometry":{"type":"Polygon","coordinates":[[[-106.085141,44.886663],[-106.080055,44.886663],[-106.080059,44.883049],[-106.085145,44.88305],[-106.085141,44.886663]]]}},{"type":"Feature","properties":{"q":"NWNE","ac":39.9},"geometry":{"type":"Polygon","coordinates":[[[-106.080047,44.893894],[-106.085133,44.893894],[-106.085129,44.897512],[-106.080041,44.897511],[-106.080047,44.893894]]]}},{"type":"Feature","properties":{"q":"SWNW","ac":39.9},"geometry":{"type":"Polygon","coordinates":[[[-106.115639,44.875833],[-106.115652,44.879451],[-106.110565,44.87945],[-106.110553,44.875835],[-106.115639,44.875833]]]}},{"type":"Feature","properties":{"q":"NWSE","ac":39.9},"geometry":{"type":"Polygon","coordinates":[[[-106.105454,44.872228],[-106.105466,44.875837],[-106.100369,44.875838],[-106.10036,44.872226],[-106.105454,44.872228]]]}},{"type":"Feature","properties":{"q":"SWSE","ac":39.9},"geometry":{"type":"Polygon","coordinates":[[[-106.085121,44.901127],[-106.080035,44.901122],[-106.080041,44.897511],[-106.085129,44.897512],[-106.085121,44.901127]]]}},{"type":"Feature","properties":{"q":"SWSE","ac":40.0},"geometry":{"type":"Polygon","coordinates":[[[-106.105478,44.901148],[-106.100385,44.901143],[-106.10039,44.897523],[-106.105482,44.897529],[-106.105478,44.901148]]]}},{"type":"Feature","properties":{"q":"2","ac":35.7},"geometry":{"type":"Polygon","coordinates":[[[-106.115673,44.886001],[-106.112774,44.886],[-106.112774,44.886684],[-106.110579,44.886682],[-106.110577,44.883065],[-106.115665,44.883069],[-106.115673,44.886001]]]}},{"type":"Feature","properties":{"q":"SWNW","ac":39.9},"geometry":{"type":"Polygon","coordinates":[[[-106.095292,44.879447],[-106.090203,44.879434],[-106.090178,44.875815],[-106.095273,44.875839],[-106.095292,44.879447]]]}},{"type":"Feature","properties":{"q":"NENW","ac":39.9},"geometry":{"type":"Polygon","coordinates":[[[-106.090213,44.897514],[-106.085129,44.897512],[-106.085133,44.893894],[-106.090218,44.893894],[-106.090213,44.897514]]]}},{"type":"Feature","properties":{"q":"SWNE","ac":39.9},"geometry":{"type":"Polygon","coordinates":[[[-106.100385,44.879448],[-106.100369,44.875838],[-106.105466,44.875837],[-106.105477,44.879449],[-106.100385,44.879448]]]}},{"type":"Feature","properties":{"q":"NWNW","ac":39.9},"geometry":{"type":"Polygon","coordinates":[[[-106.095312,44.883056],[-106.090228,44.883053],[-106.090203,44.879434],[-106.095292,44.879447],[-106.095312,44.883056]]]}},{"type":"Feature","properties":{"q":"NESW","ac":39.9},"geometry":{"type":"Polygon","coordinates":[[[-106.110553,44.875835],[-106.105466,44.875837],[-106.105454,44.872228],[-106.110543,44.872222],[-106.110553,44.875835]]]}},{"type":"Feature","properties":{"q":"NESE","ac":40.8},"geometry":{"type":"Polygon","coordinates":[[[-106.074776,44.872087],[-106.079927,44.872122],[-106.079971,44.875766],[-106.074807,44.875741],[-106.074787,44.873339],[-106.074776,44.872087]]]}},{"type":"Feature","properties":{"q":"NWSW","ac":40.1},"geometry":{"type":"Polygon","coordinates":[[[-106.095273,44.875839],[-106.090178,44.875815],[-106.090159,44.87219],[-106.095266,44.872224],[-106.095273,44.875839]]]}},{"type":"Feature","properties":{"q":"SWSW","ac":39.8},"geometry":{"type":"Polygon","coordinates":[[[-106.095312,44.883056],[-106.095311,44.886664],[-106.090226,44.886664],[-106.090228,44.883053],[-106.095312,44.883056]]]}},{"type":"Feature","properties":{"q":"SWSW","ac":39.9},"geometry":{"type":"Polygon","coordinates":[[[-106.095297,44.897516],[-106.095292,44.901137],[-106.090207,44.901132],[-106.090213,44.897514],[-106.095297,44.897516]]]}},{"type":"Feature","properties":{"q":"NWSE","ac":40.0},"geometry":{"type":"Polygon","coordinates":[[[-106.105475,44.904767],[-106.100381,44.904762],[-106.100385,44.901143],[-106.105478,44.901148],[-106.105475,44.904767]]]}},{"type":"Feature","properties":{"q":"SESE","ac":41.2},"geometry":{"type":"Polygon","coordinates":[[[-106.078915,44.868396],[-106.079882,44.868387],[-106.079927,44.872122],[-106.074776,44.872087],[-106.074747,44.868432],[-106.078915,44.868396]]]}},{"type":"Feature","properties":{"q":"SESE","ac":39.8},"geometry":{"type":"Polygon","coordinates":[[[-106.095311,44.886664],[-106.095312,44.883056],[-106.1004,44.883059],[-106.100399,44.88667],[-106.095311,44.886664]]]}},{"type":"Feature","properties":{"q":"SWSE","ac":39.9},"geometry":{"type":"Polygon","coordinates":[[[-106.1004,44.883059],[-106.105488,44.883062],[-106.105487,44.886676],[-106.100399,44.88667],[-106.1004,44.883059]]]}},{"type":"Feature","properties":{"q":"NWSW","ac":39.9},"geometry":{"type":"Polygon","coordinates":[[[-106.090207,44.901132],[-106.095292,44.901137],[-106.095287,44.904758],[-106.0902,44.90475],[-106.090207,44.901132]]]}},{"type":"Feature","properties":{"q":"NWSW","ac":39.8},"geometry":{"type":"Polygon","coordinates":[[[-106.090226,44.886664],[-106.095311,44.886664],[-106.09531,44.890272],[-106.090224,44.890274],[-106.090226,44.886664]]]}},{"type":"Feature","properties":{"q":"SWSE","ac":42.0},"geometry":{"type":"Polygon","coordinates":[[[-106.079927,44.872122],[-106.079882,44.868387],[-106.084015,44.868352],[-106.084407,44.868348],[-106.085018,44.868343],[-106.085051,44.872156],[-106.079927,44.872122]]]}},{"type":"Feature","properties":{"q":"NESE","ac":40.0},"geometry":{"type":"Polygon","coordinates":[[[-106.095266,44.872224],[-106.10036,44.872226],[-106.100369,44.875838],[-106.095273,44.875839],[-106.095266,44.872224]]]}},{"type":"Feature","properties":{"q":"3","ac":40.4},"geometry":{"type":"Polygon","coordinates":[[[-106.074901,44.887817],[-106.074892,44.886663],[-106.080055,44.886663],[-106.080052,44.890277],[-106.074912,44.890279],[-106.074901,44.887817]]]}},{"type":"Feature","properties":{"q":"SESW","ac":42.8},"geometry":{"type":"Polygon","coordinates":[[[-106.089095,44.868305],[-106.089889,44.868298],[-106.090139,44.868296],[-106.090159,44.87219],[-106.085051,44.872156],[-106.085018,44.868343],[-106.089095,44.868305]]]}},{"type":"Feature","properties":{"q":"NWNE","ac":39.9},"geometry":{"type":"Polygon","coordinates":[[[-106.105488,44.883062],[-106.1004,44.883059],[-106.100385,44.879448],[-106.105477,44.879449],[-106.105488,44.883062]]]}},{"type":"Feature","properties":{"q":"NWNE","ac":40.0},"geometry":{"type":"Polygon","coordinates":[[[-106.100394,44.893902],[-106.105484,44.893909],[-106.105482,44.897529],[-106.10039,44.897523],[-106.100394,44.893902]]]}},{"type":"Feature","properties":{"q":"SESW","ac":40.0},"geometry":{"type":"Polygon","coordinates":[[[-106.105482,44.897529],[-106.110574,44.897536],[-106.110571,44.901153],[-106.105478,44.901148],[-106.105482,44.897529]]]}},{"type":"Feature","properties":{"q":"4","ac":44.0},"geometry":{"type":"Polygon","coordinates":[[[-106.095266,44.872224],[-106.09526,44.868251],[-106.099256,44.868238],[-106.100351,44.868233],[-106.10036,44.872226],[-106.095266,44.872224]]]}},{"type":"Feature","properties":{"q":"SWSW","ac":40.0},"geometry":{"type":"Polygon","coordinates":[[[-106.110571,44.901153],[-106.110574,44.897536],[-106.115667,44.897542],[-106.115665,44.901158],[-106.110571,44.901153]]]}},{"type":"Feature","properties":{"q":"SENW","ac":40.0},"geometry":{"type":"Polygon","coordinates":[[[-106.085083,44.875791],[-106.090178,44.875815],[-106.090203,44.879434],[-106.085114,44.879421],[-106.085083,44.875791]]]}},{"type":"Feature","properties":{"q":"NESW","ac":40.2},"geometry":{"type":"Polygon","coordinates":[[[-106.090178,44.875815],[-106.085083,44.875791],[-106.085051,44.872156],[-106.090159,44.87219],[-106.090178,44.875815]]]}},{"type":"Feature","properties":{"q":"4","ac":40.6},"geometry":{"type":"Polygon","coordinates":[[[-106.080059,44.883049],[-106.080055,44.886663],[-106.074892,44.886663],[-106.074874,44.884197],[-106.074865,44.883048],[-106.080059,44.883049]]]}},{"type":"Feature","properties":{"q":"SENW","ac":40.0},"geometry":{"type":"Polygon","coordinates":[[[-106.105484,44.893909],[-106.105485,44.890289],[-106.110581,44.890298],[-106.110578,44.893917],[-106.105484,44.893909]]]}},{"type":"Feature","properties":{"q":"NWNW","ac":39.9},"geometry":{"type":"Polygon","coordinates":[[[-106.095304,44.893894],[-106.095297,44.897516],[-106.090213,44.897514],[-106.090218,44.893894],[-106.095304,44.893894]]]}},{"type":"Feature","properties":{"q":"NWSE","ac":39.9},"geometry":{"type":"Polygon","coordinates":[[[-106.085141,44.886663],[-106.085137,44.890276],[-106.080052,44.890277],[-106.080055,44.886663],[-106.085141,44.886663]]]}},{"type":"Feature","properties":{"q":"1","ac":40.0},"geometry":{"type":"Polygon","coordinates":[[[-106.080047,44.893894],[-106.080041,44.897511],[-106.074948,44.897509],[-106.074937,44.895061],[-106.07493,44.893894],[-106.080047,44.893894]]]}},{"type":"Feature","properties":{"q":"2","ac":44.5},"geometry":{"type":"Polygon","coordinates":[[[-106.10941,44.868183],[-106.110265,44.868179],[-106.110532,44.868177],[-106.110543,44.872222],[-106.105454,44.872228],[-106.105442,44.868213],[-106.10941,44.868183]]]}},{"type":"Feature","properties":{"q":"NENW","ac":39.9},"geometry":{"type":"Polygon","coordinates":[[[-106.110577,44.883065],[-106.105488,44.883062],[-106.105477,44.879449],[-106.110565,44.87945],[-106.110577,44.883065]]]}},{"type":"Feature","properties":{"q":"NENE","ac":40.0},"geometry":{"type":"Polygon","coordinates":[[[-106.100394,44.893902],[-106.10039,44.897523],[-106.095297,44.897516],[-106.095304,44.893894],[-106.100394,44.893902]]]}},{"type":"Feature","properties":{"q":"1","ac":44.9},"geometry":{"type":"Polygon","coordinates":[[[-106.110532,44.868177],[-106.114483,44.868146],[-106.115623,44.868139],[-106.115632,44.872215],[-106.110543,44.872222],[-106.110532,44.868177]]]}},{"type":"Feature","properties":{"q":"SENE","ac":39.9},"geometry":{"type":"Polygon","coordinates":[[[-106.095273,44.875839],[-106.100369,44.875838],[-106.100385,44.879448],[-106.095292,44.879447],[-106.095273,44.875839]]]}},{"type":"Feature","properties":{"q":"NWNE","ac":40.2},"geometry":{"type":"Polygon","coordinates":[[[-106.080015,44.879407],[-106.085114,44.879421],[-106.085145,44.88305],[-106.080059,44.883049],[-106.080015,44.879407]]]}},{"type":"Feature","properties":{"q":"NESW","ac":39.8},"geometry":{"type":"Polygon","coordinates":[[[-106.090224,44.890274],[-106.085137,44.890276],[-106.085141,44.886663],[-106.090226,44.886664],[-106.090224,44.890274]]]}},{"type":"Feature","properties":{"q":"NWNW","ac":39.9},"geometry":{"type":"Polygon","coordinates":[[[-106.115665,44.883069],[-106.110577,44.883065],[-106.110565,44.87945],[-106.115652,44.879451],[-106.115665,44.883069]]]}},{"type":"Feature","properties":{"q":"NWNW","ac":40.0},"geometry":{"type":"Polygon","coordinates":[[[-106.110578,44.893917],[-106.115672,44.893924],[-106.115667,44.897542],[-106.110574,44.897536],[-106.110578,44.893917]]]}},{"type":"Feature","properties":{"q":"NWSW","ac":40.0},"geometry":{"type":"Polygon","coordinates":[[[-106.115665,44.901158],[-106.115662,44.904774],[-106.110568,44.904771],[-106.110571,44.901153],[-106.115665,44.901158]]]}},{"type":"Feature","properties":{"q":"SENW","ac":39.9},"geometry":{"type":"Polygon","coordinates":[[[-106.105466,44.875837],[-106.110553,44.875835],[-106.110565,44.87945],[-106.105477,44.879449],[-106.105466,44.875837]]]}},{"type":"Feature","properties":{"q":"SESW","ac":39.8},"geometry":{"type":"Polygon","coordinates":[[[-106.090226,44.886664],[-106.085141,44.886663],[-106.085145,44.88305],[-106.090228,44.883053],[-106.090226,44.886664]]]}},{"type":"Feature","properties":{"q":"SESW","ac":39.9},"geometry":{"type":"Polygon","coordinates":[[[-106.090213,44.897514],[-106.090207,44.901132],[-106.085121,44.901127],[-106.085129,44.897512],[-106.090213,44.897514]]]}},{"type":"Feature","properties":{"q":"SENW","ac":39.9},"geometry":{"type":"Polygon","coordinates":[[[-106.090224,44.890274],[-106.090218,44.893894],[-106.085133,44.893894],[-106.085137,44.890276],[-106.090224,44.890274]]]}},{"type":"Feature","properties":{"q":"NENE","ac":39.9},"geometry":{"type":"Polygon","coordinates":[[[-106.1004,44.883059],[-106.095312,44.883056],[-106.095292,44.879447],[-106.100385,44.879448],[-106.1004,44.883059]]]}},{"type":"Feature","properties":{"q":"SWNW","ac":39.9},"geometry":{"type":"Polygon","coordinates":[[[-106.09531,44.890272],[-106.095304,44.893894],[-106.090218,44.893894],[-106.090224,44.890274],[-106.09531,44.890272]]]}},{"type":"Feature","properties":{"q":"SESW","ac":40.1},"geometry":{"type":"Polygon","coordinates":[[[-106.085084,44.930062],[-106.085096,44.926426],[-106.09019,44.926453],[-106.090178,44.930082],[-106.085084,44.930062]]]}},{"type":"Feature","properties":{"q":"SWNE","ac":39.8},"geometry":{"type":"Polygon","coordinates":[[[-106.085114,44.904742],[-106.085106,44.908351],[-106.080018,44.908342],[-106.080029,44.904734],[-106.085114,44.904742]]]}},{"type":"Feature","properties":{"q":"SWNE","ac":39.9},"geometry":{"type":"Polygon","coordinates":[[[-106.080004,44.919188],[-106.085098,44.919205],[-106.085097,44.922816],[-106.080003,44.9228],[-106.080004,44.919188]]]}},{"type":"Feature","properties":{"q":"NWNW","ac":40.0},"geometry":{"type":"Polygon","coordinates":[[[-106.110575,44.922855],[-106.115672,44.922853],[-106.115677,44.926469],[-106.110579,44.926472],[-106.110575,44.922855]]]}},{"type":"Feature","properties":{"q":"1","ac":39.3},"geometry":{"type":"Polygon","coordinates":[[[-106.080003,44.9228],[-106.080002,44.926412],[-106.074929,44.926399],[-106.074997,44.924075],[-106.075036,44.922785],[-106.080003,44.9228]]]}},{"type":"Feature","properties":{"q":"NWNW","ac":40.0},"geometry":{"type":"Polygon","coordinates":[[[-106.110565,44.908388],[-106.11566,44.90839],[-106.115658,44.912006],[-106.110562,44.912005],[-106.110565,44.908388]]]}},{"type":"Feature","properties":{"q":"NWSW","ac":40.0},"geometry":{"type":"Polygon","coordinates":[[[-106.095228,44.944583],[-106.095219,44.948203],[-106.090121,44.9482],[-106.090131,44.94458],[-106.095228,44.944583]]]}},{"type":"Feature","properties":{"q":"SWSE","ac":40.0},"geometry":{"type":"Polygon","coordinates":[[[-106.105432,44.944564],[-106.10033,44.944574],[-106.100336,44.940954],[-106.105434,44.940945],[-106.105432,44.944564]]]}},{"type":"Feature","properties":{"q":"NESW","ac":40.0},"geometry":{"type":"Polygon","coordinates":[[[-106.110566,44.915622],[-106.110571,44.919238],[-106.105474,44.919239],[-106.10547,44.915621],[-106.110566,44.915622]]]}},{"type":"Feature","properties":{"q":"NENW","ac":40.0},"geometry":{"type":"Polygon","coordinates":[[[-106.110544,44.93732],[-106.110532,44.940936],[-106.105434,44.940945],[-106.105446,44.937328],[-106.110544,44.93732]]]}},{"type":"Feature","properties":{"q":"SENW","ac":40.0},"geometry":{"type":"Polygon","coordinates":[[[-106.090113,44.951821],[-106.085011,44.951818],[-106.085022,44.948197],[-106.090121,44.9482],[-106.090113,44.951821]]]}},{"type":"Feature","properties":{"q":"SENW","ac":40.0},"geometry":{"type":"Polygon","coordinates":[[[-106.110535,44.948172],[-106.110536,44.95179],[-106.105429,44.951801],[-106.105431,44.948183],[-106.110535,44.948172]]]}},{"type":"Feature","properties":{"q":"5","ac":41.6},"geometry":{"type":"Polygon","coordinates":[[[-106.079894,44.951814],[-106.079894,44.95551],[-106.074724,44.95555],[-106.074735,44.953077],[-106.074743,44.95181],[-106.079894,44.951814]]]}},{"type":"Feature","properties":{"q":"NENW","ac":40.0},"geometry":{"type":"Polygon","coordinates":[[[-106.110562,44.912005],[-106.105467,44.912003],[-106.105471,44.908385],[-106.110565,44.908388],[-106.110562,44.912005]]]}},{"type":"Feature","properties":{"q":"SWSE","ac":40.0},"geometry":{"type":"Polygon","coordinates":[[[-106.105467,44.912003],[-106.10547,44.915621],[-106.100374,44.915621],[-106.100372,44.912001],[-106.105467,44.912003]]]}},{"type":"Feature","properties":{"q":"SENE","ac":40.0},"geometry":{"type":"Polygon","coordinates":[[[-106.100347,44.937335],[-106.095249,44.937342],[-106.09526,44.933722],[-106.100359,44.933716],[-106.100347,44.937335]]]}},{"type":"Feature","properties":{"q":"NESE","ac":40.0},"geometry":{"type":"Polygon","coordinates":[[[-106.100377,44.91924],[-106.09528,44.91924],[-106.095278,44.91562],[-106.100374,44.915621],[-106.100377,44.91924]]]}},{"type":"Feature","properties":{"q":"NESW","ac":40.0},"geometry":{"type":"Polygon","coordinates":[[[-106.110556,44.933704],[-106.105457,44.93371],[-106.105469,44.930092],[-106.110567,44.930088],[-106.110556,44.933704]]]}},{"type":"Feature","properties":{"q":"NWSW","ac":40.0},"geometry":{"type":"Polygon","coordinates":[[[-106.110534,44.944554],[-106.115635,44.944544],[-106.115639,44.948161],[-106.110535,44.948172],[-106.110534,44.944554]]]}},{"type":"Feature","properties":{"q":"2","ac":38.5},"geometry":{"type":"Polygon","coordinates":[[[-106.080003,44.9228],[-106.075036,44.922785],[-106.075104,44.920455],[-106.075135,44.919452],[-106.075133,44.919171],[-106.080004,44.919188],[-106.080003,44.9228]]]}},{"type":"Feature","properties":{"q":"NWNE","ac":40.0},"geometry":{"type":"Polygon","coordinates":[[[-106.100347,44.937335],[-106.105446,44.937328],[-106.105434,44.940945],[-106.100336,44.940954],[-106.100347,44.937335]]]}},{"type":"Feature","properties":{"q":"SENW","ac":40.1},"geometry":{"type":"Polygon","coordinates":[[[-106.090153,44.937335],[-106.085058,44.937327],[-106.085071,44.933699],[-106.090165,44.93371],[-106.090153,44.937335]]]}},{"type":"Feature","properties":{"q":"SENW","ac":40.0},"geometry":{"type":"Polygon","coordinates":[[[-106.105446,44.937328],[-106.105457,44.93371],[-106.110556,44.933704],[-106.110544,44.93732],[-106.105446,44.937328]]]}},{"type":"Feature","properties":{"q":"NWSW","ac":40.0},"geometry":{"type":"Polygon","coordinates":[[[-106.095278,44.91562],[-106.09528,44.91924],[-106.090189,44.919223],[-106.090188,44.915601],[-106.095278,44.91562]]]}},{"type":"Feature","properties":{"q":"NWNW","ac":39.9},"geometry":{"type":"Polygon","coordinates":[[[-106.095282,44.908379],[-106.095277,44.912],[-106.090188,44.91198],[-106.090194,44.908365],[-106.095282,44.908379]]]}},{"type":"Feature","properties":{"q":"2","ac":39.1},"geometry":{"type":"Polygon","coordinates":[[[-106.075026,44.905938],[-106.07502,44.904973],[-106.075018,44.904725],[-106.080029,44.904734],[-106.080018,44.908342],[-106.075044,44.908333],[-106.075026,44.905938]]]}},{"type":"Feature","properties":{"q":"SWSE","ac":40.0},"geometry":{"type":"Polygon","coordinates":[[[-106.105469,44.930092],[-106.10037,44.930097],[-106.100381,44.926477],[-106.10548,44.926475],[-106.105469,44.930092]]]}},{"type":"Feature","properties":{"q":"1","ac":38.8},"geometry":{"type":"Polygon","coordinates":[[[-106.075046,44.908593],[-106.075044,44.908333],[-106.080018,44.908342],[-106.080008,44.911951],[-106.07507,44.911941],[-106.075052,44.90957],[-106.075046,44.908593]]]}},{"type":"Feature","properties":{"q":"SESW","ac":40.0},"geometry":{"type":"Polygon","coordinates":[[[-106.110567,44.930088],[-106.105469,44.930092],[-106.10548,44.926475],[-106.110579,44.926472],[-106.110567,44.930088]]]}},{"type":"Feature","properties":{"q":"NENE","ac":40.0},"geometry":{"type":"Polygon","coordinates":[[[-106.095249,44.937342],[-106.100347,44.937335],[-106.100336,44.940954],[-106.095237,44.940963],[-106.095249,44.937342]]]}},{"type":"Feature","properties":{"q":"NWSE","ac":40.0},"geometry":{"type":"Polygon","coordinates":[[[-106.100374,44.915621],[-106.10547,44.915621],[-106.105474,44.919239],[-106.100377,44.91924],[-106.100374,44.915621]]]}},{"type":"Feature","properties":{"q":"SWSW","ac":40.0},"geometry":{"type":"Polygon","coordinates":[[[-106.115677,44.926469],[-106.115666,44.930083],[-106.110567,44.930088],[-106.110579,44.926472],[-106.115677,44.926469]]]}},{"type":"Feature","properties":{"q":"SENW","ac":40.0},"geometry":{"type":"Polygon","coordinates":[[[-106.105475,44.904767],[-106.110568,44.904771],[-106.110565,44.908388],[-106.105471,44.908385],[-106.105475,44.904767]]]}},{"type":"Feature","properties":{"q":"SWSE","ac":40.0},"geometry":{"type":"Polygon","coordinates":[[[-106.085099,44.91196],[-106.085098,44.915583],[-106.080006,44.915569],[-106.080008,44.911951],[-106.085099,44.91196]]]}},{"type":"Feature","properties":{"q":"NWNW","ac":39.9},"geometry":{"type":"Polygon","coordinates":[[[-106.095281,44.92286],[-106.095283,44.92648],[-106.09019,44.926453],[-106.090189,44.922838],[-106.095281,44.92286]]]}},{"type":"Feature","properties":{"q":"SENW","ac":40.0},"geometry":{"type":"Polygon","coordinates":[[[-106.110571,44.919238],[-106.110575,44.922855],[-106.105477,44.922857],[-106.105474,44.919239],[-106.110571,44.919238]]]}},{"type":"Feature","properties":{"q":"SWSW","ac":40.0},"geometry":{"type":"Polygon","coordinates":[[[-106.110562,44.912005],[-106.115658,44.912006],[-106.115662,44.915622],[-106.110566,44.915622],[-106.110562,44.912005]]]}},{"type":"Feature","properties":{"q":"SWNW","ac":40.0},"geometry":{"type":"Polygon","coordinates":[[[-106.110556,44.933704],[-106.115654,44.933698],[-106.115642,44.937313],[-106.110544,44.93732],[-106.110556,44.933704]]]}},{"type":"Feature","properties":{"q":"NENW","ac":39.9},"geometry":{"type":"Polygon","coordinates":[[[-106.085097,44.922816],[-106.090189,44.922838],[-106.09019,44.926453],[-106.085096,44.926426],[-106.085097,44.922816]]]}},{"type":"Feature","properties":{"q":"NWSW","ac":40.0},"geometry":{"type":"Polygon","coordinates":[[[-106.095272,44.930101],[-106.09526,44.933722],[-106.090165,44.93371],[-106.090178,44.930082],[-106.095272,44.930101]]]}},{"type":"Feature","properties":{"q":"4","ac":38.6},"geometry":{"type":"Polygon","coordinates":[[[-106.075079,44.913203],[-106.075071,44.912213],[-106.07507,44.911941],[-106.080008,44.911951],[-106.080006,44.915569],[-106.075103,44.915556],[-106.075079,44.913203]]]}},{"type":"Feature","properties":{"q":"NWNE","ac":39.8},"geometry":{"type":"Polygon","coordinates":[[[-106.080008,44.911951],[-106.080018,44.908342],[-106.085106,44.908351],[-106.085099,44.91196],[-106.080008,44.911951]]]}},{"type":"Feature","properties":{"q":"NENW","ac":40.1},"geometry":{"type":"Polygon","coordinates":[[[-106.085058,44.937327],[-106.090153,44.937335],[-106.090141,44.940959],[-106.085045,44.940956],[-106.085058,44.937327]]]}},{"type":"Feature","properties":{"q":"SWNE","ac":40.1},"geometry":{"type":"Polygon","coordinates":[[[-106.085058,44.937327],[-106.079962,44.937321],[-106.079976,44.933687],[-106.085071,44.933699],[-106.085058,44.937327]]]}},{"type":"Feature","properties":{"q":"NWSE","ac":40.0},"geometry":{"type":"Polygon","coordinates":[[[-106.105457,44.93371],[-106.100359,44.933716],[-106.10037,44.930097],[-106.105469,44.930092],[-106.105457,44.93371]]]}},{"type":"Feature","properties":{"q":"SWNE","ac":40.0},"geometry":{"type":"Polygon","coordinates":[[[-106.100377,44.91924],[-106.105474,44.919239],[-106.105477,44.922857],[-106.100379,44.922859],[-106.100377,44.91924]]]}},{"type":"Feature","properties":{"q":"3","ac":38.3},"geometry":{"type":"Polygon","coordinates":[[[-106.080004,44.919188],[-106.075133,44.919171],[-106.075114,44.916835],[-106.075103,44.915556],[-106.080006,44.915569],[-106.080004,44.919188]]]}},{"type":"Feature","properties":{"q":"NWSE","ac":40.0},"geometry":{"type":"Polygon","coordinates":[[[-106.10033,44.944574],[-106.105432,44.944564],[-106.105431,44.948183],[-106.100325,44.948193],[-106.10033,44.944574]]]}},{"type":"Feature","properties":{"q":"NESW","ac":40.0},"geometry":{"type":"Polygon","coordinates":[[[-106.085098,44.919205],[-106.085098,44.915583],[-106.090188,44.915601],[-106.090189,44.919223],[-106.085098,44.919205]]]}},{"type":"Feature","properties":{"q":"SESE","ac":40.0},"geometry":{"type":"Polygon","coordinates":[[[-106.095237,44.940963],[-106.100336,44.940954],[-106.10033,44.944574],[-106.095228,44.944583],[-106.095237,44.940963]]]}},{"type":"Feature","properties":{"q":"SENW","ac":39.9},"geometry":{"type":"Polygon","coordinates":[[[-106.085114,44.904742],[-106.0902,44.90475],[-106.090194,44.908365],[-106.085106,44.908351],[-106.085114,44.904742]]]}},{"type":"Feature","properties":{"q":"SESE","ac":40.0},"geometry":{"type":"Polygon","coordinates":[[[-106.095278,44.91562],[-106.095277,44.912],[-106.100372,44.912001],[-106.100374,44.915621],[-106.095278,44.91562]]]}},{"type":"Feature","properties":{"q":"NWSW","ac":40.0},"geometry":{"type":"Polygon","coordinates":[[[-106.115654,44.933698],[-106.110556,44.933704],[-106.110567,44.930088],[-106.115666,44.930083],[-106.115654,44.933698]]]}},{"type":"Feature","properties":{"q":"SESW","ac":40.0},"geometry":{"type":"Polygon","coordinates":[[[-106.085099,44.91196],[-106.090188,44.91198],[-106.090188,44.915601],[-106.085098,44.915583],[-106.085099,44.91196]]]}},{"type":"Feature","properties":{"q":"NWSW","ac":40.0},"geometry":{"type":"Polygon","coordinates":[[[-106.110566,44.915622],[-106.115662,44.915622],[-106.115667,44.919238],[-106.110571,44.919238],[-106.110566,44.915622]]]}},{"type":"Feature","properties":{"q":"NESW","ac":40.0},"geometry":{"type":"Polygon","coordinates":[[[-106.085034,44.944576],[-106.090131,44.94458],[-106.090121,44.9482],[-106.085022,44.948197],[-106.085034,44.944576]]]}},{"type":"Feature","properties":{"q":"SWSW","ac":40.0},"geometry":{"type":"Polygon","coordinates":[[[-106.090131,44.94458],[-106.090141,44.940959],[-106.095237,44.940963],[-106.095228,44.944583],[-106.090131,44.94458]]]}},{"type":"Feature","properties":{"q":"SESW","ac":40.0},"geometry":{"type":"Polygon","coordinates":[[[-106.110534,44.944554],[-106.105432,44.944564],[-106.105434,44.940945],[-106.110532,44.940936],[-106.110534,44.944554]]]}},{"type":"Feature","properties":{"q":"SWNE","ac":40.0},"geometry":{"type":"Polygon","coordinates":[[[-106.100381,44.904762],[-106.105475,44.904767],[-106.105471,44.908385],[-106.100376,44.908382],[-106.100381,44.904762]]]}},{"type":"Feature","properties":{"q":"7","ac":39.9},"geometry":{"type":"Polygon","coordinates":[[[-106.105427,44.955405],[-106.105429,44.951801],[-106.110536,44.95179],[-106.110536,44.955388],[-106.105848,44.955404],[-106.105427,44.955405]]]}},{"type":"Feature","properties":{"q":"7","ac":40.3},"geometry":{"type":"Polygon","coordinates":[[[-106.084999,44.95547],[-106.085011,44.951818],[-106.090113,44.951821],[-106.090105,44.955453],[-106.085445,44.955466],[-106.084999,44.95547]]]}},{"type":"Feature","properties":{"q":"5","ac":40.0},"geometry":{"type":"Polygon","coordinates":[[[-106.095651,44.955438],[-106.09521,44.955439],[-106.095215,44.951823],[-106.100322,44.951812],[-106.100319,44.955422],[-106.095651,44.955438]]]}},{"type":"Feature","properties":{"q":"8","ac":39.8},"geometry":{"type":"Polygon","coordinates":[[[-106.110947,44.955387],[-106.110536,44.955388],[-106.110536,44.95179],[-106.115642,44.951779],[-106.115645,44.955371],[-106.110947,44.955387]]]}},{"type":"Feature","properties":{"q":"SWNE","ac":40.2},"geometry":{"type":"Polygon","coordinates":[[[-106.085011,44.951818],[-106.079894,44.951814],[-106.079893,44.948194],[-106.085022,44.948197],[-106.085011,44.951818]]]}},{"type":"Feature","properties":{"q":"SWNW","ac":40.0},"geometry":{"type":"Polygon","coordinates":[[[-106.095215,44.951823],[-106.090113,44.951821],[-106.090121,44.9482],[-106.095219,44.948203],[-106.095215,44.951823]]]}},{"type":"Feature","properties":{"q":"SWNW","ac":40.0},"geometry":{"type":"Polygon","coordinates":[[[-106.115639,44.948161],[-106.115642,44.951779],[-106.110536,44.95179],[-106.110535,44.948172],[-106.115639,44.948161]]]}},{"type":"Feature","properties":{"q":"9","ac":40.3},"geometry":{"type":"Polygon","coordinates":[[[-106.074743,44.95181],[-106.074755,44.949457],[-106.074762,44.948446],[-106.074765,44.94819],[-106.079893,44.948194],[-106.079894,44.951814],[-106.074743,44.95181]]]}}]}