{"type":"FeatureCollection","note":"BLM Public Land Survey System. Provided by the Bureau of Land Management as is. These data are neither legal documents nor land surveys and must not be used as such.","features":[{"type":"Feature","properties":{"q":"SENE","ac":40.1},"geometry":{"type":"Polygon","coordinates":[[[-107.580306,42.879514],[-107.580278,42.87588],[-107.585199,42.875888],[-107.585227,42.87952],[-107.580306,42.879514]]]}},{"type":"Feature","properties":{"q":"NWSE","ac":40.0},"geometry":{"type":"Polygon","coordinates":[[[-107.585394,42.904962],[-107.585372,42.901336],[-107.590288,42.901343],[-107.590307,42.904972],[-107.585394,42.904962]]]}},{"type":"Feature","properties":{"q":"NENE","ac":40.0},"geometry":{"type":"Polygon","coordinates":[[[-107.560837,42.908509],[-107.565754,42.908526],[-107.565775,42.912156],[-107.560857,42.912141],[-107.560837,42.908509]]]}},{"type":"Feature","properties":{"q":"SESE","ac":40.2},"geometry":{"type":"Polygon","coordinates":[[[-107.560605,42.868543],[-107.56551,42.86856],[-107.565528,42.872211],[-107.56062,42.872205],[-107.560605,42.868543]]]}},{"type":"Feature","properties":{"q":"NWNE","ac":40.0},"geometry":{"type":"Polygon","coordinates":[[[-107.565754,42.908526],[-107.570671,42.908543],[-107.570693,42.912171],[-107.565775,42.912156],[-107.565754,42.908526]]]}},{"type":"Feature","properties":{"q":"SESE","ac":40.2},"geometry":{"type":"Polygon","coordinates":[[[-107.585255,42.883152],[-107.585278,42.886792],[-107.580357,42.886787],[-107.580333,42.883148],[-107.585255,42.883152]]]}},{"type":"Feature","properties":{"q":"NESE","ac":40.1},"geometry":{"type":"Polygon","coordinates":[[[-107.560869,42.915777],[-107.565787,42.915786],[-107.5658,42.919416],[-107.560881,42.919413],[-107.560869,42.915777]]]}},{"type":"Feature","properties":{"q":"NWNW","ac":40.0},"geometry":{"type":"Polygon","coordinates":[[[-107.575415,42.883131],[-107.575391,42.879499],[-107.580306,42.879514],[-107.580333,42.883148],[-107.575415,42.883131]]]}},{"type":"Feature","properties":{"q":"NWNE","ac":40.1},"geometry":{"type":"Polygon","coordinates":[[[-107.585326,42.89407],[-107.590245,42.894075],[-107.590268,42.897714],[-107.585349,42.897709],[-107.585326,42.89407]]]}},{"type":"Feature","properties":{"q":"NENW","ac":40.0},"geometry":{"type":"Polygon","coordinates":[[[-107.570477,42.879484],[-107.575391,42.879499],[-107.575415,42.883131],[-107.570498,42.883113],[-107.570477,42.879484]]]}},{"type":"Feature","properties":{"q":"SWNE","ac":40.1},"geometry":{"type":"Polygon","coordinates":[[[-107.585302,42.890431],[-107.590222,42.890436],[-107.590245,42.894075],[-107.585326,42.89407],[-107.585302,42.890431]]]}},{"type":"Feature","properties":{"q":"SESE","ac":40.1},"geometry":{"type":"Polygon","coordinates":[[[-107.565787,42.915786],[-107.560869,42.915777],[-107.560857,42.912141],[-107.565775,42.912156],[-107.565787,42.915786]]]}},{"type":"Feature","properties":{"q":"NENE","ac":40.1},"geometry":{"type":"Polygon","coordinates":[[[-107.580306,42.879514],[-107.585227,42.87952],[-107.585255,42.883152],[-107.580333,42.883148],[-107.580306,42.879514]]]}},{"type":"Feature","properties":{"q":"NWNE","ac":40.0},"geometry":{"type":"Polygon","coordinates":[[[-107.570498,42.883113],[-107.565581,42.883096],[-107.565563,42.879469],[-107.570477,42.879484],[-107.570498,42.883113]]]}},{"type":"Feature","properties":{"q":"SENW","ac":40.1},"geometry":{"type":"Polygon","coordinates":[[[-107.575466,42.890407],[-107.575492,42.894044],[-107.570577,42.894023],[-107.570551,42.890387],[-107.575466,42.890407]]]}},{"type":"Feature","properties":{"q":"NESE","ac":40.2},"geometry":{"type":"Polygon","coordinates":[[[-107.580357,42.886787],[-107.585278,42.886792],[-107.585302,42.890431],[-107.580382,42.890426],[-107.580357,42.886787]]]}},{"type":"Feature","properties":{"q":"NWSW","ac":39.9},"geometry":{"type":"Polygon","coordinates":[[[-107.575637,42.919423],[-107.575625,42.915804],[-107.580543,42.915813],[-107.580556,42.919426],[-107.575637,42.919423]]]}},{"type":"Feature","properties":{"q":"SENE","ac":40.1},"geometry":{"type":"Polygon","coordinates":[[[-107.585302,42.890431],[-107.585326,42.89407],[-107.580406,42.894065],[-107.580382,42.890426],[-107.585302,42.890431]]]}},{"type":"Feature","properties":{"q":"NWSE","ac":40.0},"geometry":{"type":"Polygon","coordinates":[[[-107.565787,42.915786],[-107.570706,42.915795],[-107.570718,42.91942],[-107.5658,42.919416],[-107.565787,42.915786]]]}},{"type":"Feature","properties":{"q":"NENE","ac":40.1},"geometry":{"type":"Polygon","coordinates":[[[-107.585326,42.89407],[-107.585349,42.897709],[-107.580431,42.897704],[-107.580406,42.894065],[-107.585326,42.89407]]]}},{"type":"Feature","properties":{"q":"SESW","ac":40.2},"geometry":{"type":"Polygon","coordinates":[[[-107.590176,42.883157],[-107.595098,42.883161],[-107.59512,42.886801],[-107.590199,42.886796],[-107.590176,42.883157]]]}},{"type":"Feature","properties":{"q":"NENW","ac":40.1},"geometry":{"type":"Polygon","coordinates":[[[-107.570603,42.89766],[-107.570577,42.894023],[-107.575492,42.894044],[-107.575517,42.897682],[-107.570603,42.89766]]]}},{"type":"Feature","properties":{"q":"SESW","ac":40.1},"geometry":{"type":"Polygon","coordinates":[[[-107.575415,42.883131],[-107.575441,42.886769],[-107.570524,42.88675],[-107.570498,42.883113],[-107.575415,42.883131]]]}},{"type":"Feature","properties":{"q":"NESE","ac":40.1},"geometry":{"type":"Polygon","coordinates":[[[-107.560692,42.886713],[-107.565608,42.886731],[-107.565635,42.890367],[-107.56072,42.890347],[-107.560692,42.886713]]]}},{"type":"Feature","properties":{"q":"SESW","ac":39.9},"geometry":{"type":"Polygon","coordinates":[[[-107.570693,42.912171],[-107.575612,42.912186],[-107.575625,42.915804],[-107.570706,42.915795],[-107.570693,42.912171]]]}},{"type":"Feature","properties":{"q":"NWNW","ac":40.0},"geometry":{"type":"Polygon","coordinates":[[[-107.575588,42.90856],[-107.580505,42.908577],[-107.58053,42.912201],[-107.575612,42.912186],[-107.575588,42.90856]]]}},{"type":"Feature","properties":{"q":"NWSE","ac":40.2},"geometry":{"type":"Polygon","coordinates":[[[-107.590222,42.890436],[-107.585302,42.890431],[-107.585278,42.886792],[-107.590199,42.886796],[-107.590222,42.890436]]]}},{"type":"Feature","properties":{"q":"SESE","ac":40.1},"geometry":{"type":"Polygon","coordinates":[[[-107.580224,42.868612],[-107.585143,42.868623],[-107.585171,42.872256],[-107.580251,42.872246],[-107.580224,42.868612]]]}},{"type":"Feature","properties":{"q":"SESW","ac":40.0},"geometry":{"type":"Polygon","coordinates":[[[-107.570603,42.89766],[-107.575517,42.897682],[-107.575541,42.901308],[-107.570626,42.901288],[-107.570603,42.89766]]]}},{"type":"Feature","properties":{"q":"NESW","ac":39.9},"geometry":{"type":"Polygon","coordinates":[[[-107.570706,42.915795],[-107.575625,42.915804],[-107.575637,42.919423],[-107.570718,42.91942],[-107.570706,42.915795]]]}},{"type":"Feature","properties":{"q":"SWSW","ac":39.9},"geometry":{"type":"Polygon","coordinates":[[[-107.575625,42.915804],[-107.575612,42.912186],[-107.58053,42.912201],[-107.580543,42.915813],[-107.575625,42.915804]]]}},{"type":"Feature","properties":{"q":"NESW","ac":40.0},"geometry":{"type":"Polygon","coordinates":[[[-107.595204,42.901351],[-107.595221,42.904982],[-107.590307,42.904972],[-107.590288,42.901343],[-107.595204,42.901351]]]}},{"type":"Feature","properties":{"q":"NESE","ac":39.9},"geometry":{"type":"Polygon","coordinates":[[[-107.56062,42.872205],[-107.565528,42.872211],[-107.565545,42.875842],[-107.560634,42.875829],[-107.56062,42.872205]]]}},{"type":"Feature","properties":{"q":"NWSE","ac":40.1},"geometry":{"type":"Polygon","coordinates":[[[-107.570551,42.890387],[-107.565635,42.890367],[-107.565608,42.886731],[-107.570524,42.88675],[-107.570551,42.890387]]]}},{"type":"Feature","properties":{"q":"SWNE","ac":39.9},"geometry":{"type":"Polygon","coordinates":[[[-107.585394,42.904962],[-107.590307,42.904972],[-107.590327,42.908601],[-107.585416,42.908589],[-107.585394,42.904962]]]}},{"type":"Feature","properties":{"q":"NESE","ac":40.1},"geometry":{"type":"Polygon","coordinates":[[[-107.580278,42.87588],[-107.580251,42.872246],[-107.585171,42.872256],[-107.585199,42.875888],[-107.580278,42.87588]]]}},{"type":"Feature","properties":{"q":"SWNE","ac":40.0},"geometry":{"type":"Polygon","coordinates":[[[-107.565732,42.904897],[-107.570648,42.904916],[-107.570671,42.908543],[-107.565754,42.908526],[-107.565732,42.904897]]]}},{"type":"Feature","properties":{"q":"SESE","ac":40.0},"geometry":{"type":"Polygon","coordinates":[[[-107.580431,42.897704],[-107.585349,42.897709],[-107.585372,42.901336],[-107.580455,42.901328],[-107.580431,42.897704]]]}},{"type":"Feature","properties":{"q":"SWNE","ac":40.1},"geometry":{"type":"Polygon","coordinates":[[[-107.585199,42.875888],[-107.590119,42.875896],[-107.590148,42.879526],[-107.585227,42.87952],[-107.585199,42.875888]]]}},{"type":"Feature","properties":{"q":"NESE","ac":39.8},"geometry":{"type":"Polygon","coordinates":[[[-107.580543,42.915813],[-107.585453,42.915831],[-107.585468,42.919447],[-107.580556,42.919426],[-107.580543,42.915813]]]}},{"type":"Feature","properties":{"q":"NWSW","ac":39.9},"geometry":{"type":"Polygon","coordinates":[[[-107.58048,42.904952],[-107.575564,42.904934],[-107.575541,42.901308],[-107.580455,42.901328],[-107.58048,42.904952]]]}},{"type":"Feature","properties":{"q":"NENE","ac":40.0},"geometry":{"type":"Polygon","coordinates":[[[-107.560748,42.893981],[-107.565662,42.894002],[-107.565689,42.897638],[-107.560776,42.897616],[-107.560748,42.893981]]]}},{"type":"Feature","properties":{"q":"NENE","ac":40.0},"geometry":{"type":"Polygon","coordinates":[[[-107.565581,42.883096],[-107.560664,42.883078],[-107.560649,42.879454],[-107.565563,42.879469],[-107.565581,42.883096]]]}},{"type":"Feature","properties":{"q":"NWSE","ac":40.0},"geometry":{"type":"Polygon","coordinates":[[[-107.565711,42.901267],[-107.570626,42.901288],[-107.570648,42.904916],[-107.565732,42.904897],[-107.565711,42.901267]]]}},{"type":"Feature","properties":{"q":"NESW","ac":40.0},"geometry":{"type":"Polygon","coordinates":[[[-107.575541,42.901308],[-107.575564,42.904934],[-107.570648,42.904916],[-107.570626,42.901288],[-107.575541,42.901308]]]}},{"type":"Feature","properties":{"q":"NESW","ac":40.2},"geometry":{"type":"Polygon","coordinates":[[[-107.59512,42.886801],[-107.595142,42.89044],[-107.590222,42.890436],[-107.590199,42.886796],[-107.59512,42.886801]]]}},{"type":"Feature","properties":{"q":"SENW","ac":40.0},"geometry":{"type":"Polygon","coordinates":[[[-107.590307,42.904972],[-107.595221,42.904982],[-107.595238,42.908613],[-107.590327,42.908601],[-107.590307,42.904972]]]}},{"type":"Feature","properties":{"q":"NESW","ac":40.1},"geometry":{"type":"Polygon","coordinates":[[[-107.595009,42.872275],[-107.595039,42.875904],[-107.590119,42.875896],[-107.59009,42.872265],[-107.595009,42.872275]]]}},{"type":"Feature","properties":{"q":"NESE","ac":40.0},"geometry":{"type":"Polygon","coordinates":[[[-107.560796,42.901247],[-107.565711,42.901267],[-107.565732,42.904897],[-107.560816,42.904878],[-107.560796,42.901247]]]}},{"type":"Feature","properties":{"q":"SESW","ac":40.0},"geometry":{"type":"Polygon","coordinates":[[[-107.590268,42.897714],[-107.595187,42.897719],[-107.595204,42.901351],[-107.590288,42.901343],[-107.590268,42.897714]]]}},{"type":"Feature","properties":{"q":"NENW","ac":40.0},"geometry":{"type":"Polygon","coordinates":[[[-107.570671,42.908543],[-107.575588,42.90856],[-107.575612,42.912186],[-107.570693,42.912171],[-107.570671,42.908543]]]}},{"type":"Feature","properties":{"q":"SWSE","ac":40.2},"geometry":{"type":"Polygon","coordinates":[[[-107.590199,42.886796],[-107.585278,42.886792],[-107.585255,42.883152],[-107.590176,42.883157],[-107.590199,42.886796]]]}},{"type":"Feature","properties":{"q":"SWSE","ac":40.1},"geometry":{"type":"Polygon","coordinates":[[[-107.56551,42.86856],[-107.570414,42.868577],[-107.570435,42.872216],[-107.565528,42.872211],[-107.56551,42.86856]]]}},{"type":"Feature","properties":{"q":"SWSW","ac":40.0},"geometry":{"type":"Polygon","coordinates":[[[-107.575343,42.872231],[-107.575319,42.868595],[-107.580224,42.868612],[-107.580251,42.872246],[-107.575343,42.872231]]]}},{"type":"Feature","properties":{"q":"NWSW","ac":40.1},"geometry":{"type":"Polygon","coordinates":[[[-107.580357,42.886787],[-107.580382,42.890426],[-107.575466,42.890407],[-107.575441,42.886769],[-107.580357,42.886787]]]}},{"type":"Feature","properties":{"q":"SWSE","ac":39.8},"geometry":{"type":"Polygon","coordinates":[[[-107.585438,42.912215],[-107.590347,42.91223],[-107.590364,42.915849],[-107.585453,42.915831],[-107.585438,42.912215]]]}},{"type":"Feature","properties":{"q":"NWSW","ac":40.0},"geometry":{"type":"Polygon","coordinates":[[[-107.575343,42.872231],[-107.580251,42.872246],[-107.580278,42.87588],[-107.575367,42.875868],[-107.575343,42.872231]]]}},{"type":"Feature","properties":{"q":"NWNE","ac":40.1},"geometry":{"type":"Polygon","coordinates":[[[-107.565689,42.897638],[-107.565662,42.894002],[-107.570577,42.894023],[-107.570603,42.89766],[-107.565689,42.897638]]]}},{"type":"Feature","properties":{"q":"SESE","ac":40.1},"geometry":{"type":"Polygon","coordinates":[[[-107.560664,42.883078],[-107.565581,42.883096],[-107.565608,42.886731],[-107.560692,42.886713],[-107.560664,42.883078]]]}},{"type":"Feature","properties":{"q":"SWNE","ac":40.0},"geometry":{"type":"Polygon","coordinates":[[[-107.565545,42.875842],[-107.570456,42.875855],[-107.570477,42.879484],[-107.565563,42.879469],[-107.565545,42.875842]]]}},{"type":"Feature","properties":{"q":"NWNE","ac":40.1},"geometry":{"type":"Polygon","coordinates":[[[-107.590176,42.883157],[-107.585255,42.883152],[-107.585227,42.87952],[-107.590148,42.879526],[-107.590176,42.883157]]]}},{"type":"Feature","properties":{"q":"SWNW","ac":40.0},"geometry":{"type":"Polygon","coordinates":[[[-107.58048,42.904952],[-107.580505,42.908577],[-107.575588,42.90856],[-107.575564,42.904934],[-107.58048,42.904952]]]}},{"type":"Feature","properties":{"q":"SENW","ac":40.0},"geometry":{"type":"Polygon","coordinates":[[[-107.575564,42.904934],[-107.575588,42.90856],[-107.570671,42.908543],[-107.570648,42.904916],[-107.575564,42.904934]]]}},{"type":"Feature","properties":{"q":"SESW","ac":40.0},"geometry":{"type":"Polygon","coordinates":[[[-107.570414,42.868577],[-107.575319,42.868595],[-107.575343,42.872231],[-107.570435,42.872216],[-107.570414,42.868577]]]}},{"type":"Feature","properties":{"q":"SESE","ac":40.0},"geometry":{"type":"Polygon","coordinates":[[[-107.565711,42.901267],[-107.560796,42.901247],[-107.560776,42.897616],[-107.565689,42.897638],[-107.565711,42.901267]]]}},{"type":"Feature","properties":{"q":"SWSE","ac":40.1},"geometry":{"type":"Polygon","coordinates":[[[-107.585143,42.868623],[-107.590061,42.868635],[-107.59009,42.872265],[-107.585171,42.872256],[-107.585143,42.868623]]]}},{"type":"Feature","properties":{"q":"NESW","ac":40.1},"geometry":{"type":"Polygon","coordinates":[[[-107.575466,42.890407],[-107.570551,42.890387],[-107.570524,42.88675],[-107.575441,42.886769],[-107.575466,42.890407]]]}},{"type":"Feature","properties":{"q":"NENW","ac":40.1},"geometry":{"type":"Polygon","coordinates":[[[-107.590245,42.894075],[-107.595165,42.89408],[-107.595187,42.897719],[-107.590268,42.897714],[-107.590245,42.894075]]]}},{"type":"Feature","properties":{"q":"NWSE","ac":40.0},"geometry":{"type":"Polygon","coordinates":[[[-107.565545,42.875842],[-107.565528,42.872211],[-107.570435,42.872216],[-107.570456,42.875855],[-107.565545,42.875842]]]}},{"type":"Feature","properties":{"q":"NESE","ac":39.9},"geometry":{"type":"Polygon","coordinates":[[[-107.58048,42.904952],[-107.580455,42.901328],[-107.585372,42.901336],[-107.585394,42.904962],[-107.58048,42.904952]]]}},{"type":"Feature","properties":{"q":"NWSE","ac":40.1},"geometry":{"type":"Polygon","coordinates":[[[-107.59009,42.872265],[-107.590119,42.875896],[-107.585199,42.875888],[-107.585171,42.872256],[-107.59009,42.872265]]]}},{"type":"Feature","properties":{"q":"SENE","ac":40.0},"geometry":{"type":"Polygon","coordinates":[[[-107.565732,42.904897],[-107.565754,42.908526],[-107.560837,42.908509],[-107.560816,42.904878],[-107.565732,42.904897]]]}},{"type":"Feature","properties":{"q":"SWSW","ac":39.9},"geometry":{"type":"Polygon","coordinates":[[[-107.580431,42.897704],[-107.580455,42.901328],[-107.575541,42.901308],[-107.575517,42.897682],[-107.580431,42.897704]]]}},{"type":"Feature","properties":{"q":"NENW","ac":39.9},"geometry":{"type":"Polygon","coordinates":[[[-107.595238,42.908613],[-107.595255,42.912244],[-107.590347,42.91223],[-107.590327,42.908601],[-107.595238,42.908613]]]}},{"type":"Feature","properties":{"q":"SWSE","ac":40.0},"geometry":{"type":"Polygon","coordinates":[[[-107.570626,42.901288],[-107.565711,42.901267],[-107.565689,42.897638],[-107.570603,42.89766],[-107.570626,42.901288]]]}},{"type":"Feature","properties":{"q":"SWSW","ac":40.1},"geometry":{"type":"Polygon","coordinates":[[[-107.580333,42.883148],[-107.580357,42.886787],[-107.575441,42.886769],[-107.575415,42.883131],[-107.580333,42.883148]]]}},{"type":"Feature","properties":{"q":"NWNW","ac":40.1},"geometry":{"type":"Polygon","coordinates":[[[-107.575517,42.897682],[-107.575492,42.894044],[-107.580406,42.894065],[-107.580431,42.897704],[-107.575517,42.897682]]]}},{"type":"Feature","properties":{"q":"SENW","ac":40.1},"geometry":{"type":"Polygon","coordinates":[[[-107.595142,42.89044],[-107.595165,42.89408],[-107.590245,42.894075],[-107.590222,42.890436],[-107.595142,42.89044]]]}},{"type":"Feature","properties":{"q":"NWNE","ac":39.9},"geometry":{"type":"Polygon","coordinates":[[[-107.585438,42.912215],[-107.585416,42.908589],[-107.590327,42.908601],[-107.590347,42.91223],[-107.585438,42.912215]]]}},{"type":"Feature","properties":{"q":"NWSE","ac":39.8},"geometry":{"type":"Polygon","coordinates":[[[-107.590364,42.915849],[-107.59038,42.919468],[-107.585468,42.919447],[-107.585453,42.915831],[-107.590364,42.915849]]]}},{"type":"Feature","properties":{"q":"SWNW","ac":40.0},"geometry":{"type":"Polygon","coordinates":[[[-107.575391,42.879499],[-107.575367,42.875868],[-107.580278,42.87588],[-107.580306,42.879514],[-107.575391,42.879499]]]}},{"type":"Feature","properties":{"q":"SENW","ac":40.1},"geometry":{"type":"Polygon","coordinates":[[[-107.595039,42.875904],[-107.595069,42.879532],[-107.590148,42.879526],[-107.590119,42.875896],[-107.595039,42.875904]]]}},{"type":"Feature","properties":{"q":"SWNW","ac":40.1},"geometry":{"type":"Polygon","coordinates":[[[-107.575466,42.890407],[-107.580382,42.890426],[-107.580406,42.894065],[-107.575492,42.894044],[-107.575466,42.890407]]]}},{"type":"Feature","properties":{"q":"NESW","ac":40.1},"geometry":{"type":"Polygon","coordinates":[[[-107.570456,42.875855],[-107.570435,42.872216],[-107.575343,42.872231],[-107.575367,42.875868],[-107.570456,42.875855]]]}},{"type":"Feature","properties":{"q":"SENE","ac":39.9},"geometry":{"type":"Polygon","coordinates":[[[-107.585416,42.908589],[-107.580505,42.908577],[-107.58048,42.904952],[-107.585394,42.904962],[-107.585416,42.908589]]]}},{"type":"Feature","properties":{"q":"SESW","ac":40.0},"geometry":{"type":"Polygon","coordinates":[[[-107.59498,42.868646],[-107.595009,42.872275],[-107.59009,42.872265],[-107.590061,42.868635],[-107.59498,42.868646]]]}},{"type":"Feature","properties":{"q":"NESW","ac":39.9},"geometry":{"type":"Polygon","coordinates":[[[-107.590364,42.915849],[-107.595274,42.915866],[-107.595292,42.919488],[-107.59038,42.919468],[-107.590364,42.915849]]]}},{"type":"Feature","properties":{"q":"SWSE","ac":40.0},"geometry":{"type":"Polygon","coordinates":[[[-107.565775,42.912156],[-107.570693,42.912171],[-107.570706,42.915795],[-107.565787,42.915786],[-107.565775,42.912156]]]}},{"type":"Feature","properties":{"q":"SESE","ac":39.8},"geometry":{"type":"Polygon","coordinates":[[[-107.585453,42.915831],[-107.580543,42.915813],[-107.58053,42.912201],[-107.585438,42.912215],[-107.585453,42.915831]]]}},{"type":"Feature","properties":{"q":"NENW","ac":40.1},"geometry":{"type":"Polygon","coordinates":[[[-107.590176,42.883157],[-107.590148,42.879526],[-107.595069,42.879532],[-107.595098,42.883161],[-107.590176,42.883157]]]}},{"type":"Feature","properties":{"q":"SENE","ac":39.9},"geometry":{"type":"Polygon","coordinates":[[[-107.560649,42.879454],[-107.560634,42.875829],[-107.565545,42.875842],[-107.565563,42.879469],[-107.560649,42.879454]]]}},{"type":"Feature","properties":{"q":"SENW","ac":40.0},"geometry":{"type":"Polygon","coordinates":[[[-107.570456,42.875855],[-107.575367,42.875868],[-107.575391,42.879499],[-107.570477,42.879484],[-107.570456,42.875855]]]}},{"type":"Feature","properties":{"q":"SESW","ac":39.8},"geometry":{"type":"Polygon","coordinates":[[[-107.590347,42.91223],[-107.595255,42.912244],[-107.595274,42.915866],[-107.590364,42.915849],[-107.590347,42.91223]]]}},{"type":"Feature","properties":{"q":"SWSE","ac":40.1},"geometry":{"type":"Polygon","coordinates":[[[-107.565608,42.886731],[-107.565581,42.883096],[-107.570498,42.883113],[-107.570524,42.88675],[-107.565608,42.886731]]]}},{"type":"Feature","properties":{"q":"SENE","ac":40.1},"geometry":{"type":"Polygon","coordinates":[[[-107.565635,42.890367],[-107.565662,42.894002],[-107.560748,42.893981],[-107.56072,42.890347],[-107.565635,42.890367]]]}},{"type":"Feature","properties":{"q":"SWSE","ac":40.0},"geometry":{"type":"Polygon","coordinates":[[[-107.585349,42.897709],[-107.590268,42.897714],[-107.590288,42.901343],[-107.585372,42.901336],[-107.585349,42.897709]]]}},{"type":"Feature","properties":{"q":"NENE","ac":39.9},"geometry":{"type":"Polygon","coordinates":[[[-107.580505,42.908577],[-107.585416,42.908589],[-107.585438,42.912215],[-107.58053,42.912201],[-107.580505,42.908577]]]}},{"type":"Feature","properties":{"q":"SWNE","ac":40.1},"geometry":{"type":"Polygon","coordinates":[[[-107.565635,42.890367],[-107.570551,42.890387],[-107.570577,42.894023],[-107.565662,42.894002],[-107.565635,42.890367]]]}},{"type":"Feature","properties":{"q":"NESE","ac":40.2},"geometry":{"type":"Polygon","coordinates":[[[-107.560928,42.930328],[-107.565852,42.930317],[-107.565879,42.933957],[-107.560953,42.933971],[-107.560928,42.930328]]]}},{"type":"Feature","properties":{"q":"SWSE","ac":40.2},"geometry":{"type":"Polygon","coordinates":[[[-107.570849,42.944851],[-107.565919,42.944874],[-107.565935,42.941238],[-107.570869,42.941219],[-107.570849,42.944851]]]}},{"type":"Feature","properties":{"q":"SESE","ac":40.0},"geometry":{"type":"Polygon","coordinates":[[[-107.580583,42.926651],[-107.585498,42.926678],[-107.585539,42.930309],[-107.580621,42.930283],[-107.580583,42.926651]]]}},{"type":"Feature","properties":{"q":"SWNW","ac":40.1},"geometry":{"type":"Polygon","coordinates":[[[-107.575733,42.93393],[-107.58066,42.933916],[-107.580698,42.937549],[-107.575768,42.937565],[-107.575733,42.93393]]]}},{"type":"Feature","properties":{"q":"NWSW","ac":40.0},"geometry":{"type":"Polygon","coordinates":[[[-107.580672,42.948429],[-107.57575,42.948456],[-107.575777,42.944828],[-107.580704,42.944805],[-107.580672,42.948429]]]}},{"type":"Feature","properties":{"q":"SESE","ac":40.2},"geometry":{"type":"Polygon","coordinates":[[[-107.560904,42.926685],[-107.565824,42.926676],[-107.565852,42.930317],[-107.560928,42.930328],[-107.560904,42.926685]]]}},{"type":"Feature","properties":{"q":"NESE","ac":40.2},"geometry":{"type":"Polygon","coordinates":[[[-107.565919,42.944874],[-107.565903,42.948509],[-107.560977,42.948536],[-107.560989,42.944896],[-107.565919,42.944874]]]}},{"type":"Feature","properties":{"q":"NWSE","ac":40.0},"geometry":{"type":"Polygon","coordinates":[[[-107.585579,42.93394],[-107.585539,42.930309],[-107.590456,42.930334],[-107.590499,42.933963],[-107.585579,42.93394]]]}},{"type":"Feature","properties":{"q":"SWNE","ac":40.0},"geometry":{"type":"Polygon","coordinates":[[[-107.570731,42.923044],[-107.565812,42.923046],[-107.5658,42.919416],[-107.570718,42.91942],[-107.570731,42.923044]]]}},{"type":"Feature","properties":{"q":"NESW","ac":40.1},"geometry":{"type":"Polygon","coordinates":[[[-107.575733,42.93393],[-107.570806,42.933944],[-107.570775,42.930306],[-107.575698,42.930295],[-107.575733,42.93393]]]}},{"type":"Feature","properties":{"q":"NENW","ac":40.2},"geometry":{"type":"Polygon","coordinates":[[[-107.570869,42.941219],[-107.570837,42.937581],[-107.575768,42.937565],[-107.575803,42.9412],[-107.570869,42.941219]]]}},{"type":"Feature","properties":{"q":"SENW","ac":40.1},"geometry":{"type":"Polygon","coordinates":[[[-107.590558,42.94846],[-107.595496,42.948475],[-107.595493,42.952094],[-107.590545,42.95208],[-107.590558,42.94846]]]}},{"type":"Feature","properties":{"q":"SWSE","ac":40.0},"geometry":{"type":"Polygon","coordinates":[[[-107.58566,42.941201],[-107.590584,42.941221],[-107.590571,42.944841],[-107.585637,42.944823],[-107.58566,42.941201]]]}},{"type":"Feature","properties":{"q":"NENW","ac":39.9},"geometry":{"type":"Polygon","coordinates":[[[-107.590414,42.926705],[-107.590397,42.923086],[-107.595311,42.92311],[-107.595329,42.926731],[-107.590414,42.926705]]]}},{"type":"Feature","properties":{"q":"NESE","ac":40.0},"geometry":{"type":"Polygon","coordinates":[[[-107.585539,42.930309],[-107.585579,42.93394],[-107.58066,42.933916],[-107.580621,42.930283],[-107.585539,42.930309]]]}},{"type":"Feature","properties":{"q":"SWNE","ac":39.8},"geometry":{"type":"Polygon","coordinates":[[[-107.585468,42.919447],[-107.59038,42.919468],[-107.590397,42.923086],[-107.585483,42.923062],[-107.585468,42.919447]]]}},{"type":"Feature","properties":{"q":"SWNE","ac":40.2},"geometry":{"type":"Polygon","coordinates":[[[-107.565879,42.933957],[-107.570806,42.933944],[-107.570837,42.937581],[-107.565907,42.937598],[-107.565879,42.933957]]]}},{"type":"Feature","properties":{"q":"NWSE","ac":40.2},"geometry":{"type":"Polygon","coordinates":[[[-107.565852,42.930317],[-107.570775,42.930306],[-107.570806,42.933944],[-107.565879,42.933957],[-107.565852,42.930317]]]}},{"type":"Feature","properties":{"q":"SENW","ac":39.9},"geometry":{"type":"Polygon","coordinates":[[[-107.59038,42.919468],[-107.595292,42.919488],[-107.595311,42.92311],[-107.590397,42.923086],[-107.59038,42.919468]]]}},{"type":"Feature","properties":{"q":"SESE","ac":40.0},"geometry":{"type":"Polygon","coordinates":[[[-107.58566,42.941201],[-107.585637,42.944823],[-107.580704,42.944805],[-107.580736,42.941181],[-107.58566,42.941201]]]}},{"type":"Feature","properties":{"q":"NESW","ac":40.0},"geometry":{"type":"Polygon","coordinates":[[[-107.570849,42.944851],[-107.575777,42.944828],[-107.57575,42.948456],[-107.570829,42.948483],[-107.570849,42.944851]]]}},{"type":"Feature","properties":{"q":"NWNW","ac":39.9},"geometry":{"type":"Polygon","coordinates":[[[-107.580583,42.926651],[-107.575663,42.926659],[-107.57565,42.923041],[-107.58057,42.923038],[-107.580583,42.926651]]]}},{"type":"Feature","properties":{"q":"1","ac":39.9},"geometry":{"type":"Polygon","coordinates":[[[-107.56097,42.952166],[-107.56589,42.952138],[-107.565877,42.955746],[-107.560963,42.955796],[-107.56097,42.952166]]]}},{"type":"Feature","properties":{"q":"NWNE","ac":39.8},"geometry":{"type":"Polygon","coordinates":[[[-107.590397,42.923086],[-107.590414,42.926705],[-107.585498,42.926678],[-107.585483,42.923062],[-107.590397,42.923086]]]}},{"type":"Feature","properties":{"q":"NWNE","ac":40.2},"geometry":{"type":"Polygon","coordinates":[[[-107.570837,42.937581],[-107.570869,42.941219],[-107.565935,42.941238],[-107.565907,42.937598],[-107.570837,42.937581]]]}},{"type":"Feature","properties":{"q":"NENE","ac":40.1},"geometry":{"type":"Polygon","coordinates":[[[-107.580736,42.941181],[-107.580698,42.937549],[-107.58562,42.93757],[-107.58566,42.941201],[-107.580736,42.941181]]]}},{"type":"Feature","properties":{"q":"SWNW","ac":39.9},"geometry":{"type":"Polygon","coordinates":[[[-107.580672,42.948429],[-107.580645,42.952052],[-107.575727,42.95208],[-107.57575,42.948456],[-107.580672,42.948429]]]}},{"type":"Feature","properties":{"q":"SENE","ac":40.0},"geometry":{"type":"Polygon","coordinates":[[[-107.58066,42.933916],[-107.585579,42.93394],[-107.58562,42.93757],[-107.580698,42.937549],[-107.58066,42.933916]]]}},{"type":"Feature","properties":{"q":"NENE","ac":39.8},"geometry":{"type":"Polygon","coordinates":[[[-107.585483,42.923062],[-107.585498,42.926678],[-107.580583,42.926651],[-107.58057,42.923038],[-107.585483,42.923062]]]}},{"type":"Feature","properties":{"q":"SENW","ac":39.9},"geometry":{"type":"Polygon","coordinates":[[[-107.570718,42.91942],[-107.575637,42.919423],[-107.57565,42.923041],[-107.570731,42.923044],[-107.570718,42.91942]]]}},{"type":"Feature","properties":{"q":"NESE","ac":40.1},"geometry":{"type":"Polygon","coordinates":[[[-107.580704,42.944805],[-107.585637,42.944823],[-107.585615,42.948445],[-107.580672,42.948429],[-107.580704,42.944805]]]}},{"type":"Feature","properties":{"q":"NWSE","ac":40.1},"geometry":{"type":"Polygon","coordinates":[[[-107.565903,42.948509],[-107.565919,42.944874],[-107.570849,42.944851],[-107.570829,42.948483],[-107.565903,42.948509]]]}},{"type":"Feature","properties":{"q":"SENE","ac":40.2},"geometry":{"type":"Polygon","coordinates":[[[-107.560977,42.937614],[-107.560953,42.933971],[-107.565879,42.933957],[-107.565907,42.937598],[-107.560977,42.937614]]]}},{"type":"Feature","properties":{"q":"SWSE","ac":40.1},"geometry":{"type":"Polygon","coordinates":[[[-107.565824,42.926676],[-107.570744,42.926668],[-107.570775,42.930306],[-107.565852,42.930317],[-107.565824,42.926676]]]}},{"type":"Feature","properties":{"q":"4","ac":39.1},"geometry":{"type":"Polygon","coordinates":[[[-107.575727,42.95208],[-107.580645,42.952052],[-107.580618,42.955594],[-107.575704,42.955645],[-107.575727,42.95208]]]}},{"type":"Feature","properties":{"q":"SWSE","ac":40.0},"geometry":{"type":"Polygon","coordinates":[[[-107.585498,42.926678],[-107.590414,42.926705],[-107.590456,42.930334],[-107.585539,42.930309],[-107.585498,42.926678]]]}},{"type":"Feature","properties":{"q":"2","ac":39.6},"geometry":{"type":"Polygon","coordinates":[[[-107.56589,42.952138],[-107.57081,42.952109],[-107.57079,42.955695],[-107.565877,42.955746],[-107.56589,42.952138]]]}},{"type":"Feature","properties":{"q":"NENE","ac":40.2},"geometry":{"type":"Polygon","coordinates":[[[-107.565907,42.937598],[-107.565935,42.941238],[-107.561001,42.941257],[-107.560977,42.937614],[-107.565907,42.937598]]]}},{"type":"Feature","properties":{"q":"SESW","ac":40.1},"geometry":{"type":"Polygon","coordinates":[[[-107.570869,42.941219],[-107.575803,42.9412],[-107.575777,42.944828],[-107.570849,42.944851],[-107.570869,42.941219]]]}},{"type":"Feature","properties":{"q":"SENE","ac":40.1},"geometry":{"type":"Polygon","coordinates":[[[-107.560881,42.919413],[-107.5658,42.919416],[-107.565812,42.923046],[-107.560892,42.923049],[-107.560881,42.919413]]]}},{"type":"Feature","properties":{"q":"SENW","ac":40.0},"geometry":{"type":"Polygon","coordinates":[[[-107.590499,42.933963],[-107.595418,42.933986],[-107.595463,42.937614],[-107.590541,42.937592],[-107.590499,42.933963]]]}},{"type":"Feature","properties":{"q":"SWNE","ac":40.1},"geometry":{"type":"Polygon","coordinates":[[[-107.585615,42.948445],[-107.590558,42.94846],[-107.590545,42.95208],[-107.585595,42.952066],[-107.585615,42.948445]]]}},{"type":"Feature","properties":{"q":"NESW","ac":40.0},"geometry":{"type":"Polygon","coordinates":[[[-107.590456,42.930334],[-107.595374,42.930359],[-107.595418,42.933986],[-107.590499,42.933963],[-107.590456,42.930334]]]}},{"type":"Feature","properties":{"q":"SENE","ac":40.0},"geometry":{"type":"Polygon","coordinates":[[[-107.560977,42.948536],[-107.565903,42.948509],[-107.56589,42.952138],[-107.56097,42.952166],[-107.560977,42.948536]]]}},{"type":"Feature","properties":{"q":"NWSW","ac":40.1},"geometry":{"type":"Polygon","coordinates":[[[-107.575698,42.930295],[-107.580621,42.930283],[-107.58066,42.933916],[-107.575733,42.93393],[-107.575698,42.930295]]]}},{"type":"Feature","properties":{"q":"NWNE","ac":40.0},"geometry":{"type":"Polygon","coordinates":[[[-107.58562,42.93757],[-107.590541,42.937592],[-107.590584,42.941221],[-107.58566,42.941201],[-107.58562,42.93757]]]}},{"type":"Feature","properties":{"q":"SENW","ac":40.2},"geometry":{"type":"Polygon","coordinates":[[[-107.570806,42.933944],[-107.575733,42.93393],[-107.575768,42.937565],[-107.570837,42.937581],[-107.570806,42.933944]]]}},{"type":"Feature","properties":{"q":"SWNE","ac":40.0},"geometry":{"type":"Polygon","coordinates":[[[-107.570829,42.948483],[-107.57081,42.952109],[-107.56589,42.952138],[-107.565903,42.948509],[-107.570829,42.948483]]]}},{"type":"Feature","properties":{"q":"NENW","ac":39.9},"geometry":{"type":"Polygon","coordinates":[[[-107.57565,42.923041],[-107.575663,42.926659],[-107.570744,42.926668],[-107.570731,42.923044],[-107.57565,42.923041]]]}},{"type":"Feature","properties":{"q":"SENW","ac":39.9},"geometry":{"type":"Polygon","coordinates":[[[-107.570829,42.948483],[-107.57575,42.948456],[-107.575727,42.95208],[-107.57081,42.952109],[-107.570829,42.948483]]]}},{"type":"Feature","properties":{"q":"NESW","ac":40.0},"geometry":{"type":"Polygon","coordinates":[[[-107.590571,42.944841],[-107.595502,42.944858],[-107.595496,42.948475],[-107.590558,42.94846],[-107.590571,42.944841]]]}},{"type":"Feature","properties":{"q":"NENE","ac":40.1},"geometry":{"type":"Polygon","coordinates":[[[-107.565824,42.926676],[-107.560904,42.926685],[-107.560892,42.923049],[-107.565812,42.923046],[-107.565824,42.926676]]]}},{"type":"Feature","properties":{"q":"NENW","ac":40.0},"geometry":{"type":"Polygon","coordinates":[[[-107.595463,42.937614],[-107.595508,42.941241],[-107.590584,42.941221],[-107.590541,42.937592],[-107.595463,42.937614]]]}},{"type":"Feature","properties":{"q":"1","ac":39.3},"geometry":{"type":"Polygon","coordinates":[[[-107.580645,42.952052],[-107.585595,42.952066],[-107.585575,42.955609],[-107.580618,42.955594],[-107.580645,42.952052]]]}},{"type":"Feature","properties":{"q":"3","ac":39.4},"geometry":{"type":"Polygon","coordinates":[[[-107.57081,42.952109],[-107.575727,42.95208],[-107.575704,42.955645],[-107.57079,42.955695],[-107.57081,42.952109]]]}},{"type":"Feature","properties":{"q":"SWNW","ac":39.9},"geometry":{"type":"Polygon","coordinates":[[[-107.575637,42.919423],[-107.580556,42.919426],[-107.58057,42.923038],[-107.57565,42.923041],[-107.575637,42.919423]]]}},{"type":"Feature","properties":{"q":"SENE","ac":39.8},"geometry":{"type":"Polygon","coordinates":[[[-107.580556,42.919426],[-107.585468,42.919447],[-107.585483,42.923062],[-107.58057,42.923038],[-107.580556,42.919426]]]}},{"type":"Feature","properties":{"q":"3","ac":39.3},"geometry":{"type":"Polygon","coordinates":[[[-107.595493,42.952094],[-107.595489,42.955639],[-107.590532,42.955624],[-107.590545,42.95208],[-107.595493,42.952094]]]}},{"type":"Feature","properties":{"q":"SENE","ac":40.1},"geometry":{"type":"Polygon","coordinates":[[[-107.580672,42.948429],[-107.585615,42.948445],[-107.585595,42.952066],[-107.580645,42.952052],[-107.580672,42.948429]]]}},{"type":"Feature","properties":{"q":"NWNW","ac":40.2},"geometry":{"type":"Polygon","coordinates":[[[-107.575768,42.937565],[-107.580698,42.937549],[-107.580736,42.941181],[-107.575803,42.9412],[-107.575768,42.937565]]]}},{"type":"Feature","properties":{"q":"SWSW","ac":40.1},"geometry":{"type":"Polygon","coordinates":[[[-107.575803,42.9412],[-107.580736,42.941181],[-107.580704,42.944805],[-107.575777,42.944828],[-107.575803,42.9412]]]}},{"type":"Feature","properties":{"q":"2","ac":39.3},"geometry":{"type":"Polygon","coordinates":[[[-107.585595,42.952066],[-107.590545,42.95208],[-107.590532,42.955624],[-107.585575,42.955609],[-107.585595,42.952066]]]}},{"type":"Feature","properties":{"q":"SESW","ac":39.9},"geometry":{"type":"Polygon","coordinates":[[[-107.590584,42.941221],[-107.595508,42.941241],[-107.595502,42.944858],[-107.590571,42.944841],[-107.590584,42.941221]]]}},{"type":"Feature","properties":{"q":"NWNE","ac":40.0},"geometry":{"type":"Polygon","coordinates":[[[-107.565812,42.923046],[-107.570731,42.923044],[-107.570744,42.926668],[-107.565824,42.926676],[-107.565812,42.923046]]]}},{"type":"Feature","properties":{"q":"NWSE","ac":40.1},"geometry":{"type":"Polygon","coordinates":[[[-107.585637,42.944823],[-107.590571,42.944841],[-107.590558,42.94846],[-107.585615,42.948445],[-107.585637,42.944823]]]}},{"type":"Feature","properties":{"q":"SWNE","ac":40.0},"geometry":{"type":"Polygon","coordinates":[[[-107.58562,42.93757],[-107.585579,42.93394],[-107.590499,42.933963],[-107.590541,42.937592],[-107.58562,42.93757]]]}},{"type":"Feature","properties":{"q":"SESE","ac":40.2},"geometry":{"type":"Polygon","coordinates":[[[-107.561001,42.941257],[-107.565935,42.941238],[-107.565919,42.944874],[-107.560989,42.944896],[-107.561001,42.941257]]]}},{"type":"Feature","properties":{"q":"SESW","ac":40.1},"geometry":{"type":"Polygon","coordinates":[[[-107.570744,42.926668],[-107.575663,42.926659],[-107.575698,42.930295],[-107.570775,42.930306],[-107.570744,42.926668]]]}},{"type":"Feature","properties":{"q":"SWSW","ac":40.1},"geometry":{"type":"Polygon","coordinates":[[[-107.575663,42.926659],[-107.580583,42.926651],[-107.580621,42.930283],[-107.575698,42.930295],[-107.575663,42.926659]]]}},{"type":"Feature","properties":{"q":"SESW","ac":40.0},"geometry":{"type":"Polygon","coordinates":[[[-107.590414,42.926705],[-107.595329,42.926731],[-107.595374,42.930359],[-107.590456,42.930334],[-107.590414,42.926705]]]}}]}