{"type":"FeatureCollection","note":"BLM Public Land Survey System. Provided by the Bureau of Land Management as is. These data are neither legal documents nor land surveys and must not be used as such.","features":[{"type":"Feature","properties":{"q":"SESE","ac":41.2},"geometry":{"type":"Polygon","coordinates":[[[-106.987571,44.952828],[-106.992733,44.952834],[-106.99276,44.956517],[-106.987607,44.95652],[-106.987571,44.952828]]]}},{"type":"Feature","properties":{"q":"SESW","ac":40.2},"geometry":{"type":"Polygon","coordinates":[[[-106.956758,44.952757],[-106.96184,44.952784],[-106.961826,44.956428],[-106.956732,44.956403],[-106.956758,44.952757]]]}},{"type":"Feature","properties":{"q":"NENW","ac":40.8},"geometry":{"type":"Polygon","coordinates":[[[-107.024513,44.981313],[-107.019262,44.98143],[-107.01915,44.977858],[-107.024413,44.977729],[-107.024513,44.981313]]]}},{"type":"Feature","properties":{"q":"SENW","ac":41.2},"geometry":{"type":"Polygon","coordinates":[[[-106.982503,44.960183],[-106.98255,44.963881],[-106.977421,44.963859],[-106.977362,44.960153],[-106.982503,44.960183]]]}},{"type":"Feature","properties":{"q":"NWSW","ac":41.3},"geometry":{"type":"Polygon","coordinates":[[[-106.98769,44.988985],[-106.982321,44.989018],[-106.982325,44.98547],[-106.987757,44.985465],[-106.98769,44.988985]]]}},{"type":"Feature","properties":{"q":"NESW","ac":40.7},"geometry":{"type":"Polygon","coordinates":[[[-107.024431,44.988481],[-107.019173,44.988575],[-107.019218,44.985003],[-107.024472,44.984897],[-107.024431,44.988481]]]}},{"type":"Feature","properties":{"q":"NENE","ac":40.8},"geometry":{"type":"Polygon","coordinates":[[[-107.029649,44.991981],[-107.034889,44.991913],[-107.034851,44.995507],[-107.029611,44.995577],[-107.029649,44.991981]]]}},{"type":"Feature","properties":{"q":"SENE","ac":40.5},"geometry":{"type":"Polygon","coordinates":[[[-107.013869,44.99223],[-107.008609,44.992312],[-107.008659,44.988763],[-107.013916,44.988669],[-107.013869,44.99223]]]}},{"type":"Feature","properties":{"q":"SESW","ac":40.1},"geometry":{"type":"Polygon","coordinates":[[[-106.998291,44.981805],[-107.003525,44.981735],[-107.003471,44.985277],[-106.998233,44.98534],[-106.998291,44.981805]]]}},{"type":"Feature","properties":{"q":"NWNE","ac":40.9},"geometry":{"type":"Polygon","coordinates":[[[-106.992841,44.967564],[-106.992814,44.963882],[-106.997948,44.963859],[-106.997965,44.967532],[-106.992841,44.967564]]]}},{"type":"Feature","properties":{"q":"SENE","ac":41.1},"geometry":{"type":"Polygon","coordinates":[[[-106.987644,44.960212],[-106.992787,44.960199],[-106.992814,44.963882],[-106.98768,44.963904],[-106.987644,44.960212]]]}},{"type":"Feature","properties":{"q":"NESW","ac":40.9},"geometry":{"type":"Polygon","coordinates":[[[-107.003074,44.960173],[-106.997931,44.960186],[-106.997913,44.956513],[-107.003066,44.95651],[-107.003074,44.960173]]]}},{"type":"Feature","properties":{"q":"SWNW","ac":40.7},"geometry":{"type":"Polygon","coordinates":[[[-107.003074,44.960173],[-107.008217,44.96016],[-107.008216,44.963815],[-107.003082,44.963837],[-107.003074,44.960173]]]}},{"type":"Feature","properties":{"q":"NENW","ac":40.5},"geometry":{"type":"Polygon","coordinates":[[[-106.956385,44.978246],[-106.961525,44.978239],[-106.961439,44.981872],[-106.956294,44.981886],[-106.956385,44.978246]]]}},{"type":"Feature","properties":{"q":"NESW","ac":40.4},"geometry":{"type":"Polygon","coordinates":[[[-106.961611,44.974605],[-106.956475,44.974607],[-106.956566,44.970967],[-106.961697,44.970971],[-106.961611,44.974605]]]}},{"type":"Feature","properties":{"q":"SWNE","ac":40.6},"geometry":{"type":"Polygon","coordinates":[[[-106.971953,44.974644],[-106.97716,44.974686],[-106.976998,44.978292],[-106.971832,44.978261],[-106.971953,44.974644]]]}},{"type":"Feature","properties":{"q":"4","ac":39.3},"geometry":{"type":"Polygon","coordinates":[[[-106.961452,44.992669],[-106.96656,44.99267],[-106.966571,44.996233],[-106.965763,44.99623],[-106.963204,44.996221],[-106.961466,44.996216],[-106.961452,44.992669]]]}},{"type":"Feature","properties":{"q":"NWSE","ac":40.8},"geometry":{"type":"Polygon","coordinates":[[[-106.931152,44.956308],[-106.93629,44.956323],[-106.936253,44.959982],[-106.931109,44.959971],[-106.931152,44.956308]]]}},{"type":"Feature","properties":{"q":"NWSE","ac":41.3},"geometry":{"type":"Polygon","coordinates":[[[-106.972112,44.95647],[-106.977305,44.956487],[-106.977362,44.960153],[-106.972139,44.960123],[-106.972112,44.95647]]]}},{"type":"Feature","properties":{"q":"SWSW","ac":41.2},"geometry":{"type":"Polygon","coordinates":[[[-106.987607,44.95652],[-106.982456,44.956504],[-106.982409,44.952824],[-106.987571,44.952828],[-106.987607,44.95652]]]}},{"type":"Feature","properties":{"q":"NESW","ac":40.3},"geometry":{"type":"Polygon","coordinates":[[[-106.961826,44.956428],[-106.961812,44.960071],[-106.956707,44.960049],[-106.956732,44.956403],[-106.961826,44.956428]]]}},{"type":"Feature","properties":{"q":"NESE","ac":40.7},"geometry":{"type":"Polygon","coordinates":[[[-107.013762,44.974427],[-107.008487,44.974567],[-107.008351,44.971018],[-107.013638,44.970866],[-107.013762,44.974427]]]}},{"type":"Feature","properties":{"q":"3","ac":41.1},"geometry":{"type":"Polygon","coordinates":[[[-107.045373,44.970227],[-107.050674,44.970165],[-107.05067,44.973755],[-107.04541,44.973817],[-107.045373,44.970227]]]}},{"type":"Feature","properties":{"q":"NWNW","ac":40.7},"geometry":{"type":"Polygon","coordinates":[[[-107.003082,44.963837],[-107.008216,44.963815],[-107.008214,44.967469],[-107.00309,44.967501],[-107.003082,44.963837]]]}},{"type":"Feature","properties":{"q":"SESW","ac":40.7},"geometry":{"type":"Polygon","coordinates":[[[-107.024513,44.981313],[-107.024472,44.984897],[-107.019218,44.985003],[-107.019262,44.98143],[-107.024513,44.981313]]]}},{"type":"Feature","properties":{"q":"SENW","ac":41.7},"geometry":{"type":"Polygon","coordinates":[[[-107.024227,44.959758],[-107.02417,44.963368],[-107.018852,44.963517],[-107.01889,44.959892],[-107.024227,44.959758]]]}},{"type":"Feature","properties":{"q":"NENE","ac":40.9},"geometry":{"type":"Polygon","coordinates":[[[-107.029676,44.9776],[-107.034933,44.977536],[-107.035004,44.98113],[-107.029765,44.981195],[-107.029676,44.9776]]]}},{"type":"Feature","properties":{"q":"2","ac":40.8},"geometry":{"type":"Polygon","coordinates":[[[-107.045405,44.988183],[-107.050639,44.988115],[-107.050628,44.991706],[-107.045367,44.991776],[-107.045405,44.988183]]]}},{"type":"Feature","properties":{"q":"SESW","ac":39.9},"geometry":{"type":"Polygon","coordinates":[[[-106.977479,44.967565],[-106.982598,44.96758],[-106.982531,44.971154],[-106.977319,44.971125],[-106.977479,44.967565]]]}},{"type":"Feature","properties":{"q":"SENE","ac":42.1},"geometry":{"type":"Polygon","coordinates":[[[-107.013554,44.960026],[-107.013534,44.963666],[-107.008216,44.963815],[-107.008217,44.96016],[-107.013554,44.960026]]]}},{"type":"Feature","properties":{"q":"SESE","ac":40.8},"geometry":{"type":"Polygon","coordinates":[[[-107.008214,44.967469],[-107.013514,44.967305],[-107.013638,44.970866],[-107.008351,44.971018],[-107.008214,44.967469]]]}},{"type":"Feature","properties":{"q":"NWSE","ac":40.8},"geometry":{"type":"Polygon","coordinates":[[[-107.034965,44.984724],[-107.040205,44.984658],[-107.040167,44.988251],[-107.034927,44.988319],[-107.034965,44.984724]]]}},{"type":"Feature","properties":{"q":"1","ac":44.5},"geometry":{"type":"Polygon","coordinates":[[[-107.034851,44.995507],[-107.04009,44.995438],[-107.040113,44.995438],[-107.045328,44.995368],[-107.045365,44.995367],[-107.050617,44.995297],[-107.050616,44.996417],[-107.046221,44.996491],[-107.044638,44.996518],[-107.041119,44.996447],[-107.036018,44.996344],[-107.034862,44.996321],[-107.034667,44.996317],[-107.030916,44.996364],[-107.02961,44.99638],[-107.029611,44.995577],[-107.034851,44.995507]]]}},{"type":"Feature","properties":{"q":"SENW","ac":40.7},"geometry":{"type":"Polygon","coordinates":[[[-107.024431,44.988481],[-107.024389,44.992064],[-107.019129,44.992147],[-107.019173,44.988575],[-107.024431,44.988481]]]}},{"type":"Feature","properties":{"q":"SESE","ac":41.2},"geometry":{"type":"Polygon","coordinates":[[[-106.966909,44.967348],[-106.972194,44.967456],[-106.972074,44.97105],[-106.966828,44.970975],[-106.966909,44.967348]]]}},{"type":"Feature","properties":{"q":"NENE","ac":41.6},"geometry":{"type":"Polygon","coordinates":[[[-106.966913,44.96372],[-106.972167,44.96379],[-106.972194,44.967456],[-106.966909,44.967348],[-106.966913,44.96372]]]}},{"type":"Feature","properties":{"q":"3","ac":39.1},"geometry":{"type":"Polygon","coordinates":[[[-106.961452,44.992669],[-106.961466,44.996216],[-106.960668,44.996213],[-106.95636,44.996201],[-106.956344,44.992667],[-106.961452,44.992669]]]}},{"type":"Feature","properties":{"q":"SWSE","ac":40.0},"geometry":{"type":"Polygon","coordinates":[[[-106.97171,44.981878],[-106.976837,44.981898],[-106.976894,44.985474],[-106.97173,44.98548],[-106.97171,44.981878]]]}},{"type":"Feature","properties":{"q":"SENW","ac":40.5},"geometry":{"type":"Polygon","coordinates":[[[-106.961611,44.974605],[-106.961525,44.978239],[-106.956385,44.978246],[-106.956475,44.974607],[-106.961611,44.974605]]]}},{"type":"Feature","properties":{"q":"SWSW","ac":41.9},"geometry":{"type":"Polygon","coordinates":[[[-107.029715,44.952433],[-107.029639,44.956028],[-107.024284,44.956148],[-107.024342,44.952538],[-107.029715,44.952433]]]}},{"type":"Feature","properties":{"q":"SESE","ac":42.4},"geometry":{"type":"Polygon","coordinates":[[[-107.013594,44.952747],[-107.013574,44.956387],[-107.008219,44.956506],[-107.00822,44.952851],[-107.013594,44.952747]]]}},{"type":"Feature","properties":{"q":"SWSE","ac":42.2},"geometry":{"type":"Polygon","coordinates":[[[-107.018929,44.956267],[-107.013574,44.956387],[-107.013594,44.952747],[-107.018968,44.952642],[-107.018929,44.956267]]]}},{"type":"Feature","properties":{"q":"NESE","ac":41.2},"geometry":{"type":"Polygon","coordinates":[[[-106.96692,44.956452],[-106.972112,44.95647],[-106.972139,44.960123],[-106.966916,44.960093],[-106.96692,44.956452]]]}},{"type":"Feature","properties":{"q":"SESE","ac":40.0},"geometry":{"type":"Polygon","coordinates":[[[-106.987824,44.981944],[-106.993058,44.981875],[-106.992995,44.985402],[-106.987757,44.985465],[-106.987824,44.981944]]]}},{"type":"Feature","properties":{"q":"SWNE","ac":41.9},"geometry":{"type":"Polygon","coordinates":[[[-107.01889,44.959892],[-107.018852,44.963517],[-107.013534,44.963666],[-107.013554,44.960026],[-107.01889,44.959892]]]}},{"type":"Feature","properties":{"q":"NENW","ac":42.5},"geometry":{"type":"Polygon","coordinates":[[[-106.98233,44.981921],[-106.976837,44.981898],[-106.976998,44.978292],[-106.982398,44.978325],[-106.98233,44.981921]]]}},{"type":"Feature","properties":{"q":"NESE","ac":41.1},"geometry":{"type":"Polygon","coordinates":[[[-107.0295,44.97041],[-107.034791,44.970349],[-107.034862,44.973943],[-107.029588,44.974005],[-107.0295,44.97041]]]}},{"type":"Feature","properties":{"q":"SENW","ac":41.0},"geometry":{"type":"Polygon","coordinates":[[[-107.04541,44.973817],[-107.045446,44.977408],[-107.040189,44.977472],[-107.040135,44.97388],[-107.04541,44.973817]]]}},{"type":"Feature","properties":{"q":"SWSW","ac":41.8},"geometry":{"type":"Polygon","coordinates":[[[-106.987757,44.985465],[-106.982325,44.98547],[-106.98233,44.981921],[-106.987824,44.981944],[-106.987757,44.985465]]]}},{"type":"Feature","properties":{"q":"NESW","ac":40.1},"geometry":{"type":"Polygon","coordinates":[[[-106.998233,44.98534],[-107.003471,44.985277],[-107.003417,44.988819],[-106.998175,44.988875],[-106.998233,44.98534]]]}},{"type":"Feature","properties":{"q":"SENW","ac":40.2},"geometry":{"type":"Polygon","coordinates":[[[-106.998175,44.988875],[-107.003417,44.988819],[-107.003362,44.992361],[-106.998116,44.992409],[-106.998175,44.988875]]]}},{"type":"Feature","properties":{"q":"SENE","ac":40.1},"geometry":{"type":"Polygon","coordinates":[[[-106.966548,44.989112],[-106.971749,44.989081],[-106.971784,44.99263],[-106.96656,44.99267],[-106.966548,44.989112]]]}},{"type":"Feature","properties":{"q":"SENW","ac":40.3},"geometry":{"type":"Polygon","coordinates":[[[-106.961797,44.963704],[-106.956682,44.963688],[-106.956707,44.960049],[-106.961812,44.960071],[-106.961797,44.963704]]]}},{"type":"Feature","properties":{"q":"SWSE","ac":40.4},"geometry":{"type":"Polygon","coordinates":[[[-106.956294,44.981886],[-106.956311,44.98551],[-106.95116,44.985522],[-106.951149,44.9819],[-106.956294,44.981886]]]}},{"type":"Feature","properties":{"q":"SWNW","ac":40.2},"geometry":{"type":"Polygon","coordinates":[[[-106.961797,44.963704],[-106.961812,44.960071],[-106.966916,44.960093],[-106.966913,44.96372],[-106.961797,44.963704]]]}},{"type":"Feature","properties":{"q":"NENW","ac":40.3},"geometry":{"type":"Polygon","coordinates":[[[-106.956682,44.963688],[-106.961797,44.963704],[-106.961783,44.967338],[-106.956656,44.967328],[-106.956682,44.963688]]]}},{"type":"Feature","properties":{"q":"SESW","ac":41.0},"geometry":{"type":"Polygon","coordinates":[[[-106.977247,44.95282],[-106.982409,44.952824],[-106.982456,44.956504],[-106.977305,44.956487],[-106.977247,44.95282]]]}},{"type":"Feature","properties":{"q":"NWSW","ac":40.2},"geometry":{"type":"Polygon","coordinates":[[[-106.961812,44.960071],[-106.961826,44.956428],[-106.96692,44.956452],[-106.966916,44.960093],[-106.961812,44.960071]]]}},{"type":"Feature","properties":{"q":"NENW","ac":40.8},"geometry":{"type":"Polygon","coordinates":[[[-107.040189,44.977472],[-107.045446,44.977408],[-107.045482,44.980999],[-107.040243,44.981064],[-107.040189,44.977472]]]}},{"type":"Feature","properties":{"q":"SWSE","ac":41.3},"geometry":{"type":"Polygon","coordinates":[[[-107.03472,44.966755],[-107.040028,44.966696],[-107.040081,44.970288],[-107.034791,44.970349],[-107.03472,44.966755]]]}},{"type":"Feature","properties":{"q":"SWNW","ac":40.3},"geometry":{"type":"Polygon","coordinates":[[[-107.008659,44.988763],[-107.008609,44.992312],[-107.003362,44.992361],[-107.003417,44.988819],[-107.008659,44.988763]]]}},{"type":"Feature","properties":{"q":"SENW","ac":40.8},"geometry":{"type":"Polygon","coordinates":[[[-107.040167,44.988251],[-107.045405,44.988183],[-107.045367,44.991776],[-107.040128,44.991845],[-107.040167,44.988251]]]}},{"type":"Feature","properties":{"q":"NESE","ac":40.5},"geometry":{"type":"Polygon","coordinates":[[[-107.013916,44.988669],[-107.008659,44.988763],[-107.008709,44.985214],[-107.013963,44.985109],[-107.013916,44.988669]]]}},{"type":"Feature","properties":{"q":"3","ac":40.7},"geometry":{"type":"Polygon","coordinates":[[[-107.045508,44.955838],[-107.050701,44.955807],[-107.050694,44.959397],[-107.04545,44.959453],[-107.045508,44.955838]]]}},{"type":"Feature","properties":{"q":"SWSE","ac":40.6},"geometry":{"type":"Polygon","coordinates":[[[-107.014011,44.981548],[-107.019262,44.98143],[-107.019218,44.985003],[-107.013963,44.985109],[-107.014011,44.981548]]]}},{"type":"Feature","properties":{"q":"SENW","ac":40.7},"geometry":{"type":"Polygon","coordinates":[[[-107.040136,44.963103],[-107.040244,44.95951],[-107.04545,44.959453],[-107.045394,44.963045],[-107.040136,44.963103]]]}},{"type":"Feature","properties":{"q":"SESE","ac":40.8},"geometry":{"type":"Polygon","coordinates":[[[-107.029765,44.981195],[-107.035004,44.98113],[-107.034965,44.984724],[-107.029726,44.98479],[-107.029765,44.981195]]]}},{"type":"Feature","properties":{"q":"1","ac":41.0},"geometry":{"type":"Polygon","coordinates":[[[-107.045367,44.991776],[-107.050628,44.991706],[-107.050617,44.995297],[-107.045365,44.995367],[-107.045328,44.995368],[-107.045367,44.991776]]]}},{"type":"Feature","properties":{"q":"SWNE","ac":40.3},"geometry":{"type":"Polygon","coordinates":[[[-106.951566,44.963672],[-106.951602,44.960027],[-106.956707,44.960049],[-106.956682,44.963688],[-106.951566,44.963672]]]}},{"type":"Feature","properties":{"q":"NWSW","ac":40.6},"geometry":{"type":"Polygon","coordinates":[[[-106.946545,44.956353],[-106.946498,44.960004],[-106.941375,44.959993],[-106.941418,44.956338],[-106.946545,44.956353]]]}},{"type":"Feature","properties":{"q":"SESE","ac":40.8},"geometry":{"type":"Polygon","coordinates":[[[-106.931195,44.952646],[-106.931152,44.956308],[-106.926014,44.956293],[-106.926064,44.952628],[-106.931195,44.952646]]]}},{"type":"Feature","properties":{"q":"SENW","ac":41.8},"geometry":{"type":"Polygon","coordinates":[[[-106.982398,44.978325],[-106.976998,44.978292],[-106.97716,44.974686],[-106.982465,44.974728],[-106.982398,44.978325]]]}},{"type":"Feature","properties":{"q":"NESW","ac":40.6},"geometry":{"type":"Polygon","coordinates":[[[-106.977319,44.971125],[-106.982531,44.971154],[-106.982465,44.974728],[-106.97716,44.974686],[-106.977319,44.971125]]]}},{"type":"Feature","properties":{"q":"NESE","ac":41.8},"geometry":{"type":"Polygon","coordinates":[[[-107.029563,44.959624],[-107.029639,44.956028],[-107.034997,44.955949],[-107.034904,44.959567],[-107.029563,44.959624]]]}},{"type":"Feature","properties":{"q":"NWNE","ac":42.1},"geometry":{"type":"Polygon","coordinates":[[[-106.972167,44.96379],[-106.977421,44.963859],[-106.977479,44.967565],[-106.972194,44.967456],[-106.972167,44.96379]]]}},{"type":"Feature","properties":{"q":"SESW","ac":41.2},"geometry":{"type":"Polygon","coordinates":[[[-107.040028,44.966696],[-107.045337,44.966636],[-107.045373,44.970227],[-107.040081,44.970288],[-107.040028,44.966696]]]}},{"type":"Feature","properties":{"q":"SWNE","ac":41.5},"geometry":{"type":"Polygon","coordinates":[[[-107.034904,44.959567],[-107.040244,44.95951],[-107.040136,44.963103],[-107.034812,44.963161],[-107.034904,44.959567]]]}},{"type":"Feature","properties":{"q":"NENW","ac":40.8},"geometry":{"type":"Polygon","coordinates":[[[-106.997948,44.963859],[-107.003082,44.963837],[-107.00309,44.967501],[-106.997965,44.967532],[-106.997948,44.963859]]]}},{"type":"Feature","properties":{"q":"NESW","ac":40.8},"geometry":{"type":"Polygon","coordinates":[[[-107.040205,44.984658],[-107.045443,44.984591],[-107.045405,44.988183],[-107.040167,44.988251],[-107.040205,44.984658]]]}},{"type":"Feature","properties":{"q":"SENE","ac":40.7},"geometry":{"type":"Polygon","coordinates":[[[-106.966747,44.974603],[-106.971953,44.974644],[-106.971832,44.978261],[-106.966665,44.97823],[-106.966747,44.974603]]]}},{"type":"Feature","properties":{"q":"NWSE","ac":40.5},"geometry":{"type":"Polygon","coordinates":[[[-106.951435,44.970963],[-106.956566,44.970967],[-106.956475,44.974607],[-106.951339,44.974609],[-106.951435,44.970963]]]}},{"type":"Feature","properties":{"q":"SWSE","ac":41.1},"geometry":{"type":"Polygon","coordinates":[[[-106.992733,44.952834],[-106.997896,44.95284],[-106.997913,44.956513],[-106.99276,44.956517],[-106.992733,44.952834]]]}},{"type":"Feature","properties":{"q":"SWSE","ac":41.1},"geometry":{"type":"Polygon","coordinates":[[[-106.972085,44.952816],[-106.977247,44.95282],[-106.977305,44.956487],[-106.972112,44.95647],[-106.972085,44.952816]]]}},{"type":"Feature","properties":{"q":"SESW","ac":40.3},"geometry":{"type":"Polygon","coordinates":[[[-107.040463,44.952228],[-107.045565,44.952223],[-107.045508,44.955838],[-107.040354,44.955869],[-107.040463,44.952228]]]}},{"type":"Feature","properties":{"q":"SESW","ac":42.0},"geometry":{"type":"Polygon","coordinates":[[[-107.024342,44.952538],[-107.024284,44.956148],[-107.018929,44.956267],[-107.018968,44.952642],[-107.024342,44.952538]]]}},{"type":"Feature","properties":{"q":"SESW","ac":41.0},"geometry":{"type":"Polygon","coordinates":[[[-106.997896,44.95284],[-107.003058,44.952846],[-107.003066,44.95651],[-106.997913,44.956513],[-106.997896,44.95284]]]}},{"type":"Feature","properties":{"q":"SWSW","ac":40.2},"geometry":{"type":"Polygon","coordinates":[[[-106.966923,44.952812],[-106.96692,44.956452],[-106.961826,44.956428],[-106.96184,44.952784],[-106.966923,44.952812]]]}},{"type":"Feature","properties":{"q":"SWNE","ac":40.9},"geometry":{"type":"Polygon","coordinates":[[[-106.992787,44.960199],[-106.997931,44.960186],[-106.997948,44.963859],[-106.992814,44.963882],[-106.992787,44.960199]]]}},{"type":"Feature","properties":{"q":"1","ac":40.4},"geometry":{"type":"Polygon","coordinates":[[[-107.045446,44.977408],[-107.050665,44.977344],[-107.05066,44.980934],[-107.045482,44.980999],[-107.045446,44.977408]]]}},{"type":"Feature","properties":{"q":"4","ac":40.4},"geometry":{"type":"Polygon","coordinates":[[[-107.045482,44.980999],[-107.05066,44.980934],[-107.050649,44.984525],[-107.045443,44.984591],[-107.045482,44.980999]]]}},{"type":"Feature","properties":{"q":"NWNE","ac":41.8},"geometry":{"type":"Polygon","coordinates":[[[-107.013534,44.963666],[-107.018852,44.963517],[-107.018813,44.967142],[-107.013514,44.967305],[-107.013534,44.963666]]]}},{"type":"Feature","properties":{"q":"SWSE","ac":40.8},"geometry":{"type":"Polygon","coordinates":[[[-106.972074,44.97105],[-106.972194,44.967456],[-106.977479,44.967565],[-106.977319,44.971125],[-106.972074,44.97105]]]}},{"type":"Feature","properties":{"q":"NWNE","ac":40.8},"geometry":{"type":"Polygon","coordinates":[[[-107.034889,44.991913],[-107.040128,44.991845],[-107.04009,44.995438],[-107.034851,44.995507],[-107.034889,44.991913]]]}},{"type":"Feature","properties":{"q":"NWSW","ac":40.8},"geometry":{"type":"Polygon","coordinates":[[[-106.987743,44.971183],[-106.98777,44.97477],[-106.982465,44.974728],[-106.982531,44.971154],[-106.987743,44.971183]]]}},{"type":"Feature","properties":{"q":"SWSE","ac":40.8},"geometry":{"type":"Polygon","coordinates":[[[-107.040243,44.981064],[-107.040205,44.984658],[-107.034965,44.984724],[-107.035004,44.98113],[-107.040243,44.981064]]]}},{"type":"Feature","properties":{"q":"NWSW","ac":41.1},"geometry":{"type":"Polygon","coordinates":[[[-106.982456,44.956504],[-106.987607,44.95652],[-106.987644,44.960212],[-106.982503,44.960183],[-106.982456,44.956504]]]}},{"type":"Feature","properties":{"q":"SWSW","ac":39.6},"geometry":{"type":"Polygon","coordinates":[[[-107.008351,44.971018],[-107.003199,44.97106],[-107.00309,44.967501],[-107.008214,44.967469],[-107.008351,44.971018]]]}},{"type":"Feature","properties":{"q":"SWSE","ac":39.8},"geometry":{"type":"Polygon","coordinates":[[[-106.992895,44.971142],[-106.992841,44.967564],[-106.997965,44.967532],[-106.998047,44.971101],[-106.992895,44.971142]]]}},{"type":"Feature","properties":{"q":"SWNE","ac":40.0},"geometry":{"type":"Polygon","coordinates":[[[-106.971749,44.989081],[-106.976951,44.98905],[-106.977008,44.99259],[-106.971784,44.99263],[-106.971749,44.989081]]]}},{"type":"Feature","properties":{"q":"SWNW","ac":39.3},"geometry":{"type":"Polygon","coordinates":[[[-106.961452,44.992669],[-106.961438,44.989123],[-106.966548,44.989112],[-106.96656,44.99267],[-106.961452,44.992669]]]}},{"type":"Feature","properties":{"q":"SWSE","ac":42.2},"geometry":{"type":"Polygon","coordinates":[[[-107.040463,44.952228],[-107.040354,44.955869],[-107.034997,44.955949],[-107.035089,44.952331],[-107.040463,44.952228]]]}},{"type":"Feature","properties":{"q":"SESE","ac":41.9},"geometry":{"type":"Polygon","coordinates":[[[-107.035089,44.952331],[-107.034997,44.955949],[-107.029639,44.956028],[-107.029715,44.952433],[-107.035089,44.952331]]]}},{"type":"Feature","properties":{"q":"4","ac":40.3},"geometry":{"type":"Polygon","coordinates":[[[-107.045565,44.952223],[-107.050708,44.952218],[-107.050701,44.955807],[-107.045508,44.955838],[-107.045565,44.952223]]]}},{"type":"Feature","properties":{"q":"SWSW","ac":40.9},"geometry":{"type":"Polygon","coordinates":[[[-107.003058,44.952846],[-107.00822,44.952851],[-107.008219,44.956506],[-107.003066,44.95651],[-107.003058,44.952846]]]}},{"type":"Feature","properties":{"q":"SWSE","ac":40.2},"geometry":{"type":"Polygon","coordinates":[[[-106.951675,44.952729],[-106.956758,44.952757],[-106.956732,44.956403],[-106.951639,44.956378],[-106.951675,44.952729]]]}},{"type":"Feature","properties":{"q":"NWSE","ac":40.3},"geometry":{"type":"Polygon","coordinates":[[[-106.951639,44.956378],[-106.956732,44.956403],[-106.956707,44.960049],[-106.951602,44.960027],[-106.951639,44.956378]]]}},{"type":"Feature","properties":{"q":"SESE","ac":40.9},"geometry":{"type":"Polygon","coordinates":[[[-106.966923,44.952812],[-106.972085,44.952816],[-106.972112,44.95647],[-106.96692,44.956452],[-106.966923,44.952812]]]}},{"type":"Feature","properties":{"q":"SWNE","ac":41.8},"geometry":{"type":"Polygon","coordinates":[[[-106.972139,44.960123],[-106.977362,44.960153],[-106.977421,44.963859],[-106.972167,44.96379],[-106.972139,44.960123]]]}},{"type":"Feature","properties":{"q":"SWSE","ac":40.9},"geometry":{"type":"Polygon","coordinates":[[[-107.018813,44.967142],[-107.018925,44.970714],[-107.013638,44.970866],[-107.013514,44.967305],[-107.018813,44.967142]]]}},{"type":"Feature","properties":{"q":"NWNW","ac":40.9},"geometry":{"type":"Polygon","coordinates":[[[-107.024389,44.992064],[-107.029649,44.991981],[-107.029611,44.995577],[-107.024348,44.995648],[-107.024389,44.992064]]]}},{"type":"Feature","properties":{"q":"NESW","ac":41.9},"geometry":{"type":"Polygon","coordinates":[[[-107.024284,44.956148],[-107.024227,44.959758],[-107.01889,44.959892],[-107.018929,44.956267],[-107.024284,44.956148]]]}},{"type":"Feature","properties":{"q":"NESE","ac":42.2},"geometry":{"type":"Polygon","coordinates":[[[-107.013574,44.956387],[-107.013554,44.960026],[-107.008217,44.96016],[-107.008219,44.956506],[-107.013574,44.956387]]]}},{"type":"Feature","properties":{"q":"SWNE","ac":40.7},"geometry":{"type":"Polygon","coordinates":[[[-107.019037,44.974286],[-107.01915,44.977858],[-107.013886,44.977988],[-107.013762,44.974427],[-107.019037,44.974286]]]}},{"type":"Feature","properties":{"q":"NWNE","ac":40.6},"geometry":{"type":"Polygon","coordinates":[[[-107.01915,44.977858],[-107.019262,44.98143],[-107.014011,44.981548],[-107.013886,44.977988],[-107.01915,44.977858]]]}},{"type":"Feature","properties":{"q":"NENE","ac":40.5},"geometry":{"type":"Polygon","coordinates":[[[-107.008609,44.992312],[-107.013869,44.99223],[-107.013822,44.99579],[-107.008559,44.995861],[-107.008609,44.992312]]]}},{"type":"Feature","properties":{"q":"NWSE","ac":40.6},"geometry":{"type":"Polygon","coordinates":[[[-107.019218,44.985003],[-107.019173,44.988575],[-107.013916,44.988669],[-107.013963,44.985109],[-107.019218,44.985003]]]}},{"type":"Feature","properties":{"q":"NENW","ac":40.8},"geometry":{"type":"Polygon","coordinates":[[[-107.019129,44.992147],[-107.024389,44.992064],[-107.024348,44.995648],[-107.019085,44.995719],[-107.019129,44.992147]]]}},{"type":"Feature","properties":{"q":"SESW","ac":40.8},"geometry":{"type":"Polygon","coordinates":[[[-107.045482,44.980999],[-107.045443,44.984591],[-107.040205,44.984658],[-107.040243,44.981064],[-107.045482,44.980999]]]}},{"type":"Feature","properties":{"q":"SWNW","ac":40.9},"geometry":{"type":"Polygon","coordinates":[[[-107.029688,44.988386],[-107.029649,44.991981],[-107.024389,44.992064],[-107.024431,44.988481],[-107.029688,44.988386]]]}},{"type":"Feature","properties":{"q":"NWNW","ac":42.4},"geometry":{"type":"Polygon","coordinates":[[[-106.982398,44.978325],[-106.987797,44.978357],[-106.987824,44.981944],[-106.98233,44.981921],[-106.982398,44.978325]]]}},{"type":"Feature","properties":{"q":"SWNW","ac":41.1},"geometry":{"type":"Polygon","coordinates":[[[-106.98255,44.963881],[-106.982503,44.960183],[-106.987644,44.960212],[-106.98768,44.963904],[-106.98255,44.963881]]]}},{"type":"Feature","properties":{"q":"NENE","ac":40.5},"geometry":{"type":"Polygon","coordinates":[[[-106.987797,44.978357],[-106.993003,44.978297],[-106.993058,44.981875],[-106.987824,44.981944],[-106.987797,44.978357]]]}},{"type":"Feature","properties":{"q":"SENE","ac":40.6},"geometry":{"type":"Polygon","coordinates":[[[-107.013762,44.974427],[-107.013886,44.977988],[-107.008623,44.978116],[-107.008487,44.974567],[-107.013762,44.974427]]]}},{"type":"Feature","properties":{"q":"SENE","ac":40.0},"geometry":{"type":"Polygon","coordinates":[[[-106.98769,44.988985],[-106.992932,44.98893],[-106.99287,44.992457],[-106.987624,44.992505],[-106.98769,44.988985]]]}},{"type":"Feature","properties":{"q":"SESE","ac":41.3},"geometry":{"type":"Polygon","coordinates":[[[-107.034791,44.970349],[-107.0295,44.97041],[-107.029411,44.966814],[-107.03472,44.966755],[-107.034791,44.970349]]]}},{"type":"Feature","properties":{"q":"NENE","ac":41.4},"geometry":{"type":"Polygon","coordinates":[[[-107.03472,44.966755],[-107.029411,44.966814],[-107.029487,44.963219],[-107.034812,44.963161],[-107.03472,44.966755]]]}},{"type":"Feature","properties":{"q":"NESW","ac":41.1},"geometry":{"type":"Polygon","coordinates":[[[-107.04541,44.973817],[-107.040135,44.97388],[-107.040081,44.970288],[-107.045373,44.970227],[-107.04541,44.973817]]]}},{"type":"Feature","properties":{"q":"NENE","ac":40.0},"geometry":{"type":"Polygon","coordinates":[[[-106.987557,44.996026],[-106.987624,44.992505],[-106.99287,44.992457],[-106.992807,44.995985],[-106.987557,44.996026]]]}},{"type":"Feature","properties":{"q":"SWNW","ac":41.0},"geometry":{"type":"Polygon","coordinates":[[[-107.029588,44.974005],[-107.029676,44.9776],[-107.024413,44.977729],[-107.024313,44.974146],[-107.029588,44.974005]]]}},{"type":"Feature","properties":{"q":"NENW","ac":40.2},"geometry":{"type":"Polygon","coordinates":[[[-107.003362,44.992361],[-107.003308,44.995902],[-106.998058,44.995943],[-106.998116,44.992409],[-107.003362,44.992361]]]}},{"type":"Feature","properties":{"q":"2","ac":40.7},"geometry":{"type":"Polygon","coordinates":[[[-107.05067,44.973755],[-107.050665,44.977344],[-107.045446,44.977408],[-107.04541,44.973817],[-107.05067,44.973755]]]}},{"type":"Feature","properties":{"q":"NESW","ac":41.7},"geometry":{"type":"Polygon","coordinates":[[[-106.976894,44.985474],[-106.982325,44.98547],[-106.982321,44.989018],[-106.976951,44.98905],[-106.976894,44.985474]]]}},{"type":"Feature","properties":{"q":"NWNE","ac":40.8},"geometry":{"type":"Polygon","coordinates":[[[-107.035004,44.98113],[-107.034933,44.977536],[-107.040189,44.977472],[-107.040243,44.981064],[-107.035004,44.98113]]]}},{"type":"Feature","properties":{"q":"1","ac":6.4},"geometry":{"type":"Polygon","coordinates":[[[-106.987558,44.996308],[-106.986189,44.996303],[-106.983633,44.996292],[-106.981068,44.996283],[-106.975962,44.996265],[-106.970855,44.996247],[-106.966571,44.996233],[-106.971818,44.996181],[-106.977064,44.99613],[-106.982311,44.996078],[-106.987557,44.996026],[-106.987558,44.996308]]]}},{"type":"Feature","properties":{"q":"SWNE","ac":40.8},"geometry":{"type":"Polygon","coordinates":[[[-107.040128,44.991845],[-107.034889,44.991913],[-107.034927,44.988319],[-107.040167,44.988251],[-107.040128,44.991845]]]}},{"type":"Feature","properties":{"q":"NESW","ac":39.9},"geometry":{"type":"Polygon","coordinates":[[[-106.998128,44.974669],[-106.998047,44.971101],[-107.003199,44.97106],[-107.003308,44.974618],[-106.998128,44.974669]]]}},{"type":"Feature","properties":{"q":"SWSW","ac":40.2},"geometry":{"type":"Polygon","coordinates":[[[-107.003471,44.985277],[-107.003525,44.981735],[-107.008759,44.981665],[-107.008709,44.985214],[-107.003471,44.985277]]]}},{"type":"Feature","properties":{"q":"NWNW","ac":40.3},"geometry":{"type":"Polygon","coordinates":[[[-107.008609,44.992312],[-107.008559,44.995861],[-107.003308,44.995902],[-107.003362,44.992361],[-107.008609,44.992312]]]}},{"type":"Feature","properties":{"q":"NESW","ac":40.7},"geometry":{"type":"Polygon","coordinates":[[[-107.045508,44.955838],[-107.04545,44.959453],[-107.040244,44.95951],[-107.040354,44.955869],[-107.045508,44.955838]]]}},{"type":"Feature","properties":{"q":"SENE","ac":40.8},"geometry":{"type":"Polygon","coordinates":[[[-107.029688,44.988386],[-107.034927,44.988319],[-107.034889,44.991913],[-107.029649,44.991981],[-107.029688,44.988386]]]}},{"type":"Feature","properties":{"q":"SWSW","ac":40.1},"geometry":{"type":"Polygon","coordinates":[[[-106.987717,44.967595],[-106.987743,44.971183],[-106.982531,44.971154],[-106.982598,44.96758],[-106.987717,44.967595]]]}},{"type":"Feature","properties":{"q":"SENW","ac":40.9},"geometry":{"type":"Polygon","coordinates":[[[-107.019037,44.974286],[-107.024313,44.974146],[-107.024413,44.977729],[-107.01915,44.977858],[-107.019037,44.974286]]]}},{"type":"Feature","properties":{"q":"SWNE","ac":40.2},"geometry":{"type":"Polygon","coordinates":[[[-106.992949,44.97472],[-106.998128,44.974669],[-106.99821,44.978237],[-106.993003,44.978297],[-106.992949,44.97472]]]}},{"type":"Feature","properties":{"q":"3","ac":40.6},"geometry":{"type":"Polygon","coordinates":[[[-107.045405,44.988183],[-107.045443,44.984591],[-107.050649,44.984525],[-107.050639,44.988115],[-107.045405,44.988183]]]}},{"type":"Feature","properties":{"q":"SENE","ac":41.0},"geometry":{"type":"Polygon","coordinates":[[[-107.029588,44.974005],[-107.034862,44.973943],[-107.034933,44.977536],[-107.029676,44.9776],[-107.029588,44.974005]]]}},{"type":"Feature","properties":{"q":"1","ac":31.8},"geometry":{"type":"Polygon","coordinates":[[[-107.013822,44.99579],[-107.019085,44.995719],[-107.024348,44.995648],[-107.029611,44.995577],[-107.02961,44.99638],[-107.025812,44.996427],[-107.024372,44.996446],[-107.020707,44.996433],[-107.019084,44.996427],[-107.015602,44.996415],[-107.014203,44.99641],[-107.013821,44.996409],[-107.010496,44.996397],[-107.008558,44.996391],[-107.008559,44.995861],[-107.013822,44.99579]]]}},{"type":"Feature","properties":{"q":"NWSE","ac":41.0},"geometry":{"type":"Polygon","coordinates":[[[-106.997913,44.956513],[-106.997931,44.960186],[-106.992787,44.960199],[-106.99276,44.956517],[-106.997913,44.956513]]]}},{"type":"Feature","properties":{"q":"SENW","ac":40.8},"geometry":{"type":"Polygon","coordinates":[[[-106.997948,44.963859],[-106.997931,44.960186],[-107.003074,44.960173],[-107.003082,44.963837],[-106.997948,44.963859]]]}},{"type":"Feature","properties":{"q":"SWNW","ac":41.6},"geometry":{"type":"Polygon","coordinates":[[[-106.982465,44.974728],[-106.98777,44.97477],[-106.987797,44.978357],[-106.982398,44.978325],[-106.982465,44.974728]]]}},{"type":"Feature","properties":{"q":"NWSW","ac":39.8},"geometry":{"type":"Polygon","coordinates":[[[-107.003199,44.97106],[-107.008351,44.971018],[-107.008487,44.974567],[-107.003308,44.974618],[-107.003199,44.97106]]]}},{"type":"Feature","properties":{"q":"NWNE","ac":40.4},"geometry":{"type":"Polygon","coordinates":[[[-106.993003,44.978297],[-106.99821,44.978237],[-106.998291,44.981805],[-106.993058,44.981875],[-106.993003,44.978297]]]}},{"type":"Feature","properties":{"q":"NESW","ac":40.9},"geometry":{"type":"Polygon","coordinates":[[[-106.977305,44.956487],[-106.982456,44.956504],[-106.982503,44.960183],[-106.977362,44.960153],[-106.977305,44.956487]]]}},{"type":"Feature","properties":{"q":"SWNE","ac":40.1},"geometry":{"type":"Polygon","coordinates":[[[-106.992932,44.98893],[-106.998175,44.988875],[-106.998116,44.992409],[-106.99287,44.992457],[-106.992932,44.98893]]]}},{"type":"Feature","properties":{"q":"1","ac":18.5},"geometry":{"type":"Polygon","coordinates":[[[-107.004918,44.996379],[-107.004059,44.996376],[-107.000268,44.99636],[-106.998058,44.99635],[-106.995155,44.996338],[-106.993856,44.996332],[-106.992808,44.996328],[-106.990043,44.996316],[-106.987558,44.996308],[-106.987557,44.996026],[-106.992807,44.995985],[-106.998058,44.995943],[-107.003308,44.995902],[-107.008559,44.995861],[-107.008558,44.996391],[-107.004918,44.996379]]]}},{"type":"Feature","properties":{"q":"SWSE","ac":40.0},"geometry":{"type":"Polygon","coordinates":[[[-106.998291,44.981805],[-106.998233,44.98534],[-106.992995,44.985402],[-106.993058,44.981875],[-106.998291,44.981805]]]}},{"type":"Feature","properties":{"q":"SENE","ac":41.5},"geometry":{"type":"Polygon","coordinates":[[[-107.034904,44.959567],[-107.034812,44.963161],[-107.029487,44.963219],[-107.029563,44.959624],[-107.034904,44.959567]]]}},{"type":"Feature","properties":{"q":"SESW","ac":40.3},"geometry":{"type":"Polygon","coordinates":[[[-106.956294,44.981886],[-106.961439,44.981872],[-106.961438,44.985498],[-106.956311,44.98551],[-106.956294,44.981886]]]}},{"type":"Feature","properties":{"q":"SWNW","ac":40.4},"geometry":{"type":"Polygon","coordinates":[[[-106.961611,44.974605],[-106.966747,44.974603],[-106.966665,44.97823],[-106.961525,44.978239],[-106.961611,44.974605]]]}},{"type":"Feature","properties":{"q":"NWNE","ac":40.1},"geometry":{"type":"Polygon","coordinates":[[[-106.998116,44.992409],[-106.998058,44.995943],[-106.992807,44.995985],[-106.99287,44.992457],[-106.998116,44.992409]]]}},{"type":"Feature","properties":{"q":"SWNW","ac":41.6},"geometry":{"type":"Polygon","coordinates":[[[-107.029563,44.959624],[-107.029487,44.963219],[-107.02417,44.963368],[-107.024227,44.959758],[-107.029563,44.959624]]]}},{"type":"Feature","properties":{"q":"NENE","ac":41.9},"geometry":{"type":"Polygon","coordinates":[[[-107.008216,44.963815],[-107.013534,44.963666],[-107.013514,44.967305],[-107.008214,44.967469],[-107.008216,44.963815]]]}},{"type":"Feature","properties":{"q":"NWSE","ac":40.0},"geometry":{"type":"Polygon","coordinates":[[[-106.992895,44.971142],[-106.998047,44.971101],[-106.998128,44.974669],[-106.992949,44.97472],[-106.992895,44.971142]]]}},{"type":"Feature","properties":{"q":"NWNW","ac":40.9},"geometry":{"type":"Polygon","coordinates":[[[-107.029676,44.9776],[-107.029765,44.981195],[-107.024513,44.981313],[-107.024413,44.977729],[-107.029676,44.9776]]]}},{"type":"Feature","properties":{"q":"SESW","ac":41.1},"geometry":{"type":"Polygon","coordinates":[[[-107.024112,44.966978],[-107.024212,44.970562],[-107.018925,44.970714],[-107.018813,44.967142],[-107.024112,44.966978]]]}},{"type":"Feature","properties":{"q":"NWSE","ac":40.1},"geometry":{"type":"Polygon","coordinates":[[[-106.992995,44.985402],[-106.998233,44.98534],[-106.998175,44.988875],[-106.992932,44.98893],[-106.992995,44.985402]]]}},{"type":"Feature","properties":{"q":"NWSW","ac":41.1},"geometry":{"type":"Polygon","coordinates":[[[-107.0295,44.97041],[-107.029588,44.974005],[-107.024313,44.974146],[-107.024212,44.970562],[-107.0295,44.97041]]]}},{"type":"Feature","properties":{"q":"NESW","ac":41.0},"geometry":{"type":"Polygon","coordinates":[[[-107.024212,44.970562],[-107.024313,44.974146],[-107.019037,44.974286],[-107.018925,44.970714],[-107.024212,44.970562]]]}},{"type":"Feature","properties":{"q":"SENW","ac":40.9},"geometry":{"type":"Polygon","coordinates":[[[-106.982321,44.989018],[-106.982316,44.992548],[-106.977008,44.99259],[-106.976951,44.98905],[-106.982321,44.989018]]]}},{"type":"Feature","properties":{"q":"NENE","ac":41.0},"geometry":{"type":"Polygon","coordinates":[[[-106.98768,44.963904],[-106.992814,44.963882],[-106.992841,44.967564],[-106.987717,44.967595],[-106.98768,44.963904]]]}},{"type":"Feature","properties":{"q":"NESE","ac":40.1},"geometry":{"type":"Polygon","coordinates":[[[-106.98777,44.97477],[-106.987743,44.971183],[-106.992895,44.971142],[-106.992949,44.97472],[-106.98777,44.97477]]]}},{"type":"Feature","properties":{"q":"NENW","ac":41.6},"geometry":{"type":"Polygon","coordinates":[[[-107.02417,44.963368],[-107.024112,44.966978],[-107.018813,44.967142],[-107.018852,44.963517],[-107.02417,44.963368]]]}},{"type":"Feature","properties":{"q":"NWNW","ac":40.3},"geometry":{"type":"Polygon","coordinates":[[[-106.982316,44.992548],[-106.987624,44.992505],[-106.987557,44.996026],[-106.982311,44.996078],[-106.982316,44.992548]]]}},{"type":"Feature","properties":{"q":"NESE","ac":40.0},"geometry":{"type":"Polygon","coordinates":[[[-106.987757,44.985465],[-106.992995,44.985402],[-106.992932,44.98893],[-106.98769,44.988985],[-106.987757,44.985465]]]}},{"type":"Feature","properties":{"q":"SWNW","ac":40.0},"geometry":{"type":"Polygon","coordinates":[[[-107.003308,44.974618],[-107.008487,44.974567],[-107.008623,44.978116],[-107.003416,44.978177],[-107.003308,44.974618]]]}},{"type":"Feature","properties":{"q":"NWSE","ac":40.8},"geometry":{"type":"Polygon","coordinates":[[[-107.018925,44.970714],[-107.019037,44.974286],[-107.013762,44.974427],[-107.013638,44.970866],[-107.018925,44.970714]]]}},{"type":"Feature","properties":{"q":"NENE","ac":40.5},"geometry":{"type":"Polygon","coordinates":[[[-107.013886,44.977988],[-107.014011,44.981548],[-107.008759,44.981665],[-107.008623,44.978116],[-107.013886,44.977988]]]}},{"type":"Feature","properties":{"q":"NWSE","ac":40.5},"geometry":{"type":"Polygon","coordinates":[[[-106.977319,44.971125],[-106.97716,44.974686],[-106.971953,44.974644],[-106.972074,44.97105],[-106.977319,44.971125]]]}},{"type":"Feature","properties":{"q":"NWNW","ac":41.0},"geometry":{"type":"Polygon","coordinates":[[[-106.987717,44.967595],[-106.982598,44.96758],[-106.98255,44.963881],[-106.98768,44.963904],[-106.987717,44.967595]]]}},{"type":"Feature","properties":{"q":"NENW","ac":40.3},"geometry":{"type":"Polygon","coordinates":[[[-106.99821,44.978237],[-107.003416,44.978177],[-107.003525,44.981735],[-106.998291,44.981805],[-106.99821,44.978237]]]}},{"type":"Feature","properties":{"q":"NWSW","ac":40.2},"geometry":{"type":"Polygon","coordinates":[[[-107.008709,44.985214],[-107.008659,44.988763],[-107.003417,44.988819],[-107.003471,44.985277],[-107.008709,44.985214]]]}},{"type":"Feature","properties":{"q":"NWNW","ac":41.4},"geometry":{"type":"Polygon","coordinates":[[[-107.029487,44.963219],[-107.029411,44.966814],[-107.024112,44.966978],[-107.02417,44.963368],[-107.029487,44.963219]]]}},{"type":"Feature","properties":{"q":"NWSW","ac":41.7},"geometry":{"type":"Polygon","coordinates":[[[-107.029639,44.956028],[-107.029563,44.959624],[-107.024227,44.959758],[-107.024284,44.956148],[-107.029639,44.956028]]]}},{"type":"Feature","properties":{"q":"SWNW","ac":40.8},"geometry":{"type":"Polygon","coordinates":[[[-106.982321,44.989018],[-106.98769,44.988985],[-106.987624,44.992505],[-106.982316,44.992548],[-106.982321,44.989018]]]}},{"type":"Feature","properties":{"q":"SWSW","ac":40.8},"geometry":{"type":"Polygon","coordinates":[[[-107.029726,44.98479],[-107.024472,44.984897],[-107.024513,44.981313],[-107.029765,44.981195],[-107.029726,44.98479]]]}},{"type":"Feature","properties":{"q":"NENW","ac":41.1},"geometry":{"type":"Polygon","coordinates":[[[-107.040136,44.963103],[-107.045394,44.963045],[-107.045337,44.966636],[-107.040028,44.966696],[-107.040136,44.963103]]]}},{"type":"Feature","properties":{"q":"SESE","ac":39.9},"geometry":{"type":"Polygon","coordinates":[[[-106.992841,44.967564],[-106.992895,44.971142],[-106.987743,44.971183],[-106.987717,44.967595],[-106.992841,44.967564]]]}},{"type":"Feature","properties":{"q":"NWNE","ac":41.4},"geometry":{"type":"Polygon","coordinates":[[[-107.034812,44.963161],[-107.040136,44.963103],[-107.040028,44.966696],[-107.03472,44.966755],[-107.034812,44.963161]]]}},{"type":"Feature","properties":{"q":"2","ac":41.0},"geometry":{"type":"Polygon","coordinates":[[[-107.04545,44.959453],[-107.050694,44.959397],[-107.050687,44.962986],[-107.045394,44.963045],[-107.04545,44.959453]]]}},{"type":"Feature","properties":{"q":"SESE","ac":40.4},"geometry":{"type":"Polygon","coordinates":[[[-107.014011,44.981548],[-107.013963,44.985109],[-107.008709,44.985214],[-107.008759,44.981665],[-107.014011,44.981548]]]}},{"type":"Feature","properties":{"q":"SENE","ac":40.3},"geometry":{"type":"Polygon","coordinates":[[[-106.98777,44.97477],[-106.992949,44.97472],[-106.993003,44.978297],[-106.987797,44.978357],[-106.98777,44.97477]]]}},{"type":"Feature","properties":{"q":"NENW","ac":40.7},"geometry":{"type":"Polygon","coordinates":[[[-107.045328,44.995368],[-107.040113,44.995438],[-107.04009,44.995438],[-107.040128,44.991845],[-107.045367,44.991776],[-107.045328,44.995368]]]}},{"type":"Feature","properties":{"q":"NESE","ac":40.8},"geometry":{"type":"Polygon","coordinates":[[[-107.029726,44.98479],[-107.034965,44.984724],[-107.034927,44.988319],[-107.029688,44.988386],[-107.029726,44.98479]]]}},{"type":"Feature","properties":{"q":"NWSE","ac":42.1},"geometry":{"type":"Polygon","coordinates":[[[-107.013574,44.956387],[-107.018929,44.956267],[-107.01889,44.959892],[-107.013554,44.960026],[-107.013574,44.956387]]]}},{"type":"Feature","properties":{"q":"NWSW","ac":40.9},"geometry":{"type":"Polygon","coordinates":[[[-107.024472,44.984897],[-107.029726,44.98479],[-107.029688,44.988386],[-107.024431,44.988481],[-107.024472,44.984897]]]}},{"type":"Feature","properties":{"q":"NWNE","ac":40.6},"geometry":{"type":"Polygon","coordinates":[[[-107.013869,44.99223],[-107.019129,44.992147],[-107.019085,44.995719],[-107.013822,44.99579],[-107.013869,44.99223]]]}},{"type":"Feature","properties":{"q":"NENW","ac":40.4},"geometry":{"type":"Polygon","coordinates":[[[-106.982316,44.992548],[-106.982311,44.996078],[-106.977064,44.99613],[-106.977008,44.99259],[-106.982316,44.992548]]]}},{"type":"Feature","properties":{"q":"SESW","ac":42.1},"geometry":{"type":"Polygon","coordinates":[[[-106.98233,44.981921],[-106.982325,44.98547],[-106.976894,44.985474],[-106.976837,44.981898],[-106.98233,44.981921]]]}},{"type":"Feature","properties":{"q":"NENW","ac":41.1},"geometry":{"type":"Polygon","coordinates":[[[-106.977479,44.967565],[-106.977421,44.963859],[-106.98255,44.963881],[-106.982598,44.96758],[-106.977479,44.967565]]]}},{"type":"Feature","properties":{"q":"1","ac":41.4},"geometry":{"type":"Polygon","coordinates":[[[-107.045394,44.963045],[-107.050687,44.962986],[-107.050679,44.966576],[-107.045337,44.966636],[-107.045394,44.963045]]]}},{"type":"Feature","properties":{"q":"SWNE","ac":41.0},"geometry":{"type":"Polygon","coordinates":[[[-107.034862,44.973943],[-107.040135,44.97388],[-107.040189,44.977472],[-107.034933,44.977536],[-107.034862,44.973943]]]}},{"type":"Feature","properties":{"q":"SENW","ac":40.1},"geometry":{"type":"Polygon","coordinates":[[[-106.99821,44.978237],[-106.998128,44.974669],[-107.003308,44.974618],[-107.003416,44.978177],[-106.99821,44.978237]]]}},{"type":"Feature","properties":{"q":"NWSE","ac":42.0},"geometry":{"type":"Polygon","coordinates":[[[-107.034997,44.955949],[-107.040354,44.955869],[-107.040244,44.95951],[-107.034904,44.959567],[-107.034997,44.955949]]]}},{"type":"Feature","properties":{"q":"NWSW","ac":40.8},"geometry":{"type":"Polygon","coordinates":[[[-107.008217,44.96016],[-107.003074,44.960173],[-107.003066,44.95651],[-107.008219,44.956506],[-107.008217,44.96016]]]}},{"type":"Feature","properties":{"q":"NWSE","ac":41.1},"geometry":{"type":"Polygon","coordinates":[[[-107.034791,44.970349],[-107.040081,44.970288],[-107.040135,44.97388],[-107.034862,44.973943],[-107.034791,44.970349]]]}},{"type":"Feature","properties":{"q":"SWNE","ac":40.6},"geometry":{"type":"Polygon","coordinates":[[[-107.019173,44.988575],[-107.019129,44.992147],[-107.013869,44.99223],[-107.013916,44.988669],[-107.019173,44.988575]]]}},{"type":"Feature","properties":{"q":"4","ac":41.4},"geometry":{"type":"Polygon","coordinates":[[[-107.045337,44.966636],[-107.050679,44.966576],[-107.050674,44.970165],[-107.045373,44.970227],[-107.045337,44.966636]]]}},{"type":"Feature","properties":{"q":"NWNW","ac":40.2},"geometry":{"type":"Polygon","coordinates":[[[-107.008759,44.981665],[-107.003525,44.981735],[-107.003416,44.978177],[-107.008623,44.978116],[-107.008759,44.981665]]]}},{"type":"Feature","properties":{"q":"NESE","ac":41.1},"geometry":{"type":"Polygon","coordinates":[[[-106.99276,44.956517],[-106.992787,44.960199],[-106.987644,44.960212],[-106.987607,44.95652],[-106.99276,44.956517]]]}},{"type":"Feature","properties":{"q":"SESW","ac":39.7},"geometry":{"type":"Polygon","coordinates":[[[-106.998047,44.971101],[-106.997965,44.967532],[-107.00309,44.967501],[-107.003199,44.97106],[-106.998047,44.971101]]]}},{"type":"Feature","properties":{"q":"SWSW","ac":41.2},"geometry":{"type":"Polygon","coordinates":[[[-107.024112,44.966978],[-107.029411,44.966814],[-107.0295,44.97041],[-107.024212,44.970562],[-107.024112,44.966978]]]}},{"type":"Feature","properties":{"q":"SENW","ac":39.2},"geometry":{"type":"Polygon","coordinates":[[[-106.956328,44.989134],[-106.961438,44.989123],[-106.961452,44.992669],[-106.956344,44.992667],[-106.956328,44.989134]]]}},{"type":"Feature","properties":{"q":"SWSW","ac":40.3},"geometry":{"type":"Polygon","coordinates":[[[-106.961438,44.985498],[-106.961439,44.981872],[-106.966584,44.981858],[-106.966566,44.985485],[-106.961438,44.985498]]]}},{"type":"Feature","properties":{"q":"NWSE","ac":40.3},"geometry":{"type":"Polygon","coordinates":[[[-106.97173,44.98548],[-106.976894,44.985474],[-106.976951,44.98905],[-106.971749,44.989081],[-106.97173,44.98548]]]}},{"type":"Feature","properties":{"q":"NWNW","ac":40.3},"geometry":{"type":"Polygon","coordinates":[[[-106.961797,44.963704],[-106.966913,44.96372],[-106.966909,44.967348],[-106.961783,44.967338],[-106.961797,44.963704]]]}},{"type":"Feature","properties":{"q":"NENE","ac":40.4},"geometry":{"type":"Polygon","coordinates":[[[-106.971832,44.978261],[-106.97171,44.981878],[-106.966584,44.981858],[-106.966665,44.97823],[-106.971832,44.978261]]]}},{"type":"Feature","properties":{"q":"NENE","ac":40.3},"geometry":{"type":"Polygon","coordinates":[[[-106.971784,44.99263],[-106.971818,44.996181],[-106.966571,44.996233],[-106.96656,44.99267],[-106.971784,44.99263]]]}},{"type":"Feature","properties":{"q":"SWSW","ac":40.3},"geometry":{"type":"Polygon","coordinates":[[[-106.961783,44.967338],[-106.966909,44.967348],[-106.966828,44.970975],[-106.961697,44.970971],[-106.961783,44.967338]]]}},{"type":"Feature","properties":{"q":"NESE","ac":40.6},"geometry":{"type":"Polygon","coordinates":[[[-106.966566,44.985485],[-106.97173,44.98548],[-106.971749,44.989081],[-106.966548,44.989112],[-106.966566,44.985485]]]}},{"type":"Feature","properties":{"q":"NWNE","ac":40.4},"geometry":{"type":"Polygon","coordinates":[[[-106.95153,44.967317],[-106.951566,44.963672],[-106.956682,44.963688],[-106.956656,44.967328],[-106.95153,44.967317]]]}},{"type":"Feature","properties":{"q":"NESE","ac":40.9},"geometry":{"type":"Polygon","coordinates":[[[-106.972074,44.97105],[-106.971953,44.974644],[-106.966747,44.974603],[-106.966828,44.970975],[-106.972074,44.97105]]]}},{"type":"Feature","properties":{"q":"SWSE","ac":40.5},"geometry":{"type":"Polygon","coordinates":[[[-106.956656,44.967328],[-106.956566,44.970967],[-106.951435,44.970963],[-106.95153,44.967317],[-106.956656,44.967328]]]}},{"type":"Feature","properties":{"q":"SESW","ac":40.4},"geometry":{"type":"Polygon","coordinates":[[[-106.961697,44.970971],[-106.956566,44.970967],[-106.956656,44.967328],[-106.961783,44.967338],[-106.961697,44.970971]]]}},{"type":"Feature","properties":{"q":"NWNE","ac":40.3},"geometry":{"type":"Polygon","coordinates":[[[-106.971832,44.978261],[-106.976998,44.978292],[-106.976837,44.981898],[-106.97171,44.981878],[-106.971832,44.978261]]]}},{"type":"Feature","properties":{"q":"SWNE","ac":39.6},"geometry":{"type":"Polygon","coordinates":[[[-106.95117,44.989145],[-106.956328,44.989134],[-106.956344,44.992667],[-106.951213,44.992725],[-106.95117,44.989145]]]}},{"type":"Feature","properties":{"q":"SESE","ac":40.3},"geometry":{"type":"Polygon","coordinates":[[[-106.966584,44.981858],[-106.97171,44.981878],[-106.97173,44.98548],[-106.966566,44.985485],[-106.966584,44.981858]]]}},{"type":"Feature","properties":{"q":"NWSE","ac":40.4},"geometry":{"type":"Polygon","coordinates":[[[-106.95117,44.989145],[-106.95116,44.985522],[-106.956311,44.98551],[-106.956328,44.989134],[-106.95117,44.989145]]]}},{"type":"Feature","properties":{"q":"NWSW","ac":40.4},"geometry":{"type":"Polygon","coordinates":[[[-106.961611,44.974605],[-106.961697,44.970971],[-106.966828,44.970975],[-106.966747,44.974603],[-106.961611,44.974605]]]}},{"type":"Feature","properties":{"q":"2","ac":38.8},"geometry":{"type":"Polygon","coordinates":[[[-106.956344,44.992667],[-106.95636,44.996201],[-106.955572,44.996198],[-106.951254,44.996186],[-106.951213,44.992725],[-106.956344,44.992667]]]}},{"type":"Feature","properties":{"q":"NWNW","ac":40.4},"geometry":{"type":"Polygon","coordinates":[[[-106.961525,44.978239],[-106.966665,44.97823],[-106.966584,44.981858],[-106.961439,44.981872],[-106.961525,44.978239]]]}},{"type":"Feature","properties":{"q":"NESW","ac":40.2},"geometry":{"type":"Polygon","coordinates":[[[-106.956311,44.98551],[-106.961438,44.985498],[-106.961438,44.989123],[-106.956328,44.989134],[-106.956311,44.98551]]]}},{"type":"Feature","properties":{"q":"NWNE","ac":40.6},"geometry":{"type":"Polygon","coordinates":[[[-106.956294,44.981886],[-106.951149,44.9819],[-106.951244,44.978254],[-106.956385,44.978246],[-106.956294,44.981886]]]}},{"type":"Feature","properties":{"q":"SWNE","ac":40.5},"geometry":{"type":"Polygon","coordinates":[[[-106.951244,44.978254],[-106.951339,44.974609],[-106.956475,44.974607],[-106.956385,44.978246],[-106.951244,44.978254]]]}},{"type":"Feature","properties":{"q":"NWNE","ac":40.2},"geometry":{"type":"Polygon","coordinates":[[[-106.971784,44.99263],[-106.977008,44.99259],[-106.977064,44.99613],[-106.971818,44.996181],[-106.971784,44.99263]]]}},{"type":"Feature","properties":{"q":"NWSW","ac":40.2},"geometry":{"type":"Polygon","coordinates":[[[-106.961438,44.985498],[-106.966566,44.985485],[-106.966548,44.989112],[-106.961438,44.989123],[-106.961438,44.985498]]]}},{"type":"Feature","properties":{"q":"SENE","ac":41.4},"geometry":{"type":"Polygon","coordinates":[[[-106.966916,44.960093],[-106.972139,44.960123],[-106.972167,44.96379],[-106.966913,44.96372],[-106.966916,44.960093]]]}},{"type":"Feature","properties":{"q":"NESE","ac":40.3},"geometry":{"type":"Polygon","coordinates":[[[-106.946545,44.956353],[-106.951639,44.956378],[-106.951602,44.960027],[-106.946498,44.960004],[-106.946545,44.956353]]]}},{"type":"Feature","properties":{"q":"NESW","ac":40.6},"geometry":{"type":"Polygon","coordinates":[[[-106.941418,44.956338],[-106.941375,44.959993],[-106.936253,44.959982],[-106.93629,44.956323],[-106.941418,44.956338]]]}},{"type":"Feature","properties":{"q":"SWSW","ac":40.6},"geometry":{"type":"Polygon","coordinates":[[[-106.946592,44.952701],[-106.946545,44.956353],[-106.941418,44.956338],[-106.94146,44.952682],[-106.946592,44.952701]]]}},{"type":"Feature","properties":{"q":"SESE","ac":40.2},"geometry":{"type":"Polygon","coordinates":[[[-106.951675,44.952729],[-106.951639,44.956378],[-106.946545,44.956353],[-106.946592,44.952701],[-106.951675,44.952729]]]}},{"type":"Feature","properties":{"q":"SESW","ac":40.7},"geometry":{"type":"Polygon","coordinates":[[[-106.94146,44.952682],[-106.941418,44.956338],[-106.93629,44.956323],[-106.936327,44.952664],[-106.94146,44.952682]]]}},{"type":"Feature","properties":{"q":"SWSE","ac":40.7},"geometry":{"type":"Polygon","coordinates":[[[-106.93629,44.956323],[-106.931152,44.956308],[-106.931195,44.952646],[-106.936327,44.952664],[-106.93629,44.956323]]]}},{"type":"Feature","properties":{"q":"NESE","ac":40.8},"geometry":{"type":"Polygon","coordinates":[[[-106.926014,44.956293],[-106.931152,44.956308],[-106.931109,44.959971],[-106.925965,44.959959],[-106.926014,44.956293]]]}},{"type":"Feature","properties":{"q":"NWSE","ac":40.0},"geometry":{"type":"Polygon","coordinates":[[[-106.936088,44.974617],[-106.931061,44.974619],[-106.931064,44.970956],[-106.936133,44.970956],[-106.936088,44.974617]]]}},{"type":"Feature","properties":{"q":"1","ac":35.5},"geometry":{"type":"Polygon","coordinates":[[[-106.930976,44.992811],[-106.93097,44.99613],[-106.930075,44.996127],[-106.925911,44.996115],[-106.925929,44.992942],[-106.930976,44.992811]]]}},{"type":"Feature","properties":{"q":"NESW","ac":39.4},"geometry":{"type":"Polygon","coordinates":[[[-106.936006,44.985576],[-106.941007,44.985555],[-106.941013,44.989186],[-106.936014,44.989217],[-106.936006,44.985576]]]}},{"type":"Feature","properties":{"q":"NWNW","ac":39.7},"geometry":{"type":"Polygon","coordinates":[[[-106.941073,44.978269],[-106.946104,44.978262],[-106.946004,44.981914],[-106.941001,44.981924],[-106.941073,44.978269]]]}},{"type":"Feature","properties":{"q":"SESE","ac":39.7},"geometry":{"type":"Polygon","coordinates":[[[-106.925991,44.981953],[-106.930994,44.981943],[-106.930988,44.985596],[-106.925971,44.985616],[-106.925991,44.981953]]]}},{"type":"Feature","properties":{"q":"NENE","ac":40.5},"geometry":{"type":"Polygon","coordinates":[[[-106.94645,44.963656],[-106.951566,44.963672],[-106.95153,44.967317],[-106.946403,44.967307],[-106.94645,44.963656]]]}},{"type":"Feature","properties":{"q":"SWNE","ac":38.3},"geometry":{"type":"Polygon","coordinates":[[[-106.930982,44.989248],[-106.936014,44.989217],[-106.936022,44.99268],[-106.930976,44.992811],[-106.930982,44.989248]]]}},{"type":"Feature","properties":{"q":"SENW","ac":40.6},"geometry":{"type":"Polygon","coordinates":[[[-106.936253,44.959982],[-106.941375,44.959993],[-106.941333,44.963648],[-106.936216,44.963639],[-106.936253,44.959982]]]}},{"type":"Feature","properties":{"q":"NWNE","ac":39.7},"geometry":{"type":"Polygon","coordinates":[[[-106.931028,44.978281],[-106.936043,44.978275],[-106.935998,44.981934],[-106.930994,44.981943],[-106.931028,44.978281]]]}},{"type":"Feature","properties":{"q":"SENE","ac":40.6},"geometry":{"type":"Polygon","coordinates":[[[-106.951339,44.974609],[-106.951244,44.978254],[-106.946104,44.978262],[-106.946204,44.974611],[-106.951339,44.974609]]]}},{"type":"Feature","properties":{"q":"NWSW","ac":40.1},"geometry":{"type":"Polygon","coordinates":[[[-106.946204,44.974611],[-106.941146,44.974614],[-106.941218,44.970958],[-106.946303,44.970959],[-106.946204,44.974611]]]}},{"type":"Feature","properties":{"q":"SWNW","ac":40.5},"geometry":{"type":"Polygon","coordinates":[[[-106.941375,44.959993],[-106.946498,44.960004],[-106.94645,44.963656],[-106.941333,44.963648],[-106.941375,44.959993]]]}},{"type":"Feature","properties":{"q":"NWNE","ac":40.6},"geometry":{"type":"Polygon","coordinates":[[[-106.931087,44.963632],[-106.936216,44.963639],[-106.936178,44.967296],[-106.931066,44.967293],[-106.931087,44.963632]]]}},{"type":"Feature","properties":{"q":"NESE","ac":40.4},"geometry":{"type":"Polygon","coordinates":[[[-106.946008,44.985535],[-106.95116,44.985522],[-106.95117,44.989145],[-106.946012,44.989155],[-106.946008,44.985535]]]}},{"type":"Feature","properties":{"q":"NENE","ac":40.6},"geometry":{"type":"Polygon","coordinates":[[[-106.946104,44.978262],[-106.951244,44.978254],[-106.951149,44.9819],[-106.946004,44.981914],[-106.946104,44.978262]]]}},{"type":"Feature","properties":{"q":"NESW","ac":40.2},"geometry":{"type":"Polygon","coordinates":[[[-106.936133,44.970956],[-106.941218,44.970958],[-106.941146,44.974614],[-106.936088,44.974617],[-106.936133,44.970956]]]}},{"type":"Feature","properties":{"q":"NESE","ac":40.6},"geometry":{"type":"Polygon","coordinates":[[[-106.951435,44.970963],[-106.951339,44.974609],[-106.946204,44.974611],[-106.946303,44.970959],[-106.951435,44.970963]]]}},{"type":"Feature","properties":{"q":"SENE","ac":40.4},"geometry":{"type":"Polygon","coordinates":[[[-106.951602,44.960027],[-106.951566,44.963672],[-106.94645,44.963656],[-106.946498,44.960004],[-106.951602,44.960027]]]}},{"type":"Feature","properties":{"q":"4","ac":37.2},"geometry":{"type":"Polygon","coordinates":[[[-106.941052,44.992731],[-106.946083,44.992782],[-106.946149,44.99617],[-106.945376,44.996167],[-106.942903,44.996161],[-106.94109,44.996156],[-106.941052,44.992731]]]}},{"type":"Feature","properties":{"q":"SENE","ac":39.4},"geometry":{"type":"Polygon","coordinates":[[[-106.925951,44.989279],[-106.930982,44.989248],[-106.930976,44.992811],[-106.925929,44.992942],[-106.925951,44.989279]]]}},{"type":"Feature","properties":{"q":"2","ac":37.1},"geometry":{"type":"Polygon","coordinates":[[[-106.936022,44.99268],[-106.93603,44.996143],[-106.935175,44.99614],[-106.93097,44.99613],[-106.930976,44.992811],[-106.936022,44.99268]]]}},{"type":"Feature","properties":{"q":"SENW","ac":38.0},"geometry":{"type":"Polygon","coordinates":[[[-106.936014,44.989217],[-106.941013,44.989186],[-106.941052,44.992731],[-106.936022,44.99268],[-106.936014,44.989217]]]}},{"type":"Feature","properties":{"q":"SWSW","ac":39.3},"geometry":{"type":"Polygon","coordinates":[[[-106.946008,44.985535],[-106.941007,44.985555],[-106.941001,44.981924],[-106.946004,44.981914],[-106.946008,44.985535]]]}},{"type":"Feature","properties":{"q":"NENW","ac":40.5},"geometry":{"type":"Polygon","coordinates":[[[-106.936216,44.963639],[-106.941333,44.963648],[-106.941291,44.967302],[-106.936178,44.967296],[-106.936216,44.963639]]]}},{"type":"Feature","properties":{"q":"SESW","ac":40.4},"geometry":{"type":"Polygon","coordinates":[[[-106.936133,44.970956],[-106.936178,44.967296],[-106.941291,44.967302],[-106.941218,44.970958],[-106.936133,44.970956]]]}},{"type":"Feature","properties":{"q":"SESE","ac":40.4},"geometry":{"type":"Polygon","coordinates":[[[-106.931066,44.967293],[-106.931064,44.970956],[-106.925994,44.970956],[-106.925953,44.96729],[-106.931066,44.967293]]]}},{"type":"Feature","properties":{"q":"NWSW","ac":39.3},"geometry":{"type":"Polygon","coordinates":[[[-106.941013,44.989186],[-106.941007,44.985555],[-106.946008,44.985535],[-106.946012,44.989155],[-106.941013,44.989186]]]}},{"type":"Feature","properties":{"q":"NENW","ac":39.7},"geometry":{"type":"Polygon","coordinates":[[[-106.936043,44.978275],[-106.941073,44.978269],[-106.941001,44.981924],[-106.935998,44.981934],[-106.936043,44.978275]]]}},{"type":"Feature","properties":{"q":"SESE","ac":40.4},"geometry":{"type":"Polygon","coordinates":[[[-106.946004,44.981914],[-106.951149,44.9819],[-106.95116,44.985522],[-106.946008,44.985535],[-106.946004,44.981914]]]}},{"type":"Feature","properties":{"q":"3","ac":37.6},"geometry":{"type":"Polygon","coordinates":[[[-106.94109,44.996156],[-106.940276,44.996154],[-106.93603,44.996143],[-106.936022,44.99268],[-106.941052,44.992731],[-106.94109,44.996156]]]}},{"type":"Feature","properties":{"q":"SENE","ac":40.8},"geometry":{"type":"Polygon","coordinates":[[[-106.925965,44.959959],[-106.931109,44.959971],[-106.931087,44.963632],[-106.925959,44.963625],[-106.925965,44.959959]]]}},{"type":"Feature","properties":{"q":"SWNE","ac":40.7},"geometry":{"type":"Polygon","coordinates":[[[-106.936216,44.963639],[-106.931087,44.963632],[-106.931109,44.959971],[-106.936253,44.959982],[-106.936216,44.963639]]]}},{"type":"Feature","properties":{"q":"NENE","ac":39.8},"geometry":{"type":"Polygon","coordinates":[[[-106.930994,44.981943],[-106.925991,44.981953],[-106.926013,44.978288],[-106.931028,44.978281],[-106.930994,44.981943]]]}},{"type":"Feature","properties":{"q":"NESE","ac":39.8},"geometry":{"type":"Polygon","coordinates":[[[-106.925951,44.989279],[-106.925971,44.985616],[-106.930988,44.985596],[-106.930982,44.989248],[-106.925951,44.989279]]]}},{"type":"Feature","properties":{"q":"NENE","ac":40.6},"geometry":{"type":"Polygon","coordinates":[[[-106.931087,44.963632],[-106.931066,44.967293],[-106.925953,44.96729],[-106.925959,44.963625],[-106.931087,44.963632]]]}},{"type":"Feature","properties":{"q":"SESE","ac":40.5},"geometry":{"type":"Polygon","coordinates":[[[-106.95153,44.967317],[-106.951435,44.970963],[-106.946303,44.970959],[-106.946403,44.967307],[-106.95153,44.967317]]]}},{"type":"Feature","properties":{"q":"SWSW","ac":40.4},"geometry":{"type":"Polygon","coordinates":[[[-106.941291,44.967302],[-106.946403,44.967307],[-106.946303,44.970959],[-106.941218,44.970958],[-106.941291,44.967302]]]}},{"type":"Feature","properties":{"q":"SESW","ac":39.4},"geometry":{"type":"Polygon","coordinates":[[[-106.941001,44.981924],[-106.941007,44.985555],[-106.936006,44.985576],[-106.935998,44.981934],[-106.941001,44.981924]]]}},{"type":"Feature","properties":{"q":"NWSE","ac":39.7},"geometry":{"type":"Polygon","coordinates":[[[-106.930988,44.985596],[-106.936006,44.985576],[-106.936014,44.989217],[-106.930982,44.989248],[-106.930988,44.985596]]]}},{"type":"Feature","properties":{"q":"SWNW","ac":39.9},"geometry":{"type":"Polygon","coordinates":[[[-106.941146,44.974614],[-106.946204,44.974611],[-106.946104,44.978262],[-106.941073,44.978269],[-106.941146,44.974614]]]}},{"type":"Feature","properties":{"q":"SENE","ac":39.8},"geometry":{"type":"Polygon","coordinates":[[[-106.926035,44.974622],[-106.931061,44.974619],[-106.931028,44.978281],[-106.926013,44.978288],[-106.926035,44.974622]]]}},{"type":"Feature","properties":{"q":"SENW","ac":40.0},"geometry":{"type":"Polygon","coordinates":[[[-106.941146,44.974614],[-106.941073,44.978269],[-106.936043,44.978275],[-106.936088,44.974617],[-106.941146,44.974614]]]}},{"type":"Feature","properties":{"q":"NESE","ac":40.1},"geometry":{"type":"Polygon","coordinates":[[[-106.931064,44.970956],[-106.931061,44.974619],[-106.926035,44.974622],[-106.925994,44.970956],[-106.931064,44.970956]]]}},{"type":"Feature","properties":{"q":"NWNW","ac":40.5},"geometry":{"type":"Polygon","coordinates":[[[-106.941333,44.963648],[-106.94645,44.963656],[-106.946403,44.967307],[-106.941291,44.967302],[-106.941333,44.963648]]]}},{"type":"Feature","properties":{"q":"1","ac":38.0},"geometry":{"type":"Polygon","coordinates":[[[-106.950476,44.996184],[-106.946149,44.99617],[-106.946083,44.992782],[-106.951213,44.992725],[-106.951254,44.996186],[-106.950476,44.996184]]]}},{"type":"Feature","properties":{"q":"SENE","ac":40.1},"geometry":{"type":"Polygon","coordinates":[[[-106.946083,44.992782],[-106.946012,44.989155],[-106.95117,44.989145],[-106.951213,44.992725],[-106.946083,44.992782]]]}},{"type":"Feature","properties":{"q":"SWSE","ac":39.6},"geometry":{"type":"Polygon","coordinates":[[[-106.935998,44.981934],[-106.936006,44.985576],[-106.930988,44.985596],[-106.930994,44.981943],[-106.935998,44.981934]]]}},{"type":"Feature","properties":{"q":"SWNW","ac":38.9},"geometry":{"type":"Polygon","coordinates":[[[-106.946083,44.992782],[-106.941052,44.992731],[-106.941013,44.989186],[-106.946012,44.989155],[-106.946083,44.992782]]]}},{"type":"Feature","properties":{"q":"SWSE","ac":40.4},"geometry":{"type":"Polygon","coordinates":[[[-106.936178,44.967296],[-106.936133,44.970956],[-106.931064,44.970956],[-106.931066,44.967293],[-106.936178,44.967296]]]}},{"type":"Feature","properties":{"q":"SWNE","ac":39.8},"geometry":{"type":"Polygon","coordinates":[[[-106.931028,44.978281],[-106.931061,44.974619],[-106.936088,44.974617],[-106.936043,44.978275],[-106.931028,44.978281]]]}}]}