{"type":"FeatureCollection","note":"BLM Public Land Survey System. Provided by the Bureau of Land Management as is. These data are neither legal documents nor land surveys and must not be used as such.","features":[{"type":"Feature","properties":{"q":"SWNE","ac":40.6},"geometry":{"type":"Polygon","coordinates":[[[-104.822798,42.922049],[-104.827754,42.92205],[-104.827748,42.925701],[-104.822792,42.925701],[-104.822798,42.922049]]]}},{"type":"Feature","properties":{"q":"2","ac":40.8},"geometry":{"type":"Polygon","coordinates":[[[-104.822649,42.954905],[-104.827625,42.954922],[-104.827601,42.958584],[-104.822631,42.958575],[-104.822649,42.954905]]]}},{"type":"Feature","properties":{"q":"SENE","ac":40.5},"geometry":{"type":"Polygon","coordinates":[[[-104.82315,42.892758],[-104.823148,42.896427],[-104.818234,42.896448],[-104.818222,42.89278],[-104.82315,42.892758]]]}},{"type":"Feature","properties":{"q":"NWNE","ac":40.4},"geometry":{"type":"Polygon","coordinates":[[[-104.823148,42.896427],[-104.828061,42.896406],[-104.828045,42.900076],[-104.823146,42.900096],[-104.823148,42.896427]]]}},{"type":"Feature","properties":{"q":"SENE","ac":40.6},"geometry":{"type":"Polygon","coordinates":[[[-104.817842,42.922048],[-104.822798,42.922049],[-104.822792,42.925701],[-104.817836,42.925701],[-104.817842,42.922048]]]}},{"type":"Feature","properties":{"q":"2","ac":45.2},"geometry":{"type":"Polygon","coordinates":[[[-104.83822,42.936673],[-104.838164,42.940331],[-104.832666,42.940329],[-104.832683,42.936672],[-104.83822,42.936673]]]}},{"type":"Feature","properties":{"q":"3","ac":45.5},"geometry":{"type":"Polygon","coordinates":[[[-104.838243,42.933016],[-104.83822,42.936673],[-104.832683,42.936672],[-104.832684,42.933014],[-104.838243,42.933016]]]}},{"type":"Feature","properties":{"q":"SESW","ac":40.6},"geometry":{"type":"Polygon","coordinates":[[[-104.832684,42.929356],[-104.832684,42.933014],[-104.827731,42.933011],[-104.827743,42.929352],[-104.832684,42.929356]]]}},{"type":"Feature","properties":{"q":"SESE","ac":40.6},"geometry":{"type":"Polygon","coordinates":[[[-104.822787,42.929353],[-104.822771,42.933011],[-104.817811,42.93301],[-104.817831,42.929354],[-104.822787,42.929353]]]}},{"type":"Feature","properties":{"q":"NESW","ac":40.5},"geometry":{"type":"Polygon","coordinates":[[[-104.832831,42.907406],[-104.827905,42.907414],[-104.827975,42.903745],[-104.832894,42.903734],[-104.832831,42.907406]]]}},{"type":"Feature","properties":{"q":"SESE","ac":41.2},"geometry":{"type":"Polygon","coordinates":[[[-104.823426,42.870731],[-104.823358,42.874405],[-104.818361,42.874454],[-104.818415,42.870791],[-104.823426,42.870731]]]}},{"type":"Feature","properties":{"q":"NWSE","ac":40.7},"geometry":{"type":"Polygon","coordinates":[[[-104.827731,42.933011],[-104.82772,42.93667],[-104.822756,42.936669],[-104.822771,42.933011],[-104.827731,42.933011]]]}},{"type":"Feature","properties":{"q":"3","ac":40.5},"geometry":{"type":"Polygon","coordinates":[[[-104.827625,42.954922],[-104.832568,42.954936],[-104.832551,42.958588],[-104.827601,42.958584],[-104.827625,42.954922]]]}},{"type":"Feature","properties":{"q":"5","ac":44.0},"geometry":{"type":"Polygon","coordinates":[[[-104.832586,42.951297],[-104.837984,42.951311],[-104.837952,42.954952],[-104.832568,42.954936],[-104.832586,42.951297]]]}},{"type":"Feature","properties":{"q":"4","ac":46.1},"geometry":{"type":"Polygon","coordinates":[[[-104.832894,42.903734],[-104.832957,42.900063],[-104.838549,42.900048],[-104.838503,42.903722],[-104.832894,42.903734]]]}},{"type":"Feature","properties":{"q":"SENW","ac":40.4},"geometry":{"type":"Polygon","coordinates":[[[-104.827754,42.92205],[-104.832682,42.922051],[-104.832683,42.925703],[-104.827748,42.925701],[-104.827754,42.92205]]]}},{"type":"Feature","properties":{"q":"NENW","ac":40.6},"geometry":{"type":"Polygon","coordinates":[[[-104.827835,42.91108],[-104.832768,42.911076],[-104.832706,42.914745],[-104.827765,42.914745],[-104.827835,42.91108]]]}},{"type":"Feature","properties":{"q":"NWSE","ac":41.2},"geometry":{"type":"Polygon","coordinates":[[[-104.828355,42.874356],[-104.828274,42.878042],[-104.82329,42.87808],[-104.823358,42.874405],[-104.828355,42.874356]]]}},{"type":"Feature","properties":{"q":"SESE","ac":40.6},"geometry":{"type":"Polygon","coordinates":[[[-104.822809,42.914743],[-104.822804,42.918396],[-104.817848,42.918395],[-104.817854,42.914741],[-104.822809,42.914743]]]}},{"type":"Feature","properties":{"q":"NESW","ac":40.4},"geometry":{"type":"Polygon","coordinates":[[[-104.827649,42.951284],[-104.827674,42.947634],[-104.832617,42.947641],[-104.832586,42.951297],[-104.827649,42.951284]]]}},{"type":"Feature","properties":{"q":"SESW","ac":40.4},"geometry":{"type":"Polygon","coordinates":[[[-104.832706,42.914745],[-104.832694,42.918398],[-104.827759,42.918398],[-104.827765,42.914745],[-104.832706,42.914745]]]}},{"type":"Feature","properties":{"q":"NWSE","ac":40.4},"geometry":{"type":"Polygon","coordinates":[[[-104.822977,42.907421],[-104.823062,42.903758],[-104.827975,42.903745],[-104.827905,42.907414],[-104.822977,42.907421]]]}},{"type":"Feature","properties":{"q":"SENE","ac":40.7},"geometry":{"type":"Polygon","coordinates":[[[-104.822756,42.936669],[-104.822741,42.940325],[-104.817773,42.940323],[-104.817792,42.936667],[-104.822756,42.936669]]]}},{"type":"Feature","properties":{"q":"NESW","ac":41.0},"geometry":{"type":"Polygon","coordinates":[[[-104.833317,42.874319],[-104.83323,42.878004],[-104.828274,42.878042],[-104.828355,42.874356],[-104.833317,42.874319]]]}},{"type":"Feature","properties":{"q":"2","ac":45.8},"geometry":{"type":"Polygon","coordinates":[[[-104.832682,42.922051],[-104.838285,42.922052],[-104.838275,42.925705],[-104.832683,42.925703],[-104.832682,42.922051]]]}},{"type":"Feature","properties":{"q":"SWSE","ac":40.8},"geometry":{"type":"Polygon","coordinates":[[[-104.828112,42.885379],[-104.828095,42.889058],[-104.823152,42.889085],[-104.823155,42.885412],[-104.828112,42.885379]]]}},{"type":"Feature","properties":{"q":"2","ac":46.8},"geometry":{"type":"Polygon","coordinates":[[[-104.838895,42.877961],[-104.838821,42.881645],[-104.833141,42.88168],[-104.83323,42.878004],[-104.838895,42.877961]]]}},{"type":"Feature","properties":{"q":"NESE","ac":40.6},"geometry":{"type":"Polygon","coordinates":[[[-104.823152,42.889085],[-104.82315,42.892758],[-104.818222,42.89278],[-104.81821,42.889112],[-104.823152,42.889085]]]}},{"type":"Feature","properties":{"q":"NENE","ac":40.4},"geometry":{"type":"Polygon","coordinates":[[[-104.823148,42.896427],[-104.823146,42.900096],[-104.818247,42.900115],[-104.818234,42.896448],[-104.823148,42.896427]]]}},{"type":"Feature","properties":{"q":"NWSE","ac":40.7},"geometry":{"type":"Polygon","coordinates":[[[-104.828095,42.889058],[-104.828078,42.892736],[-104.82315,42.892758],[-104.823152,42.889085],[-104.828095,42.889058]]]}},{"type":"Feature","properties":{"q":"NESE","ac":40.7},"geometry":{"type":"Polygon","coordinates":[[[-104.822756,42.936669],[-104.817792,42.936667],[-104.817811,42.93301],[-104.822771,42.933011],[-104.822756,42.936669]]]}},{"type":"Feature","properties":{"q":"SWNE","ac":40.7},"geometry":{"type":"Polygon","coordinates":[[[-104.822741,42.940325],[-104.822756,42.936669],[-104.82772,42.93667],[-104.827709,42.940327],[-104.822741,42.940325]]]}},{"type":"Feature","properties":{"q":"SESW","ac":40.7},"geometry":{"type":"Polygon","coordinates":[[[-104.828112,42.885379],[-104.833052,42.885357],[-104.833028,42.889035],[-104.828095,42.889058],[-104.828112,42.885379]]]}},{"type":"Feature","properties":{"q":"3","ac":46.3},"geometry":{"type":"Polygon","coordinates":[[[-104.832831,42.907406],[-104.832894,42.903734],[-104.838503,42.903722],[-104.838457,42.907397],[-104.832831,42.907406]]]}},{"type":"Feature","properties":{"q":"NESW","ac":40.4},"geometry":{"type":"Polygon","coordinates":[[[-104.832694,42.918398],[-104.832682,42.922051],[-104.827754,42.92205],[-104.827759,42.918398],[-104.832694,42.918398]]]}},{"type":"Feature","properties":{"q":"1","ac":46.9},"geometry":{"type":"Polygon","coordinates":[[[-104.838821,42.881645],[-104.838746,42.885329],[-104.833052,42.885357],[-104.833141,42.88168],[-104.838821,42.881645]]]}},{"type":"Feature","properties":{"q":"SWNE","ac":40.5},"geometry":{"type":"Polygon","coordinates":[[[-104.827905,42.907414],[-104.827835,42.91108],[-104.822893,42.911082],[-104.822977,42.907421],[-104.827905,42.907414]]]}},{"type":"Feature","properties":{"q":"NENW","ac":40.7},"geometry":{"type":"Polygon","coordinates":[[[-104.833141,42.88168],[-104.833052,42.885357],[-104.828112,42.885379],[-104.828193,42.881711],[-104.833141,42.88168]]]}},{"type":"Feature","properties":{"q":"SENE","ac":40.5},"geometry":{"type":"Polygon","coordinates":[[[-104.822977,42.907421],[-104.822893,42.911082],[-104.817952,42.911085],[-104.81805,42.907428],[-104.822977,42.907421]]]}},{"type":"Feature","properties":{"q":"SENE","ac":40.5},"geometry":{"type":"Polygon","coordinates":[[[-104.817685,42.951257],[-104.822667,42.951271],[-104.822649,42.954905],[-104.817674,42.954887],[-104.817685,42.951257]]]}},{"type":"Feature","properties":{"q":"NESW","ac":40.7},"geometry":{"type":"Polygon","coordinates":[[[-104.833028,42.889035],[-104.833005,42.892714],[-104.828078,42.892736],[-104.828095,42.889058],[-104.833028,42.889035]]]}},{"type":"Feature","properties":{"q":"NWNE","ac":40.6},"geometry":{"type":"Polygon","coordinates":[[[-104.827835,42.91108],[-104.827765,42.914745],[-104.822809,42.914743],[-104.822893,42.911082],[-104.827835,42.91108]]]}},{"type":"Feature","properties":{"q":"SENW","ac":40.5},"geometry":{"type":"Polygon","coordinates":[[[-104.833005,42.892714],[-104.832981,42.896389],[-104.828061,42.896406],[-104.828078,42.892736],[-104.833005,42.892714]]]}},{"type":"Feature","properties":{"q":"SWNE","ac":40.5},"geometry":{"type":"Polygon","coordinates":[[[-104.822667,42.951271],[-104.827649,42.951284],[-104.827625,42.954922],[-104.822649,42.954905],[-104.822667,42.951271]]]}},{"type":"Feature","properties":{"q":"NWNE","ac":40.8},"geometry":{"type":"Polygon","coordinates":[[[-104.828193,42.881711],[-104.828112,42.885379],[-104.823155,42.885412],[-104.823222,42.881746],[-104.828193,42.881711]]]}},{"type":"Feature","properties":{"q":"NESE","ac":40.4},"geometry":{"type":"Polygon","coordinates":[[[-104.818148,42.903772],[-104.823062,42.903758],[-104.822977,42.907421],[-104.81805,42.907428],[-104.818148,42.903772]]]}},{"type":"Feature","properties":{"q":"NWNE","ac":40.7},"geometry":{"type":"Polygon","coordinates":[[[-104.827709,42.940327],[-104.827698,42.943984],[-104.822726,42.943982],[-104.822741,42.940325],[-104.827709,42.940327]]]}},{"type":"Feature","properties":{"q":"SESW","ac":40.4},"geometry":{"type":"Polygon","coordinates":[[[-104.832957,42.900063],[-104.832894,42.903734],[-104.827975,42.903745],[-104.828045,42.900076],[-104.832957,42.900063]]]}},{"type":"Feature","properties":{"q":"1","ac":44.9},"geometry":{"type":"Polygon","coordinates":[[[-104.838164,42.940331],[-104.838108,42.943988],[-104.832648,42.943986],[-104.832666,42.940329],[-104.838164,42.940331]]]}},{"type":"Feature","properties":{"q":"SWSE","ac":40.7},"geometry":{"type":"Polygon","coordinates":[[[-104.827698,42.943984],[-104.827674,42.947634],[-104.822696,42.947626],[-104.822726,42.943982],[-104.827698,42.943984]]]}},{"type":"Feature","properties":{"q":"SWSE","ac":41.3},"geometry":{"type":"Polygon","coordinates":[[[-104.828437,42.87067],[-104.828355,42.874356],[-104.823358,42.874405],[-104.823426,42.870731],[-104.828437,42.87067]]]}},{"type":"Feature","properties":{"q":"SESW","ac":41.0},"geometry":{"type":"Polygon","coordinates":[[[-104.833404,42.870636],[-104.833317,42.874319],[-104.828355,42.874356],[-104.828437,42.87067],[-104.833404,42.870636]]]}},{"type":"Feature","properties":{"q":"3","ac":46.8},"geometry":{"type":"Polygon","coordinates":[[[-104.833317,42.874319],[-104.838969,42.874277],[-104.838895,42.877961],[-104.83323,42.878004],[-104.833317,42.874319]]]}},{"type":"Feature","properties":{"q":"4","ac":46.6},"geometry":{"type":"Polygon","coordinates":[[[-104.839043,42.870593],[-104.838969,42.874277],[-104.833317,42.874319],[-104.833404,42.870636],[-104.839043,42.870593]]]}},{"type":"Feature","properties":{"q":"NESE","ac":41.1},"geometry":{"type":"Polygon","coordinates":[[[-104.823358,42.874405],[-104.82329,42.87808],[-104.818306,42.878118],[-104.818361,42.874454],[-104.823358,42.874405]]]}},{"type":"Feature","properties":{"q":"4","ac":45.7},"geometry":{"type":"Polygon","coordinates":[[[-104.832684,42.929356],[-104.838265,42.929359],[-104.838243,42.933016],[-104.832684,42.933014],[-104.832684,42.929356]]]}},{"type":"Feature","properties":{"q":"NESE","ac":40.6},"geometry":{"type":"Polygon","coordinates":[[[-104.822696,42.947626],[-104.822667,42.951271],[-104.817685,42.951257],[-104.817719,42.947619],[-104.822696,42.947626]]]}},{"type":"Feature","properties":{"q":"2","ac":46.4},"geometry":{"type":"Polygon","coordinates":[[[-104.838599,42.896368],[-104.832981,42.896389],[-104.833005,42.892714],[-104.838648,42.892689],[-104.838599,42.896368]]]}},{"type":"Feature","properties":{"q":"SWNE","ac":40.5},"geometry":{"type":"Polygon","coordinates":[[[-104.828078,42.892736],[-104.828061,42.896406],[-104.823148,42.896427],[-104.82315,42.892758],[-104.828078,42.892736]]]}},{"type":"Feature","properties":{"q":"NENW","ac":40.6},"geometry":{"type":"Polygon","coordinates":[[[-104.832666,42.940329],[-104.832648,42.943986],[-104.827698,42.943984],[-104.827709,42.940327],[-104.832666,42.940329]]]}},{"type":"Feature","properties":{"q":"4","ac":46.9},"geometry":{"type":"Polygon","coordinates":[[[-104.833052,42.885357],[-104.838746,42.885329],[-104.838697,42.889009],[-104.833028,42.889035],[-104.833052,42.885357]]]}},{"type":"Feature","properties":{"q":"NESE","ac":40.6},"geometry":{"type":"Polygon","coordinates":[[[-104.822804,42.918396],[-104.822798,42.922049],[-104.817842,42.922048],[-104.817848,42.918395],[-104.822804,42.918396]]]}},{"type":"Feature","properties":{"q":"NESW","ac":40.6},"geometry":{"type":"Polygon","coordinates":[[[-104.832684,42.933014],[-104.832683,42.936672],[-104.82772,42.93667],[-104.827731,42.933011],[-104.832684,42.933014]]]}},{"type":"Feature","properties":{"q":"3","ac":46.0},"geometry":{"type":"Polygon","coordinates":[[[-104.832682,42.922051],[-104.832694,42.918398],[-104.838325,42.918399],[-104.838285,42.922052],[-104.832682,42.922051]]]}},{"type":"Feature","properties":{"q":"NENE","ac":40.6},"geometry":{"type":"Polygon","coordinates":[[[-104.822809,42.914743],[-104.817854,42.914741],[-104.817952,42.911085],[-104.822893,42.911082],[-104.822809,42.914743]]]}},{"type":"Feature","properties":{"q":"SENW","ac":40.3},"geometry":{"type":"Polygon","coordinates":[[[-104.832586,42.951297],[-104.832568,42.954936],[-104.827625,42.954922],[-104.827649,42.951284],[-104.832586,42.951297]]]}},{"type":"Feature","properties":{"q":"6","ac":44.4},"geometry":{"type":"Polygon","coordinates":[[[-104.832586,42.951297],[-104.832617,42.947641],[-104.838046,42.947649],[-104.837984,42.951311],[-104.832586,42.951297]]]}},{"type":"Feature","properties":{"q":"1","ac":46.2},"geometry":{"type":"Polygon","coordinates":[[[-104.838549,42.900048],[-104.832957,42.900063],[-104.832981,42.896389],[-104.838599,42.896368],[-104.838549,42.900048]]]}},{"type":"Feature","properties":{"q":"1","ac":45.7},"geometry":{"type":"Polygon","coordinates":[[[-104.832684,42.929356],[-104.832683,42.925703],[-104.838275,42.925705],[-104.838265,42.929359],[-104.832684,42.929356]]]}},{"type":"Feature","properties":{"q":"1","ac":46.5},"geometry":{"type":"Polygon","coordinates":[[[-104.838365,42.914746],[-104.832706,42.914745],[-104.832768,42.911076],[-104.838411,42.911071],[-104.838365,42.914746]]]}},{"type":"Feature","properties":{"q":"SENW","ac":40.8},"geometry":{"type":"Polygon","coordinates":[[[-104.83323,42.878004],[-104.833141,42.88168],[-104.828193,42.881711],[-104.828274,42.878042],[-104.83323,42.878004]]]}},{"type":"Feature","properties":{"q":"NENW","ac":40.4},"geometry":{"type":"Polygon","coordinates":[[[-104.827743,42.929352],[-104.827748,42.925701],[-104.832683,42.925703],[-104.832684,42.929356],[-104.827743,42.929352]]]}},{"type":"Feature","properties":{"q":"NENE","ac":40.8},"geometry":{"type":"Polygon","coordinates":[[[-104.818252,42.881781],[-104.823222,42.881746],[-104.823155,42.885412],[-104.818198,42.885444],[-104.818252,42.881781]]]}},{"type":"Feature","properties":{"q":"NENW","ac":40.5},"geometry":{"type":"Polygon","coordinates":[[[-104.832981,42.896389],[-104.832957,42.900063],[-104.828045,42.900076],[-104.828061,42.896406],[-104.832981,42.896389]]]}},{"type":"Feature","properties":{"q":"NWNE","ac":40.6},"geometry":{"type":"Polygon","coordinates":[[[-104.822792,42.925701],[-104.827748,42.925701],[-104.827743,42.929352],[-104.822787,42.929353],[-104.822792,42.925701]]]}},{"type":"Feature","properties":{"q":"4","ac":46.2},"geometry":{"type":"Polygon","coordinates":[[[-104.832694,42.918398],[-104.832706,42.914745],[-104.838365,42.914746],[-104.838325,42.918399],[-104.832694,42.918398]]]}},{"type":"Feature","properties":{"q":"3","ac":46.7},"geometry":{"type":"Polygon","coordinates":[[[-104.838697,42.889009],[-104.838648,42.892689],[-104.833005,42.892714],[-104.833028,42.889035],[-104.838697,42.889009]]]}},{"type":"Feature","properties":{"q":"SESE","ac":40.2},"geometry":{"type":"Polygon","coordinates":[[[-104.823146,42.900096],[-104.823062,42.903758],[-104.818148,42.903772],[-104.818247,42.900115],[-104.823146,42.900096]]]}},{"type":"Feature","properties":{"q":"1","ac":40.9},"geometry":{"type":"Polygon","coordinates":[[[-104.817674,42.954887],[-104.822649,42.954905],[-104.822631,42.958575],[-104.817662,42.958566],[-104.817674,42.954887]]]}},{"type":"Feature","properties":{"q":"NENE","ac":40.7},"geometry":{"type":"Polygon","coordinates":[[[-104.817773,42.940323],[-104.822741,42.940325],[-104.822726,42.943982],[-104.817753,42.94398],[-104.817773,42.940323]]]}},{"type":"Feature","properties":{"q":"2","ac":46.4},"geometry":{"type":"Polygon","coordinates":[[[-104.838457,42.907397],[-104.838411,42.911071],[-104.832768,42.911076],[-104.832831,42.907406],[-104.838457,42.907397]]]}},{"type":"Feature","properties":{"q":"NWSE","ac":40.7},"geometry":{"type":"Polygon","coordinates":[[[-104.827649,42.951284],[-104.822667,42.951271],[-104.822696,42.947626],[-104.827674,42.947634],[-104.827649,42.951284]]]}},{"type":"Feature","properties":{"q":"SENW","ac":40.6},"geometry":{"type":"Polygon","coordinates":[[[-104.832683,42.936672],[-104.832666,42.940329],[-104.827709,42.940327],[-104.82772,42.93667],[-104.832683,42.936672]]]}},{"type":"Feature","properties":{"q":"SENE","ac":40.9},"geometry":{"type":"Polygon","coordinates":[[[-104.82329,42.87808],[-104.823222,42.881746],[-104.818252,42.881781],[-104.818306,42.878118],[-104.82329,42.87808]]]}},{"type":"Feature","properties":{"q":"SESE","ac":40.6},"geometry":{"type":"Polygon","coordinates":[[[-104.822726,42.943982],[-104.822696,42.947626],[-104.817719,42.947619],[-104.817753,42.94398],[-104.822726,42.943982]]]}},{"type":"Feature","properties":{"q":"SWSE","ac":40.6},"geometry":{"type":"Polygon","coordinates":[[[-104.822787,42.929353],[-104.827743,42.929352],[-104.827731,42.933011],[-104.822771,42.933011],[-104.822787,42.929353]]]}},{"type":"Feature","properties":{"q":"SESE","ac":40.7},"geometry":{"type":"Polygon","coordinates":[[[-104.823155,42.885412],[-104.823152,42.889085],[-104.81821,42.889112],[-104.818198,42.885444],[-104.823155,42.885412]]]}},{"type":"Feature","properties":{"q":"NWSE","ac":40.6},"geometry":{"type":"Polygon","coordinates":[[[-104.827759,42.918398],[-104.827754,42.92205],[-104.822798,42.922049],[-104.822804,42.918396],[-104.827759,42.918398]]]}},{"type":"Feature","properties":{"q":"SESW","ac":40.5},"geometry":{"type":"Polygon","coordinates":[[[-104.832648,42.943986],[-104.832617,42.947641],[-104.827674,42.947634],[-104.827698,42.943984],[-104.832648,42.943986]]]}},{"type":"Feature","properties":{"q":"SWNE","ac":40.9},"geometry":{"type":"Polygon","coordinates":[[[-104.823222,42.881746],[-104.82329,42.87808],[-104.828274,42.878042],[-104.828193,42.881711],[-104.823222,42.881746]]]}},{"type":"Feature","properties":{"q":"SWSE","ac":40.6},"geometry":{"type":"Polygon","coordinates":[[[-104.827765,42.914745],[-104.827759,42.918398],[-104.822804,42.918396],[-104.822809,42.914743],[-104.827765,42.914745]]]}},{"type":"Feature","properties":{"q":"NENE","ac":40.6},"geometry":{"type":"Polygon","coordinates":[[[-104.822792,42.925701],[-104.822787,42.929353],[-104.817831,42.929354],[-104.817836,42.925701],[-104.822792,42.925701]]]}},{"type":"Feature","properties":{"q":"SENW","ac":40.5},"geometry":{"type":"Polygon","coordinates":[[[-104.827905,42.907414],[-104.832831,42.907406],[-104.832768,42.911076],[-104.827835,42.91108],[-104.827905,42.907414]]]}},{"type":"Feature","properties":{"q":"SWSE","ac":40.3},"geometry":{"type":"Polygon","coordinates":[[[-104.823062,42.903758],[-104.823146,42.900096],[-104.828045,42.900076],[-104.827975,42.903745],[-104.823062,42.903758]]]}},{"type":"Feature","properties":{"q":"7","ac":44.6},"geometry":{"type":"Polygon","coordinates":[[[-104.832648,42.943986],[-104.838108,42.943988],[-104.838046,42.947649],[-104.832617,42.947641],[-104.832648,42.943986]]]}},{"type":"Feature","properties":{"q":"4","ac":43.9},"geometry":{"type":"Polygon","coordinates":[[[-104.832568,42.954936],[-104.837952,42.954952],[-104.837921,42.958594],[-104.832551,42.958588],[-104.832568,42.954936]]]}}]}