{"type":"FeatureCollection","note":"BLM Public Land Survey System. Provided by the Bureau of Land Management as is. These data are neither legal documents nor land surveys and must not be used as such.","features":[{"type":"Feature","properties":{"q":"NESW","ac":40.4},"geometry":{"type":"Polygon","coordinates":[[[-106.813022,44.956195],[-106.81807,44.956189],[-106.818086,44.959876],[-106.813016,44.959878],[-106.813022,44.956195]]]}},{"type":"Feature","properties":{"q":"SWSW","ac":40.7},"geometry":{"type":"Polygon","coordinates":[[[-106.900085,44.952897],[-106.905286,44.952836],[-106.905287,44.956465],[-106.90011,44.956507],[-106.900085,44.952897]]]}},{"type":"Feature","properties":{"q":"NESE","ac":41.0},"geometry":{"type":"Polygon","coordinates":[[[-106.905287,44.956465],[-106.910497,44.956422],[-106.910497,44.96006],[-106.905289,44.960093],[-106.905287,44.956465]]]}},{"type":"Feature","properties":{"q":"SWSE","ac":40.5},"geometry":{"type":"Polygon","coordinates":[[[-106.869392,44.952746],[-106.874493,44.952798],[-106.874509,44.956456],[-106.8694,44.956411],[-106.869392,44.952746]]]}},{"type":"Feature","properties":{"q":"NESW","ac":41.0},"geometry":{"type":"Polygon","coordinates":[[[-106.854021,44.956308],[-106.859156,44.956337],[-106.85916,44.960016],[-106.85403,44.959994],[-106.854021,44.956308]]]}},{"type":"Feature","properties":{"q":"NWSW","ac":40.4},"geometry":{"type":"Polygon","coordinates":[[[-106.884727,44.956546],[-106.88476,44.960188],[-106.879643,44.960151],[-106.879618,44.956501],[-106.884727,44.956546]]]}},{"type":"Feature","properties":{"q":"NESE","ac":40.6},"geometry":{"type":"Polygon","coordinates":[[[-106.864291,44.956366],[-106.8694,44.956411],[-106.869408,44.960076],[-106.864291,44.960038],[-106.864291,44.956366]]]}},{"type":"Feature","properties":{"q":"SWSE","ac":41.1},"geometry":{"type":"Polygon","coordinates":[[[-106.910496,44.952785],[-106.915707,44.952734],[-106.915706,44.95638],[-106.910497,44.956422],[-106.910496,44.952785]]]}},{"type":"Feature","properties":{"q":"SWSW","ac":40.3},"geometry":{"type":"Polygon","coordinates":[[[-106.818055,44.952503],[-106.823081,44.952494],[-106.823118,44.956184],[-106.81807,44.956189],[-106.818055,44.952503]]]}},{"type":"Feature","properties":{"q":"NESW","ac":40.3},"geometry":{"type":"Polygon","coordinates":[[[-106.894932,44.95655],[-106.90011,44.956507],[-106.900135,44.960117],[-106.894981,44.960141],[-106.894932,44.95655]]]}},{"type":"Feature","properties":{"q":"SESE","ac":40.2},"geometry":{"type":"Polygon","coordinates":[[[-106.802977,44.952528],[-106.808003,44.95252],[-106.807974,44.9562],[-106.802926,44.956205],[-106.802977,44.952528]]]}},{"type":"Feature","properties":{"q":"NWSW","ac":40.9},"geometry":{"type":"Polygon","coordinates":[[[-106.859156,44.956337],[-106.864291,44.956366],[-106.864291,44.960038],[-106.85916,44.960016],[-106.859156,44.956337]]]}},{"type":"Feature","properties":{"q":"NESE","ac":41.1},"geometry":{"type":"Polygon","coordinates":[[[-106.843728,44.956265],[-106.848875,44.956287],[-106.848892,44.959972],[-106.843754,44.95995],[-106.843728,44.956265]]]}},{"type":"Feature","properties":{"q":"3","ac":40.6},"geometry":{"type":"Polygon","coordinates":[[[-106.920886,44.956336],[-106.926014,44.956293],[-106.925965,44.959959],[-106.920858,44.959992],[-106.920886,44.956336]]]}},{"type":"Feature","properties":{"q":"NWSW","ac":40.5},"geometry":{"type":"Polygon","coordinates":[[[-106.90011,44.956507],[-106.905287,44.956465],[-106.905289,44.960093],[-106.900135,44.960117],[-106.90011,44.956507]]]}},{"type":"Feature","properties":{"q":"NWSE","ac":41.1},"geometry":{"type":"Polygon","coordinates":[[[-106.915706,44.95638],[-106.915706,44.960026],[-106.910497,44.96006],[-106.910497,44.956422],[-106.915706,44.95638]]]}},{"type":"Feature","properties":{"q":"SESW","ac":40.5},"geometry":{"type":"Polygon","coordinates":[[[-106.894884,44.952958],[-106.900085,44.952897],[-106.90011,44.956507],[-106.894932,44.95655],[-106.894884,44.952958]]]}},{"type":"Feature","properties":{"q":"NWSE","ac":41.1},"geometry":{"type":"Polygon","coordinates":[[[-106.848875,44.956287],[-106.854021,44.956308],[-106.85403,44.959994],[-106.848892,44.959972],[-106.848875,44.956287]]]}},{"type":"Feature","properties":{"q":"SWSW","ac":41.2},"geometry":{"type":"Polygon","coordinates":[[[-106.843702,44.952579],[-106.843728,44.956265],[-106.838575,44.956245],[-106.838547,44.952558],[-106.843702,44.952579]]]}},{"type":"Feature","properties":{"q":"SESW","ac":40.2},"geometry":{"type":"Polygon","coordinates":[[[-106.813022,44.956195],[-106.813029,44.952511],[-106.818055,44.952503],[-106.81807,44.956189],[-106.813022,44.956195]]]}},{"type":"Feature","properties":{"q":"SESW","ac":41.1},"geometry":{"type":"Polygon","coordinates":[[[-106.915706,44.95638],[-106.915707,44.952734],[-106.920913,44.95268],[-106.920886,44.956336],[-106.915706,44.95638]]]}},{"type":"Feature","properties":{"q":"NWSE","ac":40.6},"geometry":{"type":"Polygon","coordinates":[[[-106.8694,44.956411],[-106.874509,44.956456],[-106.874525,44.960114],[-106.869408,44.960076],[-106.8694,44.956411]]]}},{"type":"Feature","properties":{"q":"SWSW","ac":40.3},"geometry":{"type":"Polygon","coordinates":[[[-106.884695,44.952904],[-106.884727,44.956546],[-106.879618,44.956501],[-106.879594,44.952851],[-106.884695,44.952904]]]}},{"type":"Feature","properties":{"q":"SWSE","ac":39.8},"geometry":{"type":"Polygon","coordinates":[[[-106.889789,44.952931],[-106.894884,44.952958],[-106.894932,44.95655],[-106.88983,44.956548],[-106.889789,44.952931]]]}},{"type":"Feature","properties":{"q":"NWSE","ac":39.9},"geometry":{"type":"Polygon","coordinates":[[[-106.894932,44.95655],[-106.894981,44.960141],[-106.88987,44.960165],[-106.88983,44.956548],[-106.894932,44.95655]]]}},{"type":"Feature","properties":{"q":"SESW","ac":41.0},"geometry":{"type":"Polygon","coordinates":[[[-106.859152,44.952658],[-106.859156,44.956337],[-106.854021,44.956308],[-106.854013,44.952623],[-106.859152,44.952658]]]}},{"type":"Feature","properties":{"q":"SESE","ac":41.2},"geometry":{"type":"Polygon","coordinates":[[[-106.823118,44.956184],[-106.823081,44.952494],[-106.828236,44.952516],[-106.828271,44.956204],[-106.823118,44.956184]]]}},{"type":"Feature","properties":{"q":"SESE","ac":40.6},"geometry":{"type":"Polygon","coordinates":[[[-106.864291,44.952693],[-106.869392,44.952746],[-106.8694,44.956411],[-106.864291,44.956366],[-106.864291,44.952693]]]}},{"type":"Feature","properties":{"q":"SESE","ac":41.0},"geometry":{"type":"Polygon","coordinates":[[[-106.905286,44.952836],[-106.910496,44.952785],[-106.910497,44.956422],[-106.905287,44.956465],[-106.905286,44.952836]]]}},{"type":"Feature","properties":{"q":"NESW","ac":40.5},"geometry":{"type":"Polygon","coordinates":[[[-106.874509,44.956456],[-106.879618,44.956501],[-106.879643,44.960151],[-106.874525,44.960114],[-106.874509,44.956456]]]}},{"type":"Feature","properties":{"q":"SESE","ac":41.1},"geometry":{"type":"Polygon","coordinates":[[[-106.843728,44.956265],[-106.843702,44.952579],[-106.848857,44.952601],[-106.848875,44.956287],[-106.843728,44.956265]]]}},{"type":"Feature","properties":{"q":"NESE","ac":40.3},"geometry":{"type":"Polygon","coordinates":[[[-106.807974,44.9562],[-106.807946,44.959881],[-106.802876,44.959883],[-106.802926,44.956205],[-106.807974,44.9562]]]}},{"type":"Feature","properties":{"q":"NESW","ac":40.9},"geometry":{"type":"Polygon","coordinates":[[[-106.920886,44.956336],[-106.920858,44.959992],[-106.915706,44.960026],[-106.915706,44.95638],[-106.920886,44.956336]]]}},{"type":"Feature","properties":{"q":"SWSE","ac":41.1},"geometry":{"type":"Polygon","coordinates":[[[-106.848875,44.956287],[-106.848857,44.952601],[-106.854013,44.952623],[-106.854021,44.956308],[-106.848875,44.956287]]]}},{"type":"Feature","properties":{"q":"SWSE","ac":41.2},"geometry":{"type":"Polygon","coordinates":[[[-106.828236,44.952516],[-106.833392,44.952537],[-106.833423,44.956224],[-106.828271,44.956204],[-106.828236,44.952516]]]}},{"type":"Feature","properties":{"q":"NWSW","ac":41.1},"geometry":{"type":"Polygon","coordinates":[[[-106.843728,44.956265],[-106.843754,44.95995],[-106.838604,44.959931],[-106.838575,44.956245],[-106.843728,44.956265]]]}},{"type":"Feature","properties":{"q":"NWSW","ac":40.4},"geometry":{"type":"Polygon","coordinates":[[[-106.823118,44.956184],[-106.823156,44.959873],[-106.818086,44.959876],[-106.81807,44.956189],[-106.823118,44.956184]]]}},{"type":"Feature","properties":{"q":"SWSE","ac":40.2},"geometry":{"type":"Polygon","coordinates":[[[-106.808003,44.95252],[-106.813029,44.952511],[-106.813022,44.956195],[-106.807974,44.9562],[-106.808003,44.95252]]]}},{"type":"Feature","properties":{"q":"SWSW","ac":40.9},"geometry":{"type":"Polygon","coordinates":[[[-106.859156,44.956337],[-106.859152,44.952658],[-106.864291,44.952693],[-106.864291,44.956366],[-106.859156,44.956337]]]}},{"type":"Feature","properties":{"q":"NWSE","ac":41.2},"geometry":{"type":"Polygon","coordinates":[[[-106.833423,44.956224],[-106.833455,44.959912],[-106.828305,44.959893],[-106.828271,44.956204],[-106.833423,44.956224]]]}},{"type":"Feature","properties":{"q":"NESW","ac":41.1},"geometry":{"type":"Polygon","coordinates":[[[-106.838575,44.956245],[-106.838604,44.959931],[-106.833455,44.959912],[-106.833423,44.956224],[-106.838575,44.956245]]]}},{"type":"Feature","properties":{"q":"SESW","ac":40.4},"geometry":{"type":"Polygon","coordinates":[[[-106.874493,44.952798],[-106.879594,44.952851],[-106.879618,44.956501],[-106.874509,44.956456],[-106.874493,44.952798]]]}},{"type":"Feature","properties":{"q":"SESE","ac":40.1},"geometry":{"type":"Polygon","coordinates":[[[-106.884695,44.952904],[-106.889789,44.952931],[-106.88983,44.956548],[-106.884727,44.956546],[-106.884695,44.952904]]]}},{"type":"Feature","properties":{"q":"SESW","ac":41.2},"geometry":{"type":"Polygon","coordinates":[[[-106.833392,44.952537],[-106.838547,44.952558],[-106.838575,44.956245],[-106.833423,44.956224],[-106.833392,44.952537]]]}},{"type":"Feature","properties":{"q":"NESE","ac":41.2},"geometry":{"type":"Polygon","coordinates":[[[-106.823156,44.959873],[-106.823118,44.956184],[-106.828271,44.956204],[-106.828305,44.959893],[-106.823156,44.959873]]]}},{"type":"Feature","properties":{"q":"NWSE","ac":40.4},"geometry":{"type":"Polygon","coordinates":[[[-106.807974,44.9562],[-106.813022,44.956195],[-106.813016,44.959878],[-106.807946,44.959881],[-106.807974,44.9562]]]}},{"type":"Feature","properties":{"q":"4","ac":40.8},"geometry":{"type":"Polygon","coordinates":[[[-106.920913,44.95268],[-106.926064,44.952628],[-106.926014,44.956293],[-106.920886,44.956336],[-106.920913,44.95268]]]}},{"type":"Feature","properties":{"q":"NESE","ac":40.2},"geometry":{"type":"Polygon","coordinates":[[[-106.884727,44.956546],[-106.88983,44.956548],[-106.88987,44.960165],[-106.88476,44.960188],[-106.884727,44.956546]]]}},{"type":"Feature","properties":{"q":"SWNW","ac":40.4},"geometry":{"type":"Polygon","coordinates":[[[-106.838605,44.989355],[-106.843734,44.989367],[-106.843723,44.993004],[-106.838594,44.992991],[-106.838605,44.989355]]]}},{"type":"Feature","properties":{"q":"NENE","ac":40.7},"geometry":{"type":"Polygon","coordinates":[[[-106.802826,44.96356],[-106.807917,44.963561],[-106.807889,44.967241],[-106.802775,44.967237],[-106.802826,44.96356]]]}},{"type":"Feature","properties":{"q":"NESE","ac":40.6},"geometry":{"type":"Polygon","coordinates":[[[-106.905425,44.970989],[-106.910577,44.970977],[-106.910636,44.974632],[-106.905519,44.974634],[-106.905425,44.970989]]]}},{"type":"Feature","properties":{"q":"SWSE","ac":41.0},"geometry":{"type":"Polygon","coordinates":[[[-106.910518,44.967322],[-106.915704,44.967301],[-106.915729,44.970965],[-106.910577,44.970977],[-106.910518,44.967322]]]}},{"type":"Feature","properties":{"q":"SWNW","ac":40.8},"geometry":{"type":"Polygon","coordinates":[[[-106.859167,44.974719],[-106.864292,44.974728],[-106.864292,44.978401],[-106.859165,44.978395],[-106.859167,44.974719]]]}},{"type":"Feature","properties":{"q":"SWNW","ac":40.0},"geometry":{"type":"Polygon","coordinates":[[[-106.818111,44.989288],[-106.823202,44.989317],[-106.823197,44.992954],[-106.818114,44.992922],[-106.818111,44.989288]]]}},{"type":"Feature","properties":{"q":"SWSW","ac":40.6},"geometry":{"type":"Polygon","coordinates":[[[-106.838638,44.982048],[-106.843777,44.982061],[-106.843756,44.985714],[-106.838622,44.985702],[-106.838638,44.982048]]]}},{"type":"Feature","properties":{"q":"2","ac":31.7},"geometry":{"type":"Polygon","coordinates":[[[-106.848845,44.995842],[-106.848855,44.993002],[-106.853987,44.993],[-106.853974,44.99586],[-106.853182,44.995857],[-106.848845,44.995842]]]}},{"type":"Feature","properties":{"q":"NWNE","ac":40.9},"geometry":{"type":"Polygon","coordinates":[[[-106.854038,44.978389],[-106.854035,44.982067],[-106.848906,44.982064],[-106.848911,44.978382],[-106.854038,44.978389]]]}},{"type":"Feature","properties":{"q":"2","ac":31.2},"geometry":{"type":"Polygon","coordinates":[[[-106.828331,44.992966],[-106.833464,44.992978],[-106.833455,44.995785],[-106.832449,44.995782],[-106.828325,44.995767],[-106.828331,44.992966]]]}},{"type":"Feature","properties":{"q":"SWSE","ac":40.6},"geometry":{"type":"Polygon","coordinates":[[[-106.895138,44.971059],[-106.889994,44.971094],[-106.889952,44.96744],[-106.895079,44.967408],[-106.895138,44.971059]]]}},{"type":"Feature","properties":{"q":"3","ac":31.0},"geometry":{"type":"Polygon","coordinates":[[[-106.818114,44.992922],[-106.818117,44.99573],[-106.8169,44.995725],[-106.813039,44.995711],[-106.813031,44.992889],[-106.818114,44.992922]]]}},{"type":"Feature","properties":{"q":"SENW","ac":40.9},"geometry":{"type":"Polygon","coordinates":[[[-106.85916,44.960016],[-106.859165,44.963692],[-106.854039,44.963673],[-106.85403,44.959994],[-106.85916,44.960016]]]}},{"type":"Feature","properties":{"q":"SWSE","ac":41.0},"geometry":{"type":"Polygon","coordinates":[[[-106.869451,44.98208],[-106.874609,44.982086],[-106.874717,44.985731],[-106.869493,44.985725],[-106.869451,44.98208]]]}},{"type":"Feature","properties":{"q":"SENE","ac":40.9},"geometry":{"type":"Polygon","coordinates":[[[-106.890078,44.978401],[-106.8849,44.978442],[-106.884875,44.974785],[-106.890036,44.974748],[-106.890078,44.978401]]]}},{"type":"Feature","properties":{"q":"2","ac":34.7},"geometry":{"type":"Polygon","coordinates":[[[-106.915579,44.992943],[-106.915515,44.996082],[-106.914796,44.996079],[-106.910403,44.996064],[-106.910429,44.992954],[-106.915579,44.992943]]]}},{"type":"Feature","properties":{"q":"SWNW","ac":40.5},"geometry":{"type":"Polygon","coordinates":[[[-106.879643,44.960151],[-106.88476,44.960188],[-106.884793,44.963831],[-106.879667,44.963801],[-106.879643,44.960151]]]}},{"type":"Feature","properties":{"q":"NWNE","ac":41.1},"geometry":{"type":"Polygon","coordinates":[[[-106.828374,44.967269],[-106.828339,44.963581],[-106.833486,44.963599],[-106.833518,44.967286],[-106.828374,44.967269]]]}},{"type":"Feature","properties":{"q":"SESW","ac":40.8},"geometry":{"type":"Polygon","coordinates":[[[-106.854048,44.967351],[-106.859169,44.967367],[-106.859168,44.971043],[-106.854044,44.971031],[-106.854048,44.967351]]]}},{"type":"Feature","properties":{"q":"NESW","ac":40.7},"geometry":{"type":"Polygon","coordinates":[[[-106.895138,44.971059],[-106.900282,44.971024],[-106.900358,44.974672],[-106.895197,44.97471],[-106.895138,44.971059]]]}},{"type":"Feature","properties":{"q":"NENE","ac":40.0},"geometry":{"type":"Polygon","coordinates":[[[-106.905612,44.97828],[-106.910695,44.978283],[-106.910753,44.981934],[-106.905706,44.981926],[-106.905612,44.97828]]]}},{"type":"Feature","properties":{"q":"NESE","ac":41.1},"geometry":{"type":"Polygon","coordinates":[[[-106.823228,44.970942],[-106.82837,44.970958],[-106.828367,44.974646],[-106.823226,44.974631],[-106.823228,44.970942]]]}},{"type":"Feature","properties":{"q":"NWNW","ac":40.8},"geometry":{"type":"Polygon","coordinates":[[[-106.859165,44.963692],[-106.86429,44.96371],[-106.86429,44.967383],[-106.859169,44.967367],[-106.859165,44.963692]]]}},{"type":"Feature","properties":{"q":"SENW","ac":40.9},"geometry":{"type":"Polygon","coordinates":[[[-106.895256,44.978361],[-106.895197,44.97471],[-106.900358,44.974672],[-106.900434,44.978321],[-106.895256,44.978361]]]}},{"type":"Feature","properties":{"q":"NESW","ac":41.1},"geometry":{"type":"Polygon","coordinates":[[[-106.838656,44.970989],[-106.83865,44.974676],[-106.833508,44.974661],[-106.833513,44.970974],[-106.838656,44.970989]]]}},{"type":"Feature","properties":{"q":"SENW","ac":41.1},"geometry":{"type":"Polygon","coordinates":[[[-106.838604,44.959931],[-106.838633,44.963617],[-106.833486,44.963599],[-106.833455,44.959912],[-106.838604,44.959931]]]}},{"type":"Feature","properties":{"q":"SWNW","ac":40.8},"geometry":{"type":"Polygon","coordinates":[[[-106.905519,44.974634],[-106.905612,44.97828],[-106.900434,44.978321],[-106.900358,44.974672],[-106.905519,44.974634]]]}},{"type":"Feature","properties":{"q":"NENE","ac":41.1},"geometry":{"type":"Polygon","coordinates":[[[-106.884924,44.982098],[-106.8849,44.978442],[-106.890078,44.978401],[-106.89012,44.982055],[-106.884924,44.982098]]]}},{"type":"Feature","properties":{"q":"SENW","ac":40.7},"geometry":{"type":"Polygon","coordinates":[[[-106.915706,44.960026],[-106.920858,44.959992],[-106.920853,44.963644],[-106.915705,44.963663],[-106.915706,44.960026]]]}},{"type":"Feature","properties":{"q":"NWSW","ac":39.8},"geometry":{"type":"Polygon","coordinates":[[[-106.884876,44.985741],[-106.884828,44.989383],[-106.879826,44.989379],[-106.879796,44.985736],[-106.884876,44.985741]]]}},{"type":"Feature","properties":{"q":"NWNE","ac":40.9},"geometry":{"type":"Polygon","coordinates":[[[-106.869444,44.978412],[-106.874596,44.978422],[-106.874609,44.982086],[-106.869451,44.98208],[-106.869444,44.978412]]]}},{"type":"Feature","properties":{"q":"NESE","ac":40.1},"geometry":{"type":"Polygon","coordinates":[[[-106.802853,44.989201],[-106.802814,44.985569],[-106.807912,44.985593],[-106.807936,44.98923],[-106.802853,44.989201]]]}},{"type":"Feature","properties":{"q":"4","ac":33.9},"geometry":{"type":"Polygon","coordinates":[[[-106.90019,44.992976],[-106.90528,44.992964],[-106.905291,44.996045],[-106.904558,44.996042],[-106.902077,44.996033],[-106.900166,44.996027],[-106.90019,44.992976]]]}},{"type":"Feature","properties":{"q":"SWSE","ac":40.7},"geometry":{"type":"Polygon","coordinates":[[[-106.82836,44.982022],[-106.833499,44.982035],[-106.833488,44.985689],[-106.828349,44.985676],[-106.82836,44.982022]]]}},{"type":"Feature","properties":{"q":"SENE","ac":41.1},"geometry":{"type":"Polygon","coordinates":[[[-106.823223,44.97832],[-106.823226,44.974631],[-106.828367,44.974646],[-106.828364,44.978334],[-106.823223,44.97832]]]}},{"type":"Feature","properties":{"q":"1","ac":31.2},"geometry":{"type":"Polygon","coordinates":[[[-106.806535,44.995688],[-106.802884,44.995675],[-106.802872,44.992826],[-106.807951,44.992858],[-106.807962,44.995693],[-106.806535,44.995688]]]}},{"type":"Feature","properties":{"q":"SWNW","ac":41.0},"geometry":{"type":"Polygon","coordinates":[[[-106.843784,44.978376],[-106.838644,44.978362],[-106.83865,44.974676],[-106.843791,44.97469],[-106.843784,44.978376]]]}},{"type":"Feature","properties":{"q":"SENE","ac":40.3},"geometry":{"type":"Polygon","coordinates":[[[-106.884793,44.963831],[-106.88476,44.960188],[-106.88987,44.960165],[-106.889911,44.963803],[-106.884793,44.963831]]]}},{"type":"Feature","properties":{"q":"SWSW","ac":41.1},"geometry":{"type":"Polygon","coordinates":[[[-106.843805,44.96732],[-106.843798,44.971005],[-106.838656,44.970989],[-106.838661,44.967303],[-106.843805,44.96732]]]}},{"type":"Feature","properties":{"q":"NWNW","ac":40.8},"geometry":{"type":"Polygon","coordinates":[[[-106.864293,44.982074],[-106.859164,44.982071],[-106.859165,44.978395],[-106.864292,44.978401],[-106.864293,44.982074]]]}},{"type":"Feature","properties":{"q":"NWSW","ac":40.8},"geometry":{"type":"Polygon","coordinates":[[[-106.864292,44.974728],[-106.859167,44.974719],[-106.859168,44.971043],[-106.864291,44.971056],[-106.864292,44.974728]]]}},{"type":"Feature","properties":{"q":"SENW","ac":40.8},"geometry":{"type":"Polygon","coordinates":[[[-106.874583,44.974757],[-106.879729,44.974771],[-106.879748,44.978432],[-106.874596,44.978422],[-106.874583,44.974757]]]}},{"type":"Feature","properties":{"q":"NESW","ac":39.8},"geometry":{"type":"Polygon","coordinates":[[[-106.874717,44.985731],[-106.879796,44.985736],[-106.879826,44.989379],[-106.874824,44.989375],[-106.874717,44.985731]]]}},{"type":"Feature","properties":{"q":"4","ac":32.1},"geometry":{"type":"Polygon","coordinates":[[[-106.859113,44.992999],[-106.864236,44.992998],[-106.864229,44.995897],[-106.863548,44.995894],[-106.861267,44.995886],[-106.859103,44.995879],[-106.859113,44.992999]]]}},{"type":"Feature","properties":{"q":"SWNE","ac":40.9},"geometry":{"type":"Polygon","coordinates":[[[-106.874583,44.974757],[-106.874596,44.978422],[-106.869444,44.978412],[-106.869437,44.974743],[-106.874583,44.974757]]]}},{"type":"Feature","properties":{"q":"NWSE","ac":40.7},"geometry":{"type":"Polygon","coordinates":[[[-106.910577,44.970977],[-106.915729,44.970965],[-106.915753,44.974628],[-106.910636,44.974632],[-106.910577,44.970977]]]}},{"type":"Feature","properties":{"q":"NWNW","ac":40.8},"geometry":{"type":"Polygon","coordinates":[[[-106.818111,44.978305],[-106.823223,44.97832],[-106.823221,44.982009],[-106.81811,44.981991],[-106.818111,44.978305]]]}},{"type":"Feature","properties":{"q":"SWNW","ac":38.5},"geometry":{"type":"Polygon","coordinates":[[[-106.884804,44.993015],[-106.88001,44.993011],[-106.879826,44.989379],[-106.884828,44.989383],[-106.884804,44.993015]]]}},{"type":"Feature","properties":{"q":"NWNW","ac":40.5},"geometry":{"type":"Polygon","coordinates":[[[-106.884826,44.967473],[-106.879692,44.96745],[-106.879667,44.963801],[-106.884793,44.963831],[-106.884826,44.967473]]]}},{"type":"Feature","properties":{"q":"3","ac":31.9},"geometry":{"type":"Polygon","coordinates":[[[-106.853987,44.993],[-106.859113,44.992999],[-106.859103,44.995879],[-106.858365,44.995876],[-106.853974,44.99586],[-106.853987,44.993]]]}},{"type":"Feature","properties":{"q":"NESE","ac":40.9},"geometry":{"type":"Polygon","coordinates":[[[-106.884876,44.985741],[-106.89006,44.98571],[-106.89,44.989365],[-106.884828,44.989383],[-106.884876,44.985741]]]}},{"type":"Feature","properties":{"q":"SWSE","ac":40.8},"geometry":{"type":"Polygon","coordinates":[[[-106.874571,44.971093],[-106.869431,44.971074],[-106.869424,44.967405],[-106.874558,44.967428],[-106.874571,44.971093]]]}},{"type":"Feature","properties":{"q":"NESE","ac":40.6},"geometry":{"type":"Polygon","coordinates":[[[-106.843756,44.985714],[-106.848887,44.985716],[-106.848868,44.989367],[-106.843734,44.989367],[-106.843756,44.985714]]]}},{"type":"Feature","properties":{"q":"NWSW","ac":40.8},"geometry":{"type":"Polygon","coordinates":[[[-106.87971,44.971111],[-106.88485,44.971129],[-106.884875,44.974785],[-106.879729,44.974771],[-106.87971,44.971111]]]}},{"type":"Feature","properties":{"q":"SESW","ac":40.3},"geometry":{"type":"Polygon","coordinates":[[[-106.812998,44.981973],[-106.81811,44.981991],[-106.81811,44.98564],[-106.813009,44.985616],[-106.812998,44.981973]]]}},{"type":"Feature","properties":{"q":"SWSW","ac":41.2},"geometry":{"type":"Polygon","coordinates":[[[-106.900511,44.981969],[-106.905706,44.981926],[-106.905485,44.985617],[-106.900364,44.985648],[-106.900511,44.981969]]]}},{"type":"Feature","properties":{"q":"SENE","ac":40.3},"geometry":{"type":"Polygon","coordinates":[[[-106.905612,44.97828],[-106.905519,44.974634],[-106.910636,44.974632],[-106.910695,44.978283],[-106.905612,44.97828]]]}},{"type":"Feature","properties":{"q":"SESE","ac":40.9},"geometry":{"type":"Polygon","coordinates":[[[-106.843805,44.96732],[-106.848926,44.967336],[-106.848921,44.971018],[-106.843798,44.971005],[-106.843805,44.96732]]]}},{"type":"Feature","properties":{"q":"SWSE","ac":40.5},"geometry":{"type":"Polygon","coordinates":[[[-106.910753,44.981934],[-106.915801,44.981942],[-106.915727,44.985618],[-106.910606,44.985618],[-106.910753,44.981934]]]}},{"type":"Feature","properties":{"q":"NENW","ac":40.8},"geometry":{"type":"Polygon","coordinates":[[[-106.854038,44.978389],[-106.859165,44.978395],[-106.859164,44.982071],[-106.854035,44.982067],[-106.854038,44.978389]]]}},{"type":"Feature","properties":{"q":"NENW","ac":40.9},"geometry":{"type":"Polygon","coordinates":[[[-106.874596,44.978422],[-106.879748,44.978432],[-106.879767,44.982092],[-106.874609,44.982086],[-106.874596,44.978422]]]}},{"type":"Feature","properties":{"q":"SWNE","ac":41.1},"geometry":{"type":"Polygon","coordinates":[[[-106.828305,44.959893],[-106.833455,44.959912],[-106.833486,44.963599],[-106.828339,44.963581],[-106.828305,44.959893]]]}},{"type":"Feature","properties":{"q":"NESE","ac":40.9},"geometry":{"type":"Polygon","coordinates":[[[-106.848921,44.971018],[-106.848916,44.9747],[-106.843791,44.97469],[-106.843798,44.971005],[-106.848921,44.971018]]]}},{"type":"Feature","properties":{"q":"NWSE","ac":40.8},"geometry":{"type":"Polygon","coordinates":[[[-106.813001,44.970927],[-106.813,44.974609],[-106.807888,44.974598],[-106.807888,44.97092],[-106.813001,44.970927]]]}},{"type":"Feature","properties":{"q":"3","ac":34.9},"geometry":{"type":"Polygon","coordinates":[[[-106.915579,44.992943],[-106.920708,44.992942],[-106.920628,44.996099],[-106.919889,44.996097],[-106.915515,44.996082],[-106.915579,44.992943]]]}},{"type":"Feature","properties":{"q":"SENW","ac":40.5},"geometry":{"type":"Polygon","coordinates":[[[-106.89503,44.963775],[-106.894981,44.960141],[-106.900135,44.960117],[-106.90017,44.963746],[-106.89503,44.963775]]]}},{"type":"Feature","properties":{"q":"NESW","ac":40.8},"geometry":{"type":"Polygon","coordinates":[[[-106.920892,44.974625],[-106.915753,44.974628],[-106.915729,44.970965],[-106.920869,44.97096],[-106.920892,44.974625]]]}},{"type":"Feature","properties":{"q":"1","ac":31.1},"geometry":{"type":"Polygon","coordinates":[[[-106.823197,44.992954],[-106.828331,44.992966],[-106.828325,44.995767],[-106.827265,44.995763],[-106.823194,44.995748],[-106.823197,44.992954]]]}},{"type":"Feature","properties":{"q":"SWNW","ac":40.1},"geometry":{"type":"Polygon","coordinates":[[[-106.905265,44.989309],[-106.90528,44.992964],[-106.90019,44.992976],[-106.900218,44.989327],[-106.905265,44.989309]]]}},{"type":"Feature","properties":{"q":"SENE","ac":40.9},"geometry":{"type":"Polygon","coordinates":[[[-106.905265,44.989309],[-106.910459,44.989302],[-106.910429,44.992954],[-106.90528,44.992964],[-106.905265,44.989309]]]}},{"type":"Feature","properties":{"q":"NWSE","ac":40.8},"geometry":{"type":"Polygon","coordinates":[[[-106.874571,44.971093],[-106.874583,44.974757],[-106.869437,44.974743],[-106.869431,44.971074],[-106.874571,44.971093]]]}},{"type":"Feature","properties":{"q":"SESE","ac":40.6},"geometry":{"type":"Polygon","coordinates":[[[-106.905706,44.981926],[-106.910753,44.981934],[-106.910606,44.985618],[-106.905485,44.985617],[-106.905706,44.981926]]]}},{"type":"Feature","properties":{"q":"1","ac":40.7},"geometry":{"type":"Polygon","coordinates":[[[-106.925991,44.981953],[-106.920874,44.981948],[-106.920883,44.978287],[-106.926013,44.978288],[-106.925991,44.981953]]]}},{"type":"Feature","properties":{"q":"SENW","ac":40.3},"geometry":{"type":"Polygon","coordinates":[[[-106.854003,44.989367],[-106.859125,44.989366],[-106.859113,44.992999],[-106.853987,44.993],[-106.854003,44.989367]]]}},{"type":"Feature","properties":{"q":"5","ac":41.1},"geometry":{"type":"Polygon","coordinates":[[[-106.920802,44.989287],[-106.925951,44.989279],[-106.925929,44.992942],[-106.920708,44.992942],[-106.920802,44.989287]]]}},{"type":"Feature","properties":{"q":"NESW","ac":40.8},"geometry":{"type":"Polygon","coordinates":[[[-106.915653,44.989294],[-106.915727,44.985618],[-106.920838,44.985617],[-106.920802,44.989287],[-106.915653,44.989294]]]}},{"type":"Feature","properties":{"q":"SENE","ac":42.4},"geometry":{"type":"Polygon","coordinates":[[[-106.869536,44.989371],[-106.869726,44.993003],[-106.864236,44.992998],[-106.864248,44.989366],[-106.869536,44.989371]]]}},{"type":"Feature","properties":{"q":"NWSE","ac":41.5},"geometry":{"type":"Polygon","coordinates":[[[-106.869493,44.985725],[-106.874717,44.985731],[-106.874824,44.989375],[-106.869536,44.989371],[-106.869493,44.985725]]]}},{"type":"Feature","properties":{"q":"NENE","ac":40.7},"geometry":{"type":"Polygon","coordinates":[[[-106.807887,44.978277],[-106.807887,44.981955],[-106.802775,44.981937],[-106.802775,44.978262],[-106.807887,44.978277]]]}},{"type":"Feature","properties":{"q":"4","ac":30.8},"geometry":{"type":"Polygon","coordinates":[[[-106.823197,44.992954],[-106.823194,44.995748],[-106.822083,44.995744],[-106.820457,44.995738],[-106.818117,44.99573],[-106.818114,44.992922],[-106.823197,44.992954]]]}},{"type":"Feature","properties":{"q":"SENE","ac":41.1},"geometry":{"type":"Polygon","coordinates":[[[-106.828339,44.963581],[-106.823193,44.963563],[-106.823156,44.959873],[-106.828305,44.959893],[-106.828339,44.963581]]]}},{"type":"Feature","properties":{"q":"SENE","ac":40.4},"geometry":{"type":"Polygon","coordinates":[[[-106.823197,44.992954],[-106.823202,44.989317],[-106.828339,44.98933],[-106.828331,44.992966],[-106.823197,44.992954]]]}},{"type":"Feature","properties":{"q":"SWSE","ac":41.1},"geometry":{"type":"Polygon","coordinates":[[[-106.895315,44.982012],[-106.895243,44.985679],[-106.89006,44.98571],[-106.89012,44.982055],[-106.895315,44.982012]]]}},{"type":"Feature","properties":{"q":"7","ac":40.7},"geometry":{"type":"Polygon","coordinates":[[[-106.925991,44.981953],[-106.925971,44.985616],[-106.920838,44.985617],[-106.920874,44.981948],[-106.925991,44.981953]]]}},{"type":"Feature","properties":{"q":"SWNE","ac":40.9},"geometry":{"type":"Polygon","coordinates":[[[-106.895197,44.97471],[-106.895256,44.978361],[-106.890078,44.978401],[-106.890036,44.974748],[-106.895197,44.97471]]]}},{"type":"Feature","properties":{"q":"1","ac":33.1},"geometry":{"type":"Polygon","coordinates":[[[-106.884788,44.99597],[-106.884804,44.993015],[-106.889953,44.993001],[-106.889914,44.995989],[-106.889125,44.995986],[-106.884788,44.99597]]]}},{"type":"Feature","properties":{"q":"NENW","ac":41.0},"geometry":{"type":"Polygon","coordinates":[[[-106.833504,44.978348],[-106.838644,44.978362],[-106.838638,44.982048],[-106.833499,44.982035],[-106.833504,44.978348]]]}},{"type":"Feature","properties":{"q":"NWSW","ac":40.5},"geometry":{"type":"Polygon","coordinates":[[[-106.859145,44.985719],[-106.86427,44.98572],[-106.864248,44.989366],[-106.859125,44.989366],[-106.859145,44.985719]]]}},{"type":"Feature","properties":{"q":"NWNE","ac":40.7},"geometry":{"type":"Polygon","coordinates":[[[-106.874542,44.963771],[-106.874558,44.967428],[-106.869424,44.967405],[-106.869416,44.963741],[-106.874542,44.963771]]]}},{"type":"Feature","properties":{"q":"NWNW","ac":41.1},"geometry":{"type":"Polygon","coordinates":[[[-106.838661,44.967303],[-106.838633,44.963617],[-106.843779,44.963635],[-106.843805,44.96732],[-106.838661,44.967303]]]}},{"type":"Feature","properties":{"q":"SENE","ac":40.9},"geometry":{"type":"Polygon","coordinates":[[[-106.864292,44.974728],[-106.869437,44.974743],[-106.869444,44.978412],[-106.864292,44.978401],[-106.864292,44.974728]]]}},{"type":"Feature","properties":{"q":"SESW","ac":40.8},"geometry":{"type":"Polygon","coordinates":[[[-106.879692,44.96745],[-106.87971,44.971111],[-106.874571,44.971093],[-106.874558,44.967428],[-106.879692,44.96745]]]}},{"type":"Feature","properties":{"q":"SESW","ac":40.5},"geometry":{"type":"Polygon","coordinates":[[[-106.854035,44.982067],[-106.859164,44.982071],[-106.859145,44.985719],[-106.854019,44.985717],[-106.854035,44.982067]]]}},{"type":"Feature","properties":{"q":"SWNE","ac":40.9},"geometry":{"type":"Polygon","coordinates":[[[-106.848916,44.9747],[-106.854041,44.97471],[-106.854038,44.978389],[-106.848911,44.978382],[-106.848916,44.9747]]]}},{"type":"Feature","properties":{"q":"SWSW","ac":40.4},"geometry":{"type":"Polygon","coordinates":[[[-106.879767,44.982092],[-106.884924,44.982098],[-106.884876,44.985741],[-106.879796,44.985736],[-106.879767,44.982092]]]}},{"type":"Feature","properties":{"q":"SWSE","ac":40.8},"geometry":{"type":"Polygon","coordinates":[[[-106.807889,44.967241],[-106.813003,44.967245],[-106.813001,44.970927],[-106.807888,44.97092],[-106.807889,44.967241]]]}},{"type":"Feature","properties":{"q":"NENW","ac":41.0},"geometry":{"type":"Polygon","coordinates":[[[-106.895256,44.978361],[-106.900434,44.978321],[-106.900511,44.981969],[-106.895315,44.982012],[-106.895256,44.978361]]]}},{"type":"Feature","properties":{"q":"4","ac":36.0},"geometry":{"type":"Polygon","coordinates":[[[-106.920708,44.992942],[-106.925929,44.992942],[-106.925911,44.996115],[-106.924982,44.996113],[-106.922485,44.996106],[-106.920628,44.996099],[-106.920708,44.992942]]]}},{"type":"Feature","properties":{"q":"2","ac":33.4},"geometry":{"type":"Polygon","coordinates":[[[-106.889953,44.993001],[-106.895099,44.992988],[-106.89504,44.996008],[-106.89427,44.996005],[-106.889914,44.995989],[-106.889953,44.993001]]]}},{"type":"Feature","properties":{"q":"SWNE","ac":40.8},"geometry":{"type":"Polygon","coordinates":[[[-106.812999,44.978291],[-106.807887,44.978277],[-106.807888,44.974598],[-106.813,44.974609],[-106.812999,44.978291]]]}},{"type":"Feature","properties":{"q":"SENW","ac":40.4},"geometry":{"type":"Polygon","coordinates":[[[-106.833476,44.989343],[-106.838605,44.989355],[-106.838594,44.992991],[-106.833464,44.992978],[-106.833476,44.989343]]]}},{"type":"Feature","properties":{"q":"SESE","ac":40.2},"geometry":{"type":"Polygon","coordinates":[[[-106.807887,44.981955],[-106.807912,44.985593],[-106.802814,44.985569],[-106.802775,44.981937],[-106.807887,44.981955]]]}},{"type":"Feature","properties":{"q":"NENW","ac":40.6},"geometry":{"type":"Polygon","coordinates":[[[-106.915705,44.963663],[-106.920853,44.963644],[-106.920847,44.967295],[-106.915704,44.967301],[-106.915705,44.963663]]]}},{"type":"Feature","properties":{"q":"SWNE","ac":40.6},"geometry":{"type":"Polygon","coordinates":[[[-106.869408,44.960076],[-106.874525,44.960114],[-106.874542,44.963771],[-106.869416,44.963741],[-106.869408,44.960076]]]}},{"type":"Feature","properties":{"q":"SWNE","ac":40.7},"geometry":{"type":"Polygon","coordinates":[[[-106.889953,44.993001],[-106.89,44.989365],[-106.895171,44.989346],[-106.895099,44.992988],[-106.889953,44.993001]]]}},{"type":"Feature","properties":{"q":"SWSE","ac":40.6},"geometry":{"type":"Polygon","coordinates":[[[-106.848906,44.982064],[-106.854035,44.982067],[-106.854019,44.985717],[-106.848887,44.985716],[-106.848906,44.982064]]]}},{"type":"Feature","properties":{"q":"SENE","ac":40.7},"geometry":{"type":"Polygon","coordinates":[[[-106.802775,44.974587],[-106.807888,44.974598],[-106.807887,44.978277],[-106.802775,44.978262],[-106.802775,44.974587]]]}},{"type":"Feature","properties":{"q":"NENE","ac":41.1},"geometry":{"type":"Polygon","coordinates":[[[-106.823221,44.982009],[-106.823223,44.97832],[-106.828364,44.978334],[-106.82836,44.982022],[-106.823221,44.982009]]]}},{"type":"Feature","properties":{"q":"NWSE","ac":40.8},"geometry":{"type":"Polygon","coordinates":[[[-106.889994,44.971094],[-106.895138,44.971059],[-106.895197,44.97471],[-106.890036,44.974748],[-106.889994,44.971094]]]}},{"type":"Feature","properties":{"q":"NWNE","ac":41.0},"geometry":{"type":"Polygon","coordinates":[[[-106.828364,44.978334],[-106.833504,44.978348],[-106.833499,44.982035],[-106.82836,44.982022],[-106.828364,44.978334]]]}},{"type":"Feature","properties":{"q":"NENW","ac":41.1},"geometry":{"type":"Polygon","coordinates":[[[-106.833518,44.967286],[-106.833486,44.963599],[-106.838633,44.963617],[-106.838661,44.967303],[-106.833518,44.967286]]]}},{"type":"Feature","properties":{"q":"NENW","ac":40.8},"geometry":{"type":"Polygon","coordinates":[[[-106.854039,44.963673],[-106.859165,44.963692],[-106.859169,44.967367],[-106.854048,44.967351],[-106.854039,44.963673]]]}},{"type":"Feature","properties":{"q":"NWNW","ac":41.0},"geometry":{"type":"Polygon","coordinates":[[[-106.838644,44.978362],[-106.843784,44.978376],[-106.843777,44.982061],[-106.838638,44.982048],[-106.838644,44.978362]]]}},{"type":"Feature","properties":{"q":"SESE","ac":40.6},"geometry":{"type":"Polygon","coordinates":[[[-106.843777,44.982061],[-106.848906,44.982064],[-106.848887,44.985716],[-106.843756,44.985714],[-106.843777,44.982061]]]}},{"type":"Feature","properties":{"q":"NWNW","ac":40.3},"geometry":{"type":"Polygon","coordinates":[[[-106.905332,44.967343],[-106.900205,44.967375],[-106.90017,44.963746],[-106.90531,44.963718],[-106.905332,44.967343]]]}},{"type":"Feature","properties":{"q":"1","ac":31.4},"geometry":{"type":"Polygon","coordinates":[[[-106.847999,44.995839],[-106.843716,44.995823],[-106.843723,44.993004],[-106.848855,44.993002],[-106.848845,44.995842],[-106.848509,44.995841],[-106.847999,44.995839]]]}},{"type":"Feature","properties":{"q":"SENE","ac":40.9},"geometry":{"type":"Polygon","coordinates":[[[-106.843784,44.978376],[-106.843791,44.97469],[-106.848916,44.9747],[-106.848911,44.978382],[-106.843784,44.978376]]]}},{"type":"Feature","properties":{"q":"NWNE","ac":41.0},"geometry":{"type":"Polygon","coordinates":[[[-106.890078,44.978401],[-106.895256,44.978361],[-106.895315,44.982012],[-106.89012,44.982055],[-106.890078,44.978401]]]}},{"type":"Feature","properties":{"q":"SENE","ac":40.6},"geometry":{"type":"Polygon","coordinates":[[[-106.884828,44.989383],[-106.89,44.989365],[-106.889953,44.993001],[-106.884804,44.993015],[-106.884828,44.989383]]]}},{"type":"Feature","properties":{"q":"NESE","ac":41.5},"geometry":{"type":"Polygon","coordinates":[[[-106.864248,44.989366],[-106.86427,44.98572],[-106.869493,44.985725],[-106.869536,44.989371],[-106.864248,44.989366]]]}},{"type":"Feature","properties":{"q":"NESE","ac":40.9},"geometry":{"type":"Polygon","coordinates":[[[-106.864291,44.971056],[-106.869431,44.971074],[-106.869437,44.974743],[-106.864292,44.974728],[-106.864291,44.971056]]]}},{"type":"Feature","properties":{"q":"SENW","ac":40.0},"geometry":{"type":"Polygon","coordinates":[[[-106.81302,44.989259],[-106.818111,44.989288],[-106.818114,44.992922],[-106.813031,44.992889],[-106.81302,44.989259]]]}},{"type":"Feature","properties":{"q":"SWNE","ac":40.5},"geometry":{"type":"Polygon","coordinates":[[[-106.807946,44.959881],[-106.813016,44.959878],[-106.813009,44.963562],[-106.807917,44.963561],[-106.807946,44.959881]]]}},{"type":"Feature","properties":{"q":"NWSW","ac":40.7},"geometry":{"type":"Polygon","coordinates":[[[-106.900282,44.971024],[-106.905425,44.970989],[-106.905519,44.974634],[-106.900358,44.974672],[-106.900282,44.971024]]]}},{"type":"Feature","properties":{"q":"NWSE","ac":41.1},"geometry":{"type":"Polygon","coordinates":[[[-106.82837,44.970958],[-106.833513,44.970974],[-106.833508,44.974661],[-106.828367,44.974646],[-106.82837,44.970958]]]}},{"type":"Feature","properties":{"q":"NWSW","ac":40.6},"geometry":{"type":"Polygon","coordinates":[[[-106.838622,44.985702],[-106.843756,44.985714],[-106.843734,44.989367],[-106.838605,44.989355],[-106.838622,44.985702]]]}},{"type":"Feature","properties":{"q":"NWSE","ac":40.1},"geometry":{"type":"Polygon","coordinates":[[[-106.807912,44.985593],[-106.813009,44.985616],[-106.81302,44.989259],[-106.807936,44.98923],[-106.807912,44.985593]]]}},{"type":"Feature","properties":{"q":"NENW","ac":40.6},"geometry":{"type":"Polygon","coordinates":[[[-106.874542,44.963771],[-106.879667,44.963801],[-106.879692,44.96745],[-106.874558,44.967428],[-106.874542,44.963771]]]}},{"type":"Feature","properties":{"q":"SWNW","ac":40.8},"geometry":{"type":"Polygon","coordinates":[[[-106.818113,44.97462],[-106.823226,44.974631],[-106.823223,44.97832],[-106.818111,44.978305],[-106.818113,44.97462]]]}},{"type":"Feature","properties":{"q":"SENE","ac":40.9},"geometry":{"type":"Polygon","coordinates":[[[-106.905289,44.960093],[-106.910497,44.96006],[-106.910508,44.963691],[-106.90531,44.963718],[-106.905289,44.960093]]]}},{"type":"Feature","properties":{"q":"NWSW","ac":40.8},"geometry":{"type":"Polygon","coordinates":[[[-106.818115,44.970934],[-106.823228,44.970942],[-106.823226,44.974631],[-106.818113,44.97462],[-106.818115,44.970934]]]}},{"type":"Feature","properties":{"q":"NWSE","ac":40.9},"geometry":{"type":"Polygon","coordinates":[[[-106.848916,44.9747],[-106.848921,44.971018],[-106.854044,44.971031],[-106.854041,44.97471],[-106.848916,44.9747]]]}},{"type":"Feature","properties":{"q":"NENE","ac":40.8},"geometry":{"type":"Polygon","coordinates":[[[-106.86429,44.96371],[-106.869416,44.963741],[-106.869424,44.967405],[-106.86429,44.967383],[-106.86429,44.96371]]]}},{"type":"Feature","properties":{"q":"1","ac":40.5},"geometry":{"type":"Polygon","coordinates":[[[-106.920853,44.963644],[-106.925959,44.963625],[-106.925953,44.96729],[-106.920847,44.967295],[-106.920853,44.963644]]]}},{"type":"Feature","properties":{"q":"SWSW","ac":40.4},"geometry":{"type":"Polygon","coordinates":[[[-106.81811,44.981991],[-106.823221,44.982009],[-106.823211,44.985663],[-106.81811,44.98564],[-106.81811,44.981991]]]}},{"type":"Feature","properties":{"q":"SWNE","ac":40.4},"geometry":{"type":"Polygon","coordinates":[[[-106.910636,44.974632],[-106.915753,44.974628],[-106.915777,44.978285],[-106.910695,44.978283],[-106.910636,44.974632]]]}},{"type":"Feature","properties":{"q":"NENW","ac":40.3},"geometry":{"type":"Polygon","coordinates":[[[-106.915777,44.978285],[-106.920883,44.978287],[-106.920874,44.981948],[-106.915801,44.981942],[-106.915777,44.978285]]]}},{"type":"Feature","properties":{"q":"SENW","ac":40.5},"geometry":{"type":"Polygon","coordinates":[[[-106.874525,44.960114],[-106.879643,44.960151],[-106.879667,44.963801],[-106.874542,44.963771],[-106.874525,44.960114]]]}},{"type":"Feature","properties":{"q":"SESW","ac":40.6},"geometry":{"type":"Polygon","coordinates":[[[-106.833499,44.982035],[-106.838638,44.982048],[-106.838622,44.985702],[-106.833488,44.985689],[-106.833499,44.982035]]]}},{"type":"Feature","properties":{"q":"SESE","ac":40.9},"geometry":{"type":"Polygon","coordinates":[[[-106.905332,44.967343],[-106.910518,44.967322],[-106.910577,44.970977],[-106.905425,44.970989],[-106.905332,44.967343]]]}},{"type":"Feature","properties":{"q":"NESW","ac":40.8},"geometry":{"type":"Polygon","coordinates":[[[-106.859168,44.971043],[-106.859167,44.974719],[-106.854041,44.97471],[-106.854044,44.971031],[-106.859168,44.971043]]]}},{"type":"Feature","properties":{"q":"2","ac":32.7},"geometry":{"type":"Polygon","coordinates":[[[-106.874932,44.993007],[-106.875019,44.995936],[-106.873912,44.995932],[-106.869879,44.995917],[-106.869726,44.993003],[-106.874932,44.993007]]]}},{"type":"Feature","properties":{"q":"SENE","ac":40.7},"geometry":{"type":"Polygon","coordinates":[[[-106.864291,44.960038],[-106.869408,44.960076],[-106.869416,44.963741],[-106.86429,44.96371],[-106.864291,44.960038]]]}},{"type":"Feature","properties":{"q":"SWNE","ac":39.9},"geometry":{"type":"Polygon","coordinates":[[[-106.81302,44.989259],[-106.813031,44.992889],[-106.807951,44.992858],[-106.807936,44.98923],[-106.81302,44.989259]]]}},{"type":"Feature","properties":{"q":"NWSW","ac":40.6},"geometry":{"type":"Polygon","coordinates":[[[-106.905265,44.989309],[-106.900218,44.989327],[-106.900364,44.985648],[-106.905485,44.985617],[-106.905265,44.989309]]]}},{"type":"Feature","properties":{"q":"SESE","ac":40.7},"geometry":{"type":"Polygon","coordinates":[[[-106.828349,44.985676],[-106.823211,44.985663],[-106.823221,44.982009],[-106.82836,44.982022],[-106.828349,44.985676]]]}},{"type":"Feature","properties":{"q":"NWNE","ac":40.9},"geometry":{"type":"Polygon","coordinates":[[[-106.910508,44.963691],[-106.915705,44.963663],[-106.915704,44.967301],[-106.910518,44.967322],[-106.910508,44.963691]]]}},{"type":"Feature","properties":{"q":"SWSW","ac":40.8},"geometry":{"type":"Polygon","coordinates":[[[-106.86429,44.967383],[-106.864291,44.971056],[-106.859168,44.971043],[-106.859169,44.967367],[-106.86429,44.967383]]]}},{"type":"Feature","properties":{"q":"NESW","ac":40.5},"geometry":{"type":"Polygon","coordinates":[[[-106.854003,44.989367],[-106.854019,44.985717],[-106.859145,44.985719],[-106.859125,44.989366],[-106.854003,44.989367]]]}},{"type":"Feature","properties":{"q":"NWSW","ac":40.3},"geometry":{"type":"Polygon","coordinates":[[[-106.823211,44.985663],[-106.823202,44.989317],[-106.818111,44.989288],[-106.81811,44.98564],[-106.823211,44.985663]]]}},{"type":"Feature","properties":{"q":"SENW","ac":40.8},"geometry":{"type":"Polygon","coordinates":[[[-106.854041,44.97471],[-106.859167,44.974719],[-106.859165,44.978395],[-106.854038,44.978389],[-106.854041,44.97471]]]}},{"type":"Feature","properties":{"q":"NESE","ac":40.7},"geometry":{"type":"Polygon","coordinates":[[[-106.802775,44.970912],[-106.807888,44.97092],[-106.807888,44.974598],[-106.802775,44.974587],[-106.802775,44.970912]]]}},{"type":"Feature","properties":{"q":"NENW","ac":40.4},"geometry":{"type":"Polygon","coordinates":[[[-106.90017,44.963746],[-106.900205,44.967375],[-106.895079,44.967408],[-106.89503,44.963775],[-106.90017,44.963746]]]}},{"type":"Feature","properties":{"q":"NESW","ac":40.2},"geometry":{"type":"Polygon","coordinates":[[[-106.818111,44.989288],[-106.81302,44.989259],[-106.813009,44.985616],[-106.81811,44.98564],[-106.818111,44.989288]]]}},{"type":"Feature","properties":{"q":"SWNE","ac":40.4},"geometry":{"type":"Polygon","coordinates":[[[-106.848868,44.989367],[-106.854003,44.989367],[-106.853987,44.993],[-106.848855,44.993002],[-106.848868,44.989367]]]}},{"type":"Feature","properties":{"q":"1","ac":35.1},"geometry":{"type":"Polygon","coordinates":[[[-106.869879,44.995917],[-106.868729,44.995913],[-106.864229,44.995897],[-106.864236,44.992998],[-106.869726,44.993003],[-106.869879,44.995917]]]}},{"type":"Feature","properties":{"q":"NWNE","ac":40.7},"geometry":{"type":"Polygon","coordinates":[[[-106.812999,44.978291],[-106.812998,44.981973],[-106.807887,44.981955],[-106.807887,44.978277],[-106.812999,44.978291]]]}},{"type":"Feature","properties":{"q":"NWNE","ac":40.1},"geometry":{"type":"Polygon","coordinates":[[[-106.910695,44.978283],[-106.915777,44.978285],[-106.915801,44.981942],[-106.910753,44.981934],[-106.910695,44.978283]]]}},{"type":"Feature","properties":{"q":"4","ac":30.1},"geometry":{"type":"Polygon","coordinates":[[[-106.884804,44.993015],[-106.884788,44.99597],[-106.884279,44.995969],[-106.882181,44.995961],[-106.880159,44.995954],[-106.88001,44.993011],[-106.884804,44.993015]]]}},{"type":"Feature","properties":{"q":"NWNE","ac":40.9},"geometry":{"type":"Polygon","coordinates":[[[-106.854048,44.967351],[-106.848926,44.967336],[-106.848909,44.963654],[-106.854039,44.963673],[-106.854048,44.967351]]]}},{"type":"Feature","properties":{"q":"NWNE","ac":40.7},"geometry":{"type":"Polygon","coordinates":[[[-106.807917,44.963561],[-106.813009,44.963562],[-106.813003,44.967245],[-106.807889,44.967241],[-106.807917,44.963561]]]}},{"type":"Feature","properties":{"q":"SWNE","ac":41.0},"geometry":{"type":"Polygon","coordinates":[[[-106.910497,44.96006],[-106.915706,44.960026],[-106.915705,44.963663],[-106.910508,44.963691],[-106.910497,44.96006]]]}},{"type":"Feature","properties":{"q":"SESE","ac":41.1},"geometry":{"type":"Polygon","coordinates":[[[-106.82323,44.967253],[-106.828374,44.967269],[-106.82837,44.970958],[-106.823228,44.970942],[-106.82323,44.967253]]]}},{"type":"Feature","properties":{"q":"SWNE","ac":41.3},"geometry":{"type":"Polygon","coordinates":[[[-106.874824,44.989375],[-106.874932,44.993007],[-106.869726,44.993003],[-106.869536,44.989371],[-106.874824,44.989375]]]}},{"type":"Feature","properties":{"q":"SENW","ac":40.6},"geometry":{"type":"Polygon","coordinates":[[[-106.915653,44.989294],[-106.920802,44.989287],[-106.920708,44.992942],[-106.915579,44.992943],[-106.915653,44.989294]]]}},{"type":"Feature","properties":{"q":"NWSW","ac":41.1},"geometry":{"type":"Polygon","coordinates":[[[-106.838656,44.970989],[-106.843798,44.971005],[-106.843791,44.97469],[-106.83865,44.974676],[-106.838656,44.970989]]]}},{"type":"Feature","properties":{"q":"4","ac":31.3},"geometry":{"type":"Polygon","coordinates":[[[-106.843723,44.993004],[-106.843716,44.995823],[-106.842816,44.99582],[-106.840862,44.995812],[-106.838586,44.995804],[-106.838594,44.992991],[-106.843723,44.993004]]]}},{"type":"Feature","properties":{"q":"NESE","ac":40.7},"geometry":{"type":"Polygon","coordinates":[[[-106.823211,44.985663],[-106.828349,44.985676],[-106.828339,44.98933],[-106.823202,44.989317],[-106.823211,44.985663]]]}},{"type":"Feature","properties":{"q":"NENE","ac":41.0},"geometry":{"type":"Polygon","coordinates":[[[-106.864292,44.978401],[-106.869444,44.978412],[-106.869451,44.98208],[-106.864293,44.982074],[-106.864292,44.978401]]]}},{"type":"Feature","properties":{"q":"2","ac":31.1},"geometry":{"type":"Polygon","coordinates":[[[-106.811718,44.995707],[-106.807962,44.995693],[-106.807951,44.992858],[-106.813031,44.992889],[-106.813039,44.995711],[-106.811718,44.995707]]]}},{"type":"Feature","properties":{"q":"NENE","ac":40.9},"geometry":{"type":"Polygon","coordinates":[[[-106.848909,44.963654],[-106.848926,44.967336],[-106.843805,44.96732],[-106.843779,44.963635],[-106.848909,44.963654]]]}},{"type":"Feature","properties":{"q":"2","ac":40.8},"geometry":{"type":"Polygon","coordinates":[[[-106.920892,44.974625],[-106.926035,44.974622],[-106.926013,44.978288],[-106.920883,44.978287],[-106.920892,44.974625]]]}},{"type":"Feature","properties":{"q":"NESE","ac":41.2},"geometry":{"type":"Polygon","coordinates":[[[-106.910459,44.989302],[-106.905265,44.989309],[-106.905485,44.985617],[-106.910606,44.985618],[-106.910459,44.989302]]]}},{"type":"Feature","properties":{"q":"NESW","ac":40.6},"geometry":{"type":"Polygon","coordinates":[[[-106.838622,44.985702],[-106.838605,44.989355],[-106.833476,44.989343],[-106.833488,44.985689],[-106.838622,44.985702]]]}},{"type":"Feature","properties":{"q":"SESE","ac":40.9},"geometry":{"type":"Polygon","coordinates":[[[-106.864291,44.971056],[-106.86429,44.967383],[-106.869424,44.967405],[-106.869431,44.971074],[-106.864291,44.971056]]]}},{"type":"Feature","properties":{"q":"NENE","ac":41.1},"geometry":{"type":"Polygon","coordinates":[[[-106.823193,44.963563],[-106.828339,44.963581],[-106.828374,44.967269],[-106.82323,44.967253],[-106.823193,44.963563]]]}},{"type":"Feature","properties":{"q":"SESW","ac":40.8},"geometry":{"type":"Polygon","coordinates":[[[-106.813003,44.967245],[-106.818116,44.967249],[-106.818115,44.970934],[-106.813001,44.970927],[-106.813003,44.967245]]]}},{"type":"Feature","properties":{"q":"NENE","ac":40.9},"geometry":{"type":"Polygon","coordinates":[[[-106.843784,44.978376],[-106.848911,44.978382],[-106.848906,44.982064],[-106.843777,44.982061],[-106.843784,44.978376]]]}},{"type":"Feature","properties":{"q":"SWSW","ac":40.7},"geometry":{"type":"Polygon","coordinates":[[[-106.87971,44.971111],[-106.879692,44.96745],[-106.884826,44.967473],[-106.88485,44.971129],[-106.87971,44.971111]]]}},{"type":"Feature","properties":{"q":"SENW","ac":39.6},"geometry":{"type":"Polygon","coordinates":[[[-106.874824,44.989375],[-106.879826,44.989379],[-106.88001,44.993011],[-106.874932,44.993007],[-106.874824,44.989375]]]}},{"type":"Feature","properties":{"q":"SWSW","ac":40.8},"geometry":{"type":"Polygon","coordinates":[[[-106.818116,44.967249],[-106.82323,44.967253],[-106.823228,44.970942],[-106.818115,44.970934],[-106.818116,44.967249]]]}},{"type":"Feature","properties":{"q":"SESW","ac":40.4},"geometry":{"type":"Polygon","coordinates":[[[-106.879767,44.982092],[-106.879796,44.985736],[-106.874717,44.985731],[-106.874609,44.982086],[-106.879767,44.982092]]]}},{"type":"Feature","properties":{"q":"SWNW","ac":40.6},"geometry":{"type":"Polygon","coordinates":[[[-106.818086,44.959876],[-106.823156,44.959873],[-106.823193,44.963563],[-106.818101,44.963562],[-106.818086,44.959876]]]}},{"type":"Feature","properties":{"q":"4","ac":40.6},"geometry":{"type":"Polygon","coordinates":[[[-106.925953,44.96729],[-106.925994,44.970956],[-106.920869,44.97096],[-106.920847,44.967295],[-106.925953,44.96729]]]}},{"type":"Feature","properties":{"q":"2","ac":40.5},"geometry":{"type":"Polygon","coordinates":[[[-106.920858,44.959992],[-106.925965,44.959959],[-106.925959,44.963625],[-106.920853,44.963644],[-106.920858,44.959992]]]}},{"type":"Feature","properties":{"q":"SWNW","ac":40.8},"geometry":{"type":"Polygon","coordinates":[[[-106.859165,44.963692],[-106.85916,44.960016],[-106.864291,44.960038],[-106.86429,44.96371],[-106.859165,44.963692]]]}},{"type":"Feature","properties":{"q":"6","ac":40.8},"geometry":{"type":"Polygon","coordinates":[[[-106.920838,44.985617],[-106.925971,44.985616],[-106.925951,44.989279],[-106.920802,44.989287],[-106.920838,44.985617]]]}},{"type":"Feature","properties":{"q":"NWNW","ac":40.8},"geometry":{"type":"Polygon","coordinates":[[[-106.818101,44.963562],[-106.823193,44.963563],[-106.82323,44.967253],[-106.818116,44.967249],[-106.818101,44.963562]]]}},{"type":"Feature","properties":{"q":"NWSE","ac":41.1},"geometry":{"type":"Polygon","coordinates":[[[-106.910606,44.985618],[-106.915727,44.985618],[-106.915653,44.989294],[-106.910459,44.989302],[-106.910606,44.985618]]]}},{"type":"Feature","properties":{"q":"SENW","ac":40.0},"geometry":{"type":"Polygon","coordinates":[[[-106.895171,44.989346],[-106.900218,44.989327],[-106.90019,44.992976],[-106.895099,44.992988],[-106.895171,44.989346]]]}},{"type":"Feature","properties":{"q":"SWSE","ac":40.2},"geometry":{"type":"Polygon","coordinates":[[[-106.807887,44.981955],[-106.812998,44.981973],[-106.813009,44.985616],[-106.807912,44.985593],[-106.807887,44.981955]]]}},{"type":"Feature","properties":{"q":"SWNW","ac":40.8},"geometry":{"type":"Polygon","coordinates":[[[-106.884875,44.974785],[-106.8849,44.978442],[-106.879748,44.978432],[-106.879729,44.974771],[-106.884875,44.974785]]]}},{"type":"Feature","properties":{"q":"NENW","ac":40.8},"geometry":{"type":"Polygon","coordinates":[[[-106.81811,44.981991],[-106.812998,44.981973],[-106.812999,44.978291],[-106.818111,44.978305],[-106.81811,44.981991]]]}},{"type":"Feature","properties":{"q":"NENW","ac":40.7},"geometry":{"type":"Polygon","coordinates":[[[-106.818101,44.963562],[-106.818116,44.967249],[-106.813003,44.967245],[-106.813009,44.963562],[-106.818101,44.963562]]]}},{"type":"Feature","properties":{"q":"NESE","ac":40.8},"geometry":{"type":"Polygon","coordinates":[[[-106.889994,44.971094],[-106.890036,44.974748],[-106.884875,44.974785],[-106.88485,44.971129],[-106.889994,44.971094]]]}},{"type":"Feature","properties":{"q":"SENW","ac":40.6},"geometry":{"type":"Polygon","coordinates":[[[-106.813016,44.959878],[-106.818086,44.959876],[-106.818101,44.963562],[-106.813009,44.963562],[-106.813016,44.959878]]]}},{"type":"Feature","properties":{"q":"SWNE","ac":40.9},"geometry":{"type":"Polygon","coordinates":[[[-106.85403,44.959994],[-106.854039,44.963673],[-106.848909,44.963654],[-106.848892,44.959972],[-106.85403,44.959994]]]}},{"type":"Feature","properties":{"q":"3","ac":31.2},"geometry":{"type":"Polygon","coordinates":[[[-106.833464,44.992978],[-106.838594,44.992991],[-106.838586,44.995804],[-106.837632,44.995801],[-106.833455,44.995785],[-106.833464,44.992978]]]}},{"type":"Feature","properties":{"q":"3","ac":32.5},"geometry":{"type":"Polygon","coordinates":[[[-106.874932,44.993007],[-106.88001,44.993011],[-106.880159,44.995954],[-106.879096,44.99595],[-106.875019,44.995936],[-106.874932,44.993007]]]}},{"type":"Feature","properties":{"q":"NWNE","ac":40.3},"geometry":{"type":"Polygon","coordinates":[[[-106.889911,44.963803],[-106.89503,44.963775],[-106.895079,44.967408],[-106.889952,44.96744],[-106.889911,44.963803]]]}},{"type":"Feature","properties":{"q":"SENW","ac":40.8},"geometry":{"type":"Polygon","coordinates":[[[-106.818113,44.97462],[-106.818111,44.978305],[-106.812999,44.978291],[-106.813,44.974609],[-106.818113,44.97462]]]}},{"type":"Feature","properties":{"q":"SWNW","ac":40.3},"geometry":{"type":"Polygon","coordinates":[[[-106.859125,44.989366],[-106.864248,44.989366],[-106.864236,44.992998],[-106.859113,44.992999],[-106.859125,44.989366]]]}},{"type":"Feature","properties":{"q":"SWNW","ac":41.1},"geometry":{"type":"Polygon","coordinates":[[[-106.838604,44.959931],[-106.843754,44.95995],[-106.843779,44.963635],[-106.838633,44.963617],[-106.838604,44.959931]]]}},{"type":"Feature","properties":{"q":"NWNW","ac":40.8},"geometry":{"type":"Polygon","coordinates":[[[-106.879748,44.978432],[-106.8849,44.978442],[-106.884924,44.982098],[-106.879767,44.982092],[-106.879748,44.978432]]]}},{"type":"Feature","properties":{"q":"NWNW","ac":41.0},"geometry":{"type":"Polygon","coordinates":[[[-106.905612,44.97828],[-106.905706,44.981926],[-106.900511,44.981969],[-106.900434,44.978321],[-106.905612,44.97828]]]}},{"type":"Feature","properties":{"q":"SWSE","ac":40.8},"geometry":{"type":"Polygon","coordinates":[[[-106.848926,44.967336],[-106.854048,44.967351],[-106.854044,44.971031],[-106.848921,44.971018],[-106.848926,44.967336]]]}},{"type":"Feature","properties":{"q":"NWSE","ac":40.7},"geometry":{"type":"Polygon","coordinates":[[[-106.828339,44.98933],[-106.828349,44.985676],[-106.833488,44.985689],[-106.833476,44.989343],[-106.828339,44.98933]]]}},{"type":"Feature","properties":{"q":"SESE","ac":41.0},"geometry":{"type":"Polygon","coordinates":[[[-106.86427,44.98572],[-106.864293,44.982074],[-106.869451,44.98208],[-106.869493,44.985725],[-106.86427,44.98572]]]}},{"type":"Feature","properties":{"q":"SESE","ac":40.7},"geometry":{"type":"Polygon","coordinates":[[[-106.884826,44.967473],[-106.889952,44.96744],[-106.889994,44.971094],[-106.88485,44.971129],[-106.884826,44.967473]]]}},{"type":"Feature","properties":{"q":"SENW","ac":41.1},"geometry":{"type":"Polygon","coordinates":[[[-106.83865,44.974676],[-106.838644,44.978362],[-106.833504,44.978348],[-106.833508,44.974661],[-106.83865,44.974676]]]}},{"type":"Feature","properties":{"q":"SWNE","ac":40.9},"geometry":{"type":"Polygon","coordinates":[[[-106.910459,44.989302],[-106.915653,44.989294],[-106.915579,44.992943],[-106.910429,44.992954],[-106.910459,44.989302]]]}},{"type":"Feature","properties":{"q":"NESW","ac":40.4},"geometry":{"type":"Polygon","coordinates":[[[-106.900364,44.985648],[-106.900218,44.989327],[-106.895171,44.989346],[-106.895243,44.985679],[-106.900364,44.985648]]]}},{"type":"Feature","properties":{"q":"SENE","ac":40.4},"geometry":{"type":"Polygon","coordinates":[[[-106.843734,44.989367],[-106.848868,44.989367],[-106.848855,44.993002],[-106.843723,44.993004],[-106.843734,44.989367]]]}},{"type":"Feature","properties":{"q":"SESW","ac":40.6},"geometry":{"type":"Polygon","coordinates":[[[-106.900205,44.967375],[-106.900282,44.971024],[-106.895138,44.971059],[-106.895079,44.967408],[-106.900205,44.967375]]]}},{"type":"Feature","properties":{"q":"SWNW","ac":40.4},"geometry":{"type":"Polygon","coordinates":[[[-106.900135,44.960117],[-106.905289,44.960093],[-106.90531,44.963718],[-106.90017,44.963746],[-106.900135,44.960117]]]}},{"type":"Feature","properties":{"q":"SENE","ac":40.5},"geometry":{"type":"Polygon","coordinates":[[[-106.802876,44.959883],[-106.807946,44.959881],[-106.807917,44.963561],[-106.802826,44.96356],[-106.802876,44.959883]]]}},{"type":"Feature","properties":{"q":"SENE","ac":39.9},"geometry":{"type":"Polygon","coordinates":[[[-106.802853,44.989201],[-106.807936,44.98923],[-106.807951,44.992858],[-106.802872,44.992826],[-106.802853,44.989201]]]}},{"type":"Feature","properties":{"q":"SESW","ac":41.0},"geometry":{"type":"Polygon","coordinates":[[[-106.895315,44.982012],[-106.900511,44.981969],[-106.900364,44.985648],[-106.895243,44.985679],[-106.895315,44.982012]]]}},{"type":"Feature","properties":{"q":"SWNE","ac":40.4},"geometry":{"type":"Polygon","coordinates":[[[-106.828339,44.98933],[-106.833476,44.989343],[-106.833464,44.992978],[-106.828331,44.992966],[-106.828339,44.98933]]]}},{"type":"Feature","properties":{"q":"SWNE","ac":40.3},"geometry":{"type":"Polygon","coordinates":[[[-106.894981,44.960141],[-106.89503,44.963775],[-106.889911,44.963803],[-106.88987,44.960165],[-106.894981,44.960141]]]}},{"type":"Feature","properties":{"q":"NENE","ac":40.8},"geometry":{"type":"Polygon","coordinates":[[[-106.90531,44.963718],[-106.910508,44.963691],[-106.910518,44.967322],[-106.905332,44.967343],[-106.90531,44.963718]]]}},{"type":"Feature","properties":{"q":"NWSE","ac":41.0},"geometry":{"type":"Polygon","coordinates":[[[-106.89006,44.98571],[-106.895243,44.985679],[-106.895171,44.989346],[-106.89,44.989365],[-106.89006,44.98571]]]}},{"type":"Feature","properties":{"q":"SESW","ac":40.5},"geometry":{"type":"Polygon","coordinates":[[[-106.920838,44.985617],[-106.915727,44.985618],[-106.915801,44.981942],[-106.920874,44.981948],[-106.920838,44.985617]]]}},{"type":"Feature","properties":{"q":"SENW","ac":40.6},"geometry":{"type":"Polygon","coordinates":[[[-106.915753,44.974628],[-106.920892,44.974625],[-106.920883,44.978287],[-106.915777,44.978285],[-106.915753,44.974628]]]}},{"type":"Feature","properties":{"q":"SWNE","ac":41.1},"geometry":{"type":"Polygon","coordinates":[[[-106.828367,44.974646],[-106.833508,44.974661],[-106.833504,44.978348],[-106.828364,44.978334],[-106.828367,44.974646]]]}},{"type":"Feature","properties":{"q":"3","ac":40.8},"geometry":{"type":"Polygon","coordinates":[[[-106.926035,44.974622],[-106.920892,44.974625],[-106.920869,44.97096],[-106.925994,44.970956],[-106.926035,44.974622]]]}},{"type":"Feature","properties":{"q":"SWSW","ac":40.5},"geometry":{"type":"Polygon","coordinates":[[[-106.859164,44.982071],[-106.864293,44.982074],[-106.86427,44.98572],[-106.859145,44.985719],[-106.859164,44.982071]]]}},{"type":"Feature","properties":{"q":"SWSW","ac":40.6},"geometry":{"type":"Polygon","coordinates":[[[-106.900205,44.967375],[-106.905332,44.967343],[-106.905425,44.970989],[-106.900282,44.971024],[-106.900205,44.967375]]]}},{"type":"Feature","properties":{"q":"NESW","ac":40.8},"geometry":{"type":"Polygon","coordinates":[[[-106.818115,44.970934],[-106.818113,44.97462],[-106.813,44.974609],[-106.813001,44.970927],[-106.818115,44.970934]]]}},{"type":"Feature","properties":{"q":"NESW","ac":40.8},"geometry":{"type":"Polygon","coordinates":[[[-106.874571,44.971093],[-106.87971,44.971111],[-106.879729,44.974771],[-106.874583,44.974757],[-106.874571,44.971093]]]}},{"type":"Feature","properties":{"q":"SESW","ac":40.8},"geometry":{"type":"Polygon","coordinates":[[[-106.915704,44.967301],[-106.920847,44.967295],[-106.920869,44.97096],[-106.915729,44.970965],[-106.915704,44.967301]]]}},{"type":"Feature","properties":{"q":"NENE","ac":40.4},"geometry":{"type":"Polygon","coordinates":[[[-106.889911,44.963803],[-106.889952,44.96744],[-106.884826,44.967473],[-106.884793,44.963831],[-106.889911,44.963803]]]}},{"type":"Feature","properties":{"q":"SESE","ac":41.0},"geometry":{"type":"Polygon","coordinates":[[[-106.884924,44.982098],[-106.89012,44.982055],[-106.89006,44.98571],[-106.884876,44.985741],[-106.884924,44.982098]]]}},{"type":"Feature","properties":{"q":"SWSE","ac":41.1},"geometry":{"type":"Polygon","coordinates":[[[-106.82837,44.970958],[-106.828374,44.967269],[-106.833518,44.967286],[-106.833513,44.970974],[-106.82837,44.970958]]]}},{"type":"Feature","properties":{"q":"1","ac":34.4},"geometry":{"type":"Polygon","coordinates":[[[-106.910403,44.996064],[-106.909702,44.996062],[-106.905291,44.996045],[-106.90528,44.992964],[-106.910429,44.992954],[-106.910403,44.996064]]]}},{"type":"Feature","properties":{"q":"NWSE","ac":40.6},"geometry":{"type":"Polygon","coordinates":[[[-106.848887,44.985716],[-106.854019,44.985717],[-106.854003,44.989367],[-106.848868,44.989367],[-106.848887,44.985716]]]}},{"type":"Feature","properties":{"q":"3","ac":33.6},"geometry":{"type":"Polygon","coordinates":[[[-106.899414,44.996024],[-106.89504,44.996008],[-106.895099,44.992988],[-106.90019,44.992976],[-106.900166,44.996027],[-106.899414,44.996024]]]}},{"type":"Feature","properties":{"q":"SESW","ac":41.1},"geometry":{"type":"Polygon","coordinates":[[[-106.833518,44.967286],[-106.838661,44.967303],[-106.838656,44.970989],[-106.833513,44.970974],[-106.833518,44.967286]]]}},{"type":"Feature","properties":{"q":"SENE","ac":41.0},"geometry":{"type":"Polygon","coordinates":[[[-106.843754,44.95995],[-106.848892,44.959972],[-106.848909,44.963654],[-106.843779,44.963635],[-106.843754,44.95995]]]}},{"type":"Feature","properties":{"q":"SESE","ac":40.7},"geometry":{"type":"Polygon","coordinates":[[[-106.802775,44.967237],[-106.807889,44.967241],[-106.807888,44.97092],[-106.802775,44.970912],[-106.802775,44.967237]]]}}]}